{"1700":{"zip_code":"7391700","prefecture":"広島県","prefecture_kana":"ヒロシマケン","city":"広島市安佐北区","city_kana":"ヒロシマシアサキタク","town":"","town_kana":"","prefecture_code":34},"1754":{"zip_code":"7391754","prefecture":"広島県","prefecture_kana":"ヒロシマケン","city":"広島市安佐北区","city_kana":"ヒロシマシアサキタク","town":"小河原町","town_kana":"オガワラチョウ","prefecture_code":34},"1731":{"zip_code":"7391731","prefecture":"広島県","prefecture_kana":"ヒロシマケン","city":"広島市安佐北区","city_kana":"ヒロシマシアサキタク","town":"落合","town_kana":"オチアイ","prefecture_code":34},"1732":[{"zip_code":"7391732","prefecture":"広島県","prefecture_kana":"ヒロシマケン","city":"広島市安佐北区","city_kana":"ヒロシマシアサキタク","town":"落合南","town_kana":"オチアイミナミ","prefecture_code":34},{"zip_code":"7391732","prefecture":"広島県","prefecture_kana":"ヒロシマケン","city":"広島市安佐北区","city_kana":"ヒロシマシアサキタク","town":"落合南町","town_kana":"オチアイミナミマチ","prefecture_code":34}],"1752":{"zip_code":"7391752","prefecture":"広島県","prefecture_kana":"ヒロシマケン","city":"広島市安佐北区","city_kana":"ヒロシマシアサキタク","town":"上深川町","town_kana":"カミフカワチョウ","prefecture_code":34},"1742":{"zip_code":"7391742","prefecture":"広島県","prefecture_kana":"ヒロシマケン","city":"広島市安佐北区","city_kana":"ヒロシマシアサキタク","town":"亀崎","town_kana":"カメザキ","prefecture_code":34},"1753":{"zip_code":"7391753","prefecture":"広島県","prefecture_kana":"ヒロシマケン","city":"広島市安佐北区","city_kana":"ヒロシマシアサキタク","town":"狩留家町","town_kana":"カルガチョウ","prefecture_code":34},"1734":[{"zip_code":"7391734","prefecture":"広島県","prefecture_kana":"ヒロシマケン","city":"広島市安佐北区","city_kana":"ヒロシマシアサキタク","town":"口田","town_kana":"クチタ","prefecture_code":34},{"zip_code":"7391734","prefecture":"広島県","prefecture_kana":"ヒロシマケン","city":"広島市安佐北区","city_kana":"ヒロシマシアサキタク","town":"口田町","town_kana":"クチタチョウ","prefecture_code":34}],"1733":[{"zip_code":"7391733","prefecture":"広島県","prefecture_kana":"ヒロシマケン","city":"広島市安佐北区","city_kana":"ヒロシマシアサキタク","town":"口田南","town_kana":"クチタミナミ","prefecture_code":34},{"zip_code":"7391733","prefecture":"広島県","prefecture_kana":"ヒロシマケン","city":"広島市安佐北区","city_kana":"ヒロシマシアサキタク","town":"口田南町","town_kana":"クチタミナミマチ","prefecture_code":34}],"1743":{"zip_code":"7391743","prefecture":"広島県","prefecture_kana":"ヒロシマケン","city":"広島市安佐北区","city_kana":"ヒロシマシアサキタク","town":"倉掛","town_kana":"クラカケ","prefecture_code":34},"1414":{"zip_code":"7391414","prefecture":"広島県","prefecture_kana":"ヒロシマケン","city":"広島市安佐北区","city_kana":"ヒロシマシアサキタク","town":"白木町秋山","town_kana":"シラキチョウアキヤマ","prefecture_code":34},"1413":{"zip_code":"7391413","prefecture":"広島県","prefecture_kana":"ヒロシマケン","city":"広島市安佐北区","city_kana":"ヒロシマシアサキタク","town":"白木町有留","town_kana":"シラキチョウアリドメ","prefecture_code":34},"1411":{"zip_code":"7391411","prefecture":"広島県","prefecture_kana":"ヒロシマケン","city":"広島市安佐北区","city_kana":"ヒロシマシアサキタク","town":"白木町市川","town_kana":"シラキチョウイチカワ","prefecture_code":34},"1301":{"zip_code":"7391301","prefecture":"広島県","prefecture_kana":"ヒロシマケン","city":"広島市安佐北区","city_kana":"ヒロシマシアサキタク","town":"白木町井原","town_kana":"シラキチョウイバラ","prefecture_code":34},"1412":{"zip_code":"7391412","prefecture":"広島県","prefecture_kana":"ヒロシマケン","city":"広島市安佐北区","city_kana":"ヒロシマシアサキタク","town":"白木町小越","town_kana":"シラキチョウオコエ","prefecture_code":34},"1302":{"zip_code":"7391302","prefecture":"広島県","prefecture_kana":"ヒロシマケン","city":"広島市安佐北区","city_kana":"ヒロシマシアサキタク","town":"白木町古屋","town_kana":"シラキチョウコヤ","prefecture_code":34},"1303":{"zip_code":"7391303","prefecture":"広島県","prefecture_kana":"ヒロシマケン","city":"広島市安佐北区","city_kana":"ヒロシマシアサキタク","town":"白木町志路","town_kana":"シラキチョウシジ","prefecture_code":34},"1521":{"zip_code":"7391521","prefecture":"広島県","prefecture_kana":"ヒロシマケン","city":"広島市安佐北区","city_kana":"ヒロシマシアサキタク","town":"白木町三田","town_kana":"シラキチョウミタ","prefecture_code":34},"1751":[{"zip_code":"7391751","prefecture":"広島県","prefecture_kana":"ヒロシマケン","city":"広島市安佐北区","city_kana":"ヒロシマシアサキタク","town":"深川","town_kana":"フカワ","prefecture_code":34},{"zip_code":"7391751","prefecture":"広島県","prefecture_kana":"ヒロシマケン","city":"広島市安佐北区","city_kana":"ヒロシマシアサキタク","town":"深川町","town_kana":"フカワチョウ","prefecture_code":34}],"1741":{"zip_code":"7391741","prefecture":"広島県","prefecture_kana":"ヒロシマケン","city":"広島市安佐北区","city_kana":"ヒロシマシアサキタク","town":"真亀","town_kana":"マガメ","prefecture_code":34},"0301":{"zip_code":"7390301","prefecture":"広島県","prefecture_kana":"ヒロシマケン","city":"広島市安芸区","city_kana":"ヒロシマシアキク","town":"上瀬野","town_kana":"カミセノ","prefecture_code":34},"0302":{"zip_code":"7390302","prefecture":"広島県","prefecture_kana":"ヒロシマケン","city":"広島市安芸区","city_kana":"ヒロシマシアキク","town":"上瀬野町","town_kana":"カミセノチョウ","prefecture_code":34},"0303":{"zip_code":"7390303","prefecture":"広島県","prefecture_kana":"ヒロシマケン","city":"広島市安芸区","city_kana":"ヒロシマシアキク","town":"上瀬野南","town_kana":"カミセノミナミ","prefecture_code":34},"0311":{"zip_code":"7390311","prefecture":"広島県","prefecture_kana":"ヒロシマケン","city":"広島市安芸区","city_kana":"ヒロシマシアキク","town":"瀬野","town_kana":"セノ","prefecture_code":34},"0312":{"zip_code":"7390312","prefecture":"広島県","prefecture_kana":"ヒロシマケン","city":"広島市安芸区","city_kana":"ヒロシマシアキク","town":"瀬野町","town_kana":"セノチョウ","prefecture_code":34},"0315":{"zip_code":"7390315","prefecture":"広島県","prefecture_kana":"ヒロシマケン","city":"広島市安芸区","city_kana":"ヒロシマシアキク","town":"瀬野南町","town_kana":"セノミナミマチ","prefecture_code":34},"0313":{"zip_code":"7390313","prefecture":"広島県","prefecture_kana":"ヒロシマケン","city":"広島市安芸区","city_kana":"ヒロシマシアキク","town":"瀬野西","town_kana":"セノニシ","prefecture_code":34},"0314":{"zip_code":"7390314","prefecture":"広島県","prefecture_kana":"ヒロシマケン","city":"広島市安芸区","city_kana":"ヒロシマシアキク","town":"瀬野南","town_kana":"セノミナミ","prefecture_code":34},"0321":{"zip_code":"7390321","prefecture":"広島県","prefecture_kana":"ヒロシマケン","city":"広島市安芸区","city_kana":"ヒロシマシアキク","town":"中野","town_kana":"ナカノ","prefecture_code":34},"0322":{"zip_code":"7390322","prefecture":"広島県","prefecture_kana":"ヒロシマケン","city":"広島市安芸区","city_kana":"ヒロシマシアキク","town":"中野町","town_kana":"ナカノチョウ","prefecture_code":34},"0324":{"zip_code":"7390324","prefecture":"広島県","prefecture_kana":"ヒロシマケン","city":"広島市安芸区","city_kana":"ヒロシマシアキク","town":"中野東町","town_kana":"ナカノヒガシマチ","prefecture_code":34},"0323":{"zip_code":"7390323","prefecture":"広島県","prefecture_kana":"ヒロシマケン","city":"広島市安芸区","city_kana":"ヒロシマシアキク","town":"中野東","town_kana":"ナカノヒガシ","prefecture_code":34},"0600":{"zip_code":"7390600","prefecture":"広島県","prefecture_kana":"ヒロシマケン","city":"大竹市","city_kana":"オオタケシ","town":"","town_kana":"","prefecture_code":34},"0607":{"zip_code":"7390607","prefecture":"広島県","prefecture_kana":"ヒロシマケン","city":"大竹市","city_kana":"オオタケシ","town":"阿多田","town_kana":"アタタ","prefecture_code":34},"0634":{"zip_code":"7390634","prefecture":"広島県","prefecture_kana":"ヒロシマケン","city":"大竹市","city_kana":"オオタケシ","town":"安条","town_kana":"アンジョウ","prefecture_code":34},"0637":{"zip_code":"7390637","prefecture":"広島県","prefecture_kana":"ヒロシマケン","city":"大竹市","city_kana":"オオタケシ","town":"後飯谷","town_kana":"ウシロイイタニ","prefecture_code":34},"0623":{"zip_code":"7390623","prefecture":"広島県","prefecture_kana":"ヒロシマケン","city":"大竹市","city_kana":"オオタケシ","town":"小方","town_kana":"オガタ","prefecture_code":34},"0628":{"zip_code":"7390628","prefecture":"広島県","prefecture_kana":"ヒロシマケン","city":"大竹市","city_kana":"オオタケシ","town":"小方ケ丘","town_kana":"オガタガオカ","prefecture_code":34},"0627":{"zip_code":"7390627","prefecture":"広島県","prefecture_kana":"ヒロシマケン","city":"大竹市","city_kana":"オオタケシ","town":"小方町小方","town_kana":"オガタチョウオガタ","prefecture_code":34},"0654":{"zip_code":"7390654","prefecture":"広島県","prefecture_kana":"ヒロシマケン","city":"大竹市","city_kana":"オオタケシ","town":"小方町黒川","town_kana":"オガタチョウクロカワ","prefecture_code":34},"0632":{"zip_code":"7390632","prefecture":"広島県","prefecture_kana":"ヒロシマケン","city":"大竹市","city_kana":"オオタケシ","town":"穂仁原","town_kana":"オニハラ","prefecture_code":34},"0604":{"zip_code":"7390604","prefecture":"広島県","prefecture_kana":"ヒロシマケン","city":"大竹市","city_kana":"オオタケシ","town":"北栄","town_kana":"キタサカエ","prefecture_code":34},"0651":{"zip_code":"7390651","prefecture":"広島県","prefecture_kana":"ヒロシマケン","city":"大竹市","city_kana":"オオタケシ","town":"玖波","town_kana":"クバ","prefecture_code":34},"0656":{"zip_code":"7390656","prefecture":"広島県","prefecture_kana":"ヒロシマケン","city":"大竹市","city_kana":"オオタケシ","town":"玖波町","town_kana":"クバチョウ","prefecture_code":34},"0644":{"zip_code":"7390644","prefecture":"広島県","prefecture_kana":"ヒロシマケン","city":"大竹市","city_kana":"オオタケシ","town":"栗谷町後原","town_kana":"クリタニチョウウシロバラ","prefecture_code":34},"0646":{"zip_code":"7390646","prefecture":"広島県","prefecture_kana":"ヒロシマケン","city":"大竹市","city_kana":"オオタケシ","town":"栗谷町大栗林","town_kana":"クリタニチョウオオクリバヤシ","prefecture_code":34},"0642":{"zip_code":"7390642","prefecture":"広島県","prefecture_kana":"ヒロシマケン","city":"大竹市","city_kana":"オオタケシ","town":"栗谷町奥谷尻","town_kana":"クリタニチョウオクタニジリ","prefecture_code":34},"0645":{"zip_code":"7390645","prefecture":"広島県","prefecture_kana":"ヒロシマケン","city":"大竹市","city_kana":"オオタケシ","town":"栗谷町小栗林","town_kana":"クリタニチョウコクリバヤシ","prefecture_code":34},"0643":{"zip_code":"7390643","prefecture":"広島県","prefecture_kana":"ヒロシマケン","city":"大竹市","city_kana":"オオタケシ","town":"栗谷町谷和","town_kana":"クリタニチョウタニワ","prefecture_code":34},"0641":{"zip_code":"7390641","prefecture":"広島県","prefecture_kana":"ヒロシマケン","city":"大竹市","city_kana":"オオタケシ","town":"栗谷町広原","town_kana":"クリタニチョウヒロハラ","prefecture_code":34},"0653":{"zip_code":"7390653","prefecture":"広島県","prefecture_kana":"ヒロシマケン","city":"大竹市","city_kana":"オオタケシ","town":"黒川","town_kana":"クロカワ","prefecture_code":34},"0616":{"zip_code":"7390616","prefecture":"広島県","prefecture_kana":"ヒロシマケン","city":"大竹市","city_kana":"オオタケシ","town":"木野","town_kana":"コノ","prefecture_code":34},"0614":{"zip_code":"7390614","prefecture":"広島県","prefecture_kana":"ヒロシマケン","city":"大竹市","city_kana":"オオタケシ","town":"白石","town_kana":"シライシ","prefecture_code":34},"0611":{"zip_code":"7390611","prefecture":"広島県","prefecture_kana":"ヒロシマケン","city":"大竹市","city_kana":"オオタケシ","town":"新町","town_kana":"シンマチ","prefecture_code":34},"0605":{"zip_code":"7390605","prefecture":"広島県","prefecture_kana":"ヒロシマケン","city":"大竹市","city_kana":"オオタケシ","town":"立戸","town_kana":"タチド","prefecture_code":34},"0603":{"zip_code":"7390603","prefecture":"広島県","prefecture_kana":"ヒロシマケン","city":"大竹市","city_kana":"オオタケシ","town":"西栄","town_kana":"ニシサカエ","prefecture_code":34},"0635":{"zip_code":"7390635","prefecture":"広島県","prefecture_kana":"ヒロシマケン","city":"大竹市","city_kana":"オオタケシ","town":"八丁","town_kana":"ハッチョウ","prefecture_code":34},"0622":{"zip_code":"7390622","prefecture":"広島県","prefecture_kana":"ヒロシマケン","city":"大竹市","city_kana":"オオタケシ","town":"晴海","town_kana":"ハルミ","prefecture_code":34},"0601":{"zip_code":"7390601","prefecture":"広島県","prefecture_kana":"ヒロシマケン","city":"大竹市","city_kana":"オオタケシ","town":"東栄","town_kana":"ヒガシサカエ","prefecture_code":34},"0633":{"zip_code":"7390633","prefecture":"広島県","prefecture_kana":"ヒロシマケン","city":"大竹市","city_kana":"オオタケシ","town":"比作","town_kana":"ヒッツクリ","prefecture_code":34},"0631":{"zip_code":"7390631","prefecture":"広島県","prefecture_kana":"ヒロシマケン","city":"大竹市","city_kana":"オオタケシ","town":"防鹿","town_kana":"ボウロク","prefecture_code":34},"0613":{"zip_code":"7390613","prefecture":"広島県","prefecture_kana":"ヒロシマケン","city":"大竹市","city_kana":"オオタケシ","town":"本町","town_kana":"ホンマチ","prefecture_code":34},"0636":{"zip_code":"7390636","prefecture":"広島県","prefecture_kana":"ヒロシマケン","city":"大竹市","city_kana":"オオタケシ","town":"前飯谷","town_kana":"マエイイタニ","prefecture_code":34},"0657":{"zip_code":"7390657","prefecture":"広島県","prefecture_kana":"ヒロシマケン","city":"大竹市","city_kana":"オオタケシ","town":"松ケ原町","town_kana":"マツガハラチョウ","prefecture_code":34},"0624":{"zip_code":"7390624","prefecture":"広島県","prefecture_kana":"ヒロシマケン","city":"大竹市","city_kana":"オオタケシ","town":"御園","town_kana":"ミソノ","prefecture_code":34},"0625":{"zip_code":"7390625","prefecture":"広島県","prefecture_kana":"ヒロシマケン","city":"大竹市","city_kana":"オオタケシ","town":"御園台","town_kana":"ミソノダイ","prefecture_code":34},"0626":{"zip_code":"7390626","prefecture":"広島県","prefecture_kana":"ヒロシマケン","city":"大竹市","city_kana":"オオタケシ","town":"三ツ石町","town_kana":"ミツイシチョウ","prefecture_code":34},"0621":{"zip_code":"7390621","prefecture":"広島県","prefecture_kana":"ヒロシマケン","city":"大竹市","city_kana":"オオタケシ","town":"港町","town_kana":"ミナトマチ","prefecture_code":34},"0602":{"zip_code":"7390602","prefecture":"広島県","prefecture_kana":"ヒロシマケン","city":"大竹市","city_kana":"オオタケシ","town":"南栄","town_kana":"ミナミサカエ","prefecture_code":34},"0606":{"zip_code":"7390606","prefecture":"広島県","prefecture_kana":"ヒロシマケン","city":"大竹市","city_kana":"オオタケシ","town":"御幸町","town_kana":"ミユキチョウ","prefecture_code":34},"0652":{"zip_code":"7390652","prefecture":"広島県","prefecture_kana":"ヒロシマケン","city":"大竹市","city_kana":"オオタケシ","town":"明治新開","town_kana":"メイジシンガイ","prefecture_code":34},"0615":{"zip_code":"7390615","prefecture":"広島県","prefecture_kana":"ヒロシマケン","city":"大竹市","city_kana":"オオタケシ","town":"元町","town_kana":"モトマチ","prefecture_code":34},"0612":{"zip_code":"7390612","prefecture":"広島県","prefecture_kana":"ヒロシマケン","city":"大竹市","city_kana":"オオタケシ","town":"油見","town_kana":"ユウミ","prefecture_code":34},"0655":{"zip_code":"7390655","prefecture":"広島県","prefecture_kana":"ヒロシマケン","city":"大竹市","city_kana":"オオタケシ","town":"湯舟町","town_kana":"ユブネチョウ","prefecture_code":34},"0000":{"zip_code":"7390000","prefecture":"広島県","prefecture_kana":"ヒロシマケン","city":"東広島市","city_kana":"ヒガシヒロシマシ","town":"","town_kana":"","prefecture_code":34},"2404":{"zip_code":"7392404","prefecture":"広島県","prefecture_kana":"ヒロシマケン","city":"東広島市","city_kana":"ヒガシヒロシマシ","town":"安芸津町大田","town_kana":"アキツチョウオオダ","prefecture_code":34},"2403":{"zip_code":"7392403","prefecture":"広島県","prefecture_kana":"ヒロシマケン","city":"東広島市","city_kana":"ヒガシヒロシマシ","town":"安芸津町風早","town_kana":"アキツチョウカザハヤ","prefecture_code":34},"2401":{"zip_code":"7392401","prefecture":"広島県","prefecture_kana":"ヒロシマケン","city":"東広島市","city_kana":"ヒガシヒロシマシ","town":"安芸津町木谷","town_kana":"アキツチョウキダニ","prefecture_code":34},"2405":{"zip_code":"7392405","prefecture":"広島県","prefecture_kana":"ヒロシマケン","city":"東広島市","city_kana":"ヒガシヒロシマシ","town":"安芸津町小松原","town_kana":"アキツチョウコマツバラ","prefecture_code":34},"2402":{"zip_code":"7392402","prefecture":"広島県","prefecture_kana":"ヒロシマケン","city":"東広島市","city_kana":"ヒガシヒロシマシ","town":"安芸津町三津","town_kana":"アキツチョウミツ","prefecture_code":34},"0046":{"zip_code":"7390046","prefecture":"広島県","prefecture_kana":"ヒロシマケン","city":"東広島市","city_kana":"ヒガシヒロシマシ","town":"鏡山","town_kana":"カガミヤマ","prefecture_code":34},"0045":{"zip_code":"7390045","prefecture":"広島県","prefecture_kana":"ヒロシマケン","city":"東広島市","city_kana":"ヒガシヒロシマシ","town":"鏡山北","town_kana":"カガミヤマキタ","prefecture_code":34},"2631":{"zip_code":"7392631","prefecture":"広島県","prefecture_kana":"ヒロシマケン","city":"東広島市","city_kana":"ヒガシヒロシマシ","town":"黒瀬学園台","town_kana":"クロセガクエンダイ","prefecture_code":34},"2615":{"zip_code":"7392615","prefecture":"広島県","prefecture_kana":"ヒロシマケン","city":"東広島市","city_kana":"ヒガシヒロシマシ","town":"黒瀬春日野","town_kana":"クロセカスガノ","prefecture_code":34},"2619":{"zip_code":"7392619","prefecture":"広島県","prefecture_kana":"ヒロシマケン","city":"東広島市","city_kana":"ヒガシヒロシマシ","town":"黒瀬切田が丘","town_kana":"クロセキリタガオカ","prefecture_code":34},"2618":{"zip_code":"7392618","prefecture":"広島県","prefecture_kana":"ヒロシマケン","city":"東広島市","city_kana":"ヒガシヒロシマシ","town":"黒瀬桜が丘","town_kana":"クロセサクラガオカ","prefecture_code":34},"2614":{"zip_code":"7392614","prefecture":"広島県","prefecture_kana":"ヒロシマケン","city":"東広島市","city_kana":"ヒガシヒロシマシ","town":"黒瀬松ケ丘","town_kana":"クロセマツガオカ","prefecture_code":34},"2626":{"zip_code":"7392626","prefecture":"広島県","prefecture_kana":"ヒロシマケン","city":"東広島市","city_kana":"ヒガシヒロシマシ","town":"黒瀬町市飯田","town_kana":"クロセチョウイチイダ","prefecture_code":34},"2611":{"zip_code":"7392611","prefecture":"広島県","prefecture_kana":"ヒロシマケン","city":"東広島市","city_kana":"ヒガシヒロシマシ","town":"黒瀬町大多田","town_kana":"クロセチョウオオタダ","prefecture_code":34},"2501":{"zip_code":"7392501","prefecture":"広島県","prefecture_kana":"ヒロシマケン","city":"東広島市","city_kana":"ヒガシヒロシマシ","town":"黒瀬町小多田","town_kana":"クロセチョウオタダ","prefecture_code":34},"2731":{"zip_code":"7392731","prefecture":"広島県","prefecture_kana":"ヒロシマケン","city":"東広島市","city_kana":"ヒガシヒロシマシ","town":"黒瀬町兼沢","town_kana":"クロセチョウカネサワ","prefecture_code":34},"2616":{"zip_code":"7392616","prefecture":"広島県","prefecture_kana":"ヒロシマケン","city":"東広島市","city_kana":"ヒガシヒロシマシ","town":"黒瀬町兼広","town_kana":"クロセチョウカネヒロ","prefecture_code":34},"2625":{"zip_code":"7392625","prefecture":"広島県","prefecture_kana":"ヒロシマケン","city":"東広島市","city_kana":"ヒガシヒロシマシ","town":"黒瀬町上保田","town_kana":"クロセチョウカミボウダ","prefecture_code":34},"2623":{"zip_code":"7392623","prefecture":"広島県","prefecture_kana":"ヒロシマケン","city":"東広島市","city_kana":"ヒガシヒロシマシ","town":"黒瀬町川角","town_kana":"クロセチョウカワスミ","prefecture_code":34},"2617":{"zip_code":"7392617","prefecture":"広島県","prefecture_kana":"ヒロシマケン","city":"東広島市","city_kana":"ヒガシヒロシマシ","town":"黒瀬町切田","town_kana":"クロセチョウキリタ","prefecture_code":34},"2502":{"zip_code":"7392502","prefecture":"広島県","prefecture_kana":"ヒロシマケン","city":"東広島市","city_kana":"ヒガシヒロシマシ","town":"黒瀬町国近","town_kana":"クロセチョウクニチカ","prefecture_code":34},"2624":{"zip_code":"7392624","prefecture":"広島県","prefecture_kana":"ヒロシマケン","city":"東広島市","city_kana":"ヒガシヒロシマシ","town":"黒瀬町菅田","town_kana":"クロセチョウスゲタ","prefecture_code":34},"2732":{"zip_code":"7392732","prefecture":"広島県","prefecture_kana":"ヒロシマケン","city":"東広島市","city_kana":"ヒガシヒロシマシ","town":"黒瀬町津江","town_kana":"クロセチョウツエ","prefecture_code":34},"2613":{"zip_code":"7392613","prefecture":"広島県","prefecture_kana":"ヒロシマケン","city":"東広島市","city_kana":"ヒガシヒロシマシ","town":"黒瀬町楢原","town_kana":"クロセチョウナラハラ","prefecture_code":34},"2622":{"zip_code":"7392622","prefecture":"広島県","prefecture_kana":"ヒロシマケン","city":"東広島市","city_kana":"ヒガシヒロシマシ","town":"黒瀬町乃美尾","town_kana":"クロセチョウノミノオ","prefecture_code":34},"2612":{"zip_code":"7392612","prefecture":"広島県","prefecture_kana":"ヒロシマケン","city":"東広島市","city_kana":"ヒガシヒロシマシ","town":"黒瀬町丸山","town_kana":"クロセチョウマルヤマ","prefecture_code":34},"2503":{"zip_code":"7392503","prefecture":"広島県","prefecture_kana":"ヒロシマケン","city":"東広島市","city_kana":"ヒガシヒロシマシ","town":"黒瀬町南方","town_kana":"クロセチョウミナミガタ","prefecture_code":34},"2621":{"zip_code":"7392621","prefecture":"広島県","prefecture_kana":"ヒロシマケン","city":"東広島市","city_kana":"ヒガシヒロシマシ","town":"黒瀬町南方賀茂精神医療センター","town_kana":"クロセチョウミナミガタカモセイシンイリョウセンター","prefecture_code":34},"2504":{"zip_code":"7392504","prefecture":"広島県","prefecture_kana":"ヒロシマケン","city":"東広島市","city_kana":"ヒガシヒロシマシ","town":"黒瀬町宗近柳国","town_kana":"クロセチョウムネチカヤナクニ","prefecture_code":34},"2206":{"zip_code":"7392206","prefecture":"広島県","prefecture_kana":"ヒロシマケン","city":"東広島市","city_kana":"ヒガシヒロシマシ","town":"河内町宇山","town_kana":"コウチチョウウヤマ","prefecture_code":34},"2207":{"zip_code":"7392207","prefecture":"広島県","prefecture_kana":"ヒロシマケン","city":"東広島市","city_kana":"ヒガシヒロシマシ","town":"河内町小田","town_kana":"コウチチョウオダ","prefecture_code":34},"2203":{"zip_code":"7392203","prefecture":"広島県","prefecture_kana":"ヒロシマケン","city":"東広島市","city_kana":"ヒガシヒロシマシ","town":"河内町上河内","town_kana":"コウチチョウカミゴウチ","prefecture_code":34},"2204":{"zip_code":"7392204","prefecture":"広島県","prefecture_kana":"ヒロシマケン","city":"東広島市","city_kana":"ヒガシヒロシマシ","town":"河内町河戸","town_kana":"コウチチョウコウド","prefecture_code":34},"2202":{"zip_code":"7392202","prefecture":"広島県","prefecture_kana":"ヒロシマケン","city":"東広島市","city_kana":"ヒガシヒロシマシ","town":"河内町下河内","town_kana":"コウチチョウシモゴウチ","prefecture_code":34},"2205":{"zip_code":"7392205","prefecture":"広島県","prefecture_kana":"ヒロシマケン","city":"東広島市","city_kana":"ヒガシヒロシマシ","town":"河内町戸野","town_kana":"コウチチョウトノ","prefecture_code":34},"2201":{"zip_code":"7392201","prefecture":"広島県","prefecture_kana":"ヒロシマケン","city":"東広島市","city_kana":"ヒガシヒロシマシ","town":"河内町中河内","town_kana":"コウチチョウナカゴウチ","prefecture_code":34},"2208":{"zip_code":"7392208","prefecture":"広島県","prefecture_kana":"ヒロシマケン","city":"東広島市","city_kana":"ヒガシヒロシマシ","town":"河内町入野","town_kana":"コウチチョウニュウノ","prefecture_code":34},"2211":{"zip_code":"7392211","prefecture":"広島県","prefecture_kana":"ヒロシマケン","city":"東広島市","city_kana":"ヒガシヒロシマシ","town":"河内臨空団地","town_kana":"コウチリンクウダンチ","prefecture_code":34},"0012":{"zip_code":"7390012","prefecture":"広島県","prefecture_kana":"ヒロシマケン","city":"東広島市","city_kana":"ヒガシヒロシマシ","town":"西条朝日町","town_kana":"サイジョウアサヒマチ","prefecture_code":34},"0005":{"zip_code":"7390005","prefecture":"広島県","prefecture_kana":"ヒロシマケン","city":"東広島市","city_kana":"ヒガシヒロシマシ","town":"西条大坪町","town_kana":"サイジョウオオツボチョウ","prefecture_code":34},"0016":{"zip_code":"7390016","prefecture":"広島県","prefecture_kana":"ヒロシマケン","city":"東広島市","city_kana":"ヒガシヒロシマシ","town":"西条岡町","town_kana":"サイジョウオカマチ","prefecture_code":34},"0006":{"zip_code":"7390006","prefecture":"広島県","prefecture_kana":"ヒロシマケン","city":"東広島市","city_kana":"ヒガシヒロシマシ","town":"西条上市町","town_kana":"サイジョウカミイチチョウ","prefecture_code":34},"0013":{"zip_code":"7390013","prefecture":"広島県","prefecture_kana":"ヒロシマケン","city":"東広島市","city_kana":"ヒガシヒロシマシ","town":"西条御条町","town_kana":"サイジョウゴジョウチョウ","prefecture_code":34},"0015":{"zip_code":"7390015","prefecture":"広島県","prefecture_kana":"ヒロシマケン","city":"東広島市","city_kana":"ヒガシヒロシマシ","town":"西条栄町","town_kana":"サイジョウサカエマチ","prefecture_code":34},"0047":{"zip_code":"7390047","prefecture":"広島県","prefecture_kana":"ヒロシマケン","city":"東広島市","city_kana":"ヒガシヒロシマシ","town":"西条下見","town_kana":"サイジョウシタミ","prefecture_code":34},"0014":{"zip_code":"7390014","prefecture":"広島県","prefecture_kana":"ヒロシマケン","city":"東広島市","city_kana":"ヒガシヒロシマシ","town":"西条昭和町","town_kana":"サイジョウショウワマチ","prefecture_code":34},"0004":{"zip_code":"7390004","prefecture":"広島県","prefecture_kana":"ヒロシマケン","city":"東広島市","city_kana":"ヒガシヒロシマシ","town":"西条末広町","town_kana":"サイジョウスエヒロチョウ","prefecture_code":34},"0025":{"zip_code":"7390025","prefecture":"広島県","prefecture_kana":"ヒロシマケン","city":"東広島市","city_kana":"ヒガシヒロシマシ","town":"西条中央","town_kana":"サイジョウチュウオウ","prefecture_code":34},"0007":{"zip_code":"7390007","prefecture":"広島県","prefecture_kana":"ヒロシマケン","city":"東広島市","city_kana":"ヒガシヒロシマシ","town":"西条土与丸","town_kana":"サイジョウドヨマル","prefecture_code":34},"0043":{"zip_code":"7390043","prefecture":"広島県","prefecture_kana":"ヒロシマケン","city":"東広島市","city_kana":"ヒガシヒロシマシ","town":"西条西本町","town_kana":"サイジョウニシホンマチ","prefecture_code":34},"0048":{"zip_code":"7390048","prefecture":"広島県","prefecture_kana":"ヒロシマケン","city":"東広島市","city_kana":"ヒガシヒロシマシ","town":"西条東北町","town_kana":"サイジョウヒガシキタマチ","prefecture_code":34},"0011":{"zip_code":"7390011","prefecture":"広島県","prefecture_kana":"ヒロシマケン","city":"東広島市","city_kana":"ヒガシヒロシマシ","town":"西条本町","town_kana":"サイジョウホンマチ","prefecture_code":34},"0008":{"zip_code":"7390008","prefecture":"広島県","prefecture_kana":"ヒロシマケン","city":"東広島市","city_kana":"ヒガシヒロシマシ","town":"西条吉行東","town_kana":"サイジョウヨシユキヒガシ","prefecture_code":34},"0033":{"zip_code":"7390033","prefecture":"広島県","prefecture_kana":"ヒロシマケン","city":"東広島市","city_kana":"ヒガシヒロシマシ","town":"西条町馬木","town_kana":"サイジョウチョウウマキ","prefecture_code":34},"0034":{"zip_code":"7390034","prefecture":"広島県","prefecture_kana":"ヒロシマケン","city":"東広島市","city_kana":"ヒガシヒロシマシ","town":"西条町大沢","town_kana":"サイジョウチョウオオサワ","prefecture_code":34},"0022":{"zip_code":"7390022","prefecture":"広島県","prefecture_kana":"ヒロシマケン","city":"東広島市","city_kana":"ヒガシヒロシマシ","town":"西条町上三永","town_kana":"サイジョウチョウカミミナガ","prefecture_code":34},"0035":{"zip_code":"7390035","prefecture":"広島県","prefecture_kana":"ヒロシマケン","city":"東広島市","city_kana":"ヒガシヒロシマシ","town":"西条町郷曽","town_kana":"サイジョウチョウゴウソ","prefecture_code":34},"0001":{"zip_code":"7390001","prefecture":"広島県","prefecture_kana":"ヒロシマケン","city":"東広島市","city_kana":"ヒガシヒロシマシ","town":"西条町西条","town_kana":"サイジョウチョウサイジョウ","prefecture_code":34},"0042":{"zip_code":"7390042","prefecture":"広島県","prefecture_kana":"ヒロシマケン","city":"東広島市","city_kana":"ヒガシヒロシマシ","town":"西条町西条東","town_kana":"サイジョウチョウサイジョウヒガシ","prefecture_code":34},"0041":{"zip_code":"7390041","prefecture":"広島県","prefecture_kana":"ヒロシマケン","city":"東広島市","city_kana":"ヒガシヒロシマシ","town":"西条町寺家","town_kana":"サイジョウチョウジケ","prefecture_code":34},"0044":{"zip_code":"7390044","prefecture":"広島県","prefecture_kana":"ヒロシマケン","city":"東広島市","city_kana":"ヒガシヒロシマシ","town":"西条町下見","town_kana":"サイジョウチョウシタミ","prefecture_code":34},"0023":{"zip_code":"7390023","prefecture":"広島県","prefecture_kana":"ヒロシマケン","city":"東広島市","city_kana":"ヒガシヒロシマシ","town":"西条町下三永","town_kana":"サイジョウチョウシモミナガ","prefecture_code":34},"0021":{"zip_code":"7390021","prefecture":"広島県","prefecture_kana":"ヒロシマケン","city":"東広島市","city_kana":"ヒガシヒロシマシ","town":"西条町助実","town_kana":"サイジョウチョウスケザネ","prefecture_code":34},"0036":{"zip_code":"7390036","prefecture":"広島県","prefecture_kana":"ヒロシマケン","city":"東広島市","city_kana":"ヒガシヒロシマシ","town":"西条町田口","town_kana":"サイジョウチョウタグチ","prefecture_code":34},"0003":{"zip_code":"7390003","prefecture":"広島県","prefecture_kana":"ヒロシマケン","city":"東広島市","city_kana":"ヒガシヒロシマシ","town":"西条町土与丸","town_kana":"サイジョウチョウドヨマル","prefecture_code":34},"0031":{"zip_code":"7390031","prefecture":"広島県","prefecture_kana":"ヒロシマケン","city":"東広島市","city_kana":"ヒガシヒロシマシ","town":"西条町福本","town_kana":"サイジョウチョウフクモト","prefecture_code":34},"0024":{"zip_code":"7390024","prefecture":"広島県","prefecture_kana":"ヒロシマケン","city":"東広島市","city_kana":"ヒガシヒロシマシ","town":"西条町御薗宇","town_kana":"サイジョウチョウミソノウ","prefecture_code":34},"0032":{"zip_code":"7390032","prefecture":"広島県","prefecture_kana":"ヒロシマケン","city":"東広島市","city_kana":"ヒガシヒロシマシ","town":"西条町森近","town_kana":"サイジョウチョウモリチカ","prefecture_code":34},"0002":{"zip_code":"7390002","prefecture":"広島県","prefecture_kana":"ヒロシマケン","city":"東広島市","city_kana":"ヒガシヒロシマシ","town":"西条町吉行","town_kana":"サイジョウチョウヨシユキ","prefecture_code":34},"0263":{"zip_code":"7390263","prefecture":"広島県","prefecture_kana":"ヒロシマケン","city":"東広島市","city_kana":"ヒガシヒロシマシ","town":"志和流通","town_kana":"シワリュウツウ","prefecture_code":34},"0261":{"zip_code":"7390261","prefecture":"広島県","prefecture_kana":"ヒロシマケン","city":"東広島市","city_kana":"ヒガシヒロシマシ","town":"志和町内","town_kana":"シワチョウウチ","prefecture_code":34},"0266":{"zip_code":"7390266","prefecture":"広島県","prefecture_kana":"ヒロシマケン","city":"東広島市","city_kana":"ヒガシヒロシマシ","town":"志和町奥屋","town_kana":"シワチョウオクヤ","prefecture_code":34},"0265":{"zip_code":"7390265","prefecture":"広島県","prefecture_kana":"ヒロシマケン","city":"東広島市","city_kana":"ヒガシヒロシマシ","town":"志和町冠","town_kana":"シワチョウカンムリ","prefecture_code":34},"0264":{"zip_code":"7390264","prefecture":"広島県","prefecture_kana":"ヒロシマケン","city":"東広島市","city_kana":"ヒガシヒロシマシ","town":"志和町七条椛坂","town_kana":"シワチョウシチジョウカブサカ","prefecture_code":34},"0268":{"zip_code":"7390268","prefecture":"広島県","prefecture_kana":"ヒロシマケン","city":"東広島市","city_kana":"ヒガシヒロシマシ","town":"志和町志和西","town_kana":"シワチョウシワニシ","prefecture_code":34},"0262":{"zip_code":"7390262","prefecture":"広島県","prefecture_kana":"ヒロシマケン","city":"東広島市","city_kana":"ヒガシヒロシマシ","town":"志和町志和東","town_kana":"シワチョウシワヒガシ","prefecture_code":34},"0269":{"zip_code":"7390269","prefecture":"広島県","prefecture_kana":"ヒロシマケン","city":"東広島市","city_kana":"ヒガシヒロシマシ","town":"志和町志和堀","town_kana":"シワチョウシワホリ","prefecture_code":34},"0267":{"zip_code":"7390267","prefecture":"広島県","prefecture_kana":"ヒロシマケン","city":"東広島市","city_kana":"ヒガシヒロシマシ","town":"志和町別府","town_kana":"シワチョウベフ","prefecture_code":34},"2116":{"zip_code":"7392116","prefecture":"広島県","prefecture_kana":"ヒロシマケン","city":"東広島市","city_kana":"ヒガシヒロシマシ","town":"高屋うめの辺","town_kana":"タカヤウメノベ","prefecture_code":34},"2115":{"zip_code":"7392115","prefecture":"広島県","prefecture_kana":"ヒロシマケン","city":"東広島市","city_kana":"ヒガシヒロシマシ","town":"高屋高美が丘","town_kana":"タカヤタカミガオカ","prefecture_code":34},"2117":{"zip_code":"7392117","prefecture":"広島県","prefecture_kana":"ヒロシマケン","city":"東広島市","city_kana":"ヒガシヒロシマシ","town":"高屋台","town_kana":"タカヤダイ","prefecture_code":34},"2106":{"zip_code":"7392106","prefecture":"広島県","prefecture_kana":"ヒロシマケン","city":"東広島市","city_kana":"ヒガシヒロシマシ","town":"高屋町稲木","town_kana":"タカヤチョウイナキ","prefecture_code":34},"2104":{"zip_code":"7392104","prefecture":"広島県","prefecture_kana":"ヒロシマケン","city":"東広島市","city_kana":"ヒガシヒロシマシ","town":"高屋町大畠","town_kana":"タカヤチョウオオバタケ","prefecture_code":34},"2102":{"zip_code":"7392102","prefecture":"広島県","prefecture_kana":"ヒロシマケン","city":"東広島市","city_kana":"ヒガシヒロシマシ","town":"高屋町杵原","town_kana":"タカヤチョウキネハラ","prefecture_code":34},"2124":{"zip_code":"7392124","prefecture":"広島県","prefecture_kana":"ヒロシマケン","city":"東広島市","city_kana":"ヒガシヒロシマシ","town":"高屋町郷","town_kana":"タカヤチョウゴウ","prefecture_code":34},"2121":{"zip_code":"7392121","prefecture":"広島県","prefecture_kana":"ヒロシマケン","city":"東広島市","city_kana":"ヒガシヒロシマシ","town":"高屋町小谷","town_kana":"タカヤチョウコダニ","prefecture_code":34},"2112":{"zip_code":"7392112","prefecture":"広島県","prefecture_kana":"ヒロシマケン","city":"東広島市","city_kana":"ヒガシヒロシマシ","town":"高屋町貞重","town_kana":"タカヤチョウサダシゲ","prefecture_code":34},"2122":{"zip_code":"7392122","prefecture":"広島県","prefecture_kana":"ヒロシマケン","city":"東広島市","city_kana":"ヒガシヒロシマシ","town":"高屋町重兼","town_kana":"タカヤチョウシゲカネ","prefecture_code":34},"2114":{"zip_code":"7392114","prefecture":"広島県","prefecture_kana":"ヒロシマケン","city":"東広島市","city_kana":"ヒガシヒロシマシ","town":"高屋町白市","town_kana":"タカヤチョウシライチ","prefecture_code":34},"2101":{"zip_code":"7392101","prefecture":"広島県","prefecture_kana":"ヒロシマケン","city":"東広島市","city_kana":"ヒガシヒロシマシ","town":"高屋町造賀","town_kana":"タカヤチョウゾウカ","prefecture_code":34},"2113":{"zip_code":"7392113","prefecture":"広島県","prefecture_kana":"ヒロシマケン","city":"東広島市","city_kana":"ヒガシヒロシマシ","town":"高屋町高屋東","town_kana":"タカヤチョウタカヤヒガシ","prefecture_code":34},"2111":{"zip_code":"7392111","prefecture":"広島県","prefecture_kana":"ヒロシマケン","city":"東広島市","city_kana":"ヒガシヒロシマシ","town":"高屋町高屋堀","town_kana":"タカヤチョウタカヤホリ","prefecture_code":34},"2125":{"zip_code":"7392125","prefecture":"広島県","prefecture_kana":"ヒロシマケン","city":"東広島市","city_kana":"ヒガシヒロシマシ","town":"高屋町中島","town_kana":"タカヤチョウナカシマ","prefecture_code":34},"2105":{"zip_code":"7392105","prefecture":"広島県","prefecture_kana":"ヒロシマケン","city":"東広島市","city_kana":"ヒガシヒロシマシ","town":"高屋町檜山","town_kana":"タカヤチョウヒヤマ","prefecture_code":34},"2123":{"zip_code":"7392123","prefecture":"広島県","prefecture_kana":"ヒロシマケン","city":"東広島市","city_kana":"ヒガシヒロシマシ","town":"高屋町溝口","town_kana":"タカヤチョウミゾグチ","prefecture_code":34},"2103":{"zip_code":"7392103","prefecture":"広島県","prefecture_kana":"ヒロシマケン","city":"東広島市","city_kana":"ヒガシヒロシマシ","town":"高屋町宮領","town_kana":"タカヤチョウミヤリョウ","prefecture_code":34},"0038":{"zip_code":"7390038","prefecture":"広島県","prefecture_kana":"ヒロシマケン","city":"東広島市","city_kana":"ヒガシヒロシマシ","town":"田口研究団地","town_kana":"タグチケンキュウダンチ","prefecture_code":34},"2316":{"zip_code":"7392316","prefecture":"広島県","prefecture_kana":"ヒロシマケン","city":"東広島市","city_kana":"ヒガシヒロシマシ","town":"豊栄町安宿","town_kana":"トヨサカチョウアスカ","prefecture_code":34},"2314":{"zip_code":"7392314","prefecture":"広島県","prefecture_kana":"ヒロシマケン","city":"東広島市","city_kana":"ヒガシヒロシマシ","town":"豊栄町飯田","town_kana":"トヨサカチョウイイダ","prefecture_code":34},"2317":{"zip_code":"7392317","prefecture":"広島県","prefecture_kana":"ヒロシマケン","city":"東広島市","city_kana":"ヒガシヒロシマシ","town":"豊栄町鍛冶屋","town_kana":"トヨサカチョウカジヤ","prefecture_code":34},"2313":{"zip_code":"7392313","prefecture":"広島県","prefecture_kana":"ヒロシマケン","city":"東広島市","city_kana":"ヒガシヒロシマシ","town":"豊栄町清武","town_kana":"トヨサカチョウキヨタケ","prefecture_code":34},"2318":{"zip_code":"7392318","prefecture":"広島県","prefecture_kana":"ヒロシマケン","city":"東広島市","city_kana":"ヒガシヒロシマシ","town":"豊栄町能良","town_kana":"トヨサカチョウノウラ","prefecture_code":34},"2311":{"zip_code":"7392311","prefecture":"広島県","prefecture_kana":"ヒロシマケン","city":"東広島市","city_kana":"ヒガシヒロシマシ","town":"豊栄町乃美","town_kana":"トヨサカチョウノミ","prefecture_code":34},"2312":{"zip_code":"7392312","prefecture":"広島県","prefecture_kana":"ヒロシマケン","city":"東広島市","city_kana":"ヒガシヒロシマシ","town":"豊栄町別府","town_kana":"トヨサカチョウベフ","prefecture_code":34},"2315":{"zip_code":"7392315","prefecture":"広島県","prefecture_kana":"ヒロシマケン","city":"東広島市","city_kana":"ヒガシヒロシマシ","town":"豊栄町吉原","town_kana":"トヨサカチョウヨシワラ","prefecture_code":34},"0037":{"zip_code":"7390037","prefecture":"広島県","prefecture_kana":"ヒロシマケン","city":"東広島市","city_kana":"ヒガシヒロシマシ","town":"西大沢","town_kana":"ニシオオサワ","prefecture_code":34},"2209":{"zip_code":"7392209","prefecture":"広島県","prefecture_kana":"ヒロシマケン","city":"東広島市","city_kana":"ヒガシヒロシマシ","town":"入野中山台","town_kana":"ニュウノナカヤマダイ","prefecture_code":34},"0146":{"zip_code":"7390146","prefecture":"広島県","prefecture_kana":"ヒロシマケン","city":"東広島市","city_kana":"ヒガシヒロシマシ","town":"八本松飯田","town_kana":"ハチホンマツイイダ","prefecture_code":34},"0147":{"zip_code":"7390147","prefecture":"広島県","prefecture_kana":"ヒロシマケン","city":"東広島市","city_kana":"ヒガシヒロシマシ","town":"八本松西","town_kana":"ハチホンマツニシ","prefecture_code":34},"0142":{"zip_code":"7390142","prefecture":"広島県","prefecture_kana":"ヒロシマケン","city":"東広島市","city_kana":"ヒガシヒロシマシ","town":"八本松東","town_kana":"ハチホンマツヒガシ","prefecture_code":34},"0144":{"zip_code":"7390144","prefecture":"広島県","prefecture_kana":"ヒロシマケン","city":"東広島市","city_kana":"ヒガシヒロシマシ","town":"八本松南","town_kana":"ハチホンマツミナミ","prefecture_code":34},"0141":{"zip_code":"7390141","prefecture":"広島県","prefecture_kana":"ヒロシマケン","city":"東広島市","city_kana":"ヒガシヒロシマシ","town":"八本松町飯田","town_kana":"ハチホンマツチョウイイダ","prefecture_code":34},"0131":{"zip_code":"7390131","prefecture":"広島県","prefecture_kana":"ヒロシマケン","city":"東広島市","city_kana":"ヒガシヒロシマシ","town":"八本松町篠","town_kana":"ハチホンマツチョウササ","prefecture_code":34},"0132":{"zip_code":"7390132","prefecture":"広島県","prefecture_kana":"ヒロシマケン","city":"東広島市","city_kana":"ヒガシヒロシマシ","town":"八本松町正力","town_kana":"ハチホンマツチョウショウリキ","prefecture_code":34},"0151":{"zip_code":"7390151","prefecture":"広島県","prefecture_kana":"ヒロシマケン","city":"東広島市","city_kana":"ヒガシヒロシマシ","town":"八本松町原","town_kana":"ハチホンマツチョウハラ","prefecture_code":34},"0145":{"zip_code":"7390145","prefecture":"広島県","prefecture_kana":"ヒロシマケン","city":"東広島市","city_kana":"ヒガシヒロシマシ","town":"八本松町宗吉","town_kana":"ハチホンマツチョウムネヨシ","prefecture_code":34},"0152":{"zip_code":"7390152","prefecture":"広島県","prefecture_kana":"ヒロシマケン","city":"東広島市","city_kana":"ヒガシヒロシマシ","town":"八本松町吉川","town_kana":"ハチホンマツチョウヨシカワ","prefecture_code":34},"0133":{"zip_code":"7390133","prefecture":"広島県","prefecture_kana":"ヒロシマケン","city":"東広島市","city_kana":"ヒガシヒロシマシ","town":"八本松町米満","town_kana":"ハチホンマツチョウヨネミツ","prefecture_code":34},"2301":{"zip_code":"7392301","prefecture":"広島県","prefecture_kana":"ヒロシマケン","city":"東広島市","city_kana":"ヒガシヒロシマシ","town":"福富町上竹仁","town_kana":"フクトミチョウカミダケニ","prefecture_code":34},"2304":{"zip_code":"7392304","prefecture":"広島県","prefecture_kana":"ヒロシマケン","city":"東広島市","city_kana":"ヒガシヒロシマシ","town":"福富町上戸野","town_kana":"フクトミチョウカミトノ","prefecture_code":34},"2303":{"zip_code":"7392303","prefecture":"広島県","prefecture_kana":"ヒロシマケン","city":"東広島市","city_kana":"ヒガシヒロシマシ","town":"福富町久芳","town_kana":"フクトミチョウクバ","prefecture_code":34},"2302":{"zip_code":"7392302","prefecture":"広島県","prefecture_kana":"ヒロシマケン","city":"東広島市","city_kana":"ヒガシヒロシマシ","town":"福富町下竹仁","town_kana":"フクトミチョウシモダケニ","prefecture_code":34},"0026":{"zip_code":"7390026","prefecture":"広島県","prefecture_kana":"ヒロシマケン","city":"東広島市","city_kana":"ヒガシヒロシマシ","town":"三永","town_kana":"ミナガ","prefecture_code":34},"0153":{"zip_code":"7390153","prefecture":"広島県","prefecture_kana":"ヒロシマケン","city":"東広島市","city_kana":"ヒガシヒロシマシ","town":"吉川工業団地","town_kana":"ヨシカワコウギョウダンチ","prefecture_code":34},"0442":{"zip_code":"7390442","prefecture":"広島県","prefecture_kana":"ヒロシマケン","city":"廿日市市","city_kana":"ハツカイチシ","town":"梅原","town_kana":"ウメハラ","prefecture_code":34},"0664":{"zip_code":"7390664","prefecture":"広島県","prefecture_kana":"ヒロシマケン","city":"廿日市市","city_kana":"ハツカイチシ","town":"大野嵐谷","town_kana":"オオノアラシダニ","prefecture_code":34},"0478":{"zip_code":"7390478","prefecture":"広島県","prefecture_kana":"ヒロシマケン","city":"廿日市市","city_kana":"ハツカイチシ","town":"大野筏津","town_kana":"オオノイカナヅ","prefecture_code":34},"0479":{"zip_code":"7390479","prefecture":"広島県","prefecture_kana":"ヒロシマケン","city":"廿日市市","city_kana":"ハツカイチシ","town":"大野池田","town_kana":"オオノイケダ","prefecture_code":34},"0667":{"zip_code":"7390667","prefecture":"広島県","prefecture_kana":"ヒロシマケン","city":"廿日市市","city_kana":"ハツカイチシ","town":"大野猪ノウツ","town_kana":"オオノイノウツ","prefecture_code":34},"0463":{"zip_code":"7390463","prefecture":"広島県","prefecture_kana":"ヒロシマケン","city":"廿日市市","city_kana":"ハツカイチシ","town":"大野小田ノ口","town_kana":"オオノオダノクチ","prefecture_code":34},"0456":{"zip_code":"7390456","prefecture":"広島県","prefecture_kana":"ヒロシマケン","city":"廿日市市","city_kana":"ハツカイチシ","town":"大野垣ノ浦","town_kana":"オオノカキノウラ","prefecture_code":34},"0423":{"zip_code":"7390423","prefecture":"広島県","prefecture_kana":"ヒロシマケン","city":"廿日市市","city_kana":"ハツカイチシ","town":"大野賀撫津","town_kana":"オオノガブツ","prefecture_code":34},"0407":{"zip_code":"7390407","prefecture":"広島県","prefecture_kana":"ヒロシマケン","city":"廿日市市","city_kana":"ハツカイチシ","town":"大野上更地","town_kana":"オオノカミサラジ","prefecture_code":34},"0661":{"zip_code":"7390661","prefecture":"広島県","prefecture_kana":"ヒロシマケン","city":"廿日市市","city_kana":"ハツカイチシ","town":"大野経小屋","town_kana":"オオノキョウゴヤ","prefecture_code":34},"0461":{"zip_code":"7390461","prefecture":"広島県","prefecture_kana":"ヒロシマケン","city":"廿日市市","city_kana":"ハツカイチシ","town":"大野郷","town_kana":"オオノゴウ","prefecture_code":34},"0446":{"zip_code":"7390446","prefecture":"広島県","prefecture_kana":"ヒロシマケン","city":"廿日市市","city_kana":"ハツカイチシ","town":"大野小山","town_kana":"オオノコヤマ","prefecture_code":34},"0459":{"zip_code":"7390459","prefecture":"広島県","prefecture_kana":"ヒロシマケン","city":"廿日市市","city_kana":"ハツカイチシ","town":"大野四十八坂","town_kana":"オオノシジュウハッサカ","prefecture_code":34},"0403":{"zip_code":"7390403","prefecture":"広島県","prefecture_kana":"ヒロシマケン","city":"廿日市市","city_kana":"ハツカイチシ","town":"大野下更地","town_kana":"オオノシモサラジ","prefecture_code":34},"0457":{"zip_code":"7390457","prefecture":"広島県","prefecture_kana":"ヒロシマケン","city":"廿日市市","city_kana":"ハツカイチシ","town":"大野下灘","town_kana":"オオノシモナダ","prefecture_code":34},"0404":{"zip_code":"7390404","prefecture":"広島県","prefecture_kana":"ヒロシマケン","city":"廿日市市","city_kana":"ハツカイチシ","town":"大野十郎原","town_kana":"オオノジュウロウバラ","prefecture_code":34},"0462":{"zip_code":"7390462","prefecture":"広島県","prefecture_kana":"ヒロシマケン","city":"廿日市市","city_kana":"ハツカイチシ","town":"大野陣場","town_kana":"オオノジンバ","prefecture_code":34},"0422":{"zip_code":"7390422","prefecture":"広島県","prefecture_kana":"ヒロシマケン","city":"廿日市市","city_kana":"ハツカイチシ","town":"大野早時","town_kana":"オオノソウトキ","prefecture_code":34},"0408":{"zip_code":"7390408","prefecture":"広島県","prefecture_kana":"ヒロシマケン","city":"廿日市市","city_kana":"ハツカイチシ","town":"大野鯛ノ原","town_kana":"オオノタイノハラ","prefecture_code":34},"0475":{"zip_code":"7390475","prefecture":"広島県","prefecture_kana":"ヒロシマケン","city":"廿日市市","city_kana":"ハツカイチシ","town":"大野高畑","town_kana":"オオノタカバタケ","prefecture_code":34},"0476":{"zip_code":"7390476","prefecture":"広島県","prefecture_kana":"ヒロシマケン","city":"廿日市市","city_kana":"ハツカイチシ","town":"大野高見","town_kana":"オオノタカミ","prefecture_code":34},"0466":{"zip_code":"7390466","prefecture":"広島県","prefecture_kana":"ヒロシマケン","city":"廿日市市","city_kana":"ハツカイチシ","town":"大野滝ノ下","town_kana":"オオノタキノシタ","prefecture_code":34},"0472":{"zip_code":"7390472","prefecture":"広島県","prefecture_kana":"ヒロシマケン","city":"廿日市市","city_kana":"ハツカイチシ","town":"大野棚田","town_kana":"オオノタナダ","prefecture_code":34},"0473":{"zip_code":"7390473","prefecture":"広島県","prefecture_kana":"ヒロシマケン","city":"廿日市市","city_kana":"ハツカイチシ","town":"大野田屋","town_kana":"オオノタヤ","prefecture_code":34},"0437":{"zip_code":"7390437","prefecture":"広島県","prefecture_kana":"ヒロシマケン","city":"廿日市市","city_kana":"ハツカイチシ","town":"大野中央","town_kana":"オオノチュウオウ","prefecture_code":34},"0474":{"zip_code":"7390474","prefecture":"広島県","prefecture_kana":"ヒロシマケン","city":"廿日市市","city_kana":"ハツカイチシ","town":"大野土井","town_kana":"オオノドイ","prefecture_code":34},"0405":{"zip_code":"7390405","prefecture":"広島県","prefecture_kana":"ヒロシマケン","city":"廿日市市","city_kana":"ハツカイチシ","town":"大野戸石川","town_kana":"オオノトイシガワ","prefecture_code":34},"0467":{"zip_code":"7390467","prefecture":"広島県","prefecture_kana":"ヒロシマケン","city":"廿日市市","city_kana":"ハツカイチシ","town":"大野中津岡","town_kana":"オオノナカツオカ","prefecture_code":34},"0406":{"zip_code":"7390406","prefecture":"広島県","prefecture_kana":"ヒロシマケン","city":"廿日市市","city_kana":"ハツカイチシ","town":"大野中山","town_kana":"オオノナカヤマ","prefecture_code":34},"0458":{"zip_code":"7390458","prefecture":"広島県","prefecture_kana":"ヒロシマケン","city":"廿日市市","city_kana":"ハツカイチシ","town":"大野鳴川","town_kana":"オオノナルカワ","prefecture_code":34},"0663":{"zip_code":"7390663","prefecture":"広島県","prefecture_kana":"ヒロシマケン","city":"廿日市市","city_kana":"ハツカイチシ","town":"大野奴メリ谷","town_kana":"オオノヌメリダニ","prefecture_code":34},"0471":{"zip_code":"7390471","prefecture":"広島県","prefecture_kana":"ヒロシマケン","city":"廿日市市","city_kana":"ハツカイチシ","town":"大野別府","town_kana":"オオノベフ","prefecture_code":34},"0477":{"zip_code":"7390477","prefecture":"広島県","prefecture_kana":"ヒロシマケン","city":"廿日市市","city_kana":"ハツカイチシ","town":"大野水口","town_kana":"オオノミズグチ","prefecture_code":34},"0464":{"zip_code":"7390464","prefecture":"広島県","prefecture_kana":"ヒロシマケン","city":"廿日市市","city_kana":"ハツカイチシ","town":"大野水ノ越","town_kana":"オオノミノコシ","prefecture_code":34},"0665":{"zip_code":"7390665","prefecture":"広島県","prefecture_kana":"ヒロシマケン","city":"廿日市市","city_kana":"ハツカイチシ","town":"大野横撫","town_kana":"オオノヨコナデ","prefecture_code":34},"0434":{"zip_code":"7390434","prefecture":"広島県","prefecture_kana":"ヒロシマケン","city":"廿日市市","city_kana":"ハツカイチシ","town":"大野","town_kana":"オオノ","prefecture_code":34},"0488":{"zip_code":"7390488","prefecture":"広島県","prefecture_kana":"ヒロシマケン","city":"廿日市市","city_kana":"ハツカイチシ","town":"大野","town_kana":"オオノ","prefecture_code":34},"0441":{"zip_code":"7390441","prefecture":"広島県","prefecture_kana":"ヒロシマケン","city":"廿日市市","city_kana":"ハツカイチシ","town":"大野原","town_kana":"オオノハラ","prefecture_code":34},"0443":{"zip_code":"7390443","prefecture":"広島県","prefecture_kana":"ヒロシマケン","city":"廿日市市","city_kana":"ハツカイチシ","town":"沖塩屋","town_kana":"オキシオヤ","prefecture_code":34},"0432":{"zip_code":"7390432","prefecture":"広島県","prefecture_kana":"ヒロシマケン","city":"廿日市市","city_kana":"ハツカイチシ","town":"上の浜","town_kana":"カミノハマ","prefecture_code":34},"0445":{"zip_code":"7390445","prefecture":"広島県","prefecture_kana":"ヒロシマケン","city":"廿日市市","city_kana":"ハツカイチシ","town":"塩屋","town_kana":"シオヤ","prefecture_code":34},"0433":{"zip_code":"7390433","prefecture":"広島県","prefecture_kana":"ヒロシマケン","city":"廿日市市","city_kana":"ハツカイチシ","town":"下の浜","town_kana":"シモノハマ","prefecture_code":34},"0402":{"zip_code":"7390402","prefecture":"広島県","prefecture_kana":"ヒロシマケン","city":"廿日市市","city_kana":"ハツカイチシ","town":"対厳山","town_kana":"タイゲンザン","prefecture_code":34},"0455":{"zip_code":"7390455","prefecture":"広島県","prefecture_kana":"ヒロシマケン","city":"廿日市市","city_kana":"ハツカイチシ","town":"八坂","town_kana":"ハッサカ","prefecture_code":34},"0444":{"zip_code":"7390444","prefecture":"広島県","prefecture_kana":"ヒロシマケン","city":"廿日市市","city_kana":"ハツカイチシ","town":"林が原","town_kana":"ハヤシガハラ","prefecture_code":34},"0421":{"zip_code":"7390421","prefecture":"広島県","prefecture_kana":"ヒロシマケン","city":"廿日市市","city_kana":"ハツカイチシ","town":"深江","town_kana":"フカエ","prefecture_code":34},"0401":{"zip_code":"7390401","prefecture":"広島県","prefecture_kana":"ヒロシマケン","city":"廿日市市","city_kana":"ハツカイチシ","town":"福面","town_kana":"フクメン","prefecture_code":34},"0424":{"zip_code":"7390424","prefecture":"広島県","prefecture_kana":"ヒロシマケン","city":"廿日市市","city_kana":"ハツカイチシ","town":"前空","town_kana":"マエゾラ","prefecture_code":34},"0452":{"zip_code":"7390452","prefecture":"広島県","prefecture_kana":"ヒロシマケン","city":"廿日市市","city_kana":"ハツカイチシ","town":"丸石","town_kana":"マルイシ","prefecture_code":34},"0411":{"zip_code":"7390411","prefecture":"広島県","prefecture_kana":"ヒロシマケン","city":"廿日市市","city_kana":"ハツカイチシ","town":"宮島口","town_kana":"ミヤジマグチ","prefecture_code":34},"0413":{"zip_code":"7390413","prefecture":"広島県","prefecture_kana":"ヒロシマケン","city":"廿日市市","city_kana":"ハツカイチシ","town":"宮島口上","town_kana":"ミヤジマグチウエ","prefecture_code":34},"0412":{"zip_code":"7390412","prefecture":"広島県","prefecture_kana":"ヒロシマケン","city":"廿日市市","city_kana":"ハツカイチシ","town":"宮島口西","town_kana":"ミヤジマグチニシ","prefecture_code":34},"0414":{"zip_code":"7390414","prefecture":"広島県","prefecture_kana":"ヒロシマケン","city":"廿日市市","city_kana":"ハツカイチシ","town":"宮島口東","town_kana":"ミヤジマグチヒガシ","prefecture_code":34},"0541":{"zip_code":"7390541","prefecture":"広島県","prefecture_kana":"ヒロシマケン","city":"廿日市市","city_kana":"ハツカイチシ","town":"宮島町網之浦","town_kana":"ミヤジマチョウアミノウラ","prefecture_code":34},"0511":{"zip_code":"7390511","prefecture":"広島県","prefecture_kana":"ヒロシマケン","city":"廿日市市","city_kana":"ハツカイチシ","town":"宮島町伊勢町","town_kana":"ミヤジマチョウイセマチ","prefecture_code":34},"0515":{"zip_code":"7390515","prefecture":"広島県","prefecture_kana":"ヒロシマケン","city":"廿日市市","city_kana":"ハツカイチシ","town":"宮島町魚之棚町","town_kana":"ミヤジマチョウウオノタナチョウ","prefecture_code":34},"0505":{"zip_code":"7390505","prefecture":"広島県","prefecture_kana":"ヒロシマケン","city":"廿日市市","city_kana":"ハツカイチシ","town":"宮島町胡町","town_kana":"ミヤジマチョウエビスマチ","prefecture_code":34},"0507":{"zip_code":"7390507","prefecture":"広島県","prefecture_kana":"ヒロシマケン","city":"廿日市市","city_kana":"ハツカイチシ","town":"宮島町大砂利","town_kana":"ミヤジマチョウオオジャリ","prefecture_code":34},"0521":{"zip_code":"7390521","prefecture":"広島県","prefecture_kana":"ヒロシマケン","city":"廿日市市","city_kana":"ハツカイチシ","town":"宮島町大町","town_kana":"ミヤジマチョウオオマチ","prefecture_code":34},"0513":{"zip_code":"7390513","prefecture":"広島県","prefecture_kana":"ヒロシマケン","city":"廿日市市","city_kana":"ハツカイチシ","town":"宮島町上西連町","town_kana":"ミヤジマチョウカミサイレンチョウ","prefecture_code":34},"0531":{"zip_code":"7390531","prefecture":"広島県","prefecture_kana":"ヒロシマケン","city":"廿日市市","city_kana":"ハツカイチシ","town":"宮島町上中西町","town_kana":"ミヤジマチョウカミナカニシチョウ","prefecture_code":34},"0535":{"zip_code":"7390535","prefecture":"広島県","prefecture_kana":"ヒロシマケン","city":"廿日市市","city_kana":"ハツカイチシ","town":"宮島町北大西町","town_kana":"ミヤジマチョウキタオオニシチョウ","prefecture_code":34},"0552":{"zip_code":"7390552","prefecture":"広島県","prefecture_kana":"ヒロシマケン","city":"廿日市市","city_kana":"ハツカイチシ","town":"宮島町北之町西表","town_kana":"ミヤジマチョウキタノチョウニシオモテ","prefecture_code":34},"0559":{"zip_code":"7390559","prefecture":"広島県","prefecture_kana":"ヒロシマケン","city":"廿日市市","city_kana":"ハツカイチシ","town":"宮島町北之町浜","town_kana":"ミヤジマチョウキタノチョウハマ","prefecture_code":34},"0551":{"zip_code":"7390551","prefecture":"広島県","prefecture_kana":"ヒロシマケン","city":"廿日市市","city_kana":"ハツカイチシ","town":"宮島町北之町東表","town_kana":"ミヤジマチョウキタノチョウヒガシオモテ","prefecture_code":34},"0525":{"zip_code":"7390525","prefecture":"広島県","prefecture_kana":"ヒロシマケン","city":"廿日市市","city_kana":"ハツカイチシ","town":"宮島町久保町","town_kana":"ミヤジマチョウクボマチ","prefecture_code":34},"0555":{"zip_code":"7390555","prefecture":"広島県","prefecture_kana":"ヒロシマケン","city":"廿日市市","city_kana":"ハツカイチシ","town":"宮島町幸町西表","town_kana":"ミヤジマチョウサイワイチョウニシオモテ","prefecture_code":34},"0556":{"zip_code":"7390556","prefecture":"広島県","prefecture_kana":"ヒロシマケン","city":"廿日市市","city_kana":"ハツカイチシ","town":"宮島町幸町西浜","town_kana":"ミヤジマチョウサイワイチョウニシハマ","prefecture_code":34},"0554":{"zip_code":"7390554","prefecture":"広島県","prefecture_kana":"ヒロシマケン","city":"廿日市市","city_kana":"ハツカイチシ","town":"宮島町幸町東表","town_kana":"ミヤジマチョウサイワイチョウヒガシオモテ","prefecture_code":34},"0557":{"zip_code":"7390557","prefecture":"広島県","prefecture_kana":"ヒロシマケン","city":"廿日市市","city_kana":"ハツカイチシ","town":"宮島町幸町東浜","town_kana":"ミヤジマチョウサイワイチョウヒガシハマ","prefecture_code":34},"0516":{"zip_code":"7390516","prefecture":"広島県","prefecture_kana":"ヒロシマケン","city":"廿日市市","city_kana":"ハツカイチシ","town":"宮島町桜町","town_kana":"ミヤジマチョウサクラマチ","prefecture_code":34},"0518":{"zip_code":"7390518","prefecture":"広島県","prefecture_kana":"ヒロシマケン","city":"廿日市市","city_kana":"ハツカイチシ","town":"宮島町下西連町","town_kana":"ミヤジマチョウシモサイレンチョウ","prefecture_code":34},"0536":{"zip_code":"7390536","prefecture":"広島県","prefecture_kana":"ヒロシマケン","city":"廿日市市","city_kana":"ハツカイチシ","town":"宮島町下中西町","town_kana":"ミヤジマチョウシモナカニシチョウ","prefecture_code":34},"0512":{"zip_code":"7390512","prefecture":"広島県","prefecture_kana":"ヒロシマケン","city":"廿日市市","city_kana":"ハツカイチシ","town":"宮島町新町","town_kana":"ミヤジマチョウシンマチ","prefecture_code":34},"0501":{"zip_code":"7390501","prefecture":"広島県","prefecture_kana":"ヒロシマケン","city":"廿日市市","city_kana":"ハツカイチシ","town":"宮島町杉之浦","town_kana":"ミヤジマチョウスギノウラ","prefecture_code":34},"0502":{"zip_code":"7390502","prefecture":"広島県","prefecture_kana":"ヒロシマケン","city":"廿日市市","city_kana":"ハツカイチシ","town":"宮島町","town_kana":"ミヤジマチョウ","prefecture_code":34},"0524":{"zip_code":"7390524","prefecture":"広島県","prefecture_kana":"ヒロシマケン","city":"廿日市市","city_kana":"ハツカイチシ","town":"宮島町滝町","town_kana":"ミヤジマチョウタキマチ","prefecture_code":34},"0542":{"zip_code":"7390542","prefecture":"広島県","prefecture_kana":"ヒロシマケン","city":"廿日市市","city_kana":"ハツカイチシ","town":"宮島町多々良潟","town_kana":"ミヤジマチョウタタラガタ","prefecture_code":34},"0523":{"zip_code":"7390523","prefecture":"広島県","prefecture_kana":"ヒロシマケン","city":"廿日市市","city_kana":"ハツカイチシ","town":"宮島町中江町","town_kana":"ミヤジマチョウチュウエマチ","prefecture_code":34},"0553":{"zip_code":"7390553","prefecture":"広島県","prefecture_kana":"ヒロシマケン","city":"廿日市市","city_kana":"ハツカイチシ","town":"宮島町中之町表","town_kana":"ミヤジマチョウナカノチョウオモテ","prefecture_code":34},"0558":{"zip_code":"7390558","prefecture":"広島県","prefecture_kana":"ヒロシマケン","city":"廿日市市","city_kana":"ハツカイチシ","town":"宮島町中之町浜","town_kana":"ミヤジマチョウナカノチョウハマ","prefecture_code":34},"0534":{"zip_code":"7390534","prefecture":"広島県","prefecture_kana":"ヒロシマケン","city":"廿日市市","city_kana":"ハツカイチシ","town":"宮島町西大西町","town_kana":"ミヤジマチョウニシオオニシチョウ","prefecture_code":34},"0550":{"zip_code":"7390550","prefecture":"広島県","prefecture_kana":"ヒロシマケン","city":"廿日市市","city_kana":"ハツカイチシ","town":"宮島町浜之町","town_kana":"ミヤジマチョウハマノチョウ","prefecture_code":34},"0532":{"zip_code":"7390532","prefecture":"広島県","prefecture_kana":"ヒロシマケン","city":"廿日市市","city_kana":"ハツカイチシ","town":"宮島町東大西町","town_kana":"ミヤジマチョウヒガシオオニシチョウ","prefecture_code":34},"0514":{"zip_code":"7390514","prefecture":"広島県","prefecture_kana":"ヒロシマケン","city":"廿日市市","city_kana":"ハツカイチシ","town":"宮島町東西連町","town_kana":"ミヤジマチョウヒガシサイレンチョウ","prefecture_code":34},"0503":{"zip_code":"7390503","prefecture":"広島県","prefecture_kana":"ヒロシマケン","city":"廿日市市","city_kana":"ハツカイチシ","town":"宮島町ひの木団地","town_kana":"ミヤジマチョウヒノキダンチ","prefecture_code":34},"0506":{"zip_code":"7390506","prefecture":"広島県","prefecture_kana":"ヒロシマケン","city":"廿日市市","city_kana":"ハツカイチシ","town":"宮島町緑町","town_kana":"ミヤジマチョウミドリマチ","prefecture_code":34},"0504":{"zip_code":"7390504","prefecture":"広島県","prefecture_kana":"ヒロシマケン","city":"廿日市市","city_kana":"ハツカイチシ","town":"宮島町港町","town_kana":"ミヤジマチョウミナトマチ","prefecture_code":34},"0533":{"zip_code":"7390533","prefecture":"広島県","prefecture_kana":"ヒロシマケン","city":"廿日市市","city_kana":"ハツカイチシ","town":"宮島町南大西町","town_kana":"ミヤジマチョウミナミオオニシチョウ","prefecture_code":34},"0522":{"zip_code":"7390522","prefecture":"広島県","prefecture_kana":"ヒロシマケン","city":"廿日市市","city_kana":"ハツカイチシ","town":"宮島町南町","town_kana":"ミヤジマチョウミナミマチ","prefecture_code":34},"0543":{"zip_code":"7390543","prefecture":"広島県","prefecture_kana":"ヒロシマケン","city":"廿日市市","city_kana":"ハツカイチシ","town":"宮島町室浜","town_kana":"ミヤジマチョウムロハマ","prefecture_code":34},"0517":{"zip_code":"7390517","prefecture":"広島県","prefecture_kana":"ヒロシマケン","city":"廿日市市","city_kana":"ハツカイチシ","town":"宮島町大和町","town_kana":"ミヤジマチョウヤマトマチ","prefecture_code":34},"0588":{"zip_code":"7390588","prefecture":"広島県","prefecture_kana":"ヒロシマケン","city":"廿日市市","city_kana":"ハツカイチシ","town":"宮島町","town_kana":"ミヤジマチョウ","prefecture_code":34},"0454":{"zip_code":"7390454","prefecture":"広島県","prefecture_kana":"ヒロシマケン","city":"廿日市市","city_kana":"ハツカイチシ","town":"宮浜温泉","town_kana":"ミヤハマオンセン","prefecture_code":34},"0425":{"zip_code":"7390425","prefecture":"広島県","prefecture_kana":"ヒロシマケン","city":"廿日市市","city_kana":"ハツカイチシ","town":"物見西","town_kana":"モノミニシ","prefecture_code":34},"0426":{"zip_code":"7390426","prefecture":"広島県","prefecture_kana":"ヒロシマケン","city":"廿日市市","city_kana":"ハツカイチシ","town":"物見東","town_kana":"モノミヒガシ","prefecture_code":34},"1106":{"zip_code":"7391106","prefecture":"広島県","prefecture_kana":"ヒロシマケン","city":"安芸高田市","city_kana":"アキタカタシ","town":"甲田町浅塚","town_kana":"コウダチョウアサツカ","prefecture_code":34},"1102":{"zip_code":"7391102","prefecture":"広島県","prefecture_kana":"ヒロシマケン","city":"安芸高田市","city_kana":"アキタカタシ","town":"甲田町上小原","town_kana":"コウダチョウカミオバラ","prefecture_code":34},"1104":{"zip_code":"7391104","prefecture":"広島県","prefecture_kana":"ヒロシマケン","city":"安芸高田市","city_kana":"アキタカタシ","town":"甲田町上甲立","town_kana":"コウダチョウカミコウタチ","prefecture_code":34},"1103":{"zip_code":"7391103","prefecture":"広島県","prefecture_kana":"ヒロシマケン","city":"安芸高田市","city_kana":"アキタカタシ","town":"甲田町下小原","town_kana":"コウダチョウシモオバラ","prefecture_code":34},"1105":{"zip_code":"7391105","prefecture":"広島県","prefecture_kana":"ヒロシマケン","city":"安芸高田市","city_kana":"アキタカタシ","town":"甲田町下甲立","town_kana":"コウダチョウシモコウタチ","prefecture_code":34},"1107":{"zip_code":"7391107","prefecture":"広島県","prefecture_kana":"ヒロシマケン","city":"安芸高田市","city_kana":"アキタカタシ","town":"甲田町糘地","town_kana":"コウダチョウスクモジ","prefecture_code":34},"1101":{"zip_code":"7391101","prefecture":"広島県","prefecture_kana":"ヒロシマケン","city":"安芸高田市","city_kana":"アキタカタシ","town":"甲田町高田原","town_kana":"コウダチョウタカタバラ","prefecture_code":34},"1108":{"zip_code":"7391108","prefecture":"広島県","prefecture_kana":"ヒロシマケン","city":"安芸高田市","city_kana":"アキタカタシ","town":"甲田町深瀬","town_kana":"コウダチョウフカセ","prefecture_code":34},"1801":{"zip_code":"7391801","prefecture":"広島県","prefecture_kana":"ヒロシマケン","city":"安芸高田市","city_kana":"アキタカタシ","town":"高宮町川根","town_kana":"タカミヤチョウカワネ","prefecture_code":34},"1806":{"zip_code":"7391806","prefecture":"広島県","prefecture_kana":"ヒロシマケン","city":"安芸高田市","city_kana":"アキタカタシ","town":"高宮町来女木","town_kana":"タカミヤチョウクルメギ","prefecture_code":34},"1802":{"zip_code":"7391802","prefecture":"広島県","prefecture_kana":"ヒロシマケン","city":"安芸高田市","city_kana":"アキタカタシ","town":"高宮町佐々部","town_kana":"タカミヤチョウササベ","prefecture_code":34},"1807":{"zip_code":"7391807","prefecture":"広島県","prefecture_kana":"ヒロシマケン","city":"安芸高田市","city_kana":"アキタカタシ","town":"高宮町羽佐竹","town_kana":"タカミヤチョウハサダケ","prefecture_code":34},"1805":{"zip_code":"7391805","prefecture":"広島県","prefecture_kana":"ヒロシマケン","city":"安芸高田市","city_kana":"アキタカタシ","town":"高宮町原田","town_kana":"タカミヤチョウハラダ","prefecture_code":34},"1803":{"zip_code":"7391803","prefecture":"広島県","prefecture_kana":"ヒロシマケン","city":"安芸高田市","city_kana":"アキタカタシ","town":"高宮町船木","town_kana":"タカミヤチョウフナキ","prefecture_code":34},"1804":{"zip_code":"7391804","prefecture":"広島県","prefecture_kana":"ヒロシマケン","city":"安芸高田市","city_kana":"アキタカタシ","town":"高宮町房後","town_kana":"タカミヤチョウボウゴ","prefecture_code":34},"1204":{"zip_code":"7391204","prefecture":"広島県","prefecture_kana":"ヒロシマケン","city":"安芸高田市","city_kana":"アキタカタシ","town":"向原町有留","town_kana":"ムカイハラチョウアリドメ","prefecture_code":34},"1201":{"zip_code":"7391201","prefecture":"広島県","prefecture_kana":"ヒロシマケン","city":"安芸高田市","city_kana":"アキタカタシ","town":"向原町坂","town_kana":"ムカイハラチョウサカ","prefecture_code":34},"1202":{"zip_code":"7391202","prefecture":"広島県","prefecture_kana":"ヒロシマケン","city":"安芸高田市","city_kana":"アキタカタシ","town":"向原町戸島","town_kana":"ムカイハラチョウトシマ","prefecture_code":34},"1203":{"zip_code":"7391203","prefecture":"広島県","prefecture_kana":"ヒロシマケン","city":"安芸高田市","city_kana":"アキタカタシ","town":"向原町長田","town_kana":"ムカイハラチョウナガタ","prefecture_code":34},"1205":{"zip_code":"7391205","prefecture":"広島県","prefecture_kana":"ヒロシマケン","city":"安芸高田市","city_kana":"アキタカタシ","town":"向原町保垣","town_kana":"ムカイハラチョウホガキ","prefecture_code":34}}