{"0000":[{"zip_code":"7400000","prefecture":"山口県","prefecture_kana":"ヤマグチケン","city":"岩国市","city_kana":"イワクニシ","town":"","town_kana":"","prefecture_code":35},{"zip_code":"7400000","prefecture":"山口県","prefecture_kana":"ヤマグチケン","city":"玖珂郡和木町","city_kana":"クガグンワキチョウ","town":"","town_kana":"","prefecture_code":35}],"0304":{"zip_code":"7400304","prefecture":"山口県","prefecture_kana":"ヤマグチケン","city":"岩国市","city_kana":"イワクニシ","town":"相ノ谷","town_kana":"アイノタニ","prefecture_code":35},"0024":{"zip_code":"7400024","prefecture":"山口県","prefecture_kana":"ヤマグチケン","city":"岩国市","city_kana":"イワクニシ","town":"旭町","town_kana":"アサヒマチ","prefecture_code":35},"0037":{"zip_code":"7400037","prefecture":"山口県","prefecture_kana":"ヤマグチケン","city":"岩国市","city_kana":"イワクニシ","town":"愛宕町","town_kana":"アタゴマチ","prefecture_code":35},"0003":{"zip_code":"7400003","prefecture":"山口県","prefecture_kana":"ヤマグチケン","city":"岩国市","city_kana":"イワクニシ","town":"飯田町","town_kana":"イイダマチ","prefecture_code":35},"0324":{"zip_code":"7400324","prefecture":"山口県","prefecture_kana":"ヤマグチケン","city":"岩国市","city_kana":"イワクニシ","town":"伊房","town_kana":"イフサ","prefecture_code":35},"0017":{"zip_code":"7400017","prefecture":"山口県","prefecture_kana":"ヤマグチケン","city":"岩国市","city_kana":"イワクニシ","town":"今津町","town_kana":"イマヅマチ","prefecture_code":35},"0321":{"zip_code":"7400321","prefecture":"山口県","prefecture_kana":"ヤマグチケン","city":"岩国市","city_kana":"イワクニシ","town":"入野","town_kana":"イリノ","prefecture_code":35},"0317":{"zip_code":"7400317","prefecture":"山口県","prefecture_kana":"ヤマグチケン","city":"岩国市","city_kana":"イワクニシ","town":"上田","town_kana":"ウエダ","prefecture_code":35},"0042":{"zip_code":"7400042","prefecture":"山口県","prefecture_kana":"ヤマグチケン","city":"岩国市","city_kana":"イワクニシ","town":"青木町","town_kana":"オオギマチ","prefecture_code":35},"0323":{"zip_code":"7400323","prefecture":"山口県","prefecture_kana":"ヤマグチケン","city":"岩国市","city_kana":"イワクニシ","town":"大山","town_kana":"オオヤマ","prefecture_code":35},"0032":{"zip_code":"7400032","prefecture":"山口県","prefecture_kana":"ヤマグチケン","city":"岩国市","city_kana":"イワクニシ","town":"尾津町","town_kana":"オヅマチ","prefecture_code":35},"0013":{"zip_code":"7400013","prefecture":"山口県","prefecture_kana":"ヤマグチケン","city":"岩国市","city_kana":"イワクニシ","town":"桂町","town_kana":"カツラマチ","prefecture_code":35},"0015":{"zip_code":"7400015","prefecture":"山口県","prefecture_kana":"ヤマグチケン","city":"岩国市","city_kana":"イワクニシ","town":"川口町","town_kana":"カワグチマチ","prefecture_code":35},"0023":{"zip_code":"7400023","prefecture":"山口県","prefecture_kana":"ヤマグチケン","city":"岩国市","city_kana":"イワクニシ","town":"川下町","town_kana":"カワシモマチ","prefecture_code":35},"0311":{"zip_code":"7400311","prefecture":"山口県","prefecture_kana":"ヤマグチケン","city":"岩国市","city_kana":"イワクニシ","town":"瓦谷","town_kana":"カワラダニ","prefecture_code":35},"0303":{"zip_code":"7400303","prefecture":"山口県","prefecture_kana":"ヤマグチケン","city":"岩国市","city_kana":"イワクニシ","town":"杭名","town_kana":"クイナ","prefecture_code":35},"0028":{"zip_code":"7400028","prefecture":"山口県","prefecture_kana":"ヤマグチケン","city":"岩国市","city_kana":"イワクニシ","town":"楠町","town_kana":"クスノキマチ","prefecture_code":35},"0026":{"zip_code":"7400026","prefecture":"山口県","prefecture_kana":"ヤマグチケン","city":"岩国市","city_kana":"イワクニシ","town":"車町","town_kana":"クルママチ","prefecture_code":35},"0041":{"zip_code":"7400041","prefecture":"山口県","prefecture_kana":"ヤマグチケン","city":"岩国市","city_kana":"イワクニシ","town":"黒磯町","town_kana":"クロイソマチ","prefecture_code":35},"0302":{"zip_code":"7400302","prefecture":"山口県","prefecture_kana":"ヤマグチケン","city":"岩国市","city_kana":"イワクニシ","town":"下","town_kana":"シモ","prefecture_code":35},"0312":{"zip_code":"7400312","prefecture":"山口県","prefecture_kana":"ヤマグチケン","city":"岩国市","city_kana":"イワクニシ","town":"守内","town_kana":"シュウチ","prefecture_code":35},"0001":{"zip_code":"7400001","prefecture":"山口県","prefecture_kana":"ヤマグチケン","city":"岩国市","city_kana":"イワクニシ","town":"装束町","town_kana":"ショウゾクマチ","prefecture_code":35},"0004":{"zip_code":"7400004","prefecture":"山口県","prefecture_kana":"ヤマグチケン","city":"岩国市","city_kana":"イワクニシ","town":"昭和町","town_kana":"ショウワマチ","prefecture_code":35},"0002":{"zip_code":"7400002","prefecture":"山口県","prefecture_kana":"ヤマグチケン","city":"岩国市","city_kana":"イワクニシ","town":"新港町","town_kana":"シンミナトマチ","prefecture_code":35},"0019":{"zip_code":"7400019","prefecture":"山口県","prefecture_kana":"ヤマグチケン","city":"岩国市","city_kana":"イワクニシ","town":"砂山町","town_kana":"スナヤママチ","prefecture_code":35},"0327":{"zip_code":"7400327","prefecture":"山口県","prefecture_kana":"ヤマグチケン","city":"岩国市","city_kana":"イワクニシ","town":"角","town_kana":"スミ","prefecture_code":35},"0325":{"zip_code":"7400325","prefecture":"山口県","prefecture_kana":"ヤマグチケン","city":"岩国市","city_kana":"イワクニシ","town":"竹安","town_kana":"タケヤス","prefecture_code":35},"0011":{"zip_code":"7400011","prefecture":"山口県","prefecture_kana":"ヤマグチケン","city":"岩国市","city_kana":"イワクニシ","town":"立石町","town_kana":"タテイシマチ","prefecture_code":35},"0315":{"zip_code":"7400315","prefecture":"山口県","prefecture_kana":"ヤマグチケン","city":"岩国市","city_kana":"イワクニシ","town":"近延","town_kana":"チカノブ","prefecture_code":35},"0044":{"zip_code":"7400044","prefecture":"山口県","prefecture_kana":"ヤマグチケン","city":"岩国市","city_kana":"イワクニシ","town":"通津","town_kana":"ツヅ","prefecture_code":35},"0314":{"zip_code":"7400314","prefecture":"山口県","prefecture_kana":"ヤマグチケン","city":"岩国市","city_kana":"イワクニシ","town":"寺山","town_kana":"テラヤマ","prefecture_code":35},"0306":{"zip_code":"7400306","prefecture":"山口県","prefecture_kana":"ヤマグチケン","city":"岩国市","city_kana":"イワクニシ","town":"天尾","town_kana":"テンノオ","prefecture_code":35},"0027":{"zip_code":"7400027","prefecture":"山口県","prefecture_kana":"ヤマグチケン","city":"岩国市","city_kana":"イワクニシ","town":"中津町","town_kana":"ナカヅマチ","prefecture_code":35},"0045":{"zip_code":"7400045","prefecture":"山口県","prefecture_kana":"ヤマグチケン","city":"岩国市","city_kana":"イワクニシ","town":"長野","town_kana":"ナガノ","prefecture_code":35},"0033":{"zip_code":"7400033","prefecture":"山口県","prefecture_kana":"ヤマグチケン","city":"岩国市","city_kana":"イワクニシ","town":"灘町","town_kana":"ナダマチ","prefecture_code":35},"0901":{"zip_code":"7400901","prefecture":"山口県","prefecture_kana":"ヤマグチケン","city":"岩国市","city_kana":"イワクニシ","town":"錦町宇佐","town_kana":"ニシキマチウサ","prefecture_code":35},"0904":{"zip_code":"7400904","prefecture":"山口県","prefecture_kana":"ヤマグチケン","city":"岩国市","city_kana":"イワクニシ","town":"錦町宇佐郷向峠","town_kana":"ニシキマチウサゴウムカタオ","prefecture_code":35},"0902":{"zip_code":"7400902","prefecture":"山口県","prefecture_kana":"ヤマグチケン","city":"岩国市","city_kana":"イワクニシ","town":"錦町宇佐郷","town_kana":"ニシキマチウサゴウ","prefecture_code":35},"0721":{"zip_code":"7400721","prefecture":"山口県","prefecture_kana":"ヤマグチケン","city":"岩国市","city_kana":"イワクニシ","town":"錦町大野","town_kana":"ニシキマチオオノ","prefecture_code":35},"0903":{"zip_code":"7400903","prefecture":"山口県","prefecture_kana":"ヤマグチケン","city":"岩国市","city_kana":"イワクニシ","town":"錦町大原","town_kana":"ニシキマチオオハラ","prefecture_code":35},"0811":{"zip_code":"7400811","prefecture":"山口県","prefecture_kana":"ヤマグチケン","city":"岩国市","city_kana":"イワクニシ","town":"錦町須川","town_kana":"ニシキマチスガワ","prefecture_code":35},"0722":{"zip_code":"7400722","prefecture":"山口県","prefecture_kana":"ヤマグチケン","city":"岩国市","city_kana":"イワクニシ","town":"錦町中ノ瀬","town_kana":"ニシキマチナカノセ","prefecture_code":35},"0725":{"zip_code":"7400725","prefecture":"山口県","prefecture_kana":"ヤマグチケン","city":"岩国市","city_kana":"イワクニシ","town":"錦町野谷","town_kana":"ニシキマチノタニ","prefecture_code":35},"0724":{"zip_code":"7400724","prefecture":"山口県","prefecture_kana":"ヤマグチケン","city":"岩国市","city_kana":"イワクニシ","town":"錦町広瀬","town_kana":"ニシキマチヒロセ","prefecture_code":35},"0812":{"zip_code":"7400812","prefecture":"山口県","prefecture_kana":"ヤマグチケン","city":"岩国市","city_kana":"イワクニシ","town":"錦町深川","town_kana":"ニシキマチフカガワ","prefecture_code":35},"0723":{"zip_code":"7400723","prefecture":"山口県","prefecture_kana":"ヤマグチケン","city":"岩国市","city_kana":"イワクニシ","town":"錦町府谷","town_kana":"ニシキマチフノタニ","prefecture_code":35},"0051":{"zip_code":"7400051","prefecture":"山口県","prefecture_kana":"ヤマグチケン","city":"岩国市","city_kana":"イワクニシ","town":"柱島","town_kana":"ハシラジマ","prefecture_code":35},"0322":{"zip_code":"7400322","prefecture":"山口県","prefecture_kana":"ヤマグチケン","city":"岩国市","city_kana":"イワクニシ","town":"廿木","town_kana":"ハタキ","prefecture_code":35},"0326":{"zip_code":"7400326","prefecture":"山口県","prefecture_kana":"ヤマグチケン","city":"岩国市","city_kana":"イワクニシ","town":"土生","town_kana":"ハブ","prefecture_code":35},"0014":{"zip_code":"7400014","prefecture":"山口県","prefecture_kana":"ヤマグチケン","city":"岩国市","city_kana":"イワクニシ","town":"日の出町","town_kana":"ヒノデマチ","prefecture_code":35},"0036":{"zip_code":"7400036","prefecture":"山口県","prefecture_kana":"ヤマグチケン","city":"岩国市","city_kana":"イワクニシ","town":"藤生町","town_kana":"フジュウマチ","prefecture_code":35},"0305":{"zip_code":"7400305","prefecture":"山口県","prefecture_kana":"ヤマグチケン","city":"岩国市","city_kana":"イワクニシ","town":"二鹿","town_kana":"フタシカ","prefecture_code":35},"0313":{"zip_code":"7400313","prefecture":"山口県","prefecture_kana":"ヤマグチケン","city":"岩国市","city_kana":"イワクニシ","town":"保木","town_kana":"ホウキ","prefecture_code":35},"0043":{"zip_code":"7400043","prefecture":"山口県","prefecture_kana":"ヤマグチケン","city":"岩国市","city_kana":"イワクニシ","town":"保津町","town_kana":"ホウヅマチ","prefecture_code":35},"0604":{"zip_code":"7400604","prefecture":"山口県","prefecture_kana":"ヤマグチケン","city":"岩国市","city_kana":"イワクニシ","town":"本郷町宇塚","town_kana":"ホンゴウマチウヅカ","prefecture_code":35},"0605":{"zip_code":"7400605","prefecture":"山口県","prefecture_kana":"ヤマグチケン","city":"岩国市","city_kana":"イワクニシ","town":"本郷町西黒沢","town_kana":"ホンゴウマチニシクロザワ","prefecture_code":35},"0603":{"zip_code":"7400603","prefecture":"山口県","prefecture_kana":"ヤマグチケン","city":"岩国市","city_kana":"イワクニシ","town":"本郷町波野","town_kana":"ホンゴウマチハノ","prefecture_code":35},"0602":{"zip_code":"7400602","prefecture":"山口県","prefecture_kana":"ヤマグチケン","city":"岩国市","city_kana":"イワクニシ","town":"本郷町本郷","town_kana":"ホンゴウマチホンゴウ","prefecture_code":35},"0601":{"zip_code":"7400601","prefecture":"山口県","prefecture_kana":"ヤマグチケン","city":"岩国市","city_kana":"イワクニシ","town":"本郷町本谷","town_kana":"ホンゴウマチホンダニ","prefecture_code":35},"0018":{"zip_code":"7400018","prefecture":"山口県","prefecture_kana":"ヤマグチケン","city":"岩国市","city_kana":"イワクニシ","town":"麻里布町","town_kana":"マリフマチ","prefecture_code":35},"0016":{"zip_code":"7400016","prefecture":"山口県","prefecture_kana":"ヤマグチケン","city":"岩国市","city_kana":"イワクニシ","town":"三笠町","town_kana":"ミカサマチ","prefecture_code":35},"0501":{"zip_code":"7400501","prefecture":"山口県","prefecture_kana":"ヤマグチケン","city":"岩国市","city_kana":"イワクニシ","town":"美川町小川","town_kana":"ミカワマチコガワ","prefecture_code":35},"0502":{"zip_code":"7400502","prefecture":"山口県","prefecture_kana":"ヤマグチケン","city":"岩国市","city_kana":"イワクニシ","town":"美川町四馬神","town_kana":"ミカワマチシメガミ","prefecture_code":35},"0503":{"zip_code":"7400503","prefecture":"山口県","prefecture_kana":"ヤマグチケン","city":"岩国市","city_kana":"イワクニシ","town":"美川町添谷","town_kana":"ミカワマチソエダニ","prefecture_code":35},"0504":{"zip_code":"7400504","prefecture":"山口県","prefecture_kana":"ヤマグチケン","city":"岩国市","city_kana":"イワクニシ","town":"美川町南桑","town_kana":"ミカワマチナグワ","prefecture_code":35},"0505":{"zip_code":"7400505","prefecture":"山口県","prefecture_kana":"ヤマグチケン","city":"岩国市","city_kana":"イワクニシ","town":"美川町根笠","town_kana":"ミカワマチネカサ","prefecture_code":35},"0025":{"zip_code":"7400025","prefecture":"山口県","prefecture_kana":"ヤマグチケン","city":"岩国市","city_kana":"イワクニシ","town":"三角町","town_kana":"ミスミマチ","prefecture_code":35},"0035":{"zip_code":"7400035","prefecture":"山口県","prefecture_kana":"ヤマグチケン","city":"岩国市","city_kana":"イワクニシ","town":"海土路町","town_kana":"ミドロマチ","prefecture_code":35},"0034":{"zip_code":"7400034","prefecture":"山口県","prefecture_kana":"ヤマグチケン","city":"岩国市","city_kana":"イワクニシ","town":"南岩国町","town_kana":"ミナミイワクニマチ","prefecture_code":35},"1241":{"zip_code":"7401241","prefecture":"山口県","prefecture_kana":"ヤマグチケン","city":"岩国市","city_kana":"イワクニシ","town":"美和町阿賀","town_kana":"ミワマチアカ","prefecture_code":35},"1201":{"zip_code":"7401201","prefecture":"山口県","prefecture_kana":"ヤマグチケン","city":"岩国市","city_kana":"イワクニシ","town":"美和町秋掛","town_kana":"ミワマチアキガケ","prefecture_code":35},"1231":{"zip_code":"7401231","prefecture":"山口県","prefecture_kana":"ヤマグチケン","city":"岩国市","city_kana":"イワクニシ","town":"美和町生見","town_kana":"ミワマチイキミ","prefecture_code":35},"1217":{"zip_code":"7401217","prefecture":"山口県","prefecture_kana":"ヤマグチケン","city":"岩国市","city_kana":"イワクニシ","town":"美和町大根川","town_kana":"ミワマチオオネガワ","prefecture_code":35},"1211":{"zip_code":"7401211","prefecture":"山口県","prefecture_kana":"ヤマグチケン","city":"岩国市","city_kana":"イワクニシ","town":"美和町釜ケ原","town_kana":"ミワマチカマガハラ","prefecture_code":35},"1221":{"zip_code":"7401221","prefecture":"山口県","prefecture_kana":"ヤマグチケン","city":"岩国市","city_kana":"イワクニシ","town":"美和町上駄床","town_kana":"ミワマチカミダトコ","prefecture_code":35},"1213":{"zip_code":"7401213","prefecture":"山口県","prefecture_kana":"ヤマグチケン","city":"岩国市","city_kana":"イワクニシ","town":"美和町岸根","town_kana":"ミワマチガンネ","prefecture_code":35},"1202":{"zip_code":"7401202","prefecture":"山口県","prefecture_kana":"ヤマグチケン","city":"岩国市","city_kana":"イワクニシ","town":"美和町北中山","town_kana":"ミワマチキタナカヤマ","prefecture_code":35},"1212":{"zip_code":"7401212","prefecture":"山口県","prefecture_kana":"ヤマグチケン","city":"岩国市","city_kana":"イワクニシ","town":"美和町黒沢","town_kana":"ミワマチクロサワ","prefecture_code":35},"1224":{"zip_code":"7401224","prefecture":"山口県","prefecture_kana":"ヤマグチケン","city":"岩国市","city_kana":"イワクニシ","town":"美和町佐坂","town_kana":"ミワマチサザカ","prefecture_code":35},"1225":{"zip_code":"7401225","prefecture":"山口県","prefecture_kana":"ヤマグチケン","city":"岩国市","city_kana":"イワクニシ","town":"美和町渋前","town_kana":"ミワマチシブクマ","prefecture_code":35},"1242":{"zip_code":"7401242","prefecture":"山口県","prefecture_kana":"ヤマグチケン","city":"岩国市","city_kana":"イワクニシ","town":"美和町下畑","town_kana":"ミワマチシモバタ","prefecture_code":35},"1219":{"zip_code":"7401219","prefecture":"山口県","prefecture_kana":"ヤマグチケン","city":"岩国市","city_kana":"イワクニシ","town":"美和町瀬戸ノ内","town_kana":"ミワマチセトノウチ","prefecture_code":35},"1222":{"zip_code":"7401222","prefecture":"山口県","prefecture_kana":"ヤマグチケン","city":"岩国市","city_kana":"イワクニシ","town":"美和町田ノ口","town_kana":"ミワマチタノクチ","prefecture_code":35},"1218":{"zip_code":"7401218","prefecture":"山口県","prefecture_kana":"ヤマグチケン","city":"岩国市","city_kana":"イワクニシ","town":"美和町中垣内","town_kana":"ミワマチナカガウチ","prefecture_code":35},"1215":{"zip_code":"7401215","prefecture":"山口県","prefecture_kana":"ヤマグチケン","city":"岩国市","city_kana":"イワクニシ","town":"美和町長谷","town_kana":"ミワマチナガタニ","prefecture_code":35},"1223":{"zip_code":"7401223","prefecture":"山口県","prefecture_kana":"ヤマグチケン","city":"岩国市","city_kana":"イワクニシ","town":"美和町滑","town_kana":"ミワマチナメラ","prefecture_code":35},"1232":{"zip_code":"7401232","prefecture":"山口県","prefecture_kana":"ヤマグチケン","city":"岩国市","city_kana":"イワクニシ","town":"美和町西畑","town_kana":"ミワマチニシバタ","prefecture_code":35},"1216":{"zip_code":"7401216","prefecture":"山口県","prefecture_kana":"ヤマグチケン","city":"岩国市","city_kana":"イワクニシ","town":"美和町日宛","town_kana":"ミワマチヒナタ","prefecture_code":35},"1214":{"zip_code":"7401214","prefecture":"山口県","prefecture_kana":"ヤマグチケン","city":"岩国市","city_kana":"イワクニシ","town":"美和町百合谷","town_kana":"ミワマチユリタニ","prefecture_code":35},"0021":{"zip_code":"7400021","prefecture":"山口県","prefecture_kana":"ヤマグチケン","city":"岩国市","city_kana":"イワクニシ","town":"室の木町","town_kana":"ムロノキマチ","prefecture_code":35},"0012":{"zip_code":"7400012","prefecture":"山口県","prefecture_kana":"ヤマグチケン","city":"岩国市","city_kana":"イワクニシ","town":"元町","town_kana":"モトマチ","prefecture_code":35},"0031":{"zip_code":"7400031","prefecture":"山口県","prefecture_kana":"ヤマグチケン","city":"岩国市","city_kana":"イワクニシ","town":"門前町","town_kana":"モンゼンマチ","prefecture_code":35},"0022":{"zip_code":"7400022","prefecture":"山口県","prefecture_kana":"ヤマグチケン","city":"岩国市","city_kana":"イワクニシ","town":"山手町","town_kana":"ヤマテマチ","prefecture_code":35},"1455":{"zip_code":"7401455","prefecture":"山口県","prefecture_kana":"ヤマグチケン","city":"岩国市","city_kana":"イワクニシ","town":"由宇町北","town_kana":"ユウマチキタ","prefecture_code":35},"1432":{"zip_code":"7401432","prefecture":"山口県","prefecture_kana":"ヤマグチケン","city":"岩国市","city_kana":"イワクニシ","town":"由宇町神東","town_kana":"ユウマチシントウ","prefecture_code":35},"1441":{"zip_code":"7401441","prefecture":"山口県","prefecture_kana":"ヤマグチケン","city":"岩国市","city_kana":"イワクニシ","town":"由宇町千鳥ケ丘","town_kana":"ユウマチチドリガオカ","prefecture_code":35},"1428":{"zip_code":"7401428","prefecture":"山口県","prefecture_kana":"ヤマグチケン","city":"岩国市","city_kana":"イワクニシ","town":"由宇町中央","town_kana":"ユウマチチュウオウ","prefecture_code":35},"1454":{"zip_code":"7401454","prefecture":"山口県","prefecture_kana":"ヤマグチケン","city":"岩国市","city_kana":"イワクニシ","town":"由宇町西","town_kana":"ユウマチニシ","prefecture_code":35},"1424":{"zip_code":"7401424","prefecture":"山口県","prefecture_kana":"ヤマグチケン","city":"岩国市","city_kana":"イワクニシ","town":"由宇町港","town_kana":"ユウマチミナト","prefecture_code":35},"1451":{"zip_code":"7401451","prefecture":"山口県","prefecture_kana":"ヤマグチケン","city":"岩国市","city_kana":"イワクニシ","town":"由宇町南","town_kana":"ユウマチミナミ","prefecture_code":35},"1425":{"zip_code":"7401425","prefecture":"山口県","prefecture_kana":"ヤマグチケン","city":"岩国市","city_kana":"イワクニシ","town":"由宇町南沖","town_kana":"ユウマチミナミオキ","prefecture_code":35},"1426":{"zip_code":"7401426","prefecture":"山口県","prefecture_kana":"ヤマグチケン","city":"岩国市","city_kana":"イワクニシ","town":"由宇町由宇崎","town_kana":"ユウマチユウサキ","prefecture_code":35},"1431":{"zip_code":"7401431","prefecture":"山口県","prefecture_kana":"ヤマグチケン","city":"岩国市","city_kana":"イワクニシ","town":"由宇町有家","town_kana":"ユウマチアラケ","prefecture_code":35},"1405":{"zip_code":"7401405","prefecture":"山口県","prefecture_kana":"ヤマグチケン","city":"岩国市","city_kana":"イワクニシ","town":"由宇町笠塚","town_kana":"ユウマチカサヅカ","prefecture_code":35},"1413":{"zip_code":"7401413","prefecture":"山口県","prefecture_kana":"ヤマグチケン","city":"岩国市","city_kana":"イワクニシ","town":"由宇町上北","town_kana":"ユウマチカミキタ","prefecture_code":35},"1406":{"zip_code":"7401406","prefecture":"山口県","prefecture_kana":"ヤマグチケン","city":"岩国市","city_kana":"イワクニシ","town":"由宇町峇清","town_kana":"ユウマチゴウセイ","prefecture_code":35},"1411":{"zip_code":"7401411","prefecture":"山口県","prefecture_kana":"ヤマグチケン","city":"岩国市","city_kana":"イワクニシ","town":"由宇町清水","town_kana":"ユウマチシミズ","prefecture_code":35},"1402":{"zip_code":"7401402","prefecture":"山口県","prefecture_kana":"ヤマグチケン","city":"岩国市","city_kana":"イワクニシ","town":"由宇町小槇","town_kana":"ユウマチショウシン","prefecture_code":35},"1452":{"zip_code":"7401452","prefecture":"山口県","prefecture_kana":"ヤマグチケン","city":"岩国市","city_kana":"イワクニシ","town":"由宇町正南","town_kana":"ユウマチセイナン","prefecture_code":35},"1401":{"zip_code":"7401401","prefecture":"山口県","prefecture_kana":"ヤマグチケン","city":"岩国市","city_kana":"イワクニシ","town":"由宇町寺迫","town_kana":"ユウマチテラザコ","prefecture_code":35},"1403":{"zip_code":"7401403","prefecture":"山口県","prefecture_kana":"ヤマグチケン","city":"岩国市","city_kana":"イワクニシ","town":"由宇町中倉","town_kana":"ユウマチナカクラ","prefecture_code":35},"1412":{"zip_code":"7401412","prefecture":"山口県","prefecture_kana":"ヤマグチケン","city":"岩国市","city_kana":"イワクニシ","town":"由宇町中村","town_kana":"ユウマチナカムラ","prefecture_code":35},"1404":{"zip_code":"7401404","prefecture":"山口県","prefecture_kana":"ヤマグチケン","city":"岩国市","city_kana":"イワクニシ","town":"由宇町西区","town_kana":"ユウマチニシク","prefecture_code":35},"1407":{"zip_code":"7401407","prefecture":"山口県","prefecture_kana":"ヤマグチケン","city":"岩国市","city_kana":"イワクニシ","town":"由宇町横道","town_kana":"ユウマチヨコミチ","prefecture_code":35},"1488":{"zip_code":"7401488","prefecture":"山口県","prefecture_kana":"ヤマグチケン","city":"岩国市","city_kana":"イワクニシ","town":"由宇町","town_kana":"ユウマチ","prefecture_code":35},"0301":{"zip_code":"7400301","prefecture":"山口県","prefecture_kana":"ヤマグチケン","city":"岩国市","city_kana":"イワクニシ","town":"行波","town_kana":"ユカバ","prefecture_code":35},"0316":{"zip_code":"7400316","prefecture":"山口県","prefecture_kana":"ヤマグチケン","city":"岩国市","city_kana":"イワクニシ","town":"行正","town_kana":"ユキマサ","prefecture_code":35},"0063":{"zip_code":"7400063","prefecture":"山口県","prefecture_kana":"ヤマグチケン","city":"玖珂郡和木町","city_kana":"クガグンワキチョウ","town":"関ケ浜","town_kana":"セキガハマ","prefecture_code":35},"0062":{"zip_code":"7400062","prefecture":"山口県","prefecture_kana":"ヤマグチケン","city":"玖珂郡和木町","city_kana":"クガグンワキチョウ","town":"瀬田","town_kana":"セタ","prefecture_code":35},"0061":{"zip_code":"7400061","prefecture":"山口県","prefecture_kana":"ヤマグチケン","city":"玖珂郡和木町","city_kana":"クガグンワキチョウ","town":"和木","town_kana":"ワキ","prefecture_code":35}}