{"0332":{"zip_code":"7420332","prefecture":"山口県","prefecture_kana":"ヤマグチケン","city":"岩国市","city_kana":"イワクニシ","town":"玖珂町（阿山）","town_kana":"クガマチ(アヤマ)","prefecture_code":35},"0338":{"zip_code":"7420338","prefecture":"山口県","prefecture_kana":"ヤマグチケン","city":"岩国市","city_kana":"イワクニシ","town":"玖珂町（有延）","town_kana":"クガマチ(アリノブ)","prefecture_code":35},"0321":{"zip_code":"7420321","prefecture":"山口県","prefecture_kana":"ヤマグチケン","city":"岩国市","city_kana":"イワクニシ","town":"玖珂町（市頭）","town_kana":"クガマチ(イチガシラ)","prefecture_code":35},"0334":{"zip_code":"7420334","prefecture":"山口県","prefecture_kana":"ヤマグチケン","city":"岩国市","city_kana":"イワクニシ","town":"玖珂町（臼田）","town_kana":"クガマチ(ウスダ)","prefecture_code":35},"0322":{"zip_code":"7420322","prefecture":"山口県","prefecture_kana":"ヤマグチケン","city":"岩国市","city_kana":"イワクニシ","town":"玖珂町（上市）","town_kana":"クガマチ(ウワイチ)","prefecture_code":35},"0324":{"zip_code":"7420324","prefecture":"山口県","prefecture_kana":"ヤマグチケン","city":"岩国市","city_kana":"イワクニシ","town":"玖珂町（駅通）","town_kana":"クガマチ(エキドオリ)","prefecture_code":35},"0342":{"zip_code":"7420342","prefecture":"山口県","prefecture_kana":"ヤマグチケン","city":"岩国市","city_kana":"イワクニシ","town":"玖珂町（大田）","town_kana":"クガマチ(オオタ)","prefecture_code":35},"0312":{"zip_code":"7420312","prefecture":"山口県","prefecture_kana":"ヤマグチケン","city":"岩国市","city_kana":"イワクニシ","town":"玖珂町（上谷）","town_kana":"クガマチ(カミダニ)","prefecture_code":35},"0311":{"zip_code":"7420311","prefecture":"山口県","prefecture_kana":"ヤマグチケン","city":"岩国市","city_kana":"イワクニシ","town":"玖珂町（欽明路）","town_kana":"クガマチ(キンメイジ)","prefecture_code":35},"0337":{"zip_code":"7420337","prefecture":"山口県","prefecture_kana":"ヤマグチケン","city":"岩国市","city_kana":"イワクニシ","town":"玖珂町（久門給）","town_kana":"クガマチ(クモンキュウ)","prefecture_code":35},"0331":{"zip_code":"7420331","prefecture":"山口県","prefecture_kana":"ヤマグチケン","city":"岩国市","city_kana":"イワクニシ","town":"玖珂町（鞍掛）","town_kana":"クガマチ(クラカケ)","prefecture_code":35},"0313":{"zip_code":"7420313","prefecture":"山口県","prefecture_kana":"ヤマグチケン","city":"岩国市","city_kana":"イワクニシ","town":"玖珂町（下谷）","town_kana":"クガマチ(シモダニ)","prefecture_code":35},"0336":{"zip_code":"7420336","prefecture":"山口県","prefecture_kana":"ヤマグチケン","city":"岩国市","city_kana":"イワクニシ","town":"玖珂町（新市）","town_kana":"クガマチ(シンイチ)","prefecture_code":35},"0335":{"zip_code":"7420335","prefecture":"山口県","prefecture_kana":"ヤマグチケン","city":"岩国市","city_kana":"イワクニシ","town":"玖珂町（新町）","town_kana":"クガマチ(シンマチ)","prefecture_code":35},"0315":{"zip_code":"7420315","prefecture":"山口県","prefecture_kana":"ヤマグチケン","city":"岩国市","city_kana":"イワクニシ","town":"玖珂町（瀬田）","town_kana":"クガマチ(セダ)","prefecture_code":35},"0333":{"zip_code":"7420333","prefecture":"山口県","prefecture_kana":"ヤマグチケン","city":"岩国市","city_kana":"イワクニシ","town":"玖珂町（千束）","town_kana":"クガマチ(センゾク)","prefecture_code":35},"0326":{"zip_code":"7420326","prefecture":"山口県","prefecture_kana":"ヤマグチケン","city":"岩国市","city_kana":"イワクニシ","town":"玖珂町（同道）","town_kana":"クガマチ(ドウドウ)","prefecture_code":35},"0314":{"zip_code":"7420314","prefecture":"山口県","prefecture_kana":"ヤマグチケン","city":"岩国市","city_kana":"イワクニシ","town":"玖珂町（野口）","town_kana":"クガマチ(ノグチ)","prefecture_code":35},"0343":{"zip_code":"7420343","prefecture":"山口県","prefecture_kana":"ヤマグチケン","city":"岩国市","city_kana":"イワクニシ","town":"玖珂町（野地）","town_kana":"クガマチ(ノジ)","prefecture_code":35},"0344":{"zip_code":"7420344","prefecture":"山口県","prefecture_kana":"ヤマグチケン","city":"岩国市","city_kana":"イワクニシ","town":"玖珂町（番地のみ）","town_kana":"クガマチ(バンチノミ)","prefecture_code":35},"0325":{"zip_code":"7420325","prefecture":"山口県","prefecture_kana":"ヤマグチケン","city":"岩国市","city_kana":"イワクニシ","town":"玖珂町（本町）","town_kana":"クガマチ(ホンマチ)","prefecture_code":35},"0323":{"zip_code":"7420323","prefecture":"山口県","prefecture_kana":"ヤマグチケン","city":"岩国市","city_kana":"イワクニシ","town":"玖珂町（谷津）","town_kana":"クガマチ(ヤツ)","prefecture_code":35},"0341":{"zip_code":"7420341","prefecture":"山口県","prefecture_kana":"ヤマグチケン","city":"岩国市","city_kana":"イワクニシ","town":"玖珂町（柳井田）","town_kana":"クガマチ(ヤナイダ)","prefecture_code":35},"0411":{"zip_code":"7420411","prefecture":"山口県","prefecture_kana":"ヤマグチケン","city":"岩国市","city_kana":"イワクニシ","town":"周東町明見谷","town_kana":"シュウトウマチアケミダニ","prefecture_code":35},"0422":{"zip_code":"7420422","prefecture":"山口県","prefecture_kana":"ヤマグチケン","city":"岩国市","city_kana":"イワクニシ","town":"周東町獺越","town_kana":"シュウトウマチオソゴエ","prefecture_code":35},"0413":{"zip_code":"7420413","prefecture":"山口県","prefecture_kana":"ヤマグチケン","city":"岩国市","city_kana":"イワクニシ","town":"周東町上久原","town_kana":"シュウトウマチカミクバラ","prefecture_code":35},"0426":{"zip_code":"7420426","prefecture":"山口県","prefecture_kana":"ヤマグチケン","city":"岩国市","city_kana":"イワクニシ","town":"周東町上須通","town_kana":"シュウトウマチカミスドオリ","prefecture_code":35},"0412":{"zip_code":"7420412","prefecture":"山口県","prefecture_kana":"ヤマグチケン","city":"岩国市","city_kana":"イワクニシ","town":"周東町川上","town_kana":"シュウトウマチカワカミ","prefecture_code":35},"0424":{"zip_code":"7420424","prefecture":"山口県","prefecture_kana":"ヤマグチケン","city":"岩国市","city_kana":"イワクニシ","town":"周東町差川","town_kana":"シュウトウマチサスガワ","prefecture_code":35},"0421":{"zip_code":"7420421","prefecture":"山口県","prefecture_kana":"ヤマグチケン","city":"岩国市","city_kana":"イワクニシ","town":"周東町三瀬川","town_kana":"シュウトウマチサンゼガワ","prefecture_code":35},"0417":{"zip_code":"7420417","prefecture":"山口県","prefecture_kana":"ヤマグチケン","city":"岩国市","city_kana":"イワクニシ","town":"周東町下久原","town_kana":"シュウトウマチシモクバラ","prefecture_code":35},"0423":{"zip_code":"7420423","prefecture":"山口県","prefecture_kana":"ヤマグチケン","city":"岩国市","city_kana":"イワクニシ","town":"周東町下須通","town_kana":"シュウトウマチシモスドオリ","prefecture_code":35},"0301":{"zip_code":"7420301","prefecture":"山口県","prefecture_kana":"ヤマグチケン","city":"岩国市","city_kana":"イワクニシ","town":"周東町祖生","town_kana":"シュウトウマチソオ","prefecture_code":35},"0414":{"zip_code":"7420414","prefecture":"山口県","prefecture_kana":"ヤマグチケン","city":"岩国市","city_kana":"イワクニシ","town":"周東町田尻","town_kana":"シュウトウマチタジリ","prefecture_code":35},"0415":{"zip_code":"7420415","prefecture":"山口県","prefecture_kana":"ヤマグチケン","city":"岩国市","city_kana":"イワクニシ","town":"周東町中山","town_kana":"シュウトウマチナカヤマ","prefecture_code":35},"0425":{"zip_code":"7420425","prefecture":"山口県","prefecture_kana":"ヤマグチケン","city":"岩国市","city_kana":"イワクニシ","town":"周東町西長野","town_kana":"シュウトウマチニシナガノ","prefecture_code":35},"0427":{"zip_code":"7420427","prefecture":"山口県","prefecture_kana":"ヤマグチケン","city":"岩国市","city_kana":"イワクニシ","town":"周東町樋余地","town_kana":"シュウトウマチヒヨジ","prefecture_code":35},"0416":{"zip_code":"7420416","prefecture":"山口県","prefecture_kana":"ヤマグチケン","city":"岩国市","city_kana":"イワクニシ","town":"周東町用田","town_kana":"シュウトウマチヨウダ","prefecture_code":35},"0000":{"zip_code":"7420000","prefecture":"山口県","prefecture_kana":"ヤマグチケン","city":"柳井市","city_kana":"ヤナイシ","town":"以下に掲載がない場合","town_kana":"イカニケイサイガナイバアイ","prefecture_code":35},"1351":{"zip_code":"7421351","prefecture":"山口県","prefecture_kana":"ヤマグチケン","city":"柳井市","city_kana":"ヤナイシ","town":"旭ケ丘","town_kana":"アサヒガオカ","prefecture_code":35},"1353":{"zip_code":"7421353","prefecture":"山口県","prefecture_kana":"ヤマグチケン","city":"柳井市","city_kana":"ヤナイシ","town":"阿月","town_kana":"アツキ","prefecture_code":35},"0201":{"zip_code":"7420201","prefecture":"山口県","prefecture_kana":"ヤマグチケン","city":"柳井市","city_kana":"ヤナイシ","town":"伊陸","town_kana":"イカチ","prefecture_code":35},"1352":{"zip_code":"7421352","prefecture":"山口県","prefecture_kana":"ヤマグチケン","city":"柳井市","city_kana":"ヤナイシ","town":"伊保庄","town_kana":"イホノショウ","prefecture_code":35},"0036":{"zip_code":"7420036","prefecture":"山口県","prefecture_kana":"ヤマグチケン","city":"柳井市","city_kana":"ヤナイシ","town":"駅南","town_kana":"エキナン","prefecture_code":35},"0003":{"zip_code":"7420003","prefecture":"山口県","prefecture_kana":"ヤマグチケン","city":"柳井市","city_kana":"ヤナイシ","town":"片野西","town_kana":"カタノニシ","prefecture_code":35},"0012":{"zip_code":"7420012","prefecture":"山口県","prefecture_kana":"ヤマグチケン","city":"柳井市","city_kana":"ヤナイシ","town":"北浜","town_kana":"キタハマ","prefecture_code":35},"0032":{"zip_code":"7420032","prefecture":"山口県","prefecture_kana":"ヤマグチケン","city":"柳井市","city_kana":"ヤナイシ","town":"古開作","town_kana":"コガイサク","prefecture_code":35},"0009":{"zip_code":"7420009","prefecture":"山口県","prefecture_kana":"ヤマグチケン","city":"柳井市","city_kana":"ヤナイシ","town":"新市","town_kana":"シンイチ","prefecture_code":35},"0011":{"zip_code":"7420011","prefecture":"山口県","prefecture_kana":"ヤマグチケン","city":"柳井市","city_kana":"ヤナイシ","town":"新市沖","town_kana":"シンイチオキ","prefecture_code":35},"0008":{"zip_code":"7420008","prefecture":"山口県","prefecture_kana":"ヤマグチケン","city":"柳井市","city_kana":"ヤナイシ","town":"新市北","town_kana":"シンイチキタ","prefecture_code":35},"0010":{"zip_code":"7420010","prefecture":"山口県","prefecture_kana":"ヤマグチケン","city":"柳井市","city_kana":"ヤナイシ","town":"新市南","town_kana":"シンイチミナミ","prefecture_code":35},"0033":{"zip_code":"7420033","prefecture":"山口県","prefecture_kana":"ヤマグチケン","city":"柳井市","city_kana":"ヤナイシ","town":"新庄","town_kana":"シンジョウ","prefecture_code":35},"0006":{"zip_code":"7420006","prefecture":"山口県","prefecture_kana":"ヤマグチケン","city":"柳井市","city_kana":"ヤナイシ","town":"新天地","town_kana":"シンテンチ","prefecture_code":35},"0035":{"zip_code":"7420035","prefecture":"山口県","prefecture_kana":"ヤマグチケン","city":"柳井市","city_kana":"ヤナイシ","town":"中央","town_kana":"チュウオウ","prefecture_code":35},"0005":{"zip_code":"7420005","prefecture":"山口県","prefecture_kana":"ヤマグチケン","city":"柳井市","city_kana":"ヤナイシ","town":"天神","town_kana":"テンジン","prefecture_code":35},"0004":{"zip_code":"7420004","prefecture":"山口県","prefecture_kana":"ヤマグチケン","city":"柳井市","city_kana":"ヤナイシ","town":"土手町","town_kana":"ドテマチ","prefecture_code":35},"0024":{"zip_code":"7420024","prefecture":"山口県","prefecture_kana":"ヤマグチケン","city":"柳井市","city_kana":"ヤナイシ","town":"ニュータウン南町","town_kana":"ニュータウンミナミマチ","prefecture_code":35},"0007":{"zip_code":"7420007","prefecture":"山口県","prefecture_kana":"ヤマグチケン","city":"柳井市","city_kana":"ヤナイシ","town":"東土手","town_kana":"ヒガシドテ","prefecture_code":35},"0111":{"zip_code":"7420111","prefecture":"山口県","prefecture_kana":"ヤマグチケン","city":"柳井市","city_kana":"ヤナイシ","town":"日積","town_kana":"ヒヅミ","prefecture_code":35},"0001":{"zip_code":"7420001","prefecture":"山口県","prefecture_kana":"ヤマグチケン","city":"柳井市","city_kana":"ヤナイシ","town":"姫田","town_kana":"ヒメダ","prefecture_code":35},"0041":{"zip_code":"7420041","prefecture":"山口県","prefecture_kana":"ヤマグチケン","city":"柳井市","city_kana":"ヤナイシ","town":"平郡","town_kana":"ヘイグン","prefecture_code":35},"0023":{"zip_code":"7420023","prefecture":"山口県","prefecture_kana":"ヤマグチケン","city":"柳井市","city_kana":"ヤナイシ","town":"南浜","town_kana":"ミナミハマ","prefecture_code":35},"0031":{"zip_code":"7420031","prefecture":"山口県","prefecture_kana":"ヤマグチケン","city":"柳井市","city_kana":"ヤナイシ","town":"南町","town_kana":"ミナミマチ","prefecture_code":35},"0021":{"zip_code":"7420021","prefecture":"山口県","prefecture_kana":"ヤマグチケン","city":"柳井市","city_kana":"ヤナイシ","town":"柳井","town_kana":"ヤナイ","prefecture_code":35},"0022":{"zip_code":"7420022","prefecture":"山口県","prefecture_kana":"ヤマグチケン","city":"柳井市","city_kana":"ヤナイシ","town":"柳井津","town_kana":"ヤナイツ","prefecture_code":35},"0002":{"zip_code":"7420002","prefecture":"山口県","prefecture_kana":"ヤマグチケン","city":"柳井市","city_kana":"ヤナイシ","town":"山根","town_kana":"ヤマネ","prefecture_code":35},"0034":{"zip_code":"7420034","prefecture":"山口県","prefecture_kana":"ヤマグチケン","city":"柳井市","city_kana":"ヤナイシ","town":"余田","town_kana":"ヨタ","prefecture_code":35},"2100":{"zip_code":"7422100","prefecture":"山口県","prefecture_kana":"ヤマグチケン","city":"大島郡周防大島町","city_kana":"オオシマグンスオウオオシマチョウ","town":"以下に掲載がない場合","town_kana":"イカニケイサイガナイバアイ","prefecture_code":35},"2807":{"zip_code":"7422807","prefecture":"山口県","prefecture_kana":"ヤマグチケン","city":"大島郡周防大島町","city_kana":"オオシマグンスオウオオシマチョウ","town":"秋","town_kana":"アキ","prefecture_code":35},"2712":{"zip_code":"7422712","prefecture":"山口県","prefecture_kana":"ヤマグチケン","city":"大島郡周防大島町","city_kana":"オオシマグンスオウオオシマチョウ","town":"出井","town_kana":"イズイ","prefecture_code":35},"2601":[{"zip_code":"7422601","prefecture":"山口県","prefecture_kana":"ヤマグチケン","city":"大島郡周防大島町","city_kana":"オオシマグンスオウオオシマチョウ","town":"伊保田","town_kana":"イホタ","prefecture_code":35},{"zip_code":"7422601","prefecture":"山口県","prefecture_kana":"ヤマグチケン","city":"大島郡周防大島町","city_kana":"オオシマグンスオウオオシマチョウ","town":"伊保田（雨振）","town_kana":"イホタ(アマフリ)","prefecture_code":35},{"zip_code":"7422601","prefecture":"山口県","prefecture_kana":"ヤマグチケン","city":"大島郡周防大島町","city_kana":"オオシマグンスオウオオシマチョウ","town":"伊保田（小伊保田）","town_kana":"イホタ(コイホタ)","prefecture_code":35},{"zip_code":"7422601","prefecture":"山口県","prefecture_kana":"ヤマグチケン","city":"大島郡周防大島町","city_kana":"オオシマグンスオウオオシマチョウ","town":"伊保田（情島）","town_kana":"イホタ(ナサケジマ)","prefecture_code":35},{"zip_code":"7422601","prefecture":"山口県","prefecture_kana":"ヤマグチケン","city":"大島郡周防大島町","city_kana":"オオシマグンスオウオオシマチョウ","town":"伊保田（両源田）","town_kana":"イホタ(リョウゲンダ)","prefecture_code":35}],"2801":{"zip_code":"7422801","prefecture":"山口県","prefecture_kana":"ヤマグチケン","city":"大島郡周防大島町","city_kana":"オオシマグンスオウオオシマチョウ","town":"浮島","town_kana":"ウカシマ","prefecture_code":35},"2515":{"zip_code":"7422515","prefecture":"山口県","prefecture_kana":"ヤマグチケン","city":"大島郡周防大島町","city_kana":"オオシマグンスオウオオシマチョウ","town":"内入","town_kana":"ウチノニュウ","prefecture_code":35},"2922":{"zip_code":"7422922","prefecture":"山口県","prefecture_kana":"ヤマグチケン","city":"大島郡周防大島町","city_kana":"オオシマグンスオウオオシマチョウ","town":"沖家室島","town_kana":"オキカムロジマ","prefecture_code":35},"2108":{"zip_code":"7422108","prefecture":"山口県","prefecture_kana":"ヤマグチケン","city":"大島郡周防大島町","city_kana":"オオシマグンスオウオオシマチョウ","town":"笠佐島","town_kana":"カササジマ","prefecture_code":35},"2511":{"zip_code":"7422511","prefecture":"山口県","prefecture_kana":"ヤマグチケン","city":"大島郡周防大島町","city_kana":"オオシマグンスオウオオシマチョウ","town":"片添","town_kana":"カタゾエ","prefecture_code":35},"2711":{"zip_code":"7422711","prefecture":"山口県","prefecture_kana":"ヤマグチケン","city":"大島郡周防大島町","city_kana":"オオシマグンスオウオオシマチョウ","town":"家房","town_kana":"カボウ","prefecture_code":35},"2301":{"zip_code":"7422301","prefecture":"山口県","prefecture_kana":"ヤマグチケン","city":"大島郡周防大島町","city_kana":"オオシマグンスオウオオシマチョウ","town":"久賀","town_kana":"クカ","prefecture_code":35},"2514":{"zip_code":"7422514","prefecture":"山口県","prefecture_kana":"ヤマグチケン","city":"大島郡周防大島町","city_kana":"オオシマグンスオウオオシマチョウ","town":"神浦","town_kana":"コウノウラ","prefecture_code":35},"2517":{"zip_code":"7422517","prefecture":"山口県","prefecture_kana":"ヤマグチケン","city":"大島郡周防大島町","city_kana":"オオシマグンスオウオオシマチョウ","town":"小泊","town_kana":"コドマリ","prefecture_code":35},"2106":{"zip_code":"7422106","prefecture":"山口県","prefecture_kana":"ヤマグチケン","city":"大島郡周防大島町","city_kana":"オオシマグンスオウオオシマチョウ","town":"小松","town_kana":"コマツ","prefecture_code":35},"2105":{"zip_code":"7422105","prefecture":"山口県","prefecture_kana":"ヤマグチケン","city":"大島郡周防大島町","city_kana":"オオシマグンスオウオオシマチョウ","town":"小松開作","town_kana":"コマツカイサク","prefecture_code":35},"2923":[{"zip_code":"7422923","prefecture":"山口県","prefecture_kana":"ヤマグチケン","city":"大島郡周防大島町","city_kana":"オオシマグンスオウオオシマチョウ","town":"地家室","town_kana":"ジカムロ","prefecture_code":35},{"zip_code":"7422923","prefecture":"山口県","prefecture_kana":"ヤマグチケン","city":"大島郡周防大島町","city_kana":"オオシマグンスオウオオシマチョウ","town":"地家室（佐連）","town_kana":"ジカムロ(サレ)","prefecture_code":35}],"2104":{"zip_code":"7422104","prefecture":"山口県","prefecture_kana":"ヤマグチケン","city":"大島郡周防大島町","city_kana":"オオシマグンスオウオオシマチョウ","town":"志佐","town_kana":"シサ","prefecture_code":35},"2713":{"zip_code":"7422713","prefecture":"山口県","prefecture_kana":"ヤマグチケン","city":"大島郡周防大島町","city_kana":"オオシマグンスオウオオシマチョウ","town":"津海木","town_kana":"ツノウギ","prefecture_code":35},"2803":{"zip_code":"7422803","prefecture":"山口県","prefecture_kana":"ヤマグチケン","city":"大島郡周防大島町","city_kana":"オオシマグンスオウオオシマチョウ","town":"土居","town_kana":"ドイ","prefecture_code":35},"2924":[{"zip_code":"7422924","prefecture":"山口県","prefecture_kana":"ヤマグチケン","city":"大島郡周防大島町","city_kana":"オオシマグンスオウオオシマチョウ","town":"外入","town_kana":"トノニュウ","prefecture_code":35},{"zip_code":"7422924","prefecture":"山口県","prefecture_kana":"ヤマグチケン","city":"大島郡周防大島町","city_kana":"オオシマグンスオウオオシマチョウ","town":"外入（伊崎）","town_kana":"トノニュウ(イザキ)","prefecture_code":35}],"2806":{"zip_code":"7422806","prefecture":"山口県","prefecture_kana":"ヤマグチケン","city":"大島郡周防大島町","city_kana":"オオシマグンスオウオオシマチョウ","town":"西安下庄","town_kana":"ニシアゲノショウ","prefecture_code":35},"2921":[{"zip_code":"7422921","prefecture":"山口県","prefecture_kana":"ヤマグチケン","city":"大島郡周防大島町","city_kana":"オオシマグンスオウオオシマチョウ","town":"西方","town_kana":"ニシガタ","prefecture_code":35},{"zip_code":"7422921","prefecture":"山口県","prefecture_kana":"ヤマグチケン","city":"大島郡周防大島町","city_kana":"オオシマグンスオウオオシマチョウ","town":"西方（大積）","town_kana":"ニシガタ(オオツミ)","prefecture_code":35},{"zip_code":"7422921","prefecture":"山口県","prefecture_kana":"ヤマグチケン","city":"大島郡周防大島町","city_kana":"オオシマグンスオウオオシマチョウ","town":"西方（小積）","town_kana":"ニシガタ(オツミ)","prefecture_code":35},{"zip_code":"7422921","prefecture":"山口県","prefecture_kana":"ヤマグチケン","city":"大島郡周防大島町","city_kana":"オオシマグンスオウオオシマチョウ","town":"西方（下田）","town_kana":"ニシガタ(シタタ)","prefecture_code":35},{"zip_code":"7422921","prefecture":"山口県","prefecture_kana":"ヤマグチケン","city":"大島郡周防大島町","city_kana":"オオシマグンスオウオオシマチョウ","town":"西方（長崎）","town_kana":"ニシガタ(ナガサキ)","prefecture_code":35},{"zip_code":"7422921","prefecture":"山口県","prefecture_kana":"ヤマグチケン","city":"大島郡周防大島町","city_kana":"オオシマグンスオウオオシマチョウ","town":"西方（船越）","town_kana":"ニシガタ(フナコシ)","prefecture_code":35}],"2101":{"zip_code":"7422101","prefecture":"山口県","prefecture_kana":"ヤマグチケン","city":"大島郡周防大島町","city_kana":"オオシマグンスオウオオシマチョウ","town":"西三蒲","town_kana":"ニシミガマ","prefecture_code":35},"2103":{"zip_code":"7422103","prefecture":"山口県","prefecture_kana":"ヤマグチケン","city":"大島郡周防大島町","city_kana":"オオシマグンスオウオオシマチョウ","town":"西屋代","town_kana":"ニシヤシロ","prefecture_code":35},"2805":{"zip_code":"7422805","prefecture":"山口県","prefecture_kana":"ヤマグチケン","city":"大島郡周防大島町","city_kana":"オオシマグンスオウオオシマチョウ","town":"東安下庄","town_kana":"ヒガシアゲノショウ","prefecture_code":35},"2102":{"zip_code":"7422102","prefecture":"山口県","prefecture_kana":"ヤマグチケン","city":"大島郡周防大島町","city_kana":"オオシマグンスオウオオシマチョウ","town":"東三蒲","town_kana":"ヒガシミガマ","prefecture_code":35},"2107":{"zip_code":"7422107","prefecture":"山口県","prefecture_kana":"ヤマグチケン","city":"大島郡周防大島町","city_kana":"オオシマグンスオウオオシマチョウ","town":"東屋代","town_kana":"ヒガシヤシロ","prefecture_code":35},"2804":{"zip_code":"7422804","prefecture":"山口県","prefecture_kana":"ヤマグチケン","city":"大島郡周防大島町","city_kana":"オオシマグンスオウオオシマチョウ","town":"日前","town_kana":"ヒクマ","prefecture_code":35},"2716":{"zip_code":"7422716","prefecture":"山口県","prefecture_kana":"ヤマグチケン","city":"大島郡周防大島町","city_kana":"オオシマグンスオウオオシマチョウ","town":"日見","town_kana":"ヒミ","prefecture_code":35},"2512":{"zip_code":"7422512","prefecture":"山口県","prefecture_kana":"ヤマグチケン","city":"大島郡周防大島町","city_kana":"オオシマグンスオウオオシマチョウ","town":"平野","town_kana":"ヒラノ","prefecture_code":35},"2714":{"zip_code":"7422714","prefecture":"山口県","prefecture_kana":"ヤマグチケン","city":"大島郡周防大島町","city_kana":"オオシマグンスオウオオシマチョウ","town":"戸田","town_kana":"ヘタ","prefecture_code":35},"2302":{"zip_code":"7422302","prefecture":"山口県","prefecture_kana":"ヤマグチケン","city":"大島郡周防大島町","city_kana":"オオシマグンスオウオオシマチョウ","town":"椋野","town_kana":"ムクノ","prefecture_code":35},"2513":{"zip_code":"7422513","prefecture":"山口県","prefecture_kana":"ヤマグチケン","city":"大島郡周防大島町","city_kana":"オオシマグンスオウオオシマチョウ","town":"森","town_kana":"モリ","prefecture_code":35},"2602":[{"zip_code":"7422602","prefecture":"山口県","prefecture_kana":"ヤマグチケン","city":"大島郡周防大島町","city_kana":"オオシマグンスオウオオシマチョウ","town":"油宇","town_kana":"ユウ","prefecture_code":35},{"zip_code":"7422602","prefecture":"山口県","prefecture_kana":"ヤマグチケン","city":"大島郡周防大島町","city_kana":"オオシマグンスオウオオシマチョウ","town":"油宇（馬ケ原）","town_kana":"ユウ(ウマガハラ)","prefecture_code":35},{"zip_code":"7422602","prefecture":"山口県","prefecture_kana":"ヤマグチケン","city":"大島郡周防大島町","city_kana":"オオシマグンスオウオオシマチョウ","town":"油宇（日向泊）","town_kana":"ユウ(ヒュウガドマリ)","prefecture_code":35}],"2802":{"zip_code":"7422802","prefecture":"山口県","prefecture_kana":"ヤマグチケン","city":"大島郡周防大島町","city_kana":"オオシマグンスオウオオシマチョウ","town":"油良","town_kana":"ユラ","prefecture_code":35},"2715":{"zip_code":"7422715","prefecture":"山口県","prefecture_kana":"ヤマグチケン","city":"大島郡周防大島町","city_kana":"オオシマグンスオウオオシマチョウ","town":"横見","town_kana":"ヨコミ","prefecture_code":35},"2518":{"zip_code":"7422518","prefecture":"山口県","prefecture_kana":"ヤマグチケン","city":"大島郡周防大島町","city_kana":"オオシマグンスオウオオシマチョウ","town":"和佐","town_kana":"ワサ","prefecture_code":35},"2516":{"zip_code":"7422516","prefecture":"山口県","prefecture_kana":"ヤマグチケン","city":"大島郡周防大島町","city_kana":"オオシマグンスオウオオシマチョウ","town":"和田","town_kana":"ワダ","prefecture_code":35},"1400":{"zip_code":"7421400","prefecture":"山口県","prefecture_kana":"ヤマグチケン","city":"熊毛郡上関町","city_kana":"クマゲグンカミノセキチョウ","town":"以下に掲載がない場合","town_kana":"イカニケイサイガナイバアイ","prefecture_code":35},"1401":{"zip_code":"7421401","prefecture":"山口県","prefecture_kana":"ヤマグチケン","city":"熊毛郡上関町","city_kana":"クマゲグンカミノセキチョウ","town":"祝島","town_kana":"イワイシマ","prefecture_code":35},"1402":{"zip_code":"7421402","prefecture":"山口県","prefecture_kana":"ヤマグチケン","city":"熊毛郡上関町","city_kana":"クマゲグンカミノセキチョウ","town":"長島","town_kana":"ナガシマ","prefecture_code":35},"1403":{"zip_code":"7421403","prefecture":"山口県","prefecture_kana":"ヤマグチケン","city":"熊毛郡上関町","city_kana":"クマゲグンカミノセキチョウ","town":"室津","town_kana":"ムロツ","prefecture_code":35},"1404":{"zip_code":"7421404","prefecture":"山口県","prefecture_kana":"ヤマグチケン","city":"熊毛郡上関町","city_kana":"クマゲグンカミノセキチョウ","town":"八島","town_kana":"ヤシマ","prefecture_code":35},"1500":{"zip_code":"7421500","prefecture":"山口県","prefecture_kana":"ヤマグチケン","city":"熊毛郡田布施町","city_kana":"クマゲグンタブセチョウ","town":"以下に掲載がない場合","town_kana":"イカニケイサイガナイバアイ","prefecture_code":35},"1516":{"zip_code":"7421516","prefecture":"山口県","prefecture_kana":"ヤマグチケン","city":"熊毛郡田布施町","city_kana":"クマゲグンタブセチョウ","town":"馬島","town_kana":"ウマシマ","prefecture_code":35},"1501":{"zip_code":"7421501","prefecture":"山口県","prefecture_kana":"ヤマグチケン","city":"熊毛郡田布施町","city_kana":"クマゲグンタブセチョウ","town":"大波野","town_kana":"オオハノ","prefecture_code":35},"1513":[{"zip_code":"7421513","prefecture":"山口県","prefecture_kana":"ヤマグチケン","city":"熊毛郡田布施町","city_kana":"クマゲグンタブセチョウ","town":"麻郷","town_kana":"オゴウ","prefecture_code":35},{"zip_code":"7421513","prefecture":"山口県","prefecture_kana":"ヤマグチケン","city":"熊毛郡田布施町","city_kana":"クマゲグンタブセチョウ","town":"麻郷団地","town_kana":"オゴウダンチ","prefecture_code":35}],"1512":{"zip_code":"7421512","prefecture":"山口県","prefecture_kana":"ヤマグチケン","city":"熊毛郡田布施町","city_kana":"クマゲグンタブセチョウ","town":"麻郷奥","town_kana":"オゴウオク","prefecture_code":35},"1515":{"zip_code":"7421515","prefecture":"山口県","prefecture_kana":"ヤマグチケン","city":"熊毛郡田布施町","city_kana":"クマゲグンタブセチョウ","town":"上田布施","town_kana":"カミタブセ","prefecture_code":35},"1504":{"zip_code":"7421504","prefecture":"山口県","prefecture_kana":"ヤマグチケン","city":"熊毛郡田布施町","city_kana":"クマゲグンタブセチョウ","town":"川西","town_kana":"カワニシ","prefecture_code":35},"1511":{"zip_code":"7421511","prefecture":"山口県","prefecture_kana":"ヤマグチケン","city":"熊毛郡田布施町","city_kana":"クマゲグンタブセチョウ","town":"下田布施","town_kana":"シモタブセ","prefecture_code":35},"1503":{"zip_code":"7421503","prefecture":"山口県","prefecture_kana":"ヤマグチケン","city":"熊毛郡田布施町","city_kana":"クマゲグンタブセチョウ","town":"宿井","town_kana":"シュクイ","prefecture_code":35},"1517":{"zip_code":"7421517","prefecture":"山口県","prefecture_kana":"ヤマグチケン","city":"熊毛郡田布施町","city_kana":"クマゲグンタブセチョウ","town":"中央南","town_kana":"チュウオウミナミ","prefecture_code":35},"1502":{"zip_code":"7421502","prefecture":"山口県","prefecture_kana":"ヤマグチケン","city":"熊毛郡田布施町","city_kana":"クマゲグンタブセチョウ","town":"波野","town_kana":"ハノ","prefecture_code":35},"1514":{"zip_code":"7421514","prefecture":"山口県","prefecture_kana":"ヤマグチケン","city":"熊毛郡田布施町","city_kana":"クマゲグンタブセチョウ","town":"別府","town_kana":"ベフ","prefecture_code":35},"1100":{"zip_code":"7421100","prefecture":"山口県","prefecture_kana":"ヤマグチケン","city":"熊毛郡平生町","city_kana":"クマゲグンヒラオチョウ","town":"以下に掲載がない場合","town_kana":"イカニケイサイガナイバアイ","prefecture_code":35},"1104":{"zip_code":"7421104","prefecture":"山口県","prefecture_kana":"ヤマグチケン","city":"熊毛郡平生町","city_kana":"クマゲグンヒラオチョウ","town":"宇佐木","town_kana":"ウサナギ","prefecture_code":35},"1106":{"zip_code":"7421106","prefecture":"山口県","prefecture_kana":"ヤマグチケン","city":"熊毛郡平生町","city_kana":"クマゲグンヒラオチョウ","town":"大野南","town_kana":"オオノミナミ","prefecture_code":35},"1105":{"zip_code":"7421105","prefecture":"山口県","prefecture_kana":"ヤマグチケン","city":"熊毛郡平生町","city_kana":"クマゲグンヒラオチョウ","town":"大野北","town_kana":"オオノキタ","prefecture_code":35},"1113":{"zip_code":"7421113","prefecture":"山口県","prefecture_kana":"ヤマグチケン","city":"熊毛郡平生町","city_kana":"クマゲグンヒラオチョウ","town":"尾国","town_kana":"オクニ","prefecture_code":35},"1112":{"zip_code":"7421112","prefecture":"山口県","prefecture_kana":"ヤマグチケン","city":"熊毛郡平生町","city_kana":"クマゲグンヒラオチョウ","town":"小郡","town_kana":"オグニ","prefecture_code":35},"1111":{"zip_code":"7421111","prefecture":"山口県","prefecture_kana":"ヤマグチケン","city":"熊毛郡平生町","city_kana":"クマゲグンヒラオチョウ","town":"佐賀","town_kana":"サガ","prefecture_code":35},"1114":{"zip_code":"7421114","prefecture":"山口県","prefecture_kana":"ヤマグチケン","city":"熊毛郡平生町","city_kana":"クマゲグンヒラオチョウ","town":"佐合島","town_kana":"サゴウジマ","prefecture_code":35},"1107":{"zip_code":"7421107","prefecture":"山口県","prefecture_kana":"ヤマグチケン","city":"熊毛郡平生町","city_kana":"クマゲグンヒラオチョウ","town":"曽根","town_kana":"ソネ","prefecture_code":35},"1103":{"zip_code":"7421103","prefecture":"山口県","prefecture_kana":"ヤマグチケン","city":"熊毛郡平生町","city_kana":"クマゲグンヒラオチョウ","town":"竪ケ浜","town_kana":"タテガハマ","prefecture_code":35},"1101":{"zip_code":"7421101","prefecture":"山口県","prefecture_kana":"ヤマグチケン","city":"熊毛郡平生町","city_kana":"クマゲグンヒラオチョウ","town":"平生町","town_kana":"ヒラオマチ","prefecture_code":35},"1102":{"zip_code":"7421102","prefecture":"山口県","prefecture_kana":"ヤマグチケン","city":"熊毛郡平生町","city_kana":"クマゲグンヒラオチョウ","town":"平生村","town_kana":"ヒラオムラ","prefecture_code":35}}