{"0000":{"zip_code":"7430000","prefecture":"山口県","prefecture_kana":"ヤマグチケン","city":"光市","city_kana":"ヒカリシ","town":"","town_kana":"","prefecture_code":35},"0021":{"zip_code":"7430021","prefecture":"山口県","prefecture_kana":"ヤマグチケン","city":"光市","city_kana":"ヒカリシ","town":"浅江","town_kana":"アサエ","prefecture_code":35},"0051":{"zip_code":"7430051","prefecture":"山口県","prefecture_kana":"ヤマグチケン","city":"光市","city_kana":"ヒカリシ","town":"岩狩","town_kana":"イワガリ","prefecture_code":35},"0103":{"zip_code":"7430103","prefecture":"山口県","prefecture_kana":"ヤマグチケン","city":"光市","city_kana":"ヒカリシ","town":"岩田","town_kana":"イワタ","prefecture_code":35},"0104":{"zip_code":"7430104","prefecture":"山口県","prefecture_kana":"ヤマグチケン","city":"光市","city_kana":"ヒカリシ","town":"岩田立野","town_kana":"イワタタテノ","prefecture_code":35},"0003":{"zip_code":"7430003","prefecture":"山口県","prefecture_kana":"ヤマグチケン","city":"光市","city_kana":"ヒカリシ","town":"牛島","town_kana":"ウシマ","prefecture_code":35},"0065":{"zip_code":"7430065","prefecture":"山口県","prefecture_kana":"ヤマグチケン","city":"光市","city_kana":"ヒカリシ","town":"上島田","town_kana":"カミシマタ","prefecture_code":35},"0046":{"zip_code":"7430046","prefecture":"山口県","prefecture_kana":"ヤマグチケン","city":"光市","city_kana":"ヒカリシ","town":"木園","town_kana":"キゾノ","prefecture_code":35},"0043":{"zip_code":"7430043","prefecture":"山口県","prefecture_kana":"ヤマグチケン","city":"光市","city_kana":"ヒカリシ","town":"協和町","town_kana":"キョウワチョウ","prefecture_code":35},"0061":{"zip_code":"7430061","prefecture":"山口県","prefecture_kana":"ヤマグチケン","city":"光市","city_kana":"ヒカリシ","town":"小周防","town_kana":"コズオウ","prefecture_code":35},"0101":{"zip_code":"7430101","prefecture":"山口県","prefecture_kana":"ヤマグチケン","city":"光市","city_kana":"ヒカリシ","town":"塩田","town_kana":"シオタ","prefecture_code":35},"0063":{"zip_code":"7430063","prefecture":"山口県","prefecture_kana":"ヤマグチケン","city":"光市","city_kana":"ヒカリシ","town":"島田","town_kana":"シマタ","prefecture_code":35},"0012":{"zip_code":"7430012","prefecture":"山口県","prefecture_kana":"ヤマグチケン","city":"光市","city_kana":"ヒカリシ","town":"千坊台","town_kana":"センボウダイ","prefecture_code":35},"0042":{"zip_code":"7430042","prefecture":"山口県","prefecture_kana":"ヤマグチケン","city":"光市","city_kana":"ヒカリシ","town":"宝町","town_kana":"タカラマチ","prefecture_code":35},"0062":{"zip_code":"7430062","prefecture":"山口県","prefecture_kana":"ヤマグチケン","city":"光市","city_kana":"ヒカリシ","town":"立野","town_kana":"タテノ","prefecture_code":35},"0013":{"zip_code":"7430013","prefecture":"山口県","prefecture_kana":"ヤマグチケン","city":"光市","city_kana":"ヒカリシ","town":"中央","town_kana":"チュウオウ","prefecture_code":35},"0105":{"zip_code":"7430105","prefecture":"山口県","prefecture_kana":"ヤマグチケン","city":"光市","city_kana":"ヒカリシ","town":"束荷","town_kana":"ツカリ","prefecture_code":35},"0064":{"zip_code":"7430064","prefecture":"山口県","prefecture_kana":"ヤマグチケン","city":"光市","city_kana":"ヒカリシ","town":"中島田","town_kana":"ナカシマタ","prefecture_code":35},"0048":{"zip_code":"7430048","prefecture":"山口県","prefecture_kana":"ヤマグチケン","city":"光市","city_kana":"ヒカリシ","town":"中村町","town_kana":"ナカムラチョウ","prefecture_code":35},"0031":{"zip_code":"7430031","prefecture":"山口県","prefecture_kana":"ヤマグチケン","city":"光市","city_kana":"ヒカリシ","town":"虹ケ丘","town_kana":"ニジガオカ","prefecture_code":35},"0022":{"zip_code":"7430022","prefecture":"山口県","prefecture_kana":"ヤマグチケン","city":"光市","city_kana":"ヒカリシ","town":"虹ケ浜","town_kana":"ニジガハマ","prefecture_code":35},"0047":{"zip_code":"7430047","prefecture":"山口県","prefecture_kana":"ヤマグチケン","city":"光市","city_kana":"ヒカリシ","town":"花園","town_kana":"ハナゾノ","prefecture_code":35},"0023":{"zip_code":"7430023","prefecture":"山口県","prefecture_kana":"ヤマグチケン","city":"光市","city_kana":"ヒカリシ","town":"光ケ丘","town_kana":"ヒカリガオカ","prefecture_code":35},"0041":{"zip_code":"7430041","prefecture":"山口県","prefecture_kana":"ヤマグチケン","city":"光市","city_kana":"ヒカリシ","town":"丸山町","town_kana":"マルヤマチョウ","prefecture_code":35},"0052":{"zip_code":"7430052","prefecture":"山口県","prefecture_kana":"ヤマグチケン","city":"光市","city_kana":"ヒカリシ","town":"三井","town_kana":"ミイ","prefecture_code":35},"0011":{"zip_code":"7430011","prefecture":"山口県","prefecture_kana":"ヤマグチケン","city":"光市","city_kana":"ヒカリシ","town":"光井","town_kana":"ミツイ","prefecture_code":35},"0045":{"zip_code":"7430045","prefecture":"山口県","prefecture_kana":"ヤマグチケン","city":"光市","city_kana":"ヒカリシ","town":"宮ノ下町","town_kana":"ミヤノシタチョウ","prefecture_code":35},"0102":{"zip_code":"7430102","prefecture":"山口県","prefecture_kana":"ヤマグチケン","city":"光市","city_kana":"ヒカリシ","town":"三輪","town_kana":"ミワ","prefecture_code":35},"0007":{"zip_code":"7430007","prefecture":"山口県","prefecture_kana":"ヤマグチケン","city":"光市","city_kana":"ヒカリシ","town":"室積","town_kana":"ムロヅミ","prefecture_code":35},"0004":{"zip_code":"7430004","prefecture":"山口県","prefecture_kana":"ヤマグチケン","city":"光市","city_kana":"ヒカリシ","town":"室積市延","town_kana":"ムロヅミイチノベ","prefecture_code":35},"0002":{"zip_code":"7430002","prefecture":"山口県","prefecture_kana":"ヤマグチケン","city":"光市","city_kana":"ヒカリシ","town":"室積浦","town_kana":"ムロヅミウラ","prefecture_code":35},"0072":{"zip_code":"7430072","prefecture":"山口県","prefecture_kana":"ヤマグチケン","city":"光市","city_kana":"ヒカリシ","town":"室積大町","town_kana":"ムロヅミオオマチ","prefecture_code":35},"0075":{"zip_code":"7430075","prefecture":"山口県","prefecture_kana":"ヤマグチケン","city":"光市","city_kana":"ヒカリシ","town":"室積沖田","town_kana":"ムロヅミオキタ","prefecture_code":35},"0071":{"zip_code":"7430071","prefecture":"山口県","prefecture_kana":"ヤマグチケン","city":"光市","city_kana":"ヒカリシ","town":"室積新開","town_kana":"ムロヅミシンカイ","prefecture_code":35},"0006":{"zip_code":"7430006","prefecture":"山口県","prefecture_kana":"ヤマグチケン","city":"光市","city_kana":"ヒカリシ","town":"室積神田","town_kana":"ムロヅミジンデン","prefecture_code":35},"0008":{"zip_code":"7430008","prefecture":"山口県","prefecture_kana":"ヤマグチケン","city":"光市","city_kana":"ヒカリシ","town":"室積中央町","town_kana":"ムロヅミチュウオウチョウ","prefecture_code":35},"0074":{"zip_code":"7430074","prefecture":"山口県","prefecture_kana":"ヤマグチケン","city":"光市","city_kana":"ヒカリシ","town":"室積西ノ庄","town_kana":"ムロヅミニシノショウ","prefecture_code":35},"0005":{"zip_code":"7430005","prefecture":"山口県","prefecture_kana":"ヤマグチケン","city":"光市","city_kana":"ヒカリシ","town":"室積東ノ庄","town_kana":"ムロヅミヒガシノショウ","prefecture_code":35},"0073":{"zip_code":"7430073","prefecture":"山口県","prefecture_kana":"ヤマグチケン","city":"光市","city_kana":"ヒカリシ","town":"室積正木","town_kana":"ムロヅミマサキ","prefecture_code":35},"0009":{"zip_code":"7430009","prefecture":"山口県","prefecture_kana":"ヤマグチケン","city":"光市","city_kana":"ヒカリシ","town":"室積松原","town_kana":"ムロヅミマツバラ","prefecture_code":35},"0001":{"zip_code":"7430001","prefecture":"山口県","prefecture_kana":"ヤマグチケン","city":"光市","city_kana":"ヒカリシ","town":"室積村","town_kana":"ムロヅミムラ","prefecture_code":35},"0044":{"zip_code":"7430044","prefecture":"山口県","prefecture_kana":"ヤマグチケン","city":"光市","city_kana":"ヒカリシ","town":"和田町","town_kana":"ワダチョウ","prefecture_code":35}}