{"0105":{"zip_code":"7460105","prefecture":"山口県","prefecture_kana":"ヤマグチケン","city":"周南市","city_kana":"シュウナンシ","town":"馬神","town_kana":"ウマガミ","prefecture_code":35},"0027":{"zip_code":"7460027","prefecture":"山口県","prefecture_kana":"ヤマグチケン","city":"周南市","city_kana":"シュウナンシ","town":"小川屋町","town_kana":"オガワヤチョウ","prefecture_code":35},"0013":{"zip_code":"7460013","prefecture":"山口県","prefecture_kana":"ヤマグチケン","city":"周南市","city_kana":"シュウナンシ","town":"桶川町","town_kana":"オケガワチョウ","prefecture_code":35},"0083":{"zip_code":"7460083","prefecture":"山口県","prefecture_kana":"ヤマグチケン","city":"周南市","city_kana":"シュウナンシ","town":"小畑","town_kana":"オバタ","prefecture_code":35},"0051":{"zip_code":"7460051","prefecture":"山口県","prefecture_kana":"ヤマグチケン","city":"周南市","city_kana":"シュウナンシ","town":"御姫町","town_kana":"オヒメチョウ","prefecture_code":35},"0036":{"zip_code":"7460036","prefecture":"山口県","prefecture_kana":"ヤマグチケン","city":"周南市","city_kana":"シュウナンシ","town":"温田","town_kana":"オンダ","prefecture_code":35},"0006":{"zip_code":"7460006","prefecture":"山口県","prefecture_kana":"ヤマグチケン","city":"周南市","city_kana":"シュウナンシ","town":"開成町","town_kana":"カイセイチョウ","prefecture_code":35},"0055":{"zip_code":"7460055","prefecture":"山口県","prefecture_kana":"ヤマグチケン","city":"周南市","city_kana":"シュウナンシ","town":"かせ河原町","town_kana":"カセガワラチョウ","prefecture_code":35},"0065":{"zip_code":"7460065","prefecture":"山口県","prefecture_kana":"ヤマグチケン","city":"周南市","city_kana":"シュウナンシ","town":"上迫町","town_kana":"カミサコチョウ","prefecture_code":35},"0001":{"zip_code":"7460001","prefecture":"山口県","prefecture_kana":"ヤマグチケン","city":"周南市","city_kana":"シュウナンシ","town":"川崎","town_kana":"カワサキ","prefecture_code":35},"0009":{"zip_code":"7460009","prefecture":"山口県","prefecture_kana":"ヤマグチケン","city":"周南市","city_kana":"シュウナンシ","town":"川手","town_kana":"カワテ","prefecture_code":35},"0024":{"zip_code":"7460024","prefecture":"山口県","prefecture_kana":"ヤマグチケン","city":"周南市","city_kana":"シュウナンシ","town":"古泉","town_kana":"コイズミ","prefecture_code":35},"0032":{"zip_code":"7460032","prefecture":"山口県","prefecture_kana":"ヤマグチケン","city":"周南市","city_kana":"シュウナンシ","town":"河内町","town_kana":"コウチチョウ","prefecture_code":35},"0031":{"zip_code":"7460031","prefecture":"山口県","prefecture_kana":"ヤマグチケン","city":"周南市","city_kana":"シュウナンシ","town":"坂根町","town_kana":"サカネチョウ","prefecture_code":35},"0061":{"zip_code":"7460061","prefecture":"山口県","prefecture_kana":"ヤマグチケン","city":"周南市","city_kana":"シュウナンシ","town":"皿山町","town_kana":"サラヤマチョウ","prefecture_code":35},"0008":{"zip_code":"7460008","prefecture":"山口県","prefecture_kana":"ヤマグチケン","city":"周南市","city_kana":"シュウナンシ","town":"椎木町","town_kana":"シイギチョウ","prefecture_code":35},"0081":{"zip_code":"7460081","prefecture":"山口県","prefecture_kana":"ヤマグチケン","city":"周南市","city_kana":"シュウナンシ","town":"四熊","town_kana":"シクマ","prefecture_code":35},"0015":{"zip_code":"7460015","prefecture":"山口県","prefecture_kana":"ヤマグチケン","city":"周南市","city_kana":"シュウナンシ","town":"清水","town_kana":"シミズ","prefecture_code":35},"0082":{"zip_code":"7460082","prefecture":"山口県","prefecture_kana":"ヤマグチケン","city":"周南市","city_kana":"シュウナンシ","town":"下上","town_kana":"シモカミ","prefecture_code":35},"0041":{"zip_code":"7460041","prefecture":"山口県","prefecture_kana":"ヤマグチケン","city":"周南市","city_kana":"シュウナンシ","town":"社地町","town_kana":"シャチチョウ","prefecture_code":35},"0045":{"zip_code":"7460045","prefecture":"山口県","prefecture_kana":"ヤマグチケン","city":"周南市","city_kana":"シュウナンシ","town":"新地町","town_kana":"シンチチョウ","prefecture_code":35},"0033":{"zip_code":"7460033","prefecture":"山口県","prefecture_kana":"ヤマグチケン","city":"周南市","city_kana":"シュウナンシ","town":"新堤町","town_kana":"シンヅツミチョウ","prefecture_code":35},"0043":{"zip_code":"7460043","prefecture":"山口県","prefecture_kana":"ヤマグチケン","city":"周南市","city_kana":"シュウナンシ","town":"新田","town_kana":"シンデン","prefecture_code":35},"0018":{"zip_code":"7460018","prefecture":"山口県","prefecture_kana":"ヤマグチケン","city":"周南市","city_kana":"シュウナンシ","town":"大神","town_kana":"ダイジン","prefecture_code":35},"0103":{"zip_code":"7460103","prefecture":"山口県","prefecture_kana":"ヤマグチケン","city":"周南市","city_kana":"シュウナンシ","town":"垰","town_kana":"タオ","prefecture_code":35},"0101":{"zip_code":"7460101","prefecture":"山口県","prefecture_kana":"ヤマグチケン","city":"周南市","city_kana":"シュウナンシ","town":"高瀬","town_kana":"タカセ","prefecture_code":35},"0007":{"zip_code":"7460007","prefecture":"山口県","prefecture_kana":"ヤマグチケン","city":"周南市","city_kana":"シュウナンシ","town":"竹島町","town_kana":"タケシマチョウ","prefecture_code":35},"0016":{"zip_code":"7460016","prefecture":"山口県","prefecture_kana":"ヤマグチケン","city":"周南市","city_kana":"シュウナンシ","town":"中央町","town_kana":"チュウオウチョウ","prefecture_code":35},"0011":{"zip_code":"7460011","prefecture":"山口県","prefecture_kana":"ヤマグチケン","city":"周南市","city_kana":"シュウナンシ","town":"土井","town_kana":"ドイ","prefecture_code":35},"0003":{"zip_code":"7460003","prefecture":"山口県","prefecture_kana":"ヤマグチケン","city":"周南市","city_kana":"シュウナンシ","town":"道源町","town_kana":"ドウゲンチョウ","prefecture_code":35},"0034":{"zip_code":"7460034","prefecture":"山口県","prefecture_kana":"ヤマグチケン","city":"周南市","city_kana":"シュウナンシ","town":"富田","town_kana":"トンダ","prefecture_code":35},"0054":{"zip_code":"7460054","prefecture":"山口県","prefecture_kana":"ヤマグチケン","city":"周南市","city_kana":"シュウナンシ","town":"長田町","town_kana":"ナガタチョウ","prefecture_code":35},"0052":{"zip_code":"7460052","prefecture":"山口県","prefecture_kana":"ヤマグチケン","city":"周南市","city_kana":"シュウナンシ","town":"中畷町","town_kana":"ナカナワテチョウ","prefecture_code":35},"0005":{"zip_code":"7460005","prefecture":"山口県","prefecture_kana":"ヤマグチケン","city":"周南市","city_kana":"シュウナンシ","town":"渚町","town_kana":"ナギサチョウ","prefecture_code":35},"0102":{"zip_code":"7460102","prefecture":"山口県","prefecture_kana":"ヤマグチケン","city":"周南市","city_kana":"シュウナンシ","town":"夏切","town_kana":"ナツキリ","prefecture_code":35},"0002":{"zip_code":"7460002","prefecture":"山口県","prefecture_kana":"ヤマグチケン","city":"周南市","city_kana":"シュウナンシ","town":"西千代田町","town_kana":"ニシチヨダチョウ","prefecture_code":35},"0044":{"zip_code":"7460044","prefecture":"山口県","prefecture_kana":"ヤマグチケン","city":"周南市","city_kana":"シュウナンシ","town":"西桝町","town_kana":"ニシマスチョウ","prefecture_code":35},"0022":{"zip_code":"7460022","prefecture":"山口県","prefecture_kana":"ヤマグチケン","city":"周南市","city_kana":"シュウナンシ","town":"野村","town_kana":"ノムラ","prefecture_code":35},"0023":{"zip_code":"7460023","prefecture":"山口県","prefecture_kana":"ヤマグチケン","city":"周南市","city_kana":"シュウナンシ","town":"野村南町","town_kana":"ノムラミナミマチ","prefecture_code":35},"0056":{"zip_code":"7460056","prefecture":"山口県","prefecture_kana":"ヤマグチケン","city":"周南市","city_kana":"シュウナンシ","town":"羽島","town_kana":"ハジマ","prefecture_code":35},"0021":{"zip_code":"7460021","prefecture":"山口県","prefecture_kana":"ヤマグチケン","city":"周南市","city_kana":"シュウナンシ","town":"花園町","town_kana":"ハナゾノチョウ","prefecture_code":35},"0026":{"zip_code":"7460026","prefecture":"山口県","prefecture_kana":"ヤマグチケン","city":"周南市","city_kana":"シュウナンシ","town":"浜田","town_kana":"ハマダ","prefecture_code":35},"0035":{"zip_code":"7460035","prefecture":"山口県","prefecture_kana":"ヤマグチケン","city":"周南市","city_kana":"シュウナンシ","town":"日地町","town_kana":"ヒジチョウ","prefecture_code":35},"0029":{"zip_code":"7460029","prefecture":"山口県","prefecture_kana":"ヤマグチケン","city":"周南市","city_kana":"シュウナンシ","town":"平野","town_kana":"ヒラノ","prefecture_code":35},"0038":{"zip_code":"7460038","prefecture":"山口県","prefecture_kana":"ヤマグチケン","city":"周南市","city_kana":"シュウナンシ","town":"福川","town_kana":"フクガワ","prefecture_code":35},"0062":{"zip_code":"7460062","prefecture":"山口県","prefecture_kana":"ヤマグチケン","city":"周南市","city_kana":"シュウナンシ","town":"福川中市町","town_kana":"フクガワナカイチチョウ","prefecture_code":35},"0042":{"zip_code":"7460042","prefecture":"山口県","prefecture_kana":"ヤマグチケン","city":"周南市","city_kana":"シュウナンシ","town":"福川南町","town_kana":"フクガワミナミマチ","prefecture_code":35},"0025":{"zip_code":"7460025","prefecture":"山口県","prefecture_kana":"ヤマグチケン","city":"周南市","city_kana":"シュウナンシ","town":"古市","town_kana":"フルイチ","prefecture_code":35},"0014":{"zip_code":"7460014","prefecture":"山口県","prefecture_kana":"ヤマグチケン","city":"周南市","city_kana":"シュウナンシ","town":"古川町","town_kana":"フルカワチョウ","prefecture_code":35},"0063":{"zip_code":"7460063","prefecture":"山口県","prefecture_kana":"ヤマグチケン","city":"周南市","city_kana":"シュウナンシ","town":"本陣町","town_kana":"ホンジンチョウ","prefecture_code":35},"0012":{"zip_code":"7460012","prefecture":"山口県","prefecture_kana":"ヤマグチケン","city":"周南市","city_kana":"シュウナンシ","town":"政所","town_kana":"マドコロ","prefecture_code":35},"0037":{"zip_code":"7460037","prefecture":"山口県","prefecture_kana":"ヤマグチケン","city":"周南市","city_kana":"シュウナンシ","town":"丸山町","town_kana":"マルヤマチョウ","prefecture_code":35},"0004":{"zip_code":"7460004","prefecture":"山口県","prefecture_kana":"ヤマグチケン","city":"周南市","city_kana":"シュウナンシ","town":"三笹町","town_kana":"ミササチョウ","prefecture_code":35},"0028":{"zip_code":"7460028","prefecture":"山口県","prefecture_kana":"ヤマグチケン","city":"周南市","city_kana":"シュウナンシ","town":"港町","town_kana":"ミナトマチ","prefecture_code":35},"0017":{"zip_code":"7460017","prefecture":"山口県","prefecture_kana":"ヤマグチケン","city":"周南市","city_kana":"シュウナンシ","town":"宮の前","town_kana":"ミヤノマエ","prefecture_code":35},"0053":{"zip_code":"7460053","prefecture":"山口県","prefecture_kana":"ヤマグチケン","city":"周南市","city_kana":"シュウナンシ","town":"室尾","town_kana":"ムロオ","prefecture_code":35},"0084":{"zip_code":"7460084","prefecture":"山口県","prefecture_kana":"ヤマグチケン","city":"周南市","city_kana":"シュウナンシ","town":"夜市","town_kana":"ヤジ","prefecture_code":35},"0104":{"zip_code":"7460104","prefecture":"山口県","prefecture_kana":"ヤマグチケン","city":"周南市","city_kana":"シュウナンシ","town":"米光","town_kana":"ヨネミツ","prefecture_code":35},"0019":{"zip_code":"7460019","prefecture":"山口県","prefecture_kana":"ヤマグチケン","city":"周南市","city_kana":"シュウナンシ","town":"臨海町","town_kana":"リンカイチョウ","prefecture_code":35},"0064":{"zip_code":"7460064","prefecture":"山口県","prefecture_kana":"ヤマグチケン","city":"周南市","city_kana":"シュウナンシ","town":"若山","town_kana":"ワカヤマ","prefecture_code":35}}