{"1221":{"zip_code":"7471221","prefecture":"山口県","prefecture_kana":"ヤマグチケン","city":"山口市","city_kana":"ヤマグチシ","town":"鋳銭司","town_kana":"スゼンジ","prefecture_code":35},"0232":{"zip_code":"7470232","prefecture":"山口県","prefecture_kana":"ヤマグチケン","city":"山口市","city_kana":"ヤマグチシ","town":"徳地伊賀地","town_kana":"トクヂイカジ","prefecture_code":35},"0234":{"zip_code":"7470234","prefecture":"山口県","prefecture_kana":"ヤマグチケン","city":"山口市","city_kana":"ヤマグチシ","town":"徳地小古祖","town_kana":"トクヂオゴソ","prefecture_code":35},"0523":{"zip_code":"7470523","prefecture":"山口県","prefecture_kana":"ヤマグチケン","city":"山口市","city_kana":"ヤマグチシ","town":"徳地上村","town_kana":"トクヂカミムラ","prefecture_code":35},"0233":{"zip_code":"7470233","prefecture":"山口県","prefecture_kana":"ヤマグチケン","city":"山口市","city_kana":"ヤマグチシ","town":"徳地岸見","town_kana":"トクヂキシミ","prefecture_code":35},"0612":{"zip_code":"7470612","prefecture":"山口県","prefecture_kana":"ヤマグチケン","city":"山口市","city_kana":"ヤマグチシ","town":"徳地串","town_kana":"トクヂクシ","prefecture_code":35},"0611":{"zip_code":"7470611","prefecture":"山口県","prefecture_kana":"ヤマグチケン","city":"山口市","city_kana":"ヤマグチシ","town":"徳地鯖河内","town_kana":"トクヂサバゴウチ","prefecture_code":35},"0522":{"zip_code":"7470522","prefecture":"山口県","prefecture_kana":"ヤマグチケン","city":"山口市","city_kana":"ヤマグチシ","town":"徳地島地","town_kana":"トクヂシマジ","prefecture_code":35},"0401":{"zip_code":"7470401","prefecture":"山口県","prefecture_kana":"ヤマグチケン","city":"山口市","city_kana":"ヤマグチシ","town":"徳地野谷","town_kana":"トクヂノタニ","prefecture_code":35},"0341":{"zip_code":"7470341","prefecture":"山口県","prefecture_kana":"ヤマグチケン","city":"山口市","city_kana":"ヤマグチシ","town":"徳地引谷","town_kana":"トクヂヒクタニ","prefecture_code":35},"0235":{"zip_code":"7470235","prefecture":"山口県","prefecture_kana":"ヤマグチケン","city":"山口市","city_kana":"ヤマグチシ","town":"徳地深谷","town_kana":"トクヂフカダニ","prefecture_code":35},"0524":{"zip_code":"7470524","prefecture":"山口県","prefecture_kana":"ヤマグチケン","city":"山口市","city_kana":"ヤマグチシ","town":"徳地藤木","town_kana":"トクヂフジキ","prefecture_code":35},"0342":{"zip_code":"7470342","prefecture":"山口県","prefecture_kana":"ヤマグチケン","city":"山口市","city_kana":"ヤマグチシ","town":"徳地船路","town_kana":"トクヂフナジ","prefecture_code":35},"0231":{"zip_code":"7470231","prefecture":"山口県","prefecture_kana":"ヤマグチケン","city":"山口市","city_kana":"ヤマグチシ","town":"徳地堀","town_kana":"トクヂホリ","prefecture_code":35},"0343":{"zip_code":"7470343","prefecture":"山口県","prefecture_kana":"ヤマグチケン","city":"山口市","city_kana":"ヤマグチシ","town":"徳地三谷","town_kana":"トクヂミタニ","prefecture_code":35},"0344":{"zip_code":"7470344","prefecture":"山口県","prefecture_kana":"ヤマグチケン","city":"山口市","city_kana":"ヤマグチシ","town":"徳地八坂","town_kana":"トクヂヤサカ","prefecture_code":35},"0521":{"zip_code":"7470521","prefecture":"山口県","prefecture_kana":"ヤマグチケン","city":"山口市","city_kana":"ヤマグチシ","town":"徳地山畑","town_kana":"トクヂヤマハタ","prefecture_code":35},"0402":{"zip_code":"7470402","prefecture":"山口県","prefecture_kana":"ヤマグチケン","city":"山口市","city_kana":"ヤマグチシ","town":"徳地柚木","town_kana":"トクヂユノキ","prefecture_code":35},"0000":{"zip_code":"7470000","prefecture":"山口県","prefecture_kana":"ヤマグチケン","city":"防府市","city_kana":"ホウフシ","town":"","town_kana":"","prefecture_code":35},"0846":{"zip_code":"7470846","prefecture":"山口県","prefecture_kana":"ヤマグチケン","city":"防府市","city_kana":"ホウフシ","town":"伊佐江","town_kana":"イサエ","prefecture_code":35},"0847":{"zip_code":"7470847","prefecture":"山口県","prefecture_kana":"ヤマグチケン","city":"防府市","city_kana":"ホウフシ","town":"伊佐江町","town_kana":"イサエチョウ","prefecture_code":35},"0806":{"zip_code":"7470806","prefecture":"山口県","prefecture_kana":"ヤマグチケン","city":"防府市","city_kana":"ホウフシ","town":"石が口","town_kana":"イシガグチ","prefecture_code":35},"0051":{"zip_code":"7470051","prefecture":"山口県","prefecture_kana":"ヤマグチケン","city":"防府市","city_kana":"ホウフシ","town":"泉町","town_kana":"イズミチョウ","prefecture_code":35},"0042":{"zip_code":"7470042","prefecture":"山口県","prefecture_kana":"ヤマグチケン","city":"防府市","city_kana":"ホウフシ","town":"今市町","town_kana":"イマイチチョウ","prefecture_code":35},"0812":{"zip_code":"7470812","prefecture":"山口県","prefecture_kana":"ヤマグチケン","city":"防府市","city_kana":"ホウフシ","town":"鋳物師町","town_kana":"イモジチョウ","prefecture_code":35},"0001":{"zip_code":"7470001","prefecture":"山口県","prefecture_kana":"ヤマグチケン","city":"防府市","city_kana":"ホウフシ","town":"岩畠","town_kana":"イワバタケ","prefecture_code":35},"0836":{"zip_code":"7470836","prefecture":"山口県","prefecture_kana":"ヤマグチケン","city":"防府市","city_kana":"ホウフシ","town":"植松","town_kana":"ウエマツ","prefecture_code":35},"0801":{"zip_code":"7470801","prefecture":"山口県","prefecture_kana":"ヤマグチケン","city":"防府市","city_kana":"ホウフシ","town":"駅南町","town_kana":"エキミナミマチ","prefecture_code":35},"0014":{"zip_code":"7470014","prefecture":"山口県","prefecture_kana":"ヤマグチケン","city":"防府市","city_kana":"ホウフシ","town":"江泊","town_kana":"エドマリ","prefecture_code":35},"0036":{"zip_code":"7470036","prefecture":"山口県","prefecture_kana":"ヤマグチケン","city":"防府市","city_kana":"ホウフシ","town":"戎町","town_kana":"エビスマチ","prefecture_code":35},"0065":{"zip_code":"7470065","prefecture":"山口県","prefecture_kana":"ヤマグチケン","city":"防府市","city_kana":"ホウフシ","town":"大崎","town_kana":"オオサキ","prefecture_code":35},"0803":{"zip_code":"7470803","prefecture":"山口県","prefecture_kana":"ヤマグチケン","city":"防府市","city_kana":"ホウフシ","town":"岡村町","town_kana":"オカムラチョウ","prefecture_code":35},"0013":{"zip_code":"7470013","prefecture":"山口県","prefecture_kana":"ヤマグチケン","city":"防府市","city_kana":"ホウフシ","town":"沖今宿","town_kana":"オキイマジュク","prefecture_code":35},"0101":{"zip_code":"7470101","prefecture":"山口県","prefecture_kana":"ヤマグチケン","city":"防府市","city_kana":"ホウフシ","town":"奥畑","town_kana":"オクハタ","prefecture_code":35},"0819":{"zip_code":"7470819","prefecture":"山口県","prefecture_kana":"ヤマグチケン","city":"防府市","city_kana":"ホウフシ","town":"お茶屋町","town_kana":"オチャヤマチ","prefecture_code":35},"0052":{"zip_code":"7470052","prefecture":"山口県","prefecture_kana":"ヤマグチケン","city":"防府市","city_kana":"ホウフシ","town":"開出","town_kana":"カイデ","prefecture_code":35},"0054":{"zip_code":"7470054","prefecture":"山口県","prefecture_kana":"ヤマグチケン","city":"防府市","city_kana":"ホウフシ","town":"開出西町","town_kana":"カイデニシマチ","prefecture_code":35},"0053":{"zip_code":"7470053","prefecture":"山口県","prefecture_kana":"ヤマグチケン","city":"防府市","city_kana":"ホウフシ","town":"開出本町","town_kana":"カイデホンマチ","prefecture_code":35},"0822":{"zip_code":"7470822","prefecture":"山口県","prefecture_kana":"ヤマグチケン","city":"防府市","city_kana":"ホウフシ","town":"勝間","town_kana":"カツマ","prefecture_code":35},"0823":{"zip_code":"7470823","prefecture":"山口県","prefecture_kana":"ヤマグチケン","city":"防府市","city_kana":"ホウフシ","town":"鐘紡町","town_kana":"カネボウチョウ","prefecture_code":35},"0816":{"zip_code":"7470816","prefecture":"山口県","prefecture_kana":"ヤマグチケン","city":"防府市","city_kana":"ホウフシ","town":"華浦","town_kana":"カホ","prefecture_code":35},"0033":{"zip_code":"7470033","prefecture":"山口県","prefecture_kana":"ヤマグチケン","city":"防府市","city_kana":"ホウフシ","town":"上天神町","town_kana":"カミテンジンマチ","prefecture_code":35},"0062":{"zip_code":"7470062","prefecture":"山口県","prefecture_kana":"ヤマグチケン","city":"防府市","city_kana":"ホウフシ","town":"上右田","town_kana":"カミミギタ","prefecture_code":35},"0011":{"zip_code":"7470011","prefecture":"山口県","prefecture_kana":"ヤマグチケン","city":"防府市","city_kana":"ホウフシ","town":"岸津","town_kana":"キシヅ","prefecture_code":35},"0815":{"zip_code":"7470815","prefecture":"山口県","prefecture_kana":"ヤマグチケン","city":"防府市","city_kana":"ホウフシ","town":"協和町","town_kana":"キョウワチョウ","prefecture_code":35},"1231":{"zip_code":"7471231","prefecture":"山口県","prefecture_kana":"ヤマグチケン","city":"防府市","city_kana":"ホウフシ","town":"切畑","town_kana":"キリハタ","prefecture_code":35},"0811":{"zip_code":"7470811","prefecture":"山口県","prefecture_kana":"ヤマグチケン","city":"防府市","city_kana":"ホウフシ","town":"車塚町","town_kana":"クルマヅカチョウ","prefecture_code":35},"0808":{"zip_code":"7470808","prefecture":"山口県","prefecture_kana":"ヤマグチケン","city":"防府市","city_kana":"ホウフシ","town":"桑山","town_kana":"クワノヤマ","prefecture_code":35},"0821":{"zip_code":"7470821","prefecture":"山口県","prefecture_kana":"ヤマグチケン","city":"防府市","city_kana":"ホウフシ","town":"警固町","town_kana":"ケイゴマチ","prefecture_code":35},"0024":{"zip_code":"7470024","prefecture":"山口県","prefecture_kana":"ヤマグチケン","city":"防府市","city_kana":"ホウフシ","town":"国衙","town_kana":"コクガ","prefecture_code":35},"0021":{"zip_code":"7470021","prefecture":"山口県","prefecture_kana":"ヤマグチケン","city":"防府市","city_kana":"ホウフシ","town":"国分寺町","town_kana":"コクブンジチョウ","prefecture_code":35},"0056":{"zip_code":"7470056","prefecture":"山口県","prefecture_kana":"ヤマグチケン","city":"防府市","city_kana":"ホウフシ","town":"古祖原","town_kana":"コソバラ","prefecture_code":35},"0809":{"zip_code":"7470809","prefecture":"山口県","prefecture_kana":"ヤマグチケン","city":"防府市","city_kana":"ホウフシ","town":"寿町","town_kana":"コトブキチョウ","prefecture_code":35},"0035":{"zip_code":"7470035","prefecture":"山口県","prefecture_kana":"ヤマグチケン","city":"防府市","city_kana":"ホウフシ","town":"栄町","town_kana":"サカエマチ","prefecture_code":35},"0067":{"zip_code":"7470067","prefecture":"山口県","prefecture_kana":"ヤマグチケン","city":"防府市","city_kana":"ホウフシ","town":"佐野","town_kana":"サノ","prefecture_code":35},"0044":{"zip_code":"7470044","prefecture":"山口県","prefecture_kana":"ヤマグチケン","city":"防府市","city_kana":"ホウフシ","town":"佐波","town_kana":"サバ","prefecture_code":35},"0006":{"zip_code":"7470006","prefecture":"山口県","prefecture_kana":"ヤマグチケン","city":"防府市","city_kana":"ホウフシ","town":"敷山町","town_kana":"シキヤマチョウ","prefecture_code":35},"0842":{"zip_code":"7470842","prefecture":"山口県","prefecture_kana":"ヤマグチケン","city":"防府市","city_kana":"ホウフシ","town":"清水町","town_kana":"シミズチョウ","prefecture_code":35},"0063":{"zip_code":"7470063","prefecture":"山口県","prefecture_kana":"ヤマグチケン","city":"防府市","city_kana":"ホウフシ","town":"下右田","town_kana":"シモミギタ","prefecture_code":35},"0824":{"zip_code":"7470824","prefecture":"山口県","prefecture_kana":"ヤマグチケン","city":"防府市","city_kana":"ホウフシ","town":"新築地町","town_kana":"シンツキジチョウ","prefecture_code":35},"0825":{"zip_code":"7470825","prefecture":"山口県","prefecture_kana":"ヤマグチケン","city":"防府市","city_kana":"ホウフシ","town":"新田","town_kana":"シンデン","prefecture_code":35},"0047":{"zip_code":"7470047","prefecture":"山口県","prefecture_kana":"ヤマグチケン","city":"防府市","city_kana":"ホウフシ","town":"新橋町","town_kana":"シンバシチョウ","prefecture_code":35},"0066":{"zip_code":"7470066","prefecture":"山口県","prefecture_kana":"ヤマグチケン","city":"防府市","city_kana":"ホウフシ","town":"自由ケ丘","town_kana":"ジユウガオカ","prefecture_code":35},"0817":{"zip_code":"7470817","prefecture":"山口県","prefecture_kana":"ヤマグチケン","city":"防府市","city_kana":"ホウフシ","town":"自力町","town_kana":"ジリキチョウ","prefecture_code":35},"0002":{"zip_code":"7470002","prefecture":"山口県","prefecture_kana":"ヤマグチケン","city":"防府市","city_kana":"ホウフシ","town":"酢貝","town_kana":"スガイ","prefecture_code":35},"0105":{"zip_code":"7470105","prefecture":"山口県","prefecture_kana":"ヤマグチケン","city":"防府市","city_kana":"ホウフシ","town":"鈴屋","town_kana":"スズヤ","prefecture_code":35},"0031":{"zip_code":"7470031","prefecture":"山口県","prefecture_kana":"ヤマグチケン","city":"防府市","city_kana":"ホウフシ","town":"迫戸町","town_kana":"セバトチョウ","prefecture_code":35},"0046":{"zip_code":"7470046","prefecture":"山口県","prefecture_kana":"ヤマグチケン","city":"防府市","city_kana":"ホウフシ","town":"千日","town_kana":"センニチ","prefecture_code":35},"0022":{"zip_code":"7470022","prefecture":"山口県","prefecture_kana":"ヤマグチケン","city":"防府市","city_kana":"ホウフシ","town":"惣社町","town_kana":"ソウシャチョウ","prefecture_code":35},"0807":{"zip_code":"7470807","prefecture":"山口県","prefecture_kana":"ヤマグチケン","city":"防府市","city_kana":"ホウフシ","town":"桑南","town_kana":"ソウナン","prefecture_code":35},"1232":{"zip_code":"7471232","prefecture":"山口県","prefecture_kana":"ヤマグチケン","city":"防府市","city_kana":"ホウフシ","town":"台道","town_kana":"ダイドウ","prefecture_code":35},"0064":{"zip_code":"7470064","prefecture":"山口県","prefecture_kana":"ヤマグチケン","city":"防府市","city_kana":"ホウフシ","town":"高井","town_kana":"タカイ","prefecture_code":35},"0045":{"zip_code":"7470045","prefecture":"山口県","prefecture_kana":"ヤマグチケン","city":"防府市","city_kana":"ホウフシ","town":"高倉","town_kana":"タカクラ","prefecture_code":35},"0834":{"zip_code":"7470834","prefecture":"山口県","prefecture_kana":"ヤマグチケン","city":"防府市","city_kana":"ホウフシ","town":"田島","town_kana":"タジマ","prefecture_code":35},"0023":{"zip_code":"7470023","prefecture":"山口県","prefecture_kana":"ヤマグチケン","city":"防府市","city_kana":"ホウフシ","town":"多々良","town_kana":"タタラ","prefecture_code":35},"0802":{"zip_code":"7470802","prefecture":"山口県","prefecture_kana":"ヤマグチケン","city":"防府市","city_kana":"ホウフシ","town":"中央町","town_kana":"チュウオウチョウ","prefecture_code":35},"0034":{"zip_code":"7470034","prefecture":"山口県","prefecture_kana":"ヤマグチケン","city":"防府市","city_kana":"ホウフシ","town":"天神","town_kana":"テンジン","prefecture_code":35},"1111":{"zip_code":"7471111","prefecture":"山口県","prefecture_kana":"ヤマグチケン","city":"防府市","city_kana":"ホウフシ","town":"富海","town_kana":"トノミ","prefecture_code":35},"0055":{"zip_code":"7470055","prefecture":"山口県","prefecture_kana":"ヤマグチケン","city":"防府市","city_kana":"ホウフシ","town":"中泉町","town_kana":"ナカイズミチョウ","prefecture_code":35},"0005":{"zip_code":"7470005","prefecture":"山口県","prefecture_kana":"ヤマグチケン","city":"防府市","city_kana":"ホウフシ","town":"中西","town_kana":"ナカニシ","prefecture_code":35},"0107":{"zip_code":"7470107","prefecture":"山口県","prefecture_kana":"ヤマグチケン","city":"防府市","city_kana":"ホウフシ","town":"中山","town_kana":"ナカヤマ","prefecture_code":35},"0106":{"zip_code":"7470106","prefecture":"山口県","prefecture_kana":"ヤマグチケン","city":"防府市","city_kana":"ホウフシ","town":"奈美","town_kana":"ナミ","prefecture_code":35},"0845":{"zip_code":"7470845","prefecture":"山口県","prefecture_kana":"ヤマグチケン","city":"防府市","city_kana":"ホウフシ","town":"仁井令","town_kana":"ニイリョウ","prefecture_code":35},"0841":{"zip_code":"7470841","prefecture":"山口県","prefecture_kana":"ヤマグチケン","city":"防府市","city_kana":"ホウフシ","town":"仁井令町","town_kana":"ニイリョウチョウ","prefecture_code":35},"0849":{"zip_code":"7470849","prefecture":"山口県","prefecture_kana":"ヤマグチケン","city":"防府市","city_kana":"ホウフシ","town":"西仁井令","town_kana":"ニシニイリョウ","prefecture_code":35},"0835":{"zip_code":"7470835","prefecture":"山口県","prefecture_kana":"ヤマグチケン","city":"防府市","city_kana":"ホウフシ","town":"西浦","town_kana":"ニシノウラ","prefecture_code":35},"0832":{"zip_code":"7470832","prefecture":"山口県","prefecture_kana":"ヤマグチケン","city":"防府市","city_kana":"ホウフシ","town":"野島","town_kana":"ノシマ","prefecture_code":35},"0037":{"zip_code":"7470037","prefecture":"山口県","prefecture_kana":"ヤマグチケン","city":"防府市","city_kana":"ホウフシ","town":"八王子","town_kana":"ハチオウジ","prefecture_code":35},"0848":{"zip_code":"7470848","prefecture":"山口県","prefecture_kana":"ヤマグチケン","city":"防府市","city_kana":"ホウフシ","town":"華城中央","town_kana":"ハナギチュウオウ","prefecture_code":35},"0844":{"zip_code":"7470844","prefecture":"山口県","prefecture_kana":"ヤマグチケン","city":"防府市","city_kana":"ホウフシ","town":"華園町","town_kana":"ハナゾノチョウ","prefecture_code":35},"0833":{"zip_code":"7470833","prefecture":"山口県","prefecture_kana":"ヤマグチケン","city":"防府市","city_kana":"ホウフシ","town":"浜方","town_kana":"ハマカタ","prefecture_code":35},"0061":{"zip_code":"7470061","prefecture":"山口県","prefecture_kana":"ヤマグチケン","city":"防府市","city_kana":"ホウフシ","town":"東佐波令","town_kana":"ヒガシサバリョウ","prefecture_code":35},"0843":{"zip_code":"7470843","prefecture":"山口県","prefecture_kana":"ヤマグチケン","city":"防府市","city_kana":"ホウフシ","town":"東仁井令町","town_kana":"ヒガシニイリョウチョウ","prefecture_code":35},"0028":{"zip_code":"7470028","prefecture":"山口県","prefecture_kana":"ヤマグチケン","city":"防府市","city_kana":"ホウフシ","town":"東松崎町","town_kana":"ヒガシマツザキチョウ","prefecture_code":35},"0813":{"zip_code":"7470813","prefecture":"山口県","prefecture_kana":"ヤマグチケン","city":"防府市","city_kana":"ホウフシ","town":"東三田尻","town_kana":"ヒガシミタジリ","prefecture_code":35},"0102":{"zip_code":"7470102","prefecture":"山口県","prefecture_kana":"ヤマグチケン","city":"防府市","city_kana":"ホウフシ","town":"久兼","town_kana":"ヒサカネ","prefecture_code":35},"0043":{"zip_code":"7470043","prefecture":"山口県","prefecture_kana":"ヤマグチケン","city":"防府市","city_kana":"ホウフシ","town":"平和町","town_kana":"ヘイワマチ","prefecture_code":35},"0029":{"zip_code":"7470029","prefecture":"山口県","prefecture_kana":"ヤマグチケン","city":"防府市","city_kana":"ホウフシ","town":"松崎町","town_kana":"マツザキチョウ","prefecture_code":35},"0804":{"zip_code":"7470804","prefecture":"山口県","prefecture_kana":"ヤマグチケン","city":"防府市","city_kana":"ホウフシ","town":"松原町","town_kana":"マツバラチョウ","prefecture_code":35},"0104":{"zip_code":"7470104","prefecture":"山口県","prefecture_kana":"ヤマグチケン","city":"防府市","city_kana":"ホウフシ","town":"真尾","town_kana":"マナオ","prefecture_code":35},"0805":{"zip_code":"7470805","prefecture":"山口県","prefecture_kana":"ヤマグチケン","city":"防府市","city_kana":"ホウフシ","town":"鞠生町","town_kana":"マリフチョウ","prefecture_code":35},"0814":{"zip_code":"7470814","prefecture":"山口県","prefecture_kana":"ヤマグチケン","city":"防府市","city_kana":"ホウフシ","town":"三田尻","town_kana":"ミタジリ","prefecture_code":35},"0818":{"zip_code":"7470818","prefecture":"山口県","prefecture_kana":"ヤマグチケン","city":"防府市","city_kana":"ホウフシ","town":"三田尻本町","town_kana":"ミタジリホンマチ","prefecture_code":35},"0026":{"zip_code":"7470026","prefecture":"山口県","prefecture_kana":"ヤマグチケン","city":"防府市","city_kana":"ホウフシ","town":"緑町","town_kana":"ミドリマチ","prefecture_code":35},"0027":{"zip_code":"7470027","prefecture":"山口県","prefecture_kana":"ヤマグチケン","city":"防府市","city_kana":"ホウフシ","town":"南松崎町","town_kana":"ミナミマツザキチョウ","prefecture_code":35},"0032":{"zip_code":"7470032","prefecture":"山口県","prefecture_kana":"ヤマグチケン","city":"防府市","city_kana":"ホウフシ","town":"宮市町","town_kana":"ミヤチチョウ","prefecture_code":35},"0025":{"zip_code":"7470025","prefecture":"山口県","prefecture_kana":"ヤマグチケン","city":"防府市","city_kana":"ホウフシ","town":"美和町","town_kana":"ミワチョウ","prefecture_code":35},"0831":{"zip_code":"7470831","prefecture":"山口県","prefecture_kana":"ヤマグチケン","city":"防府市","city_kana":"ホウフシ","town":"向島","town_kana":"ムコウシマ","prefecture_code":35},"0004":{"zip_code":"7470004","prefecture":"山口県","prefecture_kana":"ヤマグチケン","city":"防府市","city_kana":"ホウフシ","town":"牟礼","town_kana":"ムレ","prefecture_code":35},"0012":{"zip_code":"7470012","prefecture":"山口県","prefecture_kana":"ヤマグチケン","city":"防府市","city_kana":"ホウフシ","town":"牟礼今宿","town_kana":"ムレイマジュク","prefecture_code":35},"0003":{"zip_code":"7470003","prefecture":"山口県","prefecture_kana":"ヤマグチケン","city":"防府市","city_kana":"ホウフシ","town":"牟礼柳","town_kana":"ムレヤナギ","prefecture_code":35},"0041":{"zip_code":"7470041","prefecture":"山口県","prefecture_kana":"ヤマグチケン","city":"防府市","city_kana":"ホウフシ","town":"本橋町","town_kana":"モトバシチョウ","prefecture_code":35},"0103":{"zip_code":"7470103","prefecture":"山口県","prefecture_kana":"ヤマグチケン","city":"防府市","city_kana":"ホウフシ","town":"和字","town_kana":"ワジ","prefecture_code":35},"0621":{"zip_code":"7470621","prefecture":"山口県","prefecture_kana":"ヤマグチケン","city":"周南市","city_kana":"シュウナンシ","town":"巣山","town_kana":"スヤマ","prefecture_code":35}}