{"0000":{"zip_code":"7500000","prefecture":"山口県","prefecture_kana":"ヤマグチケン","city":"下関市","city_kana":"シモノセキシ","town":"","town_kana":"","prefecture_code":35},"0007":{"zip_code":"7500007","prefecture":"山口県","prefecture_kana":"ヤマグチケン","city":"下関市","city_kana":"シモノセキシ","town":"赤間町","town_kana":"アカマチョウ","prefecture_code":35},"0003":{"zip_code":"7500003","prefecture":"山口県","prefecture_kana":"ヤマグチケン","city":"下関市","city_kana":"シモノセキシ","town":"阿弥陀寺町","town_kana":"アミダイジチョウ","prefecture_code":35},"0036":{"zip_code":"7500036","prefecture":"山口県","prefecture_kana":"ヤマグチケン","city":"下関市","city_kana":"シモノセキシ","town":"あるかぽーと","town_kana":"アルカポート","prefecture_code":35},"0065":{"zip_code":"7500065","prefecture":"山口県","prefecture_kana":"ヤマグチケン","city":"下関市","city_kana":"シモノセキシ","town":"伊崎町","town_kana":"イザキチョウ","prefecture_code":35},"0064":{"zip_code":"7500064","prefecture":"山口県","prefecture_kana":"ヤマグチケン","city":"下関市","city_kana":"シモノセキシ","town":"今浦町","town_kana":"イマウラチョウ","prefecture_code":35},"0013":{"zip_code":"7500013","prefecture":"山口県","prefecture_kana":"ヤマグチケン","city":"下関市","city_kana":"シモノセキシ","town":"入江町","town_kana":"イリエチョウ","prefecture_code":35},"0027":{"zip_code":"7500027","prefecture":"山口県","prefecture_kana":"ヤマグチケン","city":"下関市","city_kana":"シモノセキシ","town":"上条町","town_kana":"ウエジョウチョウ","prefecture_code":35},"0251":{"zip_code":"7500251","prefecture":"山口県","prefecture_kana":"ヤマグチケン","city":"下関市","city_kana":"シモノセキシ","town":"植田","town_kana":"ウエダ","prefecture_code":35},"0252":{"zip_code":"7500252","prefecture":"山口県","prefecture_kana":"ヤマグチケン","city":"下関市","city_kana":"シモノセキシ","town":"内日上","town_kana":"ウツイカミ","prefecture_code":35},"0253":{"zip_code":"7500253","prefecture":"山口県","prefecture_kana":"ヤマグチケン","city":"下関市","city_kana":"シモノセキシ","town":"内日下","town_kana":"ウツイシモ","prefecture_code":35},"1111":{"zip_code":"7501111","prefecture":"山口県","prefecture_kana":"ヤマグチケン","city":"下関市","city_kana":"シモノセキシ","town":"宇津井","town_kana":"ウヅイ","prefecture_code":35},"1115":{"zip_code":"7501115","prefecture":"山口県","prefecture_kana":"ヤマグチケン","city":"下関市","city_kana":"シモノセキシ","town":"王喜宇津井","town_kana":"オウキウヅイ","prefecture_code":35},"1114":{"zip_code":"7501114","prefecture":"山口県","prefecture_kana":"ヤマグチケン","city":"下関市","city_kana":"シモノセキシ","town":"王喜本町","town_kana":"オウキホンマチ","prefecture_code":35},"1171":{"zip_code":"7501171","prefecture":"山口県","prefecture_kana":"ヤマグチケン","city":"下関市","city_kana":"シモノセキシ","town":"阿内","town_kana":"オウチ","prefecture_code":35},"0051":{"zip_code":"7500051","prefecture":"山口県","prefecture_kana":"ヤマグチケン","city":"下関市","city_kana":"シモノセキシ","town":"大坪本町","town_kana":"オオツボホンマチ","prefecture_code":35},"1147":{"zip_code":"7501147","prefecture":"山口県","prefecture_kana":"ヤマグチケン","city":"下関市","city_kana":"シモノセキシ","town":"小月市原町","town_kana":"オヅキイチハラチョウ","prefecture_code":35},"1143":{"zip_code":"7501143","prefecture":"山口県","prefecture_kana":"ヤマグチケン","city":"下関市","city_kana":"シモノセキシ","town":"小月駅前","town_kana":"オヅキエキマエ","prefecture_code":35},"1134":{"zip_code":"7501134","prefecture":"山口県","prefecture_kana":"ヤマグチケン","city":"下関市","city_kana":"シモノセキシ","town":"小月京泊","town_kana":"オヅキキョウドマリ","prefecture_code":35},"1146":{"zip_code":"7501146","prefecture":"山口県","prefecture_kana":"ヤマグチケン","city":"下関市","city_kana":"シモノセキシ","town":"小月公園町","town_kana":"オヅキコウエンチョウ","prefecture_code":35},"1136":{"zip_code":"7501136","prefecture":"山口県","prefecture_kana":"ヤマグチケン","city":"下関市","city_kana":"シモノセキシ","town":"小月小島","town_kana":"オヅキコジマ","prefecture_code":35},"1141":{"zip_code":"7501141","prefecture":"山口県","prefecture_kana":"ヤマグチケン","city":"下関市","city_kana":"シモノセキシ","town":"小月幸町","town_kana":"オヅキサイワイマチ","prefecture_code":35},"1145":{"zip_code":"7501145","prefecture":"山口県","prefecture_kana":"ヤマグチケン","city":"下関市","city_kana":"シモノセキシ","town":"小月杉迫","town_kana":"オヅキスギサコ","prefecture_code":35},"1133":{"zip_code":"7501133","prefecture":"山口県","prefecture_kana":"ヤマグチケン","city":"下関市","city_kana":"シモノセキシ","town":"小月高雄町","town_kana":"オヅキタカオチョウ","prefecture_code":35},"1144":{"zip_code":"7501144","prefecture":"山口県","prefecture_kana":"ヤマグチケン","city":"下関市","city_kana":"シモノセキシ","town":"小月茶屋","town_kana":"オヅキチャヤ","prefecture_code":35},"1131":{"zip_code":"7501131","prefecture":"山口県","prefecture_kana":"ヤマグチケン","city":"下関市","city_kana":"シモノセキシ","town":"小月町","town_kana":"オヅキチョウ","prefecture_code":35},"1135":{"zip_code":"7501135","prefecture":"山口県","prefecture_kana":"ヤマグチケン","city":"下関市","city_kana":"シモノセキシ","town":"小月西の台","town_kana":"オヅキニシノダイ","prefecture_code":35},"1142":{"zip_code":"7501142","prefecture":"山口県","prefecture_kana":"ヤマグチケン","city":"下関市","city_kana":"シモノセキシ","town":"小月本町","town_kana":"オヅキホンマチ","prefecture_code":35},"1137":{"zip_code":"7501137","prefecture":"山口県","prefecture_kana":"ヤマグチケン","city":"下関市","city_kana":"シモノセキシ","town":"小月南町","town_kana":"オヅキミナミマチ","prefecture_code":35},"1132":{"zip_code":"7501132","prefecture":"山口県","prefecture_kana":"ヤマグチケン","city":"下関市","city_kana":"シモノセキシ","town":"小月宮の町","town_kana":"オヅキミヤノマチ","prefecture_code":35},"0031":{"zip_code":"7500031","prefecture":"山口県","prefecture_kana":"ヤマグチケン","city":"下関市","city_kana":"シモノセキシ","town":"春日町","town_kana":"カスガチョウ","prefecture_code":35},"0061":{"zip_code":"7500061","prefecture":"山口県","prefecture_kana":"ヤマグチケン","city":"下関市","city_kana":"シモノセキシ","town":"上新地町","town_kana":"カミシンチチョウ","prefecture_code":35},"0009":{"zip_code":"7500009","prefecture":"山口県","prefecture_kana":"ヤマグチケン","city":"下関市","city_kana":"シモノセキシ","town":"上田中町","town_kana":"カミタナカマチ","prefecture_code":35},"0005":{"zip_code":"7500005","prefecture":"山口県","prefecture_kana":"ヤマグチケン","city":"下関市","city_kana":"シモノセキシ","town":"唐戸町","town_kana":"カラトチョウ","prefecture_code":35},"0032":{"zip_code":"7500032","prefecture":"山口県","prefecture_kana":"ヤマグチケン","city":"下関市","city_kana":"シモノセキシ","town":"関西町","town_kana":"カンセイチョウ","prefecture_code":35},"0022":{"zip_code":"7500022","prefecture":"山口県","prefecture_kana":"ヤマグチケン","city":"下関市","city_kana":"シモノセキシ","town":"関西本町","town_kana":"カンセイホンマチ","prefecture_code":35},"0044":{"zip_code":"7500044","prefecture":"山口県","prefecture_kana":"ヤマグチケン","city":"下関市","city_kana":"シモノセキシ","town":"神田町","town_kana":"カンダチョウ","prefecture_code":35},"0012":{"zip_code":"7500012","prefecture":"山口県","prefecture_kana":"ヤマグチケン","city":"下関市","city_kana":"シモノセキシ","town":"観音崎町","town_kana":"カンノンザキチョウ","prefecture_code":35},"0311":{"zip_code":"7500311","prefecture":"山口県","prefecture_kana":"ヤマグチケン","city":"下関市","city_kana":"シモノセキシ","town":"菊川町上大野","town_kana":"キクガワチョウカミオオノ","prefecture_code":35},"0321":{"zip_code":"7500321","prefecture":"山口県","prefecture_kana":"ヤマグチケン","city":"下関市","city_kana":"シモノセキシ","town":"菊川町上岡枝","town_kana":"キクガワチョウカミオカエダ","prefecture_code":35},"0314":{"zip_code":"7500314","prefecture":"山口県","prefecture_kana":"ヤマグチケン","city":"下関市","city_kana":"シモノセキシ","town":"菊川町上田部","town_kana":"キクガワチョウカミタベ","prefecture_code":35},"0307":{"zip_code":"7500307","prefecture":"山口県","prefecture_kana":"ヤマグチケン","city":"下関市","city_kana":"シモノセキシ","town":"菊川町上保木","town_kana":"キクガワチョウカミホキ","prefecture_code":35},"0325":{"zip_code":"7500325","prefecture":"山口県","prefecture_kana":"ヤマグチケン","city":"下関市","city_kana":"シモノセキシ","town":"菊川町貴飯","town_kana":"キクガワチョウキバ","prefecture_code":35},"0305":{"zip_code":"7500305","prefecture":"山口県","prefecture_kana":"ヤマグチケン","city":"下関市","city_kana":"シモノセキシ","town":"菊川町轡井","town_kana":"キクガワチョウクツワイ","prefecture_code":35},"0324":{"zip_code":"7500324","prefecture":"山口県","prefecture_kana":"ヤマグチケン","city":"下関市","city_kana":"シモノセキシ","town":"菊川町久野","town_kana":"キクガワチョウクノ","prefecture_code":35},"0312":{"zip_code":"7500312","prefecture":"山口県","prefecture_kana":"ヤマグチケン","city":"下関市","city_kana":"シモノセキシ","town":"菊川町下大野","town_kana":"キクガワチョウシモオオノ","prefecture_code":35},"0317":{"zip_code":"7500317","prefecture":"山口県","prefecture_kana":"ヤマグチケン","city":"下関市","city_kana":"シモノセキシ","town":"菊川町下岡枝","town_kana":"キクガワチョウシモオカエダ","prefecture_code":35},"0306":{"zip_code":"7500306","prefecture":"山口県","prefecture_kana":"ヤマグチケン","city":"下関市","city_kana":"シモノセキシ","town":"菊川町下保木","town_kana":"キクガワチョウシモホキ","prefecture_code":35},"0313":{"zip_code":"7500313","prefecture":"山口県","prefecture_kana":"ヤマグチケン","city":"下関市","city_kana":"シモノセキシ","town":"菊川町田部","town_kana":"キクガワチョウタベ","prefecture_code":35},"0315":{"zip_code":"7500315","prefecture":"山口県","prefecture_kana":"ヤマグチケン","city":"下関市","city_kana":"シモノセキシ","town":"菊川町七見","town_kana":"キクガワチョウナナミ","prefecture_code":35},"0322":{"zip_code":"7500322","prefecture":"山口県","prefecture_kana":"ヤマグチケン","city":"下関市","city_kana":"シモノセキシ","town":"菊川町楢崎","town_kana":"キクガワチョウナラザキ","prefecture_code":35},"0301":{"zip_code":"7500301","prefecture":"山口県","prefecture_kana":"ヤマグチケン","city":"下関市","city_kana":"シモノセキシ","town":"菊川町西中山","town_kana":"キクガワチョウニシナカヤマ","prefecture_code":35},"0323":{"zip_code":"7500323","prefecture":"山口県","prefecture_kana":"ヤマグチケン","city":"下関市","city_kana":"シモノセキシ","town":"菊川町日新","town_kana":"キクガワチョウニッシン","prefecture_code":35},"0302":{"zip_code":"7500302","prefecture":"山口県","prefecture_kana":"ヤマグチケン","city":"下関市","city_kana":"シモノセキシ","town":"菊川町東中山","town_kana":"キクガワチョウヒガシナカヤマ","prefecture_code":35},"0304":{"zip_code":"7500304","prefecture":"山口県","prefecture_kana":"ヤマグチケン","city":"下関市","city_kana":"シモノセキシ","town":"菊川町道市","town_kana":"キクガワチョウミチイチ","prefecture_code":35},"0303":{"zip_code":"7500303","prefecture":"山口県","prefecture_kana":"ヤマグチケン","city":"下関市","city_kana":"シモノセキシ","town":"菊川町樅ノ木","town_kana":"キクガワチョウモミノキ","prefecture_code":35},"0316":{"zip_code":"7500316","prefecture":"山口県","prefecture_kana":"ヤマグチケン","city":"下関市","city_kana":"シモノセキシ","town":"菊川町吉賀","town_kana":"キクガワチョウヨシカ","prefecture_code":35},"1151":{"zip_code":"7501151","prefecture":"山口県","prefecture_kana":"ヤマグチケン","city":"下関市","city_kana":"シモノセキシ","town":"清末","town_kana":"キヨスエ","prefecture_code":35},"1156":{"zip_code":"7501156","prefecture":"山口県","prefecture_kana":"ヤマグチケン","city":"下関市","city_kana":"シモノセキシ","town":"清末東町","town_kana":"キヨスエヒガシマチ","prefecture_code":35},"1153":{"zip_code":"7501153","prefecture":"山口県","prefecture_kana":"ヤマグチケン","city":"下関市","city_kana":"シモノセキシ","town":"清末鞍馬","town_kana":"キヨスエクラマ","prefecture_code":35},"1162":{"zip_code":"7501162","prefecture":"山口県","prefecture_kana":"ヤマグチケン","city":"下関市","city_kana":"シモノセキシ","town":"清末五毛","town_kana":"キヨスエゴモウ","prefecture_code":35},"1152":{"zip_code":"7501152","prefecture":"山口県","prefecture_kana":"ヤマグチケン","city":"下関市","city_kana":"シモノセキシ","town":"清末陣屋","town_kana":"キヨスエジンヤ","prefecture_code":35},"1163":{"zip_code":"7501163","prefecture":"山口県","prefecture_kana":"ヤマグチケン","city":"下関市","city_kana":"シモノセキシ","town":"清末千房","town_kana":"キヨスエセンボウ","prefecture_code":35},"1164":{"zip_code":"7501164","prefecture":"山口県","prefecture_kana":"ヤマグチケン","city":"下関市","city_kana":"シモノセキシ","town":"清末大門","town_kana":"キヨスエダイモン","prefecture_code":35},"1155":{"zip_code":"7501155","prefecture":"山口県","prefecture_kana":"ヤマグチケン","city":"下関市","city_kana":"シモノセキシ","town":"清末中町","town_kana":"キヨスエナカマチ","prefecture_code":35},"1161":{"zip_code":"7501161","prefecture":"山口県","prefecture_kana":"ヤマグチケン","city":"下関市","city_kana":"シモノセキシ","town":"清末西町","town_kana":"キヨスエニシマチ","prefecture_code":35},"1154":{"zip_code":"7501154","prefecture":"山口県","prefecture_kana":"ヤマグチケン","city":"下関市","city_kana":"シモノセキシ","town":"清末本町","town_kana":"キヨスエホンマチ","prefecture_code":35},"0041":{"zip_code":"7500041","prefecture":"山口県","prefecture_kana":"ヤマグチケン","city":"下関市","city_kana":"シモノセキシ","town":"向洋町","town_kana":"コウヨウチョウ","prefecture_code":35},"1112":{"zip_code":"7501112","prefecture":"山口県","prefecture_kana":"ヤマグチケン","city":"下関市","city_kana":"シモノセキシ","town":"木屋川本町","town_kana":"コヤガワホンマチ","prefecture_code":35},"1113":{"zip_code":"7501113","prefecture":"山口県","prefecture_kana":"ヤマグチケン","city":"下関市","city_kana":"シモノセキシ","town":"木屋川南町","town_kana":"コヤガワミナミマチ","prefecture_code":35},"0058":{"zip_code":"7500058","prefecture":"山口県","prefecture_kana":"ヤマグチケン","city":"下関市","city_kana":"シモノセキシ","town":"金比羅町","town_kana":"コンピラチョウ","prefecture_code":35},"0001":{"zip_code":"7500001","prefecture":"山口県","prefecture_kana":"ヤマグチケン","city":"下関市","city_kana":"シモノセキシ","town":"幸町","town_kana":"サイワイマチ","prefecture_code":35},"0049":{"zip_code":"7500049","prefecture":"山口県","prefecture_kana":"ヤマグチケン","city":"下関市","city_kana":"シモノセキシ","town":"栄町","town_kana":"サカエマチ","prefecture_code":35},"0035":{"zip_code":"7500035","prefecture":"山口県","prefecture_kana":"ヤマグチケン","city":"下関市","city_kana":"シモノセキシ","town":"桜山町","town_kana":"サクラヤマチョウ","prefecture_code":35},"0024":{"zip_code":"7500024","prefecture":"山口県","prefecture_kana":"ヤマグチケン","city":"下関市","city_kana":"シモノセキシ","town":"笹山町","town_kana":"ササヤマチョウ","prefecture_code":35},"0059":{"zip_code":"7500059","prefecture":"山口県","prefecture_kana":"ヤマグチケン","city":"下関市","city_kana":"シモノセキシ","town":"汐入町","town_kana":"シオイリチョウ","prefecture_code":35},"1116":{"zip_code":"7501116","prefecture":"山口県","prefecture_kana":"ヤマグチケン","city":"下関市","city_kana":"シモノセキシ","town":"白崎","town_kana":"シラサキ","prefecture_code":35},"0063":{"zip_code":"7500063","prefecture":"山口県","prefecture_kana":"ヤマグチケン","city":"下関市","city_kana":"シモノセキシ","town":"新地町","town_kana":"シンチチョウ","prefecture_code":35},"0062":{"zip_code":"7500062","prefecture":"山口県","prefecture_kana":"ヤマグチケン","city":"下関市","city_kana":"シモノセキシ","town":"新地西町","town_kana":"シンチニシマチ","prefecture_code":35},"0057":{"zip_code":"7500057","prefecture":"山口県","prefecture_kana":"ヤマグチケン","city":"下関市","city_kana":"シモノセキシ","town":"筋川町","town_kana":"スジカワチョウ","prefecture_code":35},"0056":{"zip_code":"7500056","prefecture":"山口県","prefecture_kana":"ヤマグチケン","city":"下関市","city_kana":"シモノセキシ","town":"筋ケ浜町","town_kana":"スジガハマチョウ","prefecture_code":35},"0053":{"zip_code":"7500053","prefecture":"山口県","prefecture_kana":"ヤマグチケン","city":"下関市","city_kana":"シモノセキシ","town":"大平町","town_kana":"タイヘイチョウ","prefecture_code":35},"0025":{"zip_code":"7500025","prefecture":"山口県","prefecture_kana":"ヤマグチケン","city":"下関市","city_kana":"シモノセキシ","town":"竹崎町","town_kana":"タケザキチョウ","prefecture_code":35},"0008":{"zip_code":"7500008","prefecture":"山口県","prefecture_kana":"ヤマグチケン","city":"下関市","city_kana":"シモノセキシ","town":"田中町","town_kana":"タナカマチ","prefecture_code":35},"0042":{"zip_code":"7500042","prefecture":"山口県","prefecture_kana":"ヤマグチケン","city":"下関市","city_kana":"シモノセキシ","town":"中央町","town_kana":"チュウオウチョウ","prefecture_code":35},"0451":{"zip_code":"7500451","prefecture":"山口県","prefecture_kana":"ヤマグチケン","city":"下関市","city_kana":"シモノセキシ","town":"豊田町阿座上","town_kana":"トヨタチョウアザカミ","prefecture_code":35},"0404":{"zip_code":"7500404","prefecture":"山口県","prefecture_kana":"ヤマグチケン","city":"下関市","city_kana":"シモノセキシ","town":"豊田町荒木","town_kana":"トヨタチョウアラキ","prefecture_code":35},"0403":{"zip_code":"7500403","prefecture":"山口県","prefecture_kana":"ヤマグチケン","city":"下関市","city_kana":"シモノセキシ","town":"豊田町一ノ俣","town_kana":"トヨタチョウイチノマタ","prefecture_code":35},"0412":{"zip_code":"7500412","prefecture":"山口県","prefecture_kana":"ヤマグチケン","city":"下関市","city_kana":"シモノセキシ","town":"豊田町稲見","town_kana":"トヨタチョウイナミ","prefecture_code":35},"0442":{"zip_code":"7500442","prefecture":"山口県","prefecture_kana":"ヤマグチケン","city":"下関市","city_kana":"シモノセキシ","town":"豊田町稲光","town_kana":"トヨタチョウイナミツ","prefecture_code":35},"0431":{"zip_code":"7500431","prefecture":"山口県","prefecture_kana":"ヤマグチケン","city":"下関市","city_kana":"シモノセキシ","town":"豊田町今出","town_kana":"トヨタチョウイマデ","prefecture_code":35},"0415":{"zip_code":"7500415","prefecture":"山口県","prefecture_kana":"ヤマグチケン","city":"下関市","city_kana":"シモノセキシ","town":"豊田町浮石","town_kana":"トヨタチョウウキイシ","prefecture_code":35},"0411":{"zip_code":"7500411","prefecture":"山口県","prefecture_kana":"ヤマグチケン","city":"下関市","city_kana":"シモノセキシ","town":"豊田町宇内","town_kana":"トヨタチョウウナイ","prefecture_code":35},"0452":{"zip_code":"7500452","prefecture":"山口県","prefecture_kana":"ヤマグチケン","city":"下関市","city_kana":"シモノセキシ","town":"豊田町江良","town_kana":"トヨタチョウエラ","prefecture_code":35},"0433":{"zip_code":"7500433","prefecture":"山口県","prefecture_kana":"ヤマグチケン","city":"下関市","city_kana":"シモノセキシ","town":"豊田町大河内","town_kana":"トヨタチョウオオカワチ","prefecture_code":35},"0455":{"zip_code":"7500455","prefecture":"山口県","prefecture_kana":"ヤマグチケン","city":"下関市","city_kana":"シモノセキシ","town":"豊田町城戸","town_kana":"トヨタチョウキド","prefecture_code":35},"0413":{"zip_code":"7500413","prefecture":"山口県","prefecture_kana":"ヤマグチケン","city":"下関市","city_kana":"シモノセキシ","town":"豊田町金道","town_kana":"トヨタチョウキンドウ","prefecture_code":35},"0402":{"zip_code":"7500402","prefecture":"山口県","prefecture_kana":"ヤマグチケン","city":"下関市","city_kana":"シモノセキシ","town":"豊田町佐野","town_kana":"トヨタチョウサノ","prefecture_code":35},"0432":{"zip_code":"7500432","prefecture":"山口県","prefecture_kana":"ヤマグチケン","city":"下関市","city_kana":"シモノセキシ","town":"豊田町地吉","town_kana":"トヨタチョウジヨシ","prefecture_code":35},"0416":{"zip_code":"7500416","prefecture":"山口県","prefecture_kana":"ヤマグチケン","city":"下関市","city_kana":"シモノセキシ","town":"豊田町鷹子","town_kana":"トヨタチョウタカノコ","prefecture_code":35},"0446":{"zip_code":"7500446","prefecture":"山口県","prefecture_kana":"ヤマグチケン","city":"下関市","city_kana":"シモノセキシ","town":"豊田町高山","town_kana":"トヨタチョウタカヤマ","prefecture_code":35},"0453":{"zip_code":"7500453","prefecture":"山口県","prefecture_kana":"ヤマグチケン","city":"下関市","city_kana":"シモノセキシ","town":"豊田町手洗","town_kana":"トヨタチョウタライ","prefecture_code":35},"0401":{"zip_code":"7500401","prefecture":"山口県","prefecture_kana":"ヤマグチケン","city":"下関市","city_kana":"シモノセキシ","town":"豊田町殿居","town_kana":"トヨタチョウトノイ","prefecture_code":35},"0421":{"zip_code":"7500421","prefecture":"山口県","prefecture_kana":"ヤマグチケン","city":"下関市","city_kana":"シモノセキシ","town":"豊田町殿敷","town_kana":"トヨタチョウトノシキ","prefecture_code":35},"0441":{"zip_code":"7500441","prefecture":"山口県","prefecture_kana":"ヤマグチケン","city":"下関市","city_kana":"シモノセキシ","town":"豊田町中村","town_kana":"トヨタチョウナカムラ","prefecture_code":35},"0422":{"zip_code":"7500422","prefecture":"山口県","prefecture_kana":"ヤマグチケン","city":"下関市","city_kana":"シモノセキシ","town":"豊田町楢原","town_kana":"トヨタチョウナラワラ","prefecture_code":35},"0423":{"zip_code":"7500423","prefecture":"山口県","prefecture_kana":"ヤマグチケン","city":"下関市","city_kana":"シモノセキシ","town":"豊田町西市","town_kana":"トヨタチョウニシイチ","prefecture_code":35},"0454":{"zip_code":"7500454","prefecture":"山口県","prefecture_kana":"ヤマグチケン","city":"下関市","city_kana":"シモノセキシ","town":"豊田町西長野","town_kana":"トヨタチョウニシナガノ","prefecture_code":35},"0425":{"zip_code":"7500425","prefecture":"山口県","prefecture_kana":"ヤマグチケン","city":"下関市","city_kana":"シモノセキシ","town":"豊田町庭田","town_kana":"トヨタチョウニワタ","prefecture_code":35},"0444":{"zip_code":"7500444","prefecture":"山口県","prefecture_kana":"ヤマグチケン","city":"下関市","city_kana":"シモノセキシ","town":"豊田町萩原","town_kana":"トヨタチョウハギワラ","prefecture_code":35},"0445":{"zip_code":"7500445","prefecture":"山口県","prefecture_kana":"ヤマグチケン","city":"下関市","city_kana":"シモノセキシ","town":"豊田町東長野","town_kana":"トヨタチョウヒガシナガノ","prefecture_code":35},"0443":{"zip_code":"7500443","prefecture":"山口県","prefecture_kana":"ヤマグチケン","city":"下関市","city_kana":"シモノセキシ","town":"豊田町日野","town_kana":"トヨタチョウヒノ","prefecture_code":35},"0405":{"zip_code":"7500405","prefecture":"山口県","prefecture_kana":"ヤマグチケン","city":"下関市","city_kana":"シモノセキシ","town":"豊田町杢路子","town_kana":"トヨタチョウムクロウジ","prefecture_code":35},"0414":{"zip_code":"7500414","prefecture":"山口県","prefecture_kana":"ヤマグチケン","city":"下関市","city_kana":"シモノセキシ","town":"豊田町八道","town_kana":"トヨタチョウヤジ","prefecture_code":35},"0424":{"zip_code":"7500424","prefecture":"山口県","prefecture_kana":"ヤマグチケン","city":"下関市","city_kana":"シモノセキシ","town":"豊田町矢田","town_kana":"トヨタチョウヤタ","prefecture_code":35},"0004":{"zip_code":"7500004","prefecture":"山口県","prefecture_kana":"ヤマグチケン","city":"下関市","city_kana":"シモノセキシ","town":"中之町","town_kana":"ナカノチョウ","prefecture_code":35},"0023":{"zip_code":"7500023","prefecture":"山口県","prefecture_kana":"ヤマグチケン","city":"下関市","city_kana":"シモノセキシ","town":"長崎新町","town_kana":"ナガサキシンマチ","prefecture_code":35},"0021":{"zip_code":"7500021","prefecture":"山口県","prefecture_kana":"ヤマグチケン","city":"下関市","city_kana":"シモノセキシ","town":"長崎中央町","town_kana":"ナガサキチュウオウチョウ","prefecture_code":35},"0028":{"zip_code":"7500028","prefecture":"山口県","prefecture_kana":"ヤマグチケン","city":"下関市","city_kana":"シモノセキシ","town":"長崎本町","town_kana":"ナガサキホンマチ","prefecture_code":35},"0029":{"zip_code":"7500029","prefecture":"山口県","prefecture_kana":"ヤマグチケン","city":"下関市","city_kana":"シモノセキシ","town":"長崎町","town_kana":"ナガサキチョウ","prefecture_code":35},"0026":{"zip_code":"7500026","prefecture":"山口県","prefecture_kana":"ヤマグチケン","city":"下関市","city_kana":"シモノセキシ","town":"長門町","town_kana":"ナガトマチ","prefecture_code":35},"0006":{"zip_code":"7500006","prefecture":"山口県","prefecture_kana":"ヤマグチケン","city":"下関市","city_kana":"シモノセキシ","town":"南部町","town_kana":"ナベチョウ","prefecture_code":35},"0015":{"zip_code":"7500015","prefecture":"山口県","prefecture_kana":"ヤマグチケン","city":"下関市","city_kana":"シモノセキシ","town":"西入江町","town_kana":"ニシイリエチョウ","prefecture_code":35},"0054":{"zip_code":"7500054","prefecture":"山口県","prefecture_kana":"ヤマグチケン","city":"下関市","city_kana":"シモノセキシ","town":"西大坪町","town_kana":"ニシオオツボチョウ","prefecture_code":35},"0034":{"zip_code":"7500034","prefecture":"山口県","prefecture_kana":"ヤマグチケン","city":"下関市","city_kana":"シモノセキシ","town":"西神田町","town_kana":"ニシカンダチョウ","prefecture_code":35},"0014":{"zip_code":"7500014","prefecture":"山口県","prefecture_kana":"ヤマグチケン","city":"下関市","city_kana":"シモノセキシ","town":"岬之町","town_kana":"ハナノチョウ","prefecture_code":35},"0046":{"zip_code":"7500046","prefecture":"山口県","prefecture_kana":"ヤマグチケン","city":"下関市","city_kana":"シモノセキシ","town":"羽山町","town_kana":"ハヤマチョウ","prefecture_code":35},"0043":{"zip_code":"7500043","prefecture":"山口県","prefecture_kana":"ヤマグチケン","city":"下関市","city_kana":"シモノセキシ","town":"東神田町","town_kana":"ヒガシカンダチョウ","prefecture_code":35},"0048":{"zip_code":"7500048","prefecture":"山口県","prefecture_kana":"ヤマグチケン","city":"下関市","city_kana":"シモノセキシ","town":"東向山町","town_kana":"ヒガシムカイヤマチョウ","prefecture_code":35},"0066":{"zip_code":"7500066","prefecture":"山口県","prefecture_kana":"ヤマグチケン","city":"下関市","city_kana":"シモノセキシ","town":"東大和町","town_kana":"ヒガシヤマトマチ","prefecture_code":35},"0071":{"zip_code":"7500071","prefecture":"山口県","prefecture_kana":"ヤマグチケン","city":"下関市","city_kana":"シモノセキシ","town":"彦島海士郷町","town_kana":"ヒコシマアマノゴウチョウ","prefecture_code":35},"0075":{"zip_code":"7500075","prefecture":"山口県","prefecture_kana":"ヤマグチケン","city":"下関市","city_kana":"シモノセキシ","town":"彦島江の浦町","town_kana":"ヒコシマエノウラチョウ","prefecture_code":35},"0073":{"zip_code":"7500073","prefecture":"山口県","prefecture_kana":"ヤマグチケン","city":"下関市","city_kana":"シモノセキシ","town":"彦島老の山公園","town_kana":"ヒコシマオイノヤマコウエン","prefecture_code":35},"0072":{"zip_code":"7500072","prefecture":"山口県","prefecture_kana":"ヤマグチケン","city":"下関市","city_kana":"シモノセキシ","town":"彦島老町","town_kana":"ヒコシマオイマチ","prefecture_code":35},"0083":{"zip_code":"7500083","prefecture":"山口県","prefecture_kana":"ヤマグチケン","city":"下関市","city_kana":"シモノセキシ","town":"彦島桜ケ丘町","town_kana":"ヒコシマサクラガオカチョウ","prefecture_code":35},"0092":{"zip_code":"7500092","prefecture":"山口県","prefecture_kana":"ヤマグチケン","city":"下関市","city_kana":"シモノセキシ","town":"彦島迫町","town_kana":"ヒコシマサコマチ","prefecture_code":35},"0086":{"zip_code":"7500086","prefecture":"山口県","prefecture_kana":"ヤマグチケン","city":"下関市","city_kana":"シモノセキシ","town":"彦島塩浜町","town_kana":"ヒコシマシオハマチョウ","prefecture_code":35},"0078":{"zip_code":"7500078","prefecture":"山口県","prefecture_kana":"ヤマグチケン","city":"下関市","city_kana":"シモノセキシ","town":"彦島杉田町","town_kana":"ヒコシマスギタチョウ","prefecture_code":35},"0081":{"zip_code":"7500081","prefecture":"山口県","prefecture_kana":"ヤマグチケン","city":"下関市","city_kana":"シモノセキシ","town":"彦島角倉町","town_kana":"ヒコシマスマクラチョウ","prefecture_code":35},"0094":{"zip_code":"7500094","prefecture":"山口県","prefecture_kana":"ヤマグチケン","city":"下関市","city_kana":"シモノセキシ","town":"彦島竹ノ子島町","town_kana":"ヒコシマタケノコジマチョウ","prefecture_code":35},"0085":{"zip_code":"7500085","prefecture":"山口県","prefecture_kana":"ヤマグチケン","city":"下関市","city_kana":"シモノセキシ","town":"彦島田の首町","town_kana":"ヒコシマタノクビチョウ","prefecture_code":35},"0076":{"zip_code":"7500076","prefecture":"山口県","prefecture_kana":"ヤマグチケン","city":"下関市","city_kana":"シモノセキシ","town":"彦島弟子待町","town_kana":"ヒコシマデシマツチョウ","prefecture_code":35},"0077":{"zip_code":"7500077","prefecture":"山口県","prefecture_kana":"ヤマグチケン","city":"下関市","city_kana":"シモノセキシ","town":"彦島弟子待東町","town_kana":"ヒコシマデシマツヒガシマチ","prefecture_code":35},"0093":{"zip_code":"7500093","prefecture":"山口県","prefecture_kana":"ヤマグチケン","city":"下関市","city_kana":"シモノセキシ","town":"彦島西山町","town_kana":"ヒコシマニシヤマチョウ","prefecture_code":35},"0087":{"zip_code":"7500087","prefecture":"山口県","prefecture_kana":"ヤマグチケン","city":"下関市","city_kana":"シモノセキシ","town":"彦島福浦町","town_kana":"ヒコシマフクウラチョウ","prefecture_code":35},"0074":{"zip_code":"7500074","prefecture":"山口県","prefecture_kana":"ヤマグチケン","city":"下関市","city_kana":"シモノセキシ","town":"彦島本村町","town_kana":"ヒコシマホンムラチョウ","prefecture_code":35},"0091":{"zip_code":"7500091","prefecture":"山口県","prefecture_kana":"ヤマグチケン","city":"下関市","city_kana":"シモノセキシ","town":"彦島緑町","town_kana":"ヒコシマミドリチョウ","prefecture_code":35},"0084":{"zip_code":"7500084","prefecture":"山口県","prefecture_kana":"ヤマグチケン","city":"下関市","city_kana":"シモノセキシ","town":"彦島向井町","town_kana":"ヒコシマムカイチョウ","prefecture_code":35},"0082":{"zip_code":"7500082","prefecture":"山口県","prefecture_kana":"ヤマグチケン","city":"下関市","city_kana":"シモノセキシ","town":"彦島山中町","town_kana":"ヒコシマヤマナカチョウ","prefecture_code":35},"0052":{"zip_code":"7500052","prefecture":"山口県","prefecture_kana":"ヤマグチケン","city":"下関市","city_kana":"シモノセキシ","town":"藤附町","town_kana":"フジツクチョウ","prefecture_code":35},"0018":{"zip_code":"7500018","prefecture":"山口県","prefecture_kana":"ヤマグチケン","city":"下関市","city_kana":"シモノセキシ","town":"豊前田町","town_kana":"ブゼンダチョウ","prefecture_code":35},"0017":{"zip_code":"7500017","prefecture":"山口県","prefecture_kana":"ヤマグチケン","city":"下関市","city_kana":"シモノセキシ","town":"細江新町","town_kana":"ホソエシンマチ","prefecture_code":35},"0016":{"zip_code":"7500016","prefecture":"山口県","prefecture_kana":"ヤマグチケン","city":"下関市","city_kana":"シモノセキシ","town":"細江町","town_kana":"ホソエチョウ","prefecture_code":35},"1121":{"zip_code":"7501121","prefecture":"山口県","prefecture_kana":"ヤマグチケン","city":"下関市","city_kana":"シモノセキシ","town":"松屋","town_kana":"マツヤ","prefecture_code":35},"1122":{"zip_code":"7501122","prefecture":"山口県","prefecture_kana":"ヤマグチケン","city":"下関市","city_kana":"シモノセキシ","town":"松屋上町","town_kana":"マツヤカミマチ","prefecture_code":35},"1123":{"zip_code":"7501123","prefecture":"山口県","prefecture_kana":"ヤマグチケン","city":"下関市","city_kana":"シモノセキシ","town":"松屋東町","town_kana":"マツヤヒガシマチ","prefecture_code":35},"1124":{"zip_code":"7501124","prefecture":"山口県","prefecture_kana":"ヤマグチケン","city":"下関市","city_kana":"シモノセキシ","town":"松屋本町","town_kana":"マツヤホンマチ","prefecture_code":35},"0019":{"zip_code":"7500019","prefecture":"山口県","prefecture_kana":"ヤマグチケン","city":"下関市","city_kana":"シモノセキシ","town":"丸山町","town_kana":"マルヤマチョウ","prefecture_code":35},"0055":{"zip_code":"7500055","prefecture":"山口県","prefecture_kana":"ヤマグチケン","city":"下関市","city_kana":"シモノセキシ","town":"南大坪町","town_kana":"ミナミオオツボチョウ","prefecture_code":35},"0002":{"zip_code":"7500002","prefecture":"山口県","prefecture_kana":"ヤマグチケン","city":"下関市","city_kana":"シモノセキシ","town":"宮田町","town_kana":"ミヤダマチ","prefecture_code":35},"0047":{"zip_code":"7500047","prefecture":"山口県","prefecture_kana":"ヤマグチケン","city":"下関市","city_kana":"シモノセキシ","town":"向山町","town_kana":"ムカイヤマチョウ","prefecture_code":35},"0095":{"zip_code":"7500095","prefecture":"山口県","prefecture_kana":"ヤマグチケン","city":"下関市","city_kana":"シモノセキシ","town":"六連島","town_kana":"ムツレジマ","prefecture_code":35},"0011":{"zip_code":"7500011","prefecture":"山口県","prefecture_kana":"ヤマグチケン","city":"下関市","city_kana":"シモノセキシ","town":"名池町","town_kana":"メイチチョウ","prefecture_code":35},"0045":{"zip_code":"7500045","prefecture":"山口県","prefecture_kana":"ヤマグチケン","city":"下関市","city_kana":"シモノセキシ","town":"元町","town_kana":"モトマチ","prefecture_code":35},"0033":{"zip_code":"7500033","prefecture":"山口県","prefecture_kana":"ヤマグチケン","city":"下関市","city_kana":"シモノセキシ","town":"山手町","town_kana":"ヤマテチョウ","prefecture_code":35},"0067":{"zip_code":"7500067","prefecture":"山口県","prefecture_kana":"ヤマグチケン","city":"下関市","city_kana":"シモノセキシ","town":"大和町","town_kana":"ヤマトマチ","prefecture_code":35},"1101":{"zip_code":"7501101","prefecture":"山口県","prefecture_kana":"ヤマグチケン","city":"下関市","city_kana":"シモノセキシ","town":"吉田","town_kana":"ヨシダ","prefecture_code":35},"1102":{"zip_code":"7501102","prefecture":"山口県","prefecture_kana":"ヤマグチケン","city":"下関市","city_kana":"シモノセキシ","town":"吉田地方","town_kana":"ヨシダジカタ","prefecture_code":35},"0601":{"zip_code":"7500601","prefecture":"山口県","prefecture_kana":"ヤマグチケン","city":"美祢市","city_kana":"ミネシ","town":"豊田前町麻生上","town_kana":"トヨタマエチョウアソウカミ","prefecture_code":35},"0602":{"zip_code":"7500602","prefecture":"山口県","prefecture_kana":"ヤマグチケン","city":"美祢市","city_kana":"ミネシ","town":"豊田前町麻生下","town_kana":"トヨタマエチョウアソウシモ","prefecture_code":35},"0603":{"zip_code":"7500603","prefecture":"山口県","prefecture_kana":"ヤマグチケン","city":"美祢市","city_kana":"ミネシ","town":"豊田前町今山","town_kana":"トヨタマエチョウイマヤマ","prefecture_code":35},"0606":{"zip_code":"7500606","prefecture":"山口県","prefecture_kana":"ヤマグチケン","city":"美祢市","city_kana":"ミネシ","town":"豊田前町嶽","town_kana":"トヨタマエチョウダケ","prefecture_code":35},"0605":{"zip_code":"7500605","prefecture":"山口県","prefecture_kana":"ヤマグチケン","city":"美祢市","city_kana":"ミネシ","town":"豊田前町古烏帽子","town_kana":"トヨタマエチョウフルエボシ","prefecture_code":35},"0604":{"zip_code":"7500604","prefecture":"山口県","prefecture_kana":"ヤマグチケン","city":"美祢市","city_kana":"ミネシ","town":"豊田前町保々","town_kana":"トヨタマエチョウホウホウ","prefecture_code":35}}