{"0000":{"zip_code":"7530000","prefecture":"山口県","prefecture_kana":"ヤマグチケン","city":"山口市","city_kana":"ヤマグチシ","town":"以下に掲載がない場合","town_kana":"イカニケイサイガナイバアイ","prefecture_code":35},"0821":{"zip_code":"7530821","prefecture":"山口県","prefecture_kana":"ヤマグチケン","city":"山口市","city_kana":"ヤマグチシ","town":"葵","town_kana":"アオイ","prefecture_code":35},"0012":{"zip_code":"7530012","prefecture":"山口県","prefecture_kana":"ヤマグチケン","city":"山口市","city_kana":"ヤマグチシ","town":"青葉台","town_kana":"アオバダイ","prefecture_code":35},"0067":{"zip_code":"7530067","prefecture":"山口県","prefecture_kana":"ヤマグチケン","city":"山口市","city_kana":"ヤマグチシ","town":"赤妻町","town_kana":"アカヅマチョウ","prefecture_code":35},"0061":{"zip_code":"7530061","prefecture":"山口県","prefecture_kana":"ヤマグチケン","city":"山口市","city_kana":"ヤマグチシ","town":"朝倉町","town_kana":"アサクラチョウ","prefecture_code":35},"0871":{"zip_code":"7530871","prefecture":"山口県","prefecture_kana":"ヤマグチケン","city":"山口市","city_kana":"ヤマグチシ","town":"朝田","town_kana":"アサダ","prefecture_code":35},"0872":[{"zip_code":"7530872","prefecture":"山口県","prefecture_kana":"ヤマグチケン","city":"山口市","city_kana":"ヤマグチシ","town":"朝田流通センター","town_kana":"アサダリュウツウセンター","prefecture_code":35},{"zip_code":"7530872","prefecture":"山口県","prefecture_kana":"ヤマグチケン","city":"山口市","city_kana":"ヤマグチシ","town":"小郡上郷流通センター","town_kana":"オゴオリカミゴウリュウツウセンター","prefecture_code":35},{"zip_code":"7530872","prefecture":"山口県","prefecture_kana":"ヤマグチケン","city":"山口市","city_kana":"ヤマグチシ","town":"山口県流通センター","town_kana":"ヤマグチケンリュウツウセンター","prefecture_code":35}],"0051":{"zip_code":"7530051","prefecture":"山口県","prefecture_kana":"ヤマグチケン","city":"山口市","city_kana":"ヤマグチシ","town":"旭通り","town_kana":"アサヒドオリ","prefecture_code":35},"0038":{"zip_code":"7530038","prefecture":"山口県","prefecture_kana":"ヤマグチケン","city":"山口市","city_kana":"ヤマグチシ","town":"石観音町","town_kana":"イシガンノンチョウ","prefecture_code":35},"0815":{"zip_code":"7530815","prefecture":"山口県","prefecture_kana":"ヤマグチケン","city":"山口市","city_kana":"ヤマグチシ","town":"維新公園","town_kana":"イシンコウエン","prefecture_code":35},"0066":{"zip_code":"7530066","prefecture":"山口県","prefecture_kana":"ヤマグチケン","city":"山口市","city_kana":"ヤマグチシ","town":"泉町","town_kana":"イズミチョウ","prefecture_code":35},"0079":{"zip_code":"7530079","prefecture":"山口県","prefecture_kana":"ヤマグチケン","city":"山口市","city_kana":"ヤマグチシ","town":"糸米","town_kana":"イトヨネ","prefecture_code":35},"0055":{"zip_code":"7530055","prefecture":"山口県","prefecture_kana":"ヤマグチケン","city":"山口市","city_kana":"ヤマグチシ","town":"今井町","town_kana":"イマイチョウ","prefecture_code":35},"0083":{"zip_code":"7530083","prefecture":"山口県","prefecture_kana":"ヤマグチケン","city":"山口市","city_kana":"ヤマグチシ","town":"後河原","town_kana":"ウシロガワラ","prefecture_code":35},"0048":{"zip_code":"7530048","prefecture":"山口県","prefecture_kana":"ヤマグチケン","city":"山口市","city_kana":"ヤマグチシ","town":"駅通り","town_kana":"エキドオリ","prefecture_code":35},"0017":{"zip_code":"7530017","prefecture":"山口県","prefecture_kana":"ヤマグチケン","city":"山口市","city_kana":"ヤマグチシ","town":"江良","town_kana":"エラ","prefecture_code":35},"0036":[{"zip_code":"7530036","prefecture":"山口県","prefecture_kana":"ヤマグチケン","city":"山口市","city_kana":"ヤマグチシ","town":"円政寺","town_kana":"エンセイジ","prefecture_code":35},{"zip_code":"7530036","prefecture":"山口県","prefecture_kana":"ヤマグチケン","city":"山口市","city_kana":"ヤマグチシ","town":"円政寺町","town_kana":"エンセイジチョウ","prefecture_code":35}],"0033":{"zip_code":"7530033","prefecture":"山口県","prefecture_kana":"ヤマグチケン","city":"山口市","city_kana":"ヤマグチシ","town":"大市町","town_kana":"オオイチチョウ","prefecture_code":35},"0211":{"zip_code":"7530211","prefecture":"山口県","prefecture_kana":"ヤマグチケン","city":"山口市","city_kana":"ヤマグチシ","town":"大内長野","town_kana":"オオウチナガノ","prefecture_code":35},"0231":{"zip_code":"7530231","prefecture":"山口県","prefecture_kana":"ヤマグチケン","city":"山口市","city_kana":"ヤマグチシ","town":"大内氷上","town_kana":"オオウチヒカミ","prefecture_code":35},"0214":{"zip_code":"7530214","prefecture":"山口県","prefecture_kana":"ヤマグチケン","city":"山口市","city_kana":"ヤマグチシ","town":"大内御堀","town_kana":"オオウチミホリ","prefecture_code":35},"0215":{"zip_code":"7530215","prefecture":"山口県","prefecture_kana":"ヤマグチケン","city":"山口市","city_kana":"ヤマグチシ","town":"大内矢田","town_kana":"オオウチヤタ","prefecture_code":35},"0221":{"zip_code":"7530221","prefecture":"山口県","prefecture_kana":"ヤマグチケン","city":"山口市","city_kana":"ヤマグチシ","town":"大内矢田北","town_kana":"オオウチヤタキタ","prefecture_code":35},"0222":{"zip_code":"7530222","prefecture":"山口県","prefecture_kana":"ヤマグチケン","city":"山口市","city_kana":"ヤマグチシ","town":"大内矢田南","town_kana":"オオウチヤタミナミ","prefecture_code":35},"0072":{"zip_code":"7530072","prefecture":"山口県","prefecture_kana":"ヤマグチケン","city":"山口市","city_kana":"ヤマグチシ","town":"大手町","town_kana":"オオテマチ","prefecture_code":35},"0093":{"zip_code":"7530093","prefecture":"山口県","prefecture_kana":"ヤマグチケン","city":"山口市","city_kana":"ヤマグチシ","town":"大殿大路","town_kana":"オオドノオオジ","prefecture_code":35},"0062":{"zip_code":"7530062","prefecture":"山口県","prefecture_kana":"ヤマグチケン","city":"山口市","city_kana":"ヤマグチシ","town":"荻町","town_kana":"オギチョウ","prefecture_code":35},"0022":{"zip_code":"7530022","prefecture":"山口県","prefecture_kana":"ヤマグチケン","city":"山口市","city_kana":"ヤマグチシ","town":"折本","town_kana":"オリモト","prefecture_code":35},"0073":{"zip_code":"7530073","prefecture":"山口県","prefecture_kana":"ヤマグチケン","city":"山口市","city_kana":"ヤマグチシ","town":"春日町","town_kana":"カスガチョウ","prefecture_code":35},"0024":{"zip_code":"7530024","prefecture":"山口県","prefecture_kana":"ヤマグチケン","city":"山口市","city_kana":"ヤマグチシ","town":"金古曽町","town_kana":"カナコソチョウ","prefecture_code":35},"0091":[{"zip_code":"7530091","prefecture":"山口県","prefecture_kana":"ヤマグチケン","city":"山口市","city_kana":"ヤマグチシ","town":"上宇野令","town_kana":"カミウノレイ","prefecture_code":35},{"zip_code":"7530091","prefecture":"山口県","prefecture_kana":"ヤマグチケン","city":"山口市","city_kana":"ヤマグチシ","town":"天花","town_kana":"テンゲ","prefecture_code":35}],"0213":{"zip_code":"7530213","prefecture":"山口県","prefecture_kana":"ヤマグチケン","city":"山口市","city_kana":"ヤマグチシ","town":"上小鯖","town_kana":"カミオサバ","prefecture_code":35},"0035":{"zip_code":"7530035","prefecture":"山口県","prefecture_kana":"ヤマグチケン","city":"山口市","city_kana":"ヤマグチシ","town":"上竪小路","town_kana":"カミタテコウジ","prefecture_code":35},"0891":{"zip_code":"7530891","prefecture":"山口県","prefecture_kana":"ヤマグチケン","city":"山口市","city_kana":"ヤマグチシ","town":"上天花町","town_kana":"カミテンゲマチ","prefecture_code":35},"0089":{"zip_code":"7530089","prefecture":"山口県","prefecture_kana":"ヤマグチケン","city":"山口市","city_kana":"ヤマグチシ","town":"亀山町","town_kana":"カメヤマチョウ","prefecture_code":35},"0064":{"zip_code":"7530064","prefecture":"山口県","prefecture_kana":"ヤマグチケン","city":"山口市","city_kana":"ヤマグチシ","town":"神田町","town_kana":"カンダチョウ","prefecture_code":35},"0095":{"zip_code":"7530095","prefecture":"山口県","prefecture_kana":"ヤマグチケン","city":"山口市","city_kana":"ヤマグチシ","town":"木町","town_kana":"キマチ","prefecture_code":35},"0065":{"zip_code":"7530065","prefecture":"山口県","prefecture_kana":"ヤマグチケン","city":"山口市","city_kana":"ヤマグチシ","town":"楠木町","town_kana":"クスノキチョウ","prefecture_code":35},"0084":[{"zip_code":"7530084","prefecture":"山口県","prefecture_kana":"ヤマグチケン","city":"山口市","city_kana":"ヤマグチシ","town":"久保小路","town_kana":"クボショウジ","prefecture_code":35},{"zip_code":"7530084","prefecture":"山口県","prefecture_kana":"ヤマグチケン","city":"山口市","city_kana":"ヤマグチシ","town":"諸願小路","town_kana":"ショガンショウジ","prefecture_code":35},{"zip_code":"7530084","prefecture":"山口県","prefecture_kana":"ヤマグチケン","city":"山口市","city_kana":"ヤマグチシ","town":"銭湯小路","town_kana":"セントウショウジ","prefecture_code":35}],"0077":{"zip_code":"7530077","prefecture":"山口県","prefecture_kana":"ヤマグチケン","city":"山口市","city_kana":"ヤマグチシ","town":"熊野町","town_kana":"クマノチョウ","prefecture_code":35},"0851":{"zip_code":"7530851","prefecture":"山口県","prefecture_kana":"ヤマグチケン","city":"山口市","city_kana":"ヤマグチシ","town":"黒川","town_kana":"クロカワ","prefecture_code":35},"0081":{"zip_code":"7530081","prefecture":"山口県","prefecture_kana":"ヤマグチケン","city":"山口市","city_kana":"ヤマグチシ","town":"香山町","town_kana":"コウザンチョウ","prefecture_code":35},"0045":{"zip_code":"7530045","prefecture":"山口県","prefecture_kana":"ヤマグチケン","city":"山口市","city_kana":"ヤマグチシ","town":"黄金町","town_kana":"コガネチョウ","prefecture_code":35},"0087":{"zip_code":"7530087","prefecture":"山口県","prefecture_kana":"ヤマグチケン","city":"山口市","city_kana":"ヤマグチシ","town":"米屋町","town_kana":"コメヤチョウ","prefecture_code":35},"0826":{"zip_code":"7530826","prefecture":"山口県","prefecture_kana":"ヤマグチケン","city":"山口市","city_kana":"ヤマグチシ","town":"幸町","town_kana":"サイワイチョウ","prefecture_code":35},"0021":{"zip_code":"7530021","prefecture":"山口県","prefecture_kana":"ヤマグチケン","city":"山口市","city_kana":"ヤマグチシ","town":"桜畠","town_kana":"サクラバタケ","prefecture_code":35},"0023":{"zip_code":"7530023","prefecture":"山口県","prefecture_kana":"ヤマグチケン","city":"山口市","city_kana":"ヤマグチシ","town":"三の宮","town_kana":"サンノミヤ","prefecture_code":35},"0052":{"zip_code":"7530052","prefecture":"山口県","prefecture_kana":"ヤマグチケン","city":"山口市","city_kana":"ヤマグチシ","town":"三和町","town_kana":"サンワチョウ","prefecture_code":35},"0025":{"zip_code":"7530025","prefecture":"山口県","prefecture_kana":"ヤマグチケン","city":"山口市","city_kana":"ヤマグチシ","town":"芝崎町","town_kana":"シバサキチョウ","prefecture_code":35},"0058":{"zip_code":"7530058","prefecture":"山口県","prefecture_kana":"ヤマグチケン","city":"山口市","city_kana":"ヤマグチシ","town":"下市町","town_kana":"シモイチチョウ","prefecture_code":35},"0212":{"zip_code":"7530212","prefecture":"山口県","prefecture_kana":"ヤマグチケン","city":"山口市","city_kana":"ヤマグチシ","town":"下小鯖","town_kana":"シモオサバ","prefecture_code":35},"0034":{"zip_code":"7530034","prefecture":"山口県","prefecture_kana":"ヤマグチケン","city":"山口市","city_kana":"ヤマグチシ","town":"下竪小路","town_kana":"シモタテコウジ","prefecture_code":35},"0070":{"zip_code":"7530070","prefecture":"山口県","prefecture_kana":"ヤマグチケン","city":"山口市","city_kana":"ヤマグチシ","town":"白石","town_kana":"シライシ","prefecture_code":35},"0085":{"zip_code":"7530085","prefecture":"山口県","prefecture_kana":"ヤマグチケン","city":"山口市","city_kana":"ヤマグチシ","town":"新馬場","town_kana":"シンババ","prefecture_code":35},"0822":{"zip_code":"7530822","prefecture":"山口県","prefecture_kana":"ヤマグチケン","city":"山口市","city_kana":"ヤマグチシ","town":"周布町","town_kana":"スフチョウ","prefecture_code":35},"0076":{"zip_code":"7530076","prefecture":"山口県","prefecture_kana":"ヤマグチケン","city":"山口市","city_kana":"ヤマグチシ","town":"泉都町","town_kana":"セントチョウ","prefecture_code":35},"0042":{"zip_code":"7530042","prefecture":"山口県","prefecture_kana":"ヤマグチケン","city":"山口市","city_kana":"ヤマグチシ","town":"惣太夫町","town_kana":"ソウダユウチョウ","prefecture_code":35},"0812":{"zip_code":"7530812","prefecture":"山口県","prefecture_kana":"ヤマグチケン","city":"山口市","city_kana":"ヤマグチシ","town":"宝町","town_kana":"タカラチョウ","prefecture_code":35},"0071":{"zip_code":"7530071","prefecture":"山口県","prefecture_kana":"ヤマグチケン","city":"山口市","city_kana":"ヤマグチシ","town":"滝町","town_kana":"タキマチ","prefecture_code":35},"0074":{"zip_code":"7530074","prefecture":"山口県","prefecture_kana":"ヤマグチケン","city":"山口市","city_kana":"ヤマグチシ","town":"中央","town_kana":"チュウオウ","prefecture_code":35},"0047":{"zip_code":"7530047","prefecture":"山口県","prefecture_kana":"ヤマグチケン","city":"山口市","city_kana":"ヤマグチシ","town":"道場門前","town_kana":"ドウジョウモンゼン","prefecture_code":35},"0037":{"zip_code":"7530037","prefecture":"山口県","prefecture_kana":"ヤマグチケン","city":"山口市","city_kana":"ヤマグチシ","town":"道祖町","town_kana":"ドウソチョウ","prefecture_code":35},"0032":{"zip_code":"7530032","prefecture":"山口県","prefecture_kana":"ヤマグチケン","city":"山口市","city_kana":"ヤマグチシ","town":"堂の前町","town_kana":"ドウノマエチョウ","prefecture_code":35},"0054":{"zip_code":"7530054","prefecture":"山口県","prefecture_kana":"ヤマグチケン","city":"山口市","city_kana":"ヤマグチシ","town":"富田原町","town_kana":"トミタバラチョウ","prefecture_code":35},"0086":{"zip_code":"7530086","prefecture":"山口県","prefecture_kana":"ヤマグチケン","city":"山口市","city_kana":"ヤマグチシ","town":"中市町","town_kana":"ナカイチチョウ","prefecture_code":35},"0801":{"zip_code":"7530801","prefecture":"山口県","prefecture_kana":"ヤマグチケン","city":"山口市","city_kana":"ヤマグチシ","town":"中尾","town_kana":"ナカオ","prefecture_code":35},"0088":[{"zip_code":"7530088","prefecture":"山口県","prefecture_kana":"ヤマグチケン","city":"山口市","city_kana":"ヤマグチシ","town":"中河原","town_kana":"ナカガワラ","prefecture_code":35},{"zip_code":"7530088","prefecture":"山口県","prefecture_kana":"ヤマグチケン","city":"山口市","city_kana":"ヤマグチシ","town":"中河原町","town_kana":"ナカガワラチョウ","prefecture_code":35}],"0075":{"zip_code":"7530075","prefecture":"山口県","prefecture_kana":"ヤマグチケン","city":"山口市","city_kana":"ヤマグチシ","town":"中園町","town_kana":"ナカゾノチョウ","prefecture_code":35},"0018":{"zip_code":"7530018","prefecture":"山口県","prefecture_kana":"ヤマグチケン","city":"山口市","city_kana":"ヤマグチシ","town":"七尾台","town_kana":"ナナオダイ","prefecture_code":35},"0068":{"zip_code":"7530068","prefecture":"山口県","prefecture_kana":"ヤマグチケン","city":"山口市","city_kana":"ヤマグチシ","town":"錦町","town_kana":"ニシキチョウ","prefecture_code":35},"0301":{"zip_code":"7530301","prefecture":"山口県","prefecture_kana":"ヤマグチケン","city":"山口市","city_kana":"ヤマグチシ","town":"仁保上郷","town_kana":"ニホカミゴウ","prefecture_code":35},"0303":{"zip_code":"7530303","prefecture":"山口県","prefecture_kana":"ヤマグチケン","city":"山口市","city_kana":"ヤマグチシ","town":"仁保下郷","town_kana":"ニホシモゴウ","prefecture_code":35},"0302":{"zip_code":"7530302","prefecture":"山口県","prefecture_kana":"ヤマグチケン","city":"山口市","city_kana":"ヤマグチシ","town":"仁保中郷","town_kana":"ニホナカゴウ","prefecture_code":35},"0094":{"zip_code":"7530094","prefecture":"山口県","prefecture_kana":"ヤマグチケン","city":"山口市","city_kana":"ヤマグチシ","town":"野田","town_kana":"ノダ","prefecture_code":35},"0041":{"zip_code":"7530041","prefecture":"山口県","prefecture_kana":"ヤマグチケン","city":"山口市","city_kana":"ヤマグチシ","town":"東山","town_kana":"ヒガシヤマ","prefecture_code":35},"0831":{"zip_code":"7530831","prefecture":"山口県","prefecture_kana":"ヤマグチケン","city":"山口市","city_kana":"ヤマグチシ","town":"平井","town_kana":"ヒライ","prefecture_code":35},"0015":{"zip_code":"7530015","prefecture":"山口県","prefecture_kana":"ヤマグチケン","city":"山口市","city_kana":"ヤマグチシ","town":"平野","town_kana":"ヒラノ","prefecture_code":35},"0031":{"zip_code":"7530031","prefecture":"山口県","prefecture_kana":"ヤマグチケン","city":"山口市","city_kana":"ヤマグチシ","town":"古熊","town_kana":"フルクマ","prefecture_code":35},"0824":{"zip_code":"7530824","prefecture":"山口県","prefecture_kana":"ヤマグチケン","city":"山口市","city_kana":"ヤマグチシ","town":"穂積町","town_kana":"ホヅミチョウ","prefecture_code":35},"0046":{"zip_code":"7530046","prefecture":"山口県","prefecture_kana":"ヤマグチケン","city":"山口市","city_kana":"ヤマグチシ","town":"本町","town_kana":"ホンマチ","prefecture_code":35},"0057":{"zip_code":"7530057","prefecture":"山口県","prefecture_kana":"ヤマグチケン","city":"山口市","city_kana":"ヤマグチシ","town":"前町","town_kana":"マエマチ","prefecture_code":35},"0053":{"zip_code":"7530053","prefecture":"山口県","prefecture_kana":"ヤマグチケン","city":"山口市","city_kana":"ヤマグチシ","town":"松美町","town_kana":"マツミチョウ","prefecture_code":35},"0082":{"zip_code":"7530082","prefecture":"山口県","prefecture_kana":"ヤマグチケン","city":"山口市","city_kana":"ヤマグチシ","town":"水の上町","town_kana":"ミズノウエチョウ","prefecture_code":35},"0016":{"zip_code":"7530016","prefecture":"山口県","prefecture_kana":"ヤマグチケン","city":"山口市","city_kana":"ヤマグチシ","town":"緑ヶ丘","town_kana":"ミドリガオカ","prefecture_code":35},"0078":{"zip_code":"7530078","prefecture":"山口県","prefecture_kana":"ヤマグチケン","city":"山口市","city_kana":"ヤマグチシ","town":"緑町","town_kana":"ミドリチョウ","prefecture_code":35},"0043":{"zip_code":"7530043","prefecture":"山口県","prefecture_kana":"ヤマグチケン","city":"山口市","city_kana":"ヤマグチシ","town":"宮島町","town_kana":"ミヤジマチョウ","prefecture_code":35},"0001":{"zip_code":"7530001","prefecture":"山口県","prefecture_kana":"ヤマグチケン","city":"山口市","city_kana":"ヤマグチシ","town":"宮野上","town_kana":"ミヤノカミ","prefecture_code":35},"0011":{"zip_code":"7530011","prefecture":"山口県","prefecture_kana":"ヤマグチケン","city":"山口市","city_kana":"ヤマグチシ","town":"宮野下","town_kana":"ミヤノシモ","prefecture_code":35},"0063":{"zip_code":"7530063","prefecture":"山口県","prefecture_kana":"ヤマグチケン","city":"山口市","city_kana":"ヤマグチシ","town":"元町","town_kana":"モトマチ","prefecture_code":35},"0861":{"zip_code":"7530861","prefecture":"山口県","prefecture_kana":"ヤマグチケン","city":"山口市","city_kana":"ヤマグチシ","town":"矢原","town_kana":"ヤバラ","prefecture_code":35},"0825":{"zip_code":"7530825","prefecture":"山口県","prefecture_kana":"ヤマグチケン","city":"山口市","city_kana":"ヤマグチシ","town":"矢原町","town_kana":"ヤバラチョウ","prefecture_code":35},"0092":{"zip_code":"7530092","prefecture":"山口県","prefecture_kana":"ヤマグチケン","city":"山口市","city_kana":"ヤマグチシ","town":"八幡馬場","town_kana":"ヤワタノババ","prefecture_code":35},"0056":{"zip_code":"7530056","prefecture":"山口県","prefecture_kana":"ヤマグチケン","city":"山口市","city_kana":"ヤマグチシ","town":"湯田温泉","town_kana":"ユダオンセン","prefecture_code":35},"0811":{"zip_code":"7530811","prefecture":"山口県","prefecture_kana":"ヤマグチケン","city":"山口市","city_kana":"ヤマグチシ","town":"吉敷","town_kana":"ヨシキ","prefecture_code":35},"0817":{"zip_code":"7530817","prefecture":"山口県","prefecture_kana":"ヤマグチケン","city":"山口市","city_kana":"ヤマグチシ","town":"吉敷赤田","town_kana":"ヨシキアカダ","prefecture_code":35},"0818":{"zip_code":"7530818","prefecture":"山口県","prefecture_kana":"ヤマグチケン","city":"山口市","city_kana":"ヤマグチシ","town":"吉敷上東","town_kana":"ヨシキカミヒガシ","prefecture_code":35},"0816":{"zip_code":"7530816","prefecture":"山口県","prefecture_kana":"ヤマグチケン","city":"山口市","city_kana":"ヤマグチシ","town":"吉敷佐畑","town_kana":"ヨシキサバタ","prefecture_code":35},"0814":{"zip_code":"7530814","prefecture":"山口県","prefecture_kana":"ヤマグチケン","city":"山口市","city_kana":"ヤマグチシ","town":"吉敷下東","town_kana":"ヨシキシモヒガシ","prefecture_code":35},"0813":{"zip_code":"7530813","prefecture":"山口県","prefecture_kana":"ヤマグチケン","city":"山口市","city_kana":"ヤマグチシ","town":"吉敷中東","town_kana":"ヨシキナカヒガシ","prefecture_code":35},"0841":{"zip_code":"7530841","prefecture":"山口県","prefecture_kana":"ヤマグチケン","city":"山口市","city_kana":"ヤマグチシ","town":"吉田","town_kana":"ヨシダ","prefecture_code":35},"0823":{"zip_code":"7530823","prefecture":"山口県","prefecture_kana":"ヤマグチケン","city":"山口市","city_kana":"ヤマグチシ","town":"若宮町","town_kana":"ワカミヤチョウ","prefecture_code":35},"0044":{"zip_code":"7530044","prefecture":"山口県","prefecture_kana":"ヤマグチケン","city":"山口市","city_kana":"ヤマグチシ","town":"鰐石町","town_kana":"ワニイシチョウ","prefecture_code":35},"0101":{"zip_code":"7530101","prefecture":"山口県","prefecture_kana":"ヤマグチケン","city":"萩市","city_kana":"ハギシ","town":"佐々並","town_kana":"ササナミ","prefecture_code":35}}