{"1314":{"zip_code":"7541314","prefecture":"山口県","prefecture_kana":"ヤマグチケン","city":"宇部市","city_kana":"ウベシ","town":"櫟原","town_kana":"イチイバラ","prefecture_code":35},"1312":{"zip_code":"7541312","prefecture":"山口県","prefecture_kana":"ヤマグチケン","city":"宇部市","city_kana":"ウベシ","town":"棯小野","town_kana":"ウツギオノ","prefecture_code":35},"1311":{"zip_code":"7541311","prefecture":"山口県","prefecture_kana":"ヤマグチケン","city":"宇部市","city_kana":"ウベシ","town":"小野","town_kana":"オノ","prefecture_code":35},"1315":{"zip_code":"7541315","prefecture":"山口県","prefecture_kana":"ヤマグチケン","city":"宇部市","city_kana":"ウベシ","town":"如意寺","town_kana":"ニョイジ","prefecture_code":35},"1313":{"zip_code":"7541313","prefecture":"山口県","prefecture_kana":"ヤマグチケン","city":"宇部市","city_kana":"ウベシ","town":"藤河内","town_kana":"フジゴウチ","prefecture_code":35},"1102":{"zip_code":"7541102","prefecture":"山口県","prefecture_kana":"ヤマグチケン","city":"山口市","city_kana":"ヤマグチシ","town":"秋穂西","town_kana":"アイオニシ","prefecture_code":35},"1101":{"zip_code":"7541101","prefecture":"山口県","prefecture_kana":"ヤマグチケン","city":"山口市","city_kana":"ヤマグチシ","town":"秋穂東","town_kana":"アイオヒガシ","prefecture_code":35},"0893":{"zip_code":"7540893","prefecture":"山口県","prefecture_kana":"ヤマグチケン","city":"山口市","city_kana":"ヤマグチシ","town":"秋穂二島","town_kana":"アイオフタジマ","prefecture_code":35},"1277":{"zip_code":"7541277","prefecture":"山口県","prefecture_kana":"ヤマグチケン","city":"山口市","city_kana":"ヤマグチシ","town":"阿知須","town_kana":"アジス","prefecture_code":35},"0896":{"zip_code":"7540896","prefecture":"山口県","prefecture_kana":"ヤマグチケン","city":"山口市","city_kana":"ヤマグチシ","town":"江崎","town_kana":"エザキ","prefecture_code":35},"0029":{"zip_code":"7540029","prefecture":"山口県","prefecture_kana":"ヤマグチケン","city":"山口市","city_kana":"ヤマグチシ","town":"小郡維新町","town_kana":"オゴオリイシンマチ","prefecture_code":35},"0008":{"zip_code":"7540008","prefecture":"山口県","prefecture_kana":"ヤマグチケン","city":"山口市","city_kana":"ヤマグチシ","town":"小郡円座西町","town_kana":"オゴオリエンザニシチョウ","prefecture_code":35},"0007":{"zip_code":"7540007","prefecture":"山口県","prefecture_kana":"ヤマグチケン","city":"山口市","city_kana":"ヤマグチシ","town":"小郡円座東町","town_kana":"オゴオリエンザヒガシチョウ","prefecture_code":35},"0015":{"zip_code":"7540015","prefecture":"山口県","prefecture_kana":"ヤマグチケン","city":"山口市","city_kana":"ヤマグチシ","town":"小郡大江町","town_kana":"オゴオリオオエマチ","prefecture_code":35},"0006":{"zip_code":"7540006","prefecture":"山口県","prefecture_kana":"ヤマグチケン","city":"山口市","city_kana":"ヤマグチシ","town":"小郡尾崎町","town_kana":"オゴオリオザキチョウ","prefecture_code":35},"0004":{"zip_code":"7540004","prefecture":"山口県","prefecture_kana":"ヤマグチケン","city":"山口市","city_kana":"ヤマグチシ","town":"小郡金堀町","town_kana":"オゴオリカナホリチョウ","prefecture_code":35},"0001":{"zip_code":"7540001","prefecture":"山口県","prefecture_kana":"ヤマグチケン","city":"山口市","city_kana":"ヤマグチシ","town":"小郡上郷","town_kana":"オゴオリカミゴウ","prefecture_code":35},"0028":{"zip_code":"7540028","prefecture":"山口県","prefecture_kana":"ヤマグチケン","city":"山口市","city_kana":"ヤマグチシ","town":"小郡給領町","town_kana":"オゴオリキュウリョウマチ","prefecture_code":35},"0021":{"zip_code":"7540021","prefecture":"山口県","prefecture_kana":"ヤマグチケン","city":"山口市","city_kana":"ヤマグチシ","town":"小郡黄金町","town_kana":"オゴオリコガネマチ","prefecture_code":35},"0026":{"zip_code":"7540026","prefecture":"山口県","prefecture_kana":"ヤマグチケン","city":"山口市","city_kana":"ヤマグチシ","town":"小郡栄町","town_kana":"オゴオリサカエマチ","prefecture_code":35},"0027":{"zip_code":"7540027","prefecture":"山口県","prefecture_kana":"ヤマグチケン","city":"山口市","city_kana":"ヤマグチシ","town":"小郡三軒屋町","town_kana":"オゴオリサンゲンヤマチ","prefecture_code":35},"0002":{"zip_code":"7540002","prefecture":"山口県","prefecture_kana":"ヤマグチケン","city":"山口市","city_kana":"ヤマグチシ","town":"小郡下郷","town_kana":"オゴオリシモゴウ","prefecture_code":35},"0031":{"zip_code":"7540031","prefecture":"山口県","prefecture_kana":"ヤマグチケン","city":"山口市","city_kana":"ヤマグチシ","town":"小郡新町","town_kana":"オゴオリシンマチ","prefecture_code":35},"0014":{"zip_code":"7540014","prefecture":"山口県","prefecture_kana":"ヤマグチケン","city":"山口市","city_kana":"ヤマグチシ","town":"小郡高砂町","town_kana":"オゴオリタカサゴマチ","prefecture_code":35},"0022":{"zip_code":"7540022","prefecture":"山口県","prefecture_kana":"ヤマグチケン","city":"山口市","city_kana":"ヤマグチシ","town":"小郡花園町","town_kana":"オゴオリハナゾノマチ","prefecture_code":35},"0033":{"zip_code":"7540033","prefecture":"山口県","prefecture_kana":"ヤマグチケン","city":"山口市","city_kana":"ヤマグチシ","town":"小郡光が丘","town_kana":"オゴオリヒカリガオカ","prefecture_code":35},"0025":{"zip_code":"7540025","prefecture":"山口県","prefecture_kana":"ヤマグチケン","city":"山口市","city_kana":"ヤマグチシ","town":"小郡平砂町","town_kana":"オゴオリヒラサマチ","prefecture_code":35},"0012":{"zip_code":"7540012","prefecture":"山口県","prefecture_kana":"ヤマグチケン","city":"山口市","city_kana":"ヤマグチシ","town":"小郡船倉町","town_kana":"オゴオリフナクラマチ","prefecture_code":35},"0020":{"zip_code":"7540020","prefecture":"山口県","prefecture_kana":"ヤマグチケン","city":"山口市","city_kana":"ヤマグチシ","town":"小郡平成町","town_kana":"オゴオリヘイセイマチ","prefecture_code":35},"0023":{"zip_code":"7540023","prefecture":"山口県","prefecture_kana":"ヤマグチケン","city":"山口市","city_kana":"ヤマグチシ","town":"小郡前田町","town_kana":"オゴオリマエダマチ","prefecture_code":35},"0003":{"zip_code":"7540003","prefecture":"山口県","prefecture_kana":"ヤマグチケン","city":"山口市","city_kana":"ヤマグチシ","town":"小郡真名","town_kana":"オゴオリマナ","prefecture_code":35},"0013":{"zip_code":"7540013","prefecture":"山口県","prefecture_kana":"ヤマグチケン","city":"山口市","city_kana":"ヤマグチシ","town":"小郡緑町","town_kana":"オゴオリミドリマチ","prefecture_code":35},"0011":{"zip_code":"7540011","prefecture":"山口県","prefecture_kana":"ヤマグチケン","city":"山口市","city_kana":"ヤマグチシ","town":"小郡御幸町","town_kana":"オゴオリミユキマチ","prefecture_code":35},"0032":{"zip_code":"7540032","prefecture":"山口県","prefecture_kana":"ヤマグチケン","city":"山口市","city_kana":"ヤマグチシ","town":"小郡みらい町","town_kana":"オゴオリミライマチ","prefecture_code":35},"0005":{"zip_code":"7540005","prefecture":"山口県","prefecture_kana":"ヤマグチケン","city":"山口市","city_kana":"ヤマグチシ","town":"小郡山手上町","town_kana":"オゴオリヤマテカミマチ","prefecture_code":35},"0024":{"zip_code":"7540024","prefecture":"山口県","prefecture_kana":"ヤマグチケン","city":"山口市","city_kana":"ヤマグチシ","town":"小郡若草町","town_kana":"オゴオリワカクサマチ","prefecture_code":35},"0897":{"zip_code":"7540897","prefecture":"山口県","prefecture_kana":"ヤマグチケン","city":"山口市","city_kana":"ヤマグチシ","town":"嘉川","town_kana":"カガワ","prefecture_code":35},"0894":{"zip_code":"7540894","prefecture":"山口県","prefecture_kana":"ヤマグチケン","city":"山口市","city_kana":"ヤマグチシ","town":"佐山","town_kana":"サヤマ","prefecture_code":35},"0891":{"zip_code":"7540891","prefecture":"山口県","prefecture_kana":"ヤマグチケン","city":"山口市","city_kana":"ヤマグチシ","town":"陶","town_kana":"スエ","prefecture_code":35},"0892":{"zip_code":"7540892","prefecture":"山口県","prefecture_kana":"ヤマグチケン","city":"山口市","city_kana":"ヤマグチシ","town":"名田島","town_kana":"ナタジマ","prefecture_code":35},"0895":{"zip_code":"7540895","prefecture":"山口県","prefecture_kana":"ヤマグチケン","city":"山口市","city_kana":"ヤマグチシ","town":"深溝","town_kana":"フカミゾ","prefecture_code":35},"0411":{"zip_code":"7540411","prefecture":"山口県","prefecture_kana":"ヤマグチケン","city":"萩市","city_kana":"ハギシ","town":"明木","town_kana":"アキラギ","prefecture_code":35},"0602":{"zip_code":"7540602","prefecture":"山口県","prefecture_kana":"ヤマグチケン","city":"美祢市","city_kana":"ミネシ","town":"秋芳町青景","town_kana":"シュウホウチョウアオカゲ","prefecture_code":35},"0511":{"zip_code":"7540511","prefecture":"山口県","prefecture_kana":"ヤマグチケン","city":"美祢市","city_kana":"ミネシ","town":"秋芳町秋吉","town_kana":"シュウホウチョウアキヨシ","prefecture_code":35},"0513":{"zip_code":"7540513","prefecture":"山口県","prefecture_kana":"ヤマグチケン","city":"美祢市","city_kana":"ミネシ","town":"秋芳町岩永下郷","town_kana":"シュウホウチョウイワナガシモゴウ","prefecture_code":35},"0512":{"zip_code":"7540512","prefecture":"山口県","prefecture_kana":"ヤマグチケン","city":"美祢市","city_kana":"ミネシ","town":"秋芳町岩永本郷","town_kana":"シュウホウチョウイワナガホンゴウ","prefecture_code":35},"0601":{"zip_code":"7540601","prefecture":"山口県","prefecture_kana":"ヤマグチケン","city":"美祢市","city_kana":"ミネシ","town":"秋芳町嘉万","town_kana":"シュウホウチョウカマ","prefecture_code":35},"0603":{"zip_code":"7540603","prefecture":"山口県","prefecture_kana":"ヤマグチケン","city":"美祢市","city_kana":"ミネシ","town":"秋芳町別府","town_kana":"シュウホウチョウベップ","prefecture_code":35},"0514":{"zip_code":"7540514","prefecture":"山口県","prefecture_kana":"ヤマグチケン","city":"美祢市","city_kana":"ミネシ","town":"秋芳町","town_kana":"シュウホウチョウ","prefecture_code":35},"0302":{"zip_code":"7540302","prefecture":"山口県","prefecture_kana":"ヤマグチケン","city":"美祢市","city_kana":"ミネシ","town":"美東町赤","town_kana":"ミトウチョウアカ","prefecture_code":35},"0212":{"zip_code":"7540212","prefecture":"山口県","prefecture_kana":"ヤマグチケン","city":"美祢市","city_kana":"ミネシ","town":"美東町綾木","town_kana":"ミトウチョウアヤギ","prefecture_code":35},"0301":{"zip_code":"7540301","prefecture":"山口県","prefecture_kana":"ヤマグチケン","city":"美祢市","city_kana":"ミネシ","town":"美東町絵堂","town_kana":"ミトウチョウエドウ","prefecture_code":35},"0211":{"zip_code":"7540211","prefecture":"山口県","prefecture_kana":"ヤマグチケン","city":"美祢市","city_kana":"ミネシ","town":"美東町大田","town_kana":"ミトウチョウオオダ","prefecture_code":35},"0123":{"zip_code":"7540123","prefecture":"山口県","prefecture_kana":"ヤマグチケン","city":"美祢市","city_kana":"ミネシ","town":"美東町小野","town_kana":"ミトウチョウオノ","prefecture_code":35},"0121":{"zip_code":"7540121","prefecture":"山口県","prefecture_kana":"ヤマグチケン","city":"美祢市","city_kana":"ミネシ","town":"美東町長田","town_kana":"ミトウチョウナガタ","prefecture_code":35},"0213":{"zip_code":"7540213","prefecture":"山口県","prefecture_kana":"ヤマグチケン","city":"美祢市","city_kana":"ミネシ","town":"美東町長登","town_kana":"ミトウチョウナガノボリ","prefecture_code":35},"0122":{"zip_code":"7540122","prefecture":"山口県","prefecture_kana":"ヤマグチケン","city":"美祢市","city_kana":"ミネシ","town":"美東町真名","town_kana":"ミトウチョウマナ","prefecture_code":35},"0214":{"zip_code":"7540214","prefecture":"山口県","prefecture_kana":"ヤマグチケン","city":"美祢市","city_kana":"ミネシ","town":"美東町","town_kana":"ミトウチョウ","prefecture_code":35}}