{"0000":{"zip_code":"7550000","prefecture":"山口県","prefecture_kana":"ヤマグチケン","city":"宇部市","city_kana":"ウベシ","town":"","town_kana":"","prefecture_code":35},"0043":{"zip_code":"7550043","prefecture":"山口県","prefecture_kana":"ヤマグチケン","city":"宇部市","city_kana":"ウベシ","town":"相生町","town_kana":"アイオイチョウ","prefecture_code":35},"0801":{"zip_code":"7550801","prefecture":"山口県","prefecture_kana":"ヤマグチケン","city":"宇部市","city_kana":"ウベシ","town":"上条","town_kana":"アゲジョウ","prefecture_code":35},"0041":{"zip_code":"7550041","prefecture":"山口県","prefecture_kana":"ヤマグチケン","city":"宇部市","city_kana":"ウベシ","town":"朝日町","town_kana":"アサヒマチ","prefecture_code":35},"0152":{"zip_code":"7550152","prefecture":"山口県","prefecture_kana":"ヤマグチケン","city":"宇部市","city_kana":"ウベシ","town":"あすとぴあ","town_kana":"アストピア","prefecture_code":35},"0055":{"zip_code":"7550055","prefecture":"山口県","prefecture_kana":"ヤマグチケン","city":"宇部市","city_kana":"ウベシ","town":"居能町","town_kana":"イノウチョウ","prefecture_code":35},"0155":{"zip_code":"7550155","prefecture":"山口県","prefecture_kana":"ヤマグチケン","city":"宇部市","city_kana":"ウベシ","town":"今村北","town_kana":"イマムラキタ","prefecture_code":35},"0154":{"zip_code":"7550154","prefecture":"山口県","prefecture_kana":"ヤマグチケン","city":"宇部市","city_kana":"ウベシ","town":"今村南","town_kana":"イマムラミナミ","prefecture_code":35},"0810":{"zip_code":"7550810","prefecture":"山口県","prefecture_kana":"ヤマグチケン","city":"宇部市","city_kana":"ウベシ","town":"岩鼻町","town_kana":"イワハナチョウ","prefecture_code":35},"0051":{"zip_code":"7550051","prefecture":"山口県","prefecture_kana":"ヤマグチケン","city":"宇部市","city_kana":"ウベシ","town":"上町","town_kana":"ウエマチ","prefecture_code":35},"0062":{"zip_code":"7550062","prefecture":"山口県","prefecture_kana":"ヤマグチケン","city":"宇部市","city_kana":"ウベシ","town":"鵜の島町","town_kana":"ウノシマチョウ","prefecture_code":35},"0076":{"zip_code":"7550076","prefecture":"山口県","prefecture_kana":"ヤマグチケン","city":"宇部市","city_kana":"ウベシ","town":"大小路","town_kana":"オオショウジ","prefecture_code":35},"0001":{"zip_code":"7550001","prefecture":"山口県","prefecture_kana":"ヤマグチケン","city":"宇部市","city_kana":"ウベシ","town":"沖宇部","town_kana":"オキウベ","prefecture_code":35},"0023":{"zip_code":"7550023","prefecture":"山口県","prefecture_kana":"ヤマグチケン","city":"宇部市","city_kana":"ウベシ","town":"恩田町","town_kana":"オンダチョウ","prefecture_code":35},"0038":{"zip_code":"7550038","prefecture":"山口県","prefecture_kana":"ヤマグチケン","city":"宇部市","city_kana":"ウベシ","town":"海南町","town_kana":"カイナンチョウ","prefecture_code":35},"0091":{"zip_code":"7550091","prefecture":"山口県","prefecture_kana":"ヤマグチケン","city":"宇部市","city_kana":"ウベシ","town":"上宇部","town_kana":"カミウベ","prefecture_code":35},"0092":{"zip_code":"7550092","prefecture":"山口県","prefecture_kana":"ヤマグチケン","city":"宇部市","city_kana":"ウベシ","town":"上野中町","town_kana":"カミノナカチョウ","prefecture_code":35},"0022":{"zip_code":"7550022","prefecture":"山口県","prefecture_kana":"ヤマグチケン","city":"宇部市","city_kana":"ウベシ","town":"神原町","town_kana":"カミハラチョウ","prefecture_code":35},"0002":{"zip_code":"7550002","prefecture":"山口県","prefecture_kana":"ヤマグチケン","city":"宇部市","city_kana":"ウベシ","town":"亀浦","town_kana":"カメウラ","prefecture_code":35},"0084":{"zip_code":"7550084","prefecture":"山口県","prefecture_kana":"ヤマグチケン","city":"宇部市","city_kana":"ウベシ","town":"川上","town_kana":"カワカミ","prefecture_code":35},"0074":{"zip_code":"7550074","prefecture":"山口県","prefecture_kana":"ヤマグチケン","city":"宇部市","city_kana":"ウベシ","town":"川添","town_kana":"カワゾエ","prefecture_code":35},"0081":{"zip_code":"7550081","prefecture":"山口県","prefecture_kana":"ヤマグチケン","city":"宇部市","city_kana":"ウベシ","town":"北小羽山町","town_kana":"キタオバヤマチョウ","prefecture_code":35},"0036":{"zip_code":"7550036","prefecture":"山口県","prefecture_kana":"ヤマグチケン","city":"宇部市","city_kana":"ウベシ","town":"北琴芝","town_kana":"キタコトシバ","prefecture_code":35},"0093":{"zip_code":"7550093","prefecture":"山口県","prefecture_kana":"ヤマグチケン","city":"宇部市","city_kana":"ウベシ","town":"北迫新町","town_kana":"キタサコシンマチ","prefecture_code":35},"0802":{"zip_code":"7550802","prefecture":"山口県","prefecture_kana":"ヤマグチケン","city":"宇部市","city_kana":"ウベシ","town":"北条","town_kana":"キタジョウ","prefecture_code":35},"0004":{"zip_code":"7550004","prefecture":"山口県","prefecture_kana":"ヤマグチケン","city":"宇部市","city_kana":"ウベシ","town":"草江","town_kana":"クサエ","prefecture_code":35},"0067":{"zip_code":"7550067","prefecture":"山口県","prefecture_kana":"ヤマグチケン","city":"宇部市","city_kana":"ウベシ","town":"小串","town_kana":"コグシ","prefecture_code":35},"0005":{"zip_code":"7550005","prefecture":"山口県","prefecture_kana":"ヤマグチケン","city":"宇部市","city_kana":"ウベシ","town":"五十目山町","town_kana":"ゴジュウメヤマチョウ","prefecture_code":35},"0075":{"zip_code":"7550075","prefecture":"山口県","prefecture_kana":"ヤマグチケン","city":"宇部市","city_kana":"ウベシ","town":"琴崎町","town_kana":"コトザキチョウ","prefecture_code":35},"0033":{"zip_code":"7550033","prefecture":"山口県","prefecture_kana":"ヤマグチケン","city":"宇部市","city_kana":"ウベシ","town":"琴芝町","town_kana":"コトシバチョウ","prefecture_code":35},"0032":{"zip_code":"7550032","prefecture":"山口県","prefecture_kana":"ヤマグチケン","city":"宇部市","city_kana":"ウベシ","town":"寿町","town_kana":"コトブキチョウ","prefecture_code":35},"0066":{"zip_code":"7550066","prefecture":"山口県","prefecture_kana":"ヤマグチケン","city":"宇部市","city_kana":"ウベシ","town":"小松原町","town_kana":"コマツバラチョウ","prefecture_code":35},"0012":{"zip_code":"7550012","prefecture":"山口県","prefecture_kana":"ヤマグチケン","city":"宇部市","city_kana":"ウベシ","town":"幸町","town_kana":"サイワイマチ","prefecture_code":35},"0015":{"zip_code":"7550015","prefecture":"山口県","prefecture_kana":"ヤマグチケン","city":"宇部市","city_kana":"ウベシ","town":"笹山町","town_kana":"ササヤマチョウ","prefecture_code":35},"0017":{"zip_code":"7550017","prefecture":"山口県","prefecture_kana":"ヤマグチケン","city":"宇部市","city_kana":"ウベシ","town":"芝中町","town_kana":"シバナカチョウ","prefecture_code":35},"0047":{"zip_code":"7550047","prefecture":"山口県","prefecture_kana":"ヤマグチケン","city":"宇部市","city_kana":"ウベシ","town":"島","town_kana":"シマ","prefecture_code":35},"0048":{"zip_code":"7550048","prefecture":"山口県","prefecture_kana":"ヤマグチケン","city":"宇部市","city_kana":"ウベシ","town":"下条","town_kana":"シモジョウ","prefecture_code":35},"0011":{"zip_code":"7550011","prefecture":"山口県","prefecture_kana":"ヤマグチケン","city":"宇部市","city_kana":"ウベシ","town":"昭和町","town_kana":"ショウワチョウ","prefecture_code":35},"0029":{"zip_code":"7550029","prefecture":"山口県","prefecture_kana":"ヤマグチケン","city":"宇部市","city_kana":"ウベシ","town":"新天町","town_kana":"シンテンチョウ","prefecture_code":35},"0044":{"zip_code":"7550044","prefecture":"山口県","prefecture_kana":"ヤマグチケン","city":"宇部市","city_kana":"ウベシ","town":"新町","town_kana":"シンマチ","prefecture_code":35},"0014":{"zip_code":"7550014","prefecture":"山口県","prefecture_kana":"ヤマグチケン","city":"宇部市","city_kana":"ウベシ","town":"末広町","town_kana":"スエヒロチョウ","prefecture_code":35},"0054":{"zip_code":"7550054","prefecture":"山口県","prefecture_kana":"ヤマグチケン","city":"宇部市","city_kana":"ウベシ","town":"助田町","town_kana":"スケダチョウ","prefecture_code":35},"0045":{"zip_code":"7550045","prefecture":"山口県","prefecture_kana":"ヤマグチケン","city":"宇部市","city_kana":"ウベシ","town":"中央町","town_kana":"チュウオウチョウ","prefecture_code":35},"0021":{"zip_code":"7550021","prefecture":"山口県","prefecture_kana":"ヤマグチケン","city":"宇部市","city_kana":"ウベシ","town":"常藤町","town_kana":"ツネフジチョウ","prefecture_code":35},"0078":{"zip_code":"7550078","prefecture":"山口県","prefecture_kana":"ヤマグチケン","city":"宇部市","city_kana":"ウベシ","town":"寺の前町","town_kana":"テラノマエチョウ","prefecture_code":35},"0097":{"zip_code":"7550097","prefecture":"山口県","prefecture_kana":"ヤマグチケン","city":"宇部市","city_kana":"ウベシ","town":"常盤台","town_kana":"トキワダイ","prefecture_code":35},"0031":{"zip_code":"7550031","prefecture":"山口県","prefecture_kana":"ヤマグチケン","city":"宇部市","city_kana":"ウベシ","town":"常盤町","town_kana":"トキワチョウ","prefecture_code":35},"0153":{"zip_code":"7550153","prefecture":"山口県","prefecture_kana":"ヤマグチケン","city":"宇部市","city_kana":"ウベシ","town":"床波","town_kana":"トコナミ","prefecture_code":35},"0086":{"zip_code":"7550086","prefecture":"山口県","prefecture_kana":"ヤマグチケン","city":"宇部市","city_kana":"ウベシ","town":"中宇部","town_kana":"ナカウベ","prefecture_code":35},"0073":{"zip_code":"7550073","prefecture":"山口県","prefecture_kana":"ヤマグチケン","city":"宇部市","city_kana":"ウベシ","town":"中尾","town_kana":"ナカオ","prefecture_code":35},"0072":{"zip_code":"7550072","prefecture":"山口県","prefecture_kana":"ヤマグチケン","city":"宇部市","city_kana":"ウベシ","town":"中村","town_kana":"ナカムラ","prefecture_code":35},"0058":{"zip_code":"7550058","prefecture":"山口県","prefecture_kana":"ヤマグチケン","city":"宇部市","city_kana":"ウベシ","town":"中山","town_kana":"ナカヤマ","prefecture_code":35},"0064":{"zip_code":"7550064","prefecture":"山口県","prefecture_kana":"ヤマグチケン","city":"宇部市","city_kana":"ウベシ","town":"鍋倉町","town_kana":"ナベクラチョウ","prefecture_code":35},"0037":{"zip_code":"7550037","prefecture":"山口県","prefecture_kana":"ヤマグチケン","city":"宇部市","city_kana":"ウベシ","town":"西梶返","town_kana":"ニシカジガエシ","prefecture_code":35},"0018":{"zip_code":"7550018","prefecture":"山口県","prefecture_kana":"ヤマグチケン","city":"宇部市","city_kana":"ウベシ","town":"錦町","town_kana":"ニシキチョウ","prefecture_code":35},"0151":{"zip_code":"7550151","prefecture":"山口県","prefecture_kana":"ヤマグチケン","city":"宇部市","city_kana":"ウベシ","town":"西岐波","town_kana":"ニシキワ","prefecture_code":35},"0049":{"zip_code":"7550049","prefecture":"山口県","prefecture_kana":"ヤマグチケン","city":"宇部市","city_kana":"ウベシ","town":"西小串","town_kana":"ニシコグシ","prefecture_code":35},"0035":{"zip_code":"7550035","prefecture":"山口県","prefecture_kana":"ヤマグチケン","city":"宇部市","city_kana":"ウベシ","town":"西琴芝","town_kana":"ニシコトシバ","prefecture_code":35},"0053":{"zip_code":"7550053","prefecture":"山口県","prefecture_kana":"ヤマグチケン","city":"宇部市","city_kana":"ウベシ","town":"西中町","town_kana":"ニシナカチョウ","prefecture_code":35},"0808":{"zip_code":"7550808","prefecture":"山口県","prefecture_kana":"ヤマグチケン","city":"宇部市","city_kana":"ウベシ","town":"西平原","town_kana":"ニシヒラバラ","prefecture_code":35},"0052":{"zip_code":"7550052","prefecture":"山口県","prefecture_kana":"ヤマグチケン","city":"宇部市","city_kana":"ウベシ","town":"西本町","town_kana":"ニシホンマチ","prefecture_code":35},"0085":{"zip_code":"7550085","prefecture":"山口県","prefecture_kana":"ヤマグチケン","city":"宇部市","city_kana":"ウベシ","town":"沼","town_kana":"ヌマ","prefecture_code":35},"0025":{"zip_code":"7550025","prefecture":"山口県","prefecture_kana":"ヤマグチケン","city":"宇部市","city_kana":"ウベシ","town":"野中","town_kana":"ノナカ","prefecture_code":35},"0024":{"zip_code":"7550024","prefecture":"山口県","prefecture_kana":"ヤマグチケン","city":"宇部市","city_kana":"ウベシ","town":"野原","town_kana":"ノバラ","prefecture_code":35},"0003":{"zip_code":"7550003","prefecture":"山口県","prefecture_kana":"ヤマグチケン","city":"宇部市","city_kana":"ウベシ","town":"則貞","town_kana":"ノリサダ","prefecture_code":35},"0007":{"zip_code":"7550007","prefecture":"山口県","prefecture_kana":"ヤマグチケン","city":"宇部市","city_kana":"ウベシ","town":"八王子町","town_kana":"ハチオウジチョウ","prefecture_code":35},"0806":{"zip_code":"7550806","prefecture":"山口県","prefecture_kana":"ヤマグチケン","city":"宇部市","city_kana":"ウベシ","town":"浜田","town_kana":"ハマダ","prefecture_code":35},"0065":{"zip_code":"7550065","prefecture":"山口県","prefecture_kana":"ヤマグチケン","city":"宇部市","city_kana":"ウベシ","town":"浜町","town_kana":"ハマチョウ","prefecture_code":35},"0082":{"zip_code":"7550082","prefecture":"山口県","prefecture_kana":"ヤマグチケン","city":"宇部市","city_kana":"ウベシ","town":"東小羽山町","town_kana":"ヒガシオバヤマチョウ","prefecture_code":35},"0039":{"zip_code":"7550039","prefecture":"山口県","prefecture_kana":"ヤマグチケン","city":"宇部市","city_kana":"ウベシ","town":"東梶返","town_kana":"ヒガシカジガエシ","prefecture_code":35},"0241":{"zip_code":"7550241","prefecture":"山口県","prefecture_kana":"ヤマグチケン","city":"宇部市","city_kana":"ウベシ","town":"東岐波","town_kana":"ヒガシキワ","prefecture_code":35},"0068":{"zip_code":"7550068","prefecture":"山口県","prefecture_kana":"ヤマグチケン","city":"宇部市","city_kana":"ウベシ","town":"東小串","town_kana":"ヒガシコグシ","prefecture_code":35},"0034":{"zip_code":"7550034","prefecture":"山口県","prefecture_kana":"ヤマグチケン","city":"宇部市","city_kana":"ウベシ","town":"東琴芝","town_kana":"ヒガシコトシバ","prefecture_code":35},"0016":{"zip_code":"7550016","prefecture":"山口県","prefecture_kana":"ヤマグチケン","city":"宇部市","city_kana":"ウベシ","town":"東芝中町","town_kana":"ヒガシシバナカチョウ","prefecture_code":35},"0019":{"zip_code":"7550019","prefecture":"山口県","prefecture_kana":"ヤマグチケン","city":"宇部市","city_kana":"ウベシ","town":"東新川町","town_kana":"ヒガシシンカワチョウ","prefecture_code":35},"0807":{"zip_code":"7550807","prefecture":"山口県","prefecture_kana":"ヤマグチケン","city":"宇部市","city_kana":"ウベシ","town":"東平原","town_kana":"ヒガシヒラバラ","prefecture_code":35},"0803":{"zip_code":"7550803","prefecture":"山口県","prefecture_kana":"ヤマグチケン","city":"宇部市","city_kana":"ウベシ","town":"東藤曲","town_kana":"ヒガシフジマガリ","prefecture_code":35},"0028":{"zip_code":"7550028","prefecture":"山口県","prefecture_kana":"ヤマグチケン","city":"宇部市","city_kana":"ウベシ","town":"東本町","town_kana":"ヒガシホンマチ","prefecture_code":35},"0009":{"zip_code":"7550009","prefecture":"山口県","prefecture_kana":"ヤマグチケン","city":"宇部市","city_kana":"ウベシ","town":"東見初町","town_kana":"ヒガシミゾメチョウ","prefecture_code":35},"0096":{"zip_code":"7550096","prefecture":"山口県","prefecture_kana":"ヤマグチケン","city":"宇部市","city_kana":"ウベシ","town":"開","town_kana":"ヒラキ","prefecture_code":35},"0094":{"zip_code":"7550094","prefecture":"山口県","prefecture_kana":"ヤマグチケン","city":"宇部市","city_kana":"ウベシ","town":"ひらき台","town_kana":"ヒラキダイ","prefecture_code":35},"0057":{"zip_code":"7550057","prefecture":"山口県","prefecture_kana":"ヤマグチケン","city":"宇部市","city_kana":"ウベシ","town":"藤曲","town_kana":"フジマガリ","prefecture_code":35},"0095":{"zip_code":"7550095","prefecture":"山口県","prefecture_kana":"ヤマグチケン","city":"宇部市","city_kana":"ウベシ","town":"風呂ケ迫町","town_kana":"フロガサコチョウ","prefecture_code":35},"0805":{"zip_code":"7550805","prefecture":"山口県","prefecture_kana":"ヤマグチケン","city":"宇部市","city_kana":"ウベシ","town":"文京台","town_kana":"ブンキョウダイ","prefecture_code":35},"0056":{"zip_code":"7550056","prefecture":"山口県","prefecture_kana":"ヤマグチケン","city":"宇部市","city_kana":"ウベシ","town":"文京町","town_kana":"ブンキョウチョウ","prefecture_code":35},"0809":{"zip_code":"7550809","prefecture":"山口県","prefecture_kana":"ヤマグチケン","city":"宇部市","city_kana":"ウベシ","town":"松崎町","town_kana":"マツザキチョウ","prefecture_code":35},"0042":{"zip_code":"7550042","prefecture":"山口県","prefecture_kana":"ヤマグチケン","city":"宇部市","city_kana":"ウベシ","town":"松島町","town_kana":"マツシマチョウ","prefecture_code":35},"0026":{"zip_code":"7550026","prefecture":"山口県","prefecture_kana":"ヤマグチケン","city":"宇部市","city_kana":"ウベシ","town":"松山町","town_kana":"マツヤマチョウ","prefecture_code":35},"0006":{"zip_code":"7550006","prefecture":"山口県","prefecture_kana":"ヤマグチケン","city":"宇部市","city_kana":"ウベシ","town":"岬町","town_kana":"ミサキチョウ","prefecture_code":35},"0027":{"zip_code":"7550027","prefecture":"山口県","prefecture_kana":"ヤマグチケン","city":"宇部市","city_kana":"ウベシ","town":"港町","town_kana":"ミナトマチ","prefecture_code":35},"0083":{"zip_code":"7550083","prefecture":"山口県","prefecture_kana":"ヤマグチケン","city":"宇部市","city_kana":"ウベシ","town":"南小羽山町","town_kana":"ミナミオバヤマチョウ","prefecture_code":35},"0046":{"zip_code":"7550046","prefecture":"山口県","prefecture_kana":"ヤマグチケン","city":"宇部市","city_kana":"ウベシ","town":"南小串","town_kana":"ミナミコグシ","prefecture_code":35},"0804":{"zip_code":"7550804","prefecture":"山口県","prefecture_kana":"ヤマグチケン","city":"宇部市","city_kana":"ウベシ","town":"南中山町","town_kana":"ミナミナカヤマチョウ","prefecture_code":35},"0063":{"zip_code":"7550063","prefecture":"山口県","prefecture_kana":"ヤマグチケン","city":"宇部市","city_kana":"ウベシ","town":"南浜町","town_kana":"ミナミハマチョウ","prefecture_code":35},"0071":{"zip_code":"7550071","prefecture":"山口県","prefecture_kana":"ヤマグチケン","city":"宇部市","city_kana":"ウベシ","town":"宮地町","town_kana":"ミヤジチョウ","prefecture_code":35},"0008":{"zip_code":"7550008","prefecture":"山口県","prefecture_kana":"ヤマグチケン","city":"宇部市","city_kana":"ウベシ","town":"明神町","town_kana":"ミョウジンチョウ","prefecture_code":35},"0013":{"zip_code":"7550013","prefecture":"山口県","prefecture_kana":"ヤマグチケン","city":"宇部市","city_kana":"ウベシ","town":"明治町","town_kana":"メイジマチ","prefecture_code":35},"0077":{"zip_code":"7550077","prefecture":"山口県","prefecture_kana":"ヤマグチケン","city":"宇部市","city_kana":"ウベシ","town":"山門","town_kana":"ヤマカド","prefecture_code":35},"0061":{"zip_code":"7550061","prefecture":"山口県","prefecture_kana":"ヤマグチケン","city":"宇部市","city_kana":"ウベシ","town":"若松町","town_kana":"ワカマツチョウ","prefecture_code":35}}