{"0000":{"zip_code":"7560000","prefecture":"山口県","prefecture_kana":"ヤマグチケン","city":"山陽小野田市","city_kana":"サンヨウオノダシ","town":"以下に掲載がない場合","town_kana":"イカニケイサイガナイバアイ","prefecture_code":35},"0030":{"zip_code":"7560030","prefecture":"山口県","prefecture_kana":"ヤマグチケン","city":"山陽小野田市","city_kana":"サンヨウオノダシ","town":"青葉台","town_kana":"アオバダイ","prefecture_code":35},"0841":{"zip_code":"7560841","prefecture":"山口県","prefecture_kana":"ヤマグチケン","city":"山陽小野田市","city_kana":"サンヨウオノダシ","town":"赤崎","town_kana":"アカサキ","prefecture_code":35},"0871":{"zip_code":"7560871","prefecture":"山口県","prefecture_kana":"ヤマグチケン","city":"山陽小野田市","city_kana":"サンヨウオノダシ","town":"あさひが丘","town_kana":"アサヒガオカ","prefecture_code":35},"0808":{"zip_code":"7560808","prefecture":"山口県","prefecture_kana":"ヤマグチケン","city":"山陽小野田市","city_kana":"サンヨウオノダシ","town":"旭町","town_kana":"アサヒマチ","prefecture_code":35},"0038":{"zip_code":"7560038","prefecture":"山口県","prefecture_kana":"ヤマグチケン","city":"山陽小野田市","city_kana":"サンヨウオノダシ","town":"有帆","town_kana":"アリホ","prefecture_code":35},"0009":{"zip_code":"7560009","prefecture":"山口県","prefecture_kana":"ヤマグチケン","city":"山陽小野田市","city_kana":"サンヨウオノダシ","town":"有帆上町","town_kana":"アリホウエマチ","prefecture_code":35},"0003":{"zip_code":"7560003","prefecture":"山口県","prefecture_kana":"ヤマグチケン","city":"山陽小野田市","city_kana":"サンヨウオノダシ","town":"有帆新町","town_kana":"アリホシンマチ","prefecture_code":35},"0063":{"zip_code":"7560063","prefecture":"山口県","prefecture_kana":"ヤマグチケン","city":"山陽小野田市","city_kana":"サンヨウオノダシ","town":"石井手","town_kana":"イシイデ","prefecture_code":35},"0811":{"zip_code":"7560811","prefecture":"山口県","prefecture_kana":"ヤマグチケン","city":"山陽小野田市","city_kana":"サンヨウオノダシ","town":"稲荷町","town_kana":"イナリマチ","prefecture_code":35},"0863":{"zip_code":"7560863","prefecture":"山口県","prefecture_kana":"ヤマグチケン","city":"山陽小野田市","city_kana":"サンヨウオノダシ","town":"上の台","town_kana":"ウエノダイ","prefecture_code":35},"0049":{"zip_code":"7560049","prefecture":"山口県","prefecture_kana":"ヤマグチケン","city":"山陽小野田市","city_kana":"サンヨウオノダシ","town":"後潟上","town_kana":"ウシロガタカミ","prefecture_code":35},"0048":{"zip_code":"7560048","prefecture":"山口県","prefecture_kana":"ヤマグチケン","city":"山陽小野田市","city_kana":"サンヨウオノダシ","town":"後潟下","town_kana":"ウシロガタシモ","prefecture_code":35},"0855":{"zip_code":"7560855","prefecture":"山口県","prefecture_kana":"ヤマグチケン","city":"山陽小野田市","city_kana":"サンヨウオノダシ","town":"えびす町","town_kana":"エビスチョウ","prefecture_code":35},"0025":{"zip_code":"7560025","prefecture":"山口県","prefecture_kana":"ヤマグチケン","city":"山陽小野田市","city_kana":"サンヨウオノダシ","town":"烏帽子岩","town_kana":"エボシイワ","prefecture_code":35},"0026":{"zip_code":"7560026","prefecture":"山口県","prefecture_kana":"ヤマグチケン","city":"山陽小野田市","city_kana":"サンヨウオノダシ","town":"烏帽子岩団地","town_kana":"エボシイワダンチ","prefecture_code":35},"0027":{"zip_code":"7560027","prefecture":"山口県","prefecture_kana":"ヤマグチケン","city":"山陽小野田市","city_kana":"サンヨウオノダシ","town":"烏帽子岩前","town_kana":"エボシイワマエ","prefecture_code":35},"0873":{"zip_code":"7560873","prefecture":"山口県","prefecture_kana":"ヤマグチケン","city":"山陽小野田市","city_kana":"サンヨウオノダシ","town":"大須恵","town_kana":"オオズエ","prefecture_code":35},"0042":{"zip_code":"7560042","prefecture":"山口県","prefecture_kana":"ヤマグチケン","city":"山陽小野田市","city_kana":"サンヨウオノダシ","town":"大塚","town_kana":"オオツカ","prefecture_code":35},"0036":{"zip_code":"7560036","prefecture":"山口県","prefecture_kana":"ヤマグチケン","city":"山陽小野田市","city_kana":"サンヨウオノダシ","town":"大塚団地","town_kana":"オオツカダンチ","prefecture_code":35},"0866":{"zip_code":"7560866","prefecture":"山口県","prefecture_kana":"ヤマグチケン","city":"山陽小野田市","city_kana":"サンヨウオノダシ","town":"大浜","town_kana":"オオハマ","prefecture_code":35},"0852":{"zip_code":"7560852","prefecture":"山口県","prefecture_kana":"ヤマグチケン","city":"山陽小野田市","city_kana":"サンヨウオノダシ","town":"奥若山","town_kana":"オクワカヤマ","prefecture_code":35},"0817":{"zip_code":"7560817","prefecture":"山口県","prefecture_kana":"ヤマグチケン","city":"山陽小野田市","city_kana":"サンヨウオノダシ","town":"小野田","town_kana":"オノダ","prefecture_code":35},"0812":{"zip_code":"7560812","prefecture":"山口県","prefecture_kana":"ヤマグチケン","city":"山陽小野田市","city_kana":"サンヨウオノダシ","town":"小野山","town_kana":"オノヤマ","prefecture_code":35},"0067":{"zip_code":"7560067","prefecture":"山口県","prefecture_kana":"ヤマグチケン","city":"山陽小野田市","city_kana":"サンヨウオノダシ","town":"柿の木坂","town_kana":"カキノキザカ","prefecture_code":35},"0013":{"zip_code":"7560013","prefecture":"山口県","prefecture_kana":"ヤマグチケン","city":"山陽小野田市","city_kana":"サンヨウオノダシ","town":"片山","town_kana":"カタヤマ","prefecture_code":35},"0012":{"zip_code":"7560012","prefecture":"山口県","prefecture_kana":"ヤマグチケン","city":"山陽小野田市","city_kana":"サンヨウオノダシ","town":"角石","town_kana":"カドイシ","prefecture_code":35},"0854":{"zip_code":"7560854","prefecture":"山口県","prefecture_kana":"ヤマグチケン","city":"山陽小野田市","city_kana":"サンヨウオノダシ","town":"叶松","town_kana":"カノウマツ","prefecture_code":35},"0056":{"zip_code":"7560056","prefecture":"山口県","prefecture_kana":"ヤマグチケン","city":"山陽小野田市","city_kana":"サンヨウオノダシ","town":"上木屋","town_kana":"カミゴヤ","prefecture_code":35},"0041":{"zip_code":"7560041","prefecture":"山口県","prefecture_kana":"ヤマグチケン","city":"山陽小野田市","city_kana":"サンヨウオノダシ","town":"上の郷","town_kana":"カミノゴウ","prefecture_code":35},"0086":{"zip_code":"7560086","prefecture":"山口県","prefecture_kana":"ヤマグチケン","city":"山陽小野田市","city_kana":"サンヨウオノダシ","town":"神帆町","town_kana":"カミホチョウ","prefecture_code":35},"0075":{"zip_code":"7560075","prefecture":"山口県","prefecture_kana":"ヤマグチケン","city":"山陽小野田市","city_kana":"サンヨウオノダシ","town":"亀の甲","town_kana":"カメノコウ","prefecture_code":35},"0843":{"zip_code":"7560843","prefecture":"山口県","prefecture_kana":"ヤマグチケン","city":"山陽小野田市","city_kana":"サンヨウオノダシ","town":"刈屋上条","town_kana":"カリヤカミジョウ","prefecture_code":35},"0842":{"zip_code":"7560842","prefecture":"山口県","prefecture_kana":"ヤマグチケン","city":"山陽小野田市","city_kana":"サンヨウオノダシ","town":"刈屋中村","town_kana":"カリヤナカムラ","prefecture_code":35},"0848":{"zip_code":"7560848","prefecture":"山口県","prefecture_kana":"ヤマグチケン","city":"山陽小野田市","city_kana":"サンヨウオノダシ","town":"刈屋西条","town_kana":"カリヤニシジョウ","prefecture_code":35},"0051":{"zip_code":"7560051","prefecture":"山口県","prefecture_kana":"ヤマグチケン","city":"山陽小野田市","city_kana":"サンヨウオノダシ","town":"杵築","town_kana":"キズキ","prefecture_code":35},"0801":{"zip_code":"7560801","prefecture":"山口県","prefecture_kana":"ヤマグチケン","city":"山陽小野田市","city_kana":"サンヨウオノダシ","town":"北栄町","town_kana":"キタサカエマチ","prefecture_code":35},"0007":{"zip_code":"7560007","prefecture":"山口県","prefecture_kana":"ヤマグチケン","city":"山陽小野田市","city_kana":"サンヨウオノダシ","town":"北真土郷","town_kana":"キタマツチゴウ","prefecture_code":35},"0833":{"zip_code":"7560833","prefecture":"山口県","prefecture_kana":"ヤマグチケン","city":"山陽小野田市","city_kana":"サンヨウオノダシ","town":"北竜王町","town_kana":"キタリュウオウチョウ","prefecture_code":35},"0822":{"zip_code":"7560822","prefecture":"山口県","prefecture_kana":"ヤマグチケン","city":"山陽小野田市","city_kana":"サンヨウオノダシ","town":"北若山","town_kana":"キタワカヤマ","prefecture_code":35},"0844":{"zip_code":"7560844","prefecture":"山口県","prefecture_kana":"ヤマグチケン","city":"山陽小野田市","city_kana":"サンヨウオノダシ","town":"木戸大鼻","town_kana":"キドオオバナ","prefecture_code":35},"0846":{"zip_code":"7560846","prefecture":"山口県","prefecture_kana":"ヤマグチケン","city":"山陽小野田市","city_kana":"サンヨウオノダシ","town":"木戸新町","town_kana":"キドシンマチ","prefecture_code":35},"0845":{"zip_code":"7560845","prefecture":"山口県","prefecture_kana":"ヤマグチケン","city":"山陽小野田市","city_kana":"サンヨウオノダシ","town":"木戸中ノ町","town_kana":"キドナカノチョウ","prefecture_code":35},"0011":{"zip_code":"7560011","prefecture":"山口県","prefecture_kana":"ヤマグチケン","city":"山陽小野田市","city_kana":"サンヨウオノダシ","town":"共和台","town_kana":"キョウワダイ","prefecture_code":35},"0028":{"zip_code":"7560028","prefecture":"山口県","prefecture_kana":"ヤマグチケン","city":"山陽小野田市","city_kana":"サンヨウオノダシ","town":"共和町","town_kana":"キョウワチョウ","prefecture_code":35},"0080":{"zip_code":"7560080","prefecture":"山口県","prefecture_kana":"ヤマグチケン","city":"山陽小野田市","city_kana":"サンヨウオノダシ","town":"くし山","town_kana":"クシヤマ","prefecture_code":35},"0044":{"zip_code":"7560044","prefecture":"山口県","prefecture_kana":"ヤマグチケン","city":"山陽小野田市","city_kana":"サンヨウオノダシ","town":"郷","town_kana":"ゴウ","prefecture_code":35},"0815":{"zip_code":"7560815","prefecture":"山口県","prefecture_kana":"ヤマグチケン","city":"山陽小野田市","city_kana":"サンヨウオノダシ","town":"高栄","town_kana":"コウエイ","prefecture_code":35},"0037":{"zip_code":"7560037","prefecture":"山口県","prefecture_kana":"ヤマグチケン","city":"山陽小野田市","city_kana":"サンヨウオノダシ","town":"小松尾","town_kana":"コマツオ","prefecture_code":35},"0802":{"zip_code":"7560802","prefecture":"山口県","prefecture_kana":"ヤマグチケン","city":"山陽小野田市","city_kana":"サンヨウオノダシ","town":"栄町","town_kana":"サカエマチ","prefecture_code":35},"0851":{"zip_code":"7560851","prefecture":"山口県","prefecture_kana":"ヤマグチケン","city":"山陽小野田市","city_kana":"サンヨウオノダシ","town":"桜が丘","town_kana":"サクラガオカ","prefecture_code":35},"0888":{"zip_code":"7560888","prefecture":"山口県","prefecture_kana":"ヤマグチケン","city":"山陽小野田市","city_kana":"サンヨウオノダシ","town":"笹尾西","town_kana":"ササオニシ","prefecture_code":35},"0881":{"zip_code":"7560881","prefecture":"山口県","prefecture_kana":"ヤマグチケン","city":"山陽小野田市","city_kana":"サンヨウオノダシ","town":"笹尾東","town_kana":"ササオヒガシ","prefecture_code":35},"0053":{"zip_code":"7560053","prefecture":"山口県","prefecture_kana":"ヤマグチケン","city":"山陽小野田市","city_kana":"サンヨウオノダシ","town":"下木屋","town_kana":"シモゴヤ","prefecture_code":35},"0805":{"zip_code":"7560805","prefecture":"山口県","prefecture_kana":"ヤマグチケン","city":"山陽小野田市","city_kana":"サンヨウオノダシ","town":"自由ヶ丘","town_kana":"ジユウガオカ","prefecture_code":35},"0094":{"zip_code":"7560094","prefecture":"山口県","prefecture_kana":"ヤマグチケン","city":"山陽小野田市","city_kana":"サンヨウオノダシ","town":"市立病院","town_kana":"シリツビョウイン","prefecture_code":35},"0010":{"zip_code":"7560010","prefecture":"山口県","prefecture_kana":"ヤマグチケン","city":"山陽小野田市","city_kana":"サンヨウオノダシ","town":"新有帆町","town_kana":"シンアリホチョウ","prefecture_code":35},"0847":{"zip_code":"7560847","prefecture":"山口県","prefecture_kana":"ヤマグチケン","city":"山陽小野田市","city_kana":"サンヨウオノダシ","town":"新沖","town_kana":"シンオキ","prefecture_code":35},"0092":{"zip_code":"7560092","prefecture":"山口県","prefecture_kana":"ヤマグチケン","city":"山陽小野田市","city_kana":"サンヨウオノダシ","town":"新生","town_kana":"シンセイ","prefecture_code":35},"0823":{"zip_code":"7560823","prefecture":"山口県","prefecture_kana":"ヤマグチケン","city":"山陽小野田市","city_kana":"サンヨウオノダシ","town":"心和園","town_kana":"シンワエン","prefecture_code":35},"0836":{"zip_code":"7560836","prefecture":"山口県","prefecture_kana":"ヤマグチケン","city":"山陽小野田市","city_kana":"サンヨウオノダシ","town":"須恵","town_kana":"スエ","prefecture_code":35},"0862":{"zip_code":"7560862","prefecture":"山口県","prefecture_kana":"ヤマグチケン","city":"山陽小野田市","city_kana":"サンヨウオノダシ","town":"須恵西","town_kana":"スエニシ","prefecture_code":35},"0889":{"zip_code":"7560889","prefecture":"山口県","prefecture_kana":"ヤマグチケン","city":"山陽小野田市","city_kana":"サンヨウオノダシ","town":"須恵東","town_kana":"スエヒガシ","prefecture_code":35},"0882":{"zip_code":"7560882","prefecture":"山口県","prefecture_kana":"ヤマグチケン","city":"山陽小野田市","city_kana":"サンヨウオノダシ","town":"須田ノ木","town_kana":"スダノキ","prefecture_code":35},"0813":{"zip_code":"7560813","prefecture":"山口県","prefecture_kana":"ヤマグチケン","city":"山陽小野田市","city_kana":"サンヨウオノダシ","town":"住吉本町","town_kana":"スミヨシホンマチ","prefecture_code":35},"0835":{"zip_code":"7560835","prefecture":"山口県","prefecture_kana":"ヤマグチケン","city":"山陽小野田市","city_kana":"サンヨウオノダシ","town":"セメント町","town_kana":"セメントマチ","prefecture_code":35},"0884":{"zip_code":"7560884","prefecture":"山口県","prefecture_kana":"ヤマグチケン","city":"山陽小野田市","city_kana":"サンヨウオノダシ","town":"大学通","town_kana":"ダイガクドオリ","prefecture_code":35},"0001":{"zip_code":"7560001","prefecture":"山口県","prefecture_kana":"ヤマグチケン","city":"山陽小野田市","city_kana":"サンヨウオノダシ","town":"大休","town_kana":"タイキュウ","prefecture_code":35},"0008":{"zip_code":"7560008","prefecture":"山口県","prefecture_kana":"ヤマグチケン","city":"山陽小野田市","city_kana":"サンヨウオノダシ","town":"大休団地","town_kana":"タイキュウダンチ","prefecture_code":35},"0087":{"zip_code":"7560087","prefecture":"山口県","prefecture_kana":"ヤマグチケン","city":"山陽小野田市","city_kana":"サンヨウオノダシ","town":"高須","town_kana":"タカス","prefecture_code":35},"0060":{"zip_code":"7560060","prefecture":"山口県","prefecture_kana":"ヤマグチケン","city":"山陽小野田市","city_kana":"サンヨウオノダシ","town":"高千帆","town_kana":"タカチホ","prefecture_code":35},"0021":{"zip_code":"7560021","prefecture":"山口県","prefecture_kana":"ヤマグチケン","city":"山陽小野田市","city_kana":"サンヨウオノダシ","town":"高畑","town_kana":"タカハタ","prefecture_code":35},"0047":{"zip_code":"7560047","prefecture":"山口県","prefecture_kana":"ヤマグチケン","city":"山陽小野田市","city_kana":"サンヨウオノダシ","town":"高浜","town_kana":"タカハマ","prefecture_code":35},"0865":{"zip_code":"7560865","prefecture":"山口県","prefecture_kana":"ヤマグチケン","city":"山陽小野田市","city_kana":"サンヨウオノダシ","town":"田の尻","town_kana":"タノシリ","prefecture_code":35},"0055":{"zip_code":"7560055","prefecture":"山口県","prefecture_kana":"ヤマグチケン","city":"山陽小野田市","city_kana":"サンヨウオノダシ","town":"旦西","town_kana":"ダンニシ","prefecture_code":35},"0054":{"zip_code":"7560054","prefecture":"山口県","prefecture_kana":"ヤマグチケン","city":"山陽小野田市","city_kana":"サンヨウオノダシ","town":"旦東","town_kana":"ダンヒガシ","prefecture_code":35},"0039":{"zip_code":"7560039","prefecture":"山口県","prefecture_kana":"ヤマグチケン","city":"山陽小野田市","city_kana":"サンヨウオノダシ","town":"千崎","town_kana":"チザキ","prefecture_code":35},"0022":{"zip_code":"7560022","prefecture":"山口県","prefecture_kana":"ヤマグチケン","city":"山陽小野田市","city_kana":"サンヨウオノダシ","town":"千崎西","town_kana":"チザキニシ","prefecture_code":35},"0023":{"zip_code":"7560023","prefecture":"山口県","prefecture_kana":"ヤマグチケン","city":"山陽小野田市","city_kana":"サンヨウオノダシ","town":"千崎東","town_kana":"チザキヒガシ","prefecture_code":35},"0824":{"zip_code":"7560824","prefecture":"山口県","prefecture_kana":"ヤマグチケン","city":"山陽小野田市","city_kana":"サンヨウオノダシ","town":"中央","town_kana":"チュウオウ","prefecture_code":35},"0804":{"zip_code":"7560804","prefecture":"山口県","prefecture_kana":"ヤマグチケン","city":"山陽小野田市","city_kana":"サンヨウオノダシ","town":"長寿園","town_kana":"チョウジュエン","prefecture_code":35},"0814":{"zip_code":"7560814","prefecture":"山口県","prefecture_kana":"ヤマグチケン","city":"山陽小野田市","city_kana":"サンヨウオノダシ","town":"千代町","town_kana":"チヨマチ","prefecture_code":35},"0806":{"zip_code":"7560806","prefecture":"山口県","prefecture_kana":"ヤマグチケン","city":"山陽小野田市","city_kana":"サンヨウオノダシ","town":"中川","town_kana":"ナカガワ","prefecture_code":35},"0004":{"zip_code":"7560004","prefecture":"山口県","prefecture_kana":"ヤマグチケン","city":"山陽小野田市","city_kana":"サンヨウオノダシ","town":"中里","town_kana":"ナカザト","prefecture_code":35},"0005":{"zip_code":"7560005","prefecture":"山口県","prefecture_kana":"ヤマグチケン","city":"山陽小野田市","city_kana":"サンヨウオノダシ","town":"中村","town_kana":"ナカムラ","prefecture_code":35},"0886":{"zip_code":"7560886","prefecture":"山口県","prefecture_kana":"ヤマグチケン","city":"山陽小野田市","city_kana":"サンヨウオノダシ","town":"夏目","town_kana":"ナツメ","prefecture_code":35},"0016":{"zip_code":"7560016","prefecture":"山口県","prefecture_kana":"ヤマグチケン","city":"山陽小野田市","city_kana":"サンヨウオノダシ","town":"南平台","town_kana":"ナンペイダイ","prefecture_code":35},"0885":{"zip_code":"7560885","prefecture":"山口県","prefecture_kana":"ヤマグチケン","city":"山陽小野田市","city_kana":"サンヨウオノダシ","town":"西沖","town_kana":"ニシオキ","prefecture_code":35},"0864":{"zip_code":"7560864","prefecture":"山口県","prefecture_kana":"ヤマグチケン","city":"山陽小野田市","city_kana":"サンヨウオノダシ","town":"西が迫","town_kana":"ニシガサコ","prefecture_code":35},"0816":{"zip_code":"7560816","prefecture":"山口県","prefecture_kana":"ヤマグチケン","city":"山陽小野田市","city_kana":"サンヨウオノダシ","town":"西住吉町","town_kana":"ニシスミヨシチョウ","prefecture_code":35},"0057":{"zip_code":"7560057","prefecture":"山口県","prefecture_kana":"ヤマグチケン","city":"山陽小野田市","city_kana":"サンヨウオノダシ","town":"西高泊","town_kana":"ニシタカドマリ","prefecture_code":35},"0046":{"zip_code":"7560046","prefecture":"山口県","prefecture_kana":"ヤマグチケン","city":"山陽小野田市","city_kana":"サンヨウオノダシ","town":"西の郷","town_kana":"ニシノゴウ","prefecture_code":35},"0093":{"zip_code":"7560093","prefecture":"山口県","prefecture_kana":"ヤマグチケン","city":"山陽小野田市","city_kana":"サンヨウオノダシ","town":"日産","town_kana":"ニッサン","prefecture_code":35},"0017":{"zip_code":"7560017","prefecture":"山口県","prefecture_kana":"ヤマグチケン","city":"山陽小野田市","city_kana":"サンヨウオノダシ","town":"仁保の上","town_kana":"ニホノウエ","prefecture_code":35},"0853":{"zip_code":"7560853","prefecture":"山口県","prefecture_kana":"ヤマグチケン","city":"山陽小野田市","city_kana":"サンヨウオノダシ","town":"野来見","town_kana":"ノグルミ","prefecture_code":35},"0024":{"zip_code":"7560024","prefecture":"山口県","prefecture_kana":"ヤマグチケン","city":"山陽小野田市","city_kana":"サンヨウオノダシ","town":"萩森","town_kana":"ハギモリ","prefecture_code":35},"0861":{"zip_code":"7560861","prefecture":"山口県","prefecture_kana":"ヤマグチケン","city":"山陽小野田市","city_kana":"サンヨウオノダシ","town":"波瀬","town_kana":"ハゼ","prefecture_code":35},"0043":{"zip_code":"7560043","prefecture":"山口県","prefecture_kana":"ヤマグチケン","city":"山陽小野田市","city_kana":"サンヨウオノダシ","town":"浜","town_kana":"ハマ","prefecture_code":35},"0872":{"zip_code":"7560872","prefecture":"山口県","prefecture_kana":"ヤマグチケン","city":"山陽小野田市","city_kana":"サンヨウオノダシ","town":"浜河内","town_kana":"ハマゴウチ","prefecture_code":35},"0052":{"zip_code":"7560052","prefecture":"山口県","prefecture_kana":"ヤマグチケン","city":"山陽小野田市","city_kana":"サンヨウオノダシ","town":"浜田町","town_kana":"ハマダチョウ","prefecture_code":35},"0883":{"zip_code":"7560883","prefecture":"山口県","prefecture_kana":"ヤマグチケン","city":"山陽小野田市","city_kana":"サンヨウオノダシ","town":"東須田の木","town_kana":"ヒガシスダノキ","prefecture_code":35},"0825":{"zip_code":"7560825","prefecture":"山口県","prefecture_kana":"ヤマグチケン","city":"山陽小野田市","city_kana":"サンヨウオノダシ","town":"東住吉町","town_kana":"ヒガシスミヨシチョウ","prefecture_code":35},"0088":{"zip_code":"7560088","prefecture":"山口県","prefecture_kana":"ヤマグチケン","city":"山陽小野田市","city_kana":"サンヨウオノダシ","town":"東高泊","town_kana":"ヒガシタカドマリ","prefecture_code":35},"0018":{"zip_code":"7560018","prefecture":"山口県","prefecture_kana":"ヤマグチケン","city":"山陽小野田市","city_kana":"サンヨウオノダシ","town":"東町","town_kana":"ヒガシマチ","prefecture_code":35},"0014":{"zip_code":"7560014","prefecture":"山口県","prefecture_kana":"ヤマグチケン","city":"山陽小野田市","city_kana":"サンヨウオノダシ","town":"彼岸田","town_kana":"ヒガンダ","prefecture_code":35},"0015":{"zip_code":"7560015","prefecture":"山口県","prefecture_kana":"ヤマグチケン","city":"山陽小野田市","city_kana":"サンヨウオノダシ","town":"ひがんだ団地","town_kana":"ヒガンダダンチ","prefecture_code":35},"0091":{"zip_code":"7560091","prefecture":"山口県","prefecture_kana":"ヤマグチケン","city":"山陽小野田市","city_kana":"サンヨウオノダシ","town":"日の出","town_kana":"ヒノデ","prefecture_code":35},"0032":{"zip_code":"7560032","prefecture":"山口県","prefecture_kana":"ヤマグチケン","city":"山陽小野田市","city_kana":"サンヨウオノダシ","town":"平生町","town_kana":"ヒラオチョウ","prefecture_code":35},"0035":{"zip_code":"7560035","prefecture":"山口県","prefecture_kana":"ヤマグチケン","city":"山陽小野田市","city_kana":"サンヨウオノダシ","town":"平原","town_kana":"ヒラバラ","prefecture_code":35},"0029":{"zip_code":"7560029","prefecture":"山口県","prefecture_kana":"ヤマグチケン","city":"山陽小野田市","city_kana":"サンヨウオノダシ","town":"船越","town_kana":"フナコシ","prefecture_code":35},"0856":{"zip_code":"7560856","prefecture":"山口県","prefecture_kana":"ヤマグチケン","city":"山陽小野田市","city_kana":"サンヨウオノダシ","town":"古開作","town_kana":"フルガイサク","prefecture_code":35},"0857":{"zip_code":"7560857","prefecture":"山口県","prefecture_kana":"ヤマグチケン","city":"山陽小野田市","city_kana":"サンヨウオノダシ","town":"古開作団地","town_kana":"フルガイサクダンチ","prefecture_code":35},"0837":{"zip_code":"7560837","prefecture":"山口県","prefecture_kana":"ヤマグチケン","city":"山陽小野田市","city_kana":"サンヨウオノダシ","town":"平成町","town_kana":"ヘイセイチョウ","prefecture_code":35},"0031":{"zip_code":"7560031","prefecture":"山口県","prefecture_kana":"ヤマグチケン","city":"山陽小野田市","city_kana":"サンヨウオノダシ","town":"平和町","town_kana":"ヘイワチョウ","prefecture_code":35},"0887":{"zip_code":"7560887","prefecture":"山口県","prefecture_kana":"ヤマグチケン","city":"山陽小野田市","city_kana":"サンヨウオノダシ","town":"松角","town_kana":"マツカク","prefecture_code":35},"0877":{"zip_code":"7560877","prefecture":"山口県","prefecture_kana":"ヤマグチケン","city":"山陽小野田市","city_kana":"サンヨウオノダシ","town":"松浜","town_kana":"マツハマ","prefecture_code":35},"0878":{"zip_code":"7560878","prefecture":"山口県","prefecture_kana":"ヤマグチケン","city":"山陽小野田市","city_kana":"サンヨウオノダシ","town":"松浜団地","town_kana":"マツハマダンチ","prefecture_code":35},"0821":{"zip_code":"7560821","prefecture":"山口県","prefecture_kana":"ヤマグチケン","city":"山陽小野田市","city_kana":"サンヨウオノダシ","town":"丸河内","town_kana":"マルゴウチ","prefecture_code":35},"0034":{"zip_code":"7560034","prefecture":"山口県","prefecture_kana":"ヤマグチケン","city":"山陽小野田市","city_kana":"サンヨウオノダシ","town":"緑が丘","town_kana":"ミドリガオカ","prefecture_code":35},"0834":{"zip_code":"7560834","prefecture":"山口県","prefecture_kana":"ヤマグチケン","city":"山陽小野田市","city_kana":"サンヨウオノダシ","town":"港町","town_kana":"ミナトマチ","prefecture_code":35},"0045":{"zip_code":"7560045","prefecture":"山口県","prefecture_kana":"ヤマグチケン","city":"山陽小野田市","city_kana":"サンヨウオノダシ","town":"南高泊","town_kana":"ミナミタカトマリ","prefecture_code":35},"0803":{"zip_code":"7560803","prefecture":"山口県","prefecture_kana":"ヤマグチケン","city":"山陽小野田市","city_kana":"サンヨウオノダシ","town":"南中川町","town_kana":"ミナミナカガワマチ","prefecture_code":35},"0019":{"zip_code":"7560019","prefecture":"山口県","prefecture_kana":"ヤマグチケン","city":"山陽小野田市","city_kana":"サンヨウオノダシ","town":"南真土郷","town_kana":"ミナミマツチゴウ","prefecture_code":35},"0875":{"zip_code":"7560875","prefecture":"山口県","prefecture_kana":"ヤマグチケン","city":"山陽小野田市","city_kana":"サンヨウオノダシ","town":"南松浜","town_kana":"ミナミマツハマ","prefecture_code":35},"0832":{"zip_code":"7560832","prefecture":"山口県","prefecture_kana":"ヤマグチケン","city":"山陽小野田市","city_kana":"サンヨウオノダシ","town":"南竜王町","town_kana":"ミナミリュウオウチョウ","prefecture_code":35},"0831":{"zip_code":"7560831","prefecture":"山口県","prefecture_kana":"ヤマグチケン","city":"山陽小野田市","city_kana":"サンヨウオノダシ","town":"南若山","town_kana":"ミナミワカヤマ","prefecture_code":35},"0076":{"zip_code":"7560076","prefecture":"山口県","prefecture_kana":"ヤマグチケン","city":"山陽小野田市","city_kana":"サンヨウオノダシ","town":"目出","town_kana":"メデ","prefecture_code":35},"0074":{"zip_code":"7560074","prefecture":"山口県","prefecture_kana":"ヤマグチケン","city":"山陽小野田市","city_kana":"サンヨウオノダシ","town":"目出湖畔町","town_kana":"メデコハンチョウ","prefecture_code":35},"0073":{"zip_code":"7560073","prefecture":"山口県","prefecture_kana":"ヤマグチケン","city":"山陽小野田市","city_kana":"サンヨウオノダシ","town":"目出幸町","town_kana":"メデサイワイマチ","prefecture_code":35},"0077":{"zip_code":"7560077","prefecture":"山口県","prefecture_kana":"ヤマグチケン","city":"山陽小野田市","city_kana":"サンヨウオノダシ","town":"目出新町","town_kana":"メデシンマチ","prefecture_code":35},"0071":{"zip_code":"7560071","prefecture":"山口県","prefecture_kana":"ヤマグチケン","city":"山陽小野田市","city_kana":"サンヨウオノダシ","town":"目出文化町","town_kana":"メデブンカチョウ","prefecture_code":35},"0072":{"zip_code":"7560072","prefecture":"山口県","prefecture_kana":"ヤマグチケン","city":"山陽小野田市","city_kana":"サンヨウオノダシ","town":"目出緑町","town_kana":"メデミドリマチ","prefecture_code":35},"0876":{"zip_code":"7560876","prefecture":"山口県","prefecture_kana":"ヤマグチケン","city":"山陽小野田市","city_kana":"サンヨウオノダシ","town":"本山団地","town_kana":"モトヤマダンチ","prefecture_code":35},"0874":{"zip_code":"7560874","prefecture":"山口県","prefecture_kana":"ヤマグチケン","city":"山陽小野田市","city_kana":"サンヨウオノダシ","town":"本山町","town_kana":"モトヤマチョウ","prefecture_code":35},"0809":{"zip_code":"7560809","prefecture":"山口県","prefecture_kana":"ヤマグチケン","city":"山陽小野田市","city_kana":"サンヨウオノダシ","town":"横土手","town_kana":"ヨコドテ","prefecture_code":35},"0807":{"zip_code":"7560807","prefecture":"山口県","prefecture_kana":"ヤマグチケン","city":"山陽小野田市","city_kana":"サンヨウオノダシ","town":"硫酸町","town_kana":"リュウサンマチ","prefecture_code":35},"0095":{"zip_code":"7560095","prefecture":"山口県","prefecture_kana":"ヤマグチケン","city":"山陽小野田市","city_kana":"サンヨウオノダシ","town":"労災病院","town_kana":"ロウサイビョウイン","prefecture_code":35},"0033":{"zip_code":"7560033","prefecture":"山口県","prefecture_kana":"ヤマグチケン","city":"山陽小野田市","city_kana":"サンヨウオノダシ","town":"若草町","town_kana":"ワカクサチョウ","prefecture_code":35}}