{"0211":{"zip_code":"7570211","prefecture":"山口県","prefecture_kana":"ヤマグチケン","city":"宇部市","city_kana":"ウベシ","town":"芦河内","town_kana":"アシガワチ","prefecture_code":35},"0212":{"zip_code":"7570212","prefecture":"山口県","prefecture_kana":"ヤマグチケン","city":"宇部市","city_kana":"ウベシ","town":"今富","town_kana":"イマドミ","prefecture_code":35},"0213":{"zip_code":"7570213","prefecture":"山口県","prefecture_kana":"ヤマグチケン","city":"宇部市","city_kana":"ウベシ","town":"奥万倉","town_kana":"オクマグラ","prefecture_code":35},"0402":{"zip_code":"7570402","prefecture":"山口県","prefecture_kana":"ヤマグチケン","city":"宇部市","city_kana":"ウベシ","town":"西吉部","town_kana":"ニシキベ","prefecture_code":35},"0214":{"zip_code":"7570214","prefecture":"山口県","prefecture_kana":"ヤマグチケン","city":"宇部市","city_kana":"ウベシ","town":"西万倉","town_kana":"ニシマグラ","prefecture_code":35},"0401":{"zip_code":"7570401","prefecture":"山口県","prefecture_kana":"ヤマグチケン","city":"宇部市","city_kana":"ウベシ","town":"東吉部","town_kana":"ヒガシキベ","prefecture_code":35},"0215":{"zip_code":"7570215","prefecture":"山口県","prefecture_kana":"ヤマグチケン","city":"宇部市","city_kana":"ウベシ","town":"東万倉","town_kana":"ヒガシマグラ","prefecture_code":35},"0216":{"zip_code":"7570216","prefecture":"山口県","prefecture_kana":"ヤマグチケン","city":"宇部市","city_kana":"ウベシ","town":"船木","town_kana":"フナキ","prefecture_code":35},"0217":{"zip_code":"7570217","prefecture":"山口県","prefecture_kana":"ヤマグチケン","city":"宇部市","city_kana":"ウベシ","town":"矢矯","town_kana":"ヤハギ","prefecture_code":35},"0001":{"zip_code":"7570001","prefecture":"山口県","prefecture_kana":"ヤマグチケン","city":"山陽小野田市","city_kana":"サンヨウオノダシ","town":"厚狭","town_kana":"アサ","prefecture_code":35},"0005":{"zip_code":"7570005","prefecture":"山口県","prefecture_kana":"ヤマグチケン","city":"山陽小野田市","city_kana":"サンヨウオノダシ","town":"鴨庄","town_kana":"カモノショウ","prefecture_code":35},"0002":{"zip_code":"7570002","prefecture":"山口県","prefecture_kana":"ヤマグチケン","city":"山陽小野田市","city_kana":"サンヨウオノダシ","town":"郡","town_kana":"コオリ","prefecture_code":35},"0006":{"zip_code":"7570006","prefecture":"山口県","prefecture_kana":"ヤマグチケン","city":"山陽小野田市","city_kana":"サンヨウオノダシ","town":"桜","town_kana":"サクラ","prefecture_code":35},"0011":{"zip_code":"7570011","prefecture":"山口県","prefecture_kana":"ヤマグチケン","city":"山陽小野田市","city_kana":"サンヨウオノダシ","town":"津布田","town_kana":"ツブタ","prefecture_code":35},"0012":{"zip_code":"7570012","prefecture":"山口県","prefecture_kana":"ヤマグチケン","city":"山陽小野田市","city_kana":"サンヨウオノダシ","town":"埴生","town_kana":"ハブ","prefecture_code":35},"0013":{"zip_code":"7570013","prefecture":"山口県","prefecture_kana":"ヤマグチケン","city":"山陽小野田市","city_kana":"サンヨウオノダシ","town":"福田","town_kana":"フクダ","prefecture_code":35},"0004":{"zip_code":"7570004","prefecture":"山口県","prefecture_kana":"ヤマグチケン","city":"山陽小野田市","city_kana":"サンヨウオノダシ","town":"山川","town_kana":"ヤマカワ","prefecture_code":35},"0003":{"zip_code":"7570003","prefecture":"山口県","prefecture_kana":"ヤマグチケン","city":"山陽小野田市","city_kana":"サンヨウオノダシ","town":"山野井","town_kana":"ヤマノイ","prefecture_code":35}}