{"0000":{"zip_code":"7580000","prefecture":"山口県","prefecture_kana":"ヤマグチケン","city":"萩市","city_kana":"ハギシ","town":"","town_kana":"","prefecture_code":35},"0001":{"zip_code":"7580001","prefecture":"山口県","prefecture_kana":"ヤマグチケン","city":"萩市","city_kana":"ハギシ","town":"相島","town_kana":"アイシマ","prefecture_code":35},"0051":{"zip_code":"7580051","prefecture":"山口県","prefecture_kana":"ヤマグチケン","city":"萩市","city_kana":"ハギシ","town":"油屋町","town_kana":"アブラヤチョウ","prefecture_code":35},"0052":{"zip_code":"7580052","prefecture":"山口県","prefecture_kana":"ヤマグチケン","city":"萩市","city_kana":"ハギシ","town":"今魚店町","town_kana":"イマウオノタナマチ","prefecture_code":35},"0021":{"zip_code":"7580021","prefecture":"山口県","prefecture_kana":"ヤマグチケン","city":"萩市","city_kana":"ハギシ","town":"今古萩町","town_kana":"イマフルハギマチ","prefecture_code":35},"0033":{"zip_code":"7580033","prefecture":"山口県","prefecture_kana":"ヤマグチケン","city":"萩市","city_kana":"ハギシ","town":"恵美須町","town_kana":"エビスチョウ","prefecture_code":35},"0041":{"zip_code":"7580041","prefecture":"山口県","prefecture_kana":"ヤマグチケン","city":"萩市","city_kana":"ハギシ","town":"江向","town_kana":"エムカイ","prefecture_code":35},"0003":{"zip_code":"7580003","prefecture":"山口県","prefecture_kana":"ヤマグチケン","city":"萩市","city_kana":"ハギシ","town":"大島","town_kana":"オオシマ","prefecture_code":35},"0042":{"zip_code":"7580042","prefecture":"山口県","prefecture_kana":"ヤマグチケン","city":"萩市","city_kana":"ハギシ","town":"御許町","town_kana":"オモトマチ","prefecture_code":35},"0301":{"zip_code":"7580301","prefecture":"山口県","prefecture_kana":"ヤマグチケン","city":"萩市","city_kana":"ハギシ","town":"片俣","town_kana":"カタマタ","prefecture_code":35},"0043":[{"zip_code":"7580043","prefecture":"山口県","prefecture_kana":"ヤマグチケン","city":"萩市","city_kana":"ハギシ","town":"上五間町","town_kana":"カミゴケンマチ","prefecture_code":35},{"zip_code":"7580043","prefecture":"山口県","prefecture_kana":"ヤマグチケン","city":"萩市","city_kana":"ハギシ","town":"下五間町","town_kana":"シモゴケンマチ","prefecture_code":35}],"0044":{"zip_code":"7580044","prefecture":"山口県","prefecture_kana":"ヤマグチケン","city":"萩市","city_kana":"ハギシ","town":"唐樋町","town_kana":"カラヒマチ","prefecture_code":35},"0141":{"zip_code":"7580141","prefecture":"山口県","prefecture_kana":"ヤマグチケン","city":"萩市","city_kana":"ハギシ","town":"川上","town_kana":"カワカミ","prefecture_code":35},"0031":{"zip_code":"7580031","prefecture":"山口県","prefecture_kana":"ヤマグチケン","city":"萩市","city_kana":"ハギシ","town":"川島","town_kana":"カワシマ","prefecture_code":35},"0071":{"zip_code":"7580071","prefecture":"山口県","prefecture_kana":"ヤマグチケン","city":"萩市","city_kana":"ハギシ","town":"瓦町","town_kana":"カワラマチ","prefecture_code":35},"0053":{"zip_code":"7580053","prefecture":"山口県","prefecture_kana":"ヤマグチケン","city":"萩市","city_kana":"ハギシ","town":"北片河町","town_kana":"キタカタカワマチ","prefecture_code":35},"0032":{"zip_code":"7580032","prefecture":"山口県","prefecture_kana":"ヤマグチケン","city":"萩市","city_kana":"ハギシ","town":"北古萩町","town_kana":"キタフルハギマチ","prefecture_code":35},"0304":{"zip_code":"7580304","prefecture":"山口県","prefecture_kana":"ヤマグチケン","city":"萩市","city_kana":"ハギシ","town":"吉部上","town_kana":"キベカミ","prefecture_code":35},"0305":{"zip_code":"7580305","prefecture":"山口県","prefecture_kana":"ヤマグチケン","city":"萩市","city_kana":"ハギシ","town":"吉部下","town_kana":"キベシモ","prefecture_code":35},"0034":{"zip_code":"7580034","prefecture":"山口県","prefecture_kana":"ヤマグチケン","city":"萩市","city_kana":"ハギシ","town":"熊谷町","town_kana":"クマガヤチョウ","prefecture_code":35},"0213":{"zip_code":"7580213","prefecture":"山口県","prefecture_kana":"ヤマグチケン","city":"萩市","city_kana":"ハギシ","town":"黒川","town_kana":"クロガワ","prefecture_code":35},"0073":{"zip_code":"7580073","prefecture":"山口県","prefecture_kana":"ヤマグチケン","city":"萩市","city_kana":"ハギシ","town":"河添","town_kana":"コウゾエ","prefecture_code":35},"0072":{"zip_code":"7580072","prefecture":"山口県","prefecture_kana":"ヤマグチケン","city":"萩市","city_kana":"ハギシ","town":"呉服町","town_kana":"ゴフクマチ","prefecture_code":35},"0045":{"zip_code":"7580045","prefecture":"山口県","prefecture_kana":"ヤマグチケン","city":"萩市","city_kana":"ハギシ","town":"米屋町","town_kana":"コメヤチョウ","prefecture_code":35},"0035":{"zip_code":"7580035","prefecture":"山口県","prefecture_kana":"ヤマグチケン","city":"萩市","city_kana":"ハギシ","town":"細工町","town_kana":"サイクマチ","prefecture_code":35},"0036":{"zip_code":"7580036","prefecture":"山口県","prefecture_kana":"ヤマグチケン","city":"萩市","city_kana":"ハギシ","town":"塩屋町","town_kana":"シオヤチョウ","prefecture_code":35},"0501":{"zip_code":"7580501","prefecture":"山口県","prefecture_kana":"ヤマグチケン","city":"萩市","city_kana":"ハギシ","town":"紫福","town_kana":"シブキ","prefecture_code":35},"0302":{"zip_code":"7580302","prefecture":"山口県","prefecture_kana":"ヤマグチケン","city":"萩市","city_kana":"ハギシ","town":"高佐上","town_kana":"タカサカミ","prefecture_code":35},"0303":{"zip_code":"7580303","prefecture":"山口県","prefecture_kana":"ヤマグチケン","city":"萩市","city_kana":"ハギシ","town":"高佐下","town_kana":"タカサシモ","prefecture_code":35},"0054":{"zip_code":"7580054","prefecture":"山口県","prefecture_kana":"ヤマグチケン","city":"萩市","city_kana":"ハギシ","town":"樽屋町","town_kana":"タルヤチョウ","prefecture_code":35},"0011":{"zip_code":"7580011","prefecture":"山口県","prefecture_kana":"ヤマグチケン","city":"萩市","city_kana":"ハギシ","town":"椿東","town_kana":"チントウ","prefecture_code":35},"0061":{"zip_code":"7580061","prefecture":"山口県","prefecture_kana":"ヤマグチケン","city":"萩市","city_kana":"ハギシ","town":"椿","town_kana":"ツバキ","prefecture_code":35},"0037":{"zip_code":"7580037","prefecture":"山口県","prefecture_kana":"ヤマグチケン","city":"萩市","city_kana":"ハギシ","town":"津守町","town_kana":"ツモリチョウ","prefecture_code":35},"0046":{"zip_code":"7580046","prefecture":"山口県","prefecture_kana":"ヤマグチケン","city":"萩市","city_kana":"ハギシ","town":"西田町","town_kana":"ニシタマチ","prefecture_code":35},"0062":{"zip_code":"7580062","prefecture":"山口県","prefecture_kana":"ヤマグチケン","city":"萩市","city_kana":"ハギシ","town":"橋本町","town_kana":"ハシモトマチ","prefecture_code":35},"0023":{"zip_code":"7580023","prefecture":"山口県","prefecture_kana":"ヤマグチケン","city":"萩市","city_kana":"ハギシ","town":"浜崎新町","town_kana":"ハマサキシンチョウ","prefecture_code":35},"0022":{"zip_code":"7580022","prefecture":"山口県","prefecture_kana":"ヤマグチケン","city":"萩市","city_kana":"ハギシ","town":"浜崎町","town_kana":"ハマサキマチ","prefecture_code":35},"0055":{"zip_code":"7580055","prefecture":"山口県","prefecture_kana":"ヤマグチケン","city":"萩市","city_kana":"ハギシ","town":"春若町","town_kana":"ハルワカチョウ","prefecture_code":35},"0047":{"zip_code":"7580047","prefecture":"山口県","prefecture_kana":"ヤマグチケン","city":"萩市","city_kana":"ハギシ","town":"東田町","town_kana":"ヒガシタマチ","prefecture_code":35},"0024":{"zip_code":"7580024","prefecture":"山口県","prefecture_kana":"ヤマグチケン","city":"萩市","city_kana":"ハギシ","town":"東浜崎町","town_kana":"ヒガシハマサキマチ","prefecture_code":35},"0004":{"zip_code":"7580004","prefecture":"山口県","prefecture_kana":"ヤマグチケン","city":"萩市","city_kana":"ハギシ","town":"肥島","town_kana":"ヒシマ","prefecture_code":35},"0025":{"zip_code":"7580025","prefecture":"山口県","prefecture_kana":"ヤマグチケン","city":"萩市","city_kana":"ハギシ","town":"土原","town_kana":"ヒジワラ","prefecture_code":35},"0002":{"zip_code":"7580002","prefecture":"山口県","prefecture_kana":"ヤマグチケン","city":"萩市","city_kana":"ハギシ","town":"櫃島","town_kana":"ヒツシマ","prefecture_code":35},"0074":{"zip_code":"7580074","prefecture":"山口県","prefecture_kana":"ヤマグチケン","city":"萩市","city_kana":"ハギシ","town":"平安古町","town_kana":"ヒヤコマチ","prefecture_code":35},"0211":{"zip_code":"7580211","prefecture":"山口県","prefecture_kana":"ヤマグチケン","city":"萩市","city_kana":"ハギシ","town":"福井上","town_kana":"フクイカミ","prefecture_code":35},"0212":{"zip_code":"7580212","prefecture":"山口県","prefecture_kana":"ヤマグチケン","city":"萩市","city_kana":"ハギシ","town":"福井下","town_kana":"フクイシモ","prefecture_code":35},"0056":{"zip_code":"7580056","prefecture":"山口県","prefecture_kana":"ヤマグチケン","city":"萩市","city_kana":"ハギシ","town":"古魚店町","town_kana":"フルウオノタナマチ","prefecture_code":35},"0026":{"zip_code":"7580026","prefecture":"山口県","prefecture_kana":"ヤマグチケン","city":"萩市","city_kana":"ハギシ","town":"古萩町","town_kana":"フルハギマチ","prefecture_code":35},"0057":{"zip_code":"7580057","prefecture":"山口県","prefecture_kana":"ヤマグチケン","city":"萩市","city_kana":"ハギシ","town":"堀内","town_kana":"ホリウチ","prefecture_code":35},"0701":{"zip_code":"7580701","prefecture":"山口県","prefecture_kana":"ヤマグチケン","city":"萩市","city_kana":"ハギシ","town":"見島","town_kana":"ミシマ","prefecture_code":35},"0076":{"zip_code":"7580076","prefecture":"山口県","prefecture_kana":"ヤマグチケン","city":"萩市","city_kana":"ハギシ","town":"南片河町","town_kana":"ミナミカタカワマチ","prefecture_code":35},"0077":{"zip_code":"7580077","prefecture":"山口県","prefecture_kana":"ヤマグチケン","city":"萩市","city_kana":"ハギシ","town":"南古萩町","town_kana":"ミナミフルハギマチ","prefecture_code":35},"0063":{"zip_code":"7580063","prefecture":"山口県","prefecture_kana":"ヤマグチケン","city":"萩市","city_kana":"ハギシ","town":"山田","town_kana":"ヤマダ","prefecture_code":35},"0027":{"zip_code":"7580027","prefecture":"山口県","prefecture_kana":"ヤマグチケン","city":"萩市","city_kana":"ハギシ","town":"吉田町","town_kana":"ヨシダチョウ","prefecture_code":35},"0613":{"zip_code":"7580613","prefecture":"山口県","prefecture_kana":"ヤマグチケン","city":"阿武郡阿武町","city_kana":"アブグンアブチョウ","town":"宇生賀","town_kana":"ウブカ","prefecture_code":35},"0612":{"zip_code":"7580612","prefecture":"山口県","prefecture_kana":"ヤマグチケン","city":"阿武郡阿武町","city_kana":"アブグンアブチョウ","town":"福田上","town_kana":"フクダカミ","prefecture_code":35},"0611":{"zip_code":"7580611","prefecture":"山口県","prefecture_kana":"ヤマグチケン","city":"阿武郡阿武町","city_kana":"アブグンアブチョウ","town":"福田下","town_kana":"フクダシモ","prefecture_code":35}}