{"6614":{"zip_code":"7596614","prefecture":"山口県","prefecture_kana":"ヤマグチケン","city":"下関市","city_kana":"シモノセキシ","town":"梶栗町","town_kana":"カジクリチョウ","prefecture_code":35},"6602":{"zip_code":"7596602","prefecture":"山口県","prefecture_kana":"ヤマグチケン","city":"下関市","city_kana":"シモノセキシ","town":"蒲生野","town_kana":"カモウノ","prefecture_code":35},"6613":{"zip_code":"7596613","prefecture":"山口県","prefecture_kana":"ヤマグチケン","city":"下関市","city_kana":"シモノセキシ","town":"富任町","town_kana":"トミトウチョウ","prefecture_code":35},"6314":{"zip_code":"7596314","prefecture":"山口県","prefecture_kana":"ヤマグチケン","city":"下関市","city_kana":"シモノセキシ","town":"豊浦町厚母郷","town_kana":"トヨウラチョウアツモゴウ","prefecture_code":35},"6303":{"zip_code":"7596303","prefecture":"山口県","prefecture_kana":"ヤマグチケン","city":"下関市","city_kana":"シモノセキシ","town":"豊浦町宇賀","town_kana":"トヨウラチョウウカ","prefecture_code":35},"6301":{"zip_code":"7596301","prefecture":"山口県","prefecture_kana":"ヤマグチケン","city":"下関市","city_kana":"シモノセキシ","town":"豊浦町川棚","town_kana":"トヨウラチョウカワタナ","prefecture_code":35},"6312":{"zip_code":"7596312","prefecture":"山口県","prefecture_kana":"ヤマグチケン","city":"下関市","city_kana":"シモノセキシ","town":"豊浦町黒井","town_kana":"トヨウラチョウクロイ","prefecture_code":35},"6302":{"zip_code":"7596302","prefecture":"山口県","prefecture_kana":"ヤマグチケン","city":"下関市","city_kana":"シモノセキシ","town":"豊浦町小串","town_kana":"トヨウラチョウコグシ","prefecture_code":35},"6313":[{"zip_code":"7596313","prefecture":"山口県","prefecture_kana":"ヤマグチケン","city":"下関市","city_kana":"シモノセキシ","town":"豊浦町豊洋台","town_kana":"トヨウラチョウホウヨウダイ","prefecture_code":35},{"zip_code":"7596313","prefecture":"山口県","prefecture_kana":"ヤマグチケン","city":"下関市","city_kana":"シモノセキシ","town":"豊浦町豊洋台新町","town_kana":"トヨウラチョウホウヨウダイシンマチ","prefecture_code":35}],"6315":{"zip_code":"7596315","prefecture":"山口県","prefecture_kana":"ヤマグチケン","city":"下関市","city_kana":"シモノセキシ","town":"豊浦町室津上","town_kana":"トヨウラチョウムロツカミ","prefecture_code":35},"6316":{"zip_code":"7596316","prefecture":"山口県","prefecture_kana":"ヤマグチケン","city":"下関市","city_kana":"シモノセキシ","town":"豊浦町室津下","town_kana":"トヨウラチョウムロツシモ","prefecture_code":35},"6311":{"zip_code":"7596311","prefecture":"山口県","prefecture_kana":"ヤマグチケン","city":"下関市","city_kana":"シモノセキシ","town":"豊浦町吉永","town_kana":"トヨウラチョウヨシナガ","prefecture_code":35},"6317":{"zip_code":"7596317","prefecture":"山口県","prefecture_kana":"ヤマグチケン","city":"下関市","city_kana":"シモノセキシ","town":"豊浦町涌田後地","town_kana":"トヨウラチョウワイタウシロジ","prefecture_code":35},"6534":{"zip_code":"7596534","prefecture":"山口県","prefecture_kana":"ヤマグチケン","city":"下関市","city_kana":"シモノセキシ","town":"永田郷","town_kana":"ナガタゴウ","prefecture_code":35},"6533":{"zip_code":"7596533","prefecture":"山口県","prefecture_kana":"ヤマグチケン","city":"下関市","city_kana":"シモノセキシ","town":"永田本町","town_kana":"ナガタホンマチ","prefecture_code":35},"6601":{"zip_code":"7596601","prefecture":"山口県","prefecture_kana":"ヤマグチケン","city":"下関市","city_kana":"シモノセキシ","town":"福江","town_kana":"フクエ","prefecture_code":35},"6542":{"zip_code":"7596542","prefecture":"山口県","prefecture_kana":"ヤマグチケン","city":"下関市","city_kana":"シモノセキシ","town":"蓋井島","town_kana":"フタオイジマ","prefecture_code":35},"5241":{"zip_code":"7595241","prefecture":"山口県","prefecture_kana":"ヤマグチケン","city":"下関市","city_kana":"シモノセキシ","town":"豊北町阿川","town_kana":"ホウホクチョウアガワ","prefecture_code":35},"5101":{"zip_code":"7595101","prefecture":"山口県","prefecture_kana":"ヤマグチケン","city":"下関市","city_kana":"シモノセキシ","town":"豊北町粟野","town_kana":"ホウホクチョウアワノ","prefecture_code":35},"5331":{"zip_code":"7595331","prefecture":"山口県","prefecture_kana":"ヤマグチケン","city":"下関市","city_kana":"シモノセキシ","town":"豊北町神田","town_kana":"ホウホクチョウカンダ","prefecture_code":35},"5513":[{"zip_code":"7595513","prefecture":"山口県","prefecture_kana":"ヤマグチケン","city":"下関市","city_kana":"シモノセキシ","town":"豊北町神田上","town_kana":"ホウホクチョウカンダカミ","prefecture_code":35},{"zip_code":"7595513","prefecture":"山口県","prefecture_kana":"ヤマグチケン","city":"下関市","city_kana":"シモノセキシ","town":"豊北町北宇賀","town_kana":"ホウホクチョウキタウカ","prefecture_code":35}],"6121":{"zip_code":"7596121","prefecture":"山口県","prefecture_kana":"ヤマグチケン","city":"下関市","city_kana":"シモノセキシ","town":"豊北町神田上","town_kana":"ホウホクチョウカンダカミ","prefecture_code":35},"5511":{"zip_code":"7595511","prefecture":"山口県","prefecture_kana":"ヤマグチケン","city":"下関市","city_kana":"シモノセキシ","town":"豊北町滝部","town_kana":"ホウホクチョウタキベ","prefecture_code":35},"5512":{"zip_code":"7595512","prefecture":"山口県","prefecture_kana":"ヤマグチケン","city":"下関市","city_kana":"シモノセキシ","town":"豊北町田耕","town_kana":"ホウホクチョウタスキ","prefecture_code":35},"5332":{"zip_code":"7595332","prefecture":"山口県","prefecture_kana":"ヤマグチケン","city":"下関市","city_kana":"シモノセキシ","town":"豊北町角島","town_kana":"ホウホクチョウツノシマ","prefecture_code":35},"6122":{"zip_code":"7596122","prefecture":"山口県","prefecture_kana":"ヤマグチケン","city":"下関市","city_kana":"シモノセキシ","town":"豊北町矢玉","town_kana":"ホウホクチョウヤタマ","prefecture_code":35},"6612":{"zip_code":"7596612","prefecture":"山口県","prefecture_kana":"ヤマグチケン","city":"下関市","city_kana":"シモノセキシ","town":"安岡駅前","town_kana":"ヤスオカエキマエ","prefecture_code":35},"6603":{"zip_code":"7596603","prefecture":"山口県","prefecture_kana":"ヤマグチケン","city":"下関市","city_kana":"シモノセキシ","town":"安岡町","town_kana":"ヤスオカチョウ","prefecture_code":35},"6611":{"zip_code":"7596611","prefecture":"山口県","prefecture_kana":"ヤマグチケン","city":"下関市","city_kana":"シモノセキシ","town":"安岡本町","town_kana":"ヤスオカホンマチ","prefecture_code":35},"6604":{"zip_code":"7596604","prefecture":"山口県","prefecture_kana":"ヤマグチケン","city":"下関市","city_kana":"シモノセキシ","town":"横野町","town_kana":"ヨコノチョウ","prefecture_code":35},"6524":{"zip_code":"7596524","prefecture":"山口県","prefecture_kana":"ヤマグチケン","city":"下関市","city_kana":"シモノセキシ","town":"吉見上","town_kana":"ヨシミカミ","prefecture_code":35},"6523":{"zip_code":"7596523","prefecture":"山口県","prefecture_kana":"ヤマグチケン","city":"下関市","city_kana":"シモノセキシ","town":"吉見下","town_kana":"ヨシミシモ","prefecture_code":35},"6521":{"zip_code":"7596521","prefecture":"山口県","prefecture_kana":"ヤマグチケン","city":"下関市","city_kana":"シモノセキシ","town":"吉見古宿町","town_kana":"ヨシミコジュクチョウ","prefecture_code":35},"6525":{"zip_code":"7596525","prefecture":"山口県","prefecture_kana":"ヤマグチケン","city":"下関市","city_kana":"シモノセキシ","town":"吉見里町","town_kana":"ヨシミサトマチ","prefecture_code":35},"6532":{"zip_code":"7596532","prefecture":"山口県","prefecture_kana":"ヤマグチケン","city":"下関市","city_kana":"シモノセキシ","town":"吉見新町","town_kana":"ヨシミシンマチ","prefecture_code":35},"6531":{"zip_code":"7596531","prefecture":"山口県","prefecture_kana":"ヤマグチケン","city":"下関市","city_kana":"シモノセキシ","town":"吉見本町","town_kana":"ヨシミホンマチ","prefecture_code":35},"6522":{"zip_code":"7596522","prefecture":"山口県","prefecture_kana":"ヤマグチケン","city":"下関市","city_kana":"シモノセキシ","town":"吉見竜王町","town_kana":"ヨシミリュウオウチョウ","prefecture_code":35},"6541":{"zip_code":"7596541","prefecture":"山口県","prefecture_kana":"ヤマグチケン","city":"下関市","city_kana":"シモノセキシ","town":"吉母","town_kana":"ヨシモ","prefecture_code":35},"0131":{"zip_code":"7590131","prefecture":"山口県","prefecture_kana":"ヤマグチケン","city":"宇部市","city_kana":"ウベシ","town":"荒瀬","town_kana":"アラセ","prefecture_code":35},"0135":{"zip_code":"7590135","prefecture":"山口県","prefecture_kana":"ヤマグチケン","city":"宇部市","city_kana":"ウベシ","town":"瓜生野","town_kana":"ウリュウノ","prefecture_code":35},"0202":{"zip_code":"7590202","prefecture":"山口県","prefecture_kana":"ヤマグチケン","city":"宇部市","city_kana":"ウベシ","town":"沖ノ旦","town_kana":"オキノダン","prefecture_code":35},"0136":{"zip_code":"7590136","prefecture":"山口県","prefecture_kana":"ヤマグチケン","city":"宇部市","city_kana":"ウベシ","town":"木田","town_kana":"キダ","prefecture_code":35},"0207":{"zip_code":"7590207","prefecture":"山口県","prefecture_kana":"ヤマグチケン","city":"宇部市","city_kana":"ウベシ","town":"際波","town_kana":"キワナミ","prefecture_code":35},"0133":{"zip_code":"7590133","prefecture":"山口県","prefecture_kana":"ヤマグチケン","city":"宇部市","city_kana":"ウベシ","town":"車地","town_kana":"クルマジ","prefecture_code":35},"0209":{"zip_code":"7590209","prefecture":"山口県","prefecture_kana":"ヤマグチケン","city":"宇部市","city_kana":"ウベシ","town":"厚南北","town_kana":"コウナンキタ","prefecture_code":35},"0123":{"zip_code":"7590123","prefecture":"山口県","prefecture_kana":"ヤマグチケン","city":"宇部市","city_kana":"ウベシ","town":"末信","town_kana":"スエノブ","prefecture_code":35},"0121":{"zip_code":"7590121","prefecture":"山口県","prefecture_kana":"ヤマグチケン","city":"宇部市","city_kana":"ウベシ","town":"棚井","town_kana":"タナイ","prefecture_code":35},"0204":{"zip_code":"7590204","prefecture":"山口県","prefecture_kana":"ヤマグチケン","city":"宇部市","city_kana":"ウベシ","town":"妻崎開作","town_kana":"ツマザキガイサク","prefecture_code":35},"0203":{"zip_code":"7590203","prefecture":"山口県","prefecture_kana":"ヤマグチケン","city":"宇部市","city_kana":"ウベシ","town":"中野開作","town_kana":"ナカノガイサク","prefecture_code":35},"0211":{"zip_code":"7590211","prefecture":"山口県","prefecture_kana":"ヤマグチケン","city":"宇部市","city_kana":"ウベシ","town":"西宇部北","town_kana":"ニシウベキタ","prefecture_code":35},"0208":{"zip_code":"7590208","prefecture":"山口県","prefecture_kana":"ヤマグチケン","city":"宇部市","city_kana":"ウベシ","town":"西宇部南","town_kana":"ニシウベミナミ","prefecture_code":35},"0205":{"zip_code":"7590205","prefecture":"山口県","prefecture_kana":"ヤマグチケン","city":"宇部市","city_kana":"ウベシ","town":"西沖の山","town_kana":"ニシオキノヤマ","prefecture_code":35},"0206":{"zip_code":"7590206","prefecture":"山口県","prefecture_kana":"ヤマグチケン","city":"宇部市","city_kana":"ウベシ","town":"東須恵","town_kana":"ヒガシスエ","prefecture_code":35},"0124":{"zip_code":"7590124","prefecture":"山口県","prefecture_kana":"ヤマグチケン","city":"宇部市","city_kana":"ウベシ","town":"広瀬","town_kana":"ヒロセ","prefecture_code":35},"0132":{"zip_code":"7590132","prefecture":"山口県","prefecture_kana":"ヤマグチケン","city":"宇部市","city_kana":"ウベシ","town":"山中","town_kana":"ヤマナカ","prefecture_code":35},"0201":{"zip_code":"7590201","prefecture":"山口県","prefecture_kana":"ヤマグチケン","city":"宇部市","city_kana":"ウベシ","town":"山の手町","town_kana":"ヤマノテチョウ","prefecture_code":35},"0122":{"zip_code":"7590122","prefecture":"山口県","prefecture_kana":"ヤマグチケン","city":"宇部市","city_kana":"ウベシ","town":"吉見","town_kana":"ヨシミ","prefecture_code":35},"0134":{"zip_code":"7590134","prefecture":"山口県","prefecture_kana":"ヤマグチケン","city":"宇部市","city_kana":"ウベシ","town":"善和","town_kana":"ヨシワ","prefecture_code":35},"1342":{"zip_code":"7591342","prefecture":"山口県","prefecture_kana":"ヤマグチケン","city":"山口市","city_kana":"ヤマグチシ","town":"阿東生雲中","town_kana":"アトウイクモナカ","prefecture_code":35},"1341":{"zip_code":"7591341","prefecture":"山口県","prefecture_kana":"ヤマグチケン","city":"山口市","city_kana":"ヤマグチシ","town":"阿東生雲西分","town_kana":"アトウイクモニシブン","prefecture_code":35},"1231":{"zip_code":"7591231","prefecture":"山口県","prefecture_kana":"ヤマグチケン","city":"山口市","city_kana":"ヤマグチシ","town":"阿東生雲東分","town_kana":"アトウイクモヒガシブン","prefecture_code":35},"1601":{"zip_code":"7591601","prefecture":"山口県","prefecture_kana":"ヤマグチケン","city":"山口市","city_kana":"ヤマグチシ","town":"阿東嘉年上","town_kana":"アトウカネカミ","prefecture_code":35},"1602":{"zip_code":"7591602","prefecture":"山口県","prefecture_kana":"ヤマグチケン","city":"山口市","city_kana":"ヤマグチシ","town":"阿東嘉年下","town_kana":"アトウカネシモ","prefecture_code":35},"1232":{"zip_code":"7591232","prefecture":"山口県","prefecture_kana":"ヤマグチケン","city":"山口市","city_kana":"ヤマグチシ","town":"阿東篠目","town_kana":"アトウシノメ","prefecture_code":35},"1421":{"zip_code":"7591421","prefecture":"山口県","prefecture_kana":"ヤマグチケン","city":"山口市","city_kana":"ヤマグチシ","town":"阿東地福上","town_kana":"アトウジフクカミ","prefecture_code":35},"1422":{"zip_code":"7591422","prefecture":"山口県","prefecture_kana":"ヤマグチケン","city":"山口市","city_kana":"ヤマグチシ","town":"阿東地福下","town_kana":"アトウジフクシモ","prefecture_code":35},"1343":{"zip_code":"7591343","prefecture":"山口県","prefecture_kana":"ヤマグチケン","city":"山口市","city_kana":"ヤマグチシ","town":"阿東蔵目喜","town_kana":"アトウゾウメキ","prefecture_code":35},"1511":{"zip_code":"7591511","prefecture":"山口県","prefecture_kana":"ヤマグチケン","city":"山口市","city_kana":"ヤマグチシ","town":"阿東徳佐上","town_kana":"アトウトクサカミ","prefecture_code":35},"1513":{"zip_code":"7591513","prefecture":"山口県","prefecture_kana":"ヤマグチケン","city":"山口市","city_kana":"ヤマグチシ","town":"阿東徳佐下","town_kana":"アトウトクサシモ","prefecture_code":35},"1512":{"zip_code":"7591512","prefecture":"山口県","prefecture_kana":"ヤマグチケン","city":"山口市","city_kana":"ヤマグチシ","town":"阿東徳佐中","town_kana":"アトウトクサナカ","prefecture_code":35},"3113":{"zip_code":"7593113","prefecture":"山口県","prefecture_kana":"ヤマグチケン","city":"萩市","city_kana":"ハギシ","town":"江崎","town_kana":"エサキ","prefecture_code":35},"3611":{"zip_code":"7593611","prefecture":"山口県","prefecture_kana":"ヤマグチケン","city":"萩市","city_kana":"ハギシ","town":"大井","town_kana":"オオイ","prefecture_code":35},"3201":{"zip_code":"7593201","prefecture":"山口県","prefecture_kana":"ヤマグチケン","city":"萩市","city_kana":"ハギシ","town":"上小川西分","town_kana":"カミオガワニシブン","prefecture_code":35},"3202":{"zip_code":"7593202","prefecture":"山口県","prefecture_kana":"ヤマグチケン","city":"萩市","city_kana":"ハギシ","town":"上小川東分","town_kana":"カミオガワヒガシブン","prefecture_code":35},"3111":{"zip_code":"7593111","prefecture":"山口県","prefecture_kana":"ヤマグチケン","city":"萩市","city_kana":"ハギシ","town":"上田万","town_kana":"カミタマ","prefecture_code":35},"3721":{"zip_code":"7593721","prefecture":"山口県","prefecture_kana":"ヤマグチケン","city":"萩市","city_kana":"ハギシ","town":"三見","town_kana":"サンミ","prefecture_code":35},"3204":{"zip_code":"7593204","prefecture":"山口県","prefecture_kana":"ヤマグチケン","city":"萩市","city_kana":"ハギシ","town":"下小川","town_kana":"シモオガワ","prefecture_code":35},"3112":{"zip_code":"7593112","prefecture":"山口県","prefecture_kana":"ヤマグチケン","city":"萩市","city_kana":"ハギシ","town":"下田万","town_kana":"シモタマ","prefecture_code":35},"3411":{"zip_code":"7593411","prefecture":"山口県","prefecture_kana":"ヤマグチケン","city":"萩市","city_kana":"ハギシ","town":"須佐","town_kana":"スサ","prefecture_code":35},"3303":{"zip_code":"7593303","prefecture":"山口県","prefecture_kana":"ヤマグチケン","city":"萩市","city_kana":"ハギシ","town":"鈴野川","town_kana":"スズノガワ","prefecture_code":35},"3203":{"zip_code":"7593203","prefecture":"山口県","prefecture_kana":"ヤマグチケン","city":"萩市","city_kana":"ハギシ","town":"中小川","town_kana":"ナカオガワ","prefecture_code":35},"3301":{"zip_code":"7593301","prefecture":"山口県","prefecture_kana":"ヤマグチケン","city":"萩市","city_kana":"ハギシ","town":"弥富上","town_kana":"ヤドミカミ","prefecture_code":35},"3302":{"zip_code":"7593302","prefecture":"山口県","prefecture_kana":"ヤマグチケン","city":"萩市","city_kana":"ハギシ","town":"弥富下","town_kana":"ヤドミシモ","prefecture_code":35},"4100":{"zip_code":"7594100","prefecture":"山口県","prefecture_kana":"ヤマグチケン","city":"長門市","city_kana":"ナガトシ","town":"","town_kana":"","prefecture_code":35},"4107":{"zip_code":"7594107","prefecture":"山口県","prefecture_kana":"ヤマグチケン","city":"長門市","city_kana":"ナガトシ","town":"通","town_kana":"カヨイ","prefecture_code":35},"4104":{"zip_code":"7594104","prefecture":"山口県","prefecture_kana":"ヤマグチケン","city":"長門市","city_kana":"ナガトシ","town":"渋木","town_kana":"シブキ","prefecture_code":35},"4106":{"zip_code":"7594106","prefecture":"山口県","prefecture_kana":"ヤマグチケン","city":"長門市","city_kana":"ナガトシ","town":"仙崎","town_kana":"センザキ","prefecture_code":35},"4211":{"zip_code":"7594211","prefecture":"山口県","prefecture_kana":"ヤマグチケン","city":"長門市","city_kana":"ナガトシ","town":"俵山","town_kana":"タワラヤマ","prefecture_code":35},"4102":{"zip_code":"7594102","prefecture":"山口県","prefecture_kana":"ヤマグチケン","city":"長門市","city_kana":"ナガトシ","town":"西深川","town_kana":"ニシフカワ","prefecture_code":35},"4101":{"zip_code":"7594101","prefecture":"山口県","prefecture_kana":"ヤマグチケン","city":"長門市","city_kana":"ナガトシ","town":"東深川","town_kana":"ヒガシフカワ","prefecture_code":35},"4103":{"zip_code":"7594103","prefecture":"山口県","prefecture_kana":"ヤマグチケン","city":"長門市","city_kana":"ナガトシ","town":"深川湯本","town_kana":"フカワユモト","prefecture_code":35},"4401":{"zip_code":"7594401","prefecture":"山口県","prefecture_kana":"ヤマグチケン","city":"長門市","city_kana":"ナガトシ","town":"日置上","town_kana":"ヘキカミ","prefecture_code":35},"4405":{"zip_code":"7594405","prefecture":"山口県","prefecture_kana":"ヤマグチケン","city":"長門市","city_kana":"ナガトシ","town":"日置蔵小田","town_kana":"ヘキクラオダ","prefecture_code":35},"4403":{"zip_code":"7594403","prefecture":"山口県","prefecture_kana":"ヤマグチケン","city":"長門市","city_kana":"ナガトシ","town":"日置下","town_kana":"ヘキシモ","prefecture_code":35},"4402":{"zip_code":"7594402","prefecture":"山口県","prefecture_kana":"ヤマグチケン","city":"長門市","city_kana":"ナガトシ","town":"日置中","town_kana":"ヘキナカ","prefecture_code":35},"4404":{"zip_code":"7594404","prefecture":"山口県","prefecture_kana":"ヤマグチケン","city":"長門市","city_kana":"ナガトシ","town":"日置野田","town_kana":"ヘキノダ","prefecture_code":35},"4105":{"zip_code":"7594105","prefecture":"山口県","prefecture_kana":"ヤマグチケン","city":"長門市","city_kana":"ナガトシ","town":"真木","town_kana":"マキ","prefecture_code":35},"3801":{"zip_code":"7593801","prefecture":"山口県","prefecture_kana":"ヤマグチケン","city":"長門市","city_kana":"ナガトシ","town":"三隅上","town_kana":"ミスミカミ","prefecture_code":35},"3803":{"zip_code":"7593803","prefecture":"山口県","prefecture_kana":"ヤマグチケン","city":"長門市","city_kana":"ナガトシ","town":"三隅下","town_kana":"ミスミシモ","prefecture_code":35},"3802":{"zip_code":"7593802","prefecture":"山口県","prefecture_kana":"ヤマグチケン","city":"長門市","city_kana":"ナガトシ","town":"三隅中","town_kana":"ミスミナカ","prefecture_code":35},"4505":{"zip_code":"7594505","prefecture":"山口県","prefecture_kana":"ヤマグチケン","city":"長門市","city_kana":"ナガトシ","town":"油谷伊上","town_kana":"ユヤイガミ","prefecture_code":35},"4711":{"zip_code":"7594711","prefecture":"山口県","prefecture_kana":"ヤマグチケン","city":"長門市","city_kana":"ナガトシ","town":"油谷後畑","town_kana":"ユヤウシロバタ","prefecture_code":35},"4713":{"zip_code":"7594713","prefecture":"山口県","prefecture_kana":"ヤマグチケン","city":"長門市","city_kana":"ナガトシ","town":"油谷角山","town_kana":"ユヤカドヤマ","prefecture_code":35},"4621":{"zip_code":"7594621","prefecture":"山口県","prefecture_kana":"ヤマグチケン","city":"長門市","city_kana":"ナガトシ","town":"油谷川尻","town_kana":"ユヤカワシリ","prefecture_code":35},"4504":{"zip_code":"7594504","prefecture":"山口県","prefecture_kana":"ヤマグチケン","city":"長門市","city_kana":"ナガトシ","town":"油谷河原","town_kana":"ユヤカワラ","prefecture_code":35},"4501":{"zip_code":"7594501","prefecture":"山口県","prefecture_kana":"ヤマグチケン","city":"長門市","city_kana":"ナガトシ","town":"油谷蔵小田","town_kana":"ユヤクラオダ","prefecture_code":35},"4503":{"zip_code":"7594503","prefecture":"山口県","prefecture_kana":"ヤマグチケン","city":"長門市","city_kana":"ナガトシ","town":"油谷新別名","town_kana":"ユヤシンベツミョウ","prefecture_code":35},"4712":{"zip_code":"7594712","prefecture":"山口県","prefecture_kana":"ヤマグチケン","city":"長門市","city_kana":"ナガトシ","town":"油谷津黄","town_kana":"ユヤツオウ","prefecture_code":35},"4502":{"zip_code":"7594502","prefecture":"山口県","prefecture_kana":"ヤマグチケン","city":"長門市","city_kana":"ナガトシ","town":"油谷久富","town_kana":"ユヤヒサドミ","prefecture_code":35},"4622":{"zip_code":"7594622","prefecture":"山口県","prefecture_kana":"ヤマグチケン","city":"長門市","city_kana":"ナガトシ","town":"油谷向津具上","town_kana":"ユヤムカツクカミ","prefecture_code":35},"4623":[{"zip_code":"7594623","prefecture":"山口県","prefecture_kana":"ヤマグチケン","city":"長門市","city_kana":"ナガトシ","town":"油谷向津具下","town_kana":"ユヤムカツクシモ","prefecture_code":35},{"zip_code":"7594623","prefecture":"山口県","prefecture_kana":"ヤマグチケン","city":"長門市","city_kana":"ナガトシ","town":"油谷向津具下大浦","town_kana":"ユヤムカツクシモオオウラ","prefecture_code":35},{"zip_code":"7594623","prefecture":"山口県","prefecture_kana":"ヤマグチケン","city":"長門市","city_kana":"ナガトシ","town":"油谷向津具下久津","town_kana":"ユヤムカツクシモクヅ","prefecture_code":35}],"2200":{"zip_code":"7592200","prefecture":"山口県","prefecture_kana":"ヤマグチケン","city":"美祢市","city_kana":"ミネシ","town":"","town_kana":"","prefecture_code":35},"2222":{"zip_code":"7592222","prefecture":"山口県","prefecture_kana":"ヤマグチケン","city":"美祢市","city_kana":"ミネシ","town":"伊佐町伊佐","town_kana":"イサチョウイサ","prefecture_code":35},"2223":{"zip_code":"7592223","prefecture":"山口県","prefecture_kana":"ヤマグチケン","city":"美祢市","city_kana":"ミネシ","town":"伊佐町奥万倉","town_kana":"イサチョウオクマグラ","prefecture_code":35},"2221":{"zip_code":"7592221","prefecture":"山口県","prefecture_kana":"ヤマグチケン","city":"美祢市","city_kana":"ミネシ","town":"伊佐町河原","town_kana":"イサチョウカワラ","prefecture_code":35},"2131":{"zip_code":"7592131","prefecture":"山口県","prefecture_kana":"ヤマグチケン","city":"美祢市","city_kana":"ミネシ","town":"伊佐町堀越","town_kana":"イサチョウホリコシ","prefecture_code":35},"2214":{"zip_code":"7592214","prefecture":"山口県","prefecture_kana":"ヤマグチケン","city":"美祢市","city_kana":"ミネシ","town":"大嶺町奥分","town_kana":"オオミネチョウオクブン","prefecture_code":35},"2212":{"zip_code":"7592212","prefecture":"山口県","prefecture_kana":"ヤマグチケン","city":"美祢市","city_kana":"ミネシ","town":"大嶺町東分","town_kana":"オオミネチョウヒガシブン","prefecture_code":35},"2213":{"zip_code":"7592213","prefecture":"山口県","prefecture_kana":"ヤマグチケン","city":"美祢市","city_kana":"ミネシ","town":"大嶺町西分","town_kana":"オオミネチョウニシブン","prefecture_code":35},"2211":{"zip_code":"7592211","prefecture":"山口県","prefecture_kana":"ヤマグチケン","city":"美祢市","city_kana":"ミネシ","town":"大嶺町北分","town_kana":"オオミネチョウキタブン","prefecture_code":35},"2301":[{"zip_code":"7592301","prefecture":"山口県","prefecture_kana":"ヤマグチケン","city":"美祢市","city_kana":"ミネシ","town":"於福町上駅前","town_kana":"オフクチョウカミエキマエ","prefecture_code":35},{"zip_code":"7592301","prefecture":"山口県","prefecture_kana":"ヤマグチケン","city":"美祢市","city_kana":"ミネシ","town":"於福町上岡田","town_kana":"オフクチョウカミオカダ","prefecture_code":35},{"zip_code":"7592301","prefecture":"山口県","prefecture_kana":"ヤマグチケン","city":"美祢市","city_kana":"ミネシ","town":"於福町上上田代","town_kana":"オフクチョウカミカミタシロ","prefecture_code":35},{"zip_code":"7592301","prefecture":"山口県","prefecture_kana":"ヤマグチケン","city":"美祢市","city_kana":"ミネシ","town":"於福町上栗ケ原","town_kana":"オフクチョウカミクリガハラ","prefecture_code":35},{"zip_code":"7592301","prefecture":"山口県","prefecture_kana":"ヤマグチケン","city":"美祢市","city_kana":"ミネシ","town":"於福町上下田代","town_kana":"オフクチョウカミシモタシロ","prefecture_code":35},{"zip_code":"7592301","prefecture":"山口県","prefecture_kana":"ヤマグチケン","city":"美祢市","city_kana":"ミネシ","town":"於福町上神柳","town_kana":"オフクチョウカミシンリュウ","prefecture_code":35},{"zip_code":"7592301","prefecture":"山口県","prefecture_kana":"ヤマグチケン","city":"美祢市","city_kana":"ミネシ","town":"於福町上大明","town_kana":"オフクチョウカミタイメイ","prefecture_code":35},{"zip_code":"7592301","prefecture":"山口県","prefecture_kana":"ヤマグチケン","city":"美祢市","city_kana":"ミネシ","town":"於福町上立石","town_kana":"オフクチョウカミタテイシ","prefecture_code":35},{"zip_code":"7592301","prefecture":"山口県","prefecture_kana":"ヤマグチケン","city":"美祢市","city_kana":"ミネシ","town":"於福町上西寺","town_kana":"オフクチョウカミニシデラ","prefecture_code":35},{"zip_code":"7592301","prefecture":"山口県","prefecture_kana":"ヤマグチケン","city":"美祢市","city_kana":"ミネシ","town":"於福町上平野","town_kana":"オフクチョウカミヒラノ","prefecture_code":35},{"zip_code":"7592301","prefecture":"山口県","prefecture_kana":"ヤマグチケン","city":"美祢市","city_kana":"ミネシ","town":"於福町上古屋","town_kana":"オフクチョウカミフルヤ","prefecture_code":35},{"zip_code":"7592301","prefecture":"山口県","prefecture_kana":"ヤマグチケン","city":"美祢市","city_kana":"ミネシ","town":"於福町上宗済","town_kana":"オフクチョウカミムネズミ","prefecture_code":35},{"zip_code":"7592301","prefecture":"山口県","prefecture_kana":"ヤマグチケン","city":"美祢市","city_kana":"ミネシ","town":"於福町上横道","town_kana":"オフクチョウカミヨコミチ","prefecture_code":35},{"zip_code":"7592301","prefecture":"山口県","prefecture_kana":"ヤマグチケン","city":"美祢市","city_kana":"ミネシ","town":"於福町上竜現地","town_kana":"オフクチョウカミリュウゲンジ","prefecture_code":35}],"2302":[{"zip_code":"7592302","prefecture":"山口県","prefecture_kana":"ヤマグチケン","city":"美祢市","city_kana":"ミネシ","town":"於福町下入水","town_kana":"オフクチョウシモイリミズ","prefecture_code":35},{"zip_code":"7592302","prefecture":"山口県","prefecture_kana":"ヤマグチケン","city":"美祢市","city_kana":"ミネシ","town":"於福町下榎田","town_kana":"オフクチョウシモエノキダ","prefecture_code":35},{"zip_code":"7592302","prefecture":"山口県","prefecture_kana":"ヤマグチケン","city":"美祢市","city_kana":"ミネシ","town":"於福町下金山","town_kana":"オフクチョウシモカネヤマ","prefecture_code":35},{"zip_code":"7592302","prefecture":"山口県","prefecture_kana":"ヤマグチケン","city":"美祢市","city_kana":"ミネシ","town":"於福町下小杉","town_kana":"オフクチョウシモコスギ","prefecture_code":35},{"zip_code":"7592302","prefecture":"山口県","prefecture_kana":"ヤマグチケン","city":"美祢市","city_kana":"ミネシ","town":"於福町下砂地","town_kana":"オフクチョウシモスナジ","prefecture_code":35},{"zip_code":"7592302","prefecture":"山口県","prefecture_kana":"ヤマグチケン","city":"美祢市","city_kana":"ミネシ","town":"於福町下台","town_kana":"オフクチョウシモダイ","prefecture_code":35},{"zip_code":"7592302","prefecture":"山口県","prefecture_kana":"ヤマグチケン","city":"美祢市","city_kana":"ミネシ","town":"於福町下西畑","town_kana":"オフクチョウシモニシバタ","prefecture_code":35},{"zip_code":"7592302","prefecture":"山口県","prefecture_kana":"ヤマグチケン","city":"美祢市","city_kana":"ミネシ","town":"於福町下萩原","town_kana":"オフクチョウシモハギワラ","prefecture_code":35},{"zip_code":"7592302","prefecture":"山口県","prefecture_kana":"ヤマグチケン","city":"美祢市","city_kana":"ミネシ","town":"於福町下東中村","town_kana":"オフクチョウシモヒガシナカムラ","prefecture_code":35},{"zip_code":"7592302","prefecture":"山口県","prefecture_kana":"ヤマグチケン","city":"美祢市","city_kana":"ミネシ","town":"於福町下平国木","town_kana":"オフクチョウシモヒラクニギ","prefecture_code":35},{"zip_code":"7592302","prefecture":"山口県","prefecture_kana":"ヤマグチケン","city":"美祢市","city_kana":"ミネシ","town":"於福町下緑ケ丘","town_kana":"オフクチョウシモミドリガオカ","prefecture_code":35},{"zip_code":"7592302","prefecture":"山口県","prefecture_kana":"ヤマグチケン","city":"美祢市","city_kana":"ミネシ","town":"於福町下宮の前","town_kana":"オフクチョウシモミヤノマエ","prefecture_code":35}],"2152":{"zip_code":"7592152","prefecture":"山口県","prefecture_kana":"ヤマグチケン","city":"美祢市","city_kana":"ミネシ","town":"西厚保町原","town_kana":"ニシアツチョウハラ","prefecture_code":35},"2151":{"zip_code":"7592151","prefecture":"山口県","prefecture_kana":"ヤマグチケン","city":"美祢市","city_kana":"ミネシ","town":"西厚保町本郷","town_kana":"ニシアツチョウホンゴウ","prefecture_code":35},"2142":{"zip_code":"7592142","prefecture":"山口県","prefecture_kana":"ヤマグチケン","city":"美祢市","city_kana":"ミネシ","town":"東厚保町川東","town_kana":"ヒガシアツチョウカワヒガシ","prefecture_code":35},"2141":{"zip_code":"7592141","prefecture":"山口県","prefecture_kana":"ヤマグチケン","city":"美祢市","city_kana":"ミネシ","town":"東厚保町山中","town_kana":"ヒガシアツチョウヤマナカ","prefecture_code":35},"3600":{"zip_code":"7593600","prefecture":"山口県","prefecture_kana":"ヤマグチケン","city":"阿武郡阿武町","city_kana":"アブグンアブチョウ","town":"","town_kana":"","prefecture_code":35},"3501":{"zip_code":"7593501","prefecture":"山口県","prefecture_kana":"ヤマグチケン","city":"阿武郡阿武町","city_kana":"アブグンアブチョウ","town":"宇田","town_kana":"ウタ","prefecture_code":35},"3621":{"zip_code":"7593621","prefecture":"山口県","prefecture_kana":"ヤマグチケン","city":"阿武郡阿武町","city_kana":"アブグンアブチョウ","town":"木与","town_kana":"キヨ","prefecture_code":35},"3502":{"zip_code":"7593502","prefecture":"山口県","prefecture_kana":"ヤマグチケン","city":"阿武郡阿武町","city_kana":"アブグンアブチョウ","town":"惣郷","town_kana":"ソウゴウ","prefecture_code":35},"3622":{"zip_code":"7593622","prefecture":"山口県","prefecture_kana":"ヤマグチケン","city":"阿武郡阿武町","city_kana":"アブグンアブチョウ","town":"奈古","town_kana":"ナゴ","prefecture_code":35}}