{"0000":{"zip_code":"7600000","prefecture":"香川県","prefecture_kana":"カガワケン","city":"高松市","city_kana":"タカマツシ","town":"","town_kana":"","prefecture_code":37},"0002":{"zip_code":"7600002","prefecture":"香川県","prefecture_kana":"カガワケン","city":"高松市","city_kana":"タカマツシ","town":"茜町","town_kana":"アカネチョウ","prefecture_code":37},"0064":{"zip_code":"7600064","prefecture":"香川県","prefecture_kana":"カガワケン","city":"高松市","city_kana":"タカマツシ","town":"朝日新町","town_kana":"アサヒシンマチ","prefecture_code":37},"0065":{"zip_code":"7600065","prefecture":"香川県","prefecture_kana":"カガワケン","city":"高松市","city_kana":"タカマツシ","town":"朝日町","town_kana":"アサヒマチ","prefecture_code":37},"0038":{"zip_code":"7600038","prefecture":"香川県","prefecture_kana":"カガワケン","city":"高松市","city_kana":"タカマツシ","town":"井口町","town_kana":"イグチマチ","prefecture_code":37},"0078":{"zip_code":"7600078","prefecture":"香川県","prefecture_kana":"カガワケン","city":"高松市","city_kana":"タカマツシ","town":"今里町","town_kana":"イマザトチョウ","prefecture_code":37},"0043":{"zip_code":"7600043","prefecture":"香川県","prefecture_kana":"カガワケン","city":"高松市","city_kana":"タカマツシ","town":"今新町","town_kana":"イマジンマチ","prefecture_code":37},"0034":{"zip_code":"7600034","prefecture":"香川県","prefecture_kana":"カガワケン","city":"高松市","city_kana":"タカマツシ","town":"内町","town_kana":"ウチマチ","prefecture_code":37},"0013":{"zip_code":"7600013","prefecture":"香川県","prefecture_kana":"カガワケン","city":"高松市","city_kana":"タカマツシ","town":"扇町","town_kana":"オウギマチ","prefecture_code":37},"0091":{"zip_code":"7600091","prefecture":"香川県","prefecture_kana":"カガワケン","city":"高松市","city_kana":"タカマツシ","town":"男木町","town_kana":"オギチョウ","prefecture_code":37},"0028":{"zip_code":"7600028","prefecture":"香川県","prefecture_kana":"カガワケン","city":"高松市","city_kana":"タカマツシ","town":"鍛冶屋町","town_kana":"カジヤマチ","prefecture_code":37},"0040":{"zip_code":"7600040","prefecture":"香川県","prefecture_kana":"カガワケン","city":"高松市","city_kana":"タカマツシ","town":"片原町","town_kana":"カタハラマチ","prefecture_code":37},"0077":{"zip_code":"7600077","prefecture":"香川県","prefecture_kana":"カガワケン","city":"高松市","city_kana":"タカマツシ","town":"上福岡町","town_kana":"カミフクオカチョウ","prefecture_code":37},"0050":{"zip_code":"7600050","prefecture":"香川県","prefecture_kana":"カガワケン","city":"高松市","city_kana":"タカマツシ","town":"亀井町","town_kana":"カメイチョウ","prefecture_code":37},"0006":{"zip_code":"7600006","prefecture":"香川県","prefecture_kana":"カガワケン","city":"高松市","city_kana":"タカマツシ","town":"亀岡町","town_kana":"カメオカチョウ","prefecture_code":37},"0052":{"zip_code":"7600052","prefecture":"香川県","prefecture_kana":"カガワケン","city":"高松市","city_kana":"タカマツシ","town":"瓦町","town_kana":"カワラマチ","prefecture_code":37},"0076":{"zip_code":"7600076","prefecture":"香川県","prefecture_kana":"カガワケン","city":"高松市","city_kana":"タカマツシ","town":"観光町","town_kana":"カンコウチョウ","prefecture_code":37},"0055":{"zip_code":"7600055","prefecture":"香川県","prefecture_kana":"カガワケン","city":"高松市","city_kana":"タカマツシ","town":"観光通","town_kana":"カンコウドオリ","prefecture_code":37},"0080":{"zip_code":"7600080","prefecture":"香川県","prefecture_kana":"カガワケン","city":"高松市","city_kana":"タカマツシ","town":"木太町","town_kana":"キタチョウ","prefecture_code":37},"0031":{"zip_code":"7600031","prefecture":"香川県","prefecture_kana":"カガワケン","city":"高松市","city_kana":"タカマツシ","town":"北浜町","town_kana":"キタハマチョウ","prefecture_code":37},"0075":{"zip_code":"7600075","prefecture":"香川県","prefecture_kana":"カガワケン","city":"高松市","city_kana":"タカマツシ","town":"楠上町","town_kana":"クスガミチョウ","prefecture_code":37},"0023":{"zip_code":"7600023","prefecture":"香川県","prefecture_kana":"カガワケン","city":"高松市","city_kana":"タカマツシ","town":"寿町","town_kana":"コトブキチョウ","prefecture_code":37},"0044":{"zip_code":"7600044","prefecture":"香川県","prefecture_kana":"カガワケン","city":"高松市","city_kana":"タカマツシ","town":"御坊町","town_kana":"ゴボウマチ","prefecture_code":37},"0027":{"zip_code":"7600027","prefecture":"香川県","prefecture_kana":"カガワケン","city":"高松市","city_kana":"タカマツシ","town":"紺屋町","town_kana":"コンヤマチ","prefecture_code":37},"0004":{"zip_code":"7600004","prefecture":"香川県","prefecture_kana":"カガワケン","city":"高松市","city_kana":"タカマツシ","town":"西宝町","town_kana":"サイホウチョウ","prefecture_code":37},"0016":{"zip_code":"7600016","prefecture":"香川県","prefecture_kana":"カガワケン","city":"高松市","city_kana":"タカマツシ","town":"幸町","town_kana":"サイワイチョウ","prefecture_code":37},"0074":{"zip_code":"7600074","prefecture":"香川県","prefecture_kana":"カガワケン","city":"高松市","city_kana":"タカマツシ","town":"桜町","town_kana":"サクラマチ","prefecture_code":37},"0019":{"zip_code":"7600019","prefecture":"香川県","prefecture_kana":"カガワケン","city":"高松市","city_kana":"タカマツシ","town":"サンポート","town_kana":"サンポート","prefecture_code":37},"0015":{"zip_code":"7600015","prefecture":"香川県","prefecture_kana":"カガワケン","city":"高松市","city_kana":"タカマツシ","town":"紫雲町","town_kana":"シウンチョウ","prefecture_code":37},"0062":{"zip_code":"7600062","prefecture":"香川県","prefecture_kana":"カガワケン","city":"高松市","city_kana":"タカマツシ","town":"塩上町","town_kana":"シオガミチョウ","prefecture_code":37},"0047":{"zip_code":"7600047","prefecture":"香川県","prefecture_kana":"カガワケン","city":"高松市","city_kana":"タカマツシ","town":"塩屋町","town_kana":"シオヤマチ","prefecture_code":37},"0036":{"zip_code":"7600036","prefecture":"香川県","prefecture_kana":"カガワケン","city":"高松市","city_kana":"タカマツシ","town":"城東町","town_kana":"ジョウトウチョウ","prefecture_code":37},"0014":{"zip_code":"7600014","prefecture":"香川県","prefecture_kana":"カガワケン","city":"高松市","city_kana":"タカマツシ","town":"昭和町","town_kana":"ショウワチョウ","prefecture_code":37},"0001":{"zip_code":"7600001","prefecture":"香川県","prefecture_kana":"カガワケン","city":"高松市","city_kana":"タカマツシ","town":"新北町","town_kana":"シンキタマチ","prefecture_code":37},"0060":{"zip_code":"7600060","prefecture":"香川県","prefecture_kana":"カガワケン","city":"高松市","city_kana":"タカマツシ","town":"末広町","town_kana":"スエヒロチョウ","prefecture_code":37},"0012":{"zip_code":"7600012","prefecture":"香川県","prefecture_kana":"カガワケン","city":"高松市","city_kana":"タカマツシ","town":"瀬戸内町","town_kana":"セトウチチョウ","prefecture_code":37},"0063":{"zip_code":"7600063","prefecture":"香川県","prefecture_kana":"カガワケン","city":"高松市","city_kana":"タカマツシ","town":"多賀町","town_kana":"タガチョウ","prefecture_code":37},"0053":{"zip_code":"7600053","prefecture":"香川県","prefecture_kana":"カガワケン","city":"高松市","city_kana":"タカマツシ","town":"田町","town_kana":"タマチ","prefecture_code":37},"0030":{"zip_code":"7600030","prefecture":"香川県","prefecture_kana":"カガワケン","city":"高松市","city_kana":"タカマツシ","town":"玉藻町","town_kana":"タマモチョウ","prefecture_code":37},"0042":{"zip_code":"7600042","prefecture":"香川県","prefecture_kana":"カガワケン","city":"高松市","city_kana":"タカマツシ","town":"大工町","town_kana":"ダイクマチ","prefecture_code":37},"0007":{"zip_code":"7600007","prefecture":"香川県","prefecture_kana":"カガワケン","city":"高松市","city_kana":"タカマツシ","town":"中央町","town_kana":"チュウオウチョウ","prefecture_code":37},"0061":{"zip_code":"7600061","prefecture":"香川県","prefecture_kana":"カガワケン","city":"高松市","city_kana":"タカマツシ","town":"築地町","town_kana":"ツキジチョウ","prefecture_code":37},"0093":[{"zip_code":"7600093","prefecture":"香川県","prefecture_kana":"カガワケン","city":"高松市","city_kana":"タカマツシ","town":"鶴市町","town_kana":"ツルイチチョウ","prefecture_code":37},{"zip_code":"7600093","prefecture":"香川県","prefecture_kana":"カガワケン","city":"高松市","city_kana":"タカマツシ","town":"鶴市町台山","town_kana":"ツルイチチョウダイヤマ","prefecture_code":37}],"0035":{"zip_code":"7600035","prefecture":"香川県","prefecture_kana":"カガワケン","city":"高松市","city_kana":"タカマツシ","town":"鶴屋町","town_kana":"ツルヤマチ","prefecture_code":37},"0018":{"zip_code":"7600018","prefecture":"香川県","prefecture_kana":"カガワケン","city":"高松市","city_kana":"タカマツシ","town":"天神前","town_kana":"テンジンマエ","prefecture_code":37},"0046":{"zip_code":"7600046","prefecture":"香川県","prefecture_kana":"カガワケン","city":"高松市","city_kana":"タカマツシ","town":"通町","town_kana":"トオリマチ","prefecture_code":37},"0054":{"zip_code":"7600054","prefecture":"香川県","prefecture_kana":"カガワケン","city":"高松市","city_kana":"タカマツシ","town":"常磐町","town_kana":"トキワチョウ","prefecture_code":37},"0026":{"zip_code":"7600026","prefecture":"香川県","prefecture_kana":"カガワケン","city":"高松市","city_kana":"タカマツシ","town":"磨屋町","town_kana":"トギヤマチ","prefecture_code":37},"0056":{"zip_code":"7600056","prefecture":"香川県","prefecture_kana":"カガワケン","city":"高松市","city_kana":"タカマツシ","town":"中新町","town_kana":"ナカジンチョウ","prefecture_code":37},"0008":{"zip_code":"7600008","prefecture":"香川県","prefecture_kana":"カガワケン","city":"高松市","city_kana":"タカマツシ","town":"中野町","town_kana":"ナカノチョウ","prefecture_code":37},"0022":{"zip_code":"7600022","prefecture":"香川県","prefecture_kana":"カガワケン","city":"高松市","city_kana":"タカマツシ","town":"西内町","town_kana":"ニシウチマチ","prefecture_code":37},"0020":{"zip_code":"7600020","prefecture":"香川県","prefecture_kana":"カガワケン","city":"高松市","city_kana":"タカマツシ","town":"錦町","town_kana":"ニシキマチ","prefecture_code":37},"0021":{"zip_code":"7600021","prefecture":"香川県","prefecture_kana":"カガワケン","city":"高松市","city_kana":"タカマツシ","town":"西の丸町","town_kana":"ニシノマルチョウ","prefecture_code":37},"0003":{"zip_code":"7600003","prefecture":"香川県","prefecture_kana":"カガワケン","city":"高松市","city_kana":"タカマツシ","town":"西町","town_kana":"ニシマチ","prefecture_code":37},"0057":{"zip_code":"7600057","prefecture":"香川県","prefecture_kana":"カガワケン","city":"高松市","city_kana":"タカマツシ","town":"旅籠町","town_kana":"ハタゴマチ","prefecture_code":37},"0072":{"zip_code":"7600072","prefecture":"香川県","prefecture_kana":"カガワケン","city":"高松市","city_kana":"タカマツシ","town":"花園町","town_kana":"ハナゾノチョウ","prefecture_code":37},"0011":{"zip_code":"7600011","prefecture":"香川県","prefecture_kana":"カガワケン","city":"高松市","city_kana":"タカマツシ","town":"浜ノ町","town_kana":"ハマノチョウ","prefecture_code":37},"0017":{"zip_code":"7600017","prefecture":"香川県","prefecture_kana":"カガワケン","city":"高松市","city_kana":"タカマツシ","town":"番町","town_kana":"バンチョウ","prefecture_code":37},"0058":{"zip_code":"7600058","prefecture":"香川県","prefecture_kana":"カガワケン","city":"高松市","city_kana":"タカマツシ","town":"東田町","town_kana":"ヒガシタマチ","prefecture_code":37},"0037":{"zip_code":"7600037","prefecture":"香川県","prefecture_kana":"カガワケン","city":"高松市","city_kana":"タカマツシ","town":"東浜町","town_kana":"ヒガシハマチョウ","prefecture_code":37},"0041":{"zip_code":"7600041","prefecture":"香川県","prefecture_kana":"カガワケン","city":"高松市","city_kana":"タカマツシ","town":"百間町","town_kana":"ヒャッケンマチ","prefecture_code":37},"0024":{"zip_code":"7600024","prefecture":"香川県","prefecture_kana":"カガワケン","city":"高松市","city_kana":"タカマツシ","town":"兵庫町","town_kana":"ヒョウゴマチ","prefecture_code":37},"0066":{"zip_code":"7600066","prefecture":"香川県","prefecture_kana":"カガワケン","city":"高松市","city_kana":"タカマツシ","town":"福岡町","town_kana":"フクオカチョウ","prefecture_code":37},"0048":{"zip_code":"7600048","prefecture":"香川県","prefecture_kana":"カガワケン","city":"高松市","city_kana":"タカマツシ","town":"福田町","town_kana":"フクダマチ","prefecture_code":37},"0071":{"zip_code":"7600071","prefecture":"香川県","prefecture_kana":"カガワケン","city":"高松市","city_kana":"タカマツシ","town":"藤塚町","town_kana":"フジヅカチョウ","prefecture_code":37},"0025":{"zip_code":"7600025","prefecture":"香川県","prefecture_kana":"カガワケン","city":"高松市","city_kana":"タカマツシ","town":"古新町","town_kana":"フルジンマチ","prefecture_code":37},"0045":{"zip_code":"7600045","prefecture":"香川県","prefecture_kana":"カガワケン","city":"高松市","city_kana":"タカマツシ","town":"古馬場町","town_kana":"フルババチョウ","prefecture_code":37},"0032":{"zip_code":"7600032","prefecture":"香川県","prefecture_kana":"カガワケン","city":"高松市","city_kana":"タカマツシ","town":"本町","town_kana":"ホンマチ","prefecture_code":37},"0068":{"zip_code":"7600068","prefecture":"香川県","prefecture_kana":"カガワケン","city":"高松市","city_kana":"タカマツシ","town":"松島町","town_kana":"マツシマチョウ","prefecture_code":37},"0079":{"zip_code":"7600079","prefecture":"香川県","prefecture_kana":"カガワケン","city":"高松市","city_kana":"タカマツシ","town":"松縄町","town_kana":"マツナワチョウ","prefecture_code":37},"0067":{"zip_code":"7600067","prefecture":"香川県","prefecture_kana":"カガワケン","city":"高松市","city_kana":"タカマツシ","town":"松福町","town_kana":"マツフクチョウ","prefecture_code":37},"0029":{"zip_code":"7600029","prefecture":"香川県","prefecture_kana":"カガワケン","city":"高松市","city_kana":"タカマツシ","town":"丸亀町","town_kana":"マルガメマチ","prefecture_code":37},"0033":{"zip_code":"7600033","prefecture":"香川県","prefecture_kana":"カガワケン","city":"高松市","city_kana":"タカマツシ","town":"丸の内","town_kana":"マルノウチ","prefecture_code":37},"0051":{"zip_code":"7600051","prefecture":"香川県","prefecture_kana":"カガワケン","city":"高松市","city_kana":"タカマツシ","town":"南新町","town_kana":"ミナミシンマチ","prefecture_code":37},"0009":{"zip_code":"7600009","prefecture":"香川県","prefecture_kana":"カガワケン","city":"高松市","city_kana":"タカマツシ","town":"峰山町","town_kana":"ミネヤマチョウ","prefecture_code":37},"0005":{"zip_code":"7600005","prefecture":"香川県","prefecture_kana":"カガワケン","city":"高松市","city_kana":"タカマツシ","town":"宮脇町","town_kana":"ミヤワキチョウ","prefecture_code":37},"0092":{"zip_code":"7600092","prefecture":"香川県","prefecture_kana":"カガワケン","city":"高松市","city_kana":"タカマツシ","town":"女木町","town_kana":"メギチョウ","prefecture_code":37},"0049":{"zip_code":"7600049","prefecture":"香川県","prefecture_kana":"カガワケン","city":"高松市","city_kana":"タカマツシ","town":"八坂町","town_kana":"ヤサカマチ","prefecture_code":37},"0073":{"zip_code":"7600073","prefecture":"香川県","prefecture_kana":"カガワケン","city":"高松市","city_kana":"タカマツシ","town":"栗林町","town_kana":"リツリンチョウ","prefecture_code":37}}