{"0130":{"zip_code":"7610130","prefecture":"香川県","prefecture_kana":"カガワケン","city":"高松市","city_kana":"タカマツシ","town":"庵治町","town_kana":"アジチョウ","prefecture_code":37},"8033":{"zip_code":"7618033","prefecture":"香川県","prefecture_kana":"カガワケン","city":"高松市","city_kana":"タカマツシ","town":"飯田町","town_kana":"イイダチョウ","prefecture_code":37},"8002":{"zip_code":"7618002","prefecture":"香川県","prefecture_kana":"カガワケン","city":"高松市","city_kana":"タカマツシ","town":"生島町","town_kana":"イクシマチョウ","prefecture_code":37},"0444":{"zip_code":"7610444","prefecture":"香川県","prefecture_kana":"カガワケン","city":"高松市","city_kana":"タカマツシ","town":"池田町","town_kana":"イケダチョウ","prefecture_code":37},"8084":{"zip_code":"7618084","prefecture":"香川県","prefecture_kana":"カガワケン","city":"高松市","city_kana":"タカマツシ","town":"一宮町","town_kana":"イチノミヤチョウ","prefecture_code":37},"8005":{"zip_code":"7618005","prefecture":"香川県","prefecture_kana":"カガワケン","city":"高松市","city_kana":"タカマツシ","town":"植松町","town_kana":"ウエマツチョウ","prefecture_code":37},"8044":{"zip_code":"7618044","prefecture":"香川県","prefecture_kana":"カガワケン","city":"高松市","city_kana":"タカマツシ","town":"円座町","town_kana":"エンザチョウ","prefecture_code":37},"8074":{"zip_code":"7618074","prefecture":"香川県","prefecture_kana":"カガワケン","city":"高松市","city_kana":"タカマツシ","town":"太田上町","town_kana":"オオタカミマチ","prefecture_code":37},"8073":{"zip_code":"7618073","prefecture":"香川県","prefecture_kana":"カガワケン","city":"高松市","city_kana":"タカマツシ","town":"太田下町","town_kana":"オオタシモマチ","prefecture_code":37},"8047":{"zip_code":"7618047","prefecture":"香川県","prefecture_kana":"カガワケン","city":"高松市","city_kana":"タカマツシ","town":"岡本町","town_kana":"オカモトチョウ","prefecture_code":37},"0431":{"zip_code":"7610431","prefecture":"香川県","prefecture_kana":"カガワケン","city":"高松市","city_kana":"タカマツシ","town":"小村町","town_kana":"オモレチョウ","prefecture_code":37},"1703":{"zip_code":"7611703","prefecture":"香川県","prefecture_kana":"カガワケン","city":"高松市","city_kana":"タカマツシ","town":"香川町浅野","town_kana":"カガワチョウアサノ","prefecture_code":37},"1701":{"zip_code":"7611701","prefecture":"香川県","prefecture_kana":"カガワケン","city":"高松市","city_kana":"タカマツシ","town":"香川町大野","town_kana":"カガワチョウオオノ","prefecture_code":37},"1704":{"zip_code":"7611704","prefecture":"香川県","prefecture_kana":"カガワケン","city":"高松市","city_kana":"タカマツシ","town":"香川町川内原","town_kana":"カガワチョウカワナイハラ","prefecture_code":37},"1706":{"zip_code":"7611706","prefecture":"香川県","prefecture_kana":"カガワケン","city":"高松市","city_kana":"タカマツシ","town":"香川町川東上","town_kana":"カガワチョウカワヒガシカミ","prefecture_code":37},"1705":{"zip_code":"7611705","prefecture":"香川県","prefecture_kana":"カガワケン","city":"高松市","city_kana":"タカマツシ","town":"香川町川東下","town_kana":"カガワチョウカワヒガシシモ","prefecture_code":37},"1702":{"zip_code":"7611702","prefecture":"香川県","prefecture_kana":"カガワケン","city":"高松市","city_kana":"タカマツシ","town":"香川町寺井","town_kana":"カガワチョウテライ","prefecture_code":37},"1707":{"zip_code":"7611707","prefecture":"香川県","prefecture_kana":"カガワケン","city":"高松市","city_kana":"タカマツシ","town":"香川町東谷","town_kana":"カガワチョウヒガシタニ","prefecture_code":37},"1708":{"zip_code":"7611708","prefecture":"香川県","prefecture_kana":"カガワケン","city":"高松市","city_kana":"タカマツシ","town":"香川町安原下","town_kana":"カガワチョウヤスハラシモ","prefecture_code":37},"0101":{"zip_code":"7610101","prefecture":"香川県","prefecture_kana":"カガワケン","city":"高松市","city_kana":"タカマツシ","town":"春日町","town_kana":"カスガチョウ","prefecture_code":37},"8082":{"zip_code":"7618082","prefecture":"香川県","prefecture_kana":"カガワケン","city":"高松市","city_kana":"タカマツシ","town":"鹿角町","town_kana":"カノツノチョウ","prefecture_code":37},"8056":{"zip_code":"7618056","prefecture":"香川県","prefecture_kana":"カガワケン","city":"高松市","city_kana":"タカマツシ","town":"上天神町","town_kana":"カミテンジンチョウ","prefecture_code":37},"8064":{"zip_code":"7618064","prefecture":"香川県","prefecture_kana":"カガワケン","city":"高松市","city_kana":"タカマツシ","town":"上之町","town_kana":"カミノチョウ","prefecture_code":37},"0302":{"zip_code":"7610302","prefecture":"香川県","prefecture_kana":"カガワケン","city":"高松市","city_kana":"タカマツシ","town":"上林町","town_kana":"カミハヤシチョウ","prefecture_code":37},"8055":{"zip_code":"7618055","prefecture":"香川県","prefecture_kana":"カガワケン","city":"高松市","city_kana":"タカマツシ","town":"紙町","town_kana":"カミマチ","prefecture_code":37},"0323":{"zip_code":"7610323","prefecture":"香川県","prefecture_kana":"カガワケン","city":"高松市","city_kana":"タカマツシ","town":"亀田町","town_kana":"カメダチョウ","prefecture_code":37},"0432":{"zip_code":"7610432","prefecture":"香川県","prefecture_kana":"カガワケン","city":"高松市","city_kana":"タカマツシ","town":"亀田南町","town_kana":"カメダミナミマチ","prefecture_code":37},"0443":{"zip_code":"7610443","prefecture":"香川県","prefecture_kana":"カガワケン","city":"高松市","city_kana":"タカマツシ","town":"川島東町","town_kana":"カワシマヒガシマチ","prefecture_code":37},"0442":{"zip_code":"7610442","prefecture":"香川県","prefecture_kana":"カガワケン","city":"高松市","city_kana":"タカマツシ","town":"川島本町","town_kana":"カワシマホンマチ","prefecture_code":37},"8046":{"zip_code":"7618046","prefecture":"香川県","prefecture_kana":"カガワケン","city":"高松市","city_kana":"タカマツシ","town":"川部町","town_kana":"カワナベチョウ","prefecture_code":37},"8026":{"zip_code":"7618026","prefecture":"香川県","prefecture_kana":"カガワケン","city":"高松市","city_kana":"タカマツシ","town":"鬼無町鬼無","town_kana":"キナシチョウキナシ","prefecture_code":37},"8021":{"zip_code":"7618021","prefecture":"香川県","prefecture_kana":"カガワケン","city":"高松市","city_kana":"タカマツシ","town":"鬼無町是竹","town_kana":"キナシチョウコレタケ","prefecture_code":37},"8023":{"zip_code":"7618023","prefecture":"香川県","prefecture_kana":"カガワケン","city":"高松市","city_kana":"タカマツシ","town":"鬼無町佐藤","town_kana":"キナシチョウサトウ","prefecture_code":37},"8022":{"zip_code":"7618022","prefecture":"香川県","prefecture_kana":"カガワケン","city":"高松市","city_kana":"タカマツシ","town":"鬼無町佐料","town_kana":"キナシチョウサリョウ","prefecture_code":37},"8024":{"zip_code":"7618024","prefecture":"香川県","prefecture_kana":"カガワケン","city":"高松市","city_kana":"タカマツシ","town":"鬼無町藤井","town_kana":"キナシチョウフジイ","prefecture_code":37},"8025":{"zip_code":"7618025","prefecture":"香川県","prefecture_kana":"カガワケン","city":"高松市","city_kana":"タカマツシ","town":"鬼無町山口","town_kana":"キナシチョウヤマグチ","prefecture_code":37},"8013":{"zip_code":"7618013","prefecture":"香川県","prefecture_kana":"カガワケン","city":"高松市","city_kana":"タカマツシ","town":"香西東町","town_kana":"コウザイヒガシマチ","prefecture_code":37},"8015":{"zip_code":"7618015","prefecture":"香川県","prefecture_kana":"カガワケン","city":"高松市","city_kana":"タカマツシ","town":"香西西町","town_kana":"コウザイニシマチ","prefecture_code":37},"8014":{"zip_code":"7618014","prefecture":"香川県","prefecture_kana":"カガワケン","city":"高松市","city_kana":"タカマツシ","town":"香西南町","town_kana":"コウザイミナミマチ","prefecture_code":37},"8011":{"zip_code":"7618011","prefecture":"香川県","prefecture_kana":"カガワケン","city":"高松市","city_kana":"タカマツシ","town":"香西北町","town_kana":"コウザイキタマチ","prefecture_code":37},"8012":{"zip_code":"7618012","prefecture":"香川県","prefecture_kana":"カガワケン","city":"高松市","city_kana":"タカマツシ","town":"香西本町","town_kana":"コウザイホンマチ","prefecture_code":37},"8031":{"zip_code":"7618031","prefecture":"香川県","prefecture_kana":"カガワケン","city":"高松市","city_kana":"タカマツシ","town":"郷東町","town_kana":"ゴウトウチョウ","prefecture_code":37},"1405":{"zip_code":"7611405","prefecture":"香川県","prefecture_kana":"カガワケン","city":"高松市","city_kana":"タカマツシ","town":"香南町池内","town_kana":"コウナンチョウイケノウチ","prefecture_code":37},"1401":{"zip_code":"7611401","prefecture":"香川県","prefecture_kana":"カガワケン","city":"高松市","city_kana":"タカマツシ","town":"香南町岡","town_kana":"コウナンチョウオカ","prefecture_code":37},"1406":{"zip_code":"7611406","prefecture":"香川県","prefecture_kana":"カガワケン","city":"高松市","city_kana":"タカマツシ","town":"香南町西庄","town_kana":"コウナンチョウニシノショウ","prefecture_code":37},"1402":{"zip_code":"7611402","prefecture":"香川県","prefecture_kana":"カガワケン","city":"高松市","city_kana":"タカマツシ","town":"香南町由佐","town_kana":"コウナンチョウユサ","prefecture_code":37},"1404":{"zip_code":"7611404","prefecture":"香川県","prefecture_kana":"カガワケン","city":"高松市","city_kana":"タカマツシ","town":"香南町横井","town_kana":"コウナンチョウヨコイ","prefecture_code":37},"1403":{"zip_code":"7611403","prefecture":"香川県","prefecture_kana":"カガワケン","city":"高松市","city_kana":"タカマツシ","town":"香南町吉光","town_kana":"コウナンチョウヨシミツ","prefecture_code":37},"8072":{"zip_code":"7618072","prefecture":"香川県","prefecture_kana":"カガワケン","city":"高松市","city_kana":"タカマツシ","town":"三条町","town_kana":"サンジョウチョウ","prefecture_code":37},"8083":{"zip_code":"7618083","prefecture":"香川県","prefecture_kana":"カガワケン","city":"高松市","city_kana":"タカマツシ","town":"三名町","town_kana":"サンミョウチョウ","prefecture_code":37},"1614":{"zip_code":"7611614","prefecture":"香川県","prefecture_kana":"カガワケン","city":"高松市","city_kana":"タカマツシ","town":"塩江町上西乙","town_kana":"シオノエチョウカミニシオツ","prefecture_code":37},"1613":{"zip_code":"7611613","prefecture":"香川県","prefecture_kana":"カガワケン","city":"高松市","city_kana":"タカマツシ","town":"塩江町上西甲","town_kana":"シオノエチョウカミニシコウ","prefecture_code":37},"1611":{"zip_code":"7611611","prefecture":"香川県","prefecture_kana":"カガワケン","city":"高松市","city_kana":"タカマツシ","town":"塩江町安原上","town_kana":"シオノエチョウヤスハラカミ","prefecture_code":37},"1612":{"zip_code":"7611612","prefecture":"香川県","prefecture_kana":"カガワケン","city":"高松市","city_kana":"タカマツシ","town":"塩江町安原上東","town_kana":"シオノエチョウヤスハラカミヒガシ","prefecture_code":37},"1615":[{"zip_code":"7611615","prefecture":"香川県","prefecture_kana":"カガワケン","city":"高松市","city_kana":"タカマツシ","town":"塩江町安原下上小田","town_kana":"シオノエチョウヤスハラシモカミコタ","prefecture_code":37},{"zip_code":"7611615","prefecture":"香川県","prefecture_kana":"カガワケン","city":"高松市","city_kana":"タカマツシ","town":"塩江町安原下炭谷","town_kana":"シオノエチョウヤスハラシモスミヤ","prefecture_code":37}],"1501":{"zip_code":"7611501","prefecture":"香川県","prefecture_kana":"カガワケン","city":"高松市","city_kana":"タカマツシ","town":"塩江町安原下","town_kana":"シオノエチョウヤスハラシモ","prefecture_code":37},"1502":{"zip_code":"7611502","prefecture":"香川県","prefecture_kana":"カガワケン","city":"高松市","city_kana":"タカマツシ","town":"塩江町安原下","town_kana":"シオノエチョウヤスハラシモ","prefecture_code":37},"1503":{"zip_code":"7611503","prefecture":"香川県","prefecture_kana":"カガワケン","city":"高松市","city_kana":"タカマツシ","town":"塩江町安原下","town_kana":"シオノエチョウヤスハラシモ","prefecture_code":37},"1504":{"zip_code":"7611504","prefecture":"香川県","prefecture_kana":"カガワケン","city":"高松市","city_kana":"タカマツシ","town":"塩江町安原下","town_kana":"シオノエチョウヤスハラシモ","prefecture_code":37},"0313":{"zip_code":"7610313","prefecture":"香川県","prefecture_kana":"カガワケン","city":"高松市","city_kana":"タカマツシ","town":"下田井町","town_kana":"シモタイチョウ","prefecture_code":37},"8077":{"zip_code":"7618077","prefecture":"香川県","prefecture_kana":"カガワケン","city":"高松市","city_kana":"タカマツシ","town":"出作町","town_kana":"シュツサクチョウ","prefecture_code":37},"8003":{"zip_code":"7618003","prefecture":"香川県","prefecture_kana":"カガワケン","city":"高松市","city_kana":"タカマツシ","town":"神在川窪町","town_kana":"シンザイカワクボチョウ","prefecture_code":37},"0102":{"zip_code":"7610102","prefecture":"香川県","prefecture_kana":"カガワケン","city":"高松市","city_kana":"タカマツシ","town":"新田町甲","town_kana":"シンデンチョウコウ","prefecture_code":37},"0103":{"zip_code":"7610103","prefecture":"香川県","prefecture_kana":"カガワケン","city":"高松市","city_kana":"タカマツシ","town":"新田町乙","town_kana":"シンデンチョウオツ","prefecture_code":37},"1616":{"zip_code":"7611616","prefecture":"香川県","prefecture_kana":"カガワケン","city":"高松市","city_kana":"タカマツシ","town":"菅沢町","town_kana":"スゲザワチョウ","prefecture_code":37},"0434":{"zip_code":"7610434","prefecture":"香川県","prefecture_kana":"カガワケン","city":"高松市","city_kana":"タカマツシ","town":"十川東町","town_kana":"ソガワヒガシマチ","prefecture_code":37},"0433":{"zip_code":"7610433","prefecture":"香川県","prefecture_kana":"カガワケン","city":"高松市","city_kana":"タカマツシ","town":"十川西町","town_kana":"ソガワニシマチ","prefecture_code":37},"0104":{"zip_code":"7610104","prefecture":"香川県","prefecture_kana":"カガワケン","city":"高松市","city_kana":"タカマツシ","town":"高松町","town_kana":"タカマツチョウ","prefecture_code":37},"8076":{"zip_code":"7618076","prefecture":"香川県","prefecture_kana":"カガワケン","city":"高松市","city_kana":"タカマツシ","town":"多肥上町","town_kana":"タヒカミマチ","prefecture_code":37},"8075":{"zip_code":"7618075","prefecture":"香川県","prefecture_kana":"カガワケン","city":"高松市","city_kana":"タカマツシ","town":"多肥下町","town_kana":"タヒシモマチ","prefecture_code":37},"8057":{"zip_code":"7618057","prefecture":"香川県","prefecture_kana":"カガワケン","city":"高松市","city_kana":"タカマツシ","town":"田村町","town_kana":"タムラチョウ","prefecture_code":37},"8001":{"zip_code":"7618001","prefecture":"香川県","prefecture_kana":"カガワケン","city":"高松市","city_kana":"タカマツシ","town":"亀水町","town_kana":"タルミチョウ","prefecture_code":37},"8041":{"zip_code":"7618041","prefecture":"香川県","prefecture_kana":"カガワケン","city":"高松市","city_kana":"タカマツシ","town":"檀紙町","town_kana":"ダンシチョウ","prefecture_code":37},"8058":{"zip_code":"7618058","prefecture":"香川県","prefecture_kana":"カガワケン","city":"高松市","city_kana":"タカマツシ","town":"勅使町","town_kana":"チョクシチョウ","prefecture_code":37},"8032":{"zip_code":"7618032","prefecture":"香川県","prefecture_kana":"カガワケン","city":"高松市","city_kana":"タカマツシ","town":"鶴市町","town_kana":"ツルイチチョウ","prefecture_code":37},"8085":{"zip_code":"7618085","prefecture":"香川県","prefecture_kana":"カガワケン","city":"高松市","city_kana":"タカマツシ","town":"寺井町","town_kana":"テライチョウ","prefecture_code":37},"8043":{"zip_code":"7618043","prefecture":"香川県","prefecture_kana":"カガワケン","city":"高松市","city_kana":"タカマツシ","town":"中間町","town_kana":"ナカツマチョウ","prefecture_code":37},"8004":{"zip_code":"7618004","prefecture":"香川県","prefecture_kana":"カガワケン","city":"高松市","city_kana":"タカマツシ","town":"中山町","town_kana":"ナカヤマチョウ","prefecture_code":37},"8081":{"zip_code":"7618081","prefecture":"香川県","prefecture_kana":"カガワケン","city":"高松市","city_kana":"タカマツシ","town":"成合町","town_kana":"ナリアイチョウ","prefecture_code":37},"0445":{"zip_code":"7610445","prefecture":"香川県","prefecture_kana":"カガワケン","city":"高松市","city_kana":"タカマツシ","town":"西植田町","town_kana":"ニシウエタチョウ","prefecture_code":37},"8051":{"zip_code":"7618051","prefecture":"香川県","prefecture_kana":"カガワケン","city":"高松市","city_kana":"タカマツシ","town":"西春日町","town_kana":"ニシカスガチョウ","prefecture_code":37},"8053":{"zip_code":"7618053","prefecture":"香川県","prefecture_kana":"カガワケン","city":"高松市","city_kana":"タカマツシ","town":"西ハゼ町","town_kana":"ニシハゼマチ","prefecture_code":37},"8045":{"zip_code":"7618045","prefecture":"香川県","prefecture_kana":"カガワケン","city":"高松市","city_kana":"タカマツシ","town":"西山崎町","town_kana":"ニシヤマサキチョウ","prefecture_code":37},"8063":{"zip_code":"7618063","prefecture":"香川県","prefecture_kana":"カガワケン","city":"高松市","city_kana":"タカマツシ","town":"花ノ宮町","town_kana":"ハナノミヤチョウ","prefecture_code":37},"0301":{"zip_code":"7610301","prefecture":"香川県","prefecture_kana":"カガワケン","city":"高松市","city_kana":"タカマツシ","town":"林町","town_kana":"ハヤシチョウ","prefecture_code":37},"0446":{"zip_code":"7610446","prefecture":"香川県","prefecture_kana":"カガワケン","city":"高松市","city_kana":"タカマツシ","town":"東植田町","town_kana":"ヒガシウエタチョウ","prefecture_code":37},"8054":{"zip_code":"7618054","prefecture":"香川県","prefecture_kana":"カガワケン","city":"高松市","city_kana":"タカマツシ","town":"東ハゼ町","town_kana":"ヒガシハゼマチ","prefecture_code":37},"0312":{"zip_code":"7610312","prefecture":"香川県","prefecture_kana":"カガワケン","city":"高松市","city_kana":"タカマツシ","town":"東山崎町","town_kana":"ヒガシヤマサキチョウ","prefecture_code":37},"8071":{"zip_code":"7618071","prefecture":"香川県","prefecture_kana":"カガワケン","city":"高松市","city_kana":"タカマツシ","town":"伏石町","town_kana":"フセイシチョウ","prefecture_code":37},"8078":{"zip_code":"7618078","prefecture":"香川県","prefecture_kana":"カガワケン","city":"高松市","city_kana":"タカマツシ","town":"仏生山町甲","town_kana":"ブッショウザンチョウコウ","prefecture_code":37},"8079":{"zip_code":"7618079","prefecture":"香川県","prefecture_kana":"カガワケン","city":"高松市","city_kana":"タカマツシ","town":"仏生山町乙","town_kana":"ブッショウザンチョウオツ","prefecture_code":37},"0322":{"zip_code":"7610322","prefecture":"香川県","prefecture_kana":"カガワケン","city":"高松市","city_kana":"タカマツシ","town":"前田東町","town_kana":"マエダヒガシマチ","prefecture_code":37},"0321":{"zip_code":"7610321","prefecture":"香川県","prefecture_kana":"カガワケン","city":"高松市","city_kana":"タカマツシ","town":"前田西町","town_kana":"マエダニシマチ","prefecture_code":37},"8052":{"zip_code":"7618052","prefecture":"香川県","prefecture_kana":"カガワケン","city":"高松市","city_kana":"タカマツシ","town":"松並町","town_kana":"マツナミチョウ","prefecture_code":37},"0450":{"zip_code":"7610450","prefecture":"香川県","prefecture_kana":"カガワケン","city":"高松市","city_kana":"タカマツシ","town":"三谷町","town_kana":"ミタニチョウ","prefecture_code":37},"8042":{"zip_code":"7618042","prefecture":"香川県","prefecture_kana":"カガワケン","city":"高松市","city_kana":"タカマツシ","town":"御厩町","town_kana":"ミマヤチョウ","prefecture_code":37},"0122":{"zip_code":"7610122","prefecture":"香川県","prefecture_kana":"カガワケン","city":"高松市","city_kana":"タカマツシ","town":"牟礼町大町","town_kana":"ムレチョウオオマチ","prefecture_code":37},"0123":{"zip_code":"7610123","prefecture":"香川県","prefecture_kana":"カガワケン","city":"高松市","city_kana":"タカマツシ","town":"牟礼町原","town_kana":"ムレチョウハラ","prefecture_code":37},"0121":{"zip_code":"7610121","prefecture":"香川県","prefecture_kana":"カガワケン","city":"高松市","city_kana":"タカマツシ","town":"牟礼町牟礼","town_kana":"ムレチョウムレ","prefecture_code":37},"8062":{"zip_code":"7618062","prefecture":"香川県","prefecture_kana":"カガワケン","city":"高松市","city_kana":"タカマツシ","town":"室新町","town_kana":"ムロシンマチ","prefecture_code":37},"8061":{"zip_code":"7618061","prefecture":"香川県","prefecture_kana":"カガワケン","city":"高松市","city_kana":"タカマツシ","town":"室町","town_kana":"ムロマチ","prefecture_code":37},"0311":{"zip_code":"7610311","prefecture":"香川県","prefecture_kana":"カガワケン","city":"高松市","city_kana":"タカマツシ","town":"元山町","town_kana":"モトヤマチョウ","prefecture_code":37},"0112":{"zip_code":"7610112","prefecture":"香川県","prefecture_kana":"カガワケン","city":"高松市","city_kana":"タカマツシ","town":"屋島中町","town_kana":"ヤシマナカマチ","prefecture_code":37},"0111":{"zip_code":"7610111","prefecture":"香川県","prefecture_kana":"カガワケン","city":"高松市","city_kana":"タカマツシ","town":"屋島東町","town_kana":"ヤシマヒガシマチ","prefecture_code":37},"0113":{"zip_code":"7610113","prefecture":"香川県","prefecture_kana":"カガワケン","city":"高松市","city_kana":"タカマツシ","town":"屋島西町","town_kana":"ヤシマニシマチ","prefecture_code":37},"0441":{"zip_code":"7610441","prefecture":"香川県","prefecture_kana":"カガワケン","city":"高松市","city_kana":"タカマツシ","town":"由良町","town_kana":"ユラチョウ","prefecture_code":37},"0303":{"zip_code":"7610303","prefecture":"香川県","prefecture_kana":"カガワケン","city":"高松市","city_kana":"タカマツシ","town":"六条町","town_kana":"ロクジョウチョウ","prefecture_code":37},"2401":{"zip_code":"7612401","prefecture":"香川県","prefecture_kana":"カガワケン","city":"丸亀市","city_kana":"マルガメシ","town":"綾歌町岡田上","town_kana":"アヤウタチョウオカダカミ","prefecture_code":37},"2402":{"zip_code":"7612402","prefecture":"香川県","prefecture_kana":"カガワケン","city":"丸亀市","city_kana":"マルガメシ","town":"綾歌町岡田下","town_kana":"アヤウタチョウオカダシモ","prefecture_code":37},"2404":{"zip_code":"7612404","prefecture":"香川県","prefecture_kana":"カガワケン","city":"丸亀市","city_kana":"マルガメシ","town":"綾歌町岡田東","town_kana":"アヤウタチョウオカダヒガシ","prefecture_code":37},"2403":{"zip_code":"7612403","prefecture":"香川県","prefecture_kana":"カガワケン","city":"丸亀市","city_kana":"マルガメシ","town":"綾歌町岡田西","town_kana":"アヤウタチョウオカダニシ","prefecture_code":37},"2406":{"zip_code":"7612406","prefecture":"香川県","prefecture_kana":"カガワケン","city":"丸亀市","city_kana":"マルガメシ","town":"綾歌町栗熊東","town_kana":"アヤウタチョウクリクマヒガシ","prefecture_code":37},"2405":{"zip_code":"7612405","prefecture":"香川県","prefecture_kana":"カガワケン","city":"丸亀市","city_kana":"マルガメシ","town":"綾歌町栗熊西","town_kana":"アヤウタチョウクリクマニシ","prefecture_code":37},"2408":{"zip_code":"7612408","prefecture":"香川県","prefecture_kana":"カガワケン","city":"丸亀市","city_kana":"マルガメシ","town":"綾歌町富熊富士見坂","town_kana":"アヤウタチョウトミクマフジミサカ","prefecture_code":37},"2407":{"zip_code":"7612407","prefecture":"香川県","prefecture_kana":"カガワケン","city":"丸亀市","city_kana":"マルガメシ","town":"綾歌町富熊","town_kana":"アヤウタチョウトミクマ","prefecture_code":37},"0904":{"zip_code":"7610904","prefecture":"香川県","prefecture_kana":"カガワケン","city":"さぬき市","city_kana":"サヌキシ","town":"大川町田面","town_kana":"オオカワマチタヅラ","prefecture_code":37},"0902":{"zip_code":"7610902","prefecture":"香川県","prefecture_kana":"カガワケン","city":"さぬき市","city_kana":"サヌキシ","town":"大川町富田中","town_kana":"オオカワマチトミダナカ","prefecture_code":37},"0901":{"zip_code":"7610901","prefecture":"香川県","prefecture_kana":"カガワケン","city":"さぬき市","city_kana":"サヌキシ","town":"大川町富田西","town_kana":"オオカワマチトミダニシ","prefecture_code":37},"0903":{"zip_code":"7610903","prefecture":"香川県","prefecture_kana":"カガワケン","city":"さぬき市","city_kana":"サヌキシ","town":"大川町富田東","town_kana":"オオカワマチトミダヒガシ","prefecture_code":37},"0905":{"zip_code":"7610905","prefecture":"香川県","prefecture_kana":"カガワケン","city":"さぬき市","city_kana":"サヌキシ","town":"大川町南川","town_kana":"オオカワマチミナミガワ","prefecture_code":37},"4100":{"zip_code":"7614100","prefecture":"香川県","prefecture_kana":"カガワケン","city":"小豆郡土庄町","city_kana":"ショウズグントノショウチョウ","town":"","town_kana":"","prefecture_code":37},"4664":{"zip_code":"7614664","prefecture":"香川県","prefecture_kana":"カガワケン","city":"小豆郡土庄町","city_kana":"ショウズグントノショウチョウ","town":"伊喜末小豊島","town_kana":"イギスエオデシマ","prefecture_code":37},"4131":{"zip_code":"7614131","prefecture":"香川県","prefecture_kana":"カガワケン","city":"小豆郡土庄町","city_kana":"ショウズグントノショウチョウ","town":"伊喜末","town_kana":"イギスエ","prefecture_code":37},"4141":{"zip_code":"7614141","prefecture":"香川県","prefecture_kana":"カガワケン","city":"小豆郡土庄町","city_kana":"ショウズグントノショウチョウ","town":"馬越","town_kana":"ウマゴエ","prefecture_code":37},"4132":{"zip_code":"7614132","prefecture":"香川県","prefecture_kana":"カガワケン","city":"小豆郡土庄町","city_kana":"ショウズグントノショウチョウ","town":"小江","town_kana":"オエ","prefecture_code":37},"4145":{"zip_code":"7614145","prefecture":"香川県","prefecture_kana":"カガワケン","city":"小豆郡土庄町","city_kana":"ショウズグントノショウチョウ","town":"大部","town_kana":"オオベ","prefecture_code":37},"4144":{"zip_code":"7614144","prefecture":"香川県","prefecture_kana":"カガワケン","city":"小豆郡土庄町","city_kana":"ショウズグントノショウチョウ","town":"小海","town_kana":"オミ","prefecture_code":37},"4154":{"zip_code":"7614154","prefecture":"香川県","prefecture_kana":"カガワケン","city":"小豆郡土庄町","city_kana":"ショウズグントノショウチョウ","town":"笠滝","town_kana":"カサガダキ","prefecture_code":37},"4122":{"zip_code":"7614122","prefecture":"香川県","prefecture_kana":"カガワケン","city":"小豆郡土庄町","city_kana":"ショウズグントノショウチョウ","town":"上庄","town_kana":"カミショウ","prefecture_code":37},"4152":{"zip_code":"7614152","prefecture":"香川県","prefecture_kana":"カガワケン","city":"小豆郡土庄町","city_kana":"ショウズグントノショウチョウ","town":"黒岩","town_kana":"クロイワ","prefecture_code":37},"4153":{"zip_code":"7614153","prefecture":"香川県","prefecture_kana":"カガワケン","city":"小豆郡土庄町","city_kana":"ショウズグントノショウチョウ","town":"小馬越","town_kana":"コウマゴエ","prefecture_code":37},"4146":{"zip_code":"7614146","prefecture":"香川県","prefecture_kana":"カガワケン","city":"小豆郡土庄町","city_kana":"ショウズグントノショウチョウ","town":"小部","town_kana":"コベ","prefecture_code":37},"4134":{"zip_code":"7614134","prefecture":"香川県","prefecture_kana":"カガワケン","city":"小豆郡土庄町","city_kana":"ショウズグントノショウチョウ","town":"滝宮","town_kana":"タキノミヤ","prefecture_code":37},"4661":{"zip_code":"7614661","prefecture":"香川県","prefecture_kana":"カガワケン","city":"小豆郡土庄町","city_kana":"ショウズグントノショウチョウ","town":"豊島家浦","town_kana":"テシマイエウラ","prefecture_code":37},"4662":{"zip_code":"7614662","prefecture":"香川県","prefecture_kana":"カガワケン","city":"小豆郡土庄町","city_kana":"ショウズグントノショウチョウ","town":"豊島唐櫃","town_kana":"テシマカラト","prefecture_code":37},"4663":{"zip_code":"7614663","prefecture":"香川県","prefecture_kana":"カガワケン","city":"小豆郡土庄町","city_kana":"ショウズグントノショウチョウ","town":"豊島甲生","town_kana":"テシマコウ","prefecture_code":37},"4133":{"zip_code":"7614133","prefecture":"香川県","prefecture_kana":"カガワケン","city":"小豆郡土庄町","city_kana":"ショウズグントノショウチョウ","town":"長浜","town_kana":"ナガハマ","prefecture_code":37},"4151":{"zip_code":"7614151","prefecture":"香川県","prefecture_kana":"カガワケン","city":"小豆郡土庄町","city_kana":"ショウズグントノショウチョウ","town":"肥土山","town_kana":"ヒトヤマ","prefecture_code":37},"4121":{"zip_code":"7614121","prefecture":"香川県","prefecture_kana":"カガワケン","city":"小豆郡土庄町","city_kana":"ショウズグントノショウチョウ","town":"渕崎","town_kana":"フチザキ","prefecture_code":37},"4143":{"zip_code":"7614143","prefecture":"香川県","prefecture_kana":"カガワケン","city":"小豆郡土庄町","city_kana":"ショウズグントノショウチョウ","town":"見目","town_kana":"ミメ","prefecture_code":37},"4142":{"zip_code":"7614142","prefecture":"香川県","prefecture_kana":"カガワケン","city":"小豆郡土庄町","city_kana":"ショウズグントノショウチョウ","town":"屋形崎","town_kana":"ヤカタザキ","prefecture_code":37},"4103":{"zip_code":"7614103","prefecture":"香川県","prefecture_kana":"カガワケン","city":"小豆郡土庄町","city_kana":"ショウズグントノショウチョウ","town":"甲、乙","town_kana":"コウ、オツ","prefecture_code":37},"4112":{"zip_code":"7614112","prefecture":"香川県","prefecture_kana":"カガワケン","city":"小豆郡土庄町","city_kana":"ショウズグントノショウチョウ","town":"甲、乙","town_kana":"コウ、オツ","prefecture_code":37},"4115":{"zip_code":"7614115","prefecture":"香川県","prefecture_kana":"カガワケン","city":"小豆郡土庄町","city_kana":"ショウズグントノショウチョウ","town":"甲、乙","town_kana":"コウ、オツ","prefecture_code":37},"4114":{"zip_code":"7614114","prefecture":"香川県","prefecture_kana":"カガワケン","city":"小豆郡土庄町","city_kana":"ショウズグントノショウチョウ","town":"甲、乙","town_kana":"コウ、オツ","prefecture_code":37},"4105":{"zip_code":"7614105","prefecture":"香川県","prefecture_kana":"カガワケン","city":"小豆郡土庄町","city_kana":"ショウズグントノショウチョウ","town":"甲、乙","town_kana":"コウ、オツ","prefecture_code":37},"4111":{"zip_code":"7614111","prefecture":"香川県","prefecture_kana":"カガワケン","city":"小豆郡土庄町","city_kana":"ショウズグントノショウチョウ","town":"甲、乙","town_kana":"コウ、オツ","prefecture_code":37},"4106":{"zip_code":"7614106","prefecture":"香川県","prefecture_kana":"カガワケン","city":"小豆郡土庄町","city_kana":"ショウズグントノショウチョウ","town":"甲、乙","town_kana":"コウ、オツ","prefecture_code":37},"4102":{"zip_code":"7614102","prefecture":"香川県","prefecture_kana":"カガワケン","city":"小豆郡土庄町","city_kana":"ショウズグントノショウチョウ","town":"甲、乙","town_kana":"コウ、オツ","prefecture_code":37},"4113":{"zip_code":"7614113","prefecture":"香川県","prefecture_kana":"カガワケン","city":"小豆郡土庄町","city_kana":"ショウズグントノショウチョウ","town":"甲、乙","town_kana":"コウ、オツ","prefecture_code":37},"4104":{"zip_code":"7614104","prefecture":"香川県","prefecture_kana":"カガワケン","city":"小豆郡土庄町","city_kana":"ショウズグントノショウチョウ","town":"甲、乙","town_kana":"コウ、オツ","prefecture_code":37},"4101":{"zip_code":"7614101","prefecture":"香川県","prefecture_kana":"カガワケン","city":"小豆郡土庄町","city_kana":"ショウズグントノショウチョウ","town":"甲、乙","town_kana":"コウ、オツ","prefecture_code":37},"4300":{"zip_code":"7614300","prefecture":"香川県","prefecture_kana":"カガワケン","city":"小豆郡小豆島町","city_kana":"ショウズグンショウドシマチョウ","town":"","town_kana":"","prefecture_code":37},"4403":{"zip_code":"7614403","prefecture":"香川県","prefecture_kana":"カガワケン","city":"小豆郡小豆島町","city_kana":"ショウズグンショウドシマチョウ","town":"当浜","town_kana":"アテハマ","prefecture_code":37},"4301":{"zip_code":"7614301","prefecture":"香川県","prefecture_kana":"カガワケン","city":"小豆郡小豆島町","city_kana":"ショウズグンショウドシマチョウ","town":"池田","town_kana":"イケダ","prefecture_code":37},"4404":{"zip_code":"7614404","prefecture":"香川県","prefecture_kana":"カガワケン","city":"小豆郡小豆島町","city_kana":"ショウズグンショウドシマチョウ","town":"岩谷","town_kana":"イワガタニ","prefecture_code":37},"4426":{"zip_code":"7614426","prefecture":"香川県","prefecture_kana":"カガワケン","city":"小豆郡小豆島町","city_kana":"ショウズグンショウドシマチョウ","town":"馬木","town_kana":"ウマキ","prefecture_code":37},"4431":{"zip_code":"7614431","prefecture":"香川県","prefecture_kana":"カガワケン","city":"小豆郡小豆島町","city_kana":"ショウズグンショウドシマチョウ","town":"片城","town_kana":"カタジョウ","prefecture_code":37},"4307":{"zip_code":"7614307","prefecture":"香川県","prefecture_kana":"カガワケン","city":"小豆郡小豆島町","city_kana":"ショウズグンショウドシマチョウ","town":"蒲野","town_kana":"カマノ","prefecture_code":37},"4302":{"zip_code":"7614302","prefecture":"香川県","prefecture_kana":"カガワケン","city":"小豆郡小豆島町","city_kana":"ショウズグンショウドシマチョウ","town":"蒲生","town_kana":"カモウ","prefecture_code":37},"4433":{"zip_code":"7614433","prefecture":"香川県","prefecture_kana":"カガワケン","city":"小豆郡小豆島町","city_kana":"ショウズグンショウドシマチョウ","town":"神懸通","town_kana":"カンカケドオリ","prefecture_code":37},"4412":{"zip_code":"7614412","prefecture":"香川県","prefecture_kana":"カガワケン","city":"小豆郡小豆島町","city_kana":"ショウズグンショウドシマチョウ","town":"木庄","town_kana":"キノショウ","prefecture_code":37},"4432":{"zip_code":"7614432","prefecture":"香川県","prefecture_kana":"カガワケン","city":"小豆郡小豆島町","city_kana":"ショウズグンショウドシマチョウ","town":"草壁本町","town_kana":"クサカベホンマチ","prefecture_code":37},"4308":{"zip_code":"7614308","prefecture":"香川県","prefecture_kana":"カガワケン","city":"小豆郡小豆島町","city_kana":"ショウズグンショウドシマチョウ","town":"神浦","town_kana":"コウノウラ","prefecture_code":37},"4425":{"zip_code":"7614425","prefecture":"香川県","prefecture_kana":"カガワケン","city":"小豆郡小豆島町","city_kana":"ショウズグンショウドシマチョウ","town":"坂手","town_kana":"サカテ","prefecture_code":37},"4405":{"zip_code":"7614405","prefecture":"香川県","prefecture_kana":"カガワケン","city":"小豆郡小豆島町","city_kana":"ショウズグンショウドシマチョウ","town":"橘","town_kana":"タチバナ","prefecture_code":37},"4424":{"zip_code":"7614424","prefecture":"香川県","prefecture_kana":"カガワケン","city":"小豆郡小豆島町","city_kana":"ショウズグンショウドシマチョウ","town":"田浦","town_kana":"タノウラ","prefecture_code":37},"4155":[{"zip_code":"7614155","prefecture":"香川県","prefecture_kana":"カガワケン","city":"小豆郡小豆島町","city_kana":"ショウズグンショウドシマチョウ","town":"中山美しの原高原","town_kana":"ナカヤマウツクシノハラコウゲン","prefecture_code":37},{"zip_code":"7614155","prefecture":"香川県","prefecture_kana":"カガワケン","city":"小豆郡小豆島町","city_kana":"ショウズグンショウドシマチョウ","town":"中山蛙子鳴滝","town_kana":"ナカヤマカエルゴナルタキ","prefecture_code":37}],"4303":{"zip_code":"7614303","prefecture":"香川県","prefecture_kana":"カガワケン","city":"小豆郡小豆島町","city_kana":"ショウズグンショウドシマチョウ","town":"中山","town_kana":"ナカヤマ","prefecture_code":37},"4434":{"zip_code":"7614434","prefecture":"香川県","prefecture_kana":"カガワケン","city":"小豆郡小豆島町","city_kana":"ショウズグンショウドシマチョウ","town":"西村","town_kana":"ニシムラ","prefecture_code":37},"4421":{"zip_code":"7614421","prefecture":"香川県","prefecture_kana":"カガワケン","city":"小豆郡小豆島町","city_kana":"ショウズグンショウドシマチョウ","town":"苗羽","town_kana":"ノウマ","prefecture_code":37},"4402":{"zip_code":"7614402","prefecture":"香川県","prefecture_kana":"カガワケン","city":"小豆郡小豆島町","city_kana":"ショウズグンショウドシマチョウ","town":"福田","town_kana":"フクダ","prefecture_code":37},"4305":{"zip_code":"7614305","prefecture":"香川県","prefecture_kana":"カガワケン","city":"小豆郡小豆島町","city_kana":"ショウズグンショウドシマチョウ","town":"二面","town_kana":"フタオモテ","prefecture_code":37},"4422":{"zip_code":"7614422","prefecture":"香川県","prefecture_kana":"カガワケン","city":"小豆郡小豆島町","city_kana":"ショウズグンショウドシマチョウ","town":"古江","town_kana":"フルエ","prefecture_code":37},"4423":{"zip_code":"7614423","prefecture":"香川県","prefecture_kana":"カガワケン","city":"小豆郡小豆島町","city_kana":"ショウズグンショウドシマチョウ","town":"堀越","town_kana":"ホリコシ","prefecture_code":37},"4304":{"zip_code":"7614304","prefecture":"香川県","prefecture_kana":"カガワケン","city":"小豆郡小豆島町","city_kana":"ショウズグンショウドシマチョウ","town":"室生","town_kana":"ムロウ","prefecture_code":37},"4411":{"zip_code":"7614411","prefecture":"香川県","prefecture_kana":"カガワケン","city":"小豆郡小豆島町","city_kana":"ショウズグンショウドシマチョウ","town":"安田","town_kana":"ヤスダ","prefecture_code":37},"4401":{"zip_code":"7614401","prefecture":"香川県","prefecture_kana":"カガワケン","city":"小豆郡小豆島町","city_kana":"ショウズグンショウドシマチョウ","town":"吉田","town_kana":"ヨシダ","prefecture_code":37},"4306":{"zip_code":"7614306","prefecture":"香川県","prefecture_kana":"カガワケン","city":"小豆郡小豆島町","city_kana":"ショウズグンショウドシマチョウ","town":"吉野","town_kana":"ヨシノ","prefecture_code":37},"0700":{"zip_code":"7610700","prefecture":"香川県","prefecture_kana":"カガワケン","city":"木田郡三木町","city_kana":"キタグンミキチョウ","town":"","town_kana":"","prefecture_code":37},"0614":{"zip_code":"7610614","prefecture":"香川県","prefecture_kana":"カガワケン","city":"木田郡三木町","city_kana":"キタグンミキチョウ","town":"朝倉","town_kana":"アサクラ","prefecture_code":37},"0701":{"zip_code":"7610701","prefecture":"香川県","prefecture_kana":"カガワケン","city":"木田郡三木町","city_kana":"キタグンミキチョウ","town":"池戸","town_kana":"イケノベ","prefecture_code":37},"0823":{"zip_code":"7610823","prefecture":"香川県","prefecture_kana":"カガワケン","city":"木田郡三木町","city_kana":"キタグンミキチョウ","town":"井戸","town_kana":"イド","prefecture_code":37},"0705":{"zip_code":"7610705","prefecture":"香川県","prefecture_kana":"カガワケン","city":"木田郡三木町","city_kana":"キタグンミキチョウ","town":"井上","town_kana":"イノウエ","prefecture_code":37},"0822":{"zip_code":"7610822","prefecture":"香川県","prefecture_kana":"カガワケン","city":"木田郡三木町","city_kana":"キタグンミキチョウ","town":"奥山","town_kana":"オクヤマ","prefecture_code":37},"0821":{"zip_code":"7610821","prefecture":"香川県","prefecture_kana":"カガワケン","city":"木田郡三木町","city_kana":"キタグンミキチョウ","town":"鹿庭","town_kana":"カニワ","prefecture_code":37},"0613":{"zip_code":"7610613","prefecture":"香川県","prefecture_kana":"カガワケン","city":"木田郡三木町","city_kana":"キタグンミキチョウ","town":"上高岡","town_kana":"カミタカオカ","prefecture_code":37},"0615":{"zip_code":"7610615","prefecture":"香川県","prefecture_kana":"カガワケン","city":"木田郡三木町","city_kana":"キタグンミキチョウ","town":"小蓑","town_kana":"コミノ","prefecture_code":37},"0703":{"zip_code":"7610703","prefecture":"香川県","prefecture_kana":"カガワケン","city":"木田郡三木町","city_kana":"キタグンミキチョウ","town":"鹿伏","town_kana":"シシブセ","prefecture_code":37},"0704":{"zip_code":"7610704","prefecture":"香川県","prefecture_kana":"カガワケン","city":"木田郡三木町","city_kana":"キタグンミキチョウ","town":"下高岡","town_kana":"シモタカオカ","prefecture_code":37},"0611":{"zip_code":"7610611","prefecture":"香川県","prefecture_kana":"カガワケン","city":"木田郡三木町","city_kana":"キタグンミキチョウ","town":"田中","town_kana":"タナカ","prefecture_code":37},"0612":{"zip_code":"7610612","prefecture":"香川県","prefecture_kana":"カガワケン","city":"木田郡三木町","city_kana":"キタグンミキチョウ","town":"氷上","town_kana":"ヒカミ","prefecture_code":37},"0702":{"zip_code":"7610702","prefecture":"香川県","prefecture_kana":"カガワケン","city":"木田郡三木町","city_kana":"キタグンミキチョウ","town":"平木","town_kana":"ヒラギ","prefecture_code":37},"3110":{"zip_code":"7613110","prefecture":"香川県","prefecture_kana":"カガワケン","city":"香川郡直島町","city_kana":"カガワグンナオシマチョウ","town":"","town_kana":"","prefecture_code":37},"2300":{"zip_code":"7612300","prefecture":"香川県","prefecture_kana":"カガワケン","city":"綾歌郡綾川町","city_kana":"アヤウタグンアヤガワチョウ","town":"","town_kana":"","prefecture_code":37},"2208":{"zip_code":"7612208","prefecture":"香川県","prefecture_kana":"カガワケン","city":"綾歌郡綾川町","city_kana":"アヤウタグンアヤガワチョウ","town":"牛川","town_kana":"ウシカワ","prefecture_code":37},"2307":{"zip_code":"7612307","prefecture":"香川県","prefecture_kana":"カガワケン","city":"綾歌郡綾川町","city_kana":"アヤウタグンアヤガワチョウ","town":"小野","town_kana":"オノ","prefecture_code":37},"2304":{"zip_code":"7612304","prefecture":"香川県","prefecture_kana":"カガワケン","city":"綾歌郡綾川町","city_kana":"アヤウタグンアヤガワチョウ","town":"萱原","town_kana":"カヤハラ","prefecture_code":37},"2306":{"zip_code":"7612306","prefecture":"香川県","prefecture_kana":"カガワケン","city":"綾歌郡綾川町","city_kana":"アヤウタグンアヤガワチョウ","town":"北","town_kana":"キタ","prefecture_code":37},"2103":{"zip_code":"7612103","prefecture":"香川県","prefecture_kana":"カガワケン","city":"綾歌郡綾川町","city_kana":"アヤウタグンアヤガワチョウ","town":"陶","town_kana":"スエ","prefecture_code":37},"2102":{"zip_code":"7612102","prefecture":"香川県","prefecture_kana":"カガワケン","city":"綾歌郡綾川町","city_kana":"アヤウタグンアヤガワチョウ","town":"千疋","town_kana":"センビキ","prefecture_code":37},"2202":{"zip_code":"7612202","prefecture":"香川県","prefecture_kana":"カガワケン","city":"綾歌郡綾川町","city_kana":"アヤウタグンアヤガワチョウ","town":"枌所西","town_kana":"ソギショニシ","prefecture_code":37},"2201":{"zip_code":"7612201","prefecture":"香川県","prefecture_kana":"カガワケン","city":"綾歌郡綾川町","city_kana":"アヤウタグンアヤガワチョウ","town":"枌所東","town_kana":"ソギショヒガシ","prefecture_code":37},"2305":{"zip_code":"7612305","prefecture":"香川県","prefecture_kana":"カガワケン","city":"綾歌郡綾川町","city_kana":"アヤウタグンアヤガワチョウ","town":"滝宮","town_kana":"タキノミヤ","prefecture_code":37},"2206":{"zip_code":"7612206","prefecture":"香川県","prefecture_kana":"カガワケン","city":"綾歌郡綾川町","city_kana":"アヤウタグンアヤガワチョウ","town":"西分","town_kana":"ニシブン","prefecture_code":37},"2101":{"zip_code":"7612101","prefecture":"香川県","prefecture_kana":"カガワケン","city":"綾歌郡綾川町","city_kana":"アヤウタグンアヤガワチョウ","town":"畑田","town_kana":"ハタダ","prefecture_code":37},"2207":{"zip_code":"7612207","prefecture":"香川県","prefecture_kana":"カガワケン","city":"綾歌郡綾川町","city_kana":"アヤウタグンアヤガワチョウ","town":"羽床上","town_kana":"ハユカカミ","prefecture_code":37},"2308":{"zip_code":"7612308","prefecture":"香川県","prefecture_kana":"カガワケン","city":"綾歌郡綾川町","city_kana":"アヤウタグンアヤガワチョウ","town":"羽床下","town_kana":"ハユカシモ","prefecture_code":37},"2205":{"zip_code":"7612205","prefecture":"香川県","prefecture_kana":"カガワケン","city":"綾歌郡綾川町","city_kana":"アヤウタグンアヤガワチョウ","town":"東分","town_kana":"ヒガシブン","prefecture_code":37},"2203":{"zip_code":"7612203","prefecture":"香川県","prefecture_kana":"カガワケン","city":"綾歌郡綾川町","city_kana":"アヤウタグンアヤガワチョウ","town":"山田上","town_kana":"ヤマダカミ","prefecture_code":37},"2204":{"zip_code":"7612204","prefecture":"香川県","prefecture_kana":"カガワケン","city":"綾歌郡綾川町","city_kana":"アヤウタグンアヤガワチョウ","town":"山田下","town_kana":"ヤマダシモ","prefecture_code":37}}