{"0084":{"zip_code":"7620084","prefecture":"香川県","prefecture_kana":"カガワケン","city":"丸亀市","city_kana":"マルガメシ","town":"飯山町上法軍寺","town_kana":"ハンザンチョウカミホウグンジ","prefecture_code":37},"0082":{"zip_code":"7620082","prefecture":"香川県","prefecture_kana":"カガワケン","city":"丸亀市","city_kana":"マルガメシ","town":"飯山町川原","town_kana":"ハンザンチョウカワハラ","prefecture_code":37},"0086":{"zip_code":"7620086","prefecture":"香川県","prefecture_kana":"カガワケン","city":"丸亀市","city_kana":"マルガメシ","town":"飯山町真時","town_kana":"ハンザンチョウサントキ","prefecture_code":37},"0083":{"zip_code":"7620083","prefecture":"香川県","prefecture_kana":"カガワケン","city":"丸亀市","city_kana":"マルガメシ","town":"飯山町下法軍寺","town_kana":"ハンザンチョウシモホウグンジ","prefecture_code":37},"0087":{"zip_code":"7620087","prefecture":"香川県","prefecture_kana":"カガワケン","city":"丸亀市","city_kana":"マルガメシ","town":"飯山町西坂元","town_kana":"ハンザンチョウニシサカモト","prefecture_code":37},"0085":{"zip_code":"7620085","prefecture":"香川県","prefecture_kana":"カガワケン","city":"丸亀市","city_kana":"マルガメシ","town":"飯山町東小川","town_kana":"ハンザンチョウヒガシオガワ","prefecture_code":37},"0081":{"zip_code":"7620081","prefecture":"香川県","prefecture_kana":"カガワケン","city":"丸亀市","city_kana":"マルガメシ","town":"飯山町東坂元","town_kana":"ハンザンチョウヒガシサカモト","prefecture_code":37},"0000":{"zip_code":"7620000","prefecture":"香川県","prefecture_kana":"カガワケン","city":"坂出市","city_kana":"サカイデシ","town":"以下に掲載がない場合","town_kana":"イカニケイサイガナイバアイ","prefecture_code":37},"0037":{"zip_code":"7620037","prefecture":"香川県","prefecture_kana":"カガワケン","city":"坂出市","city_kana":"サカイデシ","town":"青葉町","town_kana":"アオバチョウ","prefecture_code":37},"0006":{"zip_code":"7620006","prefecture":"香川県","prefecture_kana":"カガワケン","city":"坂出市","city_kana":"サカイデシ","town":"旭町","town_kana":"アサヒチョウ","prefecture_code":37},"0035":{"zip_code":"7620035","prefecture":"香川県","prefecture_kana":"カガワケン","city":"坂出市","city_kana":"サカイデシ","town":"池園町","town_kana":"イケゾノチョウ","prefecture_code":37},"0002":{"zip_code":"7620002","prefecture":"香川県","prefecture_kana":"カガワケン","city":"坂出市","city_kana":"サカイデシ","town":"入船町","town_kana":"イリフネチョウ","prefecture_code":37},"0072":{"zip_code":"7620072","prefecture":"香川県","prefecture_kana":"カガワケン","city":"坂出市","city_kana":"サカイデシ","town":"岩黒","town_kana":"イワクロ","prefecture_code":37},"0011":{"zip_code":"7620011","prefecture":"香川県","prefecture_kana":"カガワケン","city":"坂出市","city_kana":"サカイデシ","town":"江尻町","town_kana":"エジリチョウ","prefecture_code":37},"0014":{"zip_code":"7620014","prefecture":"香川県","prefecture_kana":"カガワケン","city":"坂出市","city_kana":"サカイデシ","town":"王越町木沢","town_kana":"オウゴシチョウキサワ","prefecture_code":37},"0013":{"zip_code":"7620013","prefecture":"香川県","prefecture_kana":"カガワケン","city":"坂出市","city_kana":"サカイデシ","town":"王越町乃生","town_kana":"オウゴシチョウノウ","prefecture_code":37},"0016":{"zip_code":"7620016","prefecture":"香川県","prefecture_kana":"カガワケン","city":"坂出市","city_kana":"サカイデシ","town":"青海町","town_kana":"オウミチョウ","prefecture_code":37},"0027":{"zip_code":"7620027","prefecture":"香川県","prefecture_kana":"カガワケン","city":"坂出市","city_kana":"サカイデシ","town":"大池町","town_kana":"オオイケチョウ","prefecture_code":37},"0015":{"zip_code":"7620015","prefecture":"香川県","prefecture_kana":"カガワケン","city":"坂出市","city_kana":"サカイデシ","town":"大屋冨町","town_kana":"オオヤブチョウ","prefecture_code":37},"0052":{"zip_code":"7620052","prefecture":"香川県","prefecture_kana":"カガワケン","city":"坂出市","city_kana":"サカイデシ","town":"沖の浜","town_kana":"オキノハマ","prefecture_code":37},"0038":{"zip_code":"7620038","prefecture":"香川県","prefecture_kana":"カガワケン","city":"坂出市","city_kana":"サカイデシ","town":"笠指町","town_kana":"カザシチョウ","prefecture_code":37},"0022":{"zip_code":"7620022","prefecture":"香川県","prefecture_kana":"カガワケン","city":"坂出市","city_kana":"サカイデシ","town":"加茂町甲（氏部）","town_kana":"カモチョウコウ(ウジベ)","prefecture_code":37},"0023":{"zip_code":"7620023","prefecture":"香川県","prefecture_kana":"カガワケン","city":"坂出市","city_kana":"サカイデシ","town":"加茂町（その他）","town_kana":"カモチョウ(ソノタ)","prefecture_code":37},"0062":{"zip_code":"7620062","prefecture":"香川県","prefecture_kana":"カガワケン","city":"坂出市","city_kana":"サカイデシ","town":"川崎町","town_kana":"カワサキチョウ","prefecture_code":37},"0025":{"zip_code":"7620025","prefecture":"香川県","prefecture_kana":"カガワケン","city":"坂出市","city_kana":"サカイデシ","town":"川津町","town_kana":"カワツチョウ","prefecture_code":37},"0018":{"zip_code":"7620018","prefecture":"香川県","prefecture_kana":"カガワケン","city":"坂出市","city_kana":"サカイデシ","town":"神谷町","town_kana":"カンダニチョウ","prefecture_code":37},"0001":{"zip_code":"7620001","prefecture":"香川県","prefecture_kana":"カガワケン","city":"坂出市","city_kana":"サカイデシ","town":"京町","town_kana":"キョウマチ","prefecture_code":37},"0003":{"zip_code":"7620003","prefecture":"香川県","prefecture_kana":"カガワケン","city":"坂出市","city_kana":"サカイデシ","town":"久米町","town_kana":"クメチョウ","prefecture_code":37},"0043":{"zip_code":"7620043","prefecture":"香川県","prefecture_kana":"カガワケン","city":"坂出市","city_kana":"サカイデシ","town":"寿町","town_kana":"コトブキチョウ","prefecture_code":37},"0051":{"zip_code":"7620051","prefecture":"香川県","prefecture_kana":"カガワケン","city":"坂出市","city_kana":"サカイデシ","town":"御供所町","town_kana":"ゴブショチョウ","prefecture_code":37},"0032":{"zip_code":"7620032","prefecture":"香川県","prefecture_kana":"カガワケン","city":"坂出市","city_kana":"サカイデシ","town":"駒止町","town_kana":"コマドメチョウ","prefecture_code":37},"0026":{"zip_code":"7620026","prefecture":"香川県","prefecture_kana":"カガワケン","city":"坂出市","city_kana":"サカイデシ","town":"小山町","town_kana":"コヤマチョウ","prefecture_code":37},"0061":{"zip_code":"7620061","prefecture":"香川県","prefecture_kana":"カガワケン","city":"坂出市","city_kana":"サカイデシ","town":"坂出町","town_kana":"サカイデチョウ","prefecture_code":37},"0066":{"zip_code":"7620066","prefecture":"香川県","prefecture_kana":"カガワケン","city":"坂出市","city_kana":"サカイデシ","town":"沙弥島","town_kana":"シャミジマ","prefecture_code":37},"0004":{"zip_code":"7620004","prefecture":"香川県","prefecture_kana":"カガワケン","city":"坂出市","city_kana":"サカイデシ","town":"昭和町","town_kana":"ショウワチョウ","prefecture_code":37},"0042":{"zip_code":"7620042","prefecture":"香川県","prefecture_kana":"カガワケン","city":"坂出市","city_kana":"サカイデシ","town":"白金町","town_kana":"シロガネチョウ","prefecture_code":37},"0047":{"zip_code":"7620047","prefecture":"香川県","prefecture_kana":"カガワケン","city":"坂出市","city_kana":"サカイデシ","town":"新浜町","town_kana":"シンハマチョウ","prefecture_code":37},"0067":{"zip_code":"7620067","prefecture":"香川県","prefecture_kana":"カガワケン","city":"坂出市","city_kana":"サカイデシ","town":"瀬居町","town_kana":"セイチョウ","prefecture_code":37},"0017":{"zip_code":"7620017","prefecture":"香川県","prefecture_kana":"カガワケン","city":"坂出市","city_kana":"サカイデシ","town":"高屋町","town_kana":"タカヤチョウ","prefecture_code":37},"0033":{"zip_code":"7620033","prefecture":"香川県","prefecture_kana":"カガワケン","city":"坂出市","city_kana":"サカイデシ","town":"谷町","town_kana":"タニマチ","prefecture_code":37},"0055":{"zip_code":"7620055","prefecture":"香川県","prefecture_kana":"カガワケン","city":"坂出市","city_kana":"サカイデシ","town":"築港町","town_kana":"チッコウチョウ","prefecture_code":37},"0056":{"zip_code":"7620056","prefecture":"香川県","prefecture_kana":"カガワケン","city":"坂出市","city_kana":"サカイデシ","town":"中央町","town_kana":"チュウオウチョウ","prefecture_code":37},"0058":{"zip_code":"7620058","prefecture":"香川県","prefecture_kana":"カガワケン","city":"坂出市","city_kana":"サカイデシ","town":"常盤町","town_kana":"トキワチョウ","prefecture_code":37},"0054":{"zip_code":"7620054","prefecture":"香川県","prefecture_kana":"カガワケン","city":"坂出市","city_kana":"サカイデシ","town":"西大浜南","town_kana":"ニシオオハマミナミ","prefecture_code":37},"0053":{"zip_code":"7620053","prefecture":"香川県","prefecture_kana":"カガワケン","city":"坂出市","city_kana":"サカイデシ","town":"西大浜北","town_kana":"ニシオオハマキタ","prefecture_code":37},"0021":{"zip_code":"7620021","prefecture":"香川県","prefecture_kana":"カガワケン","city":"坂出市","city_kana":"サカイデシ","town":"西庄町","town_kana":"ニシノショウチョウ","prefecture_code":37},"0041":{"zip_code":"7620041","prefecture":"香川県","prefecture_kana":"カガワケン","city":"坂出市","city_kana":"サカイデシ","town":"八幡町","town_kana":"ハチマンチョウ","prefecture_code":37},"0036":{"zip_code":"7620036","prefecture":"香川県","prefecture_kana":"カガワケン","city":"坂出市","city_kana":"サカイデシ","town":"花町","town_kana":"ハナマチ","prefecture_code":37},"0012":{"zip_code":"7620012","prefecture":"香川県","prefecture_kana":"カガワケン","city":"坂出市","city_kana":"サカイデシ","town":"林田町","town_kana":"ハヤシダチョウ","prefecture_code":37},"0063":{"zip_code":"7620063","prefecture":"香川県","prefecture_kana":"カガワケン","city":"坂出市","city_kana":"サカイデシ","town":"番の州公園","town_kana":"バンノスコウエン","prefecture_code":37},"0064":{"zip_code":"7620064","prefecture":"香川県","prefecture_kana":"カガワケン","city":"坂出市","city_kana":"サカイデシ","town":"番の州町","town_kana":"バンノスチョウ","prefecture_code":37},"0065":{"zip_code":"7620065","prefecture":"香川県","prefecture_kana":"カガワケン","city":"坂出市","city_kana":"サカイデシ","town":"番の州緑町","town_kana":"バンノスミドリチョウ","prefecture_code":37},"0073":{"zip_code":"7620073","prefecture":"香川県","prefecture_kana":"カガワケン","city":"坂出市","city_kana":"サカイデシ","town":"櫃石","town_kana":"ヒツイシ","prefecture_code":37},"0034":{"zip_code":"7620034","prefecture":"香川県","prefecture_kana":"カガワケン","city":"坂出市","city_kana":"サカイデシ","town":"福江町","town_kana":"フクエチョウ","prefecture_code":37},"0046":{"zip_code":"7620046","prefecture":"香川県","prefecture_kana":"カガワケン","city":"坂出市","city_kana":"サカイデシ","town":"富士見町","town_kana":"フジミチョウ","prefecture_code":37},"0024":{"zip_code":"7620024","prefecture":"香川県","prefecture_kana":"カガワケン","city":"坂出市","city_kana":"サカイデシ","town":"府中町","town_kana":"フチュウチョウ","prefecture_code":37},"0031":{"zip_code":"7620031","prefecture":"香川県","prefecture_kana":"カガワケン","city":"坂出市","city_kana":"サカイデシ","town":"文京町","town_kana":"ブンキョウチョウ","prefecture_code":37},"0044":{"zip_code":"7620044","prefecture":"香川県","prefecture_kana":"カガワケン","city":"坂出市","city_kana":"サカイデシ","town":"本町","town_kana":"ホンマチ","prefecture_code":37},"0057":{"zip_code":"7620057","prefecture":"香川県","prefecture_kana":"カガワケン","city":"坂出市","city_kana":"サカイデシ","town":"宮下町","town_kana":"ミヤシタチョウ","prefecture_code":37},"0007":{"zip_code":"7620007","prefecture":"香川県","prefecture_kana":"カガワケン","city":"坂出市","city_kana":"サカイデシ","town":"室町","town_kana":"ムロマチ","prefecture_code":37},"0045":{"zip_code":"7620045","prefecture":"香川県","prefecture_kana":"カガワケン","city":"坂出市","city_kana":"サカイデシ","town":"元町","town_kana":"モトマチ","prefecture_code":37},"0005":{"zip_code":"7620005","prefecture":"香川県","prefecture_kana":"カガワケン","city":"坂出市","city_kana":"サカイデシ","town":"横津町","town_kana":"ヨコヅチョウ","prefecture_code":37},"0071":{"zip_code":"7620071","prefecture":"香川県","prefecture_kana":"カガワケン","city":"坂出市","city_kana":"サカイデシ","town":"与島町","town_kana":"ヨシマチョウ","prefecture_code":37}}