{"0000":{"zip_code":"7640000","prefecture":"香川県","prefecture_kana":"カガワケン","city":"仲多度郡多度津町","city_kana":"ナカタドグンタドツチョウ","town":"","town_kana":"","prefecture_code":37},"0033":{"zip_code":"7640033","prefecture":"香川県","prefecture_kana":"カガワケン","city":"仲多度郡多度津町","city_kana":"ナカタドグンタドツチョウ","town":"青木","town_kana":"オオギ","prefecture_code":37},"0005":{"zip_code":"7640005","prefecture":"香川県","prefecture_kana":"カガワケン","city":"仲多度郡多度津町","city_kana":"ナカタドグンタドツチョウ","town":"大通り","town_kana":"オオドオリ","prefecture_code":37},"0035":{"zip_code":"7640035","prefecture":"香川県","prefecture_kana":"カガワケン","city":"仲多度郡多度津町","city_kana":"ナカタドグンタドツチョウ","town":"奥白方","town_kana":"オクシラカタ","prefecture_code":37},"0028":{"zip_code":"7640028","prefecture":"香川県","prefecture_kana":"カガワケン","city":"仲多度郡多度津町","city_kana":"ナカタドグンタドツチョウ","town":"葛原","town_kana":"カズハラ","prefecture_code":37},"0002":{"zip_code":"7640002","prefecture":"香川県","prefecture_kana":"カガワケン","city":"仲多度郡多度津町","city_kana":"ナカタドグンタドツチョウ","town":"家中","town_kana":"カチュウ","prefecture_code":37},"0022":{"zip_code":"7640022","prefecture":"香川県","prefecture_kana":"カガワケン","city":"仲多度郡多度津町","city_kana":"ナカタドグンタドツチョウ","town":"北鴨","town_kana":"キタガモ","prefecture_code":37},"0013":{"zip_code":"7640013","prefecture":"香川県","prefecture_kana":"カガワケン","city":"仲多度郡多度津町","city_kana":"ナカタドグンタドツチョウ","town":"京町","town_kana":"キョウマチ","prefecture_code":37},"0025":{"zip_code":"7640025","prefecture":"香川県","prefecture_kana":"カガワケン","city":"仲多度郡多度津町","city_kana":"ナカタドグンタドツチョウ","town":"寿町","town_kana":"コトブキチョウ","prefecture_code":37},"0024":{"zip_code":"7640024","prefecture":"香川県","prefecture_kana":"カガワケン","city":"仲多度郡多度津町","city_kana":"ナカタドグンタドツチョウ","town":"幸町","town_kana":"サイワイチョウ","prefecture_code":37},"0011":{"zip_code":"7640011","prefecture":"香川県","prefecture_kana":"カガワケン","city":"仲多度郡多度津町","city_kana":"ナカタドグンタドツチョウ","town":"栄町","town_kana":"サカエマチ","prefecture_code":37},"0012":{"zip_code":"7640012","prefecture":"香川県","prefecture_kana":"カガワケン","city":"仲多度郡多度津町","city_kana":"ナカタドグンタドツチョウ","town":"桜川","town_kana":"サクラガワ","prefecture_code":37},"0040":{"zip_code":"7640040","prefecture":"香川県","prefecture_kana":"カガワケン","city":"仲多度郡多度津町","city_kana":"ナカタドグンタドツチョウ","town":"佐柳","town_kana":"サナギ","prefecture_code":37},"0031":{"zip_code":"7640031","prefecture":"香川県","prefecture_kana":"カガワケン","city":"仲多度郡多度津町","city_kana":"ナカタドグンタドツチョウ","town":"庄","town_kana":"ショウ","prefecture_code":37},"0050":{"zip_code":"7640050","prefecture":"香川県","prefecture_kana":"カガワケン","city":"仲多度郡多度津町","city_kana":"ナカタドグンタドツチョウ","town":"高見","town_kana":"タカミ","prefecture_code":37},"0027":{"zip_code":"7640027","prefecture":"香川県","prefecture_kana":"カガワケン","city":"仲多度郡多度津町","city_kana":"ナカタドグンタドツチョウ","town":"道福寺","town_kana":"ドウフクジ","prefecture_code":37},"0004":{"zip_code":"7640004","prefecture":"香川県","prefecture_kana":"カガワケン","city":"仲多度郡多度津町","city_kana":"ナカタドグンタドツチョウ","town":"仲ノ町","town_kana":"ナカノチョウ","prefecture_code":37},"0037":{"zip_code":"7640037","prefecture":"香川県","prefecture_kana":"カガワケン","city":"仲多度郡多度津町","city_kana":"ナカタドグンタドツチョウ","town":"西白方","town_kana":"ニシシラカタ","prefecture_code":37},"0015":{"zip_code":"7640015","prefecture":"香川県","prefecture_kana":"カガワケン","city":"仲多度郡多度津町","city_kana":"ナカタドグンタドツチョウ","town":"西浜","town_kana":"ニシハマ","prefecture_code":37},"0017":{"zip_code":"7640017","prefecture":"香川県","prefecture_kana":"カガワケン","city":"仲多度郡多度津町","city_kana":"ナカタドグンタドツチョウ","town":"西港町","town_kana":"ニシミナトマチ","prefecture_code":37},"0038":{"zip_code":"7640038","prefecture":"香川県","prefecture_kana":"カガワケン","city":"仲多度郡多度津町","city_kana":"ナカタドグンタドツチョウ","town":"東白方","town_kana":"ヒガシシラカタ","prefecture_code":37},"0001":{"zip_code":"7640001","prefecture":"香川県","prefecture_kana":"カガワケン","city":"仲多度郡多度津町","city_kana":"ナカタドグンタドツチョウ","town":"東新町","town_kana":"ヒガシシンマチ","prefecture_code":37},"0016":{"zip_code":"7640016","prefecture":"香川県","prefecture_kana":"カガワケン","city":"仲多度郡多度津町","city_kana":"ナカタドグンタドツチョウ","town":"東浜","town_kana":"ヒガシハマ","prefecture_code":37},"0018":{"zip_code":"7640018","prefecture":"香川県","prefecture_kana":"カガワケン","city":"仲多度郡多度津町","city_kana":"ナカタドグンタドツチョウ","town":"東港町","town_kana":"ヒガシミナトマチ","prefecture_code":37},"0006":{"zip_code":"7640006","prefecture":"香川県","prefecture_kana":"カガワケン","city":"仲多度郡多度津町","city_kana":"ナカタドグンタドツチョウ","town":"日の出町","town_kana":"ヒノデチョウ","prefecture_code":37},"0021":{"zip_code":"7640021","prefecture":"香川県","prefecture_kana":"カガワケン","city":"仲多度郡多度津町","city_kana":"ナカタドグンタドツチョウ","town":"堀江","town_kana":"ホリエ","prefecture_code":37},"0014":{"zip_code":"7640014","prefecture":"香川県","prefecture_kana":"カガワケン","city":"仲多度郡多度津町","city_kana":"ナカタドグンタドツチョウ","town":"本通","town_kana":"ホンドオリ","prefecture_code":37},"0032":{"zip_code":"7640032","prefecture":"香川県","prefecture_kana":"カガワケン","city":"仲多度郡多度津町","city_kana":"ナカタドグンタドツチョウ","town":"三井","town_kana":"ミイ","prefecture_code":37},"0036":{"zip_code":"7640036","prefecture":"香川県","prefecture_kana":"カガワケン","city":"仲多度郡多度津町","city_kana":"ナカタドグンタドツチョウ","town":"見立","town_kana":"ミタチ","prefecture_code":37},"0026":{"zip_code":"7640026","prefecture":"香川県","prefecture_kana":"カガワケン","city":"仲多度郡多度津町","city_kana":"ナカタドグンタドツチョウ","town":"南鴨","town_kana":"ミナミガモ","prefecture_code":37},"0003":{"zip_code":"7640003","prefecture":"香川県","prefecture_kana":"カガワケン","city":"仲多度郡多度津町","city_kana":"ナカタドグンタドツチョウ","town":"元町","town_kana":"モトマチ","prefecture_code":37},"0034":{"zip_code":"7640034","prefecture":"香川県","prefecture_kana":"カガワケン","city":"仲多度郡多度津町","city_kana":"ナカタドグンタドツチョウ","town":"山階","town_kana":"ヤマシナ","prefecture_code":37},"0023":{"zip_code":"7640023","prefecture":"香川県","prefecture_kana":"カガワケン","city":"仲多度郡多度津町","city_kana":"ナカタドグンタドツチョウ","town":"若葉町","town_kana":"ワカバチョウ","prefecture_code":37}}