{"0000":{"zip_code":"7650000","prefecture":"香川県","prefecture_kana":"カガワケン","city":"善通寺市","city_kana":"ゼンツウジシ","town":"","town_kana":"","prefecture_code":37},"0053":{"zip_code":"7650053","prefecture":"香川県","prefecture_kana":"カガワケン","city":"善通寺市","city_kana":"ゼンツウジシ","town":"生野町","town_kana":"イカノチョウ","prefecture_code":37},"0014":{"zip_code":"7650014","prefecture":"香川県","prefecture_kana":"カガワケン","city":"善通寺市","city_kana":"ゼンツウジシ","town":"生野本町","town_kana":"イカノホンマチ","prefecture_code":37},"0022":{"zip_code":"7650022","prefecture":"香川県","prefecture_kana":"カガワケン","city":"善通寺市","city_kana":"ゼンツウジシ","town":"稲木町","town_kana":"イナギチョウ","prefecture_code":37},"0052":{"zip_code":"7650052","prefecture":"香川県","prefecture_kana":"カガワケン","city":"善通寺市","city_kana":"ゼンツウジシ","town":"大麻町","town_kana":"オオサチョウ","prefecture_code":37},"0011":{"zip_code":"7650011","prefecture":"香川県","prefecture_kana":"カガワケン","city":"善通寺市","city_kana":"ゼンツウジシ","town":"上吉田町","town_kana":"カミヨシダチョウ","prefecture_code":37},"0012":{"zip_code":"7650012","prefecture":"香川県","prefecture_kana":"カガワケン","city":"善通寺市","city_kana":"ゼンツウジシ","town":"上吉田町","town_kana":"カミヨシダチョウ","prefecture_code":37},"0033":{"zip_code":"7650033","prefecture":"香川県","prefecture_kana":"カガワケン","city":"善通寺市","city_kana":"ゼンツウジシ","town":"木徳町","town_kana":"キトクチョウ","prefecture_code":37},"0051":{"zip_code":"7650051","prefecture":"香川県","prefecture_kana":"カガワケン","city":"善通寺市","city_kana":"ゼンツウジシ","town":"櫛梨町","town_kana":"クシナシチョウ","prefecture_code":37},"0031":{"zip_code":"7650031","prefecture":"香川県","prefecture_kana":"カガワケン","city":"善通寺市","city_kana":"ゼンツウジシ","town":"金蔵寺町","town_kana":"コンゾウジチョウ","prefecture_code":37},"0021":{"zip_code":"7650021","prefecture":"香川県","prefecture_kana":"カガワケン","city":"善通寺市","city_kana":"ゼンツウジシ","town":"下吉田町","town_kana":"シモヨシダチョウ","prefecture_code":37},"0003":{"zip_code":"7650003","prefecture":"香川県","prefecture_kana":"カガワケン","city":"善通寺市","city_kana":"ゼンツウジシ","town":"善通寺町","town_kana":"ゼンツウジチョウ","prefecture_code":37},"0004":{"zip_code":"7650004","prefecture":"香川県","prefecture_kana":"カガワケン","city":"善通寺市","city_kana":"ゼンツウジシ","town":"善通寺町","town_kana":"ゼンツウジチョウ","prefecture_code":37},"0001":{"zip_code":"7650001","prefecture":"香川県","prefecture_kana":"カガワケン","city":"善通寺市","city_kana":"ゼンツウジシ","town":"仙遊町","town_kana":"センユウチョウ","prefecture_code":37},"0072":{"zip_code":"7650072","prefecture":"香川県","prefecture_kana":"カガワケン","city":"善通寺市","city_kana":"ゼンツウジシ","town":"中村町","town_kana":"ナカムラチョウ","prefecture_code":37},"0073":{"zip_code":"7650073","prefecture":"香川県","prefecture_kana":"カガワケン","city":"善通寺市","city_kana":"ゼンツウジシ","town":"中村町","town_kana":"ナカムラチョウ","prefecture_code":37},"0032":{"zip_code":"7650032","prefecture":"香川県","prefecture_kana":"カガワケン","city":"善通寺市","city_kana":"ゼンツウジシ","town":"原田町","town_kana":"ハラダチョウ","prefecture_code":37},"0062":{"zip_code":"7650062","prefecture":"香川県","prefecture_kana":"カガワケン","city":"善通寺市","city_kana":"ゼンツウジシ","town":"碑殿町","town_kana":"ヒドノチョウ","prefecture_code":37},"0071":{"zip_code":"7650071","prefecture":"香川県","prefecture_kana":"カガワケン","city":"善通寺市","city_kana":"ゼンツウジシ","town":"弘田町","town_kana":"ヒロタチョウ","prefecture_code":37},"0013":{"zip_code":"7650013","prefecture":"香川県","prefecture_kana":"カガワケン","city":"善通寺市","city_kana":"ゼンツウジシ","town":"文京町","town_kana":"ブンキョウチョウ","prefecture_code":37},"0002":{"zip_code":"7650002","prefecture":"香川県","prefecture_kana":"カガワケン","city":"善通寺市","city_kana":"ゼンツウジシ","town":"南町","town_kana":"ミナミマチ","prefecture_code":37},"0040":{"zip_code":"7650040","prefecture":"香川県","prefecture_kana":"カガワケン","city":"善通寺市","city_kana":"ゼンツウジシ","town":"与北町","town_kana":"ヨギタチョウ","prefecture_code":37},"0061":{"zip_code":"7650061","prefecture":"香川県","prefecture_kana":"カガワケン","city":"善通寺市","city_kana":"ゼンツウジシ","town":"吉原町","town_kana":"ヨシワラチョウ","prefecture_code":37}}