{"0000":[{"zip_code":"7660000","prefecture":"香川県","prefecture_kana":"カガワケン","city":"仲多度郡琴平町","city_kana":"ナカタドグンコトヒラチョウ","town":"","town_kana":"","prefecture_code":37},{"zip_code":"7660000","prefecture":"香川県","prefecture_kana":"カガワケン","city":"仲多度郡まんのう町","city_kana":"ナカタドグンマンノウチョウ","town":"","town_kana":"","prefecture_code":37}],"0004":{"zip_code":"7660004","prefecture":"香川県","prefecture_kana":"カガワケン","city":"仲多度郡琴平町","city_kana":"ナカタドグンコトヒラチョウ","town":"榎井","town_kana":"エナイ","prefecture_code":37},"0006":{"zip_code":"7660006","prefecture":"香川県","prefecture_kana":"カガワケン","city":"仲多度郡琴平町","city_kana":"ナカタドグンコトヒラチョウ","town":"上櫛梨","town_kana":"カミクシナシ","prefecture_code":37},"0002":[{"zip_code":"7660002","prefecture":"香川県","prefecture_kana":"カガワケン","city":"仲多度郡琴平町","city_kana":"ナカタドグンコトヒラチョウ","town":"琴平町","town_kana":"コトヒラチョウ","prefecture_code":37},{"zip_code":"7660002","prefecture":"香川県","prefecture_kana":"カガワケン","city":"仲多度郡琴平町","city_kana":"ナカタドグンコトヒラチョウ","town":"琴平町川東","town_kana":"コトヒラチョウカワヒガシ","prefecture_code":37}],"0001":[{"zip_code":"7660001","prefecture":"香川県","prefecture_kana":"カガワケン","city":"仲多度郡琴平町","city_kana":"ナカタドグンコトヒラチョウ","town":"琴平町","town_kana":"コトヒラチョウ","prefecture_code":37},{"zip_code":"7660001","prefecture":"香川県","prefecture_kana":"カガワケン","city":"仲多度郡琴平町","city_kana":"ナカタドグンコトヒラチョウ","town":"琴平町川西","town_kana":"コトヒラチョウカワニシ","prefecture_code":37}],"0003":{"zip_code":"7660003","prefecture":"香川県","prefecture_kana":"カガワケン","city":"仲多度郡琴平町","city_kana":"ナカタドグンコトヒラチョウ","town":"五條","town_kana":"ゴジョウ","prefecture_code":37},"0007":{"zip_code":"7660007","prefecture":"香川県","prefecture_kana":"カガワケン","city":"仲多度郡琴平町","city_kana":"ナカタドグンコトヒラチョウ","town":"下櫛梨","town_kana":"シモクシナシ","prefecture_code":37},"0005":{"zip_code":"7660005","prefecture":"香川県","prefecture_kana":"カガワケン","city":"仲多度郡琴平町","city_kana":"ナカタドグンコトヒラチョウ","town":"苗田","town_kana":"ノウダ","prefecture_code":37},"0204":{"zip_code":"7660204","prefecture":"香川県","prefecture_kana":"カガワケン","city":"仲多度郡まんのう町","city_kana":"ナカタドグンマンノウチョウ","town":"勝浦","town_kana":"カツウラ","prefecture_code":37},"0203":{"zip_code":"7660203","prefecture":"香川県","prefecture_kana":"カガワケン","city":"仲多度郡まんのう町","city_kana":"ナカタドグンマンノウチョウ","town":"川東","town_kana":"カワヒガシ","prefecture_code":37},"0024":{"zip_code":"7660024","prefecture":"香川県","prefecture_kana":"カガワケン","city":"仲多度郡まんのう町","city_kana":"ナカタドグンマンノウチョウ","town":"神野","town_kana":"カンノ","prefecture_code":37},"0026":{"zip_code":"7660026","prefecture":"香川県","prefecture_kana":"カガワケン","city":"仲多度郡まんのう町","city_kana":"ナカタドグンマンノウチョウ","town":"岸上","town_kana":"キシノウエ","prefecture_code":37},"0011":{"zip_code":"7660011","prefecture":"香川県","prefecture_kana":"カガワケン","city":"仲多度郡まんのう町","city_kana":"ナカタドグンマンノウチョウ","town":"公文","town_kana":"クモン","prefecture_code":37},"0027":{"zip_code":"7660027","prefecture":"香川県","prefecture_kana":"カガワケン","city":"仲多度郡まんのう町","city_kana":"ナカタドグンマンノウチョウ","town":"五條","town_kana":"ゴジョウ","prefecture_code":37},"0021":{"zip_code":"7660021","prefecture":"香川県","prefecture_kana":"カガワケン","city":"仲多度郡まんのう町","city_kana":"ナカタドグンマンノウチョウ","town":"四條","town_kana":"シジョウ","prefecture_code":37},"0017":{"zip_code":"7660017","prefecture":"香川県","prefecture_kana":"カガワケン","city":"仲多度郡まんのう町","city_kana":"ナカタドグンマンノウチョウ","town":"炭所西","town_kana":"スミショニシ","prefecture_code":37},"0016":{"zip_code":"7660016","prefecture":"香川県","prefecture_kana":"カガワケン","city":"仲多度郡まんのう町","city_kana":"ナカタドグンマンノウチョウ","town":"炭所東","town_kana":"スミショヒガシ","prefecture_code":37},"0201":{"zip_code":"7660201","prefecture":"香川県","prefecture_kana":"カガワケン","city":"仲多度郡まんのう町","city_kana":"ナカタドグンマンノウチョウ","town":"造田","town_kana":"ソウダ","prefecture_code":37},"0015":{"zip_code":"7660015","prefecture":"香川県","prefecture_kana":"カガワケン","city":"仲多度郡まんのう町","city_kana":"ナカタドグンマンノウチョウ","town":"長尾","town_kana":"ナガオ","prefecture_code":37},"0202":{"zip_code":"7660202","prefecture":"香川県","prefecture_kana":"カガワケン","city":"仲多度郡まんのう町","city_kana":"ナカタドグンマンノウチョウ","town":"中通","town_kana":"ナカト","prefecture_code":37},"0012":{"zip_code":"7660012","prefecture":"香川県","prefecture_kana":"カガワケン","city":"仲多度郡まんのう町","city_kana":"ナカタドグンマンノウチョウ","town":"西高篠","town_kana":"ニシタカシノ","prefecture_code":37},"0014":{"zip_code":"7660014","prefecture":"香川県","prefecture_kana":"カガワケン","city":"仲多度郡まんのう町","city_kana":"ナカタドグンマンノウチョウ","town":"羽間","town_kana":"ハザマ","prefecture_code":37},"0013":{"zip_code":"7660013","prefecture":"香川県","prefecture_kana":"カガワケン","city":"仲多度郡まんのう町","city_kana":"ナカタドグンマンノウチョウ","town":"東高篠","town_kana":"ヒガシタカシノ","prefecture_code":37},"0025":{"zip_code":"7660025","prefecture":"香川県","prefecture_kana":"カガワケン","city":"仲多度郡まんのう町","city_kana":"ナカタドグンマンノウチョウ","town":"真野","town_kana":"マノ","prefecture_code":37},"0023":{"zip_code":"7660023","prefecture":"香川県","prefecture_kana":"カガワケン","city":"仲多度郡まんのう町","city_kana":"ナカタドグンマンノウチョウ","town":"吉野","town_kana":"ヨシノ","prefecture_code":37},"0022":{"zip_code":"7660022","prefecture":"香川県","prefecture_kana":"カガワケン","city":"仲多度郡まんのう町","city_kana":"ナカタドグンマンノウチョウ","town":"吉野下","town_kana":"ヨシノシモ","prefecture_code":37}}