{"0000":{"zip_code":"7670000","prefecture":"香川県","prefecture_kana":"カガワケン","city":"三豊市","city_kana":"ミトヨシ","town":"","town_kana":"","prefecture_code":37},"0014":{"zip_code":"7670014","prefecture":"香川県","prefecture_kana":"カガワケン","city":"三豊市","city_kana":"ミトヨシ","town":"高瀬町上麻","town_kana":"タカセチョウカミアサ","prefecture_code":37},"0012":{"zip_code":"7670012","prefecture":"香川県","prefecture_kana":"カガワケン","city":"三豊市","city_kana":"ミトヨシ","town":"高瀬町上勝間","town_kana":"タカセチョウカミカツマ","prefecture_code":37},"0001":{"zip_code":"7670001","prefecture":"香川県","prefecture_kana":"カガワケン","city":"三豊市","city_kana":"ミトヨシ","town":"高瀬町上高瀬","town_kana":"タカセチョウカミタカセ","prefecture_code":37},"0021":{"zip_code":"7670021","prefecture":"香川県","prefecture_kana":"カガワケン","city":"三豊市","city_kana":"ミトヨシ","town":"高瀬町佐股","town_kana":"タカセチョウサマタ","prefecture_code":37},"0013":{"zip_code":"7670013","prefecture":"香川県","prefecture_kana":"カガワケン","city":"三豊市","city_kana":"ミトヨシ","town":"高瀬町下麻","town_kana":"タカセチョウシモアサ","prefecture_code":37},"0011":{"zip_code":"7670011","prefecture":"香川県","prefecture_kana":"カガワケン","city":"三豊市","city_kana":"ミトヨシ","town":"高瀬町下勝間","town_kana":"タカセチョウシモカツマ","prefecture_code":37},"0002":{"zip_code":"7670002","prefecture":"香川県","prefecture_kana":"カガワケン","city":"三豊市","city_kana":"ミトヨシ","town":"高瀬町新名","town_kana":"タカセチョウシンミョウ","prefecture_code":37},"0022":{"zip_code":"7670022","prefecture":"香川県","prefecture_kana":"カガワケン","city":"三豊市","city_kana":"ミトヨシ","town":"高瀬町羽方","town_kana":"タカセチョウハガタ","prefecture_code":37},"0004":{"zip_code":"7670004","prefecture":"香川県","prefecture_kana":"カガワケン","city":"三豊市","city_kana":"ミトヨシ","town":"高瀬町比地","town_kana":"タカセチョウヒジ","prefecture_code":37},"0003":{"zip_code":"7670003","prefecture":"香川県","prefecture_kana":"カガワケン","city":"三豊市","city_kana":"ミトヨシ","town":"高瀬町比地中","town_kana":"タカセチョウヒジナカ","prefecture_code":37},"0031":{"zip_code":"7670031","prefecture":"香川県","prefecture_kana":"カガワケン","city":"三豊市","city_kana":"ミトヨシ","town":"三野町大見","town_kana":"ミノチョウオオミ","prefecture_code":37},"0032":{"zip_code":"7670032","prefecture":"香川県","prefecture_kana":"カガワケン","city":"三豊市","city_kana":"ミトヨシ","town":"三野町下高瀬","town_kana":"ミノチョウシモタカセ","prefecture_code":37},"0033":{"zip_code":"7670033","prefecture":"香川県","prefecture_kana":"カガワケン","city":"三豊市","city_kana":"ミトヨシ","town":"三野町吉津","town_kana":"ミノチョウヨシヅ","prefecture_code":37}}