{"0000":{"zip_code":"7680000","prefecture":"香川県","prefecture_kana":"カガワケン","city":"観音寺市","city_kana":"カンオンジシ","town":"","town_kana":"","prefecture_code":37},"0062":{"zip_code":"7680062","prefecture":"香川県","prefecture_kana":"カガワケン","city":"観音寺市","city_kana":"カンオンジシ","town":"有明町","town_kana":"アリアケチョウ","prefecture_code":37},"0052":{"zip_code":"7680052","prefecture":"香川県","prefecture_kana":"カガワケン","city":"観音寺市","city_kana":"カンオンジシ","town":"粟井町","town_kana":"アワイチョウ","prefecture_code":37},"0031":{"zip_code":"7680031","prefecture":"香川県","prefecture_kana":"カガワケン","city":"観音寺市","city_kana":"カンオンジシ","town":"池之尻町","town_kana":"イケノシリチョウ","prefecture_code":37},"0071":{"zip_code":"7680071","prefecture":"香川県","prefecture_kana":"カガワケン","city":"観音寺市","city_kana":"カンオンジシ","town":"伊吹町","town_kana":"イブキチョウ","prefecture_code":37},"0012":{"zip_code":"7680012","prefecture":"香川県","prefecture_kana":"カガワケン","city":"観音寺市","city_kana":"カンオンジシ","town":"植田町","town_kana":"ウエダチョウ","prefecture_code":37},"0060":{"zip_code":"7680060","prefecture":"香川県","prefecture_kana":"カガワケン","city":"観音寺市","city_kana":"カンオンジシ","town":"観音寺町","town_kana":"カンオンジチョウ","prefecture_code":37},"0051":{"zip_code":"7680051","prefecture":"香川県","prefecture_kana":"カガワケン","city":"観音寺市","city_kana":"カンオンジシ","town":"木之郷町","town_kana":"キノゴウチョウ","prefecture_code":37},"0040":{"zip_code":"7680040","prefecture":"香川県","prefecture_kana":"カガワケン","city":"観音寺市","city_kana":"カンオンジシ","town":"柞田町","town_kana":"クニタチョウ","prefecture_code":37},"0064":{"zip_code":"7680064","prefecture":"香川県","prefecture_kana":"カガワケン","city":"観音寺市","city_kana":"カンオンジシ","town":"琴浪町","town_kana":"コトナミチョウ","prefecture_code":37},"0074":{"zip_code":"7680074","prefecture":"香川県","prefecture_kana":"カガワケン","city":"観音寺市","city_kana":"カンオンジシ","town":"幸町","town_kana":"サイワイチョウ","prefecture_code":37},"0072":{"zip_code":"7680072","prefecture":"香川県","prefecture_kana":"カガワケン","city":"観音寺市","city_kana":"カンオンジシ","town":"栄町","town_kana":"サカエマチ","prefecture_code":37},"0067":{"zip_code":"7680067","prefecture":"香川県","prefecture_kana":"カガワケン","city":"観音寺市","city_kana":"カンオンジシ","town":"坂本町","town_kana":"サカモトチョウ","prefecture_code":37},"0063":{"zip_code":"7680063","prefecture":"香川県","prefecture_kana":"カガワケン","city":"観音寺市","city_kana":"カンオンジシ","town":"三本松町","town_kana":"サンボンマツチョウ","prefecture_code":37},"0069":{"zip_code":"7680069","prefecture":"香川県","prefecture_kana":"カガワケン","city":"観音寺市","city_kana":"カンオンジシ","town":"茂木町","town_kana":"シゲキチョウ","prefecture_code":37},"0073":{"zip_code":"7680073","prefecture":"香川県","prefecture_kana":"カガワケン","city":"観音寺市","city_kana":"カンオンジシ","town":"茂西町","town_kana":"シゲニシチョウ","prefecture_code":37},"0011":{"zip_code":"7680011","prefecture":"香川県","prefecture_kana":"カガワケン","city":"観音寺市","city_kana":"カンオンジシ","town":"出作町","town_kana":"シュツサクチョウ","prefecture_code":37},"0066":{"zip_code":"7680066","prefecture":"香川県","prefecture_kana":"カガワケン","city":"観音寺市","city_kana":"カンオンジシ","town":"昭和町","town_kana":"ショウワチョウ","prefecture_code":37},"0033":{"zip_code":"7680033","prefecture":"香川県","prefecture_kana":"カガワケン","city":"観音寺市","city_kana":"カンオンジシ","town":"新田町","town_kana":"シンデンチョウ","prefecture_code":37},"0065":{"zip_code":"7680065","prefecture":"香川県","prefecture_kana":"カガワケン","city":"観音寺市","city_kana":"カンオンジシ","town":"瀬戸町","town_kana":"セトチョウ","prefecture_code":37},"0002":{"zip_code":"7680002","prefecture":"香川県","prefecture_kana":"カガワケン","city":"観音寺市","city_kana":"カンオンジシ","town":"高屋町","town_kana":"タカヤチョウ","prefecture_code":37},"0068":{"zip_code":"7680068","prefecture":"香川県","prefecture_kana":"カガワケン","city":"観音寺市","city_kana":"カンオンジシ","town":"天神町","town_kana":"テンジンチョウ","prefecture_code":37},"0024":{"zip_code":"7680024","prefecture":"香川県","prefecture_kana":"カガワケン","city":"観音寺市","city_kana":"カンオンジシ","town":"中田井町","town_kana":"ナカダイチョウ","prefecture_code":37},"0014":{"zip_code":"7680014","prefecture":"香川県","prefecture_kana":"カガワケン","city":"観音寺市","city_kana":"カンオンジシ","town":"流岡町","town_kana":"ナガレオカチョウ","prefecture_code":37},"0075":{"zip_code":"7680075","prefecture":"香川県","prefecture_kana":"カガワケン","city":"観音寺市","city_kana":"カンオンジシ","town":"西本町","town_kana":"ニシホンマチ","prefecture_code":37},"0032":{"zip_code":"7680032","prefecture":"香川県","prefecture_kana":"カガワケン","city":"観音寺市","city_kana":"カンオンジシ","town":"原町","town_kana":"ハラチョウ","prefecture_code":37},"0023":{"zip_code":"7680023","prefecture":"香川県","prefecture_kana":"カガワケン","city":"観音寺市","city_kana":"カンオンジシ","town":"古川町","town_kana":"フルカワチョウ","prefecture_code":37},"0076":{"zip_code":"7680076","prefecture":"香川県","prefecture_kana":"カガワケン","city":"観音寺市","city_kana":"カンオンジシ","town":"港町","town_kana":"ミナトマチ","prefecture_code":37},"0070":{"zip_code":"7680070","prefecture":"香川県","prefecture_kana":"カガワケン","city":"観音寺市","city_kana":"カンオンジシ","town":"南町","town_kana":"ミナミマチ","prefecture_code":37},"0013":{"zip_code":"7680013","prefecture":"香川県","prefecture_kana":"カガワケン","city":"観音寺市","city_kana":"カンオンジシ","town":"村黒町","town_kana":"ムラグロチョウ","prefecture_code":37},"0001":{"zip_code":"7680001","prefecture":"香川県","prefecture_kana":"カガワケン","city":"観音寺市","city_kana":"カンオンジシ","town":"室本町","town_kana":"ムロモトチョウ","prefecture_code":37},"0022":{"zip_code":"7680022","prefecture":"香川県","prefecture_kana":"カガワケン","city":"観音寺市","city_kana":"カンオンジシ","town":"本大町","town_kana":"モトダイチョウ","prefecture_code":37},"0061":{"zip_code":"7680061","prefecture":"香川県","prefecture_kana":"カガワケン","city":"観音寺市","city_kana":"カンオンジシ","town":"八幡町","town_kana":"ヤハタチョウ","prefecture_code":37},"0021":{"zip_code":"7680021","prefecture":"香川県","prefecture_kana":"カガワケン","city":"観音寺市","city_kana":"カンオンジシ","town":"吉岡町","town_kana":"ヨシオカチョウ","prefecture_code":37},"0102":{"zip_code":"7680102","prefecture":"香川県","prefecture_kana":"カガワケン","city":"三豊市","city_kana":"ミトヨシ","town":"山本町大野","town_kana":"ヤマモトチョウオオノ","prefecture_code":37},"0104":{"zip_code":"7680104","prefecture":"香川県","prefecture_kana":"カガワケン","city":"三豊市","city_kana":"ミトヨシ","town":"山本町神田","town_kana":"ヤマモトチョウコウダ","prefecture_code":37},"0105":{"zip_code":"7680105","prefecture":"香川県","prefecture_kana":"カガワケン","city":"三豊市","city_kana":"ミトヨシ","town":"山本町河内","town_kana":"ヤマモトチョウコウチ","prefecture_code":37},"0103":{"zip_code":"7680103","prefecture":"香川県","prefecture_kana":"カガワケン","city":"三豊市","city_kana":"ミトヨシ","town":"山本町財田西","town_kana":"ヤマモトチョウサイタニシ","prefecture_code":37},"0101":{"zip_code":"7680101","prefecture":"香川県","prefecture_kana":"カガワケン","city":"三豊市","city_kana":"ミトヨシ","town":"山本町辻","town_kana":"ヤマモトチョウツジ","prefecture_code":37}}