{"0105":{"zip_code":"7690105","prefecture":"香川県","prefecture_kana":"カガワケン","city":"高松市","city_kana":"タカマツシ","town":"国分寺町柏原","town_kana":"コクブンジチョウカシハラ","prefecture_code":37},"0102":{"zip_code":"7690102","prefecture":"香川県","prefecture_kana":"カガワケン","city":"高松市","city_kana":"タカマツシ","town":"国分寺町国分","town_kana":"コクブンジチョウコクブ","prefecture_code":37},"0104":{"zip_code":"7690104","prefecture":"香川県","prefecture_kana":"カガワケン","city":"高松市","city_kana":"タカマツシ","town":"国分寺町新名","town_kana":"コクブンジチョウシンミョウ","prefecture_code":37},"0101":{"zip_code":"7690101","prefecture":"香川県","prefecture_kana":"カガワケン","city":"高松市","city_kana":"タカマツシ","town":"国分寺町新居","town_kana":"コクブンジチョウニイ","prefecture_code":37},"0103":{"zip_code":"7690103","prefecture":"香川県","prefecture_kana":"カガワケン","city":"高松市","city_kana":"タカマツシ","town":"国分寺町福家","town_kana":"コクブンジチョウフケ","prefecture_code":37},"1617":{"zip_code":"7691617","prefecture":"香川県","prefecture_kana":"カガワケン","city":"観音寺市","city_kana":"カンオンジシ","town":"大野原町青岡","town_kana":"オオノハラチョウアオオカ","prefecture_code":37},"1624":{"zip_code":"7691624","prefecture":"香川県","prefecture_kana":"カガワケン","city":"観音寺市","city_kana":"カンオンジシ","town":"大野原町有木","town_kana":"オオノハラチョウアリキ","prefecture_code":37},"1621":{"zip_code":"7691621","prefecture":"香川県","prefecture_kana":"カガワケン","city":"観音寺市","city_kana":"カンオンジシ","town":"大野原町井関","town_kana":"オオノハラチョウイセキ","prefecture_code":37},"1622":{"zip_code":"7691622","prefecture":"香川県","prefecture_kana":"カガワケン","city":"観音寺市","city_kana":"カンオンジシ","town":"大野原町内野々","town_kana":"オオノハラチョウウチノノ","prefecture_code":37},"1625":{"zip_code":"7691625","prefecture":"香川県","prefecture_kana":"カガワケン","city":"観音寺市","city_kana":"カンオンジシ","town":"大野原町海老済","town_kana":"オオノハラチョウエビスクイ","prefecture_code":37},"1611":{"zip_code":"7691611","prefecture":"香川県","prefecture_kana":"カガワケン","city":"観音寺市","city_kana":"カンオンジシ","town":"大野原町大野原","town_kana":"オオノハラチョウオオノハラ","prefecture_code":37},"1623":{"zip_code":"7691623","prefecture":"香川県","prefecture_kana":"カガワケン","city":"観音寺市","city_kana":"カンオンジシ","town":"大野原町田野々","town_kana":"オオノハラチョウタノノ","prefecture_code":37},"1612":{"zip_code":"7691612","prefecture":"香川県","prefecture_kana":"カガワケン","city":"観音寺市","city_kana":"カンオンジシ","town":"大野原町中姫","town_kana":"オオノハラチョウナカヒメ","prefecture_code":37},"1614":{"zip_code":"7691614","prefecture":"香川県","prefecture_kana":"カガワケン","city":"観音寺市","city_kana":"カンオンジシ","town":"大野原町萩原","town_kana":"オオノハラチョウハギワラ","prefecture_code":37},"1613":{"zip_code":"7691613","prefecture":"香川県","prefecture_kana":"カガワケン","city":"観音寺市","city_kana":"カンオンジシ","town":"大野原町花稲","town_kana":"オオノハラチョウハナイナ","prefecture_code":37},"1616":{"zip_code":"7691616","prefecture":"香川県","prefecture_kana":"カガワケン","city":"観音寺市","city_kana":"カンオンジシ","town":"大野原町福田原","town_kana":"オオノハラチョウフクダハラ","prefecture_code":37},"1615":{"zip_code":"7691615","prefecture":"香川県","prefecture_kana":"カガワケン","city":"観音寺市","city_kana":"カンオンジシ","town":"大野原町丸井","town_kana":"オオノハラチョウマルイ","prefecture_code":37},"1601":{"zip_code":"7691601","prefecture":"香川県","prefecture_kana":"カガワケン","city":"観音寺市","city_kana":"カンオンジシ","town":"豊浜町姫浜","town_kana":"トヨハマチョウヒメハマ","prefecture_code":37},"1604":{"zip_code":"7691604","prefecture":"香川県","prefecture_kana":"カガワケン","city":"観音寺市","city_kana":"カンオンジシ","town":"豊浜町箕浦","town_kana":"トヨハマチョウミノウラ","prefecture_code":37},"1603":{"zip_code":"7691603","prefecture":"香川県","prefecture_kana":"カガワケン","city":"観音寺市","city_kana":"カンオンジシ","town":"豊浜町和田","town_kana":"トヨハマチョウワダ","prefecture_code":37},"1602":{"zip_code":"7691602","prefecture":"香川県","prefecture_kana":"カガワケン","city":"観音寺市","city_kana":"カンオンジシ","town":"豊浜町和田浜","town_kana":"トヨハマチョウワダハマ","prefecture_code":37},"2300":{"zip_code":"7692300","prefecture":"香川県","prefecture_kana":"カガワケン","city":"さぬき市","city_kana":"サヌキシ","town":"","town_kana":"","prefecture_code":37},"2103":{"zip_code":"7692103","prefecture":"香川県","prefecture_kana":"カガワケン","city":"さぬき市","city_kana":"サヌキシ","town":"小田","town_kana":"オダ","prefecture_code":37},"2104":{"zip_code":"7692104","prefecture":"香川県","prefecture_kana":"カガワケン","city":"さぬき市","city_kana":"サヌキシ","town":"鴨部","town_kana":"カベ","prefecture_code":37},"2102":{"zip_code":"7692102","prefecture":"香川県","prefecture_kana":"カガワケン","city":"さぬき市","city_kana":"サヌキシ","town":"鴨庄","town_kana":"カモショウ","prefecture_code":37},"2322":{"zip_code":"7692322","prefecture":"香川県","prefecture_kana":"カガワケン","city":"さぬき市","city_kana":"サヌキシ","town":"寒川町石田西","town_kana":"サンガワマチイシダニシ","prefecture_code":37},"2321":{"zip_code":"7692321","prefecture":"香川県","prefecture_kana":"カガワケン","city":"さぬき市","city_kana":"サヌキシ","town":"寒川町石田東","town_kana":"サンガワマチイシダヒガシ","prefecture_code":37},"2323":{"zip_code":"7692323","prefecture":"香川県","prefecture_kana":"カガワケン","city":"さぬき市","city_kana":"サヌキシ","town":"寒川町神前","town_kana":"サンガワマチカンザキ","prefecture_code":37},"2101":{"zip_code":"7692101","prefecture":"香川県","prefecture_kana":"カガワケン","city":"さぬき市","city_kana":"サヌキシ","town":"志度","town_kana":"シド","prefecture_code":37},"2304":{"zip_code":"7692304","prefecture":"香川県","prefecture_kana":"カガワケン","city":"さぬき市","city_kana":"サヌキシ","town":"昭和","town_kana":"ショウワ","prefecture_code":37},"2105":{"zip_code":"7692105","prefecture":"香川県","prefecture_kana":"カガワケン","city":"さぬき市","city_kana":"サヌキシ","town":"末","town_kana":"スエ","prefecture_code":37},"2315":{"zip_code":"7692315","prefecture":"香川県","prefecture_kana":"カガワケン","city":"さぬき市","city_kana":"サヌキシ","town":"造田オレンジタウン","town_kana":"ゾウタオレンジタウン","prefecture_code":37},"2314":{"zip_code":"7692314","prefecture":"香川県","prefecture_kana":"カガワケン","city":"さぬき市","city_kana":"サヌキシ","town":"造田乙井","town_kana":"ゾウタオトイ","prefecture_code":37},"2312":{"zip_code":"7692312","prefecture":"香川県","prefecture_kana":"カガワケン","city":"さぬき市","city_kana":"サヌキシ","town":"造田是弘","town_kana":"ゾウタコレヒロ","prefecture_code":37},"2313":{"zip_code":"7692313","prefecture":"香川県","prefecture_kana":"カガワケン","city":"さぬき市","city_kana":"サヌキシ","town":"造田野間田","town_kana":"ゾウタノマダ","prefecture_code":37},"2311":{"zip_code":"7692311","prefecture":"香川県","prefecture_kana":"カガワケン","city":"さぬき市","city_kana":"サヌキシ","town":"造田宮西","town_kana":"ゾウタミヤニシ","prefecture_code":37},"2306":{"zip_code":"7692306","prefecture":"香川県","prefecture_kana":"カガワケン","city":"さぬき市","city_kana":"サヌキシ","town":"多和","town_kana":"タワ","prefecture_code":37},"2401":{"zip_code":"7692401","prefecture":"香川県","prefecture_kana":"カガワケン","city":"さぬき市","city_kana":"サヌキシ","town":"津田町津田","town_kana":"ツダマチツダ","prefecture_code":37},"2402":{"zip_code":"7692402","prefecture":"香川県","prefecture_kana":"カガワケン","city":"さぬき市","city_kana":"サヌキシ","town":"津田町鶴羽","town_kana":"ツダマチツルワ","prefecture_code":37},"2302":{"zip_code":"7692302","prefecture":"香川県","prefecture_kana":"カガワケン","city":"さぬき市","city_kana":"サヌキシ","town":"長尾西","town_kana":"ナガオニシ","prefecture_code":37},"2301":{"zip_code":"7692301","prefecture":"香川県","prefecture_kana":"カガワケン","city":"さぬき市","city_kana":"サヌキシ","town":"長尾東","town_kana":"ナガオヒガシ","prefecture_code":37},"2303":{"zip_code":"7692303","prefecture":"香川県","prefecture_kana":"カガワケン","city":"さぬき市","city_kana":"サヌキシ","town":"長尾名","town_kana":"ナガオミョウ","prefecture_code":37},"2305":{"zip_code":"7692305","prefecture":"香川県","prefecture_kana":"カガワケン","city":"さぬき市","city_kana":"サヌキシ","town":"前山","town_kana":"マエヤマ","prefecture_code":37},"2700":{"zip_code":"7692700","prefecture":"香川県","prefecture_kana":"カガワケン","city":"東かがわ市","city_kana":"ヒガシカガワシ","town":"","town_kana":"","prefecture_code":37},"2703":{"zip_code":"7692703","prefecture":"香川県","prefecture_kana":"カガワケン","city":"東かがわ市","city_kana":"ヒガシカガワシ","town":"伊座","town_kana":"イザ","prefecture_code":37},"2520":{"zip_code":"7692520","prefecture":"香川県","prefecture_kana":"カガワケン","city":"東かがわ市","city_kana":"ヒガシカガワシ","town":"馬篠","town_kana":"ウマシノ","prefecture_code":37},"2902":{"zip_code":"7692902","prefecture":"香川県","prefecture_kana":"カガワケン","city":"東かがわ市","city_kana":"ヒガシカガワシ","town":"馬宿","town_kana":"ウマヤド","prefecture_code":37},"2908":{"zip_code":"7692908","prefecture":"香川県","prefecture_kana":"カガワケン","city":"東かがわ市","city_kana":"ヒガシカガワシ","town":"小海","town_kana":"オウミ","prefecture_code":37},"2513":{"zip_code":"7692513","prefecture":"香川県","prefecture_kana":"カガワケン","city":"東かがわ市","city_kana":"ヒガシカガワシ","town":"大谷","town_kana":"オオタニ","prefecture_code":37},"2521":{"zip_code":"7692521","prefecture":"香川県","prefecture_kana":"カガワケン","city":"東かがわ市","city_kana":"ヒガシカガワシ","town":"大内","town_kana":"オオチ","prefecture_code":37},"2512":{"zip_code":"7692512","prefecture":"香川県","prefecture_kana":"カガワケン","city":"東かがわ市","city_kana":"ヒガシカガワシ","town":"落合","town_kana":"オチアイ","prefecture_code":37},"2602":{"zip_code":"7692602","prefecture":"香川県","prefecture_kana":"カガワケン","city":"東かがわ市","city_kana":"ヒガシカガワシ","town":"川東","town_kana":"カワヒガシ","prefecture_code":37},"2906":{"zip_code":"7692906","prefecture":"香川県","prefecture_kana":"カガワケン","city":"東かがわ市","city_kana":"ヒガシカガワシ","town":"川股","town_kana":"カワマタ","prefecture_code":37},"2704":{"zip_code":"7692704","prefecture":"香川県","prefecture_kana":"カガワケン","city":"東かがわ市","city_kana":"ヒガシカガワシ","town":"帰来","town_kana":"キライ","prefecture_code":37},"2905":{"zip_code":"7692905","prefecture":"香川県","prefecture_kana":"カガワケン","city":"東かがわ市","city_kana":"ヒガシカガワシ","town":"黒羽","town_kana":"クレハ","prefecture_code":37},"2511":{"zip_code":"7692511","prefecture":"香川県","prefecture_kana":"カガワケン","city":"東かがわ市","city_kana":"ヒガシカガワシ","town":"小磯","town_kana":"コイソ","prefecture_code":37},"2519":{"zip_code":"7692519","prefecture":"香川県","prefecture_kana":"カガワケン","city":"東かがわ市","city_kana":"ヒガシカガワシ","town":"小砂","town_kana":"コザレ","prefecture_code":37},"2715":{"zip_code":"7692715","prefecture":"香川県","prefecture_kana":"カガワケン","city":"東かがわ市","city_kana":"ヒガシカガワシ","town":"五名","town_kana":"ゴミョウ","prefecture_code":37},"2904":{"zip_code":"7692904","prefecture":"香川県","prefecture_kana":"カガワケン","city":"東かがわ市","city_kana":"ヒガシカガワシ","town":"坂元","town_kana":"サカモト","prefecture_code":37},"2601":{"zip_code":"7692601","prefecture":"香川県","prefecture_kana":"カガワケン","city":"東かがわ市","city_kana":"ヒガシカガワシ","town":"三本松","town_kana":"サンボンマツ","prefecture_code":37},"2705":{"zip_code":"7692705","prefecture":"香川県","prefecture_kana":"カガワケン","city":"東かがわ市","city_kana":"ヒガシカガワシ","town":"白鳥","town_kana":"シロトリ","prefecture_code":37},"2516":{"zip_code":"7692516","prefecture":"香川県","prefecture_kana":"カガワケン","city":"東かがわ市","city_kana":"ヒガシカガワシ","town":"土居","town_kana":"ドイ","prefecture_code":37},"2605":{"zip_code":"7692605","prefecture":"香川県","prefecture_kana":"カガワケン","city":"東かがわ市","city_kana":"ヒガシカガワシ","town":"中筋","town_kana":"ナカスジ","prefecture_code":37},"2518":{"zip_code":"7692518","prefecture":"香川県","prefecture_kana":"カガワケン","city":"東かがわ市","city_kana":"ヒガシカガワシ","town":"中山","town_kana":"ナカヤマ","prefecture_code":37},"2604":{"zip_code":"7692604","prefecture":"香川県","prefecture_kana":"カガワケン","city":"東かがわ市","city_kana":"ヒガシカガワシ","town":"西村","town_kana":"ニシムラ","prefecture_code":37},"2712":{"zip_code":"7692712","prefecture":"香川県","prefecture_kana":"カガワケン","city":"東かがわ市","city_kana":"ヒガシカガワシ","town":"西山","town_kana":"ニシヤマ","prefecture_code":37},"2714":{"zip_code":"7692714","prefecture":"香川県","prefecture_kana":"カガワケン","city":"東かがわ市","city_kana":"ヒガシカガワシ","town":"入野山","town_kana":"ニュウノヤマ","prefecture_code":37},"2711":{"zip_code":"7692711","prefecture":"香川県","prefecture_kana":"カガワケン","city":"東かがわ市","city_kana":"ヒガシカガワシ","town":"東山","town_kana":"ヒガシヤマ","prefecture_code":37},"2901":{"zip_code":"7692901","prefecture":"香川県","prefecture_kana":"カガワケン","city":"東かがわ市","city_kana":"ヒガシカガワシ","town":"引田","town_kana":"ヒケタ","prefecture_code":37},"2515":{"zip_code":"7692515","prefecture":"香川県","prefecture_kana":"カガワケン","city":"東かがわ市","city_kana":"ヒガシカガワシ","town":"町田","town_kana":"マチダ","prefecture_code":37},"2514":{"zip_code":"7692514","prefecture":"香川県","prefecture_kana":"カガワケン","city":"東かがわ市","city_kana":"ヒガシカガワシ","town":"松崎","town_kana":"マツサキ","prefecture_code":37},"2702":{"zip_code":"7692702","prefecture":"香川県","prefecture_kana":"カガワケン","city":"東かがわ市","city_kana":"ヒガシカガワシ","town":"松原","town_kana":"マツバラ","prefecture_code":37},"2606":{"zip_code":"7692606","prefecture":"香川県","prefecture_kana":"カガワケン","city":"東かがわ市","city_kana":"ヒガシカガワシ","town":"水主","town_kana":"ミズシ","prefecture_code":37},"2517":{"zip_code":"7692517","prefecture":"香川県","prefecture_kana":"カガワケン","city":"東かがわ市","city_kana":"ヒガシカガワシ","town":"三殿","town_kana":"ミドノ","prefecture_code":37},"2701":{"zip_code":"7692701","prefecture":"香川県","prefecture_kana":"カガワケン","city":"東かがわ市","city_kana":"ヒガシカガワシ","town":"湊","town_kana":"ミナト","prefecture_code":37},"2903":{"zip_code":"7692903","prefecture":"香川県","prefecture_kana":"カガワケン","city":"東かがわ市","city_kana":"ヒガシカガワシ","town":"南野","town_kana":"ミナミノ","prefecture_code":37},"2603":{"zip_code":"7692603","prefecture":"香川県","prefecture_kana":"カガワケン","city":"東かがわ市","city_kana":"ヒガシカガワシ","town":"横内","town_kana":"ヨコウチ","prefecture_code":37},"2907":{"zip_code":"7692907","prefecture":"香川県","prefecture_kana":"カガワケン","city":"東かがわ市","city_kana":"ヒガシカガワシ","town":"吉田","town_kana":"ヨシダ","prefecture_code":37},"2713":{"zip_code":"7692713","prefecture":"香川県","prefecture_kana":"カガワケン","city":"東かがわ市","city_kana":"ヒガシカガワシ","town":"与田山","town_kana":"ヨダヤマ","prefecture_code":37},"0401":{"zip_code":"7690401","prefecture":"香川県","prefecture_kana":"カガワケン","city":"三豊市","city_kana":"ミトヨシ","town":"財田町財田上","town_kana":"サイタチョウサイタカミ","prefecture_code":37},"0402":{"zip_code":"7690402","prefecture":"香川県","prefecture_kana":"カガワケン","city":"三豊市","city_kana":"ミトヨシ","town":"財田町財田中","town_kana":"サイタチョウサイタナカ","prefecture_code":37},"1108":{"zip_code":"7691108","prefecture":"香川県","prefecture_kana":"カガワケン","city":"三豊市","city_kana":"ミトヨシ","town":"詫間町粟島","town_kana":"タクマチョウアワシマ","prefecture_code":37},"1104":{"zip_code":"7691104","prefecture":"香川県","prefecture_kana":"カガワケン","city":"三豊市","city_kana":"ミトヨシ","town":"詫間町大浜","town_kana":"タクマチョウオオハマ","prefecture_code":37},"1103":{"zip_code":"7691103","prefecture":"香川県","prefecture_kana":"カガワケン","city":"三豊市","city_kana":"ミトヨシ","town":"詫間町香田","town_kana":"タクマチョウコウダ","prefecture_code":37},"1109":{"zip_code":"7691109","prefecture":"香川県","prefecture_kana":"カガワケン","city":"三豊市","city_kana":"ミトヨシ","town":"詫間町志々島","town_kana":"タクマチョウシシジマ","prefecture_code":37},"1101":{"zip_code":"7691101","prefecture":"香川県","prefecture_kana":"カガワケン","city":"三豊市","city_kana":"ミトヨシ","town":"詫間町詫間","town_kana":"タクマチョウタクマ","prefecture_code":37},"1105":{"zip_code":"7691105","prefecture":"香川県","prefecture_kana":"カガワケン","city":"三豊市","city_kana":"ミトヨシ","town":"詫間町積","town_kana":"タクマチョウツム","prefecture_code":37},"1107":{"zip_code":"7691107","prefecture":"香川県","prefecture_kana":"カガワケン","city":"三豊市","city_kana":"ミトヨシ","town":"詫間町生里","town_kana":"タクマチョウナマリ","prefecture_code":37},"1106":{"zip_code":"7691106","prefecture":"香川県","prefecture_kana":"カガワケン","city":"三豊市","city_kana":"ミトヨシ","town":"詫間町箱","town_kana":"タクマチョウハコ","prefecture_code":37},"1102":{"zip_code":"7691102","prefecture":"香川県","prefecture_kana":"カガワケン","city":"三豊市","city_kana":"ミトヨシ","town":"詫間町松崎","town_kana":"タクマチョウマツサキ","prefecture_code":37},"1507":{"zip_code":"7691507","prefecture":"香川県","prefecture_kana":"カガワケン","city":"三豊市","city_kana":"ミトヨシ","town":"豊中町岡本","town_kana":"トヨナカチョウオカモト","prefecture_code":37},"1502":{"zip_code":"7691502","prefecture":"香川県","prefecture_kana":"カガワケン","city":"三豊市","city_kana":"ミトヨシ","town":"豊中町笠田笠岡","town_kana":"トヨナカチョウカサダカサオカ","prefecture_code":37},"1503":{"zip_code":"7691503","prefecture":"香川県","prefecture_kana":"カガワケン","city":"三豊市","city_kana":"ミトヨシ","town":"豊中町笠田竹田","town_kana":"トヨナカチョウカサダタケダ","prefecture_code":37},"1504":{"zip_code":"7691504","prefecture":"香川県","prefecture_kana":"カガワケン","city":"三豊市","city_kana":"ミトヨシ","town":"豊中町上高野","town_kana":"トヨナカチョウカミダカノ","prefecture_code":37},"1508":{"zip_code":"7691508","prefecture":"香川県","prefecture_kana":"カガワケン","city":"三豊市","city_kana":"ミトヨシ","town":"豊中町下高野","town_kana":"トヨナカチョウシモダカノ","prefecture_code":37},"1501":{"zip_code":"7691501","prefecture":"香川県","prefecture_kana":"カガワケン","city":"三豊市","city_kana":"ミトヨシ","town":"豊中町比地大","town_kana":"トヨナカチョウヒジダイ","prefecture_code":37},"1505":{"zip_code":"7691505","prefecture":"香川県","prefecture_kana":"カガワケン","city":"三豊市","city_kana":"ミトヨシ","town":"豊中町本山乙","town_kana":"トヨナカチョウモトヤマオツ","prefecture_code":37},"1506":{"zip_code":"7691506","prefecture":"香川県","prefecture_kana":"カガワケン","city":"三豊市","city_kana":"ミトヨシ","town":"豊中町本山甲","town_kana":"トヨナカチョウモトヤマコウ","prefecture_code":37},"1410":{"zip_code":"7691410","prefecture":"香川県","prefecture_kana":"カガワケン","city":"三豊市","city_kana":"ミトヨシ","town":"仁尾町家の浦","town_kana":"ニオチョウイエノウラ","prefecture_code":37},"1404":{"zip_code":"7691404","prefecture":"香川県","prefecture_kana":"カガワケン","city":"三豊市","city_kana":"ミトヨシ","town":"仁尾町仁尾乙","town_kana":"ニオチョウニオオツ","prefecture_code":37},"1401":{"zip_code":"7691401","prefecture":"香川県","prefecture_kana":"カガワケン","city":"三豊市","city_kana":"ミトヨシ","town":"仁尾町仁尾己","town_kana":"ニオチョウニオキ","prefecture_code":37},"1408":{"zip_code":"7691408","prefecture":"香川県","prefecture_kana":"カガワケン","city":"三豊市","city_kana":"ミトヨシ","town":"仁尾町仁尾甲","town_kana":"ニオチョウニオコウ","prefecture_code":37},"1405":{"zip_code":"7691405","prefecture":"香川県","prefecture_kana":"カガワケン","city":"三豊市","city_kana":"ミトヨシ","town":"仁尾町仁尾庚","town_kana":"ニオチョウニオコウ","prefecture_code":37},"1406":{"zip_code":"7691406","prefecture":"香川県","prefecture_kana":"カガワケン","city":"三豊市","city_kana":"ミトヨシ","town":"仁尾町仁尾辛","town_kana":"ニオチョウニオシン","prefecture_code":37},"1407":{"zip_code":"7691407","prefecture":"香川県","prefecture_kana":"カガワケン","city":"三豊市","city_kana":"ミトヨシ","town":"仁尾町仁尾丁","town_kana":"ニオチョウニオテイ","prefecture_code":37},"1403":{"zip_code":"7691403","prefecture":"香川県","prefecture_kana":"カガワケン","city":"三豊市","city_kana":"ミトヨシ","town":"仁尾町仁尾丙","town_kana":"ニオチョウニオヘイ","prefecture_code":37},"1402":{"zip_code":"7691402","prefecture":"香川県","prefecture_kana":"カガワケン","city":"三豊市","city_kana":"ミトヨシ","town":"仁尾町仁尾戊","town_kana":"ニオチョウニオボ","prefecture_code":37},"0200":{"zip_code":"7690200","prefecture":"香川県","prefecture_kana":"カガワケン","city":"綾歌郡宇多津町","city_kana":"アヤウタグンウタヅチョウ","town":"","town_kana":"","prefecture_code":37},"0210":{"zip_code":"7690210","prefecture":"香川県","prefecture_kana":"カガワケン","city":"綾歌郡宇多津町","city_kana":"アヤウタグンウタヅチョウ","town":"","town_kana":"","prefecture_code":37},"0227":{"zip_code":"7690227","prefecture":"香川県","prefecture_kana":"カガワケン","city":"綾歌郡宇多津町","city_kana":"アヤウタグンウタヅチョウ","town":"岩屋","town_kana":"イワヤ","prefecture_code":37},"0222":{"zip_code":"7690222","prefecture":"香川県","prefecture_kana":"カガワケン","city":"綾歌郡宇多津町","city_kana":"アヤウタグンウタヅチョウ","town":"大橋","town_kana":"オオハシ","prefecture_code":37},"0226":{"zip_code":"7690226","prefecture":"香川県","prefecture_kana":"カガワケン","city":"綾歌郡宇多津町","city_kana":"アヤウタグンウタヅチョウ","town":"坂下","town_kana":"サカシタ","prefecture_code":37},"0223":{"zip_code":"7690223","prefecture":"香川県","prefecture_kana":"カガワケン","city":"綾歌郡宇多津町","city_kana":"アヤウタグンウタヅチョウ","town":"新開","town_kana":"シンガイ","prefecture_code":37},"0225":{"zip_code":"7690225","prefecture":"香川県","prefecture_kana":"カガワケン","city":"綾歌郡宇多津町","city_kana":"アヤウタグンウタヅチョウ","town":"新町","town_kana":"シンマチ","prefecture_code":37},"0211":{"zip_code":"7690211","prefecture":"香川県","prefecture_kana":"カガワケン","city":"綾歌郡宇多津町","city_kana":"アヤウタグンウタヅチョウ","town":"十楽寺","town_kana":"ジュウラクジ","prefecture_code":37},"0212":{"zip_code":"7690212","prefecture":"香川県","prefecture_kana":"カガワケン","city":"綾歌郡宇多津町","city_kana":"アヤウタグンウタヅチョウ","town":"沼ノ池","town_kana":"ヌマノイケ","prefecture_code":37},"0201":{"zip_code":"7690201","prefecture":"香川県","prefecture_kana":"カガワケン","city":"綾歌郡宇多津町","city_kana":"アヤウタグンウタヅチョウ","town":"浜一番丁","town_kana":"ハマ1バンチョウ","prefecture_code":37},"0202":{"zip_code":"7690202","prefecture":"香川県","prefecture_kana":"カガワケン","city":"綾歌郡宇多津町","city_kana":"アヤウタグンウタヅチョウ","town":"浜二番丁","town_kana":"ハマ2バンチョウ","prefecture_code":37},"0203":{"zip_code":"7690203","prefecture":"香川県","prefecture_kana":"カガワケン","city":"綾歌郡宇多津町","city_kana":"アヤウタグンウタヅチョウ","town":"浜三番丁","town_kana":"ハマ3バンチョウ","prefecture_code":37},"0204":{"zip_code":"7690204","prefecture":"香川県","prefecture_kana":"カガワケン","city":"綾歌郡宇多津町","city_kana":"アヤウタグンウタヅチョウ","town":"浜四番丁","town_kana":"ハマ4バンチョウ","prefecture_code":37},"0205":{"zip_code":"7690205","prefecture":"香川県","prefecture_kana":"カガワケン","city":"綾歌郡宇多津町","city_kana":"アヤウタグンウタヅチョウ","town":"浜五番丁","town_kana":"ハマ5バンチョウ","prefecture_code":37},"0206":{"zip_code":"7690206","prefecture":"香川県","prefecture_kana":"カガワケン","city":"綾歌郡宇多津町","city_kana":"アヤウタグンウタヅチョウ","town":"浜六番丁","town_kana":"ハマ6バンチョウ","prefecture_code":37},"0207":{"zip_code":"7690207","prefecture":"香川県","prefecture_kana":"カガワケン","city":"綾歌郡宇多津町","city_kana":"アヤウタグンウタヅチョウ","town":"浜七番丁","town_kana":"ハマ7バンチョウ","prefecture_code":37},"0208":{"zip_code":"7690208","prefecture":"香川県","prefecture_kana":"カガワケン","city":"綾歌郡宇多津町","city_kana":"アヤウタグンウタヅチョウ","town":"浜八番丁","town_kana":"ハマ8バンチョウ","prefecture_code":37},"0209":{"zip_code":"7690209","prefecture":"香川県","prefecture_kana":"カガワケン","city":"綾歌郡宇多津町","city_kana":"アヤウタグンウタヅチョウ","town":"浜九番丁","town_kana":"ハマ9バンチョウ","prefecture_code":37},"0213":{"zip_code":"7690213","prefecture":"香川県","prefecture_kana":"カガワケン","city":"綾歌郡宇多津町","city_kana":"アヤウタグンウタヅチョウ","town":"東分","town_kana":"ヒガシブン","prefecture_code":37},"0224":{"zip_code":"7690224","prefecture":"香川県","prefecture_kana":"カガワケン","city":"綾歌郡宇多津町","city_kana":"アヤウタグンウタヅチョウ","town":"平山","town_kana":"ヒラヤマ","prefecture_code":37},"0228":{"zip_code":"7690228","prefecture":"香川県","prefecture_kana":"カガワケン","city":"綾歌郡宇多津町","city_kana":"アヤウタグンウタヅチョウ","town":"向山","town_kana":"ムカウヤマ","prefecture_code":37},"0221":{"zip_code":"7690221","prefecture":"香川県","prefecture_kana":"カガワケン","city":"綾歌郡宇多津町","city_kana":"アヤウタグンウタヅチョウ","town":"吉田","town_kana":"ヨシダ","prefecture_code":37},"0313":{"zip_code":"7690313","prefecture":"香川県","prefecture_kana":"カガワケン","city":"仲多度郡まんのう町","city_kana":"ナカタドグンマンノウチョウ","town":"生間","town_kana":"イカマ","prefecture_code":37},"0315":{"zip_code":"7690315","prefecture":"香川県","prefecture_kana":"カガワケン","city":"仲多度郡まんのう町","city_kana":"ナカタドグンマンノウチョウ","town":"後山","town_kana":"ウシロヤマ","prefecture_code":37},"0319":{"zip_code":"7690319","prefecture":"香川県","prefecture_kana":"カガワケン","city":"仲多度郡まんのう町","city_kana":"ナカタドグンマンノウチョウ","town":"追上","town_kana":"オイアゲ","prefecture_code":37},"0316":{"zip_code":"7690316","prefecture":"香川県","prefecture_kana":"カガワケン","city":"仲多度郡まんのう町","city_kana":"ナカタドグンマンノウチョウ","town":"大口","town_kana":"オオクチ","prefecture_code":37},"0311":{"zip_code":"7690311","prefecture":"香川県","prefecture_kana":"カガワケン","city":"仲多度郡まんのう町","city_kana":"ナカタドグンマンノウチョウ","town":"買田","town_kana":"カイタ","prefecture_code":37},"0301":{"zip_code":"7690301","prefecture":"香川県","prefecture_kana":"カガワケン","city":"仲多度郡まんのう町","city_kana":"ナカタドグンマンノウチョウ","town":"佐文","town_kana":"サブミ","prefecture_code":37},"0302":{"zip_code":"7690302","prefecture":"香川県","prefecture_kana":"カガワケン","city":"仲多度郡まんのう町","city_kana":"ナカタドグンマンノウチョウ","town":"塩入","town_kana":"シオイリ","prefecture_code":37},"0303":{"zip_code":"7690303","prefecture":"香川県","prefecture_kana":"カガワケン","city":"仲多度郡まんのう町","city_kana":"ナカタドグンマンノウチョウ","town":"七箇","town_kana":"シチカ","prefecture_code":37},"0317":{"zip_code":"7690317","prefecture":"香川県","prefecture_kana":"カガワケン","city":"仲多度郡まんのう町","city_kana":"ナカタドグンマンノウチョウ","town":"新目","town_kana":"シンメ","prefecture_code":37},"0314":{"zip_code":"7690314","prefecture":"香川県","prefecture_kana":"カガワケン","city":"仲多度郡まんのう町","city_kana":"ナカタドグンマンノウチョウ","town":"帆山","town_kana":"ホノヤマ","prefecture_code":37},"0312":{"zip_code":"7690312","prefecture":"香川県","prefecture_kana":"カガワケン","city":"仲多度郡まんのう町","city_kana":"ナカタドグンマンノウチョウ","town":"宮田","town_kana":"ミヤダ","prefecture_code":37},"0318":{"zip_code":"7690318","prefecture":"香川県","prefecture_kana":"カガワケン","city":"仲多度郡まんのう町","city_kana":"ナカタドグンマンノウチョウ","town":"山脇","town_kana":"ヤマワキ","prefecture_code":37}}