{"0000":{"zip_code":"7700000","prefecture":"徳島県","prefecture_kana":"トクシマケン","city":"徳島市","city_kana":"トクシマシ","town":"以下に掲載がない場合","town_kana":"イカニケイサイガナイバアイ","prefecture_code":36},"0835":{"zip_code":"7700835","prefecture":"徳島県","prefecture_kana":"トクシマケン","city":"徳島市","city_kana":"トクシマシ","town":"藍場町","town_kana":"アイバチョウ","prefecture_code":36},"0934":{"zip_code":"7700934","prefecture":"徳島県","prefecture_kana":"トクシマケン","city":"徳島市","city_kana":"トクシマシ","town":"秋田町","town_kana":"アキタマチ","prefecture_code":36},"0046":{"zip_code":"7700046","prefecture":"徳島県","prefecture_kana":"トクシマケン","city":"徳島市","city_kana":"トクシマシ","town":"鮎喰町","town_kana":"アクイチョウ","prefecture_code":36},"0863":{"zip_code":"7700863","prefecture":"徳島県","prefecture_kana":"トクシマケン","city":"徳島市","city_kana":"トクシマシ","town":"安宅","town_kana":"アタケ","prefecture_code":36},"0926":{"zip_code":"7700926","prefecture":"徳島県","prefecture_kana":"トクシマケン","city":"徳島市","city_kana":"トクシマシ","town":"伊賀町","town_kana":"イガチョウ","prefecture_code":36},"0833":{"zip_code":"7700833","prefecture":"徳島県","prefecture_kana":"トクシマケン","city":"徳島市","city_kana":"トクシマシ","town":"一番町","town_kana":"イチバンチョウ","prefecture_code":36},"0935":{"zip_code":"7700935","prefecture":"徳島県","prefecture_kana":"トクシマケン","city":"徳島市","city_kana":"トクシマシ","town":"伊月町","town_kana":"イツキチョウ","prefecture_code":36},"8031":{"zip_code":"7708031","prefecture":"徳島県","prefecture_kana":"トクシマケン","city":"徳島市","city_kana":"トクシマシ","town":"大谷町","town_kana":"オオタニチョウ","prefecture_code":36},"8012":{"zip_code":"7708012","prefecture":"徳島県","prefecture_kana":"トクシマケン","city":"徳島市","city_kana":"トクシマシ","town":"大原町（その他）","town_kana":"オオバラチョウ(ソノタ)","prefecture_code":36},"8022":{"zip_code":"7708022","prefecture":"徳島県","prefecture_kana":"トクシマケン","city":"徳島市","city_kana":"トクシマシ","town":"大松町","town_kana":"オオマツチョウ","prefecture_code":36},"0923":{"zip_code":"7700923","prefecture":"徳島県","prefecture_kana":"トクシマケン","city":"徳島市","city_kana":"トクシマシ","town":"大道","town_kana":"オオミチ","prefecture_code":36},"8052":{"zip_code":"7708052","prefecture":"徳島県","prefecture_kana":"トクシマケン","city":"徳島市","city_kana":"トクシマシ","town":"沖浜","town_kana":"オキノハマ","prefecture_code":36},"8051":{"zip_code":"7708051","prefecture":"徳島県","prefecture_kana":"トクシマケン","city":"徳島市","city_kana":"トクシマシ","town":"沖浜町","town_kana":"オキノハマチョウ","prefecture_code":36},"8053":{"zip_code":"7708053","prefecture":"徳島県","prefecture_kana":"トクシマケン","city":"徳島市","city_kana":"トクシマシ","town":"沖浜東","town_kana":"オキノハマヒガシ","prefecture_code":36},"0914":{"zip_code":"7700914","prefecture":"徳島県","prefecture_kana":"トクシマケン","city":"徳島市","city_kana":"トクシマシ","town":"籠屋町","town_kana":"カゴヤマチ","prefecture_code":36},"0002":{"zip_code":"7700002","prefecture":"徳島県","prefecture_kana":"トクシマケン","city":"徳島市","city_kana":"トクシマシ","town":"春日","town_kana":"カスガ","prefecture_code":36},"0001":{"zip_code":"7700001","prefecture":"徳島県","prefecture_kana":"トクシマケン","city":"徳島市","city_kana":"トクシマシ","town":"春日町","town_kana":"カスガチョウ","prefecture_code":36},"8033":{"zip_code":"7708033","prefecture":"徳島県","prefecture_kana":"トクシマケン","city":"徳島市","city_kana":"トクシマシ","town":"方上町","town_kana":"カタノカミチョウ","prefecture_code":36},"0939":{"zip_code":"7700939","prefecture":"徳島県","prefecture_kana":"トクシマケン","city":"徳島市","city_kana":"トクシマシ","town":"かちどき橋","town_kana":"カチドキバシ","prefecture_code":36},"8023":{"zip_code":"7708023","prefecture":"徳島県","prefecture_kana":"トクシマケン","city":"徳島市","city_kana":"トクシマシ","town":"勝占町","town_kana":"カツラチョウ","prefecture_code":36},"0871":{"zip_code":"7700871","prefecture":"徳島県","prefecture_kana":"トクシマケン","city":"徳島市","city_kana":"トクシマシ","town":"金沢","town_kana":"カナザワ","prefecture_code":36},"0801":{"zip_code":"7700801","prefecture":"徳島県","prefecture_kana":"トクシマケン","city":"徳島市","city_kana":"トクシマシ","town":"上助任町","town_kana":"カミスケトウチョウ","prefecture_code":36},"8041":{"zip_code":"7708041","prefecture":"徳島県","prefecture_kana":"トクシマケン","city":"徳島市","city_kana":"トクシマシ","town":"上八万町西山（しらさぎ台）","town_kana":"カミハチマンチョウニシヤマ(シラサギダイ)","prefecture_code":36},"8040":{"zip_code":"7708040","prefecture":"徳島県","prefecture_kana":"トクシマケン","city":"徳島市","city_kana":"トクシマシ","town":"上八万町（その他）","town_kana":"カミハチマンチョウ(ソノタ)","prefecture_code":36},"0803":{"zip_code":"7700803","prefecture":"徳島県","prefecture_kana":"トクシマケン","city":"徳島市","city_kana":"トクシマシ","town":"上吉野町","town_kana":"カミヨシノチョウ","prefecture_code":36},"0048":{"zip_code":"7700048","prefecture":"徳島県","prefecture_kana":"トクシマケン","city":"徳島市","city_kana":"トクシマシ","town":"加茂名町","town_kana":"カモナチョウ","prefecture_code":36},"0872":{"zip_code":"7700872","prefecture":"徳島県","prefecture_kana":"トクシマケン","city":"徳島市","city_kana":"トクシマシ","town":"北沖洲","town_kana":"キタオキノス","prefecture_code":36},"0011":{"zip_code":"7700011","prefecture":"徳島県","prefecture_kana":"トクシマケン","city":"徳島市","city_kana":"トクシマシ","town":"北佐古一番町","town_kana":"キタサコイチバンチョウ","prefecture_code":36},"0012":{"zip_code":"7700012","prefecture":"徳島県","prefecture_kana":"トクシマケン","city":"徳島市","city_kana":"トクシマシ","town":"北佐古二番町","town_kana":"キタサコニバンチョウ","prefecture_code":36},"0051":{"zip_code":"7700051","prefecture":"徳島県","prefecture_kana":"トクシマケン","city":"徳島市","city_kana":"トクシマシ","town":"北島田町","town_kana":"キタシマダチョウ","prefecture_code":36},"0812":{"zip_code":"7700812","prefecture":"徳島県","prefecture_kana":"トクシマケン","city":"徳島市","city_kana":"トクシマシ","town":"北常三島町","town_kana":"キタジョウサンジマチョウ","prefecture_code":36},"0003":{"zip_code":"7700003","prefecture":"徳島県","prefecture_kana":"トクシマケン","city":"徳島市","city_kana":"トクシマシ","town":"北田宮","town_kana":"キタタミヤ","prefecture_code":36},"0821":{"zip_code":"7700821","prefecture":"徳島県","prefecture_kana":"トクシマケン","city":"徳島市","city_kana":"トクシマシ","town":"北出来島町","town_kana":"キタデキジマチョウ","prefecture_code":36},"0806":{"zip_code":"7700806","prefecture":"徳島県","prefecture_kana":"トクシマケン","city":"徳島市","city_kana":"トクシマシ","town":"北前川町","town_kana":"キタマエガワチョウ","prefecture_code":36},"0006":{"zip_code":"7700006","prefecture":"徳島県","prefecture_kana":"トクシマケン","city":"徳島市","city_kana":"トクシマシ","town":"北矢三町","town_kana":"キタヤソチョウ","prefecture_code":36},"8032":{"zip_code":"7708032","prefecture":"徳島県","prefecture_kana":"トクシマケン","city":"徳島市","city_kana":"トクシマシ","town":"北山町","town_kana":"キタヤマチョウ","prefecture_code":36},"0916":{"zip_code":"7700916","prefecture":"徳島県","prefecture_kana":"トクシマケン","city":"徳島市","city_kana":"トクシマシ","town":"銀座","town_kana":"ギンザ","prefecture_code":36},"0042":{"zip_code":"7700042","prefecture":"徳島県","prefecture_kana":"トクシマケン","city":"徳島市","city_kana":"トクシマシ","town":"蔵本町","town_kana":"クラモトチョウ","prefecture_code":36},"0041":{"zip_code":"7700041","prefecture":"徳島県","prefecture_kana":"トクシマケン","city":"徳島市","city_kana":"トクシマシ","town":"蔵本元町","town_kana":"クラモトモトマチ","prefecture_code":36},"0918":{"zip_code":"7700918","prefecture":"徳島県","prefecture_kana":"トクシマケン","city":"徳島市","city_kana":"トクシマシ","town":"紺屋町","town_kana":"コンヤマチ","prefecture_code":36},"8021":{"zip_code":"7708021","prefecture":"徳島県","prefecture_kana":"トクシマケン","city":"徳島市","city_kana":"トクシマシ","town":"雑賀町","town_kana":"サイカチョウ","prefecture_code":36},"0847":{"zip_code":"7700847","prefecture":"徳島県","prefecture_kana":"トクシマケン","city":"徳島市","city_kana":"トクシマシ","town":"幸町","town_kana":"サイワイチョウ","prefecture_code":36},"0921":{"zip_code":"7700921","prefecture":"徳島県","prefecture_kana":"トクシマケン","city":"徳島市","city_kana":"トクシマシ","town":"栄町","town_kana":"サカエマチ","prefecture_code":36},"0021":{"zip_code":"7700021","prefecture":"徳島県","prefecture_kana":"トクシマケン","city":"徳島市","city_kana":"トクシマシ","town":"佐古一番町","town_kana":"サコ1バンチョウ","prefecture_code":36},"0022":{"zip_code":"7700022","prefecture":"徳島県","prefecture_kana":"トクシマケン","city":"徳島市","city_kana":"トクシマシ","town":"佐古二番町","town_kana":"サコ2バンチョウ","prefecture_code":36},"0023":{"zip_code":"7700023","prefecture":"徳島県","prefecture_kana":"トクシマケン","city":"徳島市","city_kana":"トクシマシ","town":"佐古三番町","town_kana":"サコ3バンチョウ","prefecture_code":36},"0024":{"zip_code":"7700024","prefecture":"徳島県","prefecture_kana":"トクシマケン","city":"徳島市","city_kana":"トクシマシ","town":"佐古四番町","town_kana":"サコ4バンチョウ","prefecture_code":36},"0025":{"zip_code":"7700025","prefecture":"徳島県","prefecture_kana":"トクシマケン","city":"徳島市","city_kana":"トクシマシ","town":"佐古五番町","town_kana":"サコ5バンチョウ","prefecture_code":36},"0026":{"zip_code":"7700026","prefecture":"徳島県","prefecture_kana":"トクシマケン","city":"徳島市","city_kana":"トクシマシ","town":"佐古六番町","town_kana":"サコ6バンチョウ","prefecture_code":36},"0027":{"zip_code":"7700027","prefecture":"徳島県","prefecture_kana":"トクシマケン","city":"徳島市","city_kana":"トクシマシ","town":"佐古七番町","town_kana":"サコ7バンチョウ","prefecture_code":36},"0028":{"zip_code":"7700028","prefecture":"徳島県","prefecture_kana":"トクシマケン","city":"徳島市","city_kana":"トクシマシ","town":"佐古八番町","town_kana":"サコ8バンチョウ","prefecture_code":36},"0039":{"zip_code":"7700039","prefecture":"徳島県","prefecture_kana":"トクシマケン","city":"徳島市","city_kana":"トクシマシ","town":"佐古山町","town_kana":"サコヤマチョウ","prefecture_code":36},"8025":{"zip_code":"7708025","prefecture":"徳島県","prefecture_kana":"トクシマケン","city":"徳島市","city_kana":"トクシマシ","town":"三軒屋町","town_kana":"サンゲンヤチョウ","prefecture_code":36},"0805":{"zip_code":"7700805","prefecture":"徳島県","prefecture_kana":"トクシマケン","city":"徳島市","city_kana":"トクシマシ","town":"下助任町","town_kana":"シモスケトウチョウ","prefecture_code":36},"0862":{"zip_code":"7700862","prefecture":"徳島県","prefecture_kana":"トクシマケン","city":"徳島市","city_kana":"トクシマシ","town":"城東町","town_kana":"ジョウトウチョウ","prefecture_code":36},"8064":{"zip_code":"7708064","prefecture":"徳島県","prefecture_kana":"トクシマケン","city":"徳島市","city_kana":"トクシマシ","town":"城南町","town_kana":"ジョウナンチョウ","prefecture_code":36},"0044":{"zip_code":"7700044","prefecture":"徳島県","prefecture_kana":"トクシマケン","city":"徳島市","city_kana":"トクシマシ","town":"庄町","town_kana":"ショウマチ","prefecture_code":36},"0942":{"zip_code":"7700942","prefecture":"徳島県","prefecture_kana":"トクシマケン","city":"徳島市","city_kana":"トクシマシ","town":"昭和町","town_kana":"ショウワチョウ","prefecture_code":36},"0845":{"zip_code":"7700845","prefecture":"徳島県","prefecture_kana":"トクシマケン","city":"徳島市","city_kana":"トクシマシ","town":"新内町","town_kana":"シンウチマチ","prefecture_code":36},"0855":{"zip_code":"7700855","prefecture":"徳島県","prefecture_kana":"トクシマケン","city":"徳島市","city_kana":"トクシマシ","town":"新蔵町","town_kana":"シンクラチョウ","prefecture_code":36},"8006":{"zip_code":"7708006","prefecture":"徳島県","prefecture_kana":"トクシマケン","city":"徳島市","city_kana":"トクシマシ","town":"新浜町","town_kana":"シンハマチョウ","prefecture_code":36},"8007":{"zip_code":"7708007","prefecture":"徳島県","prefecture_kana":"トクシマケン","city":"徳島市","city_kana":"トクシマシ","town":"新浜本町","town_kana":"シンハマホンチョウ","prefecture_code":36},"0904":{"zip_code":"7700904","prefecture":"徳島県","prefecture_kana":"トクシマケン","city":"徳島市","city_kana":"トクシマシ","town":"新町橋","town_kana":"シンマチバシ","prefecture_code":36},"0867":{"zip_code":"7700867","prefecture":"徳島県","prefecture_kana":"トクシマケン","city":"徳島市","city_kana":"トクシマシ","town":"新南福島","town_kana":"シンミナミフクシマ","prefecture_code":36},"0866":{"zip_code":"7700866","prefecture":"徳島県","prefecture_kana":"トクシマケン","city":"徳島市","city_kana":"トクシマシ","town":"末広","town_kana":"スエヒロ","prefecture_code":36},"0815":{"zip_code":"7700815","prefecture":"徳島県","prefecture_kana":"トクシマケン","city":"徳島市","city_kana":"トクシマシ","town":"助任橋","town_kana":"スケトウバシ","prefecture_code":36},"0816":{"zip_code":"7700816","prefecture":"徳島県","prefecture_kana":"トクシマケン","city":"徳島市","city_kana":"トクシマシ","town":"助任本町","town_kana":"スケトウホンチョウ","prefecture_code":36},"0861":{"zip_code":"7700861","prefecture":"徳島県","prefecture_kana":"トクシマケン","city":"徳島市","city_kana":"トクシマシ","town":"住吉","town_kana":"スミヨシ","prefecture_code":36},"0927":{"zip_code":"7700927","prefecture":"徳島県","prefecture_kana":"トクシマケン","city":"徳島市","city_kana":"トクシマシ","town":"勢見町","town_kana":"セイミチョウ","prefecture_code":36},"0922":{"zip_code":"7700922","prefecture":"徳島県","prefecture_kana":"トクシマケン","city":"徳島市","city_kana":"トクシマシ","town":"鷹匠町","town_kana":"タカジョウマチ","prefecture_code":36},"0936":{"zip_code":"7700936","prefecture":"徳島県","prefecture_kana":"トクシマケン","city":"徳島市","city_kana":"トクシマシ","town":"中央通","town_kana":"チュウオウドオリ","prefecture_code":36},"8001":{"zip_code":"7708001","prefecture":"徳島県","prefecture_kana":"トクシマケン","city":"徳島市","city_kana":"トクシマシ","town":"津田海岸町","town_kana":"ツダカイガンチョウ","prefecture_code":36},"8004":{"zip_code":"7708004","prefecture":"徳島県","prefecture_kana":"トクシマケン","city":"徳島市","city_kana":"トクシマシ","town":"津田西町","town_kana":"ツダニシマチ","prefecture_code":36},"8005":{"zip_code":"7708005","prefecture":"徳島県","prefecture_kana":"トクシマケン","city":"徳島市","city_kana":"トクシマシ","town":"津田浜之町","town_kana":"ツダハマノチョウ","prefecture_code":36},"8003":{"zip_code":"7708003","prefecture":"徳島県","prefecture_kana":"トクシマケン","city":"徳島市","city_kana":"トクシマシ","town":"津田本町","town_kana":"ツダホンチョウ","prefecture_code":36},"8002":{"zip_code":"7708002","prefecture":"徳島県","prefecture_kana":"トクシマケン","city":"徳島市","city_kana":"トクシマシ","town":"津田町","town_kana":"ツダチョウ","prefecture_code":36},"0823":{"zip_code":"7700823","prefecture":"徳島県","prefecture_kana":"トクシマケン","city":"徳島市","city_kana":"トクシマシ","town":"出来島本町","town_kana":"デキジマホンチョウ","prefecture_code":36},"0832":{"zip_code":"7700832","prefecture":"徳島県","prefecture_kana":"トクシマケン","city":"徳島市","city_kana":"トクシマシ","town":"寺島本町東","town_kana":"テラシマホンチョウヒガシ","prefecture_code":36},"0831":{"zip_code":"7700831","prefecture":"徳島県","prefecture_kana":"トクシマケン","city":"徳島市","city_kana":"トクシマシ","town":"寺島本町西","town_kana":"テラシマホンチョウニシ","prefecture_code":36},"0909":{"zip_code":"7700909","prefecture":"徳島県","prefecture_kana":"トクシマケン","city":"徳島市","city_kana":"トクシマシ","town":"寺町","town_kana":"テラマチ","prefecture_code":36},"8056":{"zip_code":"7708056","prefecture":"徳島県","prefecture_kana":"トクシマケン","city":"徳島市","city_kana":"トクシマシ","town":"問屋町","town_kana":"トイヤマチ","prefecture_code":36},"0842":{"zip_code":"7700842","prefecture":"徳島県","prefecture_kana":"トクシマケン","city":"徳島市","city_kana":"トクシマシ","town":"通町","town_kana":"トオリマチ","prefecture_code":36},"0852":{"zip_code":"7700852","prefecture":"徳島県","prefecture_kana":"トクシマケン","city":"徳島市","city_kana":"トクシマシ","town":"徳島町","town_kana":"トクシマチョウ","prefecture_code":36},"0851":{"zip_code":"7700851","prefecture":"徳島県","prefecture_kana":"トクシマケン","city":"徳島市","city_kana":"トクシマシ","town":"徳島町城内","town_kana":"トクシマチョウジョウナイ","prefecture_code":36},"0854":{"zip_code":"7700854","prefecture":"徳島県","prefecture_kana":"トクシマケン","city":"徳島市","city_kana":"トクシマシ","town":"徳島本町","town_kana":"トクシマホンチョウ","prefecture_code":36},"0931":{"zip_code":"7700931","prefecture":"徳島県","prefecture_kana":"トクシマケン","city":"徳島市","city_kana":"トクシマシ","town":"富田浜","town_kana":"トミダハマ","prefecture_code":36},"0937":{"zip_code":"7700937","prefecture":"徳島県","prefecture_kana":"トクシマケン","city":"徳島市","city_kana":"トクシマシ","town":"富田橋","town_kana":"トミダバシ","prefecture_code":36},"0915":{"zip_code":"7700915","prefecture":"徳島県","prefecture_kana":"トクシマケン","city":"徳島市","city_kana":"トクシマシ","town":"富田町","town_kana":"トミダマチ","prefecture_code":36},"0052":{"zip_code":"7700052","prefecture":"徳島県","prefecture_kana":"トクシマケン","city":"徳島市","city_kana":"トクシマシ","town":"中島田町","town_kana":"ナカシマダチョウ","prefecture_code":36},"0943":{"zip_code":"7700943","prefecture":"徳島県","prefecture_kana":"トクシマケン","city":"徳島市","city_kana":"トクシマシ","town":"中昭和町","town_kana":"ナカショウワチョウ","prefecture_code":36},"0813":{"zip_code":"7700813","prefecture":"徳島県","prefecture_kana":"トクシマケン","city":"徳島市","city_kana":"トクシマシ","town":"中常三島町","town_kana":"ナカジョウサンジマチョウ","prefecture_code":36},"0856":{"zip_code":"7700856","prefecture":"徳島県","prefecture_kana":"トクシマケン","city":"徳島市","city_kana":"トクシマシ","town":"中洲町","town_kana":"ナカズチョウ","prefecture_code":36},"0844":{"zip_code":"7700844","prefecture":"徳島県","prefecture_kana":"トクシマケン","city":"徳島市","city_kana":"トクシマシ","town":"中通町","town_kana":"ナカトオリマチ","prefecture_code":36},"0853":{"zip_code":"7700853","prefecture":"徳島県","prefecture_kana":"トクシマケン","city":"徳島市","city_kana":"トクシマシ","town":"中徳島町","town_kana":"ナカトクシマチョウ","prefecture_code":36},"0932":{"zip_code":"7700932","prefecture":"徳島県","prefecture_kana":"トクシマケン","city":"徳島市","city_kana":"トクシマシ","town":"仲之町","town_kana":"ナカノチョウ","prefecture_code":36},"0807":{"zip_code":"7700807","prefecture":"徳島県","prefecture_kana":"トクシマケン","city":"徳島市","city_kana":"トクシマシ","town":"中前川町","town_kana":"ナカマエガワチョウ","prefecture_code":36},"0804":{"zip_code":"7700804","prefecture":"徳島県","prefecture_kana":"トクシマケン","city":"徳島市","city_kana":"トクシマシ","town":"中吉野町","town_kana":"ナカヨシノチョウ","prefecture_code":36},"0928":{"zip_code":"7700928","prefecture":"徳島県","prefecture_kana":"トクシマケン","city":"徳島市","city_kana":"トクシマシ","town":"二軒屋町","town_kana":"ニケンヤチョウ","prefecture_code":36},"8008":{"zip_code":"7708008","prefecture":"徳島県","prefecture_kana":"トクシマケン","city":"徳島市","city_kana":"トクシマシ","town":"西新浜町","town_kana":"ニシシンハマチョウ","prefecture_code":36},"0902":{"zip_code":"7700902","prefecture":"徳島県","prefecture_kana":"トクシマケン","city":"徳島市","city_kana":"トクシマシ","town":"西新町","town_kana":"ニシシンマチ","prefecture_code":36},"8024":{"zip_code":"7708024","prefecture":"徳島県","prefecture_kana":"トクシマケン","city":"徳島市","city_kana":"トクシマシ","town":"西須賀町","town_kana":"ニシズカチョウ","prefecture_code":36},"0901":{"zip_code":"7700901","prefecture":"徳島県","prefecture_kana":"トクシマケン","city":"徳島市","city_kana":"トクシマシ","town":"西船場町","town_kana":"ニシセンバチョウ","prefecture_code":36},"0903":{"zip_code":"7700903","prefecture":"徳島県","prefecture_kana":"トクシマケン","city":"徳島市","city_kana":"トクシマシ","town":"西大工町","town_kana":"ニシダイクマチ","prefecture_code":36},"0929":{"zip_code":"7700929","prefecture":"徳島県","prefecture_kana":"トクシマケン","city":"徳島市","city_kana":"トクシマシ","town":"西富田町","town_kana":"ニシトミダチョウ","prefecture_code":36},"8061":{"zip_code":"7708061","prefecture":"徳島県","prefecture_kana":"トクシマケン","city":"徳島市","city_kana":"トクシマシ","town":"西二軒屋町","town_kana":"ニシニケンヤチョウ","prefecture_code":36},"0907":{"zip_code":"7700907","prefecture":"徳島県","prefecture_kana":"トクシマケン","city":"徳島市","city_kana":"トクシマシ","town":"西山手町","town_kana":"ニシヤマテチョウ","prefecture_code":36},"0924":{"zip_code":"7700924","prefecture":"徳島県","prefecture_kana":"トクシマケン","city":"徳島市","city_kana":"トクシマシ","town":"幟町","town_kana":"ノボリチョウ","prefecture_code":36},"8076":{"zip_code":"7708076","prefecture":"徳島県","prefecture_kana":"トクシマケン","city":"徳島市","city_kana":"トクシマシ","town":"八万町（内浜）","town_kana":"ハチマンチョウ(ウチハマ)","prefecture_code":36},"8077":{"zip_code":"7708077","prefecture":"徳島県","prefecture_kana":"トクシマケン","city":"徳島市","city_kana":"トクシマシ","town":"八万町（夷山）","town_kana":"ハチマンチョウ(エビスヤマ)","prefecture_code":36},"8079":{"zip_code":"7708079","prefecture":"徳島県","prefecture_kana":"トクシマケン","city":"徳島市","city_kana":"トクシマシ","town":"八万町（大坪）","town_kana":"ハチマンチョウ(オオツボ)","prefecture_code":36},"8073":{"zip_code":"7708073","prefecture":"徳島県","prefecture_kana":"トクシマケン","city":"徳島市","city_kana":"トクシマシ","town":"八万町（上福万）","town_kana":"ハチマンチョウ(カミフクマン)","prefecture_code":36},"8074":{"zip_code":"7708074","prefecture":"徳島県","prefecture_kana":"トクシマケン","city":"徳島市","city_kana":"トクシマシ","town":"八万町（下福万）","town_kana":"ハチマンチョウ(シモフクマン)","prefecture_code":36},"8082":{"zip_code":"7708082","prefecture":"徳島県","prefecture_kana":"トクシマケン","city":"徳島市","city_kana":"トクシマシ","town":"八万町（川南）","town_kana":"ハチマンチョウ(カワミナミ)","prefecture_code":36},"8075":{"zip_code":"7708075","prefecture":"徳島県","prefecture_kana":"トクシマケン","city":"徳島市","city_kana":"トクシマシ","town":"八万町（千鳥）","town_kana":"ハチマンチョウ(チドリ)","prefecture_code":36},"8072":{"zip_code":"7708072","prefecture":"徳島県","prefecture_kana":"トクシマケン","city":"徳島市","city_kana":"トクシマシ","town":"八万町（中津浦）","town_kana":"ハチマンチョウ(ナカツウラ)","prefecture_code":36},"8071":{"zip_code":"7708071","prefecture":"徳島県","prefecture_kana":"トクシマケン","city":"徳島市","city_kana":"トクシマシ","town":"八万町（中津山）","town_kana":"ハチマンチョウ(ナカツヤマ)","prefecture_code":36},"8081":{"zip_code":"7708081","prefecture":"徳島県","prefecture_kana":"トクシマケン","city":"徳島市","city_kana":"トクシマシ","town":"八万町（弐丈）","town_kana":"ハチマンチョウ(ニジョウ)","prefecture_code":36},"8078":{"zip_code":"7708078","prefecture":"徳島県","prefecture_kana":"トクシマケン","city":"徳島市","city_kana":"トクシマシ","town":"八万町（橋本）","town_kana":"ハチマンチョウ(ハシモト)","prefecture_code":36},"8083":{"zip_code":"7708083","prefecture":"徳島県","prefecture_kana":"トクシマケン","city":"徳島市","city_kana":"トクシマシ","town":"八万町（法花）","town_kana":"ハチマンチョウ(ホッケ)","prefecture_code":36},"8084":{"zip_code":"7708084","prefecture":"徳島県","prefecture_kana":"トクシマケン","city":"徳島市","city_kana":"トクシマシ","town":"八万町（法花谷）","town_kana":"ハチマンチョウ(ホッケダニ)","prefecture_code":36},"8070":{"zip_code":"7708070","prefecture":"徳島県","prefecture_kana":"トクシマケン","city":"徳島市","city_kana":"トクシマシ","town":"八万町（その他）","town_kana":"ハチマンチョウ(ソノタ)","prefecture_code":36},"0941":{"zip_code":"7700941","prefecture":"徳島県","prefecture_kana":"トクシマケン","city":"徳島市","city_kana":"トクシマシ","town":"万代町","town_kana":"バンダイチョウ","prefecture_code":36},"0873":{"zip_code":"7700873","prefecture":"徳島県","prefecture_kana":"トクシマケン","city":"徳島市","city_kana":"トクシマシ","town":"東沖洲","town_kana":"ヒガシオキノス","prefecture_code":36},"0912":{"zip_code":"7700912","prefecture":"徳島県","prefecture_kana":"トクシマケン","city":"徳島市","city_kana":"トクシマシ","town":"東新町","town_kana":"ヒガシシンマチ","prefecture_code":36},"0911":{"zip_code":"7700911","prefecture":"徳島県","prefecture_kana":"トクシマケン","city":"徳島市","city_kana":"トクシマシ","town":"東船場町","town_kana":"ヒガシセンバチョウ","prefecture_code":36},"0905":{"zip_code":"7700905","prefecture":"徳島県","prefecture_kana":"トクシマケン","city":"徳島市","city_kana":"トクシマシ","town":"東大工町","town_kana":"ヒガシダイクマチ","prefecture_code":36},"0822":{"zip_code":"7700822","prefecture":"徳島県","prefecture_kana":"トクシマケン","city":"徳島市","city_kana":"トクシマシ","town":"東出来島町","town_kana":"ヒガシデキジマチョウ","prefecture_code":36},"0906":{"zip_code":"7700906","prefecture":"徳島県","prefecture_kana":"トクシマケン","city":"徳島市","city_kana":"トクシマシ","town":"東山手町","town_kana":"ヒガシヤマテチョウ","prefecture_code":36},"0811":{"zip_code":"7700811","prefecture":"徳島県","prefecture_kana":"トクシマケン","city":"徳島市","city_kana":"トクシマシ","town":"東吉野町","town_kana":"ヒガシヨシノチョウ","prefecture_code":36},"0908":{"zip_code":"7700908","prefecture":"徳島県","prefecture_kana":"トクシマケン","city":"徳島市","city_kana":"トクシマシ","town":"眉山町","town_kana":"ビザンチョウ","prefecture_code":36},"0868":{"zip_code":"7700868","prefecture":"徳島県","prefecture_kana":"トクシマケン","city":"徳島市","city_kana":"トクシマシ","town":"福島","town_kana":"フクシマ","prefecture_code":36},"0062":{"zip_code":"7700062","prefecture":"徳島県","prefecture_kana":"トクシマケン","city":"徳島市","city_kana":"トクシマシ","town":"不動東町","town_kana":"フドウヒガシマチ","prefecture_code":36},"0064":{"zip_code":"7700064","prefecture":"徳島県","prefecture_kana":"トクシマケン","city":"徳島市","city_kana":"トクシマシ","town":"不動西町","town_kana":"フドウニシマチ","prefecture_code":36},"0061":{"zip_code":"7700061","prefecture":"徳島県","prefecture_kana":"トクシマケン","city":"徳島市","city_kana":"トクシマシ","town":"不動北町","town_kana":"フドウキタマチ","prefecture_code":36},"0063":{"zip_code":"7700063","prefecture":"徳島県","prefecture_kana":"トクシマケン","city":"徳島市","city_kana":"トクシマシ","town":"不動本町","town_kana":"フドウホンチョウ","prefecture_code":36},"0846":{"zip_code":"7700846","prefecture":"徳島県","prefecture_kana":"トクシマケン","city":"徳島市","city_kana":"トクシマシ","town":"南内町","town_kana":"ミナミウチマチ","prefecture_code":36},"0874":{"zip_code":"7700874","prefecture":"徳島県","prefecture_kana":"トクシマケン","city":"徳島市","city_kana":"トクシマシ","town":"南沖洲","town_kana":"ミナミオキノス","prefecture_code":36},"0043":{"zip_code":"7700043","prefecture":"徳島県","prefecture_kana":"トクシマケン","city":"徳島市","city_kana":"トクシマシ","town":"南蔵本町","town_kana":"ミナミクラモトチョウ","prefecture_code":36},"0031":{"zip_code":"7700031","prefecture":"徳島県","prefecture_kana":"トクシマケン","city":"徳島市","city_kana":"トクシマシ","town":"南佐古一番町","town_kana":"ミナミサコ1バンチョウ","prefecture_code":36},"0032":{"zip_code":"7700032","prefecture":"徳島県","prefecture_kana":"トクシマケン","city":"徳島市","city_kana":"トクシマシ","town":"南佐古二番町","town_kana":"ミナミサコ2バンチョウ","prefecture_code":36},"0033":{"zip_code":"7700033","prefecture":"徳島県","prefecture_kana":"トクシマケン","city":"徳島市","city_kana":"トクシマシ","town":"南佐古三番町","town_kana":"ミナミサコ3バンチョウ","prefecture_code":36},"0034":{"zip_code":"7700034","prefecture":"徳島県","prefecture_kana":"トクシマケン","city":"徳島市","city_kana":"トクシマシ","town":"南佐古四番町","town_kana":"ミナミサコ4バンチョウ","prefecture_code":36},"0035":{"zip_code":"7700035","prefecture":"徳島県","prefecture_kana":"トクシマケン","city":"徳島市","city_kana":"トクシマシ","town":"南佐古五番町","town_kana":"ミナミサコ5バンチョウ","prefecture_code":36},"0036":{"zip_code":"7700036","prefecture":"徳島県","prefecture_kana":"トクシマケン","city":"徳島市","city_kana":"トクシマシ","town":"南佐古六番町","town_kana":"ミナミサコ6バンチョウ","prefecture_code":36},"0037":{"zip_code":"7700037","prefecture":"徳島県","prefecture_kana":"トクシマケン","city":"徳島市","city_kana":"トクシマシ","town":"南佐古七番町","town_kana":"ミナミサコ7バンチョウ","prefecture_code":36},"0038":{"zip_code":"7700038","prefecture":"徳島県","prefecture_kana":"トクシマケン","city":"徳島市","city_kana":"トクシマシ","town":"南佐古八番町","town_kana":"ミナミサコ8バンチョウ","prefecture_code":36},"0053":{"zip_code":"7700053","prefecture":"徳島県","prefecture_kana":"トクシマケン","city":"徳島市","city_kana":"トクシマシ","town":"南島田町","town_kana":"ミナミシマダチョウ","prefecture_code":36},"0045":{"zip_code":"7700045","prefecture":"徳島県","prefecture_kana":"トクシマケン","city":"徳島市","city_kana":"トクシマシ","town":"南庄町","town_kana":"ミナミショウマチ","prefecture_code":36},"0944":{"zip_code":"7700944","prefecture":"徳島県","prefecture_kana":"トクシマケン","city":"徳島市","city_kana":"トクシマシ","town":"南昭和町","town_kana":"ミナミショウワチョウ","prefecture_code":36},"0913":{"zip_code":"7700913","prefecture":"徳島県","prefecture_kana":"トクシマケン","city":"徳島市","city_kana":"トクシマシ","town":"南新町","town_kana":"ミナミシンマチ","prefecture_code":36},"0814":{"zip_code":"7700814","prefecture":"徳島県","prefecture_kana":"トクシマケン","city":"徳島市","city_kana":"トクシマシ","town":"南常三島町","town_kana":"ミナミジョウサンジマチョウ","prefecture_code":36},"0865":{"zip_code":"7700865","prefecture":"徳島県","prefecture_kana":"トクシマケン","city":"徳島市","city_kana":"トクシマシ","town":"南末広町","town_kana":"ミナミスエヒロチョウ","prefecture_code":36},"0004":{"zip_code":"7700004","prefecture":"徳島県","prefecture_kana":"トクシマケン","city":"徳島市","city_kana":"トクシマシ","town":"南田宮","town_kana":"ミナミタミヤ","prefecture_code":36},"0824":{"zip_code":"7700824","prefecture":"徳島県","prefecture_kana":"トクシマケン","city":"徳島市","city_kana":"トクシマシ","town":"南出来島町","town_kana":"ミナミデキジマチョウ","prefecture_code":36},"0933":{"zip_code":"7700933","prefecture":"徳島県","prefecture_kana":"トクシマケン","city":"徳島市","city_kana":"トクシマシ","town":"南仲之町","town_kana":"ミナミナカノチョウ","prefecture_code":36},"8063":{"zip_code":"7708063","prefecture":"徳島県","prefecture_kana":"トクシマケン","city":"徳島市","city_kana":"トクシマシ","town":"南二軒屋町","town_kana":"ミナミニケンヤチョウ","prefecture_code":36},"0808":{"zip_code":"7700808","prefecture":"徳島県","prefecture_kana":"トクシマケン","city":"徳島市","city_kana":"トクシマシ","town":"南前川町","town_kana":"ミナミマエガワチョウ","prefecture_code":36},"0005":{"zip_code":"7700005","prefecture":"徳島県","prefecture_kana":"トクシマケン","city":"徳島市","city_kana":"トクシマシ","town":"南矢三町","town_kana":"ミナミヤソチョウ","prefecture_code":36},"0938":{"zip_code":"7700938","prefecture":"徳島県","prefecture_kana":"トクシマケン","city":"徳島市","city_kana":"トクシマシ","town":"明神町","town_kana":"ミョウジンチョウ","prefecture_code":36},"0047":{"zip_code":"7700047","prefecture":"徳島県","prefecture_kana":"トクシマケン","city":"徳島市","city_kana":"トクシマシ","town":"名東町","town_kana":"ミョウドウチョウ","prefecture_code":36},"0834":{"zip_code":"7700834","prefecture":"徳島県","prefecture_kana":"トクシマケン","city":"徳島市","city_kana":"トクシマシ","town":"元町","town_kana":"モトマチ","prefecture_code":36},"0841":{"zip_code":"7700841","prefecture":"徳島県","prefecture_kana":"トクシマケン","city":"徳島市","city_kana":"トクシマシ","town":"八百屋町","town_kana":"ヤオヤマチ","prefecture_code":36},"8055":{"zip_code":"7708055","prefecture":"徳島県","prefecture_kana":"トクシマケン","city":"徳島市","city_kana":"トクシマシ","town":"山城町","town_kana":"ヤマシロチョウ","prefecture_code":36},"8054":{"zip_code":"7708054","prefecture":"徳島県","prefecture_kana":"トクシマケン","city":"徳島市","city_kana":"トクシマシ","town":"山城西","town_kana":"ヤマシロニシ","prefecture_code":36},"0864":{"zip_code":"7700864","prefecture":"徳島県","prefecture_kana":"トクシマケン","city":"徳島市","city_kana":"トクシマシ","town":"大和町","town_kana":"ヤマトチョウ","prefecture_code":36},"0925":{"zip_code":"7700925","prefecture":"徳島県","prefecture_kana":"トクシマケン","city":"徳島市","city_kana":"トクシマシ","town":"弓町","town_kana":"ユミチョウ","prefecture_code":36},"0802":{"zip_code":"7700802","prefecture":"徳島県","prefecture_kana":"トクシマケン","city":"徳島市","city_kana":"トクシマシ","town":"吉野本町","town_kana":"ヨシノホンチョウ","prefecture_code":36},"0917":{"zip_code":"7700917","prefecture":"徳島県","prefecture_kana":"トクシマケン","city":"徳島市","city_kana":"トクシマシ","town":"両国橋","town_kana":"リョウゴクバシ","prefecture_code":36},"0843":{"zip_code":"7700843","prefecture":"徳島県","prefecture_kana":"トクシマケン","city":"徳島市","city_kana":"トクシマシ","town":"両国本町","town_kana":"リョウゴクホンチョウ","prefecture_code":36},"8011":{"zip_code":"7708011","prefecture":"徳島県","prefecture_kana":"トクシマケン","city":"徳島市","city_kana":"トクシマシ","town":"論田町","town_kana":"ロンデンチョウ","prefecture_code":36}}