{"4265":{"zip_code":"7714265","prefecture":"徳島県","prefecture_kana":"トクシマケン","city":"徳島市","city_kana":"トクシマシ","town":"飯谷町","town_kana":"イイタニチョウ","prefecture_code":36},"1156":{"zip_code":"7711156","prefecture":"徳島県","prefecture_kana":"トクシマケン","city":"徳島市","city_kana":"トクシマシ","town":"応神町応神産業団地","town_kana":"オウジンチョウオウジンサンギョウダンチ","prefecture_code":36},"1152":{"zip_code":"7711152","prefecture":"徳島県","prefecture_kana":"トクシマケン","city":"徳島市","city_kana":"トクシマシ","town":"応神町中原","town_kana":"オウジンチョウナカハラ","prefecture_code":36},"1154":{"zip_code":"7711154","prefecture":"徳島県","prefecture_kana":"トクシマケン","city":"徳島市","city_kana":"トクシマシ","town":"応神町東貞方","town_kana":"オウジンチョウヒガシサダカタ","prefecture_code":36},"1155":{"zip_code":"7711155","prefecture":"徳島県","prefecture_kana":"トクシマケン","city":"徳島市","city_kana":"トクシマシ","town":"応神町西貞方","town_kana":"オウジンチョウニシサダカタ","prefecture_code":36},"1151":{"zip_code":"7711151","prefecture":"徳島県","prefecture_kana":"トクシマケン","city":"徳島市","city_kana":"トクシマシ","town":"応神町古川","town_kana":"オウジンチョウフルカワ","prefecture_code":36},"1153":{"zip_code":"7711153","prefecture":"徳島県","prefecture_kana":"トクシマケン","city":"徳島市","city_kana":"トクシマシ","town":"応神町吉成","town_kana":"オウジンチョウヨシナリ","prefecture_code":36},"0101":{"zip_code":"7710101","prefecture":"徳島県","prefecture_kana":"トクシマケン","city":"徳島市","city_kana":"トクシマシ","town":"川内町（旭野）","town_kana":"カワウチチョウ(アサヒノ)","prefecture_code":36},"0144":{"zip_code":"7710144","prefecture":"徳島県","prefecture_kana":"トクシマケン","city":"徳島市","city_kana":"トクシマシ","town":"川内町（榎瀬）","town_kana":"カワウチチョウ(エノキセ)","prefecture_code":36},"0131":{"zip_code":"7710131","prefecture":"徳島県","prefecture_kana":"トクシマケン","city":"徳島市","city_kana":"トクシマシ","town":"川内町（大松）","town_kana":"カワウチチョウ(オオマツ)","prefecture_code":36},"0142":{"zip_code":"7710142","prefecture":"徳島県","prefecture_kana":"トクシマケン","city":"徳島市","city_kana":"トクシマシ","town":"川内町（沖島）","town_kana":"カワウチチョウ(オキノシマ)","prefecture_code":36},"0130":{"zip_code":"7710130","prefecture":"徳島県","prefecture_kana":"トクシマケン","city":"徳島市","city_kana":"トクシマシ","town":"川内町（加賀須野）","town_kana":"カワウチチョウ(カガスノ)","prefecture_code":36},"0125":{"zip_code":"7710125","prefecture":"徳島県","prefecture_kana":"トクシマケン","city":"徳島市","city_kana":"トクシマシ","town":"川内町（金岡）","town_kana":"カワウチチョウ(カナオカ)","prefecture_code":36},"0126":{"zip_code":"7710126","prefecture":"徳島県","prefecture_kana":"トクシマケン","city":"徳島市","city_kana":"トクシマシ","town":"川内町（上別宮東）","town_kana":"カワウチチョウ(カミベツクヒガシ)","prefecture_code":36},"0127":{"zip_code":"7710127","prefecture":"徳島県","prefecture_kana":"トクシマケン","city":"徳島市","city_kana":"トクシマシ","town":"川内町（上別宮南）","town_kana":"カワウチチョウ(カミベツクミナミ)","prefecture_code":36},"0128":{"zip_code":"7710128","prefecture":"徳島県","prefecture_kana":"トクシマケン","city":"徳島市","city_kana":"トクシマシ","town":"川内町（上別宮北）","town_kana":"カワウチチョウ(カミベツクキタ)","prefecture_code":36},"0129":{"zip_code":"7710129","prefecture":"徳島県","prefecture_kana":"トクシマケン","city":"徳島市","city_kana":"トクシマシ","town":"川内町（北原）","town_kana":"カワウチチョウ(キタハラ)","prefecture_code":36},"0103":{"zip_code":"7710103","prefecture":"徳島県","prefecture_kana":"トクシマケン","city":"徳島市","city_kana":"トクシマシ","town":"川内町（小松東）","town_kana":"カワウチチョウ(コマツヒガシ)","prefecture_code":36},"0104":{"zip_code":"7710104","prefecture":"徳島県","prefecture_kana":"トクシマケン","city":"徳島市","city_kana":"トクシマシ","town":"川内町（小松西）","town_kana":"カワウチチョウ(コマツニシ)","prefecture_code":36},"0102":{"zip_code":"7710102","prefecture":"徳島県","prefecture_kana":"トクシマケン","city":"徳島市","city_kana":"トクシマシ","town":"川内町（小松北）","town_kana":"カワウチチョウ(コマツキタ)","prefecture_code":36},"0106":{"zip_code":"7710106","prefecture":"徳島県","prefecture_kana":"トクシマケン","city":"徳島市","city_kana":"トクシマシ","town":"川内町（下別宮東）","town_kana":"カワウチチョウ(シモベツクヒガシ)","prefecture_code":36},"0105":{"zip_code":"7710105","prefecture":"徳島県","prefecture_kana":"トクシマケン","city":"徳島市","city_kana":"トクシマシ","town":"川内町（下別宮西）","town_kana":"カワウチチョウ(シモベツクニシ)","prefecture_code":36},"0121":{"zip_code":"7710121","prefecture":"徳島県","prefecture_kana":"トクシマケン","city":"徳島市","city_kana":"トクシマシ","town":"川内町（鈴江東）","town_kana":"カワウチチョウ(スズエヒガシ)","prefecture_code":36},"0122":{"zip_code":"7710122","prefecture":"徳島県","prefecture_kana":"トクシマケン","city":"徳島市","city_kana":"トクシマシ","town":"川内町（鈴江西）","town_kana":"カワウチチョウ(スズエニシ)","prefecture_code":36},"0124":{"zip_code":"7710124","prefecture":"徳島県","prefecture_kana":"トクシマケン","city":"徳島市","city_kana":"トクシマシ","town":"川内町（鈴江南）","town_kana":"カワウチチョウ(スズエミナミ)","prefecture_code":36},"0123":{"zip_code":"7710123","prefecture":"徳島県","prefecture_kana":"トクシマケン","city":"徳島市","city_kana":"トクシマシ","town":"川内町（鈴江北）","town_kana":"カワウチチョウ(スズエキタ)","prefecture_code":36},"0141":{"zip_code":"7710141","prefecture":"徳島県","prefecture_kana":"トクシマケン","city":"徳島市","city_kana":"トクシマシ","town":"川内町（竹須賀）","town_kana":"カワウチチョウ(タケズカ)","prefecture_code":36},"0117":{"zip_code":"7710117","prefecture":"徳島県","prefecture_kana":"トクシマケン","city":"徳島市","city_kana":"トクシマシ","town":"川内町（鶴島）","town_kana":"カワウチチョウ(ツルシマ)","prefecture_code":36},"0111":{"zip_code":"7710111","prefecture":"徳島県","prefecture_kana":"トクシマケン","city":"徳島市","city_kana":"トクシマシ","town":"川内町（富久）","town_kana":"カワウチチョウ(トミヒサ)","prefecture_code":36},"0112":{"zip_code":"7710112","prefecture":"徳島県","prefecture_kana":"トクシマケン","city":"徳島市","city_kana":"トクシマシ","town":"川内町（富吉）","town_kana":"カワウチチョウ(トミヨシ)","prefecture_code":36},"0143":{"zip_code":"7710143","prefecture":"徳島県","prefecture_kana":"トクシマケン","city":"徳島市","city_kana":"トクシマシ","town":"川内町（中島）","town_kana":"カワウチチョウ(ナカシマ)","prefecture_code":36},"0132":{"zip_code":"7710132","prefecture":"徳島県","prefecture_kana":"トクシマケン","city":"徳島市","city_kana":"トクシマシ","town":"川内町（平石夷野）","town_kana":"カワウチチョウ(ヒライシエビスノ)","prefecture_code":36},"0133":{"zip_code":"7710133","prefecture":"徳島県","prefecture_kana":"トクシマケン","city":"徳島市","city_kana":"トクシマシ","town":"川内町（平石夷野番外）","town_kana":"カワウチチョウ(ヒライシエビスノバンガイ)","prefecture_code":36},"0136":{"zip_code":"7710136","prefecture":"徳島県","prefecture_kana":"トクシマケン","city":"徳島市","city_kana":"トクシマシ","town":"川内町（平石古田）","town_kana":"カワウチチョウ(ヒライシコデン)","prefecture_code":36},"0134":{"zip_code":"7710134","prefecture":"徳島県","prefecture_kana":"トクシマケン","city":"徳島市","city_kana":"トクシマシ","town":"川内町（平石住吉）","town_kana":"カワウチチョウ(ヒライシスミヨシ)","prefecture_code":36},"0138":{"zip_code":"7710138","prefecture":"徳島県","prefecture_kana":"トクシマケン","city":"徳島市","city_kana":"トクシマシ","town":"川内町（平石流通団地）","town_kana":"カワウチチョウ(ヒライシリュウツウダンチ)","prefecture_code":36},"0135":{"zip_code":"7710135","prefecture":"徳島県","prefecture_kana":"トクシマケン","city":"徳島市","city_kana":"トクシマシ","town":"川内町（平石若松）","town_kana":"カワウチチョウ(ヒライシワカマツ)","prefecture_code":36},"0137":{"zip_code":"7710137","prefecture":"徳島県","prefecture_kana":"トクシマケン","city":"徳島市","city_kana":"トクシマシ","town":"川内町（平石若宮）","town_kana":"カワウチチョウ(ヒライシワカミヤ)","prefecture_code":36},"0113":{"zip_code":"7710113","prefecture":"徳島県","prefecture_kana":"トクシマケン","city":"徳島市","city_kana":"トクシマシ","town":"川内町（松岡）","town_kana":"カワウチチョウ(マツオカ)","prefecture_code":36},"0116":{"zip_code":"7710116","prefecture":"徳島県","prefecture_kana":"トクシマケン","city":"徳島市","city_kana":"トクシマシ","town":"川内町（宮島錦野）","town_kana":"カワウチチョウ(ミヤジマニシキノ)","prefecture_code":36},"0115":{"zip_code":"7710115","prefecture":"徳島県","prefecture_kana":"トクシマケン","city":"徳島市","city_kana":"トクシマシ","town":"川内町（宮島浜）","town_kana":"カワウチチョウ(ミヤジマハマ)","prefecture_code":36},"0114":{"zip_code":"7710114","prefecture":"徳島県","prefecture_kana":"トクシマケン","city":"徳島市","city_kana":"トクシマシ","town":"川内町（宮島本浦）","town_kana":"カワウチチョウ(ミヤジマホンウラ)","prefecture_code":36},"0139":{"zip_code":"7710139","prefecture":"徳島県","prefecture_kana":"トクシマケン","city":"徳島市","city_kana":"トクシマシ","town":"川内町（米津）","town_kana":"カワウチチョウ(ヨネヅ)","prefecture_code":36},"4267":{"zip_code":"7714267","prefecture":"徳島県","prefecture_kana":"トクシマケン","city":"徳島市","city_kana":"トクシマシ","town":"渋野町","town_kana":"シブノチョウ","prefecture_code":36},"4263":{"zip_code":"7714263","prefecture":"徳島県","prefecture_kana":"トクシマケン","city":"徳島市","city_kana":"トクシマシ","town":"丈六町（丈領）","town_kana":"ジョウロクチョウ(ジョウリョウ)","prefecture_code":36},"4262":{"zip_code":"7714262","prefecture":"徳島県","prefecture_kana":"トクシマケン","city":"徳島市","city_kana":"トクシマシ","town":"丈六町（長尾）","town_kana":"ジョウロクチョウ(ナガオ)","prefecture_code":36},"4261":{"zip_code":"7714261","prefecture":"徳島県","prefecture_kana":"トクシマケン","city":"徳島市","city_kana":"トクシマシ","town":"丈六町（その他）","town_kana":"ジョウロクチョウ(ソノタ)","prefecture_code":36},"4264":{"zip_code":"7714264","prefecture":"徳島県","prefecture_kana":"トクシマケン","city":"徳島市","city_kana":"トクシマシ","town":"多家良町","town_kana":"タカラチョウ","prefecture_code":36},"4266":{"zip_code":"7714266","prefecture":"徳島県","prefecture_kana":"トクシマケン","city":"徳島市","city_kana":"トクシマシ","town":"八多町","town_kana":"ハタチョウ","prefecture_code":36},"0372":{"zip_code":"7710372","prefecture":"徳島県","prefecture_kana":"トクシマケン","city":"鳴門市","city_kana":"ナルトシ","town":"北灘町粟田","town_kana":"キタナダチョウアワタ","prefecture_code":36},"0373":{"zip_code":"7710373","prefecture":"徳島県","prefecture_kana":"トクシマケン","city":"鳴門市","city_kana":"ナルトシ","town":"北灘町大浦","town_kana":"キタナダチョウオオウラ","prefecture_code":36},"0377":{"zip_code":"7710377","prefecture":"徳島県","prefecture_kana":"トクシマケン","city":"鳴門市","city_kana":"ナルトシ","town":"北灘町大須","town_kana":"キタナダチョウオオズ","prefecture_code":36},"0376":{"zip_code":"7710376","prefecture":"徳島県","prefecture_kana":"トクシマケン","city":"鳴門市","city_kana":"ナルトシ","town":"北灘町折野","town_kana":"キタナダチョウオリノ","prefecture_code":36},"0371":{"zip_code":"7710371","prefecture":"徳島県","prefecture_kana":"トクシマケン","city":"鳴門市","city_kana":"ナルトシ","town":"北灘町櫛木","town_kana":"キタナダチョウクシキ","prefecture_code":36},"0378":{"zip_code":"7710378","prefecture":"徳島県","prefecture_kana":"トクシマケン","city":"鳴門市","city_kana":"ナルトシ","town":"北灘町碁浦","town_kana":"キタナダチョウゴノウラ","prefecture_code":36},"0374":{"zip_code":"7710374","prefecture":"徳島県","prefecture_kana":"トクシマケン","city":"鳴門市","city_kana":"ナルトシ","town":"北灘町宿毛谷","town_kana":"キタナダチョウシュクモダニ","prefecture_code":36},"0375":{"zip_code":"7710375","prefecture":"徳島県","prefecture_kana":"トクシマケン","city":"鳴門市","city_kana":"ナルトシ","town":"北灘町鳥ケ丸","town_kana":"キタナダチョウトリガマル","prefecture_code":36},"0360":{"zip_code":"7710360","prefecture":"徳島県","prefecture_kana":"トクシマケン","city":"鳴門市","city_kana":"ナルトシ","town":"瀬戸町明神（その他）","town_kana":"セトチョウアキノカミ(ソノタ)","prefecture_code":36},"0362":{"zip_code":"7710362","prefecture":"徳島県","prefecture_kana":"トクシマケン","city":"鳴門市","city_kana":"ナルトシ","town":"瀬戸町北泊（小海）","town_kana":"セトチョウキタドマリ(オオミ)","prefecture_code":36},"0364":{"zip_code":"7710364","prefecture":"徳島県","prefecture_kana":"トクシマケン","city":"鳴門市","city_kana":"ナルトシ","town":"瀬戸町北泊（その他）","town_kana":"セトチョウキタドマリ(ソノタ)","prefecture_code":36},"0367":{"zip_code":"7710367","prefecture":"徳島県","prefecture_kana":"トクシマケン","city":"鳴門市","city_kana":"ナルトシ","town":"瀬戸町大島田","town_kana":"セトチョウオオシマダ","prefecture_code":36},"0366":{"zip_code":"7710366","prefecture":"徳島県","prefecture_kana":"トクシマケン","city":"鳴門市","city_kana":"ナルトシ","town":"瀬戸町中島田","town_kana":"セトチョウナカシマダ","prefecture_code":36},"0365":{"zip_code":"7710365","prefecture":"徳島県","prefecture_kana":"トクシマケン","city":"鳴門市","city_kana":"ナルトシ","town":"瀬戸町小島田","town_kana":"セトチョウコシマダ","prefecture_code":36},"0361":{"zip_code":"7710361","prefecture":"徳島県","prefecture_kana":"トクシマケン","city":"鳴門市","city_kana":"ナルトシ","town":"瀬戸町堂浦","town_kana":"セトチョウドウノウラ","prefecture_code":36},"0363":{"zip_code":"7710363","prefecture":"徳島県","prefecture_kana":"トクシマケン","city":"鳴門市","city_kana":"ナルトシ","town":"瀬戸町湊谷","town_kana":"セトチョウミナトダニ","prefecture_code":36},"0369":{"zip_code":"7710369","prefecture":"徳島県","prefecture_kana":"トクシマケン","city":"鳴門市","city_kana":"ナルトシ","town":"瀬戸町撫佐","town_kana":"セトチョウムサ","prefecture_code":36},"0368":{"zip_code":"7710368","prefecture":"徳島県","prefecture_kana":"トクシマケン","city":"鳴門市","city_kana":"ナルトシ","town":"瀬戸町室","town_kana":"セトチョウムロ","prefecture_code":36},"5177":{"zip_code":"7715177","prefecture":"徳島県","prefecture_kana":"トクシマケン","city":"阿南市","city_kana":"アナンシ","town":"大井町","town_kana":"オオイチョウ","prefecture_code":36},"5176":{"zip_code":"7715176","prefecture":"徳島県","prefecture_kana":"トクシマケン","city":"阿南市","city_kana":"アナンシ","town":"大田井町","town_kana":"オオタイチョウ","prefecture_code":36},"5173":{"zip_code":"7715173","prefecture":"徳島県","prefecture_kana":"トクシマケン","city":"阿南市","city_kana":"アナンシ","town":"加茂町","town_kana":"カモチョウ","prefecture_code":36},"5170":{"zip_code":"7715170","prefecture":"徳島県","prefecture_kana":"トクシマケン","city":"阿南市","city_kana":"アナンシ","town":"楠根町","town_kana":"クスネチョウ","prefecture_code":36},"5171":{"zip_code":"7715171","prefecture":"徳島県","prefecture_kana":"トクシマケン","city":"阿南市","city_kana":"アナンシ","town":"熊谷町","town_kana":"クマダニチョウ","prefecture_code":36},"5178":{"zip_code":"7715178","prefecture":"徳島県","prefecture_kana":"トクシマケン","city":"阿南市","city_kana":"アナンシ","town":"十八女町","town_kana":"サカリチョウ","prefecture_code":36},"5174":{"zip_code":"7715174","prefecture":"徳島県","prefecture_kana":"トクシマケン","city":"阿南市","city_kana":"アナンシ","town":"水井町","town_kana":"スイイチョウ","prefecture_code":36},"5179":{"zip_code":"7715179","prefecture":"徳島県","prefecture_kana":"トクシマケン","city":"阿南市","city_kana":"アナンシ","town":"深瀬町","town_kana":"フカセチョウ","prefecture_code":36},"5175":{"zip_code":"7715175","prefecture":"徳島県","prefecture_kana":"トクシマケン","city":"阿南市","city_kana":"アナンシ","town":"細野町","town_kana":"ホソノチョウ","prefecture_code":36},"5172":{"zip_code":"7715172","prefecture":"徳島県","prefecture_kana":"トクシマケン","city":"阿南市","city_kana":"アナンシ","town":"吉井町","town_kana":"ヨシイチョウ","prefecture_code":36},"1700":{"zip_code":"7711700","prefecture":"徳島県","prefecture_kana":"トクシマケン","city":"阿波市","city_kana":"アワシ","town":"以下に掲載がない場合","town_kana":"イカニケイサイガナイバアイ","prefecture_code":36},"1705":[{"zip_code":"7711705","prefecture":"徳島県","prefecture_kana":"トクシマケン","city":"阿波市","city_kana":"アワシ","town":"阿波町赤坂","town_kana":"アワチョウアカサカ","prefecture_code":36},{"zip_code":"7711705","prefecture":"徳島県","prefecture_kana":"トクシマケン","city":"阿波市","city_kana":"アワシ","town":"阿波町医王寺","town_kana":"アワチョウイオウジ","prefecture_code":36},{"zip_code":"7711705","prefecture":"徳島県","prefecture_kana":"トクシマケン","city":"阿波市","city_kana":"アワシ","town":"阿波町居屋敷","town_kana":"アワチョウイヤシキ","prefecture_code":36},{"zip_code":"7711705","prefecture":"徳島県","prefecture_kana":"トクシマケン","city":"阿波市","city_kana":"アワシ","town":"阿波町梅川内","town_kana":"アワチョウウメカワウチ","prefecture_code":36},{"zip_code":"7711705","prefecture":"徳島県","prefecture_kana":"トクシマケン","city":"阿波市","city_kana":"アワシ","town":"阿波町王子川","town_kana":"アワチョウオウジガワ","prefecture_code":36},{"zip_code":"7711705","prefecture":"徳島県","prefecture_kana":"トクシマケン","city":"阿波市","city_kana":"アワシ","town":"阿波町川久保","town_kana":"アワチョウカワクボ","prefecture_code":36},{"zip_code":"7711705","prefecture":"徳島県","prefecture_kana":"トクシマケン","city":"阿波市","city_kana":"アワシ","town":"阿波町北整理","town_kana":"アワチョウキタセイリ","prefecture_code":36},{"zip_code":"7711705","prefecture":"徳島県","prefecture_kana":"トクシマケン","city":"阿波市","city_kana":"アワシ","town":"阿波町北山","town_kana":"アワチョウキタヤマ","prefecture_code":36},{"zip_code":"7711705","prefecture":"徳島県","prefecture_kana":"トクシマケン","city":"阿波市","city_kana":"アワシ","town":"阿波町五明","town_kana":"アワチョウゴミョウ","prefecture_code":36},{"zip_code":"7711705","prefecture":"徳島県","prefecture_kana":"トクシマケン","city":"阿波市","city_kana":"アワシ","town":"阿波町桜ノ岡","town_kana":"アワチョウサクラノオカ","prefecture_code":36},{"zip_code":"7711705","prefecture":"徳島県","prefecture_kana":"トクシマケン","city":"阿波市","city_kana":"アワシ","town":"阿波町寒風","town_kana":"アワチョウサムカゼ","prefecture_code":36},{"zip_code":"7711705","prefecture":"徳島県","prefecture_kana":"トクシマケン","city":"阿波市","city_kana":"アワシ","town":"阿波町十善地","town_kana":"アワチョウジュウゼンジ","prefecture_code":36},{"zip_code":"7711705","prefecture":"徳島県","prefecture_kana":"トクシマケン","city":"阿波市","city_kana":"アワシ","town":"阿波町善地","town_kana":"アワチョウゼンジ","prefecture_code":36},{"zip_code":"7711705","prefecture":"徳島県","prefecture_kana":"トクシマケン","city":"阿波市","city_kana":"アワシ","town":"阿波町高垣","town_kana":"アワチョウタカガキ","prefecture_code":36},{"zip_code":"7711705","prefecture":"徳島県","prefecture_kana":"トクシマケン","city":"阿波市","city_kana":"アワシ","town":"阿波町栩ケ窪","town_kana":"アワチョウトチガクボ","prefecture_code":36},{"zip_code":"7711705","prefecture":"徳島県","prefecture_kana":"トクシマケン","city":"阿波市","city_kana":"アワシ","town":"阿波町馬場","town_kana":"アワチョウババ","prefecture_code":36},{"zip_code":"7711705","prefecture":"徳島県","prefecture_kana":"トクシマケン","city":"阿波市","city_kana":"アワシ","town":"阿波町日吉谷","town_kana":"アワチョウヒヨシダニ","prefecture_code":36},{"zip_code":"7711705","prefecture":"徳島県","prefecture_kana":"トクシマケン","city":"阿波市","city_kana":"アワシ","town":"阿波町松川内","town_kana":"アワチョウマツカワウチ","prefecture_code":36}],"1701":[{"zip_code":"7711701","prefecture":"徳島県","prefecture_kana":"トクシマケン","city":"阿波市","city_kana":"アワシ","town":"阿波町伊沢市","town_kana":"アワチョウイサワイチ","prefecture_code":36},{"zip_code":"7711701","prefecture":"徳島県","prefecture_kana":"トクシマケン","city":"阿波市","city_kana":"アワシ","town":"阿波町王地","town_kana":"アワチョウオウジ","prefecture_code":36},{"zip_code":"7711701","prefecture":"徳島県","prefecture_kana":"トクシマケン","city":"阿波市","city_kana":"アワシ","town":"阿波町王地南","town_kana":"アワチョウオウジミナミ","prefecture_code":36},{"zip_code":"7711701","prefecture":"徳島県","prefecture_kana":"トクシマケン","city":"阿波市","city_kana":"アワシ","town":"阿波町大坪","town_kana":"アワチョウオオツボ","prefecture_code":36},{"zip_code":"7711701","prefecture":"徳島県","prefecture_kana":"トクシマケン","city":"阿波市","city_kana":"アワシ","town":"阿波町大原","town_kana":"アワチョウオオハラ","prefecture_code":36},{"zip_code":"7711701","prefecture":"徳島県","prefecture_kana":"トクシマケン","city":"阿波市","city_kana":"アワシ","town":"阿波町大道南","town_kana":"アワチョウオオミチミナミ","prefecture_code":36},{"zip_code":"7711701","prefecture":"徳島県","prefecture_kana":"トクシマケン","city":"阿波市","city_kana":"アワシ","town":"阿波町勝命","town_kana":"アワチョウカツミョウ","prefecture_code":36},{"zip_code":"7711701","prefecture":"徳島県","prefecture_kana":"トクシマケン","city":"阿波市","city_kana":"アワシ","town":"阿波町勝命北","town_kana":"アワチョウカツミョウキタ","prefecture_code":36},{"zip_code":"7711701","prefecture":"徳島県","prefecture_kana":"トクシマケン","city":"阿波市","city_kana":"アワシ","town":"阿波町庚申原","town_kana":"アワチョウコウシンバラ","prefecture_code":36},{"zip_code":"7711701","prefecture":"徳島県","prefecture_kana":"トクシマケン","city":"阿波市","city_kana":"アワシ","town":"阿波町下喜来","town_kana":"アワチョウシモギライ","prefecture_code":36},{"zip_code":"7711701","prefecture":"徳島県","prefecture_kana":"トクシマケン","city":"阿波市","city_kana":"アワシ","town":"阿波町下喜来南","town_kana":"アワチョウシモギライミナミ","prefecture_code":36},{"zip_code":"7711701","prefecture":"徳島県","prefecture_kana":"トクシマケン","city":"阿波市","city_kana":"アワシ","town":"阿波町新開","town_kana":"アワチョウシンバリ","prefecture_code":36},{"zip_code":"7711701","prefecture":"徳島県","prefecture_kana":"トクシマケン","city":"阿波市","city_kana":"アワシ","town":"阿波町清原","town_kana":"アワチョウセイバラ","prefecture_code":36},{"zip_code":"7711701","prefecture":"徳島県","prefecture_kana":"トクシマケン","city":"阿波市","city_kana":"アワシ","town":"阿波町谷島","town_kana":"アワチョウタニジマ","prefecture_code":36},{"zip_code":"7711701","prefecture":"徳島県","prefecture_kana":"トクシマケン","city":"阿波市","city_kana":"アワシ","town":"阿波町谷島北","town_kana":"アワチョウタニジマキタ","prefecture_code":36},{"zip_code":"7711701","prefecture":"徳島県","prefecture_kana":"トクシマケン","city":"阿波市","city_kana":"アワシ","town":"阿波町西清原","town_kana":"アワチョウニシセイバラ","prefecture_code":36},{"zip_code":"7711701","prefecture":"徳島県","prefecture_kana":"トクシマケン","city":"阿波市","city_kana":"アワシ","town":"阿波町平川原北","town_kana":"アワチョウヘイガワラキタ","prefecture_code":36},{"zip_code":"7711701","prefecture":"徳島県","prefecture_kana":"トクシマケン","city":"阿波市","city_kana":"アワシ","town":"阿波町平川原南","town_kana":"アワチョウヘイガワラミナミ","prefecture_code":36},{"zip_code":"7711701","prefecture":"徳島県","prefecture_kana":"トクシマケン","city":"阿波市","city_kana":"アワシ","town":"阿波町南谷島","town_kana":"アワチョウミナミタニジマ","prefecture_code":36}],"1703":[{"zip_code":"7711703","prefecture":"徳島県","prefecture_kana":"トクシマケン","city":"阿波市","city_kana":"アワシ","town":"阿波町伊沢田","town_kana":"アワチョウイサワダ","prefecture_code":36},{"zip_code":"7711703","prefecture":"徳島県","prefecture_kana":"トクシマケン","city":"阿波市","city_kana":"アワシ","town":"阿波町大道北","town_kana":"アワチョウオオミチキタ","prefecture_code":36},{"zip_code":"7711703","prefecture":"徳島県","prefecture_kana":"トクシマケン","city":"阿波市","city_kana":"アワシ","town":"阿波町岡地","town_kana":"アワチョウオカジ","prefecture_code":36},{"zip_code":"7711703","prefecture":"徳島県","prefecture_kana":"トクシマケン","city":"阿波市","city_kana":"アワシ","town":"阿波町北柴生","town_kana":"アワチョウキタシボウ","prefecture_code":36},{"zip_code":"7711703","prefecture":"徳島県","prefecture_kana":"トクシマケン","city":"阿波市","city_kana":"アワシ","town":"阿波町北原","town_kana":"アワチョウキタバラ","prefecture_code":36},{"zip_code":"7711703","prefecture":"徳島県","prefecture_kana":"トクシマケン","city":"阿波市","city_kana":"アワシ","town":"阿波町真福寺","town_kana":"アワチョウシンプクジ","prefecture_code":36},{"zip_code":"7711703","prefecture":"徳島県","prefecture_kana":"トクシマケン","city":"阿波市","city_kana":"アワシ","town":"阿波町綱懸","town_kana":"アワチョウツナカケ","prefecture_code":36},{"zip_code":"7711703","prefecture":"徳島県","prefecture_kana":"トクシマケン","city":"阿波市","city_kana":"アワシ","town":"阿波町東条","town_kana":"アワチョウトウジョウ","prefecture_code":36},{"zip_code":"7711703","prefecture":"徳島県","prefecture_kana":"トクシマケン","city":"阿波市","city_kana":"アワシ","town":"阿波町中原","town_kana":"アワチョウナカハラ","prefecture_code":36},{"zip_code":"7711703","prefecture":"徳島県","prefecture_kana":"トクシマケン","city":"阿波市","city_kana":"アワシ","town":"阿波町西柴生","town_kana":"アワチョウニシシボウ","prefecture_code":36},{"zip_code":"7711703","prefecture":"徳島県","prefecture_kana":"トクシマケン","city":"阿波市","city_kana":"アワシ","town":"阿波町西原","town_kana":"アワチョウニシバラ","prefecture_code":36},{"zip_code":"7711703","prefecture":"徳島県","prefecture_kana":"トクシマケン","city":"阿波市","city_kana":"アワシ","town":"阿波町東柴生","town_kana":"アワチョウヒガシシボウ","prefecture_code":36},{"zip_code":"7711703","prefecture":"徳島県","prefecture_kana":"トクシマケン","city":"阿波市","city_kana":"アワシ","town":"阿波町東原","town_kana":"アワチョウヒガシバラ","prefecture_code":36},{"zip_code":"7711703","prefecture":"徳島県","prefecture_kana":"トクシマケン","city":"阿波市","city_kana":"アワシ","town":"阿波町前島","town_kana":"アワチョウマエジマ","prefecture_code":36},{"zip_code":"7711703","prefecture":"徳島県","prefecture_kana":"トクシマケン","city":"阿波市","city_kana":"アワシ","town":"阿波町丸山","town_kana":"アワチョウマルヤマ","prefecture_code":36},{"zip_code":"7711703","prefecture":"徳島県","prefecture_kana":"トクシマケン","city":"阿波市","city_kana":"アワシ","town":"阿波町南柴生","town_kana":"アワチョウミナミシボウ","prefecture_code":36}],"1704":[{"zip_code":"7711704","prefecture":"徳島県","prefecture_kana":"トクシマケン","city":"阿波市","city_kana":"アワシ","town":"阿波町伊沢谷東縁","town_kana":"アワチョウイサワダニヒガシベリ","prefecture_code":36},{"zip_code":"7711704","prefecture":"徳島県","prefecture_kana":"トクシマケン","city":"阿波市","city_kana":"アワシ","town":"阿波町糸下","town_kana":"アワチョウイトガ","prefecture_code":36},{"zip_code":"7711704","prefecture":"徳島県","prefecture_kana":"トクシマケン","city":"阿波市","city_kana":"アワシ","town":"阿波町芋場","town_kana":"アワチョウイモバ","prefecture_code":36},{"zip_code":"7711704","prefecture":"徳島県","prefecture_kana":"トクシマケン","city":"阿波市","city_kana":"アワシ","town":"阿波町梅ノ木原","town_kana":"アワチョウウメノキバラ","prefecture_code":36},{"zip_code":"7711704","prefecture":"徳島県","prefecture_kana":"トクシマケン","city":"阿波市","city_kana":"アワシ","town":"阿波町梅ノ東","town_kana":"アワチョウウメノヒガシ","prefecture_code":36},{"zip_code":"7711704","prefecture":"徳島県","prefecture_kana":"トクシマケン","city":"阿波市","city_kana":"アワシ","town":"阿波町小倉","town_kana":"アワチョウオグラ","prefecture_code":36},{"zip_code":"7711704","prefecture":"徳島県","prefecture_kana":"トクシマケン","city":"阿波市","city_kana":"アワシ","town":"阿波町亀底","town_kana":"アワチョウカメゾコ","prefecture_code":36},{"zip_code":"7711704","prefecture":"徳島県","prefecture_kana":"トクシマケン","city":"阿波市","city_kana":"アワシ","town":"阿波町北久保","town_kana":"アワチョウキタクボ","prefecture_code":36},{"zip_code":"7711704","prefecture":"徳島県","prefecture_kana":"トクシマケン","city":"阿波市","city_kana":"アワシ","town":"阿波町北五味知","town_kana":"アワチョウキタゴミジリ","prefecture_code":36},{"zip_code":"7711704","prefecture":"徳島県","prefecture_kana":"トクシマケン","city":"阿波市","city_kana":"アワシ","town":"阿波町北正広","town_kana":"アワチョウキタマサヒロ","prefecture_code":36},{"zip_code":"7711704","prefecture":"徳島県","prefecture_kana":"トクシマケン","city":"阿波市","city_kana":"アワシ","town":"阿波町立割","town_kana":"アワチョウタテワリ","prefecture_code":36},{"zip_code":"7711704","prefecture":"徳島県","prefecture_kana":"トクシマケン","city":"阿波市","city_kana":"アワシ","town":"阿波町西正広","town_kana":"アワチョウニシマサヒロ","prefecture_code":36},{"zip_code":"7711704","prefecture":"徳島県","prefecture_kana":"トクシマケン","city":"阿波市","city_kana":"アワシ","town":"阿波町八丁原","town_kana":"アワチョウハッチョウバラ","prefecture_code":36},{"zip_code":"7711704","prefecture":"徳島県","prefecture_kana":"トクシマケン","city":"阿波市","city_kana":"アワシ","town":"阿波町東正広","town_kana":"アワチョウヒガシマサヒロ","prefecture_code":36},{"zip_code":"7711704","prefecture":"徳島県","prefecture_kana":"トクシマケン","city":"阿波市","city_kana":"アワシ","town":"阿波町引地","town_kana":"アワチョウヒキチ","prefecture_code":36},{"zip_code":"7711704","prefecture":"徳島県","prefecture_kana":"トクシマケン","city":"阿波市","city_kana":"アワシ","town":"阿波町広野","town_kana":"アワチョウヒロノ","prefecture_code":36},{"zip_code":"7711704","prefecture":"徳島県","prefecture_kana":"トクシマケン","city":"阿波市","city_kana":"アワシ","town":"阿波町真重","town_kana":"アワチョウマシゲ","prefecture_code":36},{"zip_code":"7711704","prefecture":"徳島県","prefecture_kana":"トクシマケン","city":"阿波市","city_kana":"アワシ","town":"阿波町南五味知","town_kana":"アワチョウミナミゴミジリ","prefecture_code":36},{"zip_code":"7711704","prefecture":"徳島県","prefecture_kana":"トクシマケン","city":"阿波市","city_kana":"アワシ","town":"阿波町元町","town_kana":"アワチョウモトマチ","prefecture_code":36},{"zip_code":"7711704","prefecture":"徳島県","prefecture_kana":"トクシマケン","city":"阿波市","city_kana":"アワシ","town":"阿波町山ノ神","town_kana":"アワチョウヤマノカミ","prefecture_code":36}],"1702":[{"zip_code":"7711702","prefecture":"徳島県","prefecture_kana":"トクシマケン","city":"阿波市","city_kana":"アワシ","town":"阿波町伊勢","town_kana":"アワチョウイセ","prefecture_code":36},{"zip_code":"7711702","prefecture":"徳島県","prefecture_kana":"トクシマケン","city":"阿波市","city_kana":"アワシ","town":"阿波町井出口","town_kana":"アワチョウイデグチ","prefecture_code":36},{"zip_code":"7711702","prefecture":"徳島県","prefecture_kana":"トクシマケン","city":"阿波市","city_kana":"アワシ","town":"阿波町稲荷","town_kana":"アワチョウイナリ","prefecture_code":36},{"zip_code":"7711702","prefecture":"徳島県","prefecture_kana":"トクシマケン","city":"阿波市","city_kana":"アワシ","town":"阿波町大久保","town_kana":"アワチョウオオクボ","prefecture_code":36},{"zip_code":"7711702","prefecture":"徳島県","prefecture_kana":"トクシマケン","city":"阿波市","city_kana":"アワシ","town":"阿波町柏谷左右","town_kana":"アワチョウカシワダニサユウ","prefecture_code":36},{"zip_code":"7711702","prefecture":"徳島県","prefecture_kana":"トクシマケン","city":"阿波市","city_kana":"アワシ","town":"阿波町川添","town_kana":"アワチョウカワゾエ","prefecture_code":36},{"zip_code":"7711702","prefecture":"徳島県","prefecture_kana":"トクシマケン","city":"阿波市","city_kana":"アワシ","town":"阿波町北ノ名","town_kana":"アワチョウキタノミョウ","prefecture_code":36},{"zip_code":"7711702","prefecture":"徳島県","prefecture_kana":"トクシマケン","city":"阿波市","city_kana":"アワシ","town":"阿波町山王","town_kana":"アワチョウサンノウ","prefecture_code":36},{"zip_code":"7711702","prefecture":"徳島県","prefecture_kana":"トクシマケン","city":"阿波市","city_kana":"アワシ","town":"阿波町四歩一","town_kana":"アワチョウシブイチ","prefecture_code":36},{"zip_code":"7711702","prefecture":"徳島県","prefecture_kana":"トクシマケン","city":"阿波市","city_kana":"アワシ","town":"阿波町下原","town_kana":"アワチョウシモバラ","prefecture_code":36},{"zip_code":"7711702","prefecture":"徳島県","prefecture_kana":"トクシマケン","city":"阿波市","city_kana":"アワシ","town":"阿波町大次郎","town_kana":"アワチョウダイジロウ","prefecture_code":36},{"zip_code":"7711702","prefecture":"徳島県","prefecture_kana":"トクシマケン","city":"阿波市","city_kana":"アワシ","town":"阿波町谷口","town_kana":"アワチョウタニグチ","prefecture_code":36},{"zip_code":"7711702","prefecture":"徳島県","prefecture_kana":"トクシマケン","city":"阿波市","city_kana":"アワシ","town":"阿波町寺サコ","town_kana":"アワチョウテラサコ","prefecture_code":36},{"zip_code":"7711702","prefecture":"徳島県","prefecture_kana":"トクシマケン","city":"阿波市","city_kana":"アワシ","town":"阿波町天西山","town_kana":"アワチョウテンサイザン","prefecture_code":36},{"zip_code":"7711702","prefecture":"徳島県","prefecture_kana":"トクシマケン","city":"阿波市","city_kana":"アワシ","town":"阿波町西ノ岡","town_kana":"アワチョウニシノオカ","prefecture_code":36},{"zip_code":"7711702","prefecture":"徳島県","prefecture_kana":"トクシマケン","city":"阿波市","city_kana":"アワシ","town":"阿波町野神","town_kana":"アワチョウノガミ","prefecture_code":36},{"zip_code":"7711702","prefecture":"徳島県","prefecture_kana":"トクシマケン","city":"阿波市","city_kana":"アワシ","town":"阿波町久原","town_kana":"アワチョウヒサハラ","prefecture_code":36},{"zip_code":"7711702","prefecture":"徳島県","prefecture_kana":"トクシマケン","city":"阿波市","city_kana":"アワシ","town":"阿波町本町","town_kana":"アワチョウホンマチ","prefecture_code":36},{"zip_code":"7711702","prefecture":"徳島県","prefecture_kana":"トクシマケン","city":"阿波市","city_kana":"アワシ","town":"阿波町本安","town_kana":"アワチョウホンヤス","prefecture_code":36},{"zip_code":"7711702","prefecture":"徳島県","prefecture_kana":"トクシマケン","city":"阿波市","city_kana":"アワシ","town":"阿波町森沢","town_kana":"アワチョウモリサワ","prefecture_code":36},{"zip_code":"7711702","prefecture":"徳島県","prefecture_kana":"トクシマケン","city":"阿波市","city_kana":"アワシ","town":"阿波町安政","town_kana":"アワチョウヤスマサ","prefecture_code":36},{"zip_code":"7711702","prefecture":"徳島県","prefecture_kana":"トクシマケン","city":"阿波市","city_kana":"アワシ","town":"阿波町山尻","town_kana":"アワチョウヤマジリ","prefecture_code":36},{"zip_code":"7711702","prefecture":"徳島県","prefecture_kana":"トクシマケン","city":"阿波市","city_kana":"アワシ","town":"阿波町早田","town_kana":"アワチョウワサダ","prefecture_code":36}],"1706":[{"zip_code":"7711706","prefecture":"徳島県","prefecture_kana":"トクシマケン","city":"阿波市","city_kana":"アワシ","town":"阿波町岩津","town_kana":"アワチョウイワヅ","prefecture_code":36},{"zip_code":"7711706","prefecture":"徳島県","prefecture_kana":"トクシマケン","city":"阿波市","city_kana":"アワシ","town":"阿波町植桜","town_kana":"アワチョウウエザクラ","prefecture_code":36},{"zip_code":"7711706","prefecture":"徳島県","prefecture_kana":"トクシマケン","city":"阿波市","city_kana":"アワシ","town":"阿波町乙岩津","town_kana":"アワチョウオツイワヅ","prefecture_code":36},{"zip_code":"7711706","prefecture":"徳島県","prefecture_kana":"トクシマケン","city":"阿波市","city_kana":"アワシ","town":"阿波町北岡","town_kana":"アワチョウキタオカ","prefecture_code":36},{"zip_code":"7711706","prefecture":"徳島県","prefecture_kana":"トクシマケン","city":"阿波市","city_kana":"アワシ","town":"阿波町北西谷","town_kana":"アワチョウキタニシダニ","prefecture_code":36},{"zip_code":"7711706","prefecture":"徳島県","prefecture_kana":"トクシマケン","city":"阿波市","city_kana":"アワシ","town":"阿波町三本柳","town_kana":"アワチョウサンボンヤナギ","prefecture_code":36},{"zip_code":"7711706","prefecture":"徳島県","prefecture_kana":"トクシマケン","city":"阿波市","city_kana":"アワシ","town":"阿波町中川原","town_kana":"アワチョウナカガワハラ","prefecture_code":36},{"zip_code":"7711706","prefecture":"徳島県","prefecture_kana":"トクシマケン","city":"阿波市","city_kana":"アワシ","town":"阿波町中坪","town_kana":"アワチョウナカツボ","prefecture_code":36},{"zip_code":"7711706","prefecture":"徳島県","prefecture_kana":"トクシマケン","city":"阿波市","city_kana":"アワシ","town":"阿波町中長峰","town_kana":"アワチョウナカナガミネ","prefecture_code":36},{"zip_code":"7711706","prefecture":"徳島県","prefecture_kana":"トクシマケン","city":"阿波市","city_kana":"アワシ","town":"阿波町西島","town_kana":"アワチョウニシジマ","prefecture_code":36},{"zip_code":"7711706","prefecture":"徳島県","prefecture_kana":"トクシマケン","city":"阿波市","city_kana":"アワシ","town":"阿波町西整理","town_kana":"アワチョウニシセイリ","prefecture_code":36},{"zip_code":"7711706","prefecture":"徳島県","prefecture_kana":"トクシマケン","city":"阿波市","city_kana":"アワシ","town":"阿波町西長峰","town_kana":"アワチョウニシナガミネ","prefecture_code":36},{"zip_code":"7711706","prefecture":"徳島県","prefecture_kana":"トクシマケン","city":"阿波市","city_kana":"アワシ","town":"阿波町西林","town_kana":"アワチョウニシバヤシ","prefecture_code":36},{"zip_code":"7711706","prefecture":"徳島県","prefecture_kana":"トクシマケン","city":"阿波市","city_kana":"アワシ","town":"阿波町東川原","town_kana":"アワチョウヒガシカワハラ","prefecture_code":36},{"zip_code":"7711706","prefecture":"徳島県","prefecture_kana":"トクシマケン","city":"阿波市","city_kana":"アワシ","town":"阿波町東島","town_kana":"アワチョウヒガシジマ","prefecture_code":36},{"zip_code":"7711706","prefecture":"徳島県","prefecture_kana":"トクシマケン","city":"阿波市","city_kana":"アワシ","town":"阿波町東整理","town_kana":"アワチョウヒガシセイリ","prefecture_code":36},{"zip_code":"7711706","prefecture":"徳島県","prefecture_kana":"トクシマケン","city":"阿波市","city_kana":"アワシ","town":"阿波町東長峰","town_kana":"アワチョウヒガシナガミネ","prefecture_code":36},{"zip_code":"7711706","prefecture":"徳島県","prefecture_kana":"トクシマケン","city":"阿波市","city_kana":"アワシ","town":"阿波町東村","town_kana":"アワチョウヒガシムラ","prefecture_code":36},{"zip_code":"7711706","prefecture":"徳島県","prefecture_kana":"トクシマケン","city":"阿波市","city_kana":"アワシ","town":"阿波町南川原","town_kana":"アワチョウミナミカワハラ","prefecture_code":36},{"zip_code":"7711706","prefecture":"徳島県","prefecture_kana":"トクシマケン","city":"阿波市","city_kana":"アワシ","town":"阿波町南整理","town_kana":"アワチョウミナミセイリ","prefecture_code":36},{"zip_code":"7711706","prefecture":"徳島県","prefecture_kana":"トクシマケン","city":"阿波市","city_kana":"アワシ","town":"阿波町南西谷","town_kana":"アワチョウミナミニシダニ","prefecture_code":36}],"1602":{"zip_code":"7711602","prefecture":"徳島県","prefecture_kana":"トクシマケン","city":"阿波市","city_kana":"アワシ","town":"市場町市場（上野段）","town_kana":"イチバチョウイチバ(ウエノダン)","prefecture_code":36},"1603":{"zip_code":"7711603","prefecture":"徳島県","prefecture_kana":"トクシマケン","city":"阿波市","city_kana":"アワシ","town":"市場町市場（岸ノ下）","town_kana":"イチバチョウイチバ(キシノシタ)","prefecture_code":36},"1601":{"zip_code":"7711601","prefecture":"徳島県","prefecture_kana":"トクシマケン","city":"阿波市","city_kana":"アワシ","town":"市場町市場（興崎）","town_kana":"イチバチョウイチバ(コウザキ)","prefecture_code":36},"1604":{"zip_code":"7711604","prefecture":"徳島県","prefecture_kana":"トクシマケン","city":"阿波市","city_kana":"アワシ","town":"市場町市場（町筋）","town_kana":"イチバチョウイチバ(マチスジ)","prefecture_code":36},"1626":{"zip_code":"7711626","prefecture":"徳島県","prefecture_kana":"トクシマケン","city":"阿波市","city_kana":"アワシ","town":"市場町伊月","town_kana":"イチバチョウイツキ","prefecture_code":36},"1714":{"zip_code":"7711714","prefecture":"徳島県","prefecture_kana":"トクシマケン","city":"阿波市","city_kana":"アワシ","town":"市場町犬墓（小竹）","town_kana":"イチバチョウイヌノハカ(コタケ)","prefecture_code":36},"1614":{"zip_code":"7711614","prefecture":"徳島県","prefecture_kana":"トクシマケン","city":"阿波市","city_kana":"アワシ","town":"市場町犬墓（その他）","town_kana":"イチバチョウイヌノハカ(ソノタ)","prefecture_code":36},"1615":{"zip_code":"7711615","prefecture":"徳島県","prefecture_kana":"トクシマケン","city":"阿波市","city_kana":"アワシ","town":"市場町大影","town_kana":"イチバチョウオオカゲ","prefecture_code":36},"1627":{"zip_code":"7711627","prefecture":"徳島県","prefecture_kana":"トクシマケン","city":"阿波市","city_kana":"アワシ","town":"市場町大野島","town_kana":"イチバチョウオオノジマ","prefecture_code":36},"1613":{"zip_code":"7711613","prefecture":"徳島県","prefecture_kana":"トクシマケン","city":"阿波市","city_kana":"アワシ","town":"市場町大俣","town_kana":"イチバチョウオオマタ","prefecture_code":36},"1621":{"zip_code":"7711621","prefecture":"徳島県","prefecture_kana":"トクシマケン","city":"阿波市","city_kana":"アワシ","town":"市場町尾開","town_kana":"イチバチョウオバリ","prefecture_code":36},"1611":{"zip_code":"7711611","prefecture":"徳島県","prefecture_kana":"トクシマケン","city":"阿波市","city_kana":"アワシ","town":"市場町香美（北香美）","town_kana":"イチバチョウカガミ(キタカガミ)","prefecture_code":36},"1610":{"zip_code":"7711610","prefecture":"徳島県","prefecture_kana":"トクシマケン","city":"阿波市","city_kana":"アワシ","town":"市場町香美（その他）","town_kana":"イチバチョウカガミ(ソノタ)","prefecture_code":36},"1612":{"zip_code":"7711612","prefecture":"徳島県","prefecture_kana":"トクシマケン","city":"阿波市","city_kana":"アワシ","town":"市場町上喜来","town_kana":"イチバチョウカミギライ","prefecture_code":36},"1623":{"zip_code":"7711623","prefecture":"徳島県","prefecture_kana":"トクシマケン","city":"阿波市","city_kana":"アワシ","town":"市場町切幡","town_kana":"イチバチョウキリハタ","prefecture_code":36},"1622":{"zip_code":"7711622","prefecture":"徳島県","prefecture_kana":"トクシマケン","city":"阿波市","city_kana":"アワシ","town":"市場町興崎","town_kana":"イチバチョウコウザキ","prefecture_code":36},"1616":{"zip_code":"7711616","prefecture":"徳島県","prefecture_kana":"トクシマケン","city":"阿波市","city_kana":"アワシ","town":"市場町日開谷","town_kana":"イチバチョウヒガイダニ","prefecture_code":36},"1624":{"zip_code":"7711624","prefecture":"徳島県","prefecture_kana":"トクシマケン","city":"阿波市","city_kana":"アワシ","town":"市場町山野上","town_kana":"イチバチョウヤマノウエ","prefecture_code":36},"1625":{"zip_code":"7711625","prefecture":"徳島県","prefecture_kana":"トクシマケン","city":"阿波市","city_kana":"アワシ","town":"市場町八幡","town_kana":"イチバチョウヤワタ","prefecture_code":36},"1501":{"zip_code":"7711501","prefecture":"徳島県","prefecture_kana":"トクシマケン","city":"阿波市","city_kana":"アワシ","town":"土成町秋月","town_kana":"ドナリチョウアキヅキ","prefecture_code":36},"1503":{"zip_code":"7711503","prefecture":"徳島県","prefecture_kana":"トクシマケン","city":"阿波市","city_kana":"アワシ","town":"土成町浦池","town_kana":"ドナリチョウウラノイケ","prefecture_code":36},"1505":{"zip_code":"7711505","prefecture":"徳島県","prefecture_kana":"トクシマケン","city":"阿波市","city_kana":"アワシ","town":"土成町郡","town_kana":"ドナリチョウコオリ","prefecture_code":36},"1509":{"zip_code":"7711509","prefecture":"徳島県","prefecture_kana":"トクシマケン","city":"阿波市","city_kana":"アワシ","town":"土成町高尾","town_kana":"ドナリチョウタカオ","prefecture_code":36},"1506":{"zip_code":"7711506","prefecture":"徳島県","prefecture_kana":"トクシマケン","city":"阿波市","city_kana":"アワシ","town":"土成町土成","town_kana":"ドナリチョウドナリ","prefecture_code":36},"1504":{"zip_code":"7711504","prefecture":"徳島県","prefecture_kana":"トクシマケン","city":"阿波市","city_kana":"アワシ","town":"土成町成当","town_kana":"ドナリチョウナリトウ","prefecture_code":36},"1502":{"zip_code":"7711502","prefecture":"徳島県","prefecture_kana":"トクシマケン","city":"阿波市","city_kana":"アワシ","town":"土成町水田","town_kana":"ドナリチョウミズタ","prefecture_code":36},"1508":{"zip_code":"7711508","prefecture":"徳島県","prefecture_kana":"トクシマケン","city":"阿波市","city_kana":"アワシ","town":"土成町宮川内","town_kana":"ドナリチョウミヤガワウチ","prefecture_code":36},"1507":{"zip_code":"7711507","prefecture":"徳島県","prefecture_kana":"トクシマケン","city":"阿波市","city_kana":"アワシ","town":"土成町吉田","town_kana":"ドナリチョウヨシダ","prefecture_code":36},"1401":{"zip_code":"7711401","prefecture":"徳島県","prefecture_kana":"トクシマケン","city":"阿波市","city_kana":"アワシ","town":"吉野町柿原","town_kana":"ヨシノチョウカキハラ","prefecture_code":36},"1403":{"zip_code":"7711403","prefecture":"徳島県","prefecture_kana":"トクシマケン","city":"阿波市","city_kana":"アワシ","town":"吉野町五条","town_kana":"ヨシノチョウゴジョウ","prefecture_code":36},"1402":{"zip_code":"7711402","prefecture":"徳島県","prefecture_kana":"トクシマケン","city":"阿波市","city_kana":"アワシ","town":"吉野町西条","town_kana":"ヨシノチョウサイジョウ","prefecture_code":36},"2107":[{"zip_code":"7712107","prefecture":"徳島県","prefecture_kana":"トクシマケン","city":"美馬市","city_kana":"ミマシ","town":"美馬町（雨下、上野、小原、境目、里西屋敷、下ノ段、城、滝下、竹ノ内、田辺、","town_kana":"ミマチョウ(アマゲ、ウエノ、コバラ、サカイメ、サトニシヤシキ、シモノダン、シロ、タキシタ、タケノウチ、タナベ、","prefecture_code":36},{"zip_code":"7712107","prefecture":"徳島県","prefecture_kana":"トクシマケン","city":"美馬市","city_kana":"ミマシ","town":"谷口、栂尾、突落、中尾、中耕地、中筋、中通、中西、中山、長畑、夏蕨、","town_kana":"タニグチ、ツガオ、ツキオトシ、ナカオ、ナカゴウチ、ナカスジ、ナカドオリ、ナカニシ、ナカヤマ、ナガハタ、ナツワラビ、","prefecture_code":36},{"zip_code":"7712107","prefecture":"徳島県","prefecture_kana":"トクシマケン","city":"美馬市","city_kana":"ミマシ","town":"西宮ノ上、東宮ノ上、細野、前田、松ノ花、松ノ本、宮前、宮北、八幡、","town_kana":"ニシミヤノウエ、ヒガシミヤノウエ、ホソノ、マエダ、マツノハナ、マツノモト、ミヤマエ、ミヤキタ、ヤハタ、","prefecture_code":36},{"zip_code":"7712107","prefecture":"徳島県","prefecture_kana":"トクシマケン","city":"美馬市","city_kana":"ミマシ","town":"山夏蕨、吉水）","town_kana":"ヤマナツワラビ、ヨシミズ)","prefecture_code":36}],"2106":[{"zip_code":"7712106","prefecture":"徳島県","prefecture_kana":"トクシマケン","city":"美馬市","city_kana":"ミマシ","town":"美馬町（荒川、井出縁、井ノ神、大泉、大宮西、上突出、岸ノ下、北東原、","town_kana":"ミマチョウ(アラカワ、イデベリ、イノカミ、オオイズミ、オオミヤニシ、カミツキダシ、キシノシタ、キタヒガシバラ、","prefecture_code":36},{"zip_code":"7712106","prefecture":"徳島県","prefecture_kana":"トクシマケン","city":"美馬市","city_kana":"ミマシ","town":"喜来市、里平野、下突出、谷ヨリ西、乳ノ木、寺ノ下、天神、天神北、中東原、","town_kana":"キライイチ、サトヒラノ、シモツキダシ、タニヨリニシ、チチノキ、テラノシタ、テンジン、テンジンキタ、ナカヒガシバラ、","prefecture_code":36},{"zip_code":"7712106","prefecture":"徳島県","prefecture_kana":"トクシマケン","city":"美馬市","city_kana":"ミマシ","town":"西荒川、沼田島、東荒川、南荒川、南東原、妙見、山嫁坂）","town_kana":"ニシアラカワ、ヌマダジマ、ヒガシアラカワ、ミナミアラカワ、ミナミヒガシバラ、ミョウケン、ヤマヨメザカ)","prefecture_code":36}],"2102":[{"zip_code":"7712102","prefecture":"徳島県","prefecture_kana":"トクシマケン","city":"美馬市","city_kana":"ミマシ","town":"美馬町（家ノ前、大池、大上、大北、大佐古、大前、岡ノ内、押上、茅原、","town_kana":"ミマチョウ(イエノマエ、オオイケ、オオウエ、オオキタ、オオサコ、オオマエ、オカノウチ、オシアゲ、カヤバラ、","prefecture_code":36},{"zip_code":"7712102","prefecture":"徳島県","prefecture_kana":"トクシマケン","city":"美馬市","city_kana":"ミマシ","town":"川ノ上、観音、栗林、黒砂、狙ケ内、猿坂、下白地、白地、炭釜、芹佐古、惣後、","town_kana":"カワノウエ、カンノン、クリバヤシ、クロスナ、サルガウチ、サルサカ、シモシロジ、シロジ、スミガマ、セリザコ、ソウゴ、","prefecture_code":36},{"zip_code":"7712102","prefecture":"徳島県","prefecture_kana":"トクシマケン","city":"美馬市","city_kana":"ミマシ","town":"惣田、外墓、滝ノ上、立見山、田ノ岡、狙坂、中岡、中野田ノ井、中横尾、長地、","town_kana":"ソウダ、ソトバカ、タキノウエ、タツミヤマ、タノオカ、タンザカ、ナカオカ、ナカノタノイ、ナカヨコオ、ナガジ、","prefecture_code":36},{"zip_code":"7712102","prefecture":"徳島県","prefecture_kana":"トクシマケン","city":"美馬市","city_kana":"ミマシ","town":"西浦、西ノ谷、野田ノ井、橋谷、場シ所、東筋、平尾、平野、藤宇、前坂、","town_kana":"ニシウラ、ニシノタニ、ノタノイ、ハシダニ、バシトコ、ヒガシスジ、ヒラオ、ヒラノ、フジユウ、マエザカ、","prefecture_code":36},{"zip_code":"7712102","prefecture":"徳島県","prefecture_kana":"トクシマケン","city":"美馬市","city_kana":"ミマシ","town":"水ノ岡、味噌ケ久保、道ノ上、宮ノ岡、南畠、薬師ケ久保、山西屋敷、","town_kana":"ミズノオカ、ミソガクボ、ミチノウエ、ミヤノオカ、ムナバタ、ヤクシガクボ、ヤマニシヤシキ、","prefecture_code":36},{"zip_code":"7712102","prefecture":"徳島県","prefecture_kana":"トクシマケン","city":"美馬市","city_kana":"ミマシ","town":"山橋谷、横尾）","town_kana":"ヤマハシダニ、ヨコオ)","prefecture_code":36}],"2105":[{"zip_code":"7712105","prefecture":"徳島県","prefecture_kana":"トクシマケン","city":"美馬市","city_kana":"ミマシ","town":"美馬町（池ノ浦、銀杏木、梅ケ久保、駅、蛭子、柿木、鍵掛、願勝寺、","town_kana":"ミマチョウ(イケノウラ、イチョウギ、ウメガクボ、エキ、エビス、カキノキ、カンカケ、ガンショウジ、","prefecture_code":36},{"zip_code":"7712105","prefecture":"徳島県","prefecture_kana":"トクシマケン","city":"美馬市","city_kana":"ミマシ","town":"北土ケ久保、喜入道、滝宮、土ケ久保、西段、宮東、宮西、宮南、養泉）","town_kana":"キタツチガクボ、キニュウドウ、タキノミヤ、ツチガクボ、ニシダン、ミヤヒガシ、ミヤニシ、ミヤミナミ、ヨウセン)","prefecture_code":36}],"2103":[{"zip_code":"7712103","prefecture":"徳島県","prefecture_kana":"トクシマケン","city":"美馬市","city_kana":"ミマシ","town":"美馬町（一ノ宮、後谷、倉尾、三頭山、下後谷、高惣、谷尻、","town_kana":"ミマチョウ(イチノミヤ、ウシロダニ、クラオ、サントウザン、シモウシロダニ、タカソウ、タニジリ、","prefecture_code":36},{"zip_code":"7712103","prefecture":"徳島県","prefecture_kana":"トクシマケン","city":"美馬市","city_kana":"ミマシ","town":"露口、中沼田、中野、夏弥喜、ナロヲ、西大久保、西沼田、沼田、八ノ坪、","town_kana":"ツユグチ、ナカヌマダ、ナカノ、ナツヤキ、ナロオ、ニシオオクボ、ニシヌマダ、ヌマダ、ハチノツボ、","prefecture_code":36},{"zip_code":"7712103","prefecture":"徳島県","prefecture_kana":"トクシマケン","city":"美馬市","city_kana":"ミマシ","town":"坊ケ谷、水久保、宗ノ分、屋内）","town_kana":"ボウガタニ、ミズクボ、ムネノブン、ヤナイ)","prefecture_code":36}],"2101":{"zip_code":"7712101","prefecture":"徳島県","prefecture_kana":"トクシマケン","city":"美馬市","city_kana":"ミマシ","town":"美馬町（入倉、大久保、切久保、正部、丈寄、清田）","town_kana":"ミマチョウ(イリクラ、オオクボ、キリクボ、ショウブ、ジョウヨリ、セイダ)","prefecture_code":36},"2104":[{"zip_code":"7712104","prefecture":"徳島県","prefecture_kana":"トクシマケン","city":"美馬市","city_kana":"ミマシ","town":"美馬町（鵜飼口、岡、小長谷、小長谷端、笠仏、川縁、荒神、助松、高畑、辰角、","town_kana":"ミマチョウ(ウガイグチ、オカ、オバセ、オバセバタ、カサボトケ、カワベリ、コウジン、スケマツ、タカバタケ、タツカク、","prefecture_code":36},{"zip_code":"7712104","prefecture":"徳島県","prefecture_kana":"トクシマケン","city":"美馬市","city_kana":"ミマシ","town":"谷頭、玉振前、チゲジ、天神東、轟、中黒、中須、中道北、中道南、ノツゴ、","town_kana":"タニガシラ、タマフリマエ、チゲジ、テンジンヒガシ、トドロキ、ナカグロ、ナカス、ナカミチキタ、ナカミチミナミ、ノツゴ、","prefecture_code":36},{"zip_code":"7712104","prefecture":"徳島県","prefecture_kana":"トクシマケン","city":"美馬市","city_kana":"ミマシ","town":"ノリコヘ、橋本、東岸ノ下、東段、東宗重、坊僧、丸山、南原、明神原、","town_kana":"ノリコヘ、ハシノモト、ヒガシキシノシタ、ヒガシダン、ヒガシムネシゲ、ボウソウ、マルヤマ、ミナミハラ、ミョウジンバラ、","prefecture_code":36},{"zip_code":"7712104","prefecture":"徳島県","prefecture_kana":"トクシマケン","city":"美馬市","city_kana":"ミマシ","town":"宗重、薬師）","town_kana":"ムネシゲ、ヤクシ)","prefecture_code":36}],"2302":{"zip_code":"7712302","prefecture":"徳島県","prefecture_kana":"トクシマケン","city":"三好市","city_kana":"ミヨシシ","town":"三野町加茂野宮","town_kana":"ミノチョウカモノミヤ","prefecture_code":36},"2304":{"zip_code":"7712304","prefecture":"徳島県","prefecture_kana":"トクシマケン","city":"三好市","city_kana":"ミヨシシ","town":"三野町芝生","town_kana":"ミノチョウシボウ","prefecture_code":36},"2301":{"zip_code":"7712301","prefecture":"徳島県","prefecture_kana":"トクシマケン","city":"三好市","city_kana":"ミヨシシ","town":"三野町清水","town_kana":"ミノチョウシミズ","prefecture_code":36},"2303":{"zip_code":"7712303","prefecture":"徳島県","prefecture_kana":"トクシマケン","city":"三好市","city_kana":"ミヨシシ","town":"三野町勢力","town_kana":"ミノチョウセイリキ","prefecture_code":36},"2305":{"zip_code":"7712305","prefecture":"徳島県","prefecture_kana":"トクシマケン","city":"三好市","city_kana":"ミヨシシ","town":"三野町太刀野","town_kana":"ミノチョウタチノ","prefecture_code":36},"2306":{"zip_code":"7712306","prefecture":"徳島県","prefecture_kana":"トクシマケン","city":"三好市","city_kana":"ミヨシシ","town":"三野町太刀野山","town_kana":"ミノチョウタチノヤマ","prefecture_code":36},"4300":{"zip_code":"7714300","prefecture":"徳島県","prefecture_kana":"トクシマケン","city":"勝浦郡勝浦町","city_kana":"カツウラグンカツウラチョウ","town":"以下に掲載がない場合","town_kana":"イカニケイサイガナイバアイ","prefecture_code":36},"4303":{"zip_code":"7714303","prefecture":"徳島県","prefecture_kana":"トクシマケン","city":"勝浦郡勝浦町","city_kana":"カツウラグンカツウラチョウ","town":"生名","town_kana":"イクナ","prefecture_code":36},"4308":{"zip_code":"7714308","prefecture":"徳島県","prefecture_kana":"トクシマケン","city":"勝浦郡勝浦町","city_kana":"カツウラグンカツウラチョウ","town":"坂本","town_kana":"サカモト","prefecture_code":36},"4306":{"zip_code":"7714306","prefecture":"徳島県","prefecture_kana":"トクシマケン","city":"勝浦郡勝浦町","city_kana":"カツウラグンカツウラチョウ","town":"棚野","town_kana":"タナノ","prefecture_code":36},"4302":{"zip_code":"7714302","prefecture":"徳島県","prefecture_kana":"トクシマケン","city":"勝浦郡勝浦町","city_kana":"カツウラグンカツウラチョウ","town":"中角","town_kana":"ナカツノ","prefecture_code":36},"4301":{"zip_code":"7714301","prefecture":"徳島県","prefecture_kana":"トクシマケン","city":"勝浦郡勝浦町","city_kana":"カツウラグンカツウラチョウ","town":"沼江","town_kana":"ヌエ","prefecture_code":36},"4305":{"zip_code":"7714305","prefecture":"徳島県","prefecture_kana":"トクシマケン","city":"勝浦郡勝浦町","city_kana":"カツウラグンカツウラチョウ","town":"久国","town_kana":"ヒサクニ","prefecture_code":36},"4304":{"zip_code":"7714304","prefecture":"徳島県","prefecture_kana":"トクシマケン","city":"勝浦郡勝浦町","city_kana":"カツウラグンカツウラチョウ","town":"星谷","town_kana":"ホシタニ","prefecture_code":36},"4307":{"zip_code":"7714307","prefecture":"徳島県","prefecture_kana":"トクシマケン","city":"勝浦郡勝浦町","city_kana":"カツウラグンカツウラチョウ","town":"三渓","town_kana":"ミタニ","prefecture_code":36},"4500":{"zip_code":"7714500","prefecture":"徳島県","prefecture_kana":"トクシマケン","city":"勝浦郡上勝町","city_kana":"カツウラグンカミカツチョウ","town":"以下に掲載がない場合","town_kana":"イカニケイサイガナイバアイ","prefecture_code":36},"4502":{"zip_code":"7714502","prefecture":"徳島県","prefecture_kana":"トクシマケン","city":"勝浦郡上勝町","city_kana":"カツウラグンカミカツチョウ","town":"旭","town_kana":"アサヒ","prefecture_code":36},"4503":{"zip_code":"7714503","prefecture":"徳島県","prefecture_kana":"トクシマケン","city":"勝浦郡上勝町","city_kana":"カツウラグンカミカツチョウ","town":"生実","town_kana":"イクミ","prefecture_code":36},"4501":{"zip_code":"7714501","prefecture":"徳島県","prefecture_kana":"トクシマケン","city":"勝浦郡上勝町","city_kana":"カツウラグンカミカツチョウ","town":"福原","town_kana":"フクハラ","prefecture_code":36},"4504":{"zip_code":"7714504","prefecture":"徳島県","prefecture_kana":"トクシマケン","city":"勝浦郡上勝町","city_kana":"カツウラグンカミカツチョウ","town":"傍示","town_kana":"ホウジ","prefecture_code":36},"4505":{"zip_code":"7714505","prefecture":"徳島県","prefecture_kana":"トクシマケン","city":"勝浦郡上勝町","city_kana":"カツウラグンカミカツチョウ","town":"正木","town_kana":"マサキ","prefecture_code":36},"4100":{"zip_code":"7714100","prefecture":"徳島県","prefecture_kana":"トクシマケン","city":"名東郡佐那河内村","city_kana":"ミョウドウグンサナゴウチソン","town":"以下に掲載がない場合","town_kana":"イカニケイサイガナイバアイ","prefecture_code":36},"4102":{"zip_code":"7714102","prefecture":"徳島県","prefecture_kana":"トクシマケン","city":"名東郡佐那河内村","city_kana":"ミョウドウグンサナゴウチソン","town":"上","town_kana":"カミ","prefecture_code":36},"4101":{"zip_code":"7714101","prefecture":"徳島県","prefecture_kana":"トクシマケン","city":"名東郡佐那河内村","city_kana":"ミョウドウグンサナゴウチソン","town":"下","town_kana":"シモ","prefecture_code":36},"3200":{"zip_code":"7713200","prefecture":"徳島県","prefecture_kana":"トクシマケン","city":"名西郡神山町","city_kana":"ミョウザイグンカミヤマチョウ","town":"以下に掲載がない場合","town_kana":"イカニケイサイガナイバアイ","prefecture_code":36},"3202":[{"zip_code":"7713202","prefecture":"徳島県","prefecture_kana":"トクシマケン","city":"名西郡神山町","city_kana":"ミョウザイグンカミヤマチョウ","town":"阿野（石堂）","town_kana":"アノ(イシドウ)","prefecture_code":36},{"zip_code":"7713202","prefecture":"徳島県","prefecture_kana":"トクシマケン","city":"名西郡神山町","city_kana":"ミョウザイグンカミヤマチョウ","town":"阿野（井ノ谷）","town_kana":"アノ(イノタニ)","prefecture_code":36},{"zip_code":"7713202","prefecture":"徳島県","prefecture_kana":"トクシマケン","city":"名西郡神山町","city_kana":"ミョウザイグンカミヤマチョウ","town":"阿野（宇度木）","town_kana":"アノ(ウトギ)","prefecture_code":36},{"zip_code":"7713202","prefecture":"徳島県","prefecture_kana":"トクシマケン","city":"名西郡神山町","city_kana":"ミョウザイグンカミヤマチョウ","town":"阿野（上河内）","town_kana":"アノ(カミゴウチ)","prefecture_code":36},{"zip_code":"7713202","prefecture":"徳島県","prefecture_kana":"トクシマケン","city":"名西郡神山町","city_kana":"ミョウザイグンカミヤマチョウ","town":"阿野（川平）","town_kana":"アノ(カワヒラ)","prefecture_code":36},{"zip_code":"7713202","prefecture":"徳島県","prefecture_kana":"トクシマケン","city":"名西郡神山町","city_kana":"ミョウザイグンカミヤマチョウ","town":"阿野（黒木）","town_kana":"アノ(クロギ)","prefecture_code":36},{"zip_code":"7713202","prefecture":"徳島県","prefecture_kana":"トクシマケン","city":"名西郡神山町","city_kana":"ミョウザイグンカミヤマチョウ","town":"阿野（駒坂）","town_kana":"アノ(コマサカ)","prefecture_code":36},{"zip_code":"7713202","prefecture":"徳島県","prefecture_kana":"トクシマケン","city":"名西郡神山町","city_kana":"ミョウザイグンカミヤマチョウ","town":"阿野（地ノ平）","town_kana":"アノ(ジノタイラ)","prefecture_code":36},{"zip_code":"7713202","prefecture":"徳島県","prefecture_kana":"トクシマケン","city":"名西郡神山町","city_kana":"ミョウザイグンカミヤマチョウ","town":"阿野（神木）","town_kana":"アノ(ジンギ)","prefecture_code":36},{"zip_code":"7713202","prefecture":"徳島県","prefecture_kana":"トクシマケン","city":"名西郡神山町","city_kana":"ミョウザイグンカミヤマチョウ","town":"阿野（須賀）","town_kana":"アノ(スガ)","prefecture_code":36},{"zip_code":"7713202","prefecture":"徳島県","prefecture_kana":"トクシマケン","city":"名西郡神山町","city_kana":"ミョウザイグンカミヤマチョウ","town":"阿野（長瀬）","town_kana":"アノ(ナガセ)","prefecture_code":36},{"zip_code":"7713202","prefecture":"徳島県","prefecture_kana":"トクシマケン","city":"名西郡神山町","city_kana":"ミョウザイグンカミヤマチョウ","town":"阿野（長代）","town_kana":"アノ(ナガタイ)","prefecture_code":36},{"zip_code":"7713202","prefecture":"徳島県","prefecture_kana":"トクシマケン","city":"名西郡神山町","city_kana":"ミョウザイグンカミヤマチョウ","town":"阿野（二ノ宮）","town_kana":"アノ(ニノミヤ)","prefecture_code":36},{"zip_code":"7713202","prefecture":"徳島県","prefecture_kana":"トクシマケン","city":"名西郡神山町","city_kana":"ミョウザイグンカミヤマチョウ","town":"阿野（日浦）","town_kana":"アノ(ヒウラ)","prefecture_code":36},{"zip_code":"7713202","prefecture":"徳島県","prefecture_kana":"トクシマケン","city":"名西郡神山町","city_kana":"ミョウザイグンカミヤマチョウ","town":"阿野（東代次）","town_kana":"アノ(ヒガシヨツギ)","prefecture_code":36},{"zip_code":"7713202","prefecture":"徳島県","prefecture_kana":"トクシマケン","city":"名西郡神山町","city_kana":"ミョウザイグンカミヤマチョウ","town":"阿野（広石）","town_kana":"アノ(ヒロイシ)","prefecture_code":36},{"zip_code":"7713202","prefecture":"徳島県","prefecture_kana":"トクシマケン","city":"名西郡神山町","city_kana":"ミョウザイグンカミヤマチョウ","town":"阿野（福原）","town_kana":"アノ(フクハラ)","prefecture_code":36},{"zip_code":"7713202","prefecture":"徳島県","prefecture_kana":"トクシマケン","city":"名西郡神山町","city_kana":"ミョウザイグンカミヤマチョウ","town":"阿野（府中）","town_kana":"アノ(フチュウ)","prefecture_code":36},{"zip_code":"7713202","prefecture":"徳島県","prefecture_kana":"トクシマケン","city":"名西郡神山町","city_kana":"ミョウザイグンカミヤマチョウ","town":"阿野（船底）","town_kana":"アノ(フナゾコ)","prefecture_code":36},{"zip_code":"7713202","prefecture":"徳島県","prefecture_kana":"トクシマケン","city":"名西郡神山町","city_kana":"ミョウザイグンカミヤマチョウ","town":"阿野（本名）","town_kana":"アノ(ホンミョウ)","prefecture_code":36},{"zip_code":"7713202","prefecture":"徳島県","prefecture_kana":"トクシマケン","city":"名西郡神山町","city_kana":"ミョウザイグンカミヤマチョウ","town":"阿野（松尾）","town_kana":"アノ(マツオ)","prefecture_code":36},{"zip_code":"7713202","prefecture":"徳島県","prefecture_kana":"トクシマケン","city":"名西郡神山町","city_kana":"ミョウザイグンカミヤマチョウ","town":"阿野（宮分）","town_kana":"アノ(ミヤブン)","prefecture_code":36},{"zip_code":"7713202","prefecture":"徳島県","prefecture_kana":"トクシマケン","city":"名西郡神山町","city_kana":"ミョウザイグンカミヤマチョウ","town":"阿野（屋那瀬）","town_kana":"アノ(ヤナゼ)","prefecture_code":36},{"zip_code":"7713202","prefecture":"徳島県","prefecture_kana":"トクシマケン","city":"名西郡神山町","city_kana":"ミョウザイグンカミヤマチョウ","town":"阿野（代次）","town_kana":"アノ(ヨツギ)","prefecture_code":36}],"3201":{"zip_code":"7713201","prefecture":"徳島県","prefecture_kana":"トクシマケン","city":"名西郡神山町","city_kana":"ミョウザイグンカミヤマチョウ","town":"阿野（その他）","town_kana":"アノ(ソノタ)","prefecture_code":36},"3203":{"zip_code":"7713203","prefecture":"徳島県","prefecture_kana":"トクシマケン","city":"名西郡神山町","city_kana":"ミョウザイグンカミヤマチョウ","town":"鬼籠野","town_kana":"オロノ","prefecture_code":36},"3422":{"zip_code":"7713422","prefecture":"徳島県","prefecture_kana":"トクシマケン","city":"名西郡神山町","city_kana":"ミョウザイグンカミヤマチョウ","town":"上分","town_kana":"カミブン","prefecture_code":36},"3421":{"zip_code":"7713421","prefecture":"徳島県","prefecture_kana":"トクシマケン","city":"名西郡神山町","city_kana":"ミョウザイグンカミヤマチョウ","town":"下分","town_kana":"シモブン","prefecture_code":36},"3311":[{"zip_code":"7713311","prefecture":"徳島県","prefecture_kana":"トクシマケン","city":"名西郡神山町","city_kana":"ミョウザイグンカミヤマチョウ","town":"神領（石堂）","town_kana":"ジンリョウ(イシドウ)","prefecture_code":36},{"zip_code":"7713311","prefecture":"徳島県","prefecture_kana":"トクシマケン","city":"名西郡神山町","city_kana":"ミョウザイグンカミヤマチョウ","town":"神領（川北）","town_kana":"ジンリョウ(カワキタ)","prefecture_code":36},{"zip_code":"7713311","prefecture":"徳島県","prefecture_kana":"トクシマケン","city":"名西郡神山町","city_kana":"ミョウザイグンカミヤマチョウ","town":"神領（北）","town_kana":"ジンリョウ(キタ)","prefecture_code":36},{"zip_code":"7713311","prefecture":"徳島県","prefecture_kana":"トクシマケン","city":"名西郡神山町","city_kana":"ミョウザイグンカミヤマチョウ","town":"神領（谷）","town_kana":"ジンリョウ(タニ)","prefecture_code":36},{"zip_code":"7713311","prefecture":"徳島県","prefecture_kana":"トクシマケン","city":"名西郡神山町","city_kana":"ミョウザイグンカミヤマチョウ","town":"神領（東野間）","town_kana":"ジンリョウ(ヒガシノマ)","prefecture_code":36},{"zip_code":"7713311","prefecture":"徳島県","prefecture_kana":"トクシマケン","city":"名西郡神山町","city_kana":"ミョウザイグンカミヤマチョウ","town":"神領（西野間）","town_kana":"ジンリョウ(ニシノマ)","prefecture_code":36},{"zip_code":"7713311","prefecture":"徳島県","prefecture_kana":"トクシマケン","city":"名西郡神山町","city_kana":"ミョウザイグンカミヤマチョウ","town":"神領（本野間）","town_kana":"ジンリョウ(ホンノマ)","prefecture_code":36}],"3310":{"zip_code":"7713310","prefecture":"徳島県","prefecture_kana":"トクシマケン","city":"名西郡神山町","city_kana":"ミョウザイグンカミヤマチョウ","town":"神領（その他）","town_kana":"ジンリョウ(ソノタ)","prefecture_code":36},"5200":{"zip_code":"7715200","prefecture":"徳島県","prefecture_kana":"トクシマケン","city":"那賀郡那賀町","city_kana":"ナカグンナカチョウ","town":"以下に掲載がない場合","town_kana":"イカニケイサイガナイバアイ","prefecture_code":36},"5207":{"zip_code":"7715207","prefecture":"徳島県","prefecture_kana":"トクシマケン","city":"那賀郡那賀町","city_kana":"ナカグンナカチョウ","town":"阿井","town_kana":"アイ","prefecture_code":36},"5403":{"zip_code":"7715403","prefecture":"徳島県","prefecture_kana":"トクシマケン","city":"那賀郡那賀町","city_kana":"ナカグンナカチョウ","town":"鮎川","town_kana":"アイカワ","prefecture_code":36},"5323":{"zip_code":"7715323","prefecture":"徳島県","prefecture_kana":"トクシマケン","city":"那賀郡那賀町","city_kana":"ナカグンナカチョウ","town":"相名","town_kana":"アイナ","prefecture_code":36},"5401":{"zip_code":"7715401","prefecture":"徳島県","prefecture_kana":"トクシマケン","city":"那賀郡那賀町","city_kana":"ナカグンナカチョウ","town":"朝生","town_kana":"アソウ","prefecture_code":36},"6101":{"zip_code":"7716101","prefecture":"徳島県","prefecture_kana":"トクシマケン","city":"那賀郡那賀町","city_kana":"ナカグンナカチョウ","town":"阿津江","town_kana":"アヅエ","prefecture_code":36},"6103":{"zip_code":"7716103","prefecture":"徳島県","prefecture_kana":"トクシマケン","city":"那賀郡那賀町","city_kana":"ナカグンナカチョウ","town":"出羽","town_kana":"イズリハ","prefecture_code":36},"5324":{"zip_code":"7715324","prefecture":"徳島県","prefecture_kana":"トクシマケン","city":"那賀郡那賀町","city_kana":"ナカグンナカチョウ","town":"井ノ谷","town_kana":"イノタニ","prefecture_code":36},"5405":{"zip_code":"7715405","prefecture":"徳島県","prefecture_kana":"トクシマケン","city":"那賀郡那賀町","city_kana":"ナカグンナカチョウ","town":"入野","town_kana":"イリノ","prefecture_code":36},"6118":{"zip_code":"7716118","prefecture":"徳島県","prefecture_kana":"トクシマケン","city":"那賀郡那賀町","city_kana":"ナカグンナカチョウ","town":"岩倉","town_kana":"イワクラ","prefecture_code":36},"5328":{"zip_code":"7715328","prefecture":"徳島県","prefecture_kana":"トクシマケン","city":"那賀郡那賀町","city_kana":"ナカグンナカチョウ","town":"請ノ谷","town_kana":"ウケノタニ","prefecture_code":36},"5404":{"zip_code":"7715404","prefecture":"徳島県","prefecture_kana":"トクシマケン","city":"那賀郡那賀町","city_kana":"ナカグンナカチョウ","town":"牛輪","town_kana":"ウシワ","prefecture_code":36},"5504":{"zip_code":"7715504","prefecture":"徳島県","prefecture_kana":"トクシマケン","city":"那賀郡那賀町","city_kana":"ナカグンナカチョウ","town":"臼ケ谷","town_kana":"ウスガタニ","prefecture_code":36},"5326":{"zip_code":"7715326","prefecture":"徳島県","prefecture_kana":"トクシマケン","city":"那賀郡那賀町","city_kana":"ナカグンナカチョウ","town":"内山","town_kana":"ウチヤマ","prefecture_code":36},"5321":{"zip_code":"7715321","prefecture":"徳島県","prefecture_kana":"トクシマケン","city":"那賀郡那賀町","city_kana":"ナカグンナカチョウ","town":"馬路","town_kana":"ウマジ","prefecture_code":36},"5320":{"zip_code":"7715320","prefecture":"徳島県","prefecture_kana":"トクシマケン","city":"那賀郡那賀町","city_kana":"ナカグンナカチョウ","town":"榎谷","town_kana":"エノキダニ","prefecture_code":36},"5410":{"zip_code":"7715410","prefecture":"徳島県","prefecture_kana":"トクシマケン","city":"那賀郡那賀町","city_kana":"ナカグンナカチョウ","town":"大久保","town_kana":"オオクボ","prefecture_code":36},"5516":{"zip_code":"7715516","prefecture":"徳島県","prefecture_kana":"トクシマケン","city":"那賀郡那賀町","city_kana":"ナカグンナカチョウ","town":"大戸","town_kana":"オオト","prefecture_code":36},"6322":{"zip_code":"7716322","prefecture":"徳島県","prefecture_kana":"トクシマケン","city":"那賀郡那賀町","city_kana":"ナカグンナカチョウ","town":"大殿","town_kana":"オオトノ","prefecture_code":36},"6115":{"zip_code":"7716115","prefecture":"徳島県","prefecture_kana":"トクシマケン","city":"那賀郡那賀町","city_kana":"ナカグンナカチョウ","town":"小畠","town_kana":"オバタケ","prefecture_code":36},"5501":{"zip_code":"7715501","prefecture":"徳島県","prefecture_kana":"トクシマケン","city":"那賀郡那賀町","city_kana":"ナカグンナカチョウ","town":"音谷","town_kana":"オンダニ","prefecture_code":36},"5407":{"zip_code":"7715407","prefecture":"徳島県","prefecture_kana":"トクシマケン","city":"那賀郡那賀町","city_kana":"ナカグンナカチョウ","town":"雄","town_kana":"オンドリ","prefecture_code":36},"6328":{"zip_code":"7716328","prefecture":"徳島県","prefecture_kana":"トクシマケン","city":"那賀郡那賀町","city_kana":"ナカグンナカチョウ","town":"海川","town_kana":"カイカワ","prefecture_code":36},"5413":{"zip_code":"7715413","prefecture":"徳島県","prefecture_kana":"トクシマケン","city":"那賀郡那賀町","city_kana":"ナカグンナカチョウ","town":"蔭谷","town_kana":"カゲダニ","prefecture_code":36},"6107":{"zip_code":"7716107","prefecture":"徳島県","prefecture_kana":"トクシマケン","city":"那賀郡那賀町","city_kana":"ナカグンナカチョウ","town":"掛盤","town_kana":"カケバン","prefecture_code":36},"6117":{"zip_code":"7716117","prefecture":"徳島県","prefecture_kana":"トクシマケン","city":"那賀郡那賀町","city_kana":"ナカグンナカチョウ","town":"川成","town_kana":"カワナリ","prefecture_code":36},"5515":{"zip_code":"7715515","prefecture":"徳島県","prefecture_kana":"トクシマケン","city":"那賀郡那賀町","city_kana":"ナカグンナカチョウ","town":"川俣","town_kana":"カワマタ","prefecture_code":36},"6105":{"zip_code":"7716105","prefecture":"徳島県","prefecture_kana":"トクシマケン","city":"那賀郡那賀町","city_kana":"ナカグンナカチョウ","town":"木頭","town_kana":"キトウ","prefecture_code":36},"6402":{"zip_code":"7716402","prefecture":"徳島県","prefecture_kana":"トクシマケン","city":"那賀郡那賀町","city_kana":"ナカグンナカチョウ","town":"木頭出原","town_kana":"キトウイズハラ","prefecture_code":36},"6511":{"zip_code":"7716511","prefecture":"徳島県","prefecture_kana":"トクシマケン","city":"那賀郡那賀町","city_kana":"ナカグンナカチョウ","town":"木頭折宇","town_kana":"キトウオリウ","prefecture_code":36},"6512":{"zip_code":"7716512","prefecture":"徳島県","prefecture_kana":"トクシマケン","city":"那賀郡那賀町","city_kana":"ナカグンナカチョウ","town":"木頭北川","town_kana":"キトウキタガワ","prefecture_code":36},"6401":{"zip_code":"7716401","prefecture":"徳島県","prefecture_kana":"トクシマケン","city":"那賀郡那賀町","city_kana":"ナカグンナカチョウ","town":"木頭助","town_kana":"キトウスケ","prefecture_code":36},"6405":{"zip_code":"7716405","prefecture":"徳島県","prefecture_kana":"トクシマケン","city":"那賀郡那賀町","city_kana":"ナカグンナカチョウ","town":"木頭西宇","town_kana":"キトウニシウ","prefecture_code":36},"6404":{"zip_code":"7716404","prefecture":"徳島県","prefecture_kana":"トクシマケン","city":"那賀郡那賀町","city_kana":"ナカグンナカチョウ","town":"木頭南宇","town_kana":"キトウミナミウ","prefecture_code":36},"6403":{"zip_code":"7716403","prefecture":"徳島県","prefecture_kana":"トクシマケン","city":"那賀郡那賀町","city_kana":"ナカグンナカチョウ","town":"木頭和無田","town_kana":"キトウワムダ","prefecture_code":36},"6102":{"zip_code":"7716102","prefecture":"徳島県","prefecture_kana":"トクシマケン","city":"那賀郡那賀町","city_kana":"ナカグンナカチョウ","town":"木頭名","town_kana":"キトウミョウ","prefecture_code":36},"6111":{"zip_code":"7716111","prefecture":"徳島県","prefecture_kana":"トクシマケン","city":"那賀郡那賀町","city_kana":"ナカグンナカチョウ","town":"小泉","town_kana":"コイズミ","prefecture_code":36},"6324":{"zip_code":"7716324","prefecture":"徳島県","prefecture_kana":"トクシマケン","city":"那賀郡那賀町","city_kana":"ナカグンナカチョウ","town":"御所谷","town_kana":"ゴショダニ","prefecture_code":36},"5209":{"zip_code":"7715209","prefecture":"徳島県","prefecture_kana":"トクシマケン","city":"那賀郡那賀町","city_kana":"ナカグンナカチョウ","town":"小仁宇","town_kana":"コニウ","prefecture_code":36},"5512":{"zip_code":"7715512","prefecture":"徳島県","prefecture_kana":"トクシマケン","city":"那賀郡那賀町","city_kana":"ナカグンナカチョウ","town":"小計","town_kana":"コバカリ","prefecture_code":36},"5503":{"zip_code":"7715503","prefecture":"徳島県","prefecture_kana":"トクシマケン","city":"那賀郡那賀町","city_kana":"ナカグンナカチョウ","town":"小浜","town_kana":"コハマ","prefecture_code":36},"6106":{"zip_code":"7716106","prefecture":"徳島県","prefecture_kana":"トクシマケン","city":"那賀郡那賀町","city_kana":"ナカグンナカチョウ","town":"坂州","town_kana":"サカシュウ","prefecture_code":36},"5502":{"zip_code":"7715502","prefecture":"徳島県","prefecture_kana":"トクシマケン","city":"那賀郡那賀町","city_kana":"ナカグンナカチョウ","town":"桜谷","town_kana":"サクラダニ","prefecture_code":36},"6114":{"zip_code":"7716114","prefecture":"徳島県","prefecture_kana":"トクシマケン","city":"那賀郡那賀町","city_kana":"ナカグンナカチョウ","town":"沢谷","town_kana":"サワダニ","prefecture_code":36},"6325":{"zip_code":"7716325","prefecture":"徳島県","prefecture_kana":"トクシマケン","city":"那賀郡那賀町","city_kana":"ナカグンナカチョウ","town":"丈ケ谷","town_kana":"ジョウガタニ","prefecture_code":36},"5507":{"zip_code":"7715507","prefecture":"徳島県","prefecture_kana":"トクシマケン","city":"那賀郡那賀町","city_kana":"ナカグンナカチョウ","town":"菖蒲","town_kana":"ショウブ","prefecture_code":36},"6323":{"zip_code":"7716323","prefecture":"徳島県","prefecture_kana":"トクシマケン","city":"那賀郡那賀町","city_kana":"ナカグンナカチョウ","town":"白石","town_kana":"シライシ","prefecture_code":36},"6112":{"zip_code":"7716112","prefecture":"徳島県","prefecture_kana":"トクシマケン","city":"那賀郡那賀町","city_kana":"ナカグンナカチョウ","town":"高野","town_kana":"タカノ","prefecture_code":36},"5329":{"zip_code":"7715329","prefecture":"徳島県","prefecture_kana":"トクシマケン","city":"那賀郡那賀町","city_kana":"ナカグンナカチョウ","town":"竹ケ谷","town_kana":"タケガタニ","prefecture_code":36},"5322":{"zip_code":"7715322","prefecture":"徳島県","prefecture_kana":"トクシマケン","city":"那賀郡那賀町","city_kana":"ナカグンナカチョウ","town":"谷内","town_kana":"タニウチ","prefecture_code":36},"6113":{"zip_code":"7716113","prefecture":"徳島県","prefecture_kana":"トクシマケン","city":"那賀郡那賀町","city_kana":"ナカグンナカチョウ","town":"寺内","town_kana":"テラウチ","prefecture_code":36},"6104":{"zip_code":"7716104","prefecture":"徳島県","prefecture_kana":"トクシマケン","city":"那賀郡那賀町","city_kana":"ナカグンナカチョウ","town":"当山","town_kana":"トウヤマ","prefecture_code":36},"5202":{"zip_code":"7715202","prefecture":"徳島県","prefecture_kana":"トクシマケン","city":"那賀郡那賀町","city_kana":"ナカグンナカチョウ","town":"土佐","town_kana":"トサ","prefecture_code":36},"5505":{"zip_code":"7715505","prefecture":"徳島県","prefecture_kana":"トクシマケン","city":"那賀郡那賀町","city_kana":"ナカグンナカチョウ","town":"長安","town_kana":"ナガヤス","prefecture_code":36},"5204":{"zip_code":"7715204","prefecture":"徳島県","prefecture_kana":"トクシマケン","city":"那賀郡那賀町","city_kana":"ナカグンナカチョウ","town":"中山","town_kana":"ナカヤマ","prefecture_code":36},"6327":{"zip_code":"7716327","prefecture":"徳島県","prefecture_kana":"トクシマケン","city":"那賀郡那賀町","city_kana":"ナカグンナカチョウ","town":"成瀬","town_kana":"ナルセ","prefecture_code":36},"5208":{"zip_code":"7715208","prefecture":"徳島県","prefecture_kana":"トクシマケン","city":"那賀郡那賀町","city_kana":"ナカグンナカチョウ","town":"仁宇","town_kana":"ニウ","prefecture_code":36},"5327":{"zip_code":"7715327","prefecture":"徳島県","prefecture_kana":"トクシマケン","city":"那賀郡那賀町","city_kana":"ナカグンナカチョウ","town":"西納","town_kana":"ニシノ","prefecture_code":36},"5406":{"zip_code":"7715406","prefecture":"徳島県","prefecture_kana":"トクシマケン","city":"那賀郡那賀町","city_kana":"ナカグンナカチョウ","town":"延野","town_kana":"ノブノ","prefecture_code":36},"5518":{"zip_code":"7715518","prefecture":"徳島県","prefecture_kana":"トクシマケン","city":"那賀郡那賀町","city_kana":"ナカグンナカチョウ","town":"拝宮","town_kana":"ハイギュウ","prefecture_code":36},"5409":{"zip_code":"7715409","prefecture":"徳島県","prefecture_kana":"トクシマケン","city":"那賀郡那賀町","city_kana":"ナカグンナカチョウ","town":"鉢","town_kana":"ハチ","prefecture_code":36},"5532":{"zip_code":"7715532","prefecture":"徳島県","prefecture_kana":"トクシマケン","city":"那賀郡那賀町","city_kana":"ナカグンナカチョウ","town":"花瀬","town_kana":"ハナゼ","prefecture_code":36},"5531":{"zip_code":"7715531","prefecture":"徳島県","prefecture_kana":"トクシマケン","city":"那賀郡那賀町","city_kana":"ナカグンナカチョウ","town":"日浦","town_kana":"ヒウラ","prefecture_code":36},"5508":{"zip_code":"7715508","prefecture":"徳島県","prefecture_kana":"トクシマケン","city":"那賀郡那賀町","city_kana":"ナカグンナカチョウ","town":"東尾","town_kana":"ヒガシオ","prefecture_code":36},"5506":{"zip_code":"7715506","prefecture":"徳島県","prefecture_kana":"トクシマケン","city":"那賀郡那賀町","city_kana":"ナカグンナカチョウ","town":"桧曽根","town_kana":"ヒソネ","prefecture_code":36},"5517":{"zip_code":"7715517","prefecture":"徳島県","prefecture_kana":"トクシマケン","city":"那賀郡那賀町","city_kana":"ナカグンナカチョウ","town":"日真","town_kana":"ヒマ","prefecture_code":36},"6321":{"zip_code":"7716321","prefecture":"徳島県","prefecture_kana":"トクシマケン","city":"那賀郡那賀町","city_kana":"ナカグンナカチョウ","town":"平谷","town_kana":"ヒラダニ","prefecture_code":36},"5325":{"zip_code":"7715325","prefecture":"徳島県","prefecture_kana":"トクシマケン","city":"那賀郡那賀町","city_kana":"ナカグンナカチョウ","town":"平野","town_kana":"ヒラノ","prefecture_code":36},"5514":{"zip_code":"7715514","prefecture":"徳島県","prefecture_kana":"トクシマケン","city":"那賀郡那賀町","city_kana":"ナカグンナカチョウ","town":"深森","town_kana":"フカモリ","prefecture_code":36},"6326":{"zip_code":"7716326","prefecture":"徳島県","prefecture_kana":"トクシマケン","city":"那賀郡那賀町","city_kana":"ナカグンナカチョウ","town":"府殿","town_kana":"フドノ","prefecture_code":36},"5513":{"zip_code":"7715513","prefecture":"徳島県","prefecture_kana":"トクシマケン","city":"那賀郡那賀町","city_kana":"ナカグンナカチョウ","town":"古屋","town_kana":"フルヤ","prefecture_code":36},"5412":{"zip_code":"7715412","prefecture":"徳島県","prefecture_kana":"トクシマケン","city":"那賀郡那賀町","city_kana":"ナカグンナカチョウ","town":"朴野","town_kana":"ホオノ","prefecture_code":36},"5511":{"zip_code":"7715511","prefecture":"徳島県","prefecture_kana":"トクシマケン","city":"那賀郡那賀町","city_kana":"ナカグンナカチョウ","town":"水崎","town_kana":"ミサキ","prefecture_code":36},"5206":{"zip_code":"7715206","prefecture":"徳島県","prefecture_kana":"トクシマケン","city":"那賀郡那賀町","city_kana":"ナカグンナカチョウ","town":"百合","town_kana":"モマエ","prefecture_code":36},"5205":{"zip_code":"7715205","prefecture":"徳島県","prefecture_kana":"トクシマケン","city":"那賀郡那賀町","city_kana":"ナカグンナカチョウ","town":"百合谷","town_kana":"モマエダニ","prefecture_code":36},"5402":{"zip_code":"7715402","prefecture":"徳島県","prefecture_kana":"トクシマケン","city":"那賀郡那賀町","city_kana":"ナカグンナカチョウ","town":"簗ノ上","town_kana":"ヤナノウエ","prefecture_code":36},"5411":{"zip_code":"7715411","prefecture":"徳島県","prefecture_kana":"トクシマケン","city":"那賀郡那賀町","city_kana":"ナカグンナカチョウ","town":"横石","town_kana":"ヨコイシ","prefecture_code":36},"6116":{"zip_code":"7716116","prefecture":"徳島県","prefecture_kana":"トクシマケン","city":"那賀郡那賀町","city_kana":"ナカグンナカチョウ","town":"横谷","town_kana":"ヨコダニ","prefecture_code":36},"5408":{"zip_code":"7715408","prefecture":"徳島県","prefecture_kana":"トクシマケン","city":"那賀郡那賀町","city_kana":"ナカグンナカチョウ","town":"吉野","town_kana":"ヨシノ","prefecture_code":36},"5201":{"zip_code":"7715201","prefecture":"徳島県","prefecture_kana":"トクシマケン","city":"那賀郡那賀町","city_kana":"ナカグンナカチョウ","town":"和食","town_kana":"ワジキ","prefecture_code":36},"5203":{"zip_code":"7715203","prefecture":"徳島県","prefecture_kana":"トクシマケン","city":"那賀郡那賀町","city_kana":"ナカグンナカチョウ","town":"和食郷","town_kana":"ワジキゴウ","prefecture_code":36},"0200":[{"zip_code":"7710200","prefecture":"徳島県","prefecture_kana":"トクシマケン","city":"板野郡松茂町","city_kana":"イタノグンマツシゲチョウ","town":"以下に掲載がない場合","town_kana":"イカニケイサイガナイバアイ","prefecture_code":36},{"zip_code":"7710200","prefecture":"徳島県","prefecture_kana":"トクシマケン","city":"板野郡北島町","city_kana":"イタノグンキタジマチョウ","town":"以下に掲載がない場合","town_kana":"イカニケイサイガナイバアイ","prefecture_code":36}],"0219":{"zip_code":"7710219","prefecture":"徳島県","prefecture_kana":"トクシマケン","city":"板野郡松茂町","city_kana":"イタノグンマツシゲチョウ","town":"笹木野","town_kana":"ササギノ","prefecture_code":36},"0218":{"zip_code":"7710218","prefecture":"徳島県","prefecture_kana":"トクシマケン","city":"板野郡松茂町","city_kana":"イタノグンマツシゲチョウ","town":"住吉","town_kana":"スミヨシ","prefecture_code":36},"0215":{"zip_code":"7710215","prefecture":"徳島県","prefecture_kana":"トクシマケン","city":"板野郡松茂町","city_kana":"イタノグンマツシゲチョウ","town":"豊岡","town_kana":"トヨオカ","prefecture_code":36},"0217":{"zip_code":"7710217","prefecture":"徳島県","prefecture_kana":"トクシマケン","city":"板野郡松茂町","city_kana":"イタノグンマツシゲチョウ","town":"豊中","town_kana":"トヨナカ","prefecture_code":36},"0213":{"zip_code":"7710213","prefecture":"徳島県","prefecture_kana":"トクシマケン","city":"板野郡松茂町","city_kana":"イタノグンマツシゲチョウ","town":"豊久","town_kana":"トヨヒサ","prefecture_code":36},"0212":{"zip_code":"7710212","prefecture":"徳島県","prefecture_kana":"トクシマケン","city":"板野郡松茂町","city_kana":"イタノグンマツシゲチョウ","town":"中喜来","town_kana":"ナカギライ","prefecture_code":36},"0211":{"zip_code":"7710211","prefecture":"徳島県","prefecture_kana":"トクシマケン","city":"板野郡松茂町","city_kana":"イタノグンマツシゲチョウ","town":"長岸","town_kana":"ナガギシ","prefecture_code":36},"0216":{"zip_code":"7710216","prefecture":"徳島県","prefecture_kana":"トクシマケン","city":"板野郡松茂町","city_kana":"イタノグンマツシゲチョウ","town":"長原","town_kana":"ナガハラ","prefecture_code":36},"0220":{"zip_code":"7710220","prefecture":"徳島県","prefecture_kana":"トクシマケン","city":"板野郡松茂町","city_kana":"イタノグンマツシゲチョウ","town":"広島","town_kana":"ヒロシマ","prefecture_code":36},"0214":{"zip_code":"7710214","prefecture":"徳島県","prefecture_kana":"トクシマケン","city":"板野郡松茂町","city_kana":"イタノグンマツシゲチョウ","town":"満穂","town_kana":"ミツホ","prefecture_code":36},"0205":{"zip_code":"7710205","prefecture":"徳島県","prefecture_kana":"トクシマケン","city":"板野郡北島町","city_kana":"イタノグンキタジマチョウ","town":"江尻","town_kana":"エジリ","prefecture_code":36},"0201":{"zip_code":"7710201","prefecture":"徳島県","prefecture_kana":"トクシマケン","city":"板野郡北島町","city_kana":"イタノグンキタジマチョウ","town":"北村","town_kana":"キタムラ","prefecture_code":36},"0207":{"zip_code":"7710207","prefecture":"徳島県","prefecture_kana":"トクシマケン","city":"板野郡北島町","city_kana":"イタノグンキタジマチョウ","town":"新喜来","town_kana":"シンキライ","prefecture_code":36},"0204":{"zip_code":"7710204","prefecture":"徳島県","prefecture_kana":"トクシマケン","city":"板野郡北島町","city_kana":"イタノグンキタジマチョウ","town":"鯛浜","town_kana":"タイノハマ","prefecture_code":36},"0206":{"zip_code":"7710206","prefecture":"徳島県","prefecture_kana":"トクシマケン","city":"板野郡北島町","city_kana":"イタノグンキタジマチョウ","town":"高房","town_kana":"タカボウ","prefecture_code":36},"0202":{"zip_code":"7710202","prefecture":"徳島県","prefecture_kana":"トクシマケン","city":"板野郡北島町","city_kana":"イタノグンキタジマチョウ","town":"太郎八須","town_kana":"タロウハチズ","prefecture_code":36},"0203":{"zip_code":"7710203","prefecture":"徳島県","prefecture_kana":"トクシマケン","city":"板野郡北島町","city_kana":"イタノグンキタジマチョウ","town":"中村","town_kana":"ナカムラ","prefecture_code":36},"1200":{"zip_code":"7711200","prefecture":"徳島県","prefecture_kana":"トクシマケン","city":"板野郡藍住町","city_kana":"イタノグンアイズミチョウ","town":"以下に掲載がない場合","town_kana":"イカニケイサイガナイバアイ","prefecture_code":36},"1202":[{"zip_code":"7711202","prefecture":"徳島県","prefecture_kana":"トクシマケン","city":"板野郡藍住町","city_kana":"イタノグンアイズミチョウ","town":"奥野（猪熊）","town_kana":"オクノ(イノクマ)","prefecture_code":36},{"zip_code":"7711202","prefecture":"徳島県","prefecture_kana":"トクシマケン","city":"板野郡藍住町","city_kana":"イタノグンアイズミチョウ","town":"奥野（東中須）","town_kana":"オクノ(ヒガシナカズ)","prefecture_code":36},{"zip_code":"7711202","prefecture":"徳島県","prefecture_kana":"トクシマケン","city":"板野郡藍住町","city_kana":"イタノグンアイズミチョウ","town":"奥野（前川）","town_kana":"オクノ(マエガワ)","prefecture_code":36},{"zip_code":"7711202","prefecture":"徳島県","prefecture_kana":"トクシマケン","city":"板野郡藍住町","city_kana":"イタノグンアイズミチョウ","town":"奥野（和田）","town_kana":"オクノ(ワダ)","prefecture_code":36}],"1203":{"zip_code":"7711203","prefecture":"徳島県","prefecture_kana":"トクシマケン","city":"板野郡藍住町","city_kana":"イタノグンアイズミチョウ","town":"奥野（矢上前）","town_kana":"オクノ(ヤカミマエ)","prefecture_code":36},"1201":{"zip_code":"7711201","prefecture":"徳島県","prefecture_kana":"トクシマケン","city":"板野郡藍住町","city_kana":"イタノグンアイズミチョウ","town":"奥野（その他）","town_kana":"オクノ(ソノタ)","prefecture_code":36},"1240":{"zip_code":"7711240","prefecture":"徳島県","prefecture_kana":"トクシマケン","city":"板野郡藍住町","city_kana":"イタノグンアイズミチョウ","town":"乙瀬","town_kana":"オトゼ","prefecture_code":36},"1262":[{"zip_code":"7711262","prefecture":"徳島県","prefecture_kana":"トクシマケン","city":"板野郡藍住町","city_kana":"イタノグンアイズミチョウ","town":"笠木（中野）","town_kana":"カサギ(ナカノ)","prefecture_code":36},{"zip_code":"7711262","prefecture":"徳島県","prefecture_kana":"トクシマケン","city":"板野郡藍住町","city_kana":"イタノグンアイズミチョウ","town":"笠木（西野）","town_kana":"カサギ(ニシノ)","prefecture_code":36}],"1261":{"zip_code":"7711261","prefecture":"徳島県","prefecture_kana":"トクシマケン","city":"板野郡藍住町","city_kana":"イタノグンアイズミチョウ","town":"笠木（東野）","town_kana":"カサギ(ヒガシノ)","prefecture_code":36},"1260":{"zip_code":"7711260","prefecture":"徳島県","prefecture_kana":"トクシマケン","city":"板野郡藍住町","city_kana":"イタノグンアイズミチョウ","town":"笠木（その他）","town_kana":"カサギ(ソノタ)","prefecture_code":36},"1271":{"zip_code":"7711271","prefecture":"徳島県","prefecture_kana":"トクシマケン","city":"板野郡藍住町","city_kana":"イタノグンアイズミチョウ","town":"勝瑞（幸島）","town_kana":"ショウズイ(コウジマ)","prefecture_code":36},"1273":[{"zip_code":"7711273","prefecture":"徳島県","prefecture_kana":"トクシマケン","city":"板野郡藍住町","city_kana":"イタノグンアイズミチョウ","town":"勝瑞（正喜地）","town_kana":"ショウズイ(ショウキチ)","prefecture_code":36},{"zip_code":"7711273","prefecture":"徳島県","prefecture_kana":"トクシマケン","city":"板野郡藍住町","city_kana":"イタノグンアイズミチョウ","town":"勝瑞（東勝地）","town_kana":"ショウズイ(ヒガシカツチ)","prefecture_code":36}],"1272":{"zip_code":"7711272","prefecture":"徳島県","prefecture_kana":"トクシマケン","city":"板野郡藍住町","city_kana":"イタノグンアイズミチョウ","town":"勝瑞（成長）","town_kana":"ショウズイ(セイチョウ)","prefecture_code":36},"1270":{"zip_code":"7711270","prefecture":"徳島県","prefecture_kana":"トクシマケン","city":"板野郡藍住町","city_kana":"イタノグンアイズミチョウ","town":"勝瑞（その他）","town_kana":"ショウズイ(ソノタ)","prefecture_code":36},"1267":[{"zip_code":"7711267","prefecture":"徳島県","prefecture_kana":"トクシマケン","city":"板野郡藍住町","city_kana":"イタノグンアイズミチョウ","town":"住吉（乾）","town_kana":"スミヨシ(イヌイ)","prefecture_code":36},{"zip_code":"7711267","prefecture":"徳島県","prefecture_kana":"トクシマケン","city":"板野郡藍住町","city_kana":"イタノグンアイズミチョウ","town":"住吉（江端）","town_kana":"スミヨシ(エバタ)","prefecture_code":36}],"1265":[{"zip_code":"7711265","prefecture":"徳島県","prefecture_kana":"トクシマケン","city":"板野郡藍住町","city_kana":"イタノグンアイズミチョウ","town":"住吉（逆藤）","town_kana":"スミヨシ(サカフジ)","prefecture_code":36},{"zip_code":"7711265","prefecture":"徳島県","prefecture_kana":"トクシマケン","city":"板野郡藍住町","city_kana":"イタノグンアイズミチョウ","town":"住吉（神蔵）","town_kana":"スミヨシ(ジンゾウ)","prefecture_code":36},{"zip_code":"7711265","prefecture":"徳島県","prefecture_kana":"トクシマケン","city":"板野郡藍住町","city_kana":"イタノグンアイズミチョウ","town":"住吉（千鳥ケ浜）","town_kana":"スミヨシ(チドリガハマ)","prefecture_code":36}],"1266":[{"zip_code":"7711266","prefecture":"徳島県","prefecture_kana":"トクシマケン","city":"板野郡藍住町","city_kana":"イタノグンアイズミチョウ","town":"住吉（藤ノ木）","town_kana":"スミヨシ(フジノキ)","prefecture_code":36},{"zip_code":"7711266","prefecture":"徳島県","prefecture_kana":"トクシマケン","city":"板野郡藍住町","city_kana":"イタノグンアイズミチョウ","town":"住吉（若宮）","town_kana":"スミヨシ(ワカミヤ)","prefecture_code":36}],"1264":{"zip_code":"7711264","prefecture":"徳島県","prefecture_kana":"トクシマケン","city":"板野郡藍住町","city_kana":"イタノグンアイズミチョウ","town":"住吉（その他）","town_kana":"スミヨシ(ソノタ)","prefecture_code":36},"1212":[{"zip_code":"7711212","prefecture":"徳島県","prefecture_kana":"トクシマケン","city":"板野郡藍住町","city_kana":"イタノグンアイズミチョウ","town":"徳命（前須東）","town_kana":"トクメイ(マエズヒガシ)","prefecture_code":36},{"zip_code":"7711212","prefecture":"徳島県","prefecture_kana":"トクシマケン","city":"板野郡藍住町","city_kana":"イタノグンアイズミチョウ","town":"徳命（前須西）","town_kana":"トクメイ(マエズニシ)","prefecture_code":36}],"1211":[{"zip_code":"7711211","prefecture":"徳島県","prefecture_kana":"トクシマケン","city":"板野郡藍住町","city_kana":"イタノグンアイズミチョウ","town":"徳命（元村）","town_kana":"トクメイ(モトムラ)","prefecture_code":36},{"zip_code":"7711211","prefecture":"徳島県","prefecture_kana":"トクシマケン","city":"板野郡藍住町","city_kana":"イタノグンアイズミチョウ","town":"徳命（元村東）","town_kana":"トクメイ(モトムラヒガシ)","prefecture_code":36}],"1210":{"zip_code":"7711210","prefecture":"徳島県","prefecture_kana":"トクシマケン","city":"板野郡藍住町","city_kana":"イタノグンアイズミチョウ","town":"徳命（その他）","town_kana":"トクメイ(ソノタ)","prefecture_code":36},"1232":[{"zip_code":"7711232","prefecture":"徳島県","prefecture_kana":"トクシマケン","city":"板野郡藍住町","city_kana":"イタノグンアイズミチョウ","town":"富吉（地神）","town_kana":"トミヨシ(ジガミ)","prefecture_code":36},{"zip_code":"7711232","prefecture":"徳島県","prefecture_kana":"トクシマケン","city":"板野郡藍住町","city_kana":"イタノグンアイズミチョウ","town":"富吉（穂実）","town_kana":"トミヨシ(ホウミ)","prefecture_code":36}],"1231":[{"zip_code":"7711231","prefecture":"徳島県","prefecture_kana":"トクシマケン","city":"板野郡藍住町","city_kana":"イタノグンアイズミチョウ","town":"富吉（須崎）","town_kana":"トミヨシ(スザキ)","prefecture_code":36},{"zip_code":"7711231","prefecture":"徳島県","prefecture_kana":"トクシマケン","city":"板野郡藍住町","city_kana":"イタノグンアイズミチョウ","town":"富吉（富吉）","town_kana":"トミヨシ(トミヨシ)","prefecture_code":36},{"zip_code":"7711231","prefecture":"徳島県","prefecture_kana":"トクシマケン","city":"板野郡藍住町","city_kana":"イタノグンアイズミチョウ","town":"富吉（豊吉）","town_kana":"トミヨシ(トヨヨシ)","prefecture_code":36}],"1230":{"zip_code":"7711230","prefecture":"徳島県","prefecture_kana":"トクシマケン","city":"板野郡藍住町","city_kana":"イタノグンアイズミチョウ","town":"富吉（その他）","town_kana":"トミヨシ(ソノタ)","prefecture_code":36},"1224":[{"zip_code":"7711224","prefecture":"徳島県","prefecture_kana":"トクシマケン","city":"板野郡藍住町","city_kana":"イタノグンアイズミチョウ","town":"東中富（大塚傍示）","town_kana":"ヒガシナカトミ(オオツカホウジ)","prefecture_code":36},{"zip_code":"7711224","prefecture":"徳島県","prefecture_kana":"トクシマケン","city":"板野郡藍住町","city_kana":"イタノグンアイズミチョウ","town":"東中富（慶長）","town_kana":"ヒガシナカトミ(ケイチョウ)","prefecture_code":36},{"zip_code":"7711224","prefecture":"徳島県","prefecture_kana":"トクシマケン","city":"板野郡藍住町","city_kana":"イタノグンアイズミチョウ","town":"東中富（貞享）","town_kana":"ヒガシナカトミ(テイキョウ)","prefecture_code":36},{"zip_code":"7711224","prefecture":"徳島県","prefecture_kana":"トクシマケン","city":"板野郡藍住町","city_kana":"イタノグンアイズミチョウ","town":"東中富（東安永）","town_kana":"ヒガシナカトミ(ヒガシアンエイ)","prefecture_code":36},{"zip_code":"7711224","prefecture":"徳島県","prefecture_kana":"トクシマケン","city":"板野郡藍住町","city_kana":"イタノグンアイズミチョウ","town":"東中富（西安永）","town_kana":"ヒガシナカトミ(ニシアンエイ)","prefecture_code":36},{"zip_code":"7711224","prefecture":"徳島県","prefecture_kana":"トクシマケン","city":"板野郡藍住町","city_kana":"イタノグンアイズミチョウ","town":"東中富（鑓場傍示）","town_kana":"ヒガシナカトミ(ヤリバホウジ)","prefecture_code":36}],"1222":{"zip_code":"7711222","prefecture":"徳島県","prefecture_kana":"トクシマケン","city":"板野郡藍住町","city_kana":"イタノグンアイズミチョウ","town":"東中富（北傍示）","town_kana":"ヒガシナカトミ(キタホウジ)","prefecture_code":36},"1223":[{"zip_code":"7711223","prefecture":"徳島県","prefecture_kana":"トクシマケン","city":"板野郡藍住町","city_kana":"イタノグンアイズミチョウ","town":"東中富（敷地傍示）","town_kana":"ヒガシナカトミ(シキジホウジ)","prefecture_code":36},{"zip_code":"7711223","prefecture":"徳島県","prefecture_kana":"トクシマケン","city":"板野郡藍住町","city_kana":"イタノグンアイズミチョウ","town":"東中富（天王傍示）","town_kana":"ヒガシナカトミ(テンノウホウジ)","prefecture_code":36}],"1221":{"zip_code":"7711221","prefecture":"徳島県","prefecture_kana":"トクシマケン","city":"板野郡藍住町","city_kana":"イタノグンアイズミチョウ","town":"東中富（長江傍示）","town_kana":"ヒガシナカトミ(ナガエホウジ)","prefecture_code":36},"1220":{"zip_code":"7711220","prefecture":"徳島県","prefecture_kana":"トクシマケン","city":"板野郡藍住町","city_kana":"イタノグンアイズミチョウ","town":"東中富（その他）","town_kana":"ヒガシナカトミ(ソノタ)","prefecture_code":36},"1253":[{"zip_code":"7711253","prefecture":"徳島県","prefecture_kana":"トクシマケン","city":"板野郡藍住町","city_kana":"イタノグンアイズミチョウ","town":"矢上（江ノ口）","town_kana":"ヤカミ(エノクチ)","prefecture_code":36},{"zip_code":"7711253","prefecture":"徳島県","prefecture_kana":"トクシマケン","city":"板野郡藍住町","city_kana":"イタノグンアイズミチョウ","town":"矢上（安任）","town_kana":"ヤカミ(ヤストウ)","prefecture_code":36}],"1252":[{"zip_code":"7711252","prefecture":"徳島県","prefecture_kana":"トクシマケン","city":"板野郡藍住町","city_kana":"イタノグンアイズミチョウ","town":"矢上（春日）","town_kana":"ヤカミ(カスガ)","prefecture_code":36},{"zip_code":"7711252","prefecture":"徳島県","prefecture_kana":"トクシマケン","city":"板野郡藍住町","city_kana":"イタノグンアイズミチョウ","town":"矢上（北分）","town_kana":"ヤカミ(キタブン)","prefecture_code":36}],"1251":[{"zip_code":"7711251","prefecture":"徳島県","prefecture_kana":"トクシマケン","city":"板野郡藍住町","city_kana":"イタノグンアイズミチョウ","town":"矢上（西）","town_kana":"ヤカミ(ニシ)","prefecture_code":36},{"zip_code":"7711251","prefecture":"徳島県","prefecture_kana":"トクシマケン","city":"板野郡藍住町","city_kana":"イタノグンアイズミチョウ","town":"矢上（原）","town_kana":"ヤカミ(ハラ)","prefecture_code":36}],"1250":{"zip_code":"7711250","prefecture":"徳島県","prefecture_kana":"トクシマケン","city":"板野郡藍住町","city_kana":"イタノグンアイズミチョウ","town":"矢上（その他）","town_kana":"ヤカミ(ソノタ)","prefecture_code":36},"1300":{"zip_code":"7711300","prefecture":"徳島県","prefecture_kana":"トクシマケン","city":"板野郡上板町","city_kana":"イタノグンカミイタチョウ","town":"以下に掲載がない場合","town_kana":"イカニケイサイガナイバアイ","prefecture_code":36},"1310":{"zip_code":"7711310","prefecture":"徳島県","prefecture_kana":"トクシマケン","city":"板野郡上板町","city_kana":"イタノグンカミイタチョウ","town":"泉谷","town_kana":"イズミダニ","prefecture_code":36},"1301":{"zip_code":"7711301","prefecture":"徳島県","prefecture_kana":"トクシマケン","city":"板野郡上板町","city_kana":"イタノグンカミイタチョウ","town":"鍛冶屋原","town_kana":"カジヤバラ","prefecture_code":36},"1345":{"zip_code":"7711345","prefecture":"徳島県","prefecture_kana":"トクシマケン","city":"板野郡上板町","city_kana":"イタノグンカミイタチョウ","town":"上六條","town_kana":"カミロクジョウ","prefecture_code":36},"1320":{"zip_code":"7711320","prefecture":"徳島県","prefecture_kana":"トクシマケン","city":"板野郡上板町","city_kana":"イタノグンカミイタチョウ","town":"神宅","town_kana":"カンヤケ","prefecture_code":36},"1342":{"zip_code":"7711342","prefecture":"徳島県","prefecture_kana":"トクシマケン","city":"板野郡上板町","city_kana":"イタノグンカミイタチョウ","town":"佐藤塚","town_kana":"サトウヅカ","prefecture_code":36},"1343":{"zip_code":"7711343","prefecture":"徳島県","prefecture_kana":"トクシマケン","city":"板野郡上板町","city_kana":"イタノグンカミイタチョウ","town":"椎本","town_kana":"シイノモト","prefecture_code":36},"1302":{"zip_code":"7711302","prefecture":"徳島県","prefecture_kana":"トクシマケン","city":"板野郡上板町","city_kana":"イタノグンカミイタチョウ","town":"七條","town_kana":"シチジョウ","prefecture_code":36},"1344":{"zip_code":"7711344","prefecture":"徳島県","prefecture_kana":"トクシマケン","city":"板野郡上板町","city_kana":"イタノグンカミイタチョウ","town":"下六條","town_kana":"シモロクジョウ","prefecture_code":36},"1350":{"zip_code":"7711350","prefecture":"徳島県","prefecture_kana":"トクシマケン","city":"板野郡上板町","city_kana":"イタノグンカミイタチョウ","town":"瀬部","town_kana":"セベ","prefecture_code":36},"1341":{"zip_code":"7711341","prefecture":"徳島県","prefecture_kana":"トクシマケン","city":"板野郡上板町","city_kana":"イタノグンカミイタチョウ","town":"第十新田","town_kana":"ダイジュウシンデン","prefecture_code":36},"1346":{"zip_code":"7711346","prefecture":"徳島県","prefecture_kana":"トクシマケン","city":"板野郡上板町","city_kana":"イタノグンカミイタチョウ","town":"高磯","town_kana":"タカイソ","prefecture_code":36},"1347":{"zip_code":"7711347","prefecture":"徳島県","prefecture_kana":"トクシマケン","city":"板野郡上板町","city_kana":"イタノグンカミイタチョウ","town":"高瀬","town_kana":"タカセ","prefecture_code":36},"1330":{"zip_code":"7711330","prefecture":"徳島県","prefecture_kana":"トクシマケン","city":"板野郡上板町","city_kana":"イタノグンカミイタチョウ","town":"西分","town_kana":"ニシブン","prefecture_code":36},"1311":{"zip_code":"7711311","prefecture":"徳島県","prefecture_kana":"トクシマケン","city":"板野郡上板町","city_kana":"イタノグンカミイタチョウ","town":"引野","town_kana":"ヒキノ","prefecture_code":36},"2502":{"zip_code":"7712502","prefecture":"徳島県","prefecture_kana":"トクシマケン","city":"三好郡東みよし町","city_kana":"ミヨシグンヒガシミヨシチョウ","town":"足代","town_kana":"アシロ","prefecture_code":36},"2503":{"zip_code":"7712503","prefecture":"徳島県","prefecture_kana":"トクシマケン","city":"三好郡東みよし町","city_kana":"ミヨシグンヒガシミヨシチョウ","town":"東山","town_kana":"ヒガシヤマ","prefecture_code":36},"2501":{"zip_code":"7712501","prefecture":"徳島県","prefecture_kana":"トクシマケン","city":"三好郡東みよし町","city_kana":"ミヨシグンヒガシミヨシチョウ","town":"昼間","town_kana":"ヒルマ","prefecture_code":36}}