{"0000":{"zip_code":"7720000","prefecture":"徳島県","prefecture_kana":"トクシマケン","city":"鳴門市","city_kana":"ナルトシ","town":"","town_kana":"","prefecture_code":36},"0041":{"zip_code":"7720041","prefecture":"徳島県","prefecture_kana":"トクシマケン","city":"鳴門市","city_kana":"ナルトシ","town":"大津町大代","town_kana":"オオツチョウオオシロ","prefecture_code":36},"0031":{"zip_code":"7720031","prefecture":"徳島県","prefecture_kana":"トクシマケン","city":"鳴門市","city_kana":"ナルトシ","town":"大津町木津野","town_kana":"オオツチョウキヅノ","prefecture_code":36},"0044":{"zip_code":"7720044","prefecture":"徳島県","prefecture_kana":"トクシマケン","city":"鳴門市","city_kana":"ナルトシ","town":"大津町大幸","town_kana":"オオツチョウダイコウ","prefecture_code":36},"0043":{"zip_code":"7720043","prefecture":"徳島県","prefecture_kana":"トクシマケン","city":"鳴門市","city_kana":"ナルトシ","town":"大津町段関","town_kana":"オオツチョウダンゼキ","prefecture_code":36},"0034":{"zip_code":"7720034","prefecture":"徳島県","prefecture_kana":"トクシマケン","city":"鳴門市","city_kana":"ナルトシ","town":"大津町徳長","town_kana":"オオツチョウトクナガ","prefecture_code":36},"0033":{"zip_code":"7720033","prefecture":"徳島県","prefecture_kana":"トクシマケン","city":"鳴門市","city_kana":"ナルトシ","town":"大津町長江","town_kana":"オオツチョウナガエ","prefecture_code":36},"0042":{"zip_code":"7720042","prefecture":"徳島県","prefecture_kana":"トクシマケン","city":"鳴門市","city_kana":"ナルトシ","town":"大津町備前島","town_kana":"オオツチョウビゼンジマ","prefecture_code":36},"0035":{"zip_code":"7720035","prefecture":"徳島県","prefecture_kana":"トクシマケン","city":"鳴門市","city_kana":"ナルトシ","town":"大津町矢倉","town_kana":"オオツチョウヤグラ","prefecture_code":36},"0032":{"zip_code":"7720032","prefecture":"徳島県","prefecture_kana":"トクシマケン","city":"鳴門市","city_kana":"ナルトシ","town":"大津町吉永","town_kana":"オオツチョウヨシナガ","prefecture_code":36},"0022":{"zip_code":"7720022","prefecture":"徳島県","prefecture_kana":"トクシマケン","city":"鳴門市","city_kana":"ナルトシ","town":"里浦町粟津","town_kana":"サトウラチョウアワヅ","prefecture_code":36},"0021":{"zip_code":"7720021","prefecture":"徳島県","prefecture_kana":"トクシマケン","city":"鳴門市","city_kana":"ナルトシ","town":"里浦町里浦","town_kana":"サトウラチョウサトウラ","prefecture_code":36},"0060":{"zip_code":"7720060","prefecture":"徳島県","prefecture_kana":"トクシマケン","city":"鳴門市","city_kana":"ナルトシ","town":"瀬戸町明神","town_kana":"セトチョウアキノカミ","prefecture_code":36},"0051":{"zip_code":"7720051","prefecture":"徳島県","prefecture_kana":"トクシマケン","city":"鳴門市","city_kana":"ナルトシ","town":"鳴門町高島","town_kana":"ナルトチョウタカシマ","prefecture_code":36},"0053":{"zip_code":"7720053","prefecture":"徳島県","prefecture_kana":"トクシマケン","city":"鳴門市","city_kana":"ナルトシ","town":"鳴門町土佐泊浦","town_kana":"ナルトチョウトサドマリウラ","prefecture_code":36},"0052":{"zip_code":"7720052","prefecture":"徳島県","prefecture_kana":"トクシマケン","city":"鳴門市","city_kana":"ナルトシ","town":"鳴門町三ツ石","town_kana":"ナルトチョウミツイシ","prefecture_code":36},"0011":{"zip_code":"7720011","prefecture":"徳島県","prefecture_kana":"トクシマケン","city":"鳴門市","city_kana":"ナルトシ","town":"撫養町大桑島","town_kana":"ムヤチョウオオクワジマ","prefecture_code":36},"0012":{"zip_code":"7720012","prefecture":"徳島県","prefecture_kana":"トクシマケン","city":"鳴門市","city_kana":"ナルトシ","town":"撫養町小桑島","town_kana":"ムヤチョウコクワジマ","prefecture_code":36},"0013":{"zip_code":"7720013","prefecture":"徳島県","prefecture_kana":"トクシマケン","city":"鳴門市","city_kana":"ナルトシ","town":"撫養町岡崎","town_kana":"ムヤチョウオカザキ","prefecture_code":36},"0004":{"zip_code":"7720004","prefecture":"徳島県","prefecture_kana":"トクシマケン","city":"鳴門市","city_kana":"ナルトシ","town":"撫養町木津","town_kana":"ムヤチョウキヅ","prefecture_code":36},"0001":{"zip_code":"7720001","prefecture":"徳島県","prefecture_kana":"トクシマケン","city":"鳴門市","city_kana":"ナルトシ","town":"撫養町黒崎","town_kana":"ムヤチョウクロサキ","prefecture_code":36},"0002":{"zip_code":"7720002","prefecture":"徳島県","prefecture_kana":"トクシマケン","city":"鳴門市","city_kana":"ナルトシ","town":"撫養町斎田","town_kana":"ムヤチョウサイタ","prefecture_code":36},"0017":{"zip_code":"7720017","prefecture":"徳島県","prefecture_kana":"トクシマケン","city":"鳴門市","city_kana":"ナルトシ","town":"撫養町立岩","town_kana":"ムヤチョウタテイワ","prefecture_code":36},"0016":{"zip_code":"7720016","prefecture":"徳島県","prefecture_kana":"トクシマケン","city":"鳴門市","city_kana":"ナルトシ","town":"撫養町林崎","town_kana":"ムヤチョウハヤサキ","prefecture_code":36},"0014":{"zip_code":"7720014","prefecture":"徳島県","prefecture_kana":"トクシマケン","city":"鳴門市","city_kana":"ナルトシ","town":"撫養町弁財天","town_kana":"ムヤチョウベザイテン","prefecture_code":36},"0003":{"zip_code":"7720003","prefecture":"徳島県","prefecture_kana":"トクシマケン","city":"鳴門市","city_kana":"ナルトシ","town":"撫養町南浜","town_kana":"ムヤチョウミナミハマ","prefecture_code":36},"0015":{"zip_code":"7720015","prefecture":"徳島県","prefecture_kana":"トクシマケン","city":"鳴門市","city_kana":"ナルトシ","town":"撫養町北浜","town_kana":"ムヤチョウキタハマ","prefecture_code":36}}