{"0070":[{"zip_code":"7730070","prefecture":"徳島県","prefecture_kana":"トクシマケン","city":"徳島市","city_kana":"トクシマシ","town":"大原町","town_kana":"オオバラチョウ","prefecture_code":36},{"zip_code":"7730070","prefecture":"徳島県","prefecture_kana":"トクシマケン","city":"徳島市","city_kana":"トクシマシ","town":"大原町小神子","town_kana":"オオバラチョウコミコ","prefecture_code":36},{"zip_code":"7730070","prefecture":"徳島県","prefecture_kana":"トクシマケン","city":"徳島市","city_kana":"トクシマシ","town":"大原町小神子山","town_kana":"オオバラチョウコミコヤマ","prefecture_code":36}],"0000":{"zip_code":"7730000","prefecture":"徳島県","prefecture_kana":"トクシマケン","city":"小松島市","city_kana":"コマツシマシ","town":"","town_kana":"","prefecture_code":36},"0024":{"zip_code":"7730024","prefecture":"徳島県","prefecture_kana":"トクシマケン","city":"小松島市","city_kana":"コマツシマシ","town":"間新田町","town_kana":"アイシンデンチョウ","prefecture_code":36},"0021":{"zip_code":"7730021","prefecture":"徳島県","prefecture_kana":"トクシマケン","city":"小松島市","city_kana":"コマツシマシ","town":"赤石町","town_kana":"アカイシチョウ","prefecture_code":36},"0014":{"zip_code":"7730014","prefecture":"徳島県","prefecture_kana":"トクシマケン","city":"小松島市","city_kana":"コマツシマシ","town":"江田町","town_kana":"エダチョウ","prefecture_code":36},"0022":{"zip_code":"7730022","prefecture":"徳島県","prefecture_kana":"トクシマケン","city":"小松島市","city_kana":"コマツシマシ","town":"大林町","town_kana":"オオハヤシチョウ","prefecture_code":36},"0007":{"zip_code":"7730007","prefecture":"徳島県","prefecture_kana":"トクシマケン","city":"小松島市","city_kana":"コマツシマシ","town":"金磯町","town_kana":"カナイソチョウ","prefecture_code":36},"0002":{"zip_code":"7730002","prefecture":"徳島県","prefecture_kana":"トクシマケン","city":"小松島市","city_kana":"コマツシマシ","town":"神田瀬町","town_kana":"カンダセチョウ","prefecture_code":36},"0018":{"zip_code":"7730018","prefecture":"徳島県","prefecture_kana":"トクシマケン","city":"小松島市","city_kana":"コマツシマシ","town":"櫛淵町","town_kana":"クシブチチョウ","prefecture_code":36},"0001":{"zip_code":"7730001","prefecture":"徳島県","prefecture_kana":"トクシマケン","city":"小松島市","city_kana":"コマツシマシ","town":"小松島町","town_kana":"コマツシマチョウ","prefecture_code":36},"0023":{"zip_code":"7730023","prefecture":"徳島県","prefecture_kana":"トクシマケン","city":"小松島市","city_kana":"コマツシマシ","town":"坂野町","town_kana":"サカノチョウ","prefecture_code":36},"0009":{"zip_code":"7730009","prefecture":"徳島県","prefecture_kana":"トクシマケン","city":"小松島市","city_kana":"コマツシマシ","town":"芝生町","town_kana":"シボウチョウ","prefecture_code":36},"0012":{"zip_code":"7730012","prefecture":"徳島県","prefecture_kana":"トクシマケン","city":"小松島市","city_kana":"コマツシマシ","town":"田浦町","town_kana":"タウラチョウ","prefecture_code":36},"0017":{"zip_code":"7730017","prefecture":"徳島県","prefecture_kana":"トクシマケン","city":"小松島市","city_kana":"コマツシマシ","town":"立江町","town_kana":"タツエチョウ","prefecture_code":36},"0008":{"zip_code":"7730008","prefecture":"徳島県","prefecture_kana":"トクシマケン","city":"小松島市","city_kana":"コマツシマシ","town":"田野町","town_kana":"タノチョウ","prefecture_code":36},"0015":{"zip_code":"7730015","prefecture":"徳島県","prefecture_kana":"トクシマケン","city":"小松島市","city_kana":"コマツシマシ","town":"中田町","town_kana":"チュウデンチョウ","prefecture_code":36},"0019":{"zip_code":"7730019","prefecture":"徳島県","prefecture_kana":"トクシマケン","city":"小松島市","city_kana":"コマツシマシ","town":"豊浦町","town_kana":"トヨウラチョウ","prefecture_code":36},"0016":{"zip_code":"7730016","prefecture":"徳島県","prefecture_kana":"トクシマケン","city":"小松島市","city_kana":"コマツシマシ","town":"中郷町","town_kana":"ナカノゴウチョウ","prefecture_code":36},"0011":{"zip_code":"7730011","prefecture":"徳島県","prefecture_kana":"トクシマケン","city":"小松島市","city_kana":"コマツシマシ","town":"新居見町","town_kana":"ニイミチョウ","prefecture_code":36},"0010":{"zip_code":"7730010","prefecture":"徳島県","prefecture_kana":"トクシマケン","city":"小松島市","city_kana":"コマツシマシ","town":"日開野町","town_kana":"ヒガイノチョウ","prefecture_code":36},"0004":{"zip_code":"7730004","prefecture":"徳島県","prefecture_kana":"トクシマケン","city":"小松島市","city_kana":"コマツシマシ","town":"堀川町","town_kana":"ホリカワチョウ","prefecture_code":36},"0013":{"zip_code":"7730013","prefecture":"徳島県","prefecture_kana":"トクシマケン","city":"小松島市","city_kana":"コマツシマシ","town":"前原町","town_kana":"マエバラチョウ","prefecture_code":36},"0003":{"zip_code":"7730003","prefecture":"徳島県","prefecture_kana":"トクシマケン","city":"小松島市","city_kana":"コマツシマシ","town":"松島町","town_kana":"マツシマチョウ","prefecture_code":36},"0005":{"zip_code":"7730005","prefecture":"徳島県","prefecture_kana":"トクシマケン","city":"小松島市","city_kana":"コマツシマシ","town":"南小松島町","town_kana":"ミナミコマツシマチョウ","prefecture_code":36},"0006":{"zip_code":"7730006","prefecture":"徳島県","prefecture_kana":"トクシマケン","city":"小松島市","city_kana":"コマツシマシ","town":"横須町","town_kana":"ヨコスチョウ","prefecture_code":36},"0031":[{"zip_code":"7730031","prefecture":"徳島県","prefecture_kana":"トクシマケン","city":"小松島市","city_kana":"コマツシマシ","town":"和田島町","town_kana":"ワダジマチョウ","prefecture_code":36},{"zip_code":"7730031","prefecture":"徳島県","prefecture_kana":"トクシマケン","city":"小松島市","city_kana":"コマツシマシ","town":"和田島町松田新田","town_kana":"ワダジマチョウマツダシンデン","prefecture_code":36}],"0025":{"zip_code":"7730025","prefecture":"徳島県","prefecture_kana":"トクシマケン","city":"小松島市","city_kana":"コマツシマシ","town":"和田島町","town_kana":"ワダジマチョウ","prefecture_code":36},"0020":{"zip_code":"7730020","prefecture":"徳島県","prefecture_kana":"トクシマケン","city":"小松島市","city_kana":"コマツシマシ","town":"和田津開町","town_kana":"ワダツビラキチョウ","prefecture_code":36}}