{"0000":{"zip_code":"7740000","prefecture":"徳島県","prefecture_kana":"トクシマケン","city":"阿南市","city_kana":"アナンシ","town":"","town_kana":"","prefecture_code":36},"1760":{"zip_code":"7741760","prefecture":"徳島県","prefecture_kana":"トクシマケン","city":"阿南市","city_kana":"アナンシ","town":"伊島町","town_kana":"イシマチョウ","prefecture_code":36},"0022":{"zip_code":"7740022","prefecture":"徳島県","prefecture_kana":"トクシマケン","city":"阿南市","city_kana":"アナンシ","town":"大潟町","town_kana":"オオガタチョウ","prefecture_code":36},"0014":{"zip_code":"7740014","prefecture":"徳島県","prefecture_kana":"トクシマケン","city":"阿南市","city_kana":"アナンシ","town":"学原町","town_kana":"ガクバラチョウ","prefecture_code":36},"0049":{"zip_code":"7740049","prefecture":"徳島県","prefecture_kana":"トクシマケン","city":"阿南市","city_kana":"アナンシ","town":"上大野町","town_kana":"カミオオノチョウ","prefecture_code":36},"0044":{"zip_code":"7740044","prefecture":"徳島県","prefecture_kana":"トクシマケン","city":"阿南市","city_kana":"アナンシ","town":"上中町","town_kana":"カミナカチョウ","prefecture_code":36},"0006":{"zip_code":"7740006","prefecture":"徳島県","prefecture_kana":"トクシマケン","city":"阿南市","city_kana":"アナンシ","town":"黒津地町","town_kana":"クロツチチョウ","prefecture_code":36},"0015":{"zip_code":"7740015","prefecture":"徳島県","prefecture_kana":"トクシマケン","city":"阿南市","city_kana":"アナンシ","town":"才見町","town_kana":"サイミチョウ","prefecture_code":36},"0009":{"zip_code":"7740009","prefecture":"徳島県","prefecture_kana":"トクシマケン","city":"阿南市","city_kana":"アナンシ","town":"西路見町","town_kana":"サイロミチョウ","prefecture_code":36},"0047":{"zip_code":"7740047","prefecture":"徳島県","prefecture_kana":"トクシマケン","city":"阿南市","city_kana":"アナンシ","town":"下大野町","town_kana":"シモオオノチョウ","prefecture_code":36},"0041":{"zip_code":"7740041","prefecture":"徳島県","prefecture_kana":"トクシマケン","city":"阿南市","city_kana":"アナンシ","town":"住吉町","town_kana":"スミヨシチョウ","prefecture_code":36},"0045":{"zip_code":"7740045","prefecture":"徳島県","prefecture_kana":"トクシマケン","city":"阿南市","city_kana":"アナンシ","town":"宝田町","town_kana":"タカラダチョウ","prefecture_code":36},"0023":{"zip_code":"7740023","prefecture":"徳島県","prefecture_kana":"トクシマケン","city":"阿南市","city_kana":"アナンシ","town":"橘町","town_kana":"タチバナチョウ","prefecture_code":36},"0001":{"zip_code":"7740001","prefecture":"徳島県","prefecture_kana":"トクシマケン","city":"阿南市","city_kana":"アナンシ","town":"辰巳町","town_kana":"タツミチョウ","prefecture_code":36},"0021":{"zip_code":"7740021","prefecture":"徳島県","prefecture_kana":"トクシマケン","city":"阿南市","city_kana":"アナンシ","town":"津乃峰町","town_kana":"ツノミネチョウ","prefecture_code":36},"0007":{"zip_code":"7740007","prefecture":"徳島県","prefecture_kana":"トクシマケン","city":"阿南市","city_kana":"アナンシ","town":"出来町","town_kana":"デキマチ","prefecture_code":36},"0030":{"zip_code":"7740030","prefecture":"徳島県","prefecture_kana":"トクシマケン","city":"阿南市","city_kana":"アナンシ","town":"富岡町","town_kana":"トミオカチョウ","prefecture_code":36},"0002":{"zip_code":"7740002","prefecture":"徳島県","prefecture_kana":"トクシマケン","city":"阿南市","city_kana":"アナンシ","town":"豊益町","town_kana":"トヨマスチョウ","prefecture_code":36},"0046":{"zip_code":"7740046","prefecture":"徳島県","prefecture_kana":"トクシマケン","city":"阿南市","city_kana":"アナンシ","town":"長生町","town_kana":"ナガイケチョウ","prefecture_code":36},"0048":{"zip_code":"7740048","prefecture":"徳島県","prefecture_kana":"トクシマケン","city":"阿南市","city_kana":"アナンシ","town":"中大野町","town_kana":"ナカオオノチョウ","prefecture_code":36},"0016":{"zip_code":"7740016","prefecture":"徳島県","prefecture_kana":"トクシマケン","city":"阿南市","city_kana":"アナンシ","town":"中林町","town_kana":"ナカバヤシチョウ","prefecture_code":36},"0012":{"zip_code":"7740012","prefecture":"徳島県","prefecture_kana":"トクシマケン","city":"阿南市","city_kana":"アナンシ","town":"七見町","town_kana":"ナナミチョウ","prefecture_code":36},"0008":{"zip_code":"7740008","prefecture":"徳島県","prefecture_kana":"トクシマケン","city":"阿南市","city_kana":"アナンシ","town":"原ケ崎町","town_kana":"ハラガサキチョウ","prefecture_code":36},"0003":{"zip_code":"7740003","prefecture":"徳島県","prefecture_kana":"トクシマケン","city":"阿南市","city_kana":"アナンシ","town":"畭町","town_kana":"ハリチョウ","prefecture_code":36},"0013":{"zip_code":"7740013","prefecture":"徳島県","prefecture_kana":"トクシマケン","city":"阿南市","city_kana":"アナンシ","town":"日開野町","town_kana":"ヒガイノチョウ","prefecture_code":36},"0004":{"zip_code":"7740004","prefecture":"徳島県","prefecture_kana":"トクシマケン","city":"阿南市","city_kana":"アナンシ","town":"福村町","town_kana":"フクムラチョウ","prefecture_code":36},"0017":{"zip_code":"7740017","prefecture":"徳島県","prefecture_kana":"トクシマケン","city":"阿南市","city_kana":"アナンシ","town":"見能林町","town_kana":"ミノバヤシチョウ","prefecture_code":36},"0005":{"zip_code":"7740005","prefecture":"徳島県","prefecture_kana":"トクシマケン","city":"阿南市","city_kana":"アナンシ","town":"向原町","town_kana":"ムカイバラチョウ","prefecture_code":36},"0043":{"zip_code":"7740043","prefecture":"徳島県","prefecture_kana":"トクシマケン","city":"阿南市","city_kana":"アナンシ","town":"柳島町","town_kana":"ヤナギジマチョウ","prefecture_code":36},"0042":{"zip_code":"7740042","prefecture":"徳島県","prefecture_kana":"トクシマケン","city":"阿南市","city_kana":"アナンシ","town":"横見町","town_kana":"ヨコミチョウ","prefecture_code":36},"0011":{"zip_code":"7740011","prefecture":"徳島県","prefecture_kana":"トクシマケン","city":"阿南市","city_kana":"アナンシ","town":"領家町","town_kana":"リョウケチョウ","prefecture_code":36}}