{"0000":{"zip_code":"7760000","prefecture":"徳島県","prefecture_kana":"トクシマケン","city":"吉野川市","city_kana":"ヨシノガワシ","town":"以下に掲載がない場合","town_kana":"イカニケイサイガナイバアイ","prefecture_code":36},"0015":{"zip_code":"7760015","prefecture":"徳島県","prefecture_kana":"トクシマケン","city":"吉野川市","city_kana":"ヨシノガワシ","town":"鴨島町粟島","town_kana":"カモジマチョウアワジマ","prefecture_code":36},"0033":{"zip_code":"7760033","prefecture":"徳島県","prefecture_kana":"トクシマケン","city":"吉野川市","city_kana":"ヨシノガワシ","town":"鴨島町飯尾","town_kana":"カモジマチョウイノオ","prefecture_code":36},"0001":{"zip_code":"7760001","prefecture":"徳島県","prefecture_kana":"トクシマケン","city":"吉野川市","city_kana":"ヨシノガワシ","town":"鴨島町牛島","town_kana":"カモジマチョウウシシマ","prefecture_code":36},"0003":{"zip_code":"7760003","prefecture":"徳島県","prefecture_kana":"トクシマケン","city":"吉野川市","city_kana":"ヨシノガワシ","town":"鴨島町内原","town_kana":"カモジマチョウウチバラ","prefecture_code":36},"0002":{"zip_code":"7760002","prefecture":"徳島県","prefecture_kana":"トクシマケン","city":"吉野川市","city_kana":"ヨシノガワシ","town":"鴨島町麻植塚","town_kana":"カモジマチョウオエヅカ","prefecture_code":36},"0037":{"zip_code":"7760037","prefecture":"徳島県","prefecture_kana":"トクシマケン","city":"吉野川市","city_kana":"ヨシノガワシ","town":"鴨島町上浦","town_kana":"カモジマチョウカミウラ","prefecture_code":36},"0010":{"zip_code":"7760010","prefecture":"徳島県","prefecture_kana":"トクシマケン","city":"吉野川市","city_kana":"ヨシノガワシ","town":"鴨島町鴨島","town_kana":"カモジマチョウカモジマ","prefecture_code":36},"0011":{"zip_code":"7760011","prefecture":"徳島県","prefecture_kana":"トクシマケン","city":"吉野川市","city_kana":"ヨシノガワシ","town":"鴨島町鴨島甲","town_kana":"カモジマチョウカモジマコウ","prefecture_code":36},"0012":{"zip_code":"7760012","prefecture":"徳島県","prefecture_kana":"トクシマケン","city":"吉野川市","city_kana":"ヨシノガワシ","town":"鴨島町鴨島乙","town_kana":"カモジマチョウカモジマオツ","prefecture_code":36},"0005":{"zip_code":"7760005","prefecture":"徳島県","prefecture_kana":"トクシマケン","city":"吉野川市","city_kana":"ヨシノガワシ","town":"鴨島町喜来","town_kana":"カモジマチョウキライ","prefecture_code":36},"0006":{"zip_code":"7760006","prefecture":"徳島県","prefecture_kana":"トクシマケン","city":"吉野川市","city_kana":"ヨシノガワシ","town":"鴨島町喜来甲","town_kana":"カモジマチョウキライコウ","prefecture_code":36},"0007":{"zip_code":"7760007","prefecture":"徳島県","prefecture_kana":"トクシマケン","city":"吉野川市","city_kana":"ヨシノガワシ","town":"鴨島町喜来乙","town_kana":"カモジマチョウキライオツ","prefecture_code":36},"0034":{"zip_code":"7760034","prefecture":"徳島県","prefecture_kana":"トクシマケン","city":"吉野川市","city_kana":"ヨシノガワシ","town":"鴨島町呉郷団地","town_kana":"カモジマチョウゴキョウダンチ","prefecture_code":36},"0036":{"zip_code":"7760036","prefecture":"徳島県","prefecture_kana":"トクシマケン","city":"吉野川市","city_kana":"ヨシノガワシ","town":"鴨島町山路","town_kana":"カモジマチョウサンジ","prefecture_code":36},"0031":{"zip_code":"7760031","prefecture":"徳島県","prefecture_kana":"トクシマケン","city":"吉野川市","city_kana":"ヨシノガワシ","town":"鴨島町敷地","town_kana":"カモジマチョウシキジ","prefecture_code":36},"0013":{"zip_code":"7760013","prefecture":"徳島県","prefecture_kana":"トクシマケン","city":"吉野川市","city_kana":"ヨシノガワシ","town":"鴨島町上下島","town_kana":"カモジマチョウジョウゲジマ","prefecture_code":36},"0014":{"zip_code":"7760014","prefecture":"徳島県","prefecture_kana":"トクシマケン","city":"吉野川市","city_kana":"ヨシノガワシ","town":"鴨島町知恵島","town_kana":"カモジマチョウチエジマ","prefecture_code":36},"0004":{"zip_code":"7760004","prefecture":"徳島県","prefecture_kana":"トクシマケン","city":"吉野川市","city_kana":"ヨシノガワシ","town":"鴨島町中島","town_kana":"カモジマチョウナカジマ","prefecture_code":36},"0020":{"zip_code":"7760020","prefecture":"徳島県","prefecture_kana":"トクシマケン","city":"吉野川市","city_kana":"ヨシノガワシ","town":"鴨島町西麻植","town_kana":"カモジマチョウニシオエ","prefecture_code":36},"0032":{"zip_code":"7760032","prefecture":"徳島県","prefecture_kana":"トクシマケン","city":"吉野川市","city_kana":"ヨシノガワシ","town":"鴨島町樋山地","town_kana":"カモジマチョウヒヤマジ","prefecture_code":36},"0035":{"zip_code":"7760035","prefecture":"徳島県","prefecture_kana":"トクシマケン","city":"吉野川市","city_kana":"ヨシノガワシ","town":"鴨島町森藤","town_kana":"カモジマチョウモリトウ","prefecture_code":36}}