{"0000":{"zip_code":"7780000","prefecture":"徳島県","prefecture_kana":"トクシマケン","city":"三好市","city_kana":"ミヨシシ","town":"以下に掲載がない場合","town_kana":"イカニケイサイガナイバアイ","prefecture_code":36},"0012":{"zip_code":"7780012","prefecture":"徳島県","prefecture_kana":"トクシマケン","city":"三好市","city_kana":"ミヨシシ","town":"池田町イケミナミ","town_kana":"イケダチョウイケミナミ","prefecture_code":36},"0014":{"zip_code":"7780014","prefecture":"徳島県","prefecture_kana":"トクシマケン","city":"三好市","city_kana":"ミヨシシ","town":"池田町イタノ","town_kana":"イケダチョウイタノ","prefecture_code":36},"0001":{"zip_code":"7780001","prefecture":"徳島県","prefecture_kana":"トクシマケン","city":"三好市","city_kana":"ミヨシシ","town":"池田町ウエノ","town_kana":"イケダチョウウエノ","prefecture_code":36},"0010":{"zip_code":"7780010","prefecture":"徳島県","prefecture_kana":"トクシマケン","city":"三好市","city_kana":"ミヨシシ","town":"池田町ウエマツ","town_kana":"イケダチョウウエマツ","prefecture_code":36},"5252":{"zip_code":"7785252","prefecture":"徳島県","prefecture_kana":"トクシマケン","city":"三好市","city_kana":"ミヨシシ","town":"池田町馬路","town_kana":"イケダチョウウマジ","prefecture_code":36},"0008":{"zip_code":"7780008","prefecture":"徳島県","prefecture_kana":"トクシマケン","city":"三好市","city_kana":"ミヨシシ","town":"池田町クヤウジ","town_kana":"イケダチョウクヤウジ","prefecture_code":36},"5253":{"zip_code":"7785253","prefecture":"徳島県","prefecture_kana":"トクシマケン","city":"三好市","city_kana":"ミヨシシ","town":"池田町佐野","town_kana":"イケダチョウサノ","prefecture_code":36},"0003":{"zip_code":"7780003","prefecture":"徳島県","prefecture_kana":"トクシマケン","city":"三好市","city_kana":"ミヨシシ","town":"池田町サラダ","town_kana":"イケダチョウサラダ","prefecture_code":36},"0005":{"zip_code":"7780005","prefecture":"徳島県","prefecture_kana":"トクシマケン","city":"三好市","city_kana":"ミヨシシ","town":"池田町シマ","town_kana":"イケダチョウシマ","prefecture_code":36},"0020":{"zip_code":"7780020","prefecture":"徳島県","prefecture_kana":"トクシマケン","city":"三好市","city_kana":"ミヨシシ","town":"池田町州津","town_kana":"イケダチョウシュウヅ","prefecture_code":36},"0004":{"zip_code":"7780004","prefecture":"徳島県","prefecture_kana":"トクシマケン","city":"三好市","city_kana":"ミヨシシ","town":"池田町シンマチ","town_kana":"イケダチョウシンマチ","prefecture_code":36},"0013":{"zip_code":"7780013","prefecture":"徳島県","prefecture_kana":"トクシマケン","city":"三好市","city_kana":"ミヨシシ","town":"池田町シンヤマ","town_kana":"イケダチョウシンヤマ","prefecture_code":36},"0006":{"zip_code":"7780006","prefecture":"徳島県","prefecture_kana":"トクシマケン","city":"三好市","city_kana":"ミヨシシ","town":"池田町トウゲ","town_kana":"イケダチョウトウゲ","prefecture_code":36},"0031":[{"zip_code":"7780031","prefecture":"徳島県","prefecture_kana":"トクシマケン","city":"三好市","city_kana":"ミヨシシ","town":"池田町西山（上久保）","town_kana":"イケダチョウニシヤマ(ウワクボ)","prefecture_code":36},{"zip_code":"7780031","prefecture":"徳島県","prefecture_kana":"トクシマケン","city":"三好市","city_kana":"ミヨシシ","town":"池田町西山（落）","town_kana":"イケダチョウニシヤマ(オチ)","prefecture_code":36},{"zip_code":"7780031","prefecture":"徳島県","prefecture_kana":"トクシマケン","city":"三好市","city_kana":"ミヨシシ","town":"池田町西山（上中尾）","town_kana":"イケダチョウニシヤマ(カミナカオ)","prefecture_code":36},{"zip_code":"7780031","prefecture":"徳島県","prefecture_kana":"トクシマケン","city":"三好市","city_kana":"ミヨシシ","town":"池田町西山（谷浦）","town_kana":"イケダチョウニシヤマ(タニウラ)","prefecture_code":36},{"zip_code":"7780031","prefecture":"徳島県","prefecture_kana":"トクシマケン","city":"三好市","city_kana":"ミヨシシ","town":"池田町西山（津寺）","town_kana":"イケダチョウニシヤマ(ツデラ)","prefecture_code":36},{"zip_code":"7780031","prefecture":"徳島県","prefecture_kana":"トクシマケン","city":"三好市","city_kana":"ミヨシシ","town":"池田町西山（坪尻）","town_kana":"イケダチョウニシヤマ(ツボジリ)","prefecture_code":36},{"zip_code":"7780031","prefecture":"徳島県","prefecture_kana":"トクシマケン","city":"三好市","city_kana":"ミヨシシ","town":"池田町西山（中尾）","town_kana":"イケダチョウニシヤマ(ナカオ)","prefecture_code":36},{"zip_code":"7780031","prefecture":"徳島県","prefecture_kana":"トクシマケン","city":"三好市","city_kana":"ミヨシシ","town":"池田町西山（西ノ岡）","town_kana":"イケダチョウニシヤマ(ニシノオカ)","prefecture_code":36},{"zip_code":"7780031","prefecture":"徳島県","prefecture_kana":"トクシマケン","city":"三好市","city_kana":"ミヨシシ","town":"池田町西山（船原）","town_kana":"イケダチョウニシヤマ(フナバラ)","prefecture_code":36},{"zip_code":"7780031","prefecture":"徳島県","prefecture_kana":"トクシマケン","city":"三好市","city_kana":"ミヨシシ","town":"池田町西山（横佐古）","town_kana":"イケダチョウニシヤマ(ヨコサコ)","prefecture_code":36}],"0032":[{"zip_code":"7780032","prefecture":"徳島県","prefecture_kana":"トクシマケン","city":"三好市","city_kana":"ミヨシシ","town":"池田町西山（蔭）","town_kana":"イケダチョウニシヤマ(カゲ)","prefecture_code":36},{"zip_code":"7780032","prefecture":"徳島県","prefecture_kana":"トクシマケン","city":"三好市","city_kana":"ミヨシシ","town":"池田町西山（樫ノ下）","town_kana":"イケダチョウニシヤマ(カシノシタ)","prefecture_code":36},{"zip_code":"7780032","prefecture":"徳島県","prefecture_kana":"トクシマケン","city":"三好市","city_kana":"ミヨシシ","town":"池田町西山（岸ノ上）","town_kana":"イケダチョウニシヤマ(キシノウエ)","prefecture_code":36},{"zip_code":"7780032","prefecture":"徳島県","prefecture_kana":"トクシマケン","city":"三好市","city_kana":"ミヨシシ","town":"池田町西山（込野）","town_kana":"イケダチョウニシヤマ(コミノ)","prefecture_code":36},{"zip_code":"7780032","prefecture":"徳島県","prefecture_kana":"トクシマケン","city":"三好市","city_kana":"ミヨシシ","town":"池田町西山（下ノ浦）","town_kana":"イケダチョウニシヤマ(シモノウラ)","prefecture_code":36},{"zip_code":"7780032","prefecture":"徳島県","prefecture_kana":"トクシマケン","city":"三好市","city_kana":"ミヨシシ","town":"池田町西山（乳ノ木）","town_kana":"イケダチョウニシヤマ(チチノキ)","prefecture_code":36},{"zip_code":"7780032","prefecture":"徳島県","prefecture_kana":"トクシマケン","city":"三好市","city_kana":"ミヨシシ","town":"池田町西山（乳ノ木道北）","town_kana":"イケダチョウニシヤマ(チチノキミチキタ)","prefecture_code":36},{"zip_code":"7780032","prefecture":"徳島県","prefecture_kana":"トクシマケン","city":"三好市","city_kana":"ミヨシシ","town":"池田町西山（中塚）","town_kana":"イケダチョウニシヤマ(ナカツカ)","prefecture_code":36},{"zip_code":"7780032","prefecture":"徳島県","prefecture_kana":"トクシマケン","city":"三好市","city_kana":"ミヨシシ","town":"池田町西山（西谷）","town_kana":"イケダチョウニシヤマ(ニシタニ)","prefecture_code":36},{"zip_code":"7780032","prefecture":"徳島県","prefecture_kana":"トクシマケン","city":"三好市","city_kana":"ミヨシシ","town":"池田町西山（登リ尾）","town_kana":"イケダチョウニシヤマ(ノボリオ)","prefecture_code":36},{"zip_code":"7780032","prefecture":"徳島県","prefecture_kana":"トクシマケン","city":"三好市","city_kana":"ミヨシシ","town":"池田町西山（宮ノ西）","town_kana":"イケダチョウニシヤマ(ミヤノニシ)","prefecture_code":36},{"zip_code":"7780032","prefecture":"徳島県","prefecture_kana":"トクシマケン","city":"三好市","city_kana":"ミヨシシ","town":"池田町西山（宮ノ東）","town_kana":"イケダチョウニシヤマ(ミヤノヒガシ)","prefecture_code":36}],"0040":{"zip_code":"7780040","prefecture":"徳島県","prefecture_kana":"トクシマケン","city":"三好市","city_kana":"ミヨシシ","town":"池田町西山（その他）","town_kana":"イケダチョウニシヤマ(ソノタ)","prefecture_code":36},"5251":{"zip_code":"7785251","prefecture":"徳島県","prefecture_kana":"トクシマケン","city":"三好市","city_kana":"ミヨシシ","town":"池田町白地","town_kana":"イケダチョウハクチ","prefecture_code":36},"0011":{"zip_code":"7780011","prefecture":"徳島県","prefecture_kana":"トクシマケン","city":"三好市","city_kana":"ミヨシシ","town":"池田町ハヤシ","town_kana":"イケダチョウハヤシ","prefecture_code":36},"0002":{"zip_code":"7780002","prefecture":"徳島県","prefecture_kana":"トクシマケン","city":"三好市","city_kana":"ミヨシシ","town":"池田町マチ","town_kana":"イケダチョウマチ","prefecture_code":36},"0165":{"zip_code":"7780165","prefecture":"徳島県","prefecture_kana":"トクシマケン","city":"三好市","city_kana":"ミヨシシ","town":"池田町松尾（祖谷温泉、松本３６７−２番地）","town_kana":"イケダチョウマツオ(イヤオンセン、マツモト367-2バンチ)","prefecture_code":36},"0009":{"zip_code":"7780009","prefecture":"徳島県","prefecture_kana":"トクシマケン","city":"三好市","city_kana":"ミヨシシ","town":"池田町ヤサン","town_kana":"イケダチョウヤサン","prefecture_code":36},"0007":{"zip_code":"7780007","prefecture":"徳島県","prefecture_kana":"トクシマケン","city":"三好市","city_kana":"ミヨシシ","town":"池田町ヤマダ","town_kana":"イケダチョウヤマダ","prefecture_code":36},"0104":[{"zip_code":"7780104","prefecture":"徳島県","prefecture_kana":"トクシマケン","city":"三好市","city_kana":"ミヨシシ","town":"西祖谷山村吾橋","town_kana":"ニシイヤヤマムラアハシ","prefecture_code":36},{"zip_code":"7780104","prefecture":"徳島県","prefecture_kana":"トクシマケン","city":"三好市","city_kana":"ミヨシシ","town":"西祖谷山村榎","town_kana":"ニシイヤヤマムラエノキ","prefecture_code":36},{"zip_code":"7780104","prefecture":"徳島県","prefecture_kana":"トクシマケン","city":"三好市","city_kana":"ミヨシシ","town":"西祖谷山村上吾橋","town_kana":"ニシイヤヤマムラカミアハシ","prefecture_code":36},{"zip_code":"7780104","prefecture":"徳島県","prefecture_kana":"トクシマケン","city":"三好市","city_kana":"ミヨシシ","town":"西祖谷山村下吾橋","town_kana":"ニシイヤヤマムラシモアハシ","prefecture_code":36},{"zip_code":"7780104","prefecture":"徳島県","prefecture_kana":"トクシマケン","city":"三好市","city_kana":"ミヨシシ","town":"西祖谷山村土日浦","town_kana":"ニシイヤヤマムラツチヒウラ","prefecture_code":36},{"zip_code":"7780104","prefecture":"徳島県","prefecture_kana":"トクシマケン","city":"三好市","city_kana":"ミヨシシ","town":"西祖谷山村東山","town_kana":"ニシイヤヤマムラヒガシヤマ","prefecture_code":36},{"zip_code":"7780104","prefecture":"徳島県","prefecture_kana":"トクシマケン","city":"三好市","city_kana":"ミヨシシ","town":"西祖谷山村南山","town_kana":"ニシイヤヤマムラミナミヤマ","prefecture_code":36}],"0103":{"zip_code":"7780103","prefecture":"徳島県","prefecture_kana":"トクシマケン","city":"三好市","city_kana":"ミヨシシ","town":"西祖谷山村有瀬","town_kana":"ニシイヤヤマムラアルセ","prefecture_code":36},"0101":[{"zip_code":"7780101","prefecture":"徳島県","prefecture_kana":"トクシマケン","city":"三好市","city_kana":"ミヨシシ","town":"西祖谷山村一宇","town_kana":"ニシイヤヤマムライチウ","prefecture_code":36},{"zip_code":"7780101","prefecture":"徳島県","prefecture_kana":"トクシマケン","city":"三好市","city_kana":"ミヨシシ","town":"西祖谷山村尾井ノ内","town_kana":"ニシイヤヤマムラオイノウチ","prefecture_code":36},{"zip_code":"7780101","prefecture":"徳島県","prefecture_kana":"トクシマケン","city":"三好市","city_kana":"ミヨシシ","town":"西祖谷山村重末","town_kana":"ニシイヤヤマムラシゲスエ","prefecture_code":36},{"zip_code":"7780101","prefecture":"徳島県","prefecture_kana":"トクシマケン","city":"三好市","city_kana":"ミヨシシ","town":"西祖谷山村田ノ内","town_kana":"ニシイヤヤマムラタノウチ","prefecture_code":36},{"zip_code":"7780101","prefecture":"徳島県","prefecture_kana":"トクシマケン","city":"三好市","city_kana":"ミヨシシ","town":"西祖谷山村戸ノ谷","town_kana":"ニシイヤヤマムラトノタニ","prefecture_code":36},{"zip_code":"7780101","prefecture":"徳島県","prefecture_kana":"トクシマケン","city":"三好市","city_kana":"ミヨシシ","town":"西祖谷山村眠谷","town_kana":"ニシイヤヤマムラネムリダニ","prefecture_code":36},{"zip_code":"7780101","prefecture":"徳島県","prefecture_kana":"トクシマケン","city":"三好市","city_kana":"ミヨシシ","town":"西祖谷山村冥地","town_kana":"ニシイヤヤマムラミョウジ","prefecture_code":36}],"0102":[{"zip_code":"7780102","prefecture":"徳島県","prefecture_kana":"トクシマケン","city":"三好市","city_kana":"ミヨシシ","town":"西祖谷山村今久保","town_kana":"ニシイヤヤマムライマクボ","prefecture_code":36},{"zip_code":"7780102","prefecture":"徳島県","prefecture_kana":"トクシマケン","city":"三好市","city_kana":"ミヨシシ","town":"西祖谷山村閑定","town_kana":"ニシイヤヤマムラカンジョウ","prefecture_code":36},{"zip_code":"7780102","prefecture":"徳島県","prefecture_kana":"トクシマケン","city":"三好市","city_kana":"ミヨシシ","town":"西祖谷山村善徳","town_kana":"ニシイヤヤマムラゼントク","prefecture_code":36},{"zip_code":"7780102","prefecture":"徳島県","prefecture_kana":"トクシマケン","city":"三好市","city_kana":"ミヨシシ","town":"西祖谷山村中尾","town_kana":"ニシイヤヤマムラナカオ","prefecture_code":36}],"0105":[{"zip_code":"7780105","prefecture":"徳島県","prefecture_kana":"トクシマケン","city":"三好市","city_kana":"ミヨシシ","town":"西祖谷山村後山","town_kana":"ニシイヤヤマムラウシロヤマ","prefecture_code":36},{"zip_code":"7780105","prefecture":"徳島県","prefecture_kana":"トクシマケン","city":"三好市","city_kana":"ミヨシシ","town":"西祖谷山村後山西","town_kana":"ニシイヤヤマムラウシロヤマニシ","prefecture_code":36},{"zip_code":"7780105","prefecture":"徳島県","prefecture_kana":"トクシマケン","city":"三好市","city_kana":"ミヨシシ","town":"西祖谷山村後山向","town_kana":"ニシイヤヤマムラウシロヤマムカイ","prefecture_code":36},{"zip_code":"7780105","prefecture":"徳島県","prefecture_kana":"トクシマケン","city":"三好市","city_kana":"ミヨシシ","town":"西祖谷山村徳善","town_kana":"ニシイヤヤマムラトクゼン","prefecture_code":36},{"zip_code":"7780105","prefecture":"徳島県","prefecture_kana":"トクシマケン","city":"三好市","city_kana":"ミヨシシ","town":"西祖谷山村徳善北","town_kana":"ニシイヤヤマムラトクゼンキタ","prefecture_code":36},{"zip_code":"7780105","prefecture":"徳島県","prefecture_kana":"トクシマケン","city":"三好市","city_kana":"ミヨシシ","town":"西祖谷山村徳善西","town_kana":"ニシイヤヤマムラトクゼンニシ","prefecture_code":36},{"zip_code":"7780105","prefecture":"徳島県","prefecture_kana":"トクシマケン","city":"三好市","city_kana":"ミヨシシ","town":"西祖谷山村西岡","town_kana":"ニシイヤヤマムラニシオカ","prefecture_code":36},{"zip_code":"7780105","prefecture":"徳島県","prefecture_kana":"トクシマケン","city":"三好市","city_kana":"ミヨシシ","town":"西祖谷山村東西岡","town_kana":"ニシイヤヤマムラヒガシニシオカ","prefecture_code":36}],"0205":[{"zip_code":"7780205","prefecture":"徳島県","prefecture_kana":"トクシマケン","city":"三好市","city_kana":"ミヨシシ","town":"東祖谷阿佐","town_kana":"ヒガシイヤアサ","prefecture_code":36},{"zip_code":"7780205","prefecture":"徳島県","prefecture_kana":"トクシマケン","city":"三好市","city_kana":"ミヨシシ","town":"東祖谷小川","town_kana":"ヒガシイヤオガワ","prefecture_code":36},{"zip_code":"7780205","prefecture":"徳島県","prefecture_kana":"トクシマケン","city":"三好市","city_kana":"ミヨシシ","town":"東祖谷樫尾","town_kana":"ヒガシイヤカシオ","prefecture_code":36},{"zip_code":"7780205","prefecture":"徳島県","prefecture_kana":"トクシマケン","city":"三好市","city_kana":"ミヨシシ","town":"東祖谷古味","town_kana":"ヒガシイヤコミ","prefecture_code":36},{"zip_code":"7780205","prefecture":"徳島県","prefecture_kana":"トクシマケン","city":"三好市","city_kana":"ミヨシシ","town":"東祖谷新居屋","town_kana":"ヒガシイヤニイヤ","prefecture_code":36},{"zip_code":"7780205","prefecture":"徳島県","prefecture_kana":"トクシマケン","city":"三好市","city_kana":"ミヨシシ","town":"東祖谷麦生土","town_kana":"ヒガシイヤムジュウト","prefecture_code":36},{"zip_code":"7780205","prefecture":"徳島県","prefecture_kana":"トクシマケン","city":"三好市","city_kana":"ミヨシシ","town":"東祖谷元井","town_kana":"ヒガシイヤモットイ","prefecture_code":36}],"0206":[{"zip_code":"7780206","prefecture":"徳島県","prefecture_kana":"トクシマケン","city":"三好市","city_kana":"ミヨシシ","town":"東祖谷今井","town_kana":"ヒガシイヤイマイ","prefecture_code":36},{"zip_code":"7780206","prefecture":"徳島県","prefecture_kana":"トクシマケン","city":"三好市","city_kana":"ミヨシシ","town":"東祖谷小島","town_kana":"ヒガシイヤオシマ","prefecture_code":36},{"zip_code":"7780206","prefecture":"徳島県","prefecture_kana":"トクシマケン","city":"三好市","city_kana":"ミヨシシ","town":"東祖谷佐野","town_kana":"ヒガシイヤサノ","prefecture_code":36},{"zip_code":"7780206","prefecture":"徳島県","prefecture_kana":"トクシマケン","city":"三好市","city_kana":"ミヨシシ","town":"東祖谷高野","town_kana":"ヒガシイヤタカノ","prefecture_code":36},{"zip_code":"7780206","prefecture":"徳島県","prefecture_kana":"トクシマケン","city":"三好市","city_kana":"ミヨシシ","town":"東祖谷釣井","town_kana":"ヒガシイヤツルイ","prefecture_code":36},{"zip_code":"7780206","prefecture":"徳島県","prefecture_kana":"トクシマケン","city":"三好市","city_kana":"ミヨシシ","town":"東祖谷和田","town_kana":"ヒガシイヤワダ","prefecture_code":36}],"0204":[{"zip_code":"7780204","prefecture":"徳島県","prefecture_kana":"トクシマケン","city":"三好市","city_kana":"ミヨシシ","town":"東祖谷大枝","town_kana":"ヒガシイヤオオエダ","prefecture_code":36},{"zip_code":"7780204","prefecture":"徳島県","prefecture_kana":"トクシマケン","city":"三好市","city_kana":"ミヨシシ","town":"東祖谷大西","town_kana":"ヒガシイヤオオニシ","prefecture_code":36},{"zip_code":"7780204","prefecture":"徳島県","prefecture_kana":"トクシマケン","city":"三好市","city_kana":"ミヨシシ","town":"東祖谷京上","town_kana":"ヒガシイヤキョウジョウ","prefecture_code":36},{"zip_code":"7780204","prefecture":"徳島県","prefecture_kana":"トクシマケン","city":"三好市","city_kana":"ミヨシシ","town":"東祖谷若林","town_kana":"ヒガシイヤワカバヤシ","prefecture_code":36}],"0203":[{"zip_code":"7780203","prefecture":"徳島県","prefecture_kana":"トクシマケン","city":"三好市","city_kana":"ミヨシシ","town":"東祖谷奥の井","town_kana":"ヒガシイヤオクノイ","prefecture_code":36},{"zip_code":"7780203","prefecture":"徳島県","prefecture_kana":"トクシマケン","city":"三好市","city_kana":"ミヨシシ","town":"東祖谷釜ケ谷","town_kana":"ヒガシイヤカマガタニ","prefecture_code":36},{"zip_code":"7780203","prefecture":"徳島県","prefecture_kana":"トクシマケン","city":"三好市","city_kana":"ミヨシシ","town":"東祖谷九鬼","town_kana":"ヒガシイヤクキ","prefecture_code":36},{"zip_code":"7780203","prefecture":"徳島県","prefecture_kana":"トクシマケン","city":"三好市","city_kana":"ミヨシシ","town":"東祖谷栗枝渡","town_kana":"ヒガシイヤクリスド","prefecture_code":36},{"zip_code":"7780203","prefecture":"徳島県","prefecture_kana":"トクシマケン","city":"三好市","city_kana":"ミヨシシ","town":"東祖谷下瀬","town_kana":"ヒガシイヤシモセ","prefecture_code":36},{"zip_code":"7780203","prefecture":"徳島県","prefecture_kana":"トクシマケン","city":"三好市","city_kana":"ミヨシシ","town":"東祖谷中上","town_kana":"ヒガシイヤナカウエ","prefecture_code":36},{"zip_code":"7780203","prefecture":"徳島県","prefecture_kana":"トクシマケン","city":"三好市","city_kana":"ミヨシシ","town":"東祖谷西山","town_kana":"ヒガシイヤニシヤマ","prefecture_code":36},{"zip_code":"7780203","prefecture":"徳島県","prefecture_kana":"トクシマケン","city":"三好市","city_kana":"ミヨシシ","town":"東祖谷林","town_kana":"ヒガシイヤハヤシ","prefecture_code":36}],"0202":[{"zip_code":"7780202","prefecture":"徳島県","prefecture_kana":"トクシマケン","city":"三好市","city_kana":"ミヨシシ","town":"東祖谷落合","town_kana":"ヒガシイヤオチアイ","prefecture_code":36},{"zip_code":"7780202","prefecture":"徳島県","prefecture_kana":"トクシマケン","city":"三好市","city_kana":"ミヨシシ","town":"東祖谷久保","town_kana":"ヒガシイヤクボ","prefecture_code":36}],"0201":[{"zip_code":"7780201","prefecture":"徳島県","prefecture_kana":"トクシマケン","city":"三好市","city_kana":"ミヨシシ","town":"東祖谷菅生","town_kana":"ヒガシイヤスゲオイ","prefecture_code":36},{"zip_code":"7780201","prefecture":"徳島県","prefecture_kana":"トクシマケン","city":"三好市","city_kana":"ミヨシシ","town":"東祖谷見ノ越","town_kana":"ヒガシイヤミノコシ","prefecture_code":36}],"5254":{"zip_code":"7785254","prefecture":"徳島県","prefecture_kana":"トクシマケン","city":"三好市","city_kana":"ミヨシシ","town":"山城町佐連（ミネ畑）","town_kana":"ヤマシロチョウサレ(ミネバタ)","prefecture_code":36}}