{"0000":{"zip_code":"7800000","prefecture":"高知県","prefecture_kana":"コウチケン","city":"高知市","city_kana":"コウチシ","town":"","town_kana":"","prefecture_code":39},"0054":{"zip_code":"7800054","prefecture":"高知県","prefecture_kana":"コウチケン","city":"高知市","city_kana":"コウチシ","town":"相生町","town_kana":"アイオイチョウ","prefecture_code":39},"0813":{"zip_code":"7800813","prefecture":"高知県","prefecture_kana":"コウチケン","city":"高知市","city_kana":"コウチシ","town":"青柳町","town_kana":"アオヤギチョウ","prefecture_code":39},"0936":{"zip_code":"7800936","prefecture":"高知県","prefecture_kana":"コウチケン","city":"高知市","city_kana":"コウチシ","town":"赤石町","town_kana":"アカイシチョウ","prefecture_code":39},"8072":{"zip_code":"7808072","prefecture":"高知県","prefecture_kana":"コウチケン","city":"高知市","city_kana":"コウチシ","town":"曙町","town_kana":"アケボノチョウ","prefecture_code":39},"8061":{"zip_code":"7808061","prefecture":"高知県","prefecture_kana":"コウチケン","city":"高知市","city_kana":"コウチシ","town":"朝倉甲","town_kana":"アサクラコウ","prefecture_code":39},"8062":{"zip_code":"7808062","prefecture":"高知県","prefecture_kana":"コウチケン","city":"高知市","city_kana":"コウチシ","town":"朝倉乙","town_kana":"アサクラオツ","prefecture_code":39},"8063":{"zip_code":"7808063","prefecture":"高知県","prefecture_kana":"コウチケン","city":"高知市","city_kana":"コウチシ","town":"朝倉丙","town_kana":"アサクラヘイ","prefecture_code":39},"8064":{"zip_code":"7808064","prefecture":"高知県","prefecture_kana":"コウチケン","city":"高知市","city_kana":"コウチシ","town":"朝倉丁","town_kana":"アサクラテイ","prefecture_code":39},"8065":{"zip_code":"7808065","prefecture":"高知県","prefecture_kana":"コウチケン","city":"高知市","city_kana":"コウチシ","town":"朝倉戊","town_kana":"アサクラボ","prefecture_code":39},"8066":{"zip_code":"7808066","prefecture":"高知県","prefecture_kana":"コウチケン","city":"高知市","city_kana":"コウチシ","town":"朝倉己","town_kana":"アサクラキ","prefecture_code":39},"8077":{"zip_code":"7808077","prefecture":"高知県","prefecture_kana":"コウチケン","city":"高知市","city_kana":"コウチシ","town":"朝倉西町","town_kana":"アサクラニシマチ","prefecture_code":39},"8076":{"zip_code":"7808076","prefecture":"高知県","prefecture_kana":"コウチケン","city":"高知市","city_kana":"コウチシ","town":"朝倉東町","town_kana":"アサクラヒガシマチ","prefecture_code":39},"8075":{"zip_code":"7808075","prefecture":"高知県","prefecture_kana":"コウチケン","city":"高知市","city_kana":"コウチシ","town":"朝倉南町","town_kana":"アサクラミナミマチ","prefecture_code":39},"8074":{"zip_code":"7808074","prefecture":"高知県","prefecture_kana":"コウチケン","city":"高知市","city_kana":"コウチシ","town":"朝倉横町","town_kana":"アサクラヨコマチ","prefecture_code":39},"8073":{"zip_code":"7808073","prefecture":"高知県","prefecture_kana":"コウチケン","city":"高知市","city_kana":"コウチシ","town":"朝倉本町","town_kana":"アサクラホンマチ","prefecture_code":39},"0938":{"zip_code":"7800938","prefecture":"高知県","prefecture_kana":"コウチケン","city":"高知市","city_kana":"コウチシ","town":"旭駅前町","town_kana":"アサヒエキマエチョウ","prefecture_code":39},"0943":{"zip_code":"7800943","prefecture":"高知県","prefecture_kana":"コウチケン","city":"高知市","city_kana":"コウチシ","town":"旭上町","town_kana":"アサヒカミマチ","prefecture_code":39},"0955":{"zip_code":"7800955","prefecture":"高知県","prefecture_kana":"コウチケン","city":"高知市","city_kana":"コウチシ","town":"旭天神町","town_kana":"アサヒテンジンチョウ","prefecture_code":39},"0935":{"zip_code":"7800935","prefecture":"高知県","prefecture_kana":"コウチケン","city":"高知市","city_kana":"コウチシ","town":"旭町","town_kana":"アサヒマチ","prefecture_code":39},"0051":{"zip_code":"7800051","prefecture":"高知県","prefecture_kana":"コウチケン","city":"高知市","city_kana":"コウチシ","town":"愛宕町","town_kana":"アタゴマチ","prefecture_code":39},"0025":{"zip_code":"7800025","prefecture":"高知県","prefecture_kana":"コウチケン","city":"高知市","city_kana":"コウチシ","town":"愛宕山","town_kana":"アタゴヤマ","prefecture_code":39},"0027":{"zip_code":"7800027","prefecture":"高知県","prefecture_kana":"コウチケン","city":"高知市","city_kana":"コウチシ","town":"愛宕山南町","town_kana":"アタゴヤマミナミマチ","prefecture_code":39},"0921":{"zip_code":"7800921","prefecture":"高知県","prefecture_kana":"コウチケン","city":"高知市","city_kana":"コウチシ","town":"井口町","town_kana":"イグチチョウ","prefecture_code":39},"8038":{"zip_code":"7808038","prefecture":"高知県","prefecture_kana":"コウチケン","city":"高知市","city_kana":"コウチシ","town":"石立町","town_kana":"イシタテチョウ","prefecture_code":39},"0064":{"zip_code":"7800064","prefecture":"高知県","prefecture_kana":"コウチケン","city":"高知市","city_kana":"コウチシ","town":"和泉町","town_kana":"イズミチョウ","prefecture_code":39},"0046":{"zip_code":"7800046","prefecture":"高知県","prefecture_kana":"コウチケン","city":"高知市","city_kana":"コウチシ","town":"伊勢崎町","town_kana":"イセザキチョウ","prefecture_code":39},"0814":{"zip_code":"7800814","prefecture":"高知県","prefecture_kana":"コウチケン","city":"高知市","city_kana":"コウチシ","town":"稲荷町","town_kana":"イナリチョウ","prefecture_code":39},"0041":{"zip_code":"7800041","prefecture":"高知県","prefecture_kana":"コウチケン","city":"高知市","city_kana":"コウチシ","town":"入明町","town_kana":"イリアケチョウ","prefecture_code":39},"0948":{"zip_code":"7800948","prefecture":"高知県","prefecture_kana":"コウチケン","city":"高知市","city_kana":"コウチシ","town":"岩ケ淵","town_kana":"イワガブチ","prefecture_code":39},"8083":{"zip_code":"7808083","prefecture":"高知県","prefecture_kana":"コウチケン","city":"高知市","city_kana":"コウチシ","town":"鵜来巣","town_kana":"ウグルス","prefecture_code":39},"8008":{"zip_code":"7808008","prefecture":"高知県","prefecture_kana":"コウチケン","city":"高知市","city_kana":"コウチシ","town":"潮新町","town_kana":"ウシオシンマチ","prefecture_code":39},"0031":{"zip_code":"7800031","prefecture":"高知県","prefecture_kana":"コウチケン","city":"高知市","city_kana":"コウチシ","town":"宇津野","town_kana":"ウツノ","prefecture_code":39},"8011":{"zip_code":"7808011","prefecture":"高知県","prefecture_kana":"コウチケン","city":"高知市","city_kana":"コウチシ","town":"梅ノ辻","town_kana":"ウメノツジ","prefecture_code":39},"0844":{"zip_code":"7800844","prefecture":"高知県","prefecture_kana":"コウチケン","city":"高知市","city_kana":"コウチシ","town":"永国寺町","town_kana":"エイコクジチョウ","prefecture_code":39},"0053":{"zip_code":"7800053","prefecture":"高知県","prefecture_kana":"コウチケン","city":"高知市","city_kana":"コウチシ","town":"駅前町","town_kana":"エキマエチョウ","prefecture_code":39},"0928":{"zip_code":"7800928","prefecture":"高知県","prefecture_kana":"コウチケン","city":"高知市","city_kana":"コウチシ","town":"越前町","town_kana":"エチゼンマチ","prefecture_code":39},"0086":{"zip_code":"7800086","prefecture":"高知県","prefecture_kana":"コウチケン","city":"高知市","city_kana":"コウチシ","town":"海老ノ丸","town_kana":"エビノマル","prefecture_code":39},"0974":{"zip_code":"7800974","prefecture":"高知県","prefecture_kana":"コウチケン","city":"高知市","city_kana":"コウチシ","town":"円行寺","town_kana":"エンギョウジ","prefecture_code":39},"0842":{"zip_code":"7800842","prefecture":"高知県","prefecture_kana":"コウチケン","city":"高知市","city_kana":"コウチシ","town":"追手筋","town_kana":"オウテスジ","prefecture_code":39},"0052":{"zip_code":"7800052","prefecture":"高知県","prefecture_kana":"コウチケン","city":"高知市","city_kana":"コウチシ","town":"大川筋","town_kana":"オオカワスジ","prefecture_code":39},"0947":{"zip_code":"7800947","prefecture":"高知県","prefecture_kana":"コウチケン","city":"高知市","city_kana":"コウチシ","town":"大谷","town_kana":"オオタニ","prefecture_code":39},"8085":{"zip_code":"7808085","prefecture":"高知県","prefecture_kana":"コウチケン","city":"高知市","city_kana":"コウチシ","town":"大谷公園町","town_kana":"オオタニコウエンチョウ","prefecture_code":39},"8031":{"zip_code":"7808031","prefecture":"高知県","prefecture_kana":"コウチケン","city":"高知市","city_kana":"コウチシ","town":"大原町","town_kana":"オオハラチョウ","prefecture_code":39},"0801":{"zip_code":"7800801","prefecture":"高知県","prefecture_kana":"コウチケン","city":"高知市","city_kana":"コウチシ","town":"小倉町","town_kana":"オクラチョウ","prefecture_code":39},"0915":{"zip_code":"7800915","prefecture":"高知県","prefecture_kana":"コウチケン","city":"高知市","city_kana":"コウチシ","town":"小津町","town_kana":"オヅチョウ","prefecture_code":39},"0841":{"zip_code":"7800841","prefecture":"高知県","prefecture_kana":"コウチケン","city":"高知市","city_kana":"コウチシ","town":"帯屋町","town_kana":"オビヤマチ","prefecture_code":39},"0032":{"zip_code":"7800032","prefecture":"高知県","prefecture_kana":"コウチケン","city":"高知市","city_kana":"コウチシ","town":"加賀野井","town_kana":"カガノイ","prefecture_code":39},"0933":{"zip_code":"7800933","prefecture":"高知県","prefecture_kana":"コウチケン","city":"高知市","city_kana":"コウチシ","town":"鏡川町","town_kana":"カガミガワチョウ","prefecture_code":39},"0946":{"zip_code":"7800946","prefecture":"高知県","prefecture_kana":"コウチケン","city":"高知市","city_kana":"コウチシ","town":"上本宮町","town_kana":"カミホングウチョウ","prefecture_code":39},"0901":{"zip_code":"7800901","prefecture":"高知県","prefecture_kana":"コウチケン","city":"高知市","city_kana":"コウチシ","town":"上町","town_kana":"カミマチ","prefecture_code":39},"8052":{"zip_code":"7808052","prefecture":"高知県","prefecture_kana":"コウチケン","city":"高知市","city_kana":"コウチシ","town":"鴨部","town_kana":"カモベ","prefecture_code":39},"8050":{"zip_code":"7808050","prefecture":"高知県","prefecture_kana":"コウチケン","city":"高知市","city_kana":"コウチシ","town":"鴨部","town_kana":"カモベ","prefecture_code":39},"8051":{"zip_code":"7808051","prefecture":"高知県","prefecture_kana":"コウチケン","city":"高知市","city_kana":"コウチシ","town":"鴨部上町","town_kana":"カモベカミマチ","prefecture_code":39},"8071":{"zip_code":"7808071","prefecture":"高知県","prefecture_kana":"コウチケン","city":"高知市","city_kana":"コウチシ","town":"鴨部高町","town_kana":"カモベタカマチ","prefecture_code":39},"0994":{"zip_code":"7800994","prefecture":"高知県","prefecture_kana":"コウチケン","city":"高知市","city_kana":"コウチシ","town":"唐岩","town_kana":"カライワ","prefecture_code":39},"0073":{"zip_code":"7800073","prefecture":"高知県","prefecture_kana":"コウチケン","city":"高知市","city_kana":"コウチシ","town":"北金田","town_kana":"キタカナダ","prefecture_code":39},"0081":{"zip_code":"7800081","prefecture":"高知県","prefecture_kana":"コウチケン","city":"高知市","city_kana":"コウチシ","town":"北川添","town_kana":"キタカワゾエ","prefecture_code":39},"0088":{"zip_code":"7800088","prefecture":"高知県","prefecture_kana":"コウチケン","city":"高知市","city_kana":"コウチシ","town":"北久保","town_kana":"キタクボ","prefecture_code":39},"0083":{"zip_code":"7800083","prefecture":"高知県","prefecture_kana":"コウチケン","city":"高知市","city_kana":"コウチシ","town":"北御座","town_kana":"キタゴザ","prefecture_code":39},"8003":{"zip_code":"7808003","prefecture":"高知県","prefecture_kana":"コウチケン","city":"高知市","city_kana":"コウチシ","town":"北新田町","town_kana":"キタシンタチョウ","prefecture_code":39},"0022":{"zip_code":"7800022","prefecture":"高知県","prefecture_kana":"コウチケン","city":"高知市","city_kana":"コウチシ","town":"北秦泉寺","town_kana":"キタジンゼンジ","prefecture_code":39},"8028":{"zip_code":"7808028","prefecture":"高知県","prefecture_kana":"コウチケン","city":"高知市","city_kana":"コウチシ","town":"北高見町","town_kana":"キタタカミチョウ","prefecture_code":39},"8019":{"zip_code":"7808019","prefecture":"高知県","prefecture_kana":"コウチケン","city":"高知市","city_kana":"コウチシ","town":"北竹島町","town_kana":"キタタケシマチョウ","prefecture_code":39},"8026":{"zip_code":"7808026","prefecture":"高知県","prefecture_kana":"コウチケン","city":"高知市","city_kana":"コウチシ","town":"北中山","town_kana":"キタナカヤマ","prefecture_code":39},"0913":{"zip_code":"7800913","prefecture":"高知県","prefecture_kana":"コウチケン","city":"高知市","city_kana":"コウチシ","town":"北八反町","town_kana":"キタハッタンチョウ","prefecture_code":39},"0956":{"zip_code":"7800956","prefecture":"高知県","prefecture_kana":"コウチケン","city":"高知市","city_kana":"コウチシ","town":"北端町","town_kana":"キタバタチョウ","prefecture_code":39},"0056":{"zip_code":"7800056","prefecture":"高知県","prefecture_kana":"コウチケン","city":"高知市","city_kana":"コウチシ","town":"北本町","town_kana":"キタホンマチ","prefecture_code":39},"0832":{"zip_code":"7800832","prefecture":"高知県","prefecture_kana":"コウチケン","city":"高知市","city_kana":"コウチシ","town":"九反田","town_kana":"クタンダ","prefecture_code":39},"0963":{"zip_code":"7800963","prefecture":"高知県","prefecture_kana":"コウチケン","city":"高知市","city_kana":"コウチシ","town":"口細山","town_kana":"クチホソヤマ","prefecture_code":39},"0001":{"zip_code":"7800001","prefecture":"高知県","prefecture_kana":"コウチケン","city":"高知市","city_kana":"コウチシ","town":"久礼野","town_kana":"クレノ","prefecture_code":39},"8032":{"zip_code":"7808032","prefecture":"高知県","prefecture_kana":"コウチケン","city":"高知市","city_kana":"コウチシ","town":"小石木町","town_kana":"コイシギチョウ","prefecture_code":39},"0811":{"zip_code":"7800811","prefecture":"高知県","prefecture_kana":"コウチケン","city":"高知市","city_kana":"コウチシ","town":"弘化台","town_kana":"コウカダイ","prefecture_code":39},"8033":{"zip_code":"7808033","prefecture":"高知県","prefecture_kana":"コウチケン","city":"高知市","city_kana":"コウチシ","town":"幸崎","town_kana":"コウザキ","prefecture_code":39},"8040":{"zip_code":"7808040","prefecture":"高知県","prefecture_kana":"コウチケン","city":"高知市","city_kana":"コウチシ","town":"神田","town_kana":"コウダ","prefecture_code":39},"8035":{"zip_code":"7808035","prefecture":"高知県","prefecture_kana":"コウチケン","city":"高知市","city_kana":"コウチシ","town":"河ノ瀬町","town_kana":"ゴウノセチョウ","prefecture_code":39},"0055":{"zip_code":"7800055","prefecture":"高知県","prefecture_kana":"コウチケン","city":"高知市","city_kana":"コウチシ","town":"江陽町","town_kana":"コウヨウチョウ","prefecture_code":39},"0043":{"zip_code":"7800043","prefecture":"高知県","prefecture_kana":"コウチケン","city":"高知市","city_kana":"コウチシ","town":"寿町","town_kana":"コトブキチョウ","prefecture_code":39},"0045":{"zip_code":"7800045","prefecture":"高知県","prefecture_kana":"コウチケン","city":"高知市","city_kana":"コウチシ","town":"幸町","town_kana":"サイワイチョウ","prefecture_code":39},"0823":{"zip_code":"7800823","prefecture":"高知県","prefecture_kana":"コウチケン","city":"高知市","city_kana":"コウチシ","town":"菜園場町","town_kana":"サエンバチョウ","prefecture_code":39},"0834":{"zip_code":"7800834","prefecture":"高知県","prefecture_kana":"コウチケン","city":"高知市","city_kana":"コウチシ","town":"堺町","town_kana":"サカイマチ","prefecture_code":39},"0061":{"zip_code":"7800061","prefecture":"高知県","prefecture_kana":"コウチケン","city":"高知市","city_kana":"コウチシ","town":"栄田町","town_kana":"サカエダチョウ","prefecture_code":39},"0047":{"zip_code":"7800047","prefecture":"高知県","prefecture_kana":"コウチケン","city":"高知市","city_kana":"コウチシ","town":"相模町","town_kana":"サガミチョウ","prefecture_code":39},"0821":{"zip_code":"7800821","prefecture":"高知県","prefecture_kana":"コウチケン","city":"高知市","city_kana":"コウチシ","town":"桜井町","town_kana":"サクライチョウ","prefecture_code":39},"0929":{"zip_code":"7800929","prefecture":"高知県","prefecture_kana":"コウチケン","city":"高知市","city_kana":"コウチシ","town":"桜馬場","town_kana":"サクラババ","prefecture_code":39},"0954":{"zip_code":"7800954","prefecture":"高知県","prefecture_kana":"コウチケン","city":"高知市","city_kana":"コウチシ","town":"佐々木町","town_kana":"ササキチョウ","prefecture_code":39},"0923":{"zip_code":"7800923","prefecture":"高知県","prefecture_kana":"コウチケン","city":"高知市","city_kana":"コウチシ","town":"三ノ丸","town_kana":"サンノマル","prefecture_code":39},"8010":{"zip_code":"7808010","prefecture":"高知県","prefecture_kana":"コウチケン","city":"高知市","city_kana":"コウチシ","town":"桟橋通","town_kana":"サンバシドオリ","prefecture_code":39},"0065":{"zip_code":"7800065","prefecture":"高知県","prefecture_kana":"コウチケン","city":"高知市","city_kana":"コウチシ","town":"塩田町","town_kana":"シオタチョウ","prefecture_code":39},"8014":{"zip_code":"7808014","prefecture":"高知県","prefecture_kana":"コウチケン","city":"高知市","city_kana":"コウチシ","town":"塩屋崎町","town_kana":"シオヤザキマチ","prefecture_code":39},"0002":{"zip_code":"7800002","prefecture":"高知県","prefecture_kana":"コウチケン","city":"高知市","city_kana":"コウチシ","town":"重倉","town_kana":"シゲクラ","prefecture_code":39},"0805":{"zip_code":"7800805","prefecture":"高知県","prefecture_kana":"コウチケン","city":"高知市","city_kana":"コウチシ","town":"東雲町","town_kana":"シノノメチョウ","prefecture_code":39},"0975":{"zip_code":"7800975","prefecture":"高知県","prefecture_kana":"コウチケン","city":"高知市","city_kana":"コウチシ","town":"柴巻","town_kana":"シバマキ","prefecture_code":39},"0934":{"zip_code":"7800934","prefecture":"高知県","prefecture_kana":"コウチケン","city":"高知市","city_kana":"コウチシ","town":"下島町","town_kana":"シモジマチョウ","prefecture_code":39},"0916":{"zip_code":"7800916","prefecture":"高知県","prefecture_kana":"コウチケン","city":"高知市","city_kana":"コウチシ","town":"城北町","town_kana":"ジョウホクチョウ","prefecture_code":39},"8037":{"zip_code":"7808037","prefecture":"高知県","prefecture_kana":"コウチケン","city":"高知市","city_kana":"コウチシ","town":"城山町","town_kana":"ジョウヤマチョウ","prefecture_code":39},"0996":{"zip_code":"7800996","prefecture":"高知県","prefecture_kana":"コウチケン","city":"高知市","city_kana":"コウチシ","town":"上里","town_kana":"ジョウリ","prefecture_code":39},"0063":{"zip_code":"7800063","prefecture":"高知県","prefecture_kana":"コウチケン","city":"高知市","city_kana":"コウチシ","town":"昭和町","town_kana":"ショウワマチ","prefecture_code":39},"0824":{"zip_code":"7800824","prefecture":"高知県","prefecture_kana":"コウチケン","city":"高知市","city_kana":"コウチシ","town":"城見町","town_kana":"シロミチョウ","prefecture_code":39},"8004":{"zip_code":"7808004","prefecture":"高知県","prefecture_kana":"コウチケン","city":"高知市","city_kana":"コウチシ","town":"新田町","town_kana":"シンタチョウ","prefecture_code":39},"0062":{"zip_code":"7800062","prefecture":"高知県","prefecture_kana":"コウチケン","city":"高知市","city_kana":"コウチシ","town":"新本町","town_kana":"シンホンマチ","prefecture_code":39},"0911":{"zip_code":"7800911","prefecture":"高知県","prefecture_kana":"コウチケン","city":"高知市","city_kana":"コウチシ","town":"新屋敷","town_kana":"シンヤシキ","prefecture_code":39},"0944":{"zip_code":"7800944","prefecture":"高知県","prefecture_kana":"コウチケン","city":"高知市","city_kana":"コウチシ","town":"水源町","town_kana":"スイゲンチョウ","prefecture_code":39},"0903":{"zip_code":"7800903","prefecture":"高知県","prefecture_kana":"コウチケン","city":"高知市","city_kana":"コウチシ","town":"水通町","town_kana":"スイドウチョウ","prefecture_code":39},"0072":{"zip_code":"7800072","prefecture":"高知県","prefecture_kana":"コウチケン","city":"高知市","city_kana":"コウチシ","town":"杉井流","town_kana":"スギイル","prefecture_code":39},"0991":{"zip_code":"7800991","prefecture":"高知県","prefecture_kana":"コウチケン","city":"高知市","city_kana":"コウチシ","town":"宗安寺","town_kana":"ソウアンジ","prefecture_code":39},"0926":{"zip_code":"7800926","prefecture":"高知県","prefecture_kana":"コウチケン","city":"高知市","city_kana":"コウチシ","town":"大膳町","town_kana":"ダイゼンチョウ","prefecture_code":39},"0862":{"zip_code":"7800862","prefecture":"高知県","prefecture_kana":"コウチケン","city":"高知市","city_kana":"コウチシ","town":"鷹匠町","town_kana":"タカジョウマチ","prefecture_code":39},"0071":{"zip_code":"7800071","prefecture":"高知県","prefecture_kana":"コウチケン","city":"高知市","city_kana":"コウチシ","town":"高そね","town_kana":"タカソネ","prefecture_code":39},"8027":{"zip_code":"7808027","prefecture":"高知県","prefecture_kana":"コウチケン","city":"高知市","city_kana":"コウチシ","town":"高見町","town_kana":"タカミチョウ","prefecture_code":39},"0914":{"zip_code":"7800914","prefecture":"高知県","prefecture_kana":"コウチケン","city":"高知市","city_kana":"コウチシ","town":"宝町","town_kana":"タカラマチ","prefecture_code":39},"8018":{"zip_code":"7808018","prefecture":"高知県","prefecture_kana":"コウチケン","city":"高知市","city_kana":"コウチシ","town":"竹島町","town_kana":"タケシマチョウ","prefecture_code":39},"0931":{"zip_code":"7800931","prefecture":"高知県","prefecture_kana":"コウチケン","city":"高知市","city_kana":"コウチシ","town":"玉水町","town_kana":"タマミズチョウ","prefecture_code":39},"0806":{"zip_code":"7800806","prefecture":"高知県","prefecture_kana":"コウチケン","city":"高知市","city_kana":"コウチシ","town":"知寄町","town_kana":"チヨリチョウ","prefecture_code":39},"0952":{"zip_code":"7800952","prefecture":"高知県","prefecture_kana":"コウチケン","city":"高知市","city_kana":"コウチシ","town":"塚ノ原","town_kana":"ツカノハラ","prefecture_code":39},"8012":{"zip_code":"7808012","prefecture":"高知県","prefecture_kana":"コウチケン","city":"高知市","city_kana":"コウチシ","town":"天神町","town_kana":"テンジンチョウ","prefecture_code":39},"8001":{"zip_code":"7808001","prefecture":"高知県","prefecture_kana":"コウチケン","city":"高知市","city_kana":"コウチシ","town":"土居町","town_kana":"ドイマチ","prefecture_code":39},"0864":{"zip_code":"7800864","prefecture":"高知県","prefecture_kana":"コウチケン","city":"高知市","city_kana":"コウチシ","town":"唐人町","town_kana":"トウジンマチ","prefecture_code":39},"0904":{"zip_code":"7800904","prefecture":"高知県","prefecture_kana":"コウチケン","city":"高知市","city_kana":"コウチシ","town":"通町","town_kana":"トオリチョウ","prefecture_code":39},"0949":{"zip_code":"7800949","prefecture":"高知県","prefecture_kana":"コウチケン","city":"高知市","city_kana":"コウチシ","town":"鳥越","town_kana":"トリゴエ","prefecture_code":39},"0983":{"zip_code":"7800983","prefecture":"高知県","prefecture_kana":"コウチケン","city":"高知市","city_kana":"コウチシ","town":"中久万","town_kana":"ナカクマ","prefecture_code":39},"0021":{"zip_code":"7800021","prefecture":"高知県","prefecture_kana":"コウチケン","city":"高知市","city_kana":"コウチシ","town":"中秦泉寺","town_kana":"ナカジンゼンジ","prefecture_code":39},"0044":{"zip_code":"7800044","prefecture":"高知県","prefecture_kana":"コウチケン","city":"高知市","city_kana":"コウチシ","town":"中水道","town_kana":"ナカスイドウ","prefecture_code":39},"0937":{"zip_code":"7800937","prefecture":"高知県","prefecture_kana":"コウチケン","city":"高知市","city_kana":"コウチシ","town":"中須賀町","town_kana":"ナカスカチョウ","prefecture_code":39},"8007":{"zip_code":"7808007","prefecture":"高知県","prefecture_kana":"コウチケン","city":"高知市","city_kana":"コウチシ","town":"仲田町","town_kana":"ナカタチョウ","prefecture_code":39},"0831":{"zip_code":"7800831","prefecture":"高知県","prefecture_kana":"コウチケン","city":"高知市","city_kana":"コウチシ","town":"中の島","town_kana":"ナカノシマ","prefecture_code":39},"0817":{"zip_code":"7800817","prefecture":"高知県","prefecture_kana":"コウチケン","city":"高知市","city_kana":"コウチシ","town":"中宝永町","town_kana":"ナカホウエイチョウ","prefecture_code":39},"0972":{"zip_code":"7800972","prefecture":"高知県","prefecture_kana":"コウチケン","city":"高知市","city_kana":"コウチシ","town":"中万々","town_kana":"ナカママ","prefecture_code":39},"0953":{"zip_code":"7800953","prefecture":"高知県","prefecture_kana":"コウチケン","city":"高知市","city_kana":"コウチシ","town":"長尾山町","town_kana":"ナガオヤマチョウ","prefecture_code":39},"0003":{"zip_code":"7800003","prefecture":"高知県","prefecture_kana":"コウチケン","city":"高知市","city_kana":"コウチシ","town":"七ツ淵","town_kana":"ナナツブチ","prefecture_code":39},"0992":{"zip_code":"7800992","prefecture":"高知県","prefecture_kana":"コウチケン","city":"高知市","city_kana":"コウチシ","town":"行川","town_kana":"ナメガワ","prefecture_code":39},"0932":{"zip_code":"7800932","prefecture":"高知県","prefecture_kana":"コウチケン","city":"高知市","city_kana":"コウチシ","town":"縄手町","town_kana":"ナワテチョウ","prefecture_code":39},"0984":{"zip_code":"7800984","prefecture":"高知県","prefecture_kana":"コウチケン","city":"高知市","city_kana":"コウチシ","town":"西久万","town_kana":"ニシクマ","prefecture_code":39},"0033":{"zip_code":"7800033","prefecture":"高知県","prefecture_kana":"コウチケン","city":"高知市","city_kana":"コウチシ","town":"西秦泉寺","town_kana":"ニシジンゼンジ","prefecture_code":39},"0951":{"zip_code":"7800951","prefecture":"高知県","prefecture_kana":"コウチケン","city":"高知市","city_kana":"コウチシ","town":"西塚ノ原","town_kana":"ニシツカノハラ","prefecture_code":39},"0925":{"zip_code":"7800925","prefecture":"高知県","prefecture_kana":"コウチケン","city":"高知市","city_kana":"コウチシ","town":"西町","town_kana":"ニシマチ","prefecture_code":39},"0843":{"zip_code":"7800843","prefecture":"高知県","prefecture_kana":"コウチケン","city":"高知市","city_kana":"コウチシ","town":"廿代町","town_kana":"ニジュウダイマチ","prefecture_code":39},"0825":{"zip_code":"7800825","prefecture":"高知県","prefecture_kana":"コウチケン","city":"高知市","city_kana":"コウチシ","town":"農人町","town_kana":"ノウニンマチ","prefecture_code":39},"8006":{"zip_code":"7808006","prefecture":"高知県","prefecture_kana":"コウチケン","city":"高知市","city_kana":"コウチシ","town":"萩町","town_kana":"ハギマチ","prefecture_code":39},"0026":{"zip_code":"7800026","prefecture":"高知県","prefecture_kana":"コウチケン","city":"高知市","city_kana":"コウチシ","town":"秦南町","town_kana":"ハダミナミマチ","prefecture_code":39},"0912":{"zip_code":"7800912","prefecture":"高知県","prefecture_kana":"コウチケン","city":"高知市","city_kana":"コウチシ","town":"八反町","town_kana":"ハッタンチョウ","prefecture_code":39},"8021":{"zip_code":"7808021","prefecture":"高知県","prefecture_kana":"コウチケン","city":"高知市","city_kana":"コウチシ","town":"孕東町","town_kana":"ハラミヒガシマチ","prefecture_code":39},"8022":{"zip_code":"7808022","prefecture":"高知県","prefecture_kana":"コウチケン","city":"高知市","city_kana":"コウチシ","town":"孕西町","town_kana":"ハラミニシマチ","prefecture_code":39},"8087":{"zip_code":"7808087","prefecture":"高知県","prefecture_kana":"コウチケン","city":"高知市","city_kana":"コウチシ","town":"針木北","town_kana":"ハリギキタ","prefecture_code":39},"8090":{"zip_code":"7808090","prefecture":"高知県","prefecture_kana":"コウチケン","city":"高知市","city_kana":"コウチシ","town":"針木西","town_kana":"ハリギニシ","prefecture_code":39},"8086":{"zip_code":"7808086","prefecture":"高知県","prefecture_kana":"コウチケン","city":"高知市","city_kana":"コウチシ","town":"針木東町","town_kana":"ハリギヒガシマチ","prefecture_code":39},"8088":{"zip_code":"7808088","prefecture":"高知県","prefecture_kana":"コウチケン","city":"高知市","city_kana":"コウチシ","town":"針木本町","town_kana":"ハリギホンマチ","prefecture_code":39},"8089":{"zip_code":"7808089","prefecture":"高知県","prefecture_kana":"コウチケン","city":"高知市","city_kana":"コウチシ","town":"針木南","town_kana":"ハリギミナミ","prefecture_code":39},"0993":{"zip_code":"7800993","prefecture":"高知県","prefecture_kana":"コウチケン","city":"高知市","city_kana":"コウチシ","town":"針原","town_kana":"ハリハラ","prefecture_code":39},"0822":{"zip_code":"7800822","prefecture":"高知県","prefecture_kana":"コウチケン","city":"高知市","city_kana":"コウチシ","town":"はりまや町","town_kana":"ハリマヤチョウ","prefecture_code":39},"8039":{"zip_code":"7808039","prefecture":"高知県","prefecture_kana":"コウチケン","city":"高知市","city_kana":"コウチシ","town":"東石立町","town_kana":"ヒガシイシタテチョウ","prefecture_code":39},"0982":{"zip_code":"7800982","prefecture":"高知県","prefecture_kana":"コウチケン","city":"高知市","city_kana":"コウチシ","town":"東久万","town_kana":"ヒガシクマ","prefecture_code":39},"8036":{"zip_code":"7808036","prefecture":"高知県","prefecture_kana":"コウチケン","city":"高知市","city_kana":"コウチシ","town":"東城山町","town_kana":"ヒガシジョウヤマチョウ","prefecture_code":39},"0023":{"zip_code":"7800023","prefecture":"高知県","prefecture_kana":"コウチケン","city":"高知市","city_kana":"コウチシ","town":"東秦泉寺","town_kana":"ヒガシジンゼンジ","prefecture_code":39},"0962":{"zip_code":"7800962","prefecture":"高知県","prefecture_kana":"コウチケン","city":"高知市","city_kana":"コウチシ","town":"尾立","town_kana":"ヒジ","prefecture_code":39},"0066":{"zip_code":"7800066","prefecture":"高知県","prefecture_kana":"コウチケン","city":"高知市","city_kana":"コウチシ","town":"比島町","town_kana":"ヒジマチョウ","prefecture_code":39},"8013":{"zip_code":"7808013","prefecture":"高知県","prefecture_kana":"コウチケン","city":"高知市","city_kana":"コウチシ","town":"筆山町","town_kana":"ヒツザンチョウ","prefecture_code":39},"0981":{"zip_code":"7800981","prefecture":"高知県","prefecture_kana":"コウチケン","city":"高知市","city_kana":"コウチシ","town":"一ツ橋町","town_kana":"ヒトツバシチョウ","prefecture_code":39},"0804":{"zip_code":"7800804","prefecture":"高知県","prefecture_kana":"コウチケン","city":"高知市","city_kana":"コウチシ","town":"日の出町","town_kana":"ヒノデチョウ","prefecture_code":39},"8015":{"zip_code":"7808015","prefecture":"高知県","prefecture_kana":"コウチケン","city":"高知市","city_kana":"コウチシ","town":"百石町","town_kana":"ヒャッコクチョウ","prefecture_code":39},"8024":{"zip_code":"7808024","prefecture":"高知県","prefecture_kana":"コウチケン","city":"高知市","city_kana":"コウチシ","town":"深谷町","town_kana":"フカダニチョウ","prefecture_code":39},"0966":{"zip_code":"7800966","prefecture":"高知県","prefecture_kana":"コウチケン","city":"高知市","city_kana":"コウチシ","town":"福井扇町","town_kana":"フクイオウギマチ","prefecture_code":39},"0965":{"zip_code":"7800965","prefecture":"高知県","prefecture_kana":"コウチケン","city":"高知市","city_kana":"コウチシ","town":"福井町","town_kana":"フクイチョウ","prefecture_code":39},"0967":{"zip_code":"7800967","prefecture":"高知県","prefecture_kana":"コウチケン","city":"高知市","city_kana":"コウチシ","town":"福井東町","town_kana":"フクイヒガシマチ","prefecture_code":39},"0085":{"zip_code":"7800085","prefecture":"高知県","prefecture_kana":"コウチケン","city":"高知市","city_kana":"コウチシ","town":"札場","town_kana":"フダバ","prefecture_code":39},"0815":{"zip_code":"7800815","prefecture":"高知県","prefecture_kana":"コウチケン","city":"高知市","city_kana":"コウチシ","town":"二葉町","town_kana":"フタバチョウ","prefecture_code":39},"0922":{"zip_code":"7800922","prefecture":"高知県","prefecture_kana":"コウチケン","city":"高知市","city_kana":"コウチシ","town":"平和町","town_kana":"ヘイワチョウ","prefecture_code":39},"0818":{"zip_code":"7800818","prefecture":"高知県","prefecture_kana":"コウチケン","city":"高知市","city_kana":"コウチシ","town":"宝永町","town_kana":"ホウエイチョウ","prefecture_code":39},"0042":{"zip_code":"7800042","prefecture":"高知県","prefecture_kana":"コウチケン","city":"高知市","city_kana":"コウチシ","town":"洞ケ島町","town_kana":"ホラガジマチョウ","prefecture_code":39},"0945":{"zip_code":"7800945","prefecture":"高知県","prefecture_kana":"コウチケン","city":"高知市","city_kana":"コウチシ","town":"本宮町","town_kana":"ホングウチョウ","prefecture_code":39},"0902":{"zip_code":"7800902","prefecture":"高知県","prefecture_kana":"コウチケン","city":"高知市","city_kana":"コウチシ","town":"本丁筋","town_kana":"ホンチョウスジ","prefecture_code":39},"0870":{"zip_code":"7800870","prefecture":"高知県","prefecture_kana":"コウチケン","city":"高知市","city_kana":"コウチシ","town":"本町","town_kana":"ホンマチ","prefecture_code":39},"0024":{"zip_code":"7800024","prefecture":"高知県","prefecture_kana":"コウチケン","city":"高知市","city_kana":"コウチシ","town":"前里","town_kana":"マエザト","prefecture_code":39},"8084":{"zip_code":"7808084","prefecture":"高知県","prefecture_kana":"コウチケン","city":"高知市","city_kana":"コウチシ","town":"槇山町","town_kana":"マキヤマチョウ","prefecture_code":39},"0861":{"zip_code":"7800861","prefecture":"高知県","prefecture_kana":"コウチケン","city":"高知市","city_kana":"コウチシ","town":"升形","town_kana":"マスガタ","prefecture_code":39},"0973":{"zip_code":"7800973","prefecture":"高知県","prefecture_kana":"コウチケン","city":"高知市","city_kana":"コウチシ","town":"万々","town_kana":"ママ","prefecture_code":39},"0802":{"zip_code":"7800802","prefecture":"高知県","prefecture_kana":"コウチケン","city":"高知市","city_kana":"コウチシ","town":"丸池町","town_kana":"マルイケチョウ","prefecture_code":39},"0850":{"zip_code":"7800850","prefecture":"高知県","prefecture_kana":"コウチケン","city":"高知市","city_kana":"コウチシ","town":"丸ノ内","town_kana":"マルノウチ","prefecture_code":39},"0034":{"zip_code":"7800034","prefecture":"高知県","prefecture_kana":"コウチケン","city":"高知市","city_kana":"コウチシ","town":"三園町","town_kana":"ミソノチョウ","prefecture_code":39},"0004":{"zip_code":"7800004","prefecture":"高知県","prefecture_kana":"コウチケン","city":"高知市","city_kana":"コウチシ","town":"三谷","town_kana":"ミタニ","prefecture_code":39},"0976":{"zip_code":"7800976","prefecture":"高知県","prefecture_kana":"コウチケン","city":"高知市","city_kana":"コウチシ","town":"みづき","town_kana":"ミヅキ","prefecture_code":39},"0977":{"zip_code":"7800977","prefecture":"高知県","prefecture_kana":"コウチケン","city":"高知市","city_kana":"コウチシ","town":"みづき山","town_kana":"ミヅキヤマ","prefecture_code":39},"0074":{"zip_code":"7800074","prefecture":"高知県","prefecture_kana":"コウチケン","city":"高知市","city_kana":"コウチシ","town":"南金田","town_kana":"ミナミカナダ","prefecture_code":39},"0082":{"zip_code":"7800082","prefecture":"高知県","prefecture_kana":"コウチケン","city":"高知市","city_kana":"コウチシ","town":"南川添","town_kana":"ミナミカワゾエ","prefecture_code":39},"0087":{"zip_code":"7800087","prefecture":"高知県","prefecture_kana":"コウチケン","city":"高知市","city_kana":"コウチシ","town":"南久保","town_kana":"ミナミクボ","prefecture_code":39},"0985":{"zip_code":"7800985","prefecture":"高知県","prefecture_kana":"コウチケン","city":"高知市","city_kana":"コウチシ","town":"南久万","town_kana":"ミナミクマ","prefecture_code":39},"8034":{"zip_code":"7808034","prefecture":"高知県","prefecture_kana":"コウチケン","city":"高知市","city_kana":"コウチシ","town":"南河ノ瀬町","town_kana":"ミナミゴウノセチョウ","prefecture_code":39},"0084":{"zip_code":"7800084","prefecture":"高知県","prefecture_kana":"コウチケン","city":"高知市","city_kana":"コウチシ","town":"南御座","town_kana":"ミナミゴザ","prefecture_code":39},"8005":{"zip_code":"7808005","prefecture":"高知県","prefecture_kana":"コウチケン","city":"高知市","city_kana":"コウチシ","town":"南新田町","town_kana":"ミナミシンタチョウ","prefecture_code":39},"8017":{"zip_code":"7808017","prefecture":"高知県","prefecture_kana":"コウチケン","city":"高知市","city_kana":"コウチシ","town":"南竹島町","town_kana":"ミナミタケシマチョウ","prefecture_code":39},"8025":{"zip_code":"7808025","prefecture":"高知県","prefecture_kana":"コウチケン","city":"高知市","city_kana":"コウチシ","town":"南中山","town_kana":"ミナミナカヤマ","prefecture_code":39},"8016":{"zip_code":"7808016","prefecture":"高知県","prefecture_kana":"コウチケン","city":"高知市","city_kana":"コウチシ","town":"南ノ丸町","town_kana":"ミナミノマルチョウ","prefecture_code":39},"0833":{"zip_code":"7800833","prefecture":"高知県","prefecture_kana":"コウチケン","city":"高知市","city_kana":"コウチシ","town":"南はりまや町","town_kana":"ミナミハリマヤチョウ","prefecture_code":39},"0816":{"zip_code":"7800816","prefecture":"高知県","prefecture_kana":"コウチケン","city":"高知市","city_kana":"コウチシ","town":"南宝永町","town_kana":"ミナミホウエイチョウ","prefecture_code":39},"0971":{"zip_code":"7800971","prefecture":"高知県","prefecture_kana":"コウチケン","city":"高知市","city_kana":"コウチシ","town":"南万々","town_kana":"ミナミママ","prefecture_code":39},"0942":{"zip_code":"7800942","prefecture":"高知県","prefecture_kana":"コウチケン","city":"高知市","city_kana":"コウチシ","town":"南元町","town_kana":"ミナミモトマチ","prefecture_code":39},"0924":{"zip_code":"7800924","prefecture":"高知県","prefecture_kana":"コウチケン","city":"高知市","city_kana":"コウチシ","town":"宮前町","town_kana":"ミヤマエチョウ","prefecture_code":39},"0941":{"zip_code":"7800941","prefecture":"高知県","prefecture_kana":"コウチケン","city":"高知市","city_kana":"コウチシ","town":"元町","town_kana":"モトマチ","prefecture_code":39},"8002":{"zip_code":"7808002","prefecture":"高知県","prefecture_kana":"コウチケン","city":"高知市","city_kana":"コウチシ","town":"役知町","town_kana":"ヤクチチョウ","prefecture_code":39},"0957":{"zip_code":"7800957","prefecture":"高知県","prefecture_kana":"コウチケン","city":"高知市","city_kana":"コウチシ","town":"山手町","town_kana":"ヤマテチョウ","prefecture_code":39},"0927":{"zip_code":"7800927","prefecture":"高知県","prefecture_kana":"コウチケン","city":"高知市","city_kana":"コウチシ","town":"山ノ端町","town_kana":"ヤマノハナチョウ","prefecture_code":39},"0803":{"zip_code":"7800803","prefecture":"高知県","prefecture_kana":"コウチケン","city":"高知市","city_kana":"コウチシ","town":"弥生町","town_kana":"ヤヨイチョウ","prefecture_code":39},"0964":{"zip_code":"7800964","prefecture":"高知県","prefecture_kana":"コウチケン","city":"高知市","city_kana":"コウチシ","town":"横内","town_kana":"ヨコウチ","prefecture_code":39},"0048":{"zip_code":"7800048","prefecture":"高知県","prefecture_kana":"コウチケン","city":"高知市","city_kana":"コウチシ","town":"吉田町","town_kana":"ヨシダチョウ","prefecture_code":39},"0863":{"zip_code":"7800863","prefecture":"高知県","prefecture_kana":"コウチケン","city":"高知市","city_kana":"コウチシ","town":"与力町","town_kana":"ヨリキマチ","prefecture_code":39},"0995":{"zip_code":"7800995","prefecture":"高知県","prefecture_kana":"コウチケン","city":"高知市","city_kana":"コウチシ","town":"領家","town_kana":"リョウケ","prefecture_code":39},"0961":{"zip_code":"7800961","prefecture":"高知県","prefecture_kana":"コウチケン","city":"高知市","city_kana":"コウチシ","town":"蓮台","town_kana":"レンダイ","prefecture_code":39},"8023":{"zip_code":"7808023","prefecture":"高知県","prefecture_kana":"コウチケン","city":"高知市","city_kana":"コウチシ","town":"六泉寺町","town_kana":"ロクセンジチョウ","prefecture_code":39},"8081":{"zip_code":"7808081","prefecture":"高知県","prefecture_kana":"コウチケン","city":"高知市","city_kana":"コウチシ","town":"若草町","town_kana":"ワカクサチョウ","prefecture_code":39},"8082":{"zip_code":"7808082","prefecture":"高知県","prefecture_kana":"コウチケン","city":"高知市","city_kana":"コウチシ","town":"若草南町","town_kana":"ワカクサミナミマチ","prefecture_code":39},"0812":{"zip_code":"7800812","prefecture":"高知県","prefecture_kana":"コウチケン","city":"高知市","city_kana":"コウチシ","town":"若松町","town_kana":"ワカマツチョウ","prefecture_code":39}}