{"0010":{"zip_code":"7810010","prefecture":"高知県","prefecture_kana":"コウチケン","city":"高知市","city_kana":"コウチシ","town":"薊野","town_kana":"アゾウノ","prefecture_code":39},"0013":{"zip_code":"7810013","prefecture":"高知県","prefecture_kana":"コウチケン","city":"高知市","city_kana":"コウチシ","town":"薊野中町","town_kana":"アゾウノナカマチ","prefecture_code":39},"0012":{"zip_code":"7810012","prefecture":"高知県","prefecture_kana":"コウチケン","city":"高知市","city_kana":"コウチシ","town":"薊野東町","town_kana":"アゾウノヒガシマチ","prefecture_code":39},"0015":{"zip_code":"7810015","prefecture":"高知県","prefecture_kana":"コウチケン","city":"高知市","city_kana":"コウチシ","town":"薊野西町","town_kana":"アゾウノニシマチ","prefecture_code":39},"0014":{"zip_code":"7810014","prefecture":"高知県","prefecture_kana":"コウチケン","city":"高知市","city_kana":"コウチシ","town":"薊野南町","town_kana":"アゾウノミナミマチ","prefecture_code":39},"0011":{"zip_code":"7810011","prefecture":"高知県","prefecture_kana":"コウチケン","city":"高知市","city_kana":"コウチシ","town":"薊野北町","town_kana":"アゾウノキタマチ","prefecture_code":39},"0111":{"zip_code":"7810111","prefecture":"高知県","prefecture_kana":"コウチケン","city":"高知市","city_kana":"コウチシ","town":"池","town_kana":"イケ","prefecture_code":39},"8130":{"zip_code":"7818130","prefecture":"高知県","prefecture_kana":"コウチケン","city":"高知市","city_kana":"コウチシ","town":"一宮","town_kana":"イック","prefecture_code":39},"8131":{"zip_code":"7818131","prefecture":"高知県","prefecture_kana":"コウチケン","city":"高知市","city_kana":"コウチシ","town":"一宮しなね","town_kana":"イックシナネ","prefecture_code":39},"8133":{"zip_code":"7818133","prefecture":"高知県","prefecture_kana":"コウチケン","city":"高知市","city_kana":"コウチシ","town":"一宮徳谷","town_kana":"イックトクダニ","prefecture_code":39},"8134":{"zip_code":"7818134","prefecture":"高知県","prefecture_kana":"コウチケン","city":"高知市","city_kana":"コウチシ","town":"一宮中町","town_kana":"イックナカマチ","prefecture_code":39},"8136":{"zip_code":"7818136","prefecture":"高知県","prefecture_kana":"コウチケン","city":"高知市","city_kana":"コウチシ","town":"一宮西町","town_kana":"イックニシマチ","prefecture_code":39},"8132":{"zip_code":"7818132","prefecture":"高知県","prefecture_kana":"コウチケン","city":"高知市","city_kana":"コウチシ","town":"一宮東町","town_kana":"イックヒガシマチ","prefecture_code":39},"8135":{"zip_code":"7818135","prefecture":"高知県","prefecture_kana":"コウチケン","city":"高知市","city_kana":"コウチシ","town":"一宮南町","town_kana":"イックミナミマチ","prefecture_code":39},"0262":{"zip_code":"7810262","prefecture":"高知県","prefecture_kana":"コウチケン","city":"高知市","city_kana":"コウチシ","town":"浦戸","town_kana":"ウラド","prefecture_code":39},"5102":{"zip_code":"7815102","prefecture":"高知県","prefecture_kana":"コウチケン","city":"高知市","city_kana":"コウチシ","town":"大津甲","town_kana":"オオツコウ","prefecture_code":39},"5103":{"zip_code":"7815103","prefecture":"高知県","prefecture_kana":"コウチケン","city":"高知市","city_kana":"コウチシ","town":"大津乙","town_kana":"オオツオツ","prefecture_code":39},"3104":{"zip_code":"7813104","prefecture":"高知県","prefecture_kana":"コウチケン","city":"高知市","city_kana":"コウチシ","town":"鏡今井","town_kana":"カガミイマイ","prefecture_code":39},"3124":{"zip_code":"7813124","prefecture":"高知県","prefecture_kana":"コウチケン","city":"高知市","city_kana":"コウチシ","town":"鏡梅ノ木","town_kana":"カガミウメノキ","prefecture_code":39},"3101":{"zip_code":"7813101","prefecture":"高知県","prefecture_kana":"コウチケン","city":"高知市","city_kana":"コウチシ","town":"鏡大河内","town_kana":"カガミオオガチ","prefecture_code":39},"3103":{"zip_code":"7813103","prefecture":"高知県","prefecture_kana":"コウチケン","city":"高知市","city_kana":"コウチシ","town":"鏡大利","town_kana":"カガミオオリ","prefecture_code":39},"3115":{"zip_code":"7813115","prefecture":"高知県","prefecture_kana":"コウチケン","city":"高知市","city_kana":"コウチシ","town":"鏡柿ノ又","town_kana":"カガミカキノマタ","prefecture_code":39},"3123":{"zip_code":"7813123","prefecture":"高知県","prefecture_kana":"コウチケン","city":"高知市","city_kana":"コウチシ","town":"鏡葛山","town_kana":"カガミカズラヤマ","prefecture_code":39},"3107":{"zip_code":"7813107","prefecture":"高知県","prefecture_kana":"コウチケン","city":"高知市","city_kana":"コウチシ","town":"鏡狩山","town_kana":"カガミカリヤマ","prefecture_code":39},"3105":{"zip_code":"7813105","prefecture":"高知県","prefecture_kana":"コウチケン","city":"高知市","city_kana":"コウチシ","town":"鏡草峰","town_kana":"カガミクサミネ","prefecture_code":39},"3102":{"zip_code":"7813102","prefecture":"高知県","prefecture_kana":"コウチケン","city":"高知市","city_kana":"コウチシ","town":"鏡小浜","town_kana":"カガミコハマ","prefecture_code":39},"3125":{"zip_code":"7813125","prefecture":"高知県","prefecture_kana":"コウチケン","city":"高知市","city_kana":"コウチシ","town":"鏡小山","town_kana":"カガミコヤマ","prefecture_code":39},"3112":{"zip_code":"7813112","prefecture":"高知県","prefecture_kana":"コウチケン","city":"高知市","city_kana":"コウチシ","town":"鏡去坂","town_kana":"カガミサルサカ","prefecture_code":39},"3114":{"zip_code":"7813114","prefecture":"高知県","prefecture_kana":"コウチケン","city":"高知市","city_kana":"コウチシ","town":"鏡敷ノ山","town_kana":"カガミシキノヤマ","prefecture_code":39},"3106":{"zip_code":"7813106","prefecture":"高知県","prefecture_kana":"コウチケン","city":"高知市","city_kana":"コウチシ","town":"鏡白岩","town_kana":"カガミシロイワ","prefecture_code":39},"3113":{"zip_code":"7813113","prefecture":"高知県","prefecture_kana":"コウチケン","city":"高知市","city_kana":"コウチシ","town":"鏡竹奈路","town_kana":"カガミタケナロ","prefecture_code":39},"3122":{"zip_code":"7813122","prefecture":"高知県","prefecture_kana":"コウチケン","city":"高知市","city_kana":"コウチシ","town":"鏡増原","town_kana":"カガミマスハラ","prefecture_code":39},"3111":{"zip_code":"7813111","prefecture":"高知県","prefecture_kana":"コウチケン","city":"高知市","city_kana":"コウチシ","town":"鏡的渕","town_kana":"カガミマトブチ","prefecture_code":39},"3121":{"zip_code":"7813121","prefecture":"高知県","prefecture_kana":"コウチケン","city":"高知市","city_kana":"コウチシ","town":"鏡横矢","town_kana":"カガミヨコヤ","prefecture_code":39},"3108":{"zip_code":"7813108","prefecture":"高知県","prefecture_kana":"コウチケン","city":"高知市","city_kana":"コウチシ","town":"鏡吉原","town_kana":"カガミヨシハラ","prefecture_code":39},"8121":{"zip_code":"7818121","prefecture":"高知県","prefecture_kana":"コウチケン","city":"高知市","city_kana":"コウチシ","town":"葛島","town_kana":"カヅラシマ","prefecture_code":39},"8126":{"zip_code":"7818126","prefecture":"高知県","prefecture_kana":"コウチケン","city":"高知市","city_kana":"コウチシ","town":"吸江","town_kana":"ギュウコウ","prefecture_code":39},"5105":{"zip_code":"7815105","prefecture":"高知県","prefecture_kana":"コウチケン","city":"高知市","city_kana":"コウチシ","town":"介良甲","town_kana":"ケラコウ","prefecture_code":39},"5106":{"zip_code":"7815106","prefecture":"高知県","prefecture_kana":"コウチケン","city":"高知市","city_kana":"コウチシ","town":"介良乙","town_kana":"ケラオツ","prefecture_code":39},"5107":{"zip_code":"7815107","prefecture":"高知県","prefecture_kana":"コウチケン","city":"高知市","city_kana":"コウチシ","town":"介良丙","town_kana":"ケラヘイ","prefecture_code":39},"5104":{"zip_code":"7815104","prefecture":"高知県","prefecture_kana":"コウチケン","city":"高知市","city_kana":"コウチシ","town":"介良","town_kana":"ケラ","prefecture_code":39},"8125":{"zip_code":"7818125","prefecture":"高知県","prefecture_kana":"コウチケン","city":"高知市","city_kana":"コウチシ","town":"五台山","town_kana":"ゴダイサン","prefecture_code":39},"5108":{"zip_code":"7815108","prefecture":"高知県","prefecture_kana":"コウチケン","city":"高知市","city_kana":"コウチシ","town":"潮見台","town_kana":"シオミダイ","prefecture_code":39},"0250":{"zip_code":"7810250","prefecture":"高知県","prefecture_kana":"コウチケン","city":"高知市","city_kana":"コウチシ","town":"瀬戸","town_kana":"セト","prefecture_code":39},"0252":{"zip_code":"7810252","prefecture":"高知県","prefecture_kana":"コウチケン","city":"高知市","city_kana":"コウチシ","town":"瀬戸東町","town_kana":"セトヒガシマチ","prefecture_code":39},"0251":{"zip_code":"7810251","prefecture":"高知県","prefecture_kana":"コウチケン","city":"高知市","city_kana":"コウチシ","town":"瀬戸西町","town_kana":"セトニシマチ","prefecture_code":39},"0253":{"zip_code":"7810253","prefecture":"高知県","prefecture_kana":"コウチケン","city":"高知市","city_kana":"コウチシ","town":"瀬戸南町","town_kana":"セトミナミマチ","prefecture_code":39},"8123":{"zip_code":"7818123","prefecture":"高知県","prefecture_kana":"コウチケン","city":"高知市","city_kana":"コウチシ","town":"高須","town_kana":"タカス","prefecture_code":39},"8104":{"zip_code":"7818104","prefecture":"高知県","prefecture_kana":"コウチケン","city":"高知市","city_kana":"コウチシ","town":"高須","town_kana":"タカス","prefecture_code":39},"8111":{"zip_code":"7818111","prefecture":"高知県","prefecture_kana":"コウチケン","city":"高知市","city_kana":"コウチシ","town":"高須大島","town_kana":"タカスオオシマ","prefecture_code":39},"8112":{"zip_code":"7818112","prefecture":"高知県","prefecture_kana":"コウチケン","city":"高知市","city_kana":"コウチシ","town":"高須大谷","town_kana":"タカスオオタニ","prefecture_code":39},"8103":{"zip_code":"7818103","prefecture":"高知県","prefecture_kana":"コウチケン","city":"高知市","city_kana":"コウチシ","town":"高須新木","town_kana":"タカスシンギ","prefecture_code":39},"8122":{"zip_code":"7818122","prefecture":"高知県","prefecture_kana":"コウチケン","city":"高知市","city_kana":"コウチシ","town":"高須新町","town_kana":"タカスシンマチ","prefecture_code":39},"8101":{"zip_code":"7818101","prefecture":"高知県","prefecture_kana":"コウチケン","city":"高知市","city_kana":"コウチシ","town":"高須砂地","town_kana":"タカススナヂ","prefecture_code":39},"8113":{"zip_code":"7818113","prefecture":"高知県","prefecture_kana":"コウチケン","city":"高知市","city_kana":"コウチシ","town":"高須絶海","town_kana":"タカスタルミ","prefecture_code":39},"8114":{"zip_code":"7818114","prefecture":"高知県","prefecture_kana":"コウチケン","city":"高知市","city_kana":"コウチシ","town":"高須西町","town_kana":"タカスニシマチ","prefecture_code":39},"8105":{"zip_code":"7818105","prefecture":"高知県","prefecture_kana":"コウチケン","city":"高知市","city_kana":"コウチシ","town":"高須東町","town_kana":"タカスヒガシマチ","prefecture_code":39},"8102":{"zip_code":"7818102","prefecture":"高知県","prefecture_kana":"コウチケン","city":"高知市","city_kana":"コウチシ","town":"高須本町","town_kana":"タカスホンマチ","prefecture_code":39},"0113":{"zip_code":"7810113","prefecture":"高知県","prefecture_kana":"コウチケン","city":"高知市","city_kana":"コウチシ","town":"種崎","town_kana":"タネザキ","prefecture_code":39},"0114":{"zip_code":"7810114","prefecture":"高知県","prefecture_kana":"コウチケン","city":"高知市","city_kana":"コウチシ","town":"十津","town_kana":"トオズ","prefecture_code":39},"3201":{"zip_code":"7813201","prefecture":"高知県","prefecture_kana":"コウチケン","city":"高知市","city_kana":"コウチシ","town":"土佐山","town_kana":"トサヤマ","prefecture_code":39},"3212":{"zip_code":"7813212","prefecture":"高知県","prefecture_kana":"コウチケン","city":"高知市","city_kana":"コウチシ","town":"土佐山梶谷","town_kana":"トサヤマカジタニ","prefecture_code":39},"3221":{"zip_code":"7813221","prefecture":"高知県","prefecture_kana":"コウチケン","city":"高知市","city_kana":"コウチシ","town":"土佐山桑尾","town_kana":"トサヤマクワオ","prefecture_code":39},"3214":{"zip_code":"7813214","prefecture":"高知県","prefecture_kana":"コウチケン","city":"高知市","city_kana":"コウチシ","town":"土佐山菖蒲","town_kana":"トサヤマショウブ","prefecture_code":39},"3211":{"zip_code":"7813211","prefecture":"高知県","prefecture_kana":"コウチケン","city":"高知市","city_kana":"コウチシ","town":"土佐山高川","town_kana":"トサヤマタカカワ","prefecture_code":39},"3202":{"zip_code":"7813202","prefecture":"高知県","prefecture_kana":"コウチケン","city":"高知市","city_kana":"コウチシ","town":"土佐山都網","town_kana":"トサヤマツアミ","prefecture_code":39},"3223":{"zip_code":"7813223","prefecture":"高知県","prefecture_kana":"コウチケン","city":"高知市","city_kana":"コウチシ","town":"土佐山中切","town_kana":"トサヤマナカギリ","prefecture_code":39},"3213":{"zip_code":"7813213","prefecture":"高知県","prefecture_kana":"コウチケン","city":"高知市","city_kana":"コウチシ","town":"土佐山西川","town_kana":"トサヤマニシガワ","prefecture_code":39},"3222":{"zip_code":"7813222","prefecture":"高知県","prefecture_kana":"コウチケン","city":"高知市","city_kana":"コウチシ","town":"土佐山東川","town_kana":"トサヤマヒガシカワ","prefecture_code":39},"3203":{"zip_code":"7813203","prefecture":"高知県","prefecture_kana":"コウチケン","city":"高知市","city_kana":"コウチシ","town":"土佐山弘瀬","town_kana":"トサヤマヒロセ","prefecture_code":39},"0270":{"zip_code":"7810270","prefecture":"高知県","prefecture_kana":"コウチケン","city":"高知市","city_kana":"コウチシ","town":"長浜","town_kana":"ナガハマ","prefecture_code":39},"0245":{"zip_code":"7810245","prefecture":"高知県","prefecture_kana":"コウチケン","city":"高知市","city_kana":"コウチシ","town":"長浜蒔絵台","town_kana":"ナガハママキエダイ","prefecture_code":39},"0271":{"zip_code":"7810271","prefecture":"高知県","prefecture_kana":"コウチケン","city":"高知市","city_kana":"コウチシ","town":"長浜宮田","town_kana":"ナガハマミヤタ","prefecture_code":39},"0112":{"zip_code":"7810112","prefecture":"高知県","prefecture_kana":"コウチケン","city":"高知市","city_kana":"コウチシ","town":"仁井田","town_kana":"ニイダ","prefecture_code":39},"5101":{"zip_code":"7815101","prefecture":"高知県","prefecture_kana":"コウチケン","city":"高知市","city_kana":"コウチシ","town":"布師田","town_kana":"ヌノシダ","prefecture_code":39},"0321":{"zip_code":"7810321","prefecture":"高知県","prefecture_kana":"コウチケン","city":"高知市","city_kana":"コウチシ","town":"春野町秋山","town_kana":"ハルノチョウアキヤマ","prefecture_code":39},"0313":{"zip_code":"7810313","prefecture":"高知県","prefecture_kana":"コウチケン","city":"高知市","city_kana":"コウチシ","town":"春野町内ノ谷","town_kana":"ハルノチョウウチノタニ","prefecture_code":39},"0322":{"zip_code":"7810322","prefecture":"高知県","prefecture_kana":"コウチケン","city":"高知市","city_kana":"コウチシ","town":"春野町甲殿","town_kana":"ハルノチョウコウドノ","prefecture_code":39},"0324":{"zip_code":"7810324","prefecture":"高知県","prefecture_kana":"コウチケン","city":"高知市","city_kana":"コウチシ","town":"春野町西畑","town_kana":"ハルノチョウサイバタ","prefecture_code":39},"0304":{"zip_code":"7810304","prefecture":"高知県","prefecture_kana":"コウチケン","city":"高知市","city_kana":"コウチシ","town":"春野町西分","town_kana":"ハルノチョウニシブン","prefecture_code":39},"0316":{"zip_code":"7810316","prefecture":"高知県","prefecture_kana":"コウチケン","city":"高知市","city_kana":"コウチシ","town":"春野町西諸木","town_kana":"ハルノチョウニシモロギ","prefecture_code":39},"0323":{"zip_code":"7810323","prefecture":"高知県","prefecture_kana":"コウチケン","city":"高知市","city_kana":"コウチシ","town":"春野町仁ノ","town_kana":"ハルノチョウニノ","prefecture_code":39},"0315":{"zip_code":"7810315","prefecture":"高知県","prefecture_kana":"コウチケン","city":"高知市","city_kana":"コウチシ","town":"春野町東諸木","town_kana":"ハルノチョウヒガシモロギ","prefecture_code":39},"0301":{"zip_code":"7810301","prefecture":"高知県","prefecture_kana":"コウチケン","city":"高知市","city_kana":"コウチシ","town":"春野町弘岡上","town_kana":"ハルノチョウヒロオカカミ","prefecture_code":39},"0303":{"zip_code":"7810303","prefecture":"高知県","prefecture_kana":"コウチケン","city":"高知市","city_kana":"コウチシ","town":"春野町弘岡下","town_kana":"ハルノチョウヒロオカシモ","prefecture_code":39},"0302":{"zip_code":"7810302","prefecture":"高知県","prefecture_kana":"コウチケン","city":"高知市","city_kana":"コウチシ","town":"春野町弘岡中","town_kana":"ハルノチョウヒロオカナカ","prefecture_code":39},"0312":{"zip_code":"7810312","prefecture":"高知県","prefecture_kana":"コウチケン","city":"高知市","city_kana":"コウチシ","town":"春野町平和","town_kana":"ハルノチョウヘイワ","prefecture_code":39},"0314":{"zip_code":"7810314","prefecture":"高知県","prefecture_kana":"コウチケン","city":"高知市","city_kana":"コウチシ","town":"春野町南ケ丘","town_kana":"ハルノチョウミナミガオカ","prefecture_code":39},"0325":{"zip_code":"7810325","prefecture":"高知県","prefecture_kana":"コウチケン","city":"高知市","city_kana":"コウチシ","town":"春野町森山","town_kana":"ハルノチョウモリヤマ","prefecture_code":39},"0311":{"zip_code":"7810311","prefecture":"高知県","prefecture_kana":"コウチケン","city":"高知市","city_kana":"コウチシ","town":"春野町芳原","town_kana":"ハルノチョウヨシハラ","prefecture_code":39},"0261":{"zip_code":"7810261","prefecture":"高知県","prefecture_kana":"コウチケン","city":"高知市","city_kana":"コウチシ","town":"御畳瀬","town_kana":"ミマセ","prefecture_code":39},"8124":{"zip_code":"7818124","prefecture":"高知県","prefecture_kana":"コウチケン","city":"高知市","city_kana":"コウチシ","town":"屋頭","town_kana":"ヤガシラ","prefecture_code":39},"0240":{"zip_code":"7810240","prefecture":"高知県","prefecture_kana":"コウチケン","city":"高知市","city_kana":"コウチシ","town":"横浜","town_kana":"ヨコハマ","prefecture_code":39},"0241":{"zip_code":"7810241","prefecture":"高知県","prefecture_kana":"コウチケン","city":"高知市","city_kana":"コウチシ","town":"横浜新町","town_kana":"ヨコハマシンマチ","prefecture_code":39},"0242":{"zip_code":"7810242","prefecture":"高知県","prefecture_kana":"コウチケン","city":"高知市","city_kana":"コウチシ","town":"横浜西町","town_kana":"ヨコハマニシマチ","prefecture_code":39},"0243":{"zip_code":"7810243","prefecture":"高知県","prefecture_kana":"コウチケン","city":"高知市","city_kana":"コウチシ","town":"横浜東町","town_kana":"ヨコハマヒガシマチ","prefecture_code":39},"0244":{"zip_code":"7810244","prefecture":"高知県","prefecture_kana":"コウチケン","city":"高知市","city_kana":"コウチシ","town":"横浜南町","town_kana":"ヨコハマミナミマチ","prefecture_code":39},"7100":{"zip_code":"7817100","prefecture":"高知県","prefecture_kana":"コウチケン","city":"室戸市","city_kana":"ムロトシ","town":"","town_kana":"","prefecture_code":39},"7103":{"zip_code":"7817103","prefecture":"高知県","prefecture_kana":"コウチケン","city":"室戸市","city_kana":"ムロトシ","town":"浮津","town_kana":"ウキツ","prefecture_code":39},"7104":{"zip_code":"7817104","prefecture":"高知県","prefecture_kana":"コウチケン","city":"室戸市","city_kana":"ムロトシ","town":"浮津一番町","town_kana":"ウキツ1バンチョウ","prefecture_code":39},"7105":{"zip_code":"7817105","prefecture":"高知県","prefecture_kana":"コウチケン","city":"室戸市","city_kana":"ムロトシ","town":"浮津二番町","town_kana":"ウキツ2バンチョウ","prefecture_code":39},"7106":{"zip_code":"7817106","prefecture":"高知県","prefecture_kana":"コウチケン","city":"室戸市","city_kana":"ムロトシ","town":"浮津三番町","town_kana":"ウキツ3バンチョウ","prefecture_code":39},"6832":{"zip_code":"7816832","prefecture":"高知県","prefecture_kana":"コウチケン","city":"室戸市","city_kana":"ムロトシ","town":"吉良川町甲","town_kana":"キラガワチョウコウ","prefecture_code":39},"6831":{"zip_code":"7816831","prefecture":"高知県","prefecture_kana":"コウチケン","city":"室戸市","city_kana":"ムロトシ","town":"吉良川町乙","town_kana":"キラガワチョウオツ","prefecture_code":39},"6833":{"zip_code":"7816833","prefecture":"高知県","prefecture_kana":"コウチケン","city":"室戸市","city_kana":"ムロトシ","town":"吉良川町丙","town_kana":"キラガワチョウヘイ","prefecture_code":39},"7220":{"zip_code":"7817220","prefecture":"高知県","prefecture_kana":"コウチケン","city":"室戸市","city_kana":"ムロトシ","town":"佐喜浜町","town_kana":"サキハマチョウ","prefecture_code":39},"6741":{"zip_code":"7816741","prefecture":"高知県","prefecture_kana":"コウチケン","city":"室戸市","city_kana":"ムロトシ","town":"羽根町甲","town_kana":"ハネチョウコウ","prefecture_code":39},"6742":{"zip_code":"7816742","prefecture":"高知県","prefecture_kana":"コウチケン","city":"室戸市","city_kana":"ムロトシ","town":"羽根町乙","town_kana":"ハネチョウオツ","prefecture_code":39},"7102":{"zip_code":"7817102","prefecture":"高知県","prefecture_kana":"コウチケン","city":"室戸市","city_kana":"ムロトシ","town":"室津","town_kana":"ムロツ","prefecture_code":39},"7101":{"zip_code":"7817101","prefecture":"高知県","prefecture_kana":"コウチケン","city":"室戸市","city_kana":"ムロトシ","town":"室戸岬町","town_kana":"ムロトミサキチョウ","prefecture_code":39},"7107":{"zip_code":"7817107","prefecture":"高知県","prefecture_kana":"コウチケン","city":"室戸市","city_kana":"ムロトシ","town":"元甲","town_kana":"モトコウ","prefecture_code":39},"7108":{"zip_code":"7817108","prefecture":"高知県","prefecture_kana":"コウチケン","city":"室戸市","city_kana":"ムロトシ","town":"元乙","town_kana":"モトオツ","prefecture_code":39},"7109":{"zip_code":"7817109","prefecture":"高知県","prefecture_kana":"コウチケン","city":"室戸市","city_kana":"ムロトシ","town":"領家","town_kana":"リョウケ","prefecture_code":39},"1100":{"zip_code":"7811100","prefecture":"高知県","prefecture_kana":"コウチケン","city":"土佐市","city_kana":"トサシ","town":"","town_kana":"","prefecture_code":39},"1136":{"zip_code":"7811136","prefecture":"高知県","prefecture_kana":"コウチケン","city":"土佐市","city_kana":"トサシ","town":"浅井","town_kana":"アザイ","prefecture_code":39},"1134":{"zip_code":"7811134","prefecture":"高知県","prefecture_kana":"コウチケン","city":"土佐市","city_kana":"トサシ","town":"家俊","town_kana":"イエトシ","prefecture_code":39},"1142":{"zip_code":"7811142","prefecture":"高知県","prefecture_kana":"コウチケン","city":"土佐市","city_kana":"トサシ","town":"出間","town_kana":"イズマ","prefecture_code":39},"1132":{"zip_code":"7811132","prefecture":"高知県","prefecture_kana":"コウチケン","city":"土佐市","city_kana":"トサシ","town":"市野々","town_kana":"イチノノ","prefecture_code":39},"1141":{"zip_code":"7811141","prefecture":"高知県","prefecture_kana":"コウチケン","city":"土佐市","city_kana":"トサシ","town":"岩戸","town_kana":"イワト","prefecture_code":39},"1164":{"zip_code":"7811164","prefecture":"高知県","prefecture_kana":"コウチケン","city":"土佐市","city_kana":"トサシ","town":"宇佐町井尻","town_kana":"ウサチョウイジリ","prefecture_code":39},"1162":{"zip_code":"7811162","prefecture":"高知県","prefecture_kana":"コウチケン","city":"土佐市","city_kana":"トサシ","town":"宇佐町渭浜","town_kana":"ウサチョウイハマ","prefecture_code":39},"1161":{"zip_code":"7811161","prefecture":"高知県","prefecture_kana":"コウチケン","city":"土佐市","city_kana":"トサシ","town":"宇佐町宇佐","town_kana":"ウサチョウウサ","prefecture_code":39},"1163":{"zip_code":"7811163","prefecture":"高知県","prefecture_kana":"コウチケン","city":"土佐市","city_kana":"トサシ","town":"宇佐町福島","town_kana":"ウサチョウフクシマ","prefecture_code":39},"1165":{"zip_code":"7811165","prefecture":"高知県","prefecture_kana":"コウチケン","city":"土佐市","city_kana":"トサシ","town":"宇佐町竜","town_kana":"ウサチョウリュウ","prefecture_code":39},"1113":{"zip_code":"7811113","prefecture":"高知県","prefecture_kana":"コウチケン","city":"土佐市","city_kana":"トサシ","town":"甲原","town_kana":"カンバラ","prefecture_code":39},"1111":{"zip_code":"7811111","prefecture":"高知県","prefecture_kana":"コウチケン","city":"土佐市","city_kana":"トサシ","town":"北地","town_kana":"キタジ","prefecture_code":39},"1125":{"zip_code":"7811125","prefecture":"高知県","prefecture_kana":"コウチケン","city":"土佐市","city_kana":"トサシ","town":"積善寺","town_kana":"シャクゼンジ","prefecture_code":39},"1101":{"zip_code":"7811101","prefecture":"高知県","prefecture_kana":"コウチケン","city":"土佐市","city_kana":"トサシ","town":"高岡町甲","town_kana":"タカオカチョウコウ","prefecture_code":39},"1102":{"zip_code":"7811102","prefecture":"高知県","prefecture_kana":"コウチケン","city":"土佐市","city_kana":"トサシ","town":"高岡町乙","town_kana":"タカオカチョウオツ","prefecture_code":39},"1103":{"zip_code":"7811103","prefecture":"高知県","prefecture_kana":"コウチケン","city":"土佐市","city_kana":"トサシ","town":"高岡町丙","town_kana":"タカオカチョウヘイ","prefecture_code":39},"1104":{"zip_code":"7811104","prefecture":"高知県","prefecture_kana":"コウチケン","city":"土佐市","city_kana":"トサシ","town":"高岡町丁","town_kana":"タカオカチョウテイ","prefecture_code":39},"1133":{"zip_code":"7811133","prefecture":"高知県","prefecture_kana":"コウチケン","city":"土佐市","city_kana":"トサシ","town":"鷹ノ巣","town_kana":"タカノス","prefecture_code":39},"1135":{"zip_code":"7811135","prefecture":"高知県","prefecture_kana":"コウチケン","city":"土佐市","city_kana":"トサシ","town":"太郎丸","town_kana":"タロウマル","prefecture_code":39},"1153":{"zip_code":"7811153","prefecture":"高知県","prefecture_kana":"コウチケン","city":"土佐市","city_kana":"トサシ","town":"塚地","town_kana":"ツカジ","prefecture_code":39},"1151":{"zip_code":"7811151","prefecture":"高知県","prefecture_kana":"コウチケン","city":"土佐市","city_kana":"トサシ","town":"中島","town_kana":"ナカジマ","prefecture_code":39},"1131":{"zip_code":"7811131","prefecture":"高知県","prefecture_kana":"コウチケン","city":"土佐市","city_kana":"トサシ","town":"永野","town_kana":"ナガノ","prefecture_code":39},"1154":{"zip_code":"7811154","prefecture":"高知県","prefecture_kana":"コウチケン","city":"土佐市","city_kana":"トサシ","town":"新居","town_kana":"ニイ","prefecture_code":39},"1123":{"zip_code":"7811123","prefecture":"高知県","prefecture_kana":"コウチケン","city":"土佐市","city_kana":"トサシ","town":"西鴨地","town_kana":"ニシカモジ","prefecture_code":39},"1143":{"zip_code":"7811143","prefecture":"高知県","prefecture_kana":"コウチケン","city":"土佐市","city_kana":"トサシ","town":"波介","town_kana":"ハゲ","prefecture_code":39},"1105":{"zip_code":"7811105","prefecture":"高知県","prefecture_kana":"コウチケン","city":"土佐市","city_kana":"トサシ","town":"蓮池","town_kana":"ハスイケ","prefecture_code":39},"1121":{"zip_code":"7811121","prefecture":"高知県","prefecture_kana":"コウチケン","city":"土佐市","city_kana":"トサシ","town":"東鴨地","town_kana":"ヒガシカモジ","prefecture_code":39},"1112":{"zip_code":"7811112","prefecture":"高知県","prefecture_kana":"コウチケン","city":"土佐市","city_kana":"トサシ","town":"福田","town_kana":"フクダ","prefecture_code":39},"1122":{"zip_code":"7811122","prefecture":"高知県","prefecture_kana":"コウチケン","city":"土佐市","city_kana":"トサシ","town":"本村","town_kana":"ホンムラ","prefecture_code":39},"1124":{"zip_code":"7811124","prefecture":"高知県","prefecture_kana":"コウチケン","city":"土佐市","city_kana":"トサシ","town":"宮ノ内","town_kana":"ミヤノウチ","prefecture_code":39},"1152":{"zip_code":"7811152","prefecture":"高知県","prefecture_kana":"コウチケン","city":"土佐市","city_kana":"トサシ","town":"用石","town_kana":"モチイシ","prefecture_code":39},"1114":{"zip_code":"7811114","prefecture":"高知県","prefecture_kana":"コウチケン","city":"土佐市","city_kana":"トサシ","town":"谷地","town_kana":"ヤツジ","prefecture_code":39},"5200":{"zip_code":"7815200","prefecture":"高知県","prefecture_kana":"コウチケン","city":"香南市","city_kana":"コウナンシ","town":"","town_kana":"","prefecture_code":39},"5310":{"zip_code":"7815310","prefecture":"高知県","prefecture_kana":"コウチケン","city":"香南市","city_kana":"コウナンシ","town":"赤岡町","town_kana":"アカオカチョウ","prefecture_code":39},"5467":{"zip_code":"7815467","prefecture":"高知県","prefecture_kana":"コウチケン","city":"香南市","city_kana":"コウナンシ","town":"香我美町奥西川","town_kana":"カガミチョウオクニシガワ","prefecture_code":39},"5451":{"zip_code":"7815451","prefecture":"高知県","prefecture_kana":"コウチケン","city":"香南市","city_kana":"コウナンシ","town":"香我美町上分","town_kana":"カガミチョウカミブン","prefecture_code":39},"5331":{"zip_code":"7815331","prefecture":"高知県","prefecture_kana":"コウチケン","city":"香南市","city_kana":"コウナンシ","town":"香我美町岸本","town_kana":"カガミチョウキシモト","prefecture_code":39},"5454":{"zip_code":"7815454","prefecture":"高知県","prefecture_kana":"コウチケン","city":"香南市","city_kana":"コウナンシ","town":"香我美町口西川","town_kana":"カガミチョウクチニシガワ","prefecture_code":39},"5452":{"zip_code":"7815452","prefecture":"高知県","prefecture_kana":"コウチケン","city":"香南市","city_kana":"コウナンシ","town":"香我美町下分","town_kana":"カガミチョウシモブン","prefecture_code":39},"5464":{"zip_code":"7815464","prefecture":"高知県","prefecture_kana":"コウチケン","city":"香南市","city_kana":"コウナンシ","town":"香我美町末清","town_kana":"カガミチョウスエキヨ","prefecture_code":39},"5463":{"zip_code":"7815463","prefecture":"高知県","prefecture_kana":"コウチケン","city":"香南市","city_kana":"コウナンシ","town":"香我美町末延","town_kana":"カガミチョウスエノブ","prefecture_code":39},"5332":{"zip_code":"7815332","prefecture":"高知県","prefecture_kana":"コウチケン","city":"香南市","city_kana":"コウナンシ","town":"香我美町徳王子","town_kana":"カガミチョウトクオウジ","prefecture_code":39},"5455":{"zip_code":"7815455","prefecture":"高知県","prefecture_kana":"コウチケン","city":"香南市","city_kana":"コウナンシ","town":"香我美町中西川","town_kana":"カガミチョウナカニシガワ","prefecture_code":39},"5461":{"zip_code":"7815461","prefecture":"高知県","prefecture_kana":"コウチケン","city":"香南市","city_kana":"コウナンシ","town":"香我美町福万","town_kana":"カガミチョウフクマン","prefecture_code":39},"5466":{"zip_code":"7815466","prefecture":"高知県","prefecture_kana":"コウチケン","city":"香南市","city_kana":"コウナンシ","town":"香我美町別役","town_kana":"カガミチョウベッチャク","prefecture_code":39},"5469":{"zip_code":"7815469","prefecture":"高知県","prefecture_kana":"コウチケン","city":"香南市","city_kana":"コウナンシ","town":"香我美町舞川","town_kana":"カガミチョウマイカワ","prefecture_code":39},"5465":{"zip_code":"7815465","prefecture":"高知県","prefecture_kana":"コウチケン","city":"香南市","city_kana":"コウナンシ","town":"香我美町正延","town_kana":"カガミチョウマサノブ","prefecture_code":39},"5468":{"zip_code":"7815468","prefecture":"高知県","prefecture_kana":"コウチケン","city":"香南市","city_kana":"コウナンシ","town":"香我美町撫川","town_kana":"カガミチョウムガワ","prefecture_code":39},"5462":{"zip_code":"7815462","prefecture":"高知県","prefecture_kana":"コウチケン","city":"香南市","city_kana":"コウナンシ","town":"香我美町山川","town_kana":"カガミチョウヤマガワ","prefecture_code":39},"5453":{"zip_code":"7815453","prefecture":"高知県","prefecture_kana":"コウチケン","city":"香南市","city_kana":"コウナンシ","town":"香我美町山北","town_kana":"カガミチョウヤマキタ","prefecture_code":39},"5202":{"zip_code":"7815202","prefecture":"高知県","prefecture_kana":"コウチケン","city":"香南市","city_kana":"コウナンシ","town":"野市町兎田","town_kana":"ノイチチョウウサイダ","prefecture_code":39},"5233":{"zip_code":"7815233","prefecture":"高知県","prefecture_kana":"コウチケン","city":"香南市","city_kana":"コウナンシ","town":"野市町大谷","town_kana":"ノイチチョウオオタニ","prefecture_code":39},"5234":{"zip_code":"7815234","prefecture":"高知県","prefecture_kana":"コウチケン","city":"香南市","city_kana":"コウナンシ","town":"野市町上岡","town_kana":"ノイチチョウカミオカ","prefecture_code":39},"5235":{"zip_code":"7815235","prefecture":"高知県","prefecture_kana":"コウチケン","city":"香南市","city_kana":"コウナンシ","town":"野市町下井","town_kana":"ノイチチョウシモイ","prefecture_code":39},"5204":{"zip_code":"7815204","prefecture":"高知県","prefecture_kana":"コウチケン","city":"香南市","city_kana":"コウナンシ","town":"野市町新宮","town_kana":"ノイチチョウシングウ","prefecture_code":39},"5212":{"zip_code":"7815212","prefecture":"高知県","prefecture_kana":"コウチケン","city":"香南市","city_kana":"コウナンシ","town":"野市町土居","town_kana":"ノイチチョウドイ","prefecture_code":39},"5211":{"zip_code":"7815211","prefecture":"高知県","prefecture_kana":"コウチケン","city":"香南市","city_kana":"コウナンシ","town":"野市町中ノ村","town_kana":"ノイチチョウナカノムラ","prefecture_code":39},"5203":{"zip_code":"7815203","prefecture":"高知県","prefecture_kana":"コウチケン","city":"香南市","city_kana":"コウナンシ","town":"野市町中山田","town_kana":"ノイチチョウナカヤマダ","prefecture_code":39},"5223":{"zip_code":"7815223","prefecture":"高知県","prefecture_kana":"コウチケン","city":"香南市","city_kana":"コウナンシ","town":"野市町西佐古","town_kana":"ノイチチョウニシサコ","prefecture_code":39},"5232":{"zip_code":"7815232","prefecture":"高知県","prefecture_kana":"コウチケン","city":"香南市","city_kana":"コウナンシ","town":"野市町西野","town_kana":"ノイチチョウニシノ","prefecture_code":39},"5224":{"zip_code":"7815224","prefecture":"高知県","prefecture_kana":"コウチケン","city":"香南市","city_kana":"コウナンシ","town":"野市町東佐古","town_kana":"ノイチチョウヒガシサコ","prefecture_code":39},"5213":{"zip_code":"7815213","prefecture":"高知県","prefecture_kana":"コウチケン","city":"香南市","city_kana":"コウナンシ","town":"野市町東野","town_kana":"ノイチチョウヒガシノ","prefecture_code":39},"5231":{"zip_code":"7815231","prefecture":"高知県","prefecture_kana":"コウチケン","city":"香南市","city_kana":"コウナンシ","town":"野市町深渕","town_kana":"ノイチチョウフカブチ","prefecture_code":39},"5221":{"zip_code":"7815221","prefecture":"高知県","prefecture_kana":"コウチケン","city":"香南市","city_kana":"コウナンシ","town":"野市町父養寺","town_kana":"ノイチチョウブヨウジ","prefecture_code":39},"5222":{"zip_code":"7815222","prefecture":"高知県","prefecture_kana":"コウチケン","city":"香南市","city_kana":"コウナンシ","town":"野市町母代寺","town_kana":"ノイチチョウボダイジ","prefecture_code":39},"5201":{"zip_code":"7815201","prefecture":"高知県","prefecture_kana":"コウチケン","city":"香南市","city_kana":"コウナンシ","town":"野市町本村","town_kana":"ノイチチョウホンムラ","prefecture_code":39},"5206":{"zip_code":"7815206","prefecture":"高知県","prefecture_kana":"コウチケン","city":"香南市","city_kana":"コウナンシ","town":"野市町みどり野","town_kana":"ノイチチョウミドリノ","prefecture_code":39},"5205":{"zip_code":"7815205","prefecture":"高知県","prefecture_kana":"コウチケン","city":"香南市","city_kana":"コウナンシ","town":"野市町みどり野東","town_kana":"ノイチチョウミドリノヒガシ","prefecture_code":39},"5604":{"zip_code":"7815604","prefecture":"高知県","prefecture_kana":"コウチケン","city":"香南市","city_kana":"コウナンシ","town":"夜須町出口","town_kana":"ヤスチョウイデグチ","prefecture_code":39},"5606":{"zip_code":"7815606","prefecture":"高知県","prefecture_kana":"コウチケン","city":"香南市","city_kana":"コウナンシ","town":"夜須町上夜須","town_kana":"ヤスチョウカミヤス","prefecture_code":39},"5613":{"zip_code":"7815613","prefecture":"高知県","prefecture_kana":"コウチケン","city":"香南市","city_kana":"コウナンシ","town":"夜須町国光","town_kana":"ヤスチョウクニミツ","prefecture_code":39},"5615":{"zip_code":"7815615","prefecture":"高知県","prefecture_kana":"コウチケン","city":"香南市","city_kana":"コウナンシ","town":"夜須町沢谷","town_kana":"ヤスチョウサワタニ","prefecture_code":39},"5602":{"zip_code":"7815602","prefecture":"高知県","prefecture_kana":"コウチケン","city":"香南市","city_kana":"コウナンシ","town":"夜須町千切","town_kana":"ヤスチョウチギレ","prefecture_code":39},"5601":{"zip_code":"7815601","prefecture":"高知県","prefecture_kana":"コウチケン","city":"香南市","city_kana":"コウナンシ","town":"夜須町坪井","town_kana":"ヤスチョウツボイ","prefecture_code":39},"5621":{"zip_code":"7815621","prefecture":"高知県","prefecture_kana":"コウチケン","city":"香南市","city_kana":"コウナンシ","town":"夜須町手結","town_kana":"ヤスチョウテイ","prefecture_code":39},"5622":{"zip_code":"7815622","prefecture":"高知県","prefecture_kana":"コウチケン","city":"香南市","city_kana":"コウナンシ","town":"夜須町手結山","town_kana":"ヤスチョウテイヤマ","prefecture_code":39},"5605":{"zip_code":"7815605","prefecture":"高知県","prefecture_kana":"コウチケン","city":"香南市","city_kana":"コウナンシ","town":"夜須町十ノ木","town_kana":"ヤスチョウトオノキ","prefecture_code":39},"5616":{"zip_code":"7815616","prefecture":"高知県","prefecture_kana":"コウチケン","city":"香南市","city_kana":"コウナンシ","town":"夜須町仲木屋","town_kana":"ヤスチョウナカギヤ","prefecture_code":39},"5603":{"zip_code":"7815603","prefecture":"高知県","prefecture_kana":"コウチケン","city":"香南市","city_kana":"コウナンシ","town":"夜須町西山","town_kana":"ヤスチョウニシヤマ","prefecture_code":39},"5614":{"zip_code":"7815614","prefecture":"高知県","prefecture_kana":"コウチケン","city":"香南市","city_kana":"コウナンシ","town":"夜須町羽尾","town_kana":"ヤスチョウハオ","prefecture_code":39},"5612":{"zip_code":"7815612","prefecture":"高知県","prefecture_kana":"コウチケン","city":"香南市","city_kana":"コウナンシ","town":"夜須町細川","town_kana":"ヤスチョウホソカワ","prefecture_code":39},"5611":{"zip_code":"7815611","prefecture":"高知県","prefecture_kana":"コウチケン","city":"香南市","city_kana":"コウナンシ","town":"夜須町夜須川","town_kana":"ヤスチョウヤスガワ","prefecture_code":39},"5242":{"zip_code":"7815242","prefecture":"高知県","prefecture_kana":"コウチケン","city":"香南市","city_kana":"コウナンシ","town":"吉川町古川","town_kana":"ヨシカワチョウフルカワ","prefecture_code":39},"5241":{"zip_code":"7815241","prefecture":"高知県","prefecture_kana":"コウチケン","city":"香南市","city_kana":"コウナンシ","town":"吉川町吉原","town_kana":"ヨシカワチョウヨシハラ","prefecture_code":39},"4223":{"zip_code":"7814223","prefecture":"高知県","prefecture_kana":"コウチケン","city":"香美市","city_kana":"カミシ","town":"香北町有川","town_kana":"カホクチョウアラカワ","prefecture_code":39},"4224":{"zip_code":"7814224","prefecture":"高知県","prefecture_kana":"コウチケン","city":"香美市","city_kana":"カミシ","town":"香北町有瀬","town_kana":"カホクチョウアラセ","prefecture_code":39},"4222":{"zip_code":"7814222","prefecture":"高知県","prefecture_kana":"コウチケン","city":"香美市","city_kana":"カミシ","town":"香北町五百蔵","town_kana":"カホクチョウイオロイ","prefecture_code":39},"4247":{"zip_code":"7814247","prefecture":"高知県","prefecture_kana":"コウチケン","city":"香美市","city_kana":"カミシ","town":"香北町猪野々","town_kana":"カホクチョウイノノ","prefecture_code":39},"4215":{"zip_code":"7814215","prefecture":"高知県","prefecture_kana":"コウチケン","city":"香美市","city_kana":"カミシ","town":"香北町岩改","town_kana":"カホクチョウイワカイ","prefecture_code":39},"4243":{"zip_code":"7814243","prefecture":"高知県","prefecture_kana":"コウチケン","city":"香美市","city_kana":"カミシ","town":"香北町梅久保","town_kana":"カホクチョウウメノクボ","prefecture_code":39},"4241":{"zip_code":"7814241","prefecture":"高知県","prefecture_kana":"コウチケン","city":"香美市","city_kana":"カミシ","town":"香北町大井平","town_kana":"カホクチョウオオイダイラ","prefecture_code":39},"4242":{"zip_code":"7814242","prefecture":"高知県","prefecture_kana":"コウチケン","city":"香美市","city_kana":"カミシ","town":"香北町大束","town_kana":"カホクチョウオオツカ","prefecture_code":39},"4206":{"zip_code":"7814206","prefecture":"高知県","prefecture_kana":"コウチケン","city":"香美市","city_kana":"カミシ","town":"香北町小川","town_kana":"カホクチョウオガワ","prefecture_code":39},"4227":{"zip_code":"7814227","prefecture":"高知県","prefecture_kana":"コウチケン","city":"香美市","city_kana":"カミシ","town":"香北町川ノ内","town_kana":"カホクチョウカワノウチ","prefecture_code":39},"4226":{"zip_code":"7814226","prefecture":"高知県","prefecture_kana":"コウチケン","city":"香美市","city_kana":"カミシ","town":"香北町河野","town_kana":"カホクチョウコウノ","prefecture_code":39},"4213":{"zip_code":"7814213","prefecture":"高知県","prefecture_kana":"コウチケン","city":"香美市","city_kana":"カミシ","town":"香北町下野尻","town_kana":"カホクチョウシモノジリ","prefecture_code":39},"4203":{"zip_code":"7814203","prefecture":"高知県","prefecture_kana":"コウチケン","city":"香美市","city_kana":"カミシ","town":"香北町白石","town_kana":"カホクチョウシライシ","prefecture_code":39},"4221":{"zip_code":"7814221","prefecture":"高知県","prefecture_kana":"コウチケン","city":"香美市","city_kana":"カミシ","town":"香北町白川","town_kana":"カホクチョウシラカワ","prefecture_code":39},"4245":{"zip_code":"7814245","prefecture":"高知県","prefecture_kana":"コウチケン","city":"香美市","city_kana":"カミシ","town":"香北町清爪","town_kana":"カホクチョウセイヅメ","prefecture_code":39},"4232":{"zip_code":"7814232","prefecture":"高知県","prefecture_kana":"コウチケン","city":"香美市","city_kana":"カミシ","town":"香北町谷相","town_kana":"カホクチョウタニアイ","prefecture_code":39},"4214":{"zip_code":"7814214","prefecture":"高知県","prefecture_kana":"コウチケン","city":"香美市","city_kana":"カミシ","town":"香北町太郎丸","town_kana":"カホクチョウタロマル","prefecture_code":39},"4201":{"zip_code":"7814201","prefecture":"高知県","prefecture_kana":"コウチケン","city":"香美市","city_kana":"カミシ","town":"香北町永瀬","town_kana":"カホクチョウナガセ","prefecture_code":39},"4233":{"zip_code":"7814233","prefecture":"高知県","prefecture_kana":"コウチケン","city":"香美市","city_kana":"カミシ","town":"香北町中谷","town_kana":"カホクチョウナカタニ","prefecture_code":39},"4236":{"zip_code":"7814236","prefecture":"高知県","prefecture_kana":"コウチケン","city":"香美市","city_kana":"カミシ","town":"香北町永野","town_kana":"カホクチョウナガノ","prefecture_code":39},"4208":{"zip_code":"7814208","prefecture":"高知県","prefecture_kana":"コウチケン","city":"香美市","city_kana":"カミシ","town":"香北町西川甲","town_kana":"カホクチョウニシガワコウ","prefecture_code":39},"4207":{"zip_code":"7814207","prefecture":"高知県","prefecture_kana":"コウチケン","city":"香美市","city_kana":"カミシ","town":"香北町西川乙","town_kana":"カホクチョウニシガワオツ","prefecture_code":39},"4225":{"zip_code":"7814225","prefecture":"高知県","prefecture_kana":"コウチケン","city":"香美市","city_kana":"カミシ","town":"香北町西峯","town_kana":"カホクチョウニシノミネ","prefecture_code":39},"4211":{"zip_code":"7814211","prefecture":"高知県","prefecture_kana":"コウチケン","city":"香美市","city_kana":"カミシ","town":"香北町韮生野","town_kana":"カホクチョウニロウノ","prefecture_code":39},"4204":{"zip_code":"7814204","prefecture":"高知県","prefecture_kana":"コウチケン","city":"香美市","city_kana":"カミシ","town":"香北町根須","town_kana":"カホクチョウネズ","prefecture_code":39},"4216":{"zip_code":"7814216","prefecture":"高知県","prefecture_kana":"コウチケン","city":"香美市","city_kana":"カミシ","town":"香北町萩野","town_kana":"カホクチョウハギノ","prefecture_code":39},"4217":{"zip_code":"7814217","prefecture":"高知県","prefecture_kana":"コウチケン","city":"香美市","city_kana":"カミシ","town":"香北町橋川野","town_kana":"カホクチョウハシカワノ","prefecture_code":39},"4244":{"zip_code":"7814244","prefecture":"高知県","prefecture_kana":"コウチケン","city":"香美市","city_kana":"カミシ","town":"香北町日浦込","town_kana":"カホクチョウヒウラゴミ","prefecture_code":39},"4231":{"zip_code":"7814231","prefecture":"高知県","prefecture_kana":"コウチケン","city":"香美市","city_kana":"カミシ","town":"香北町日ノ御子","town_kana":"カホクチョウヒノミコ","prefecture_code":39},"4246":{"zip_code":"7814246","prefecture":"高知県","prefecture_kana":"コウチケン","city":"香美市","city_kana":"カミシ","town":"香北町日比原","town_kana":"カホクチョウヒビハラ","prefecture_code":39},"4212":{"zip_code":"7814212","prefecture":"高知県","prefecture_kana":"コウチケン","city":"香美市","city_kana":"カミシ","town":"香北町美良布","town_kana":"カホクチョウビラフ","prefecture_code":39},"4235":{"zip_code":"7814235","prefecture":"高知県","prefecture_kana":"コウチケン","city":"香美市","city_kana":"カミシ","town":"香北町朴ノ木","town_kana":"カホクチョウホウノキ","prefecture_code":39},"4234":{"zip_code":"7814234","prefecture":"高知県","prefecture_kana":"コウチケン","city":"香美市","city_kana":"カミシ","town":"香北町横谷","town_kana":"カホクチョウヨコタニ","prefecture_code":39},"4205":{"zip_code":"7814205","prefecture":"高知県","prefecture_kana":"コウチケン","city":"香美市","city_kana":"カミシ","town":"香北町吉野","town_kana":"カホクチョウヨシノ","prefecture_code":39},"4202":{"zip_code":"7814202","prefecture":"高知県","prefecture_kana":"コウチケン","city":"香美市","city_kana":"カミシ","town":"香北町蕨野","town_kana":"カホクチョウワラビノ","prefecture_code":39},"4643":{"zip_code":"7814643","prefecture":"高知県","prefecture_kana":"コウチケン","city":"香美市","city_kana":"カミシ","town":"物部町市宇","town_kana":"モノベチョウイチウ","prefecture_code":39},"4401":{"zip_code":"7814401","prefecture":"高知県","prefecture_kana":"コウチケン","city":"香美市","city_kana":"カミシ","town":"物部町大栃","town_kana":"モノベチョウオオドチ","prefecture_code":39},"4528":{"zip_code":"7814528","prefecture":"高知県","prefecture_kana":"コウチケン","city":"香美市","city_kana":"カミシ","town":"物部町大西","town_kana":"モノベチョウオオニシ","prefecture_code":39},"4641":{"zip_code":"7814641","prefecture":"高知県","prefecture_kana":"コウチケン","city":"香美市","city_kana":"カミシ","town":"物部町岡ノ内","town_kana":"モノベチョウオカノウチ","prefecture_code":39},"4403":{"zip_code":"7814403","prefecture":"高知県","prefecture_kana":"コウチケン","city":"香美市","city_kana":"カミシ","town":"物部町押谷","town_kana":"モノベチョウオスダニ","prefecture_code":39},"4524":{"zip_code":"7814524","prefecture":"高知県","prefecture_kana":"コウチケン","city":"香美市","city_kana":"カミシ","town":"物部町楮佐古","town_kana":"モノベチョウカジサコ","prefecture_code":39},"4523":{"zip_code":"7814523","prefecture":"高知県","prefecture_kana":"コウチケン","city":"香美市","city_kana":"カミシ","town":"物部町神池","town_kana":"モノベチョウカミイケ","prefecture_code":39},"4531":{"zip_code":"7814531","prefecture":"高知県","prefecture_kana":"コウチケン","city":"香美市","city_kana":"カミシ","town":"物部町久保","town_kana":"モノベチョウクボ","prefecture_code":39},"4522":{"zip_code":"7814522","prefecture":"高知県","prefecture_kana":"コウチケン","city":"香美市","city_kana":"カミシ","town":"物部町黒代","town_kana":"モノベチョウクロダイ","prefecture_code":39},"4526":{"zip_code":"7814526","prefecture":"高知県","prefecture_kana":"コウチケン","city":"香美市","city_kana":"カミシ","town":"物部町五王堂","town_kana":"モノベチョウゴオドウ","prefecture_code":39},"4404":{"zip_code":"7814404","prefecture":"高知県","prefecture_kana":"コウチケン","city":"香美市","city_kana":"カミシ","town":"物部町小浜","town_kana":"モノベチョウコハマ","prefecture_code":39},"4530":{"zip_code":"7814530","prefecture":"高知県","prefecture_kana":"コウチケン","city":"香美市","city_kana":"カミシ","town":"物部町笹","town_kana":"モノベチョウササ","prefecture_code":39},"4413":{"zip_code":"7814413","prefecture":"高知県","prefecture_kana":"コウチケン","city":"香美市","city_kana":"カミシ","town":"物部町庄谷相","town_kana":"モノベチョウショウダニアイ","prefecture_code":39},"4406":{"zip_code":"7814406","prefecture":"高知県","prefecture_kana":"コウチケン","city":"香美市","city_kana":"カミシ","town":"物部町仙頭","town_kana":"モノベチョウセンドウ","prefecture_code":39},"4412":{"zip_code":"7814412","prefecture":"高知県","prefecture_kana":"コウチケン","city":"香美市","city_kana":"カミシ","town":"物部町拓","town_kana":"モノベチョウツブセ","prefecture_code":39},"4414":{"zip_code":"7814414","prefecture":"高知県","prefecture_kana":"コウチケン","city":"香美市","city_kana":"カミシ","town":"物部町頓定","town_kana":"モノベチョウトンジョウ","prefecture_code":39},"4529":{"zip_code":"7814529","prefecture":"高知県","prefecture_kana":"コウチケン","city":"香美市","city_kana":"カミシ","town":"物部町中上","town_kana":"モノベチョウナカウエ","prefecture_code":39},"4411":{"zip_code":"7814411","prefecture":"高知県","prefecture_kana":"コウチケン","city":"香美市","city_kana":"カミシ","town":"物部町中谷川","town_kana":"モノベチョウナカタニガワ","prefecture_code":39},"4405":{"zip_code":"7814405","prefecture":"高知県","prefecture_kana":"コウチケン","city":"香美市","city_kana":"カミシ","town":"物部町根木屋","town_kana":"モノベチョウネキヤ","prefecture_code":39},"4642":{"zip_code":"7814642","prefecture":"高知県","prefecture_kana":"コウチケン","city":"香美市","city_kana":"カミシ","town":"物部町別役","town_kana":"モノベチョウベッチャク","prefecture_code":39},"4644":{"zip_code":"7814644","prefecture":"高知県","prefecture_kana":"コウチケン","city":"香美市","city_kana":"カミシ","town":"物部町別府","town_kana":"モノベチョウベフ","prefecture_code":39},"4415":{"zip_code":"7814415","prefecture":"高知県","prefecture_kana":"コウチケン","city":"香美市","city_kana":"カミシ","town":"物部町舞川","town_kana":"モノベチョウマイカワ","prefecture_code":39},"4527":{"zip_code":"7814527","prefecture":"高知県","prefecture_kana":"コウチケン","city":"香美市","city_kana":"カミシ","town":"物部町南池","town_kana":"モノベチョウミナミイケ","prefecture_code":39},"4521":{"zip_code":"7814521","prefecture":"高知県","prefecture_kana":"コウチケン","city":"香美市","city_kana":"カミシ","town":"物部町安丸","town_kana":"モノベチョウヤスマル","prefecture_code":39},"4525":{"zip_code":"7814525","prefecture":"高知県","prefecture_kana":"コウチケン","city":"香美市","city_kana":"カミシ","town":"物部町柳瀬","town_kana":"モノベチョウヤナイセ","prefecture_code":39},"4645":{"zip_code":"7814645","prefecture":"高知県","prefecture_kana":"コウチケン","city":"香美市","city_kana":"カミシ","town":"物部町山崎桑ノ川","town_kana":"モノベチョウヤマサキクワノカワ","prefecture_code":39},"4402":{"zip_code":"7814402","prefecture":"高知県","prefecture_kana":"コウチケン","city":"香美市","city_kana":"カミシ","town":"物部町山崎","town_kana":"モノベチョウヤマサキ","prefecture_code":39},"7300":{"zip_code":"7817300","prefecture":"高知県","prefecture_kana":"コウチケン","city":"安芸郡東洋町","city_kana":"アキグントウヨウチョウ","town":"","town_kana":"","prefecture_code":39},"7414":{"zip_code":"7817414","prefecture":"高知県","prefecture_kana":"コウチケン","city":"安芸郡東洋町","city_kana":"アキグントウヨウチョウ","town":"生見","town_kana":"イクミ","prefecture_code":39},"7412":{"zip_code":"7817412","prefecture":"高知県","prefecture_kana":"コウチケン","city":"安芸郡東洋町","city_kana":"アキグントウヨウチョウ","town":"河内","town_kana":"カワウチ","prefecture_code":39},"7411":{"zip_code":"7817411","prefecture":"高知県","prefecture_kana":"コウチケン","city":"安芸郡東洋町","city_kana":"アキグントウヨウチョウ","town":"甲浦","town_kana":"カンノウラ","prefecture_code":39},"7413":{"zip_code":"7817413","prefecture":"高知県","prefecture_kana":"コウチケン","city":"安芸郡東洋町","city_kana":"アキグントウヨウチョウ","town":"白浜","town_kana":"シラハマ","prefecture_code":39},"7302":{"zip_code":"7817302","prefecture":"高知県","prefecture_kana":"コウチケン","city":"安芸郡東洋町","city_kana":"アキグントウヨウチョウ","town":"野根甲","town_kana":"ノネコウ","prefecture_code":39},"7304":{"zip_code":"7817304","prefecture":"高知県","prefecture_kana":"コウチケン","city":"安芸郡東洋町","city_kana":"アキグントウヨウチョウ","town":"野根乙","town_kana":"ノネオツ","prefecture_code":39},"7301":{"zip_code":"7817301","prefecture":"高知県","prefecture_kana":"コウチケン","city":"安芸郡東洋町","city_kana":"アキグントウヨウチョウ","town":"野根丙","town_kana":"ノネヘイ","prefecture_code":39},"7303":{"zip_code":"7817303","prefecture":"高知県","prefecture_kana":"コウチケン","city":"安芸郡東洋町","city_kana":"アキグントウヨウチョウ","town":"野根丁","town_kana":"ノネテイ","prefecture_code":39},"6400":[{"zip_code":"7816400","prefecture":"高知県","prefecture_kana":"コウチケン","city":"安芸郡奈半利町","city_kana":"アキグンナハリチョウ","town":"","town_kana":"","prefecture_code":39},{"zip_code":"7816400","prefecture":"高知県","prefecture_kana":"コウチケン","city":"安芸郡安田町","city_kana":"アキグンヤスダチョウ","town":"","town_kana":"","prefecture_code":39},{"zip_code":"7816400","prefecture":"高知県","prefecture_kana":"コウチケン","city":"安芸郡北川村","city_kana":"アキグンキタガワムラ","town":"","town_kana":"","prefecture_code":39}],"6401":{"zip_code":"7816401","prefecture":"高知県","prefecture_kana":"コウチケン","city":"安芸郡奈半利町","city_kana":"アキグンナハリチョウ","town":"甲","town_kana":"コウ","prefecture_code":39},"6402":{"zip_code":"7816402","prefecture":"高知県","prefecture_kana":"コウチケン","city":"安芸郡奈半利町","city_kana":"アキグンナハリチョウ","town":"乙","town_kana":"オツ","prefecture_code":39},"6403":{"zip_code":"7816403","prefecture":"高知県","prefecture_kana":"コウチケン","city":"安芸郡奈半利町","city_kana":"アキグンナハリチョウ","town":"丙","town_kana":"ヘイ","prefecture_code":39},"6410":{"zip_code":"7816410","prefecture":"高知県","prefecture_kana":"コウチケン","city":"安芸郡田野町","city_kana":"アキグンタノチョウ","town":"","town_kana":"","prefecture_code":39},"6438":{"zip_code":"7816438","prefecture":"高知県","prefecture_kana":"コウチケン","city":"安芸郡安田町","city_kana":"アキグンヤスダチョウ","town":"小川","town_kana":"オガワ","prefecture_code":39},"6436":{"zip_code":"7816436","prefecture":"高知県","prefecture_kana":"コウチケン","city":"安芸郡安田町","city_kana":"アキグンヤスダチョウ","town":"瀬切","town_kana":"セギリ","prefecture_code":39},"6424":{"zip_code":"7816424","prefecture":"高知県","prefecture_kana":"コウチケン","city":"安芸郡安田町","city_kana":"アキグンヤスダチョウ","town":"隆見","town_kana":"タカミ","prefecture_code":39},"6422":{"zip_code":"7816422","prefecture":"高知県","prefecture_kana":"コウチケン","city":"安芸郡安田町","city_kana":"アキグンヤスダチョウ","town":"唐浜","town_kana":"トウノハマ","prefecture_code":39},"6427":{"zip_code":"7816427","prefecture":"高知県","prefecture_kana":"コウチケン","city":"安芸郡安田町","city_kana":"アキグンヤスダチョウ","town":"内京坊","town_kana":"ナイキョウボウ","prefecture_code":39},"6437":{"zip_code":"7816437","prefecture":"高知県","prefecture_kana":"コウチケン","city":"安芸郡安田町","city_kana":"アキグンヤスダチョウ","town":"中里","town_kana":"ナカザト","prefecture_code":39},"6433":{"zip_code":"7816433","prefecture":"高知県","prefecture_kana":"コウチケン","city":"安芸郡安田町","city_kana":"アキグンヤスダチョウ","town":"中ノ川","town_kana":"ナカノカワ","prefecture_code":39},"6423":{"zip_code":"7816423","prefecture":"高知県","prefecture_kana":"コウチケン","city":"安芸郡安田町","city_kana":"アキグンヤスダチョウ","town":"西島","town_kana":"ニシジマ","prefecture_code":39},"6432":{"zip_code":"7816432","prefecture":"高知県","prefecture_kana":"コウチケン","city":"安芸郡安田町","city_kana":"アキグンヤスダチョウ","town":"西ノ川","town_kana":"ニシノカワ","prefecture_code":39},"6425":{"zip_code":"7816425","prefecture":"高知県","prefecture_kana":"コウチケン","city":"安芸郡安田町","city_kana":"アキグンヤスダチョウ","town":"東島","town_kana":"ヒガシジマ","prefecture_code":39},"6439":{"zip_code":"7816439","prefecture":"高知県","prefecture_kana":"コウチケン","city":"安芸郡安田町","city_kana":"アキグンヤスダチョウ","town":"日々入","town_kana":"ヒビイリ","prefecture_code":39},"6435":{"zip_code":"7816435","prefecture":"高知県","prefecture_kana":"コウチケン","city":"安芸郡安田町","city_kana":"アキグンヤスダチョウ","town":"船倉","town_kana":"フナクラ","prefecture_code":39},"6431":{"zip_code":"7816431","prefecture":"高知県","prefecture_kana":"コウチケン","city":"安芸郡安田町","city_kana":"アキグンヤスダチョウ","town":"別所","town_kana":"ベッシヨ","prefecture_code":39},"6426":{"zip_code":"7816426","prefecture":"高知県","prefecture_kana":"コウチケン","city":"安芸郡安田町","city_kana":"アキグンヤスダチョウ","town":"間下","town_kana":"マゲ","prefecture_code":39},"6430":{"zip_code":"7816430","prefecture":"高知県","prefecture_kana":"コウチケン","city":"安芸郡安田町","city_kana":"アキグンヤスダチョウ","town":"正弘","town_kana":"マサヒロ","prefecture_code":39},"6421":{"zip_code":"7816421","prefecture":"高知県","prefecture_kana":"コウチケン","city":"安芸郡安田町","city_kana":"アキグンヤスダチョウ","town":"安田","town_kana":"ヤスダ","prefecture_code":39},"6434":{"zip_code":"7816434","prefecture":"高知県","prefecture_kana":"コウチケン","city":"安芸郡安田町","city_kana":"アキグンヤスダチョウ","town":"与床","town_kana":"ヨドコ","prefecture_code":39},"6458":{"zip_code":"7816458","prefecture":"高知県","prefecture_kana":"コウチケン","city":"安芸郡北川村","city_kana":"アキグンキタガワムラ","town":"安倉","town_kana":"アグラ","prefecture_code":39},"6449":{"zip_code":"7816449","prefecture":"高知県","prefecture_kana":"コウチケン","city":"安芸郡北川村","city_kana":"アキグンキタガワムラ","town":"柏木","town_kana":"カシワギ","prefecture_code":39},"6443":{"zip_code":"7816443","prefecture":"高知県","prefecture_kana":"コウチケン","city":"安芸郡北川村","city_kana":"アキグンキタガワムラ","town":"加茂","town_kana":"カモ","prefecture_code":39},"6455":{"zip_code":"7816455","prefecture":"高知県","prefecture_kana":"コウチケン","city":"安芸郡北川村","city_kana":"アキグンキタガワムラ","town":"久江ノ上","town_kana":"クエノウエ","prefecture_code":39},"6456":{"zip_code":"7816456","prefecture":"高知県","prefecture_kana":"コウチケン","city":"安芸郡北川村","city_kana":"アキグンキタガワムラ","town":"久木","town_kana":"クキ","prefecture_code":39},"6451":{"zip_code":"7816451","prefecture":"高知県","prefecture_kana":"コウチケン","city":"安芸郡北川村","city_kana":"アキグンキタガワムラ","town":"小島","town_kana":"コシマ","prefecture_code":39},"6447":{"zip_code":"7816447","prefecture":"高知県","prefecture_kana":"コウチケン","city":"安芸郡北川村","city_kana":"アキグンキタガワムラ","town":"木積","town_kana":"コツモ","prefecture_code":39},"6454":{"zip_code":"7816454","prefecture":"高知県","prefecture_kana":"コウチケン","city":"安芸郡北川村","city_kana":"アキグンキタガワムラ","town":"島","town_kana":"シマ","prefecture_code":39},"6459":{"zip_code":"7816459","prefecture":"高知県","prefecture_kana":"コウチケン","city":"安芸郡北川村","city_kana":"アキグンキタガワムラ","town":"菅ノ上","town_kana":"スゲノウエ","prefecture_code":39},"6448":{"zip_code":"7816448","prefecture":"高知県","prefecture_kana":"コウチケン","city":"安芸郡北川村","city_kana":"アキグンキタガワムラ","town":"宗ノ上","town_kana":"ソウノウエ","prefecture_code":39},"6460":{"zip_code":"7816460","prefecture":"高知県","prefecture_kana":"コウチケン","city":"安芸郡北川村","city_kana":"アキグンキタガワムラ","town":"竹屋敷","town_kana":"タケヤシキ","prefecture_code":39},"6445":{"zip_code":"7816445","prefecture":"高知県","prefecture_kana":"コウチケン","city":"安芸郡北川村","city_kana":"アキグンキタガワムラ","town":"長山","town_kana":"ナガヤマ","prefecture_code":39},"6446":{"zip_code":"7816446","prefecture":"高知県","prefecture_kana":"コウチケン","city":"安芸郡北川村","city_kana":"アキグンキタガワムラ","town":"西谷","town_kana":"ニシダニ","prefecture_code":39},"6444":{"zip_code":"7816444","prefecture":"高知県","prefecture_kana":"コウチケン","city":"安芸郡北川村","city_kana":"アキグンキタガワムラ","town":"野川","town_kana":"ノガワ","prefecture_code":39},"6441":{"zip_code":"7816441","prefecture":"高知県","prefecture_kana":"コウチケン","city":"安芸郡北川村","city_kana":"アキグンキタガワムラ","town":"野友甲","town_kana":"ノトモコウ","prefecture_code":39},"6442":{"zip_code":"7816442","prefecture":"高知県","prefecture_kana":"コウチケン","city":"安芸郡北川村","city_kana":"アキグンキタガワムラ","town":"野友乙","town_kana":"ノトモオツ","prefecture_code":39},"6452":{"zip_code":"7816452","prefecture":"高知県","prefecture_kana":"コウチケン","city":"安芸郡北川村","city_kana":"アキグンキタガワムラ","town":"平鍋","town_kana":"ヒラナベ","prefecture_code":39},"6457":{"zip_code":"7816457","prefecture":"高知県","prefecture_kana":"コウチケン","city":"安芸郡北川村","city_kana":"アキグンキタガワムラ","town":"弘瀬","town_kana":"ヒロセ","prefecture_code":39},"6453":{"zip_code":"7816453","prefecture":"高知県","prefecture_kana":"コウチケン","city":"安芸郡北川村","city_kana":"アキグンキタガワムラ","town":"二タ又","town_kana":"フタマタ","prefecture_code":39},"6450":{"zip_code":"7816450","prefecture":"高知県","prefecture_kana":"コウチケン","city":"安芸郡北川村","city_kana":"アキグンキタガワムラ","town":"和田","town_kana":"ワダ","prefecture_code":39},"6200":{"zip_code":"7816200","prefecture":"高知県","prefecture_kana":"コウチケン","city":"安芸郡馬路村","city_kana":"アキグンウマジムラ","town":"","town_kana":"","prefecture_code":39},"6201":{"zip_code":"7816201","prefecture":"高知県","prefecture_kana":"コウチケン","city":"安芸郡馬路村","city_kana":"アキグンウマジムラ","town":"馬路","town_kana":"ウマジ","prefecture_code":39},"6202":{"zip_code":"7816202","prefecture":"高知県","prefecture_kana":"コウチケン","city":"安芸郡馬路村","city_kana":"アキグンウマジムラ","town":"魚梁瀬","town_kana":"ヤナセ","prefecture_code":39},"5700":{"zip_code":"7815700","prefecture":"高知県","prefecture_kana":"コウチケン","city":"安芸郡芸西村","city_kana":"アキグンゲイセイムラ","town":"","town_kana":"","prefecture_code":39},"5705":{"zip_code":"7815705","prefecture":"高知県","prefecture_kana":"コウチケン","city":"安芸郡芸西村","city_kana":"アキグンゲイセイムラ","town":"馬ノ上","town_kana":"ウマノウエ","prefecture_code":39},"5708":{"zip_code":"7815708","prefecture":"高知県","prefecture_kana":"コウチケン","city":"安芸郡芸西村","city_kana":"アキグンゲイセイムラ","town":"久重","town_kana":"クエ","prefecture_code":39},"5707":{"zip_code":"7815707","prefecture":"高知県","prefecture_kana":"コウチケン","city":"安芸郡芸西村","city_kana":"アキグンゲイセイムラ","town":"国光","town_kana":"クニミツ","prefecture_code":39},"5706":{"zip_code":"7815706","prefecture":"高知県","prefecture_kana":"コウチケン","city":"安芸郡芸西村","city_kana":"アキグンゲイセイムラ","town":"道家","town_kana":"ドウケ","prefecture_code":39},"5703":{"zip_code":"7815703","prefecture":"高知県","prefecture_kana":"コウチケン","city":"安芸郡芸西村","city_kana":"アキグンゲイセイムラ","town":"西分甲","town_kana":"ニシブンコウ","prefecture_code":39},"5704":{"zip_code":"7815704","prefecture":"高知県","prefecture_kana":"コウチケン","city":"安芸郡芸西村","city_kana":"アキグンゲイセイムラ","town":"西分乙","town_kana":"ニシブンオツ","prefecture_code":39},"5701":{"zip_code":"7815701","prefecture":"高知県","prefecture_kana":"コウチケン","city":"安芸郡芸西村","city_kana":"アキグンゲイセイムラ","town":"和食甲","town_kana":"ワジキコウ","prefecture_code":39},"5702":{"zip_code":"7815702","prefecture":"高知県","prefecture_kana":"コウチケン","city":"安芸郡芸西村","city_kana":"アキグンゲイセイムラ","town":"和食乙","town_kana":"ワジキオツ","prefecture_code":39},"3600":{"zip_code":"7813600","prefecture":"高知県","prefecture_kana":"コウチケン","city":"長岡郡本山町","city_kana":"ナガオカグンモトヤマチョウ","town":"","town_kana":"","prefecture_code":39},"3604":{"zip_code":"7813604","prefecture":"高知県","prefecture_kana":"コウチケン","city":"長岡郡本山町","city_kana":"ナガオカグンモトヤマチョウ","town":"井窪","town_kana":"イノクボ","prefecture_code":39},"3623":{"zip_code":"7813623","prefecture":"高知県","prefecture_kana":"コウチケン","city":"長岡郡本山町","city_kana":"ナガオカグンモトヤマチョウ","town":"瓜生野","town_kana":"ウリウノ","prefecture_code":39},"3602":{"zip_code":"7813602","prefecture":"高知県","prefecture_kana":"コウチケン","city":"長岡郡本山町","city_kana":"ナガオカグンモトヤマチョウ","town":"大石","town_kana":"オオイシ","prefecture_code":39},"3611":{"zip_code":"7813611","prefecture":"高知県","prefecture_kana":"コウチケン","city":"長岡郡本山町","city_kana":"ナガオカグンモトヤマチョウ","town":"上関甲","town_kana":"カミゼキコウ","prefecture_code":39},"3612":{"zip_code":"7813612","prefecture":"高知県","prefecture_kana":"コウチケン","city":"長岡郡本山町","city_kana":"ナガオカグンモトヤマチョウ","town":"上関乙","town_kana":"カミゼキオツ","prefecture_code":39},"3613":{"zip_code":"7813613","prefecture":"高知県","prefecture_kana":"コウチケン","city":"長岡郡本山町","city_kana":"ナガオカグンモトヤマチョウ","town":"北山甲","town_kana":"キタヤマコウ","prefecture_code":39},"3614":{"zip_code":"7813614","prefecture":"高知県","prefecture_kana":"コウチケン","city":"長岡郡本山町","city_kana":"ナガオカグンモトヤマチョウ","town":"北山乙","town_kana":"キタヤマオツ","prefecture_code":39},"3615":{"zip_code":"7813615","prefecture":"高知県","prefecture_kana":"コウチケン","city":"長岡郡本山町","city_kana":"ナガオカグンモトヤマチョウ","town":"北山丙","town_kana":"キタヤマヘイ","prefecture_code":39},"3608":{"zip_code":"7813608","prefecture":"高知県","prefecture_kana":"コウチケン","city":"長岡郡本山町","city_kana":"ナガオカグンモトヤマチョウ","town":"木能津","town_kana":"キノウヅ","prefecture_code":39},"3620":{"zip_code":"7813620","prefecture":"高知県","prefecture_kana":"コウチケン","city":"長岡郡本山町","city_kana":"ナガオカグンモトヤマチョウ","town":"坂本","town_kana":"サカモト","prefecture_code":39},"3617":{"zip_code":"7813617","prefecture":"高知県","prefecture_kana":"コウチケン","city":"長岡郡本山町","city_kana":"ナガオカグンモトヤマチョウ","town":"寺家","town_kana":"ジケ","prefecture_code":39},"3610":{"zip_code":"7813610","prefecture":"高知県","prefecture_kana":"コウチケン","city":"長岡郡本山町","city_kana":"ナガオカグンモトヤマチョウ","town":"下関","town_kana":"シモゼキ","prefecture_code":39},"3605":{"zip_code":"7813605","prefecture":"高知県","prefecture_kana":"コウチケン","city":"長岡郡本山町","city_kana":"ナガオカグンモトヤマチョウ","town":"下津野","town_kana":"シモツノ","prefecture_code":39},"3609":{"zip_code":"7813609","prefecture":"高知県","prefecture_kana":"コウチケン","city":"長岡郡本山町","city_kana":"ナガオカグンモトヤマチョウ","town":"助藤","town_kana":"スケトウ","prefecture_code":39},"3622":{"zip_code":"7813622","prefecture":"高知県","prefecture_kana":"コウチケン","city":"長岡郡本山町","city_kana":"ナガオカグンモトヤマチョウ","town":"沢ケ内","town_kana":"ソウガウチ","prefecture_code":39},"3606":{"zip_code":"7813606","prefecture":"高知県","prefecture_kana":"コウチケン","city":"長岡郡本山町","city_kana":"ナガオカグンモトヤマチョウ","town":"高角","town_kana":"タカツノ","prefecture_code":39},"3619":{"zip_code":"7813619","prefecture":"高知県","prefecture_kana":"コウチケン","city":"長岡郡本山町","city_kana":"ナガオカグンモトヤマチョウ","town":"立野","town_kana":"タチノ","prefecture_code":39},"3624":{"zip_code":"7813624","prefecture":"高知県","prefecture_kana":"コウチケン","city":"長岡郡本山町","city_kana":"ナガオカグンモトヤマチョウ","town":"七戸","town_kana":"ナナト","prefecture_code":39},"3607":{"zip_code":"7813607","prefecture":"高知県","prefecture_kana":"コウチケン","city":"長岡郡本山町","city_kana":"ナガオカグンモトヤマチョウ","town":"古田","town_kana":"フルタ","prefecture_code":39},"3601":{"zip_code":"7813601","prefecture":"高知県","prefecture_kana":"コウチケン","city":"長岡郡本山町","city_kana":"ナガオカグンモトヤマチョウ","town":"本山","town_kana":"モトヤマ","prefecture_code":39},"3621":{"zip_code":"7813621","prefecture":"高知県","prefecture_kana":"コウチケン","city":"長岡郡本山町","city_kana":"ナガオカグンモトヤマチョウ","town":"屋所","town_kana":"ヤトコロ","prefecture_code":39},"3618":{"zip_code":"7813618","prefecture":"高知県","prefecture_kana":"コウチケン","city":"長岡郡本山町","city_kana":"ナガオカグンモトヤマチョウ","town":"吉野","town_kana":"ヨシノ","prefecture_code":39},"3603":{"zip_code":"7813603","prefecture":"高知県","prefecture_kana":"コウチケン","city":"長岡郡本山町","city_kana":"ナガオカグンモトヤマチョウ","town":"吉延","town_kana":"ヨシノブ","prefecture_code":39},"3400":{"zip_code":"7813400","prefecture":"高知県","prefecture_kana":"コウチケン","city":"土佐郡土佐町","city_kana":"トサグントサチョウ","town":"","town_kana":"","prefecture_code":39},"3408":{"zip_code":"7813408","prefecture":"高知県","prefecture_kana":"コウチケン","city":"土佐郡土佐町","city_kana":"トサグントサチョウ","town":"相川","town_kana":"アイカワ","prefecture_code":39},"3336":{"zip_code":"7813336","prefecture":"高知県","prefecture_kana":"コウチケン","city":"土佐郡土佐町","city_kana":"トサグントサチョウ","town":"芥川","town_kana":"アクタガワ","prefecture_code":39},"3335":{"zip_code":"7813335","prefecture":"高知県","prefecture_kana":"コウチケン","city":"土佐郡土佐町","city_kana":"トサグントサチョウ","town":"有間","town_kana":"アリマ","prefecture_code":39},"3524":{"zip_code":"7813524","prefecture":"高知県","prefecture_kana":"コウチケン","city":"土佐郡土佐町","city_kana":"トサグントサチョウ","town":"井尻","town_kana":"イジリ","prefecture_code":39},"3522":{"zip_code":"7813522","prefecture":"高知県","prefecture_kana":"コウチケン","city":"土佐郡土佐町","city_kana":"トサグントサチョウ","town":"大渕","town_kana":"オオブチ","prefecture_code":39},"3407":{"zip_code":"7813407","prefecture":"高知県","prefecture_kana":"コウチケン","city":"土佐郡土佐町","city_kana":"トサグントサチョウ","town":"樫山","town_kana":"カシヤマ","prefecture_code":39},"3332":{"zip_code":"7813332","prefecture":"高知県","prefecture_kana":"コウチケン","city":"土佐郡土佐町","city_kana":"トサグントサチョウ","town":"栗木","town_kana":"クリキ","prefecture_code":39},"3526":{"zip_code":"7813526","prefecture":"高知県","prefecture_kana":"コウチケン","city":"土佐郡土佐町","city_kana":"トサグントサチョウ","town":"上津川","town_kana":"コウヅカワ","prefecture_code":39},"3523":{"zip_code":"7813523","prefecture":"高知県","prefecture_kana":"コウチケン","city":"土佐郡土佐町","city_kana":"トサグントサチョウ","town":"古味","town_kana":"コミ","prefecture_code":39},"3402":{"zip_code":"7813402","prefecture":"高知県","prefecture_kana":"コウチケン","city":"土佐郡土佐町","city_kana":"トサグントサチョウ","town":"境","town_kana":"サカイ","prefecture_code":39},"3331":{"zip_code":"7813331","prefecture":"高知県","prefecture_kana":"コウチケン","city":"土佐郡土佐町","city_kana":"トサグントサチョウ","town":"地蔵寺","town_kana":"ジゾウジ","prefecture_code":39},"3525":{"zip_code":"7813525","prefecture":"高知県","prefecture_kana":"コウチケン","city":"土佐郡土佐町","city_kana":"トサグントサチョウ","town":"下川","town_kana":"シモカワ","prefecture_code":39},"3337":{"zip_code":"7813337","prefecture":"高知県","prefecture_kana":"コウチケン","city":"土佐郡土佐町","city_kana":"トサグントサチョウ","town":"瀬戸","town_kana":"セド","prefecture_code":39},"3521":{"zip_code":"7813521","prefecture":"高知県","prefecture_kana":"コウチケン","city":"土佐郡土佐町","city_kana":"トサグントサチョウ","town":"田井","town_kana":"タイ","prefecture_code":39},"3406":{"zip_code":"7813406","prefecture":"高知県","prefecture_kana":"コウチケン","city":"土佐郡土佐町","city_kana":"トサグントサチョウ","town":"高須","town_kana":"タカス","prefecture_code":39},"3401":{"zip_code":"7813401","prefecture":"高知県","prefecture_kana":"コウチケン","city":"土佐郡土佐町","city_kana":"トサグントサチョウ","town":"土居","town_kana":"ドイ","prefecture_code":39},"3334":{"zip_code":"7813334","prefecture":"高知県","prefecture_kana":"コウチケン","city":"土佐郡土佐町","city_kana":"トサグントサチョウ","town":"西石原","town_kana":"ニシイシハラ","prefecture_code":39},"3404":{"zip_code":"7813404","prefecture":"高知県","prefecture_kana":"コウチケン","city":"土佐郡土佐町","city_kana":"トサグントサチョウ","town":"溜井","town_kana":"ヌルイ","prefecture_code":39},"3333":{"zip_code":"7813333","prefecture":"高知県","prefecture_kana":"コウチケン","city":"土佐郡土佐町","city_kana":"トサグントサチョウ","town":"東石原","town_kana":"ヒガシイシハラ","prefecture_code":39},"3405":{"zip_code":"7813405","prefecture":"高知県","prefecture_kana":"コウチケン","city":"土佐郡土佐町","city_kana":"トサグントサチョウ","town":"南泉","town_kana":"ミナイズミ","prefecture_code":39},"3742":{"zip_code":"7813742","prefecture":"高知県","prefecture_kana":"コウチケン","city":"土佐郡土佐町","city_kana":"トサグントサチョウ","town":"南川","town_kana":"ミナガワ","prefecture_code":39},"3403":{"zip_code":"7813403","prefecture":"高知県","prefecture_kana":"コウチケン","city":"土佐郡土佐町","city_kana":"トサグントサチョウ","town":"宮古野","town_kana":"ミヤコノ","prefecture_code":39},"3741":{"zip_code":"7813741","prefecture":"高知県","prefecture_kana":"コウチケン","city":"土佐郡土佐町","city_kana":"トサグントサチョウ","town":"柚ノ木","town_kana":"ユノキ","prefecture_code":39},"3409":{"zip_code":"7813409","prefecture":"高知県","prefecture_kana":"コウチケン","city":"土佐郡土佐町","city_kana":"トサグントサチョウ","town":"和田","town_kana":"ワダ","prefecture_code":39},"3700":{"zip_code":"7813700","prefecture":"高知県","prefecture_kana":"コウチケン","city":"土佐郡大川村","city_kana":"トサグンオオカワムラ","town":"","town_kana":"","prefecture_code":39},"3704":{"zip_code":"7813704","prefecture":"高知県","prefecture_kana":"コウチケン","city":"土佐郡大川村","city_kana":"トサグンオオカワムラ","town":"朝谷","town_kana":"アサタニ","prefecture_code":39},"3713":{"zip_code":"7813713","prefecture":"高知県","prefecture_kana":"コウチケン","city":"土佐郡大川村","city_kana":"トサグンオオカワムラ","town":"井野川","town_kana":"イノカワ","prefecture_code":39},"3705":{"zip_code":"7813705","prefecture":"高知県","prefecture_kana":"コウチケン","city":"土佐郡大川村","city_kana":"トサグンオオカワムラ","town":"大北川","town_kana":"オオキタガワ","prefecture_code":39},"3714":{"zip_code":"7813714","prefecture":"高知県","prefecture_kana":"コウチケン","city":"土佐郡大川村","city_kana":"トサグンオオカワムラ","town":"大平","town_kana":"オオヒラ","prefecture_code":39},"3717":{"zip_code":"7813717","prefecture":"高知県","prefecture_kana":"コウチケン","city":"土佐郡大川村","city_kana":"トサグンオオカワムラ","town":"大薮","town_kana":"オオヤブ","prefecture_code":39},"3723":{"zip_code":"7813723","prefecture":"高知県","prefecture_kana":"コウチケン","city":"土佐郡大川村","city_kana":"トサグンオオカワムラ","town":"上小南川","town_kana":"カミオミナガワ","prefecture_code":39},"3712":{"zip_code":"7813712","prefecture":"高知県","prefecture_kana":"コウチケン","city":"土佐郡大川村","city_kana":"トサグンオオカワムラ","town":"川崎","town_kana":"カワサキ","prefecture_code":39},"3716":{"zip_code":"7813716","prefecture":"高知県","prefecture_kana":"コウチケン","city":"土佐郡大川村","city_kana":"トサグンオオカワムラ","town":"小北川","town_kana":"コキタガワ","prefecture_code":39},"3703":{"zip_code":"7813703","prefecture":"高知県","prefecture_kana":"コウチケン","city":"土佐郡大川村","city_kana":"トサグンオオカワムラ","town":"小松","town_kana":"コマツ","prefecture_code":39},"3715":{"zip_code":"7813715","prefecture":"高知県","prefecture_kana":"コウチケン","city":"土佐郡大川村","city_kana":"トサグンオオカワムラ","town":"小麦畝","town_kana":"コムギウネ","prefecture_code":39},"3725":{"zip_code":"7813725","prefecture":"高知県","prefecture_kana":"コウチケン","city":"土佐郡大川村","city_kana":"トサグンオオカワムラ","town":"下切","town_kana":"シタギリ","prefecture_code":39},"3722":{"zip_code":"7813722","prefecture":"高知県","prefecture_kana":"コウチケン","city":"土佐郡大川村","city_kana":"トサグンオオカワムラ","town":"下小南川","town_kana":"シモオミナガワ","prefecture_code":39},"3711":{"zip_code":"7813711","prefecture":"高知県","prefecture_kana":"コウチケン","city":"土佐郡大川村","city_kana":"トサグンオオカワムラ","town":"高野","town_kana":"タカノ","prefecture_code":39},"3721":{"zip_code":"7813721","prefecture":"高知県","prefecture_kana":"コウチケン","city":"土佐郡大川村","city_kana":"トサグンオオカワムラ","town":"中切","town_kana":"ナカギリ","prefecture_code":39},"3702":{"zip_code":"7813702","prefecture":"高知県","prefecture_kana":"コウチケン","city":"土佐郡大川村","city_kana":"トサグンオオカワムラ","town":"船戸桃ケ谷","town_kana":"フナトモモガヤ","prefecture_code":39},"3701":{"zip_code":"7813701","prefecture":"高知県","prefecture_kana":"コウチケン","city":"土佐郡大川村","city_kana":"トサグンオオカワムラ","town":"船戸","town_kana":"フナト","prefecture_code":39},"3724":{"zip_code":"7813724","prefecture":"高知県","prefecture_kana":"コウチケン","city":"土佐郡大川村","city_kana":"トサグンオオカワムラ","town":"南野山","town_kana":"ミナミノヤマ","prefecture_code":39},"2100":[{"zip_code":"7812100","prefecture":"高知県","prefecture_kana":"コウチケン","city":"吾川郡いの町","city_kana":"アガワグンイノチョウ","town":"","town_kana":"","prefecture_code":39},{"zip_code":"7812100","prefecture":"高知県","prefecture_kana":"コウチケン","city":"高岡郡日高村","city_kana":"タカオカグンヒダカムラ","town":"","town_kana":"","prefecture_code":39}],"2110":{"zip_code":"7812110","prefecture":"高知県","prefecture_kana":"コウチケン","city":"吾川郡いの町","city_kana":"アガワグンイノチョウ","town":"","town_kana":"","prefecture_code":39},"2115":{"zip_code":"7812115","prefecture":"高知県","prefecture_kana":"コウチケン","city":"吾川郡いの町","city_kana":"アガワグンイノチョウ","town":"旭町","town_kana":"アサヒマチ","prefecture_code":39},"2613":{"zip_code":"7812613","prefecture":"高知県","prefecture_kana":"コウチケン","city":"吾川郡いの町","city_kana":"アガワグンイノチョウ","town":"足谷","town_kana":"アシダニ","prefecture_code":39},"2121":{"zip_code":"7812121","prefecture":"高知県","prefecture_kana":"コウチケン","city":"吾川郡いの町","city_kana":"アガワグンイノチョウ","town":"池の内","town_kana":"イケノウチ","prefecture_code":39},"2119":{"zip_code":"7812119","prefecture":"高知県","prefecture_kana":"コウチケン","city":"吾川郡いの町","city_kana":"アガワグンイノチョウ","town":"内野北町","town_kana":"ウツノキタマチ","prefecture_code":39},"2117":{"zip_code":"7812117","prefecture":"高知県","prefecture_kana":"コウチケン","city":"吾川郡いの町","city_kana":"アガワグンイノチョウ","town":"内野東町","town_kana":"ウツノヒガシマチ","prefecture_code":39},"2118":{"zip_code":"7812118","prefecture":"高知県","prefecture_kana":"コウチケン","city":"吾川郡いの町","city_kana":"アガワグンイノチョウ","town":"内野南町","town_kana":"ウツノミナミマチ","prefecture_code":39},"2108":{"zip_code":"7812108","prefecture":"高知県","prefecture_kana":"コウチケン","city":"吾川郡いの町","city_kana":"アガワグンイノチョウ","town":"駅東町","town_kana":"エキヒガシマチ","prefecture_code":39},"2107":{"zip_code":"7812107","prefecture":"高知県","prefecture_kana":"コウチケン","city":"吾川郡いの町","city_kana":"アガワグンイノチョウ","town":"駅前町","town_kana":"エキマエチョウ","prefecture_code":39},"2106":{"zip_code":"7812106","prefecture":"高知県","prefecture_kana":"コウチケン","city":"吾川郡いの町","city_kana":"アガワグンイノチョウ","town":"駅南町","town_kana":"エキミナミマチ","prefecture_code":39},"2120":{"zip_code":"7812120","prefecture":"高知県","prefecture_kana":"コウチケン","city":"吾川郡いの町","city_kana":"アガワグンイノチョウ","town":"枝川","town_kana":"エダガワ","prefecture_code":39},"2604":{"zip_code":"7812604","prefecture":"高知県","prefecture_kana":"コウチケン","city":"吾川郡いの町","city_kana":"アガワグンイノチョウ","town":"越裏門","town_kana":"エリモン","prefecture_code":39},"2126":{"zip_code":"7812126","prefecture":"高知県","prefecture_kana":"コウチケン","city":"吾川郡いの町","city_kana":"アガワグンイノチョウ","town":"大内","town_kana":"オオチ","prefecture_code":39},"2603":{"zip_code":"7812603","prefecture":"高知県","prefecture_kana":"コウチケン","city":"吾川郡いの町","city_kana":"アガワグンイノチョウ","town":"大森","town_kana":"オオモリ","prefecture_code":39},"2136":{"zip_code":"7812136","prefecture":"高知県","prefecture_kana":"コウチケン","city":"吾川郡いの町","city_kana":"アガワグンイノチョウ","town":"鹿敷","town_kana":"カシキ","prefecture_code":39},"2614":{"zip_code":"7812614","prefecture":"高知県","prefecture_kana":"コウチケン","city":"吾川郡いの町","city_kana":"アガワグンイノチョウ","town":"葛原","town_kana":"カズラハラ","prefecture_code":39},"2133":{"zip_code":"7812133","prefecture":"高知県","prefecture_kana":"コウチケン","city":"吾川郡いの町","city_kana":"アガワグンイノチョウ","town":"加田","town_kana":"カダ","prefecture_code":39},"2127":{"zip_code":"7812127","prefecture":"高知県","prefecture_kana":"コウチケン","city":"吾川郡いの町","city_kana":"アガワグンイノチョウ","town":"鎌田","town_kana":"カマダ","prefecture_code":39},"2401":[{"zip_code":"7812401","prefecture":"高知県","prefecture_kana":"コウチケン","city":"吾川郡いの町","city_kana":"アガワグンイノチョウ","town":"上八川甲枝川","town_kana":"カミヤカワコウエダガワ","prefecture_code":39},{"zip_code":"7812401","prefecture":"高知県","prefecture_kana":"コウチケン","city":"吾川郡いの町","city_kana":"アガワグンイノチョウ","town":"上八川甲大久保","town_kana":"カミヤカワコウオオクボ","prefecture_code":39},{"zip_code":"7812401","prefecture":"高知県","prefecture_kana":"コウチケン","city":"吾川郡いの町","city_kana":"アガワグンイノチョウ","town":"上八川甲木ノ瀬","town_kana":"カミヤカワコウキノセ","prefecture_code":39},{"zip_code":"7812401","prefecture":"高知県","prefecture_kana":"コウチケン","city":"吾川郡いの町","city_kana":"アガワグンイノチョウ","town":"上八川甲土居","town_kana":"カミヤカワコウドイ","prefecture_code":39},{"zip_code":"7812401","prefecture":"高知県","prefecture_kana":"コウチケン","city":"吾川郡いの町","city_kana":"アガワグンイノチョウ","town":"上八川甲西川","town_kana":"カミヤカワコウニシカワ","prefecture_code":39},{"zip_code":"7812401","prefecture":"高知県","prefecture_kana":"コウチケン","city":"吾川郡いの町","city_kana":"アガワグンイノチョウ","town":"上八川甲本郷","town_kana":"カミヤカワコウホンゴウ","prefecture_code":39},{"zip_code":"7812401","prefecture":"高知県","prefecture_kana":"コウチケン","city":"吾川郡いの町","city_kana":"アガワグンイノチョウ","town":"上八川甲柚ノ木野","town_kana":"カミヤカワコウユノキノ","prefecture_code":39}],"2402":[{"zip_code":"7812402","prefecture":"高知県","prefecture_kana":"コウチケン","city":"吾川郡いの町","city_kana":"アガワグンイノチョウ","town":"上八川丙柿薮","town_kana":"カミヤカワヘイカキヤブ","prefecture_code":39},{"zip_code":"7812402","prefecture":"高知県","prefecture_kana":"コウチケン","city":"吾川郡いの町","city_kana":"アガワグンイノチョウ","town":"上八川丙小申田","town_kana":"カミヤカワヘイコサルダ","prefecture_code":39},{"zip_code":"7812402","prefecture":"高知県","prefecture_kana":"コウチケン","city":"吾川郡いの町","city_kana":"アガワグンイノチョウ","town":"上八川丙津賀谷","town_kana":"カミヤカワヘイツガノタニ","prefecture_code":39},{"zip_code":"7812402","prefecture":"高知県","prefecture_kana":"コウチケン","city":"吾川郡いの町","city_kana":"アガワグンイノチョウ","town":"上八川丙寺野","town_kana":"カミヤカワヘイテラノ","prefecture_code":39},{"zip_code":"7812402","prefecture":"高知県","prefecture_kana":"コウチケン","city":"吾川郡いの町","city_kana":"アガワグンイノチョウ","town":"上八川丙古江","town_kana":"カミヤカワヘイフルエ","prefecture_code":39},{"zip_code":"7812402","prefecture":"高知県","prefecture_kana":"コウチケン","city":"吾川郡いの町","city_kana":"アガワグンイノチョウ","town":"上八川丙連行","town_kana":"カミヤカワヘイレンギョウ","prefecture_code":39}],"2114":{"zip_code":"7812114","prefecture":"高知県","prefecture_kana":"コウチケン","city":"吾川郡いの町","city_kana":"アガワグンイノチョウ","town":"加茂町","town_kana":"カモマチ","prefecture_code":39},"2511":[{"zip_code":"7812511","prefecture":"高知県","prefecture_kana":"コウチケン","city":"吾川郡いの町","city_kana":"アガワグンイノチョウ","town":"清水上分伊守川","town_kana":"キヨミズカミブンイモリカワ","prefecture_code":39},{"zip_code":"7812511","prefecture":"高知県","prefecture_kana":"コウチケン","city":"吾川郡いの町","city_kana":"アガワグンイノチョウ","town":"清水上分川窪","town_kana":"キヨミズカミブンカワクボ","prefecture_code":39},{"zip_code":"7812511","prefecture":"高知県","prefecture_kana":"コウチケン","city":"吾川郡いの町","city_kana":"アガワグンイノチョウ","town":"清水上分敷槇","town_kana":"キヨミズカミブンシキマキ","prefecture_code":39},{"zip_code":"7812511","prefecture":"高知県","prefecture_kana":"コウチケン","city":"吾川郡いの町","city_kana":"アガワグンイノチョウ","town":"清水上分土居","town_kana":"キヨミズカミブンドイ","prefecture_code":39},{"zip_code":"7812511","prefecture":"高知県","prefecture_kana":"コウチケン","city":"吾川郡いの町","city_kana":"アガワグンイノチョウ","town":"清水上分程野","town_kana":"キヨミズカミブンホドノ","prefecture_code":39}],"2512":[{"zip_code":"7812512","prefecture":"高知県","prefecture_kana":"コウチケン","city":"吾川郡いの町","city_kana":"アガワグンイノチョウ","town":"清水下分馬路","town_kana":"キヨミズシモブンバロウ","prefecture_code":39},{"zip_code":"7812512","prefecture":"高知県","prefecture_kana":"コウチケン","city":"吾川郡いの町","city_kana":"アガワグンイノチョウ","town":"清水下分大野","town_kana":"キヨミズシモブンオオノ","prefecture_code":39},{"zip_code":"7812512","prefecture":"高知県","prefecture_kana":"コウチケン","city":"吾川郡いの町","city_kana":"アガワグンイノチョウ","town":"清水下分川口","town_kana":"キヨミズシモブンカワグチ","prefecture_code":39},{"zip_code":"7812512","prefecture":"高知県","prefecture_kana":"コウチケン","city":"吾川郡いの町","city_kana":"アガワグンイノチョウ","town":"清水下分日比原","town_kana":"キヨミズシモブンヒビハラ","prefecture_code":39},{"zip_code":"7812512","prefecture":"高知県","prefecture_kana":"コウチケン","city":"吾川郡いの町","city_kana":"アガワグンイノチョウ","town":"清水下分槇川","town_kana":"キヨミズシモブンマキガワ","prefecture_code":39},{"zip_code":"7812512","prefecture":"高知県","prefecture_kana":"コウチケン","city":"吾川郡いの町","city_kana":"アガワグンイノチョウ","town":"清水下分松ノ木","town_kana":"キヨミズシモブンマツノキ","prefecture_code":39}],"2143":{"zip_code":"7812143","prefecture":"高知県","prefecture_kana":"コウチケン","city":"吾川郡いの町","city_kana":"アガワグンイノチョウ","town":"楠瀬","town_kana":"クスノセ","prefecture_code":39},"2615":{"zip_code":"7812615","prefecture":"高知県","prefecture_kana":"コウチケン","city":"吾川郡いの町","city_kana":"アガワグンイノチョウ","town":"桑瀬","town_kana":"クワゼ","prefecture_code":39},"2102":{"zip_code":"7812102","prefecture":"高知県","prefecture_kana":"コウチケン","city":"吾川郡いの町","city_kana":"アガワグンイノチョウ","town":"公園町","town_kana":"コウエンチョウ","prefecture_code":39},"2134":{"zip_code":"7812134","prefecture":"高知県","prefecture_kana":"コウチケン","city":"吾川郡いの町","city_kana":"アガワグンイノチョウ","town":"神谷","town_kana":"コウノタニ","prefecture_code":39},"2324":{"zip_code":"7812324","prefecture":"高知県","prefecture_kana":"コウチケン","city":"吾川郡いの町","city_kana":"アガワグンイノチョウ","town":"小川新別","town_kana":"コガワシンベツ","prefecture_code":39},"2322":{"zip_code":"7812322","prefecture":"高知県","prefecture_kana":"コウチケン","city":"吾川郡いの町","city_kana":"アガワグンイノチョウ","town":"小川西津賀才","town_kana":"コガワニシツガサイ","prefecture_code":39},"2321":{"zip_code":"7812321","prefecture":"高知県","prefecture_kana":"コウチケン","city":"吾川郡いの町","city_kana":"アガワグンイノチョウ","town":"小川東津賀才","town_kana":"コガワヒガシツガサイ","prefecture_code":39},"2323":{"zip_code":"7812323","prefecture":"高知県","prefecture_kana":"コウチケン","city":"吾川郡いの町","city_kana":"アガワグンイノチョウ","town":"小川樅ノ木山","town_kana":"コガワモミノキヤマ","prefecture_code":39},"2325":{"zip_code":"7812325","prefecture":"高知県","prefecture_kana":"コウチケン","city":"吾川郡いの町","city_kana":"アガワグンイノチョウ","town":"小川柳野","town_kana":"コガワヤナギノ","prefecture_code":39},"2135":{"zip_code":"7812135","prefecture":"高知県","prefecture_kana":"コウチケン","city":"吾川郡いの町","city_kana":"アガワグンイノチョウ","town":"小野","town_kana":"コノ","prefecture_code":39},"2103":{"zip_code":"7812103","prefecture":"高知県","prefecture_kana":"コウチケン","city":"吾川郡いの町","city_kana":"アガワグンイノチョウ","town":"幸町","town_kana":"サイワイチョウ","prefecture_code":39},"2332":{"zip_code":"7812332","prefecture":"高知県","prefecture_kana":"コウチケン","city":"吾川郡いの町","city_kana":"アガワグンイノチョウ","town":"下八川乙","town_kana":"シモヤカワオツ","prefecture_code":39},"2331":{"zip_code":"7812331","prefecture":"高知県","prefecture_kana":"コウチケン","city":"吾川郡いの町","city_kana":"アガワグンイノチョウ","town":"下八川甲","town_kana":"シモヤカワコウ","prefecture_code":39},"2334":{"zip_code":"7812334","prefecture":"高知県","prefecture_kana":"コウチケン","city":"吾川郡いの町","city_kana":"アガワグンイノチョウ","town":"下八川丁","town_kana":"シモヤカワテイ","prefecture_code":39},"2335":{"zip_code":"7812335","prefecture":"高知県","prefecture_kana":"コウチケン","city":"吾川郡いの町","city_kana":"アガワグンイノチョウ","town":"下八川十田","town_kana":"シモヤカワトオダ","prefecture_code":39},"2333":{"zip_code":"7812333","prefecture":"高知県","prefecture_kana":"コウチケン","city":"吾川郡いの町","city_kana":"アガワグンイノチョウ","town":"下八川丙","town_kana":"シモヤカワヘイ","prefecture_code":39},"2141":{"zip_code":"7812141","prefecture":"高知県","prefecture_kana":"コウチケン","city":"吾川郡いの町","city_kana":"アガワグンイノチョウ","town":"勝賀瀬","town_kana":"ショウガセ","prefecture_code":39},"2105":{"zip_code":"7812105","prefecture":"高知県","prefecture_kana":"コウチケン","city":"吾川郡いの町","city_kana":"アガワグンイノチョウ","town":"新町","town_kana":"シンマチ","prefecture_code":39},"2101":{"zip_code":"7812101","prefecture":"高知県","prefecture_kana":"コウチケン","city":"吾川郡いの町","city_kana":"アガワグンイノチョウ","town":"大国町","town_kana":"ダイコクチョウ","prefecture_code":39},"2612":{"zip_code":"7812612","prefecture":"高知県","prefecture_kana":"コウチケン","city":"吾川郡いの町","city_kana":"アガワグンイノチョウ","town":"高薮","town_kana":"タカヤブ","prefecture_code":39},"2605":{"zip_code":"7812605","prefecture":"高知県","prefecture_kana":"コウチケン","city":"吾川郡いの町","city_kana":"アガワグンイノチョウ","town":"寺川","town_kana":"テラガワ","prefecture_code":39},"2122":{"zip_code":"7812122","prefecture":"高知県","prefecture_kana":"コウチケン","city":"吾川郡いの町","city_kana":"アガワグンイノチョウ","town":"天王北","town_kana":"テンノウキタ","prefecture_code":39},"2123":{"zip_code":"7812123","prefecture":"高知県","prefecture_kana":"コウチケン","city":"吾川郡いの町","city_kana":"アガワグンイノチョウ","town":"天王南","town_kana":"テンノウミナミ","prefecture_code":39},"2602":{"zip_code":"7812602","prefecture":"高知県","prefecture_kana":"コウチケン","city":"吾川郡いの町","city_kana":"アガワグンイノチョウ","town":"戸中","town_kana":"トチュウ","prefecture_code":39},"2142":{"zip_code":"7812142","prefecture":"高知県","prefecture_kana":"コウチケン","city":"吾川郡いの町","city_kana":"アガワグンイノチョウ","town":"中追","town_kana":"ナカオイ","prefecture_code":39},"2601":{"zip_code":"7812601","prefecture":"高知県","prefecture_kana":"コウチケン","city":"吾川郡いの町","city_kana":"アガワグンイノチョウ","town":"長沢","town_kana":"ナガサワ","prefecture_code":39},"2616":{"zip_code":"7812616","prefecture":"高知県","prefecture_kana":"コウチケン","city":"吾川郡いの町","city_kana":"アガワグンイノチョウ","town":"中ノ川","town_kana":"ナカノカワ","prefecture_code":39},"2132":{"zip_code":"7812132","prefecture":"高知県","prefecture_kana":"コウチケン","city":"吾川郡いの町","city_kana":"アガワグンイノチョウ","town":"成山","town_kana":"ナルヤマ","prefecture_code":39},"2112":{"zip_code":"7812112","prefecture":"高知県","prefecture_kana":"コウチケン","city":"吾川郡いの町","city_kana":"アガワグンイノチョウ","town":"西町","town_kana":"ニシマチ","prefecture_code":39},"2128":{"zip_code":"7812128","prefecture":"高知県","prefecture_kana":"コウチケン","city":"吾川郡いの町","city_kana":"アガワグンイノチョウ","town":"波川","town_kana":"ハカワ","prefecture_code":39},"2124":{"zip_code":"7812124","prefecture":"高知県","prefecture_kana":"コウチケン","city":"吾川郡いの町","city_kana":"アガワグンイノチョウ","town":"八田","town_kana":"ハタ","prefecture_code":39},"2111":{"zip_code":"7812111","prefecture":"高知県","prefecture_kana":"コウチケン","city":"吾川郡いの町","city_kana":"アガワグンイノチョウ","town":"羽根町","town_kana":"ハネマチ","prefecture_code":39},"2104":{"zip_code":"7812104","prefecture":"高知県","prefecture_kana":"コウチケン","city":"吾川郡いの町","city_kana":"アガワグンイノチョウ","town":"藤町","town_kana":"フジマチ","prefecture_code":39},"2131":{"zip_code":"7812131","prefecture":"高知県","prefecture_kana":"コウチケン","city":"吾川郡いの町","city_kana":"アガワグンイノチョウ","town":"槇","town_kana":"マキ","prefecture_code":39},"2113":{"zip_code":"7812113","prefecture":"高知県","prefecture_kana":"コウチケン","city":"吾川郡いの町","city_kana":"アガワグンイノチョウ","town":"元町","town_kana":"モトマチ","prefecture_code":39},"2116":{"zip_code":"7812116","prefecture":"高知県","prefecture_kana":"コウチケン","city":"吾川郡いの町","city_kana":"アガワグンイノチョウ","town":"柳町","town_kana":"ヤナギマチ","prefecture_code":39},"2145":{"zip_code":"7812145","prefecture":"高知県","prefecture_kana":"コウチケン","city":"吾川郡いの町","city_kana":"アガワグンイノチョウ","town":"柳瀬石見","town_kana":"ヤナノセイシミ","prefecture_code":39},"2146":{"zip_code":"7812146","prefecture":"高知県","prefecture_kana":"コウチケン","city":"吾川郡いの町","city_kana":"アガワグンイノチョウ","town":"柳瀬上分","town_kana":"ヤナノセカミブン","prefecture_code":39},"2144":{"zip_code":"7812144","prefecture":"高知県","prefecture_kana":"コウチケン","city":"吾川郡いの町","city_kana":"アガワグンイノチョウ","town":"柳瀬本村","town_kana":"ヤナノセホンムラ","prefecture_code":39},"2611":{"zip_code":"7812611","prefecture":"高知県","prefecture_kana":"コウチケン","city":"吾川郡いの町","city_kana":"アガワグンイノチョウ","town":"脇ノ山","town_kana":"ワキノヤマ","prefecture_code":39},"1500":{"zip_code":"7811500","prefecture":"高知県","prefecture_kana":"コウチケン","city":"吾川郡仁淀川町","city_kana":"アガワグンニヨドガワチョウ","town":"","town_kana":"","prefecture_code":39},"1532":{"zip_code":"7811532","prefecture":"高知県","prefecture_kana":"コウチケン","city":"吾川郡仁淀川町","city_kana":"アガワグンニヨドガワチョウ","town":"相能","town_kana":"アイノウ","prefecture_code":39},"1612":{"zip_code":"7811612","prefecture":"高知県","prefecture_kana":"コウチケン","city":"吾川郡仁淀川町","city_kana":"アガワグンニヨドガワチョウ","town":"池川大渡","town_kana":"イケガワオオド","prefecture_code":39},"1914":{"zip_code":"7811914","prefecture":"高知県","prefecture_kana":"コウチケン","city":"吾川郡仁淀川町","city_kana":"アガワグンニヨドガワチョウ","town":"泉","town_kana":"イズミ","prefecture_code":39},"1621":{"zip_code":"7811621","prefecture":"高知県","prefecture_kana":"コウチケン","city":"吾川郡仁淀川町","city_kana":"アガワグンニヨドガワチョウ","town":"入江谷","town_kana":"イリエダニ","prefecture_code":39},"1615":{"zip_code":"7811615","prefecture":"高知県","prefecture_kana":"コウチケン","city":"吾川郡仁淀川町","city_kana":"アガワグンニヨドガワチョウ","town":"岩柄","town_kana":"イワガラ","prefecture_code":39},"1512":{"zip_code":"7811512","prefecture":"高知県","prefecture_kana":"コウチケン","city":"吾川郡仁淀川町","city_kana":"アガワグンニヨドガワチョウ","town":"岩戸","town_kana":"イワド","prefecture_code":39},"1611":{"zip_code":"7811611","prefecture":"高知県","prefecture_kana":"コウチケン","city":"吾川郡仁淀川町","city_kana":"アガワグンニヨドガワチョウ","town":"岩丸","town_kana":"イワマル","prefecture_code":39},"1514":{"zip_code":"7811514","prefecture":"高知県","prefecture_kana":"コウチケン","city":"吾川郡仁淀川町","city_kana":"アガワグンニヨドガワチョウ","town":"大板","town_kana":"オオイタ","prefecture_code":39},"1915":{"zip_code":"7811915","prefecture":"高知県","prefecture_kana":"コウチケン","city":"吾川郡仁淀川町","city_kana":"アガワグンニヨドガワチョウ","town":"大植","town_kana":"オオウエ","prefecture_code":39},"1756":{"zip_code":"7811756","prefecture":"高知県","prefecture_kana":"コウチケン","city":"吾川郡仁淀川町","city_kana":"アガワグンニヨドガワチョウ","town":"大尾","town_kana":"オオオ","prefecture_code":39},"1501":{"zip_code":"7811501","prefecture":"高知県","prefecture_kana":"コウチケン","city":"吾川郡仁淀川町","city_kana":"アガワグンニヨドガワチョウ","town":"大崎","town_kana":"オオサキ","prefecture_code":39},"1751":{"zip_code":"7811751","prefecture":"高知県","prefecture_kana":"コウチケン","city":"吾川郡仁淀川町","city_kana":"アガワグンニヨドガワチョウ","town":"大渡","town_kana":"オオド","prefecture_code":39},"1614":{"zip_code":"7811614","prefecture":"高知県","prefecture_kana":"コウチケン","city":"吾川郡仁淀川町","city_kana":"アガワグンニヨドガワチョウ","town":"大西","town_kana":"オオニシ","prefecture_code":39},"1617":{"zip_code":"7811617","prefecture":"高知県","prefecture_kana":"コウチケン","city":"吾川郡仁淀川町","city_kana":"アガワグンニヨドガワチョウ","town":"大野","town_kana":"オオノ","prefecture_code":39},"1601":{"zip_code":"7811601","prefecture":"高知県","prefecture_kana":"コウチケン","city":"吾川郡仁淀川町","city_kana":"アガワグンニヨドガワチョウ","town":"大平","town_kana":"オオヒラ","prefecture_code":39},"1628":{"zip_code":"7811628","prefecture":"高知県","prefecture_kana":"コウチケン","city":"吾川郡仁淀川町","city_kana":"アガワグンニヨドガワチョウ","town":"大屋","town_kana":"オオヤ","prefecture_code":39},"1520":{"zip_code":"7811520","prefecture":"高知県","prefecture_kana":"コウチケン","city":"吾川郡仁淀川町","city_kana":"アガワグンニヨドガワチョウ","town":"大蕨","town_kana":"オオワラビ","prefecture_code":39},"1534":{"zip_code":"7811534","prefecture":"高知県","prefecture_kana":"コウチケン","city":"吾川郡仁淀川町","city_kana":"アガワグンニヨドガワチョウ","town":"遅越","town_kana":"オソゴエ","prefecture_code":39},"1518":{"zip_code":"7811518","prefecture":"高知県","prefecture_kana":"コウチケン","city":"吾川郡仁淀川町","city_kana":"アガワグンニヨドガワチョウ","town":"加枝","town_kana":"カエ","prefecture_code":39},"1602":{"zip_code":"7811602","prefecture":"高知県","prefecture_kana":"コウチケン","city":"吾川郡仁淀川町","city_kana":"アガワグンニヨドガワチョウ","town":"楮原","town_kana":"カジハラ","prefecture_code":39},"1766":{"zip_code":"7811766","prefecture":"高知県","prefecture_kana":"コウチケン","city":"吾川郡仁淀川町","city_kana":"アガワグンニヨドガワチョウ","town":"上名野川","town_kana":"カミナノカワ","prefecture_code":39},"1605":{"zip_code":"7811605","prefecture":"高知県","prefecture_kana":"コウチケン","city":"吾川郡仁淀川町","city_kana":"アガワグンニヨドガワチョウ","town":"川内谷","town_kana":"カワウチダニ","prefecture_code":39},"1502":{"zip_code":"7811502","prefecture":"高知県","prefecture_kana":"コウチケン","city":"吾川郡仁淀川町","city_kana":"アガワグンニヨドガワチョウ","town":"川口","town_kana":"カワグチ","prefecture_code":39},"1804":{"zip_code":"7811804","prefecture":"高知県","prefecture_kana":"コウチケン","city":"吾川郡仁淀川町","city_kana":"アガワグンニヨドガワチョウ","town":"川渡","town_kana":"カワド","prefecture_code":39},"1754":{"zip_code":"7811754","prefecture":"高知県","prefecture_kana":"コウチケン","city":"吾川郡仁淀川町","city_kana":"アガワグンニヨドガワチョウ","town":"北","town_kana":"キタ","prefecture_code":39},"1607":{"zip_code":"7811607","prefecture":"高知県","prefecture_kana":"コウチケン","city":"吾川郡仁淀川町","city_kana":"アガワグンニヨドガワチョウ","town":"北浦","town_kana":"キタウラ","prefecture_code":39},"1746":{"zip_code":"7811746","prefecture":"高知県","prefecture_kana":"コウチケン","city":"吾川郡仁淀川町","city_kana":"アガワグンニヨドガワチョウ","town":"北川","town_kana":"キタガワ","prefecture_code":39},"1531":{"zip_code":"7811531","prefecture":"高知県","prefecture_kana":"コウチケン","city":"吾川郡仁淀川町","city_kana":"アガワグンニヨドガワチョウ","town":"久喜","town_kana":"クキ","prefecture_code":39},"1517":{"zip_code":"7811517","prefecture":"高知県","prefecture_kana":"コウチケン","city":"吾川郡仁淀川町","city_kana":"アガワグンニヨドガワチョウ","town":"葛原","town_kana":"クズワラ","prefecture_code":39},"1608":{"zip_code":"7811608","prefecture":"高知県","prefecture_kana":"コウチケン","city":"吾川郡仁淀川町","city_kana":"アガワグンニヨドガワチョウ","town":"坂本","town_kana":"サカモト","prefecture_code":39},"1743":{"zip_code":"7811743","prefecture":"高知県","prefecture_kana":"コウチケン","city":"吾川郡仁淀川町","city_kana":"アガワグンニヨドガワチョウ","town":"崎ノ山","town_kana":"サキノヤマ","prefecture_code":39},"1505":{"zip_code":"7811505","prefecture":"高知県","prefecture_kana":"コウチケン","city":"吾川郡仁淀川町","city_kana":"アガワグンニヨドガワチョウ","town":"桜","town_kana":"サクラ","prefecture_code":39},"1506":{"zip_code":"7811506","prefecture":"高知県","prefecture_kana":"コウチケン","city":"吾川郡仁淀川町","city_kana":"アガワグンニヨドガワチョウ","town":"鹿森","town_kana":"シシモリ","prefecture_code":39},"1745":{"zip_code":"7811745","prefecture":"高知県","prefecture_kana":"コウチケン","city":"吾川郡仁淀川町","city_kana":"アガワグンニヨドガワチョウ","town":"下北川","town_kana":"シモキタガワ","prefecture_code":39},"1762":{"zip_code":"7811762","prefecture":"高知県","prefecture_kana":"コウチケン","city":"吾川郡仁淀川町","city_kana":"アガワグンニヨドガワチョウ","town":"下名野川","town_kana":"シモナノカワ","prefecture_code":39},"1523":{"zip_code":"7811523","prefecture":"高知県","prefecture_kana":"コウチケン","city":"吾川郡仁淀川町","city_kana":"アガワグンニヨドガワチョウ","town":"宗津","town_kana":"ソウヅ","prefecture_code":39},"1802":{"zip_code":"7811802","prefecture":"高知県","prefecture_kana":"コウチケン","city":"吾川郡仁淀川町","city_kana":"アガワグンニヨドガワチョウ","town":"高瀬","town_kana":"タカセ","prefecture_code":39},"1610":{"zip_code":"7811610","prefecture":"高知県","prefecture_kana":"コウチケン","city":"吾川郡仁淀川町","city_kana":"アガワグンニヨドガワチョウ","town":"竹ノ谷","town_kana":"タケノタニ","prefecture_code":39},"1742":{"zip_code":"7811742","prefecture":"高知県","prefecture_kana":"コウチケン","city":"吾川郡仁淀川町","city_kana":"アガワグンニヨドガワチョウ","town":"竹屋敷","town_kana":"タケヤシキ","prefecture_code":39},"1758":{"zip_code":"7811758","prefecture":"高知県","prefecture_kana":"コウチケン","city":"吾川郡仁淀川町","city_kana":"アガワグンニヨドガワチョウ","town":"橘","town_kana":"タチバナ","prefecture_code":39},"1503":{"zip_code":"7811503","prefecture":"高知県","prefecture_kana":"コウチケン","city":"吾川郡仁淀川町","city_kana":"アガワグンニヨドガワチョウ","town":"橘谷","town_kana":"タチバナダニ","prefecture_code":39},"1522":{"zip_code":"7811522","prefecture":"高知県","prefecture_kana":"コウチケン","city":"吾川郡仁淀川町","city_kana":"アガワグンニヨドガワチョウ","town":"田村","town_kana":"タムラ","prefecture_code":39},"1911":{"zip_code":"7811911","prefecture":"高知県","prefecture_kana":"コウチケン","city":"吾川郡仁淀川町","city_kana":"アガワグンニヨドガワチョウ","town":"長者乙","town_kana":"チョウジャオツ","prefecture_code":39},"1912":{"zip_code":"7811912","prefecture":"高知県","prefecture_kana":"コウチケン","city":"吾川郡仁淀川町","city_kana":"アガワグンニヨドガワチョウ","town":"長者丁","town_kana":"チョウジャテイ","prefecture_code":39},"1913":{"zip_code":"7811913","prefecture":"高知県","prefecture_kana":"コウチケン","city":"吾川郡仁淀川町","city_kana":"アガワグンニヨドガワチョウ","town":"長者丙","town_kana":"チョウジャヘイ","prefecture_code":39},"1765":{"zip_code":"7811765","prefecture":"高知県","prefecture_kana":"コウチケン","city":"吾川郡仁淀川町","city_kana":"アガワグンニヨドガワチョウ","town":"津江","town_kana":"ツエ","prefecture_code":39},"1753":{"zip_code":"7811753","prefecture":"高知県","prefecture_kana":"コウチケン","city":"吾川郡仁淀川町","city_kana":"アガワグンニヨドガワチョウ","town":"潰溜","town_kana":"ツエダマリ","prefecture_code":39},"1618":{"zip_code":"7811618","prefecture":"高知県","prefecture_kana":"コウチケン","city":"吾川郡仁淀川町","city_kana":"アガワグンニヨドガワチョウ","town":"椿山","town_kana":"ツバヤマ","prefecture_code":39},"1626":{"zip_code":"7811626","prefecture":"高知県","prefecture_kana":"コウチケン","city":"吾川郡仁淀川町","city_kana":"アガワグンニヨドガワチョウ","town":"坪井川","town_kana":"ツボイガワ","prefecture_code":39},"1511":{"zip_code":"7811511","prefecture":"高知県","prefecture_kana":"コウチケン","city":"吾川郡仁淀川町","city_kana":"アガワグンニヨドガワチョウ","town":"寺村","town_kana":"テラムラ","prefecture_code":39},"1624":{"zip_code":"7811624","prefecture":"高知県","prefecture_kana":"コウチケン","city":"吾川郡仁淀川町","city_kana":"アガワグンニヨドガワチョウ","town":"土居安居土居","town_kana":"ドイヤスイドイ","prefecture_code":39},"1606":{"zip_code":"7811606","prefecture":"高知県","prefecture_kana":"コウチケン","city":"吾川郡仁淀川町","city_kana":"アガワグンニヨドガワチョウ","town":"土居","town_kana":"ドイ","prefecture_code":39},"1752":{"zip_code":"7811752","prefecture":"高知県","prefecture_kana":"コウチケン","city":"吾川郡仁淀川町","city_kana":"アガワグンニヨドガワチョウ","town":"峠ノ越","town_kana":"トウノコエ","prefecture_code":39},"1763":{"zip_code":"7811763","prefecture":"高知県","prefecture_kana":"コウチケン","city":"吾川郡仁淀川町","city_kana":"アガワグンニヨドガワチョウ","town":"中","town_kana":"ナカ","prefecture_code":39},"1764":{"zip_code":"7811764","prefecture":"高知県","prefecture_kana":"コウチケン","city":"吾川郡仁淀川町","city_kana":"アガワグンニヨドガワチョウ","town":"長坂","town_kana":"ナガサカ","prefecture_code":39},"1516":{"zip_code":"7811516","prefecture":"高知県","prefecture_kana":"コウチケン","city":"吾川郡仁淀川町","city_kana":"アガワグンニヨドガワチョウ","town":"中村","town_kana":"ナカムラ","prefecture_code":39},"1524":{"zip_code":"7811524","prefecture":"高知県","prefecture_kana":"コウチケン","city":"吾川郡仁淀川町","city_kana":"アガワグンニヨドガワチョウ","town":"長屋","town_kana":"ナガヤ","prefecture_code":39},"1741":{"zip_code":"7811741","prefecture":"高知県","prefecture_kana":"コウチケン","city":"吾川郡仁淀川町","city_kana":"アガワグンニヨドガワチョウ","town":"名野川","town_kana":"ナノカワ","prefecture_code":39},"1744":{"zip_code":"7811744","prefecture":"高知県","prefecture_kana":"コウチケン","city":"吾川郡仁淀川町","city_kana":"アガワグンニヨドガワチョウ","town":"名野川大平","town_kana":"ナノカワオオヒラ","prefecture_code":39},"1622":{"zip_code":"7811622","prefecture":"高知県","prefecture_kana":"コウチケン","city":"吾川郡仁淀川町","city_kana":"アガワグンニヨドガワチョウ","town":"成川","town_kana":"ナルガワ","prefecture_code":39},"1761":{"zip_code":"7811761","prefecture":"高知県","prefecture_kana":"コウチケン","city":"吾川郡仁淀川町","city_kana":"アガワグンニヨドガワチョウ","town":"二ノ滝","town_kana":"ニノタキ","prefecture_code":39},"1603":{"zip_code":"7811603","prefecture":"高知県","prefecture_kana":"コウチケン","city":"吾川郡仁淀川町","city_kana":"アガワグンニヨドガワチョウ","town":"日浦","town_kana":"ヒウラ","prefecture_code":39},"1533":{"zip_code":"7811533","prefecture":"高知県","prefecture_kana":"コウチケン","city":"吾川郡仁淀川町","city_kana":"アガワグンニヨドガワチョウ","town":"引地","town_kana":"ヒキチ","prefecture_code":39},"1504":{"zip_code":"7811504","prefecture":"高知県","prefecture_kana":"コウチケン","city":"吾川郡仁淀川町","city_kana":"アガワグンニヨドガワチョウ","town":"藤ノ野","town_kana":"フジノノ","prefecture_code":39},"1535":{"zip_code":"7811535","prefecture":"高知県","prefecture_kana":"コウチケン","city":"吾川郡仁淀川町","city_kana":"アガワグンニヨドガワチョウ","town":"二子野","town_kana":"フタゴノ","prefecture_code":39},"1803":{"zip_code":"7811803","prefecture":"高知県","prefecture_kana":"コウチケン","city":"吾川郡仁淀川町","city_kana":"アガワグンニヨドガワチョウ","town":"別枝","town_kana":"ベッシ","prefecture_code":39},"1521":{"zip_code":"7811521","prefecture":"高知県","prefecture_kana":"コウチケン","city":"吾川郡仁淀川町","city_kana":"アガワグンニヨドガワチョウ","town":"本村","town_kana":"ホンムラ","prefecture_code":39},"1513":{"zip_code":"7811513","prefecture":"高知県","prefecture_kana":"コウチケン","city":"吾川郡仁淀川町","city_kana":"アガワグンニヨドガワチョウ","town":"峯岩戸","town_kana":"ミネイワド","prefecture_code":39},"1604":{"zip_code":"7811604","prefecture":"高知県","prefecture_kana":"コウチケン","city":"吾川郡仁淀川町","city_kana":"アガワグンニヨドガワチョウ","town":"見ノ越","town_kana":"ミノコシ","prefecture_code":39},"1627":{"zip_code":"7811627","prefecture":"高知県","prefecture_kana":"コウチケン","city":"吾川郡仁淀川町","city_kana":"アガワグンニヨドガワチョウ","town":"宮ケ平","town_kana":"ミヤガヒラ","prefecture_code":39},"1613":{"zip_code":"7811613","prefecture":"高知県","prefecture_kana":"コウチケン","city":"吾川郡仁淀川町","city_kana":"アガワグンニヨドガワチョウ","town":"明戸岩","town_kana":"ミョウトイワ","prefecture_code":39},"1620":[{"zip_code":"7811620","prefecture":"高知県","prefecture_kana":"コウチケン","city":"吾川郡仁淀川町","city_kana":"アガワグンニヨドガワチョウ","town":"用居乙瓜生野","town_kana":"モチイオツウリウノ","prefecture_code":39},{"zip_code":"7811620","prefecture":"高知県","prefecture_kana":"コウチケン","city":"吾川郡仁淀川町","city_kana":"アガワグンニヨドガワチョウ","town":"用居乙折尾","town_kana":"モチイオツオリオ","prefecture_code":39},{"zip_code":"7811620","prefecture":"高知県","prefecture_kana":"コウチケン","city":"吾川郡仁淀川町","city_kana":"アガワグンニヨドガワチョウ","town":"用居乙桧谷","town_kana":"モチイオツヒノキダニ","prefecture_code":39}],"1619":[{"zip_code":"7811619","prefecture":"高知県","prefecture_kana":"コウチケン","city":"吾川郡仁淀川町","city_kana":"アガワグンニヨドガワチョウ","town":"用居甲出丸","town_kana":"モチイコウイズマル","prefecture_code":39},{"zip_code":"7811619","prefecture":"高知県","prefecture_kana":"コウチケン","city":"吾川郡仁淀川町","city_kana":"アガワグンニヨドガワチョウ","town":"用居甲舟形","town_kana":"モチイコウフナガタ","prefecture_code":39},{"zip_code":"7811619","prefecture":"高知県","prefecture_kana":"コウチケン","city":"吾川郡仁淀川町","city_kana":"アガワグンニヨドガワチョウ","town":"用居甲用居","town_kana":"モチイコウモチイ","prefecture_code":39}],"1616":{"zip_code":"7811616","prefecture":"高知県","prefecture_kana":"コウチケン","city":"吾川郡仁淀川町","city_kana":"アガワグンニヨドガワチョウ","town":"百川内","town_kana":"モモガワウチ","prefecture_code":39},"1801":{"zip_code":"7811801","prefecture":"高知県","prefecture_kana":"コウチケン","city":"吾川郡仁淀川町","city_kana":"アガワグンニヨドガワチョウ","town":"森","town_kana":"モリ","prefecture_code":39},"1755":{"zip_code":"7811755","prefecture":"高知県","prefecture_kana":"コウチケン","city":"吾川郡仁淀川町","city_kana":"アガワグンニヨドガワチョウ","town":"森山","town_kana":"モリヤマ","prefecture_code":39},"1625":{"zip_code":"7811625","prefecture":"高知県","prefecture_kana":"コウチケン","city":"吾川郡仁淀川町","city_kana":"アガワグンニヨドガワチョウ","town":"吉ケ成","town_kana":"ヨシガナル","prefecture_code":39},"1623":{"zip_code":"7811623","prefecture":"高知県","prefecture_kana":"コウチケン","city":"吾川郡仁淀川町","city_kana":"アガワグンニヨドガワチョウ","town":"余能","town_kana":"ヨノウ","prefecture_code":39},"1609":{"zip_code":"7811609","prefecture":"高知県","prefecture_kana":"コウチケン","city":"吾川郡仁淀川町","city_kana":"アガワグンニヨドガワチョウ","town":"寄合","town_kana":"ヨリアイ","prefecture_code":39},"1757":{"zip_code":"7811757","prefecture":"高知県","prefecture_kana":"コウチケン","city":"吾川郡仁淀川町","city_kana":"アガワグンニヨドガワチョウ","town":"鷲ノ巣","town_kana":"ワシノス","prefecture_code":39},"1515":{"zip_code":"7811515","prefecture":"高知県","prefecture_kana":"コウチケン","city":"吾川郡仁淀川町","city_kana":"アガワグンニヨドガワチョウ","town":"蕨谷","town_kana":"ワラビダニ","prefecture_code":39},"1300":{"zip_code":"7811300","prefecture":"高知県","prefecture_kana":"コウチケン","city":"高岡郡越知町","city_kana":"タカオカグンオチチョウ","town":"","town_kana":"","prefecture_code":39},"1325":{"zip_code":"7811325","prefecture":"高知県","prefecture_kana":"コウチケン","city":"高岡郡越知町","city_kana":"タカオカグンオチチョウ","town":"浅尾","town_kana":"アソオ","prefecture_code":39},"1311":{"zip_code":"7811311","prefecture":"高知県","prefecture_kana":"コウチケン","city":"高岡郡越知町","city_kana":"タカオカグンオチチョウ","town":"今成","town_kana":"イマナリ","prefecture_code":39},"1333":{"zip_code":"7811333","prefecture":"高知県","prefecture_kana":"コウチケン","city":"高岡郡越知町","city_kana":"タカオカグンオチチョウ","town":"大平","town_kana":"オオヒラ","prefecture_code":39},"1301":{"zip_code":"7811301","prefecture":"高知県","prefecture_kana":"コウチケン","city":"高岡郡越知町","city_kana":"タカオカグンオチチョウ","town":"越知甲","town_kana":"オチコウ","prefecture_code":39},"1302":{"zip_code":"7811302","prefecture":"高知県","prefecture_kana":"コウチケン","city":"高岡郡越知町","city_kana":"タカオカグンオチチョウ","town":"越知乙","town_kana":"オチオツ","prefecture_code":39},"1303":{"zip_code":"7811303","prefecture":"高知県","prefecture_kana":"コウチケン","city":"高岡郡越知町","city_kana":"タカオカグンオチチョウ","town":"越知丙","town_kana":"オチヘイ","prefecture_code":39},"1304":{"zip_code":"7811304","prefecture":"高知県","prefecture_kana":"コウチケン","city":"高岡郡越知町","city_kana":"タカオカグンオチチョウ","town":"越知丁","town_kana":"オチテイ","prefecture_code":39},"1326":{"zip_code":"7811326","prefecture":"高知県","prefecture_kana":"コウチケン","city":"高岡郡越知町","city_kana":"タカオカグンオチチョウ","town":"片岡","town_kana":"カタオカ","prefecture_code":39},"1322":{"zip_code":"7811322","prefecture":"高知県","prefecture_kana":"コウチケン","city":"高岡郡越知町","city_kana":"タカオカグンオチチョウ","town":"鎌井田桑薮","town_kana":"カマイダクヤブ","prefecture_code":39},"1324":{"zip_code":"7811324","prefecture":"高知県","prefecture_kana":"コウチケン","city":"高岡郡越知町","city_kana":"タカオカグンオチチョウ","town":"鎌井田清助","town_kana":"カマイダセイスケ","prefecture_code":39},"1323":{"zip_code":"7811323","prefecture":"高知県","prefecture_kana":"コウチケン","city":"高岡郡越知町","city_kana":"タカオカグンオチチョウ","town":"鎌井田日ノ浦","town_kana":"カマイダヒノウラ","prefecture_code":39},"1321":{"zip_code":"7811321","prefecture":"高知県","prefecture_kana":"コウチケン","city":"高岡郡越知町","city_kana":"タカオカグンオチチョウ","town":"鎌井田本村","town_kana":"カマイダホンソン","prefecture_code":39},"1334":{"zip_code":"7811334","prefecture":"高知県","prefecture_kana":"コウチケン","city":"高岡郡越知町","city_kana":"タカオカグンオチチョウ","town":"桐見川","town_kana":"キリミガワ","prefecture_code":39},"1327":{"zip_code":"7811327","prefecture":"高知県","prefecture_kana":"コウチケン","city":"高岡郡越知町","city_kana":"タカオカグンオチチョウ","town":"黒瀬","town_kana":"クロセ","prefecture_code":39},"1331":{"zip_code":"7811331","prefecture":"高知県","prefecture_kana":"コウチケン","city":"高岡郡越知町","city_kana":"タカオカグンオチチョウ","town":"五味","town_kana":"ゴミ","prefecture_code":39},"1337":{"zip_code":"7811337","prefecture":"高知県","prefecture_kana":"コウチケン","city":"高岡郡越知町","city_kana":"タカオカグンオチチョウ","town":"佐之国","town_kana":"サノクニ","prefecture_code":39},"1307":{"zip_code":"7811307","prefecture":"高知県","prefecture_kana":"コウチケン","city":"高岡郡越知町","city_kana":"タカオカグンオチチョウ","town":"柴尾","town_kana":"シボオ","prefecture_code":39},"1335":{"zip_code":"7811335","prefecture":"高知県","prefecture_kana":"コウチケン","city":"高岡郡越知町","city_kana":"タカオカグンオチチョウ","town":"長者","town_kana":"チョウジャ","prefecture_code":39},"1305":{"zip_code":"7811305","prefecture":"高知県","prefecture_kana":"コウチケン","city":"高岡郡越知町","city_kana":"タカオカグンオチチョウ","town":"野老山","town_kana":"トコロヤマ","prefecture_code":39},"1332":{"zip_code":"7811332","prefecture":"高知県","prefecture_kana":"コウチケン","city":"高岡郡越知町","city_kana":"タカオカグンオチチョウ","town":"中大平","town_kana":"ナカオオヒラ","prefecture_code":39},"1328":{"zip_code":"7811328","prefecture":"高知県","prefecture_kana":"コウチケン","city":"高岡郡越知町","city_kana":"タカオカグンオチチョウ","town":"南片岡","town_kana":"ミナミカタオカ","prefecture_code":39},"1336":{"zip_code":"7811336","prefecture":"高知県","prefecture_kana":"コウチケン","city":"高岡郡越知町","city_kana":"タカオカグンオチチョウ","town":"南ノ川","town_kana":"ミナミノカワ","prefecture_code":39},"1338":{"zip_code":"7811338","prefecture":"高知県","prefecture_kana":"コウチケン","city":"高岡郡越知町","city_kana":"タカオカグンオチチョウ","town":"峰","town_kana":"ミネ","prefecture_code":39},"1308":{"zip_code":"7811308","prefecture":"高知県","prefecture_kana":"コウチケン","city":"高岡郡越知町","city_kana":"タカオカグンオチチョウ","town":"宮地","town_kana":"ミヤジ","prefecture_code":39},"1306":{"zip_code":"7811306","prefecture":"高知県","prefecture_kana":"コウチケン","city":"高岡郡越知町","city_kana":"タカオカグンオチチョウ","town":"山室","town_kana":"ヤマムロ","prefecture_code":39},"1314":{"zip_code":"7811314","prefecture":"高知県","prefecture_kana":"コウチケン","city":"高岡郡越知町","city_kana":"タカオカグンオチチョウ","town":"横畠中","town_kana":"ヨコバタケナカ","prefecture_code":39},"1313":{"zip_code":"7811313","prefecture":"高知県","prefecture_kana":"コウチケン","city":"高岡郡越知町","city_kana":"タカオカグンオチチョウ","town":"横畠東","town_kana":"ヨコバタケヒガシ","prefecture_code":39},"1312":{"zip_code":"7811312","prefecture":"高知県","prefecture_kana":"コウチケン","city":"高岡郡越知町","city_kana":"タカオカグンオチチョウ","town":"横畠南","town_kana":"ヨコバタケミナミ","prefecture_code":39},"1315":{"zip_code":"7811315","prefecture":"高知県","prefecture_kana":"コウチケン","city":"高岡郡越知町","city_kana":"タカオカグンオチチョウ","town":"横畠北","town_kana":"ヨコバタケキタ","prefecture_code":39},"2154":{"zip_code":"7812154","prefecture":"高知県","prefecture_kana":"コウチケン","city":"高岡郡日高村","city_kana":"タカオカグンヒダカムラ","town":"岩目地","town_kana":"イワメジ","prefecture_code":39},"2163":{"zip_code":"7812163","prefecture":"高知県","prefecture_kana":"コウチケン","city":"高岡郡日高村","city_kana":"タカオカグンヒダカムラ","town":"大花","town_kana":"オオハナ","prefecture_code":39},"2152":{"zip_code":"7812152","prefecture":"高知県","prefecture_kana":"コウチケン","city":"高岡郡日高村","city_kana":"タカオカグンヒダカムラ","town":"沖名","town_kana":"オキナ","prefecture_code":39},"2167":{"zip_code":"7812167","prefecture":"高知県","prefecture_kana":"コウチケン","city":"高岡郡日高村","city_kana":"タカオカグンヒダカムラ","town":"鴨地","town_kana":"カモジ","prefecture_code":39},"2155":{"zip_code":"7812155","prefecture":"高知県","prefecture_kana":"コウチケン","city":"高岡郡日高村","city_kana":"タカオカグンヒダカムラ","town":"九頭","town_kana":"クズ","prefecture_code":39},"2151":{"zip_code":"7812151","prefecture":"高知県","prefecture_kana":"コウチケン","city":"高岡郡日高村","city_kana":"タカオカグンヒダカムラ","town":"下分","town_kana":"シモブン","prefecture_code":39},"2166":{"zip_code":"7812166","prefecture":"高知県","prefecture_kana":"コウチケン","city":"高岡郡日高村","city_kana":"タカオカグンヒダカムラ","town":"長畑","town_kana":"ナガバタ","prefecture_code":39},"2162":{"zip_code":"7812162","prefecture":"高知県","prefecture_kana":"コウチケン","city":"高岡郡日高村","city_kana":"タカオカグンヒダカムラ","town":"名越屋","town_kana":"ナゴヤ","prefecture_code":39},"2161":{"zip_code":"7812161","prefecture":"高知県","prefecture_kana":"コウチケン","city":"高岡郡日高村","city_kana":"タカオカグンヒダカムラ","town":"柱谷","town_kana":"ハシラタニ","prefecture_code":39},"2153":{"zip_code":"7812153","prefecture":"高知県","prefecture_kana":"コウチケン","city":"高岡郡日高村","city_kana":"タカオカグンヒダカムラ","town":"本郷","town_kana":"ホンゴウ","prefecture_code":39},"2164":{"zip_code":"7812164","prefecture":"高知県","prefecture_kana":"コウチケン","city":"高岡郡日高村","city_kana":"タカオカグンヒダカムラ","town":"本村","town_kana":"ホンムラ","prefecture_code":39},"2165":{"zip_code":"7812165","prefecture":"高知県","prefecture_kana":"コウチケン","city":"高岡郡日高村","city_kana":"タカオカグンヒダカムラ","town":"宮ノ谷","town_kana":"ミヤノタニ","prefecture_code":39}}