{"0000":{"zip_code":"7820000","prefecture":"高知県","prefecture_kana":"コウチケン","city":"香美市","city_kana":"カミシ","town":"以下に掲載がない場合","town_kana":"イカニケイサイガナイバアイ","prefecture_code":39},"0033":{"zip_code":"7820033","prefecture":"高知県","prefecture_kana":"コウチケン","city":"香美市","city_kana":"カミシ","town":"土佐山田町旭町","town_kana":"トサヤマダチョウアサヒマチ","prefecture_code":39},"0072":{"zip_code":"7820072","prefecture":"高知県","prefecture_kana":"コウチケン","city":"香美市","city_kana":"カミシ","town":"土佐山田町有谷","town_kana":"トサヤマダチョウアラタニ","prefecture_code":39},"0009":{"zip_code":"7820009","prefecture":"高知県","prefecture_kana":"コウチケン","city":"香美市","city_kana":"カミシ","town":"土佐山田町神母ノ木","town_kana":"トサヤマダチョウイゲノキ","prefecture_code":39},"0059":{"zip_code":"7820059","prefecture":"高知県","prefecture_kana":"コウチケン","city":"香美市","city_kana":"カミシ","town":"土佐山田町入野","town_kana":"トサヤマダチョウイリノ","prefecture_code":39},"0017":{"zip_code":"7820017","prefecture":"高知県","prefecture_kana":"コウチケン","city":"香美市","city_kana":"カミシ","town":"土佐山田町岩積","town_kana":"トサヤマダチョウイワズミ","prefecture_code":39},"0021":{"zip_code":"7820021","prefecture":"高知県","prefecture_kana":"コウチケン","city":"香美市","city_kana":"カミシ","town":"土佐山田町岩次","town_kana":"トサヤマダチョウイワツギ","prefecture_code":39},"0054":{"zip_code":"7820054","prefecture":"高知県","prefecture_kana":"コウチケン","city":"香美市","city_kana":"カミシ","town":"土佐山田町植","town_kana":"トサヤマダチョウウエ","prefecture_code":39},"0074":{"zip_code":"7820074","prefecture":"高知県","prefecture_kana":"コウチケン","city":"香美市","city_kana":"カミシ","town":"土佐山田町大後入","town_kana":"トサヤマダチョウオオゴウニュウ","prefecture_code":39},"0078":{"zip_code":"7820078","prefecture":"高知県","prefecture_kana":"コウチケン","city":"香美市","city_kana":"カミシ","town":"土佐山田町大平","town_kana":"トサヤマダチョウオオヒラ","prefecture_code":39},"0014":{"zip_code":"7820014","prefecture":"高知県","prefecture_kana":"コウチケン","city":"香美市","city_kana":"カミシ","town":"土佐山田町小田島","town_kana":"トサヤマダチョウオダジマ","prefecture_code":39},"0006":{"zip_code":"7820006","prefecture":"高知県","prefecture_kana":"コウチケン","city":"香美市","city_kana":"カミシ","town":"土佐山田町影山","town_kana":"トサヤマダチョウカゲヤマ","prefecture_code":39},"0056":{"zip_code":"7820056","prefecture":"高知県","prefecture_kana":"コウチケン","city":"香美市","city_kana":"カミシ","town":"土佐山田町上改田","town_kana":"トサヤマダチョウカミカイダ","prefecture_code":39},"0012":{"zip_code":"7820012","prefecture":"高知県","prefecture_kana":"コウチケン","city":"香美市","city_kana":"カミシ","town":"土佐山田町加茂","town_kana":"トサヤマダチョウカモ","prefecture_code":39},"0022":{"zip_code":"7820022","prefecture":"高知県","prefecture_kana":"コウチケン","city":"香美市","city_kana":"カミシ","town":"土佐山田町京田（立石）","town_kana":"トサヤマダチョウキョウデン(タテイシ)","prefecture_code":39},"0023":{"zip_code":"7820023","prefecture":"高知県","prefecture_kana":"コウチケン","city":"香美市","city_kana":"カミシ","town":"土佐山田町京田（その他）","town_kana":"トサヤマダチョウキョウデン(ソノタ)","prefecture_code":39},"0051":{"zip_code":"7820051","prefecture":"高知県","prefecture_kana":"コウチケン","city":"香美市","city_kana":"カミシ","town":"土佐山田町楠目（油石、前行、談議所、中村、平田、伏原、予岳）","town_kana":"トサヤマダチョウクズメ(アブライシ、ゼンギョウ、ダンギショ、ナカムラ、ヒラタ、フシハラ、ヨガク)","prefecture_code":39},"0039":{"zip_code":"7820039","prefecture":"高知県","prefecture_kana":"コウチケン","city":"香美市","city_kana":"カミシ","town":"土佐山田町栄町","town_kana":"トサヤマダチョウサカエマチ","prefecture_code":39},"0005":{"zip_code":"7820005","prefecture":"高知県","prefecture_kana":"コウチケン","city":"香美市","city_kana":"カミシ","town":"土佐山田町逆川","town_kana":"トサヤマダチョウサカカワ","prefecture_code":39},"0008":{"zip_code":"7820008","prefecture":"高知県","prefecture_kana":"コウチケン","city":"香美市","city_kana":"カミシ","town":"土佐山田町佐古薮","town_kana":"トサヤマダチョウサコヤブ","prefecture_code":39},"0071":{"zip_code":"7820071","prefecture":"高知県","prefecture_kana":"コウチケン","city":"香美市","city_kana":"カミシ","town":"土佐山田町佐竹","town_kana":"トサヤマダチョウサタケ","prefecture_code":39},"0077":{"zip_code":"7820077","prefecture":"高知県","prefecture_kana":"コウチケン","city":"香美市","city_kana":"カミシ","town":"土佐山田町佐野（仁井田）","town_kana":"トサヤマダチョウサノ(ニイダ)","prefecture_code":39},"0079":{"zip_code":"7820079","prefecture":"高知県","prefecture_kana":"コウチケン","city":"香美市","city_kana":"カミシ","town":"土佐山田町佐野（その他）","town_kana":"トサヤマダチョウサノ(ソノタ)","prefecture_code":39},"0015":{"zip_code":"7820015","prefecture":"高知県","prefecture_kana":"コウチケン","city":"香美市","city_kana":"カミシ","town":"土佐山田町下ノ村","town_kana":"トサヤマダチョウシモノムラ","prefecture_code":39},"0058":{"zip_code":"7820058","prefecture":"高知県","prefecture_kana":"コウチケン","city":"香美市","city_kana":"カミシ","town":"土佐山田町新改","town_kana":"トサヤマダチョウシンガイ","prefecture_code":39},"0038":{"zip_code":"7820038","prefecture":"高知県","prefecture_kana":"コウチケン","city":"香美市","city_kana":"カミシ","town":"土佐山田町秦山町","town_kana":"トサヤマダチョウジンザンチョウ","prefecture_code":39},"0024":{"zip_code":"7820024","prefecture":"高知県","prefecture_kana":"コウチケン","city":"香美市","city_kana":"カミシ","town":"土佐山田町神通寺","town_kana":"トサヤマダチョウジンツウジ","prefecture_code":39},"0001":{"zip_code":"7820001","prefecture":"高知県","prefecture_kana":"コウチケン","city":"香美市","city_kana":"カミシ","town":"土佐山田町杉田","town_kana":"トサヤマダチョウスイタ","prefecture_code":39},"0055":{"zip_code":"7820055","prefecture":"高知県","prefecture_kana":"コウチケン","city":"香美市","city_kana":"カミシ","town":"土佐山田町須江","town_kana":"トサヤマダチョウスエ","prefecture_code":39},"0061":{"zip_code":"7820061","prefecture":"高知県","prefecture_kana":"コウチケン","city":"香美市","city_kana":"カミシ","town":"土佐山田町曽我部川","town_kana":"トサヤマダチョウソガベガワ","prefecture_code":39},"0064":{"zip_code":"7820064","prefecture":"高知県","prefecture_kana":"コウチケン","city":"香美市","city_kana":"カミシ","town":"土佐山田町大法寺","town_kana":"トサヤマダチョウダイホウジ","prefecture_code":39},"0034":{"zip_code":"7820034","prefecture":"高知県","prefecture_kana":"コウチケン","city":"香美市","city_kana":"カミシ","town":"土佐山田町宝町","town_kana":"トサヤマダチョウタカラマチ","prefecture_code":39},"0010":{"zip_code":"7820010","prefecture":"高知県","prefecture_kana":"コウチケン","city":"香美市","city_kana":"カミシ","town":"土佐山田町テクノパーク","town_kana":"トサヤマダチョウテクノパーク","prefecture_code":39},"0018":{"zip_code":"7820018","prefecture":"高知県","prefecture_kana":"コウチケン","city":"香美市","city_kana":"カミシ","town":"土佐山田町戸板島","town_kana":"トサヤマダチョウトイタジマ","prefecture_code":39},"0073":{"zip_code":"7820073","prefecture":"高知県","prefecture_kana":"コウチケン","city":"香美市","city_kana":"カミシ","town":"土佐山田町中後入","town_kana":"トサヤマダチョウナカゴウニュウ","prefecture_code":39},"0019":{"zip_code":"7820019","prefecture":"高知県","prefecture_kana":"コウチケン","city":"香美市","city_kana":"カミシ","town":"土佐山田町中野","town_kana":"トサヤマダチョウナカノ","prefecture_code":39},"0075":{"zip_code":"7820075","prefecture":"高知県","prefecture_kana":"コウチケン","city":"香美市","city_kana":"カミシ","town":"土佐山田町西後入","town_kana":"トサヤマダチョウニシゴニュウ","prefecture_code":39},"0032":{"zip_code":"7820032","prefecture":"高知県","prefecture_kana":"コウチケン","city":"香美市","city_kana":"カミシ","town":"土佐山田町西本町","town_kana":"トサヤマダチョウニシホンマチ","prefecture_code":39},"0004":{"zip_code":"7820004","prefecture":"高知県","prefecture_kana":"コウチケン","city":"香美市","city_kana":"カミシ","town":"土佐山田町間","town_kana":"トサヤマダチョウハザマ","prefecture_code":39},"0007":{"zip_code":"7820007","prefecture":"高知県","prefecture_kana":"コウチケン","city":"香美市","city_kana":"カミシ","town":"土佐山田町林田","town_kana":"トサヤマダチョウハヤシダ","prefecture_code":39},"0063":{"zip_code":"7820063","prefecture":"高知県","prefecture_kana":"コウチケン","city":"香美市","city_kana":"カミシ","town":"土佐山田町東川","town_kana":"トサヤマダチョウヒガシガワ","prefecture_code":39},"0031":{"zip_code":"7820031","prefecture":"高知県","prefecture_kana":"コウチケン","city":"香美市","city_kana":"カミシ","town":"土佐山田町東本町","town_kana":"トサヤマダチョウヒガシホンマチ","prefecture_code":39},"0057":{"zip_code":"7820057","prefecture":"高知県","prefecture_kana":"コウチケン","city":"香美市","city_kana":"カミシ","town":"土佐山田町久次","town_kana":"トサヤマダチョウヒサツギ","prefecture_code":39},"0035":{"zip_code":"7820035","prefecture":"高知県","prefecture_kana":"コウチケン","city":"香美市","city_kana":"カミシ","town":"土佐山田町百石町","town_kana":"トサヤマダチョウヒャッコクチョウ","prefecture_code":39},"0062":{"zip_code":"7820062","prefecture":"高知県","prefecture_kana":"コウチケン","city":"香美市","city_kana":"カミシ","town":"土佐山田町平山（その他）","town_kana":"トサヤマダチョウヒラヤマ(ソノタ)","prefecture_code":39},"0002":{"zip_code":"7820002","prefecture":"高知県","prefecture_kana":"コウチケン","city":"香美市","city_kana":"カミシ","town":"土佐山田町船谷","town_kana":"トサヤマダチョウフナダニ","prefecture_code":39},"0076":{"zip_code":"7820076","prefecture":"高知県","prefecture_kana":"コウチケン","city":"香美市","city_kana":"カミシ","town":"土佐山田町本村","town_kana":"トサヤマダチョウホンムラ","prefecture_code":39},"0013":{"zip_code":"7820013","prefecture":"高知県","prefecture_kana":"コウチケン","city":"香美市","city_kana":"カミシ","town":"土佐山田町町田","town_kana":"トサヤマダチョウマチダ","prefecture_code":39},"0025":{"zip_code":"7820025","prefecture":"高知県","prefecture_kana":"コウチケン","city":"香美市","city_kana":"カミシ","town":"土佐山田町松本","town_kana":"トサヤマダチョウマツモト","prefecture_code":39},"0003":{"zip_code":"7820003","prefecture":"高知県","prefecture_kana":"コウチケン","city":"香美市","city_kana":"カミシ","town":"土佐山田町宮ノ口","town_kana":"トサヤマダチョウミヤノクチ","prefecture_code":39},"0037":{"zip_code":"7820037","prefecture":"高知県","prefecture_kana":"コウチケン","city":"香美市","city_kana":"カミシ","town":"土佐山田町宮前町","town_kana":"トサヤマダチョウミヤマエチョウ","prefecture_code":39},"0016":{"zip_code":"7820016","prefecture":"高知県","prefecture_kana":"コウチケン","city":"香美市","city_kana":"カミシ","town":"土佐山田町山田（小島、八王子、原）","town_kana":"トサヤマダチョウヤマダ(コジマ、ハチオウジ、ハラ)","prefecture_code":39},"0011":{"zip_code":"7820011","prefecture":"高知県","prefecture_kana":"コウチケン","city":"香美市","city_kana":"カミシ","town":"土佐山田町山田島","town_kana":"トサヤマダチョウヤマダジマ","prefecture_code":39},"0043":{"zip_code":"7820043","prefecture":"高知県","prefecture_kana":"コウチケン","city":"香美市","city_kana":"カミシ","town":"土佐山田町（北組西）","town_kana":"トサヤマダチョウ(キタグミニシ)","prefecture_code":39},"0041":{"zip_code":"7820041","prefecture":"高知県","prefecture_kana":"コウチケン","city":"香美市","city_kana":"カミシ","town":"土佐山田町（北本町）","town_kana":"トサヤマダチョウ(キタホンマチ)","prefecture_code":39},"0045":{"zip_code":"7820045","prefecture":"高知県","prefecture_kana":"コウチケン","city":"香美市","city_kana":"カミシ","town":"土佐山田町（黒土）","town_kana":"トサヤマダチョウ(クロツチ)","prefecture_code":39},"0044":{"zip_code":"7820044","prefecture":"高知県","prefecture_kana":"コウチケン","city":"香美市","city_kana":"カミシ","town":"土佐山田町（中組）","town_kana":"トサヤマダチョウ(ナカグミ)","prefecture_code":39},"0036":{"zip_code":"7820036","prefecture":"高知県","prefecture_kana":"コウチケン","city":"香美市","city_kana":"カミシ","town":"土佐山田町（古町）","town_kana":"トサヤマダチョウ(フルマチ)","prefecture_code":39},"0042":{"zip_code":"7820042","prefecture":"高知県","prefecture_kana":"コウチケン","city":"香美市","city_kana":"カミシ","town":"土佐山田町（前山）","town_kana":"トサヤマダチョウ(マエヤマ)","prefecture_code":39},"0046":{"zip_code":"7820046","prefecture":"高知県","prefecture_kana":"コウチケン","city":"香美市","city_kana":"カミシ","town":"土佐山田町（南組）","town_kana":"トサヤマダチョウ(ミナミグミ)","prefecture_code":39},"0047":{"zip_code":"7820047","prefecture":"高知県","prefecture_kana":"コウチケン","city":"香美市","city_kana":"カミシ","town":"土佐山田町（その他）","town_kana":"トサヤマダチョウ(ソノタ)","prefecture_code":39}}