{"0000":{"zip_code":"7840000","prefecture":"高知県","prefecture_kana":"コウチケン","city":"安芸市","city_kana":"アキシ","town":"","town_kana":"","prefecture_code":39},"0033":{"zip_code":"7840033","prefecture":"高知県","prefecture_kana":"コウチケン","city":"安芸市","city_kana":"アキシ","town":"赤野甲","town_kana":"アカノコウ","prefecture_code":39},"0034":{"zip_code":"7840034","prefecture":"高知県","prefecture_kana":"コウチケン","city":"安芸市","city_kana":"アキシ","town":"赤野乙","town_kana":"アカノオツ","prefecture_code":39},"0057":{"zip_code":"7840057","prefecture":"高知県","prefecture_kana":"コウチケン","city":"安芸市","city_kana":"アキシ","town":"安芸ノ川甲","town_kana":"アキノカワコウ","prefecture_code":39},"0058":{"zip_code":"7840058","prefecture":"高知県","prefecture_kana":"コウチケン","city":"安芸市","city_kana":"アキシ","town":"安芸ノ川乙","town_kana":"アキノカワオツ","prefecture_code":39},"0031":{"zip_code":"7840031","prefecture":"高知県","prefecture_kana":"コウチケン","city":"安芸市","city_kana":"アキシ","town":"穴内甲","town_kana":"アナナイコウ","prefecture_code":39},"0032":{"zip_code":"7840032","prefecture":"高知県","prefecture_kana":"コウチケン","city":"安芸市","city_kana":"アキシ","town":"穴内乙","town_kana":"アナナイオツ","prefecture_code":39},"0045":{"zip_code":"7840045","prefecture":"高知県","prefecture_kana":"コウチケン","city":"安芸市","city_kana":"アキシ","town":"伊尾木","town_kana":"イオキ","prefecture_code":39},"0051":{"zip_code":"7840051","prefecture":"高知県","prefecture_kana":"コウチケン","city":"安芸市","city_kana":"アキシ","town":"井ノ口甲","town_kana":"イノクチコウ","prefecture_code":39},"0052":{"zip_code":"7840052","prefecture":"高知県","prefecture_kana":"コウチケン","city":"安芸市","city_kana":"アキシ","town":"井ノ口乙","town_kana":"イノクチオツ","prefecture_code":39},"0029":{"zip_code":"7840029","prefecture":"高知県","prefecture_kana":"コウチケン","city":"安芸市","city_kana":"アキシ","town":"植野","town_kana":"ウエノ","prefecture_code":39},"0274":{"zip_code":"7840274","prefecture":"高知県","prefecture_kana":"コウチケン","city":"安芸市","city_kana":"アキシ","town":"大井甲","town_kana":"オオイコウ","prefecture_code":39},"0275":{"zip_code":"7840275","prefecture":"高知県","prefecture_kana":"コウチケン","city":"安芸市","city_kana":"アキシ","town":"大井乙","town_kana":"オオイオツ","prefecture_code":39},"0055":{"zip_code":"7840055","prefecture":"高知県","prefecture_kana":"コウチケン","city":"安芸市","city_kana":"アキシ","town":"尾川甲","town_kana":"オガワコウ","prefecture_code":39},"0056":{"zip_code":"7840056","prefecture":"高知県","prefecture_kana":"コウチケン","city":"安芸市","city_kana":"アキシ","town":"尾川乙","town_kana":"オガワオツ","prefecture_code":39},"0053":{"zip_code":"7840053","prefecture":"高知県","prefecture_kana":"コウチケン","city":"安芸市","city_kana":"アキシ","town":"小谷","town_kana":"オダニ","prefecture_code":39},"0043":{"zip_code":"7840043","prefecture":"高知県","prefecture_kana":"コウチケン","city":"安芸市","city_kana":"アキシ","town":"川北甲","town_kana":"カワキタコウ","prefecture_code":39},"0044":{"zip_code":"7840044","prefecture":"高知県","prefecture_kana":"コウチケン","city":"安芸市","city_kana":"アキシ","town":"川北乙","town_kana":"カワキタオツ","prefecture_code":39},"0003":{"zip_code":"7840003","prefecture":"高知県","prefecture_kana":"コウチケン","city":"安芸市","city_kana":"アキシ","town":"久世町","town_kana":"クセチョウ","prefecture_code":39},"0273":{"zip_code":"7840273","prefecture":"高知県","prefecture_kana":"コウチケン","city":"安芸市","city_kana":"アキシ","town":"黒瀬","town_kana":"クロセ","prefecture_code":39},"0028":{"zip_code":"7840028","prefecture":"高知県","prefecture_kana":"コウチケン","city":"安芸市","city_kana":"アキシ","town":"黒鳥","town_kana":"クロドリ","prefecture_code":39},"0276":{"zip_code":"7840276","prefecture":"高知県","prefecture_kana":"コウチケン","city":"安芸市","city_kana":"アキシ","town":"古井","town_kana":"コイ","prefecture_code":39},"0007":{"zip_code":"7840007","prefecture":"高知県","prefecture_kana":"コウチケン","city":"安芸市","city_kana":"アキシ","town":"寿町","town_kana":"コトブキチョウ","prefecture_code":39},"0021":{"zip_code":"7840021","prefecture":"高知県","prefecture_kana":"コウチケン","city":"安芸市","city_kana":"アキシ","town":"幸町","town_kana":"サイワイチョウ","prefecture_code":39},"0026":{"zip_code":"7840026","prefecture":"高知県","prefecture_kana":"コウチケン","city":"安芸市","city_kana":"アキシ","town":"桜ケ丘町","town_kana":"サクラガオカチョウ","prefecture_code":39},"0277":{"zip_code":"7840277","prefecture":"高知県","prefecture_kana":"コウチケン","city":"安芸市","city_kana":"アキシ","town":"島","town_kana":"シマ","prefecture_code":39},"0046":{"zip_code":"7840046","prefecture":"高知県","prefecture_kana":"コウチケン","city":"安芸市","city_kana":"アキシ","town":"下山","town_kana":"シモヤマ","prefecture_code":39},"0022":{"zip_code":"7840022","prefecture":"高知県","prefecture_kana":"コウチケン","city":"安芸市","city_kana":"アキシ","town":"庄之芝町","town_kana":"ショウノシバチョウ","prefecture_code":39},"0008":{"zip_code":"7840008","prefecture":"高知県","prefecture_kana":"コウチケン","city":"安芸市","city_kana":"アキシ","town":"清和町","town_kana":"セイワチョウ","prefecture_code":39},"0041":{"zip_code":"7840041","prefecture":"高知県","prefecture_kana":"コウチケン","city":"安芸市","city_kana":"アキシ","town":"僧津","town_kana":"ソウヅ","prefecture_code":39},"0023":{"zip_code":"7840023","prefecture":"高知県","prefecture_kana":"コウチケン","city":"安芸市","city_kana":"アキシ","town":"染井町","town_kana":"ソメイチョウ","prefecture_code":39},"0024":{"zip_code":"7840024","prefecture":"高知県","prefecture_kana":"コウチケン","city":"安芸市","city_kana":"アキシ","town":"千歳町","town_kana":"チトセチョウ","prefecture_code":39},"0025":{"zip_code":"7840025","prefecture":"高知県","prefecture_kana":"コウチケン","city":"安芸市","city_kana":"アキシ","town":"津久茂町","town_kana":"ツクモチョウ","prefecture_code":39},"0042":{"zip_code":"7840042","prefecture":"高知県","prefecture_kana":"コウチケン","city":"安芸市","city_kana":"アキシ","town":"土居","town_kana":"ドイ","prefecture_code":39},"0054":{"zip_code":"7840054","prefecture":"高知県","prefecture_kana":"コウチケン","city":"安芸市","city_kana":"アキシ","town":"栃ノ木","town_kana":"トチノキ","prefecture_code":39},"0271":{"zip_code":"7840271","prefecture":"高知県","prefecture_kana":"コウチケン","city":"安芸市","city_kana":"アキシ","town":"奈比賀","town_kana":"ナビカ","prefecture_code":39},"0020":{"zip_code":"7840020","prefecture":"高知県","prefecture_kana":"コウチケン","city":"安芸市","city_kana":"アキシ","town":"西浜","town_kana":"ニシハマ","prefecture_code":39},"0272":{"zip_code":"7840272","prefecture":"高知県","prefecture_kana":"コウチケン","city":"安芸市","city_kana":"アキシ","town":"入河内","town_kana":"ニュウガウチ","prefecture_code":39},"0061":{"zip_code":"7840061","prefecture":"高知県","prefecture_kana":"コウチケン","city":"安芸市","city_kana":"アキシ","town":"畑山甲","town_kana":"ハタヤマコウ","prefecture_code":39},"0062":{"zip_code":"7840062","prefecture":"高知県","prefecture_kana":"コウチケン","city":"安芸市","city_kana":"アキシ","town":"畑山乙","town_kana":"ハタヤマオツ","prefecture_code":39},"0063":{"zip_code":"7840063","prefecture":"高知県","prefecture_kana":"コウチケン","city":"安芸市","city_kana":"アキシ","town":"畑山丙","town_kana":"ハタヤマヘイ","prefecture_code":39},"0002":{"zip_code":"7840002","prefecture":"高知県","prefecture_kana":"コウチケン","city":"安芸市","city_kana":"アキシ","town":"花園町","town_kana":"ハナゾノチョウ","prefecture_code":39},"0010":{"zip_code":"7840010","prefecture":"高知県","prefecture_kana":"コウチケン","city":"安芸市","city_kana":"アキシ","town":"東浜","town_kana":"ヒガシハマ","prefecture_code":39},"0006":{"zip_code":"7840006","prefecture":"高知県","prefecture_kana":"コウチケン","city":"安芸市","city_kana":"アキシ","town":"日ノ出町","town_kana":"ヒノデチョウ","prefecture_code":39},"0278":{"zip_code":"7840278","prefecture":"高知県","prefecture_kana":"コウチケン","city":"安芸市","city_kana":"アキシ","town":"別役","town_kana":"ベッチャク","prefecture_code":39},"0027":{"zip_code":"7840027","prefecture":"高知県","prefecture_kana":"コウチケン","city":"安芸市","city_kana":"アキシ","town":"宝永町","town_kana":"ホウエイチョウ","prefecture_code":39},"0004":{"zip_code":"7840004","prefecture":"高知県","prefecture_kana":"コウチケン","city":"安芸市","city_kana":"アキシ","town":"本町","town_kana":"ホンマチ","prefecture_code":39},"0064":{"zip_code":"7840064","prefecture":"高知県","prefecture_kana":"コウチケン","city":"安芸市","city_kana":"アキシ","town":"舞川","town_kana":"マイカワ","prefecture_code":39},"0005":{"zip_code":"7840005","prefecture":"高知県","prefecture_kana":"コウチケン","city":"安芸市","city_kana":"アキシ","town":"港町","town_kana":"ミナトマチ","prefecture_code":39},"0001":{"zip_code":"7840001","prefecture":"高知県","prefecture_kana":"コウチケン","city":"安芸市","city_kana":"アキシ","town":"矢ノ丸","town_kana":"ヤノマル","prefecture_code":39},"0065":{"zip_code":"7840065","prefecture":"高知県","prefecture_kana":"コウチケン","city":"香美市","city_kana":"カミシ","town":"物部町中津尾","town_kana":"モノベチョウナカツオ","prefecture_code":39}}