{"0000":{"zip_code":"7850000","prefecture":"高知県","prefecture_kana":"コウチケン","city":"須崎市","city_kana":"スサキシ","town":"以下に掲載がない場合","town_kana":"イカニケイサイガナイバアイ","prefecture_code":39},"0047":{"zip_code":"7850047","prefecture":"高知県","prefecture_kana":"コウチケン","city":"須崎市","city_kana":"スサキシ","town":"吾井郷甲","town_kana":"アイノゴウコウ","prefecture_code":39},"0044":{"zip_code":"7850044","prefecture":"高知県","prefecture_kana":"コウチケン","city":"須崎市","city_kana":"スサキシ","town":"吾井郷乙","town_kana":"アイノゴウオツ","prefecture_code":39},"0004":{"zip_code":"7850004","prefecture":"高知県","prefecture_kana":"コウチケン","city":"須崎市","city_kana":"スサキシ","town":"青木町","town_kana":"アオキマチ","prefecture_code":39},"0037":{"zip_code":"7850037","prefecture":"高知県","prefecture_kana":"コウチケン","city":"須崎市","city_kana":"スサキシ","town":"赤崎町","town_kana":"アカザキマチ","prefecture_code":39},"0024":{"zip_code":"7850024","prefecture":"高知県","prefecture_kana":"コウチケン","city":"須崎市","city_kana":"スサキシ","town":"安和","town_kana":"アワ","prefecture_code":39},"0021":{"zip_code":"7850021","prefecture":"高知県","prefecture_kana":"コウチケン","city":"須崎市","city_kana":"スサキシ","town":"池ノ内","town_kana":"イケノウチ","prefecture_code":39},"0017":{"zip_code":"7850017","prefecture":"高知県","prefecture_kana":"コウチケン","city":"須崎市","city_kana":"スサキシ","town":"泉町","town_kana":"イズミマチ","prefecture_code":39},"0165":{"zip_code":"7850165","prefecture":"高知県","prefecture_kana":"コウチケン","city":"須崎市","city_kana":"スサキシ","town":"浦ノ内出見","town_kana":"ウラノウチイズミ","prefecture_code":39},"0173":{"zip_code":"7850173","prefecture":"高知県","prefecture_kana":"コウチケン","city":"須崎市","city_kana":"スサキシ","town":"浦ノ内今川内","town_kana":"ウラノウチコンガワウチ","prefecture_code":39},"0174":{"zip_code":"7850174","prefecture":"高知県","prefecture_kana":"コウチケン","city":"須崎市","city_kana":"スサキシ","town":"浦ノ内下中山","town_kana":"ウラノウチシモナカヤマ","prefecture_code":39},"0166":{"zip_code":"7850166","prefecture":"高知県","prefecture_kana":"コウチケン","city":"須崎市","city_kana":"スサキシ","town":"浦ノ内塩間","town_kana":"ウラノウチシワイ","prefecture_code":39},"0171":{"zip_code":"7850171","prefecture":"高知県","prefecture_kana":"コウチケン","city":"須崎市","city_kana":"スサキシ","town":"浦ノ内須ノ浦","town_kana":"ウラノウチスノウラ","prefecture_code":39},"0164":{"zip_code":"7850164","prefecture":"高知県","prefecture_kana":"コウチケン","city":"須崎市","city_kana":"スサキシ","town":"浦ノ内立目摺木","town_kana":"ウラノウチタチメスルギ","prefecture_code":39},"0161":{"zip_code":"7850161","prefecture":"高知県","prefecture_kana":"コウチケン","city":"須崎市","city_kana":"スサキシ","town":"浦ノ内西分","town_kana":"ウラノウチニシブン","prefecture_code":39},"0167":{"zip_code":"7850167","prefecture":"高知県","prefecture_kana":"コウチケン","city":"須崎市","city_kana":"スサキシ","town":"浦ノ内灰方","town_kana":"ウラノウチハイガタ","prefecture_code":39},"0163":{"zip_code":"7850163","prefecture":"高知県","prefecture_kana":"コウチケン","city":"須崎市","city_kana":"スサキシ","town":"浦ノ内東分（鳴無・坂内）","town_kana":"ウラノウチヒガシブン(オトナシ・サカウチ)","prefecture_code":39},"0162":{"zip_code":"7850162","prefecture":"高知県","prefecture_kana":"コウチケン","city":"須崎市","city_kana":"スサキシ","town":"浦ノ内東分（その他）","town_kana":"ウラノウチヒガシブン(ソノタ)","prefecture_code":39},"0172":{"zip_code":"7850172","prefecture":"高知県","prefecture_kana":"コウチケン","city":"須崎市","city_kana":"スサキシ","town":"浦ノ内福良","town_kana":"ウラノウチフクラ","prefecture_code":39},"0055":{"zip_code":"7850055","prefecture":"高知県","prefecture_kana":"コウチケン","city":"須崎市","city_kana":"スサキシ","town":"大谷","town_kana":"オオタニ","prefecture_code":39},"0030":{"zip_code":"7850030","prefecture":"高知県","prefecture_kana":"コウチケン","city":"須崎市","city_kana":"スサキシ","town":"多ノ郷甲","town_kana":"オオノゴウコウ","prefecture_code":39},"0054":{"zip_code":"7850054","prefecture":"高知県","prefecture_kana":"コウチケン","city":"須崎市","city_kana":"スサキシ","town":"多ノ郷乙","town_kana":"オオノゴウオツ","prefecture_code":39},"0035":{"zip_code":"7850035","prefecture":"高知県","prefecture_kana":"コウチケン","city":"須崎市","city_kana":"スサキシ","town":"大間東町","town_kana":"オオマヒガシマチ","prefecture_code":39},"0033":{"zip_code":"7850033","prefecture":"高知県","prefecture_kana":"コウチケン","city":"須崎市","city_kana":"スサキシ","town":"大間西町","town_kana":"オオマニシマチ","prefecture_code":39},"0034":{"zip_code":"7850034","prefecture":"高知県","prefecture_kana":"コウチケン","city":"須崎市","city_kana":"スサキシ","town":"大間本町","town_kana":"オオマホンマチ","prefecture_code":39},"0052":{"zip_code":"7850052","prefecture":"高知県","prefecture_kana":"コウチケン","city":"須崎市","city_kana":"スサキシ","town":"押岡","town_kana":"オシオカ","prefecture_code":39},"0010":{"zip_code":"7850010","prefecture":"高知県","prefecture_kana":"コウチケン","city":"須崎市","city_kana":"スサキシ","town":"鍛冶町","town_kana":"カジマチ","prefecture_code":39},"0026":{"zip_code":"7850026","prefecture":"高知県","prefecture_kana":"コウチケン","city":"須崎市","city_kana":"スサキシ","town":"上分甲","town_kana":"カミブンコウ","prefecture_code":39},"0027":{"zip_code":"7850027","prefecture":"高知県","prefecture_kana":"コウチケン","city":"須崎市","city_kana":"スサキシ","town":"上分乙","town_kana":"カミブンオツ","prefecture_code":39},"0028":{"zip_code":"7850028","prefecture":"高知県","prefecture_kana":"コウチケン","city":"須崎市","city_kana":"スサキシ","town":"上分丙","town_kana":"カミブンヘイ","prefecture_code":39},"0059":{"zip_code":"7850059","prefecture":"高知県","prefecture_kana":"コウチケン","city":"須崎市","city_kana":"スサキシ","town":"桐間西","town_kana":"キリマニシ","prefecture_code":39},"0057":{"zip_code":"7850057","prefecture":"高知県","prefecture_kana":"コウチケン","city":"須崎市","city_kana":"スサキシ","town":"桐間東","town_kana":"キリマヒガシ","prefecture_code":39},"0058":{"zip_code":"7850058","prefecture":"高知県","prefecture_kana":"コウチケン","city":"須崎市","city_kana":"スサキシ","town":"桐間南","town_kana":"キリマミナミ","prefecture_code":39},"0053":{"zip_code":"7850053","prefecture":"高知県","prefecture_kana":"コウチケン","city":"須崎市","city_kana":"スサキシ","town":"久通","town_kana":"クツウ","prefecture_code":39},"0051":{"zip_code":"7850051","prefecture":"高知県","prefecture_kana":"コウチケン","city":"須崎市","city_kana":"スサキシ","town":"神田","town_kana":"コウダ","prefecture_code":39},"0015":{"zip_code":"7850015","prefecture":"高知県","prefecture_kana":"コウチケン","city":"須崎市","city_kana":"スサキシ","town":"幸町","town_kana":"サイワイマチ","prefecture_code":39},"0016":{"zip_code":"7850016","prefecture":"高知県","prefecture_kana":"コウチケン","city":"須崎市","city_kana":"スサキシ","town":"栄町","town_kana":"サカエマチ","prefecture_code":39},"0032":{"zip_code":"7850032","prefecture":"高知県","prefecture_kana":"コウチケン","city":"須崎市","city_kana":"スサキシ","town":"潮田町","town_kana":"シオタマチ","prefecture_code":39},"0025":{"zip_code":"7850025","prefecture":"高知県","prefecture_kana":"コウチケン","city":"須崎市","city_kana":"スサキシ","town":"下郷","town_kana":"シモゴウ","prefecture_code":39},"0022":{"zip_code":"7850022","prefecture":"高知県","prefecture_kana":"コウチケン","city":"須崎市","city_kana":"スサキシ","town":"下分甲","town_kana":"シモブンコウ","prefecture_code":39},"0023":{"zip_code":"7850023","prefecture":"高知県","prefecture_kana":"コウチケン","city":"須崎市","city_kana":"スサキシ","town":"下分乙","town_kana":"シモブンオツ","prefecture_code":39},"0003":{"zip_code":"7850003","prefecture":"高知県","prefecture_kana":"コウチケン","city":"須崎市","city_kana":"スサキシ","town":"新町","town_kana":"シンマチ","prefecture_code":39},"0018":{"zip_code":"7850018","prefecture":"高知県","prefecture_kana":"コウチケン","city":"須崎市","city_kana":"スサキシ","town":"須崎","town_kana":"スサキ","prefecture_code":39},"0046":{"zip_code":"7850046","prefecture":"高知県","prefecture_kana":"コウチケン","city":"須崎市","city_kana":"スサキシ","town":"桑田山甲","town_kana":"ソウダヤマコウ","prefecture_code":39},"0045":{"zip_code":"7850045","prefecture":"高知県","prefecture_kana":"コウチケン","city":"須崎市","city_kana":"スサキシ","town":"桑田山乙","town_kana":"ソウダヤマオツ","prefecture_code":39},"0043":{"zip_code":"7850043","prefecture":"高知県","prefecture_kana":"コウチケン","city":"須崎市","city_kana":"スサキシ","town":"土崎町","town_kana":"ツチザキマチ","prefecture_code":39},"0008":{"zip_code":"7850008","prefecture":"高知県","prefecture_kana":"コウチケン","city":"須崎市","city_kana":"スサキシ","town":"中町","town_kana":"ナカマチ","prefecture_code":39},"0041":{"zip_code":"7850041","prefecture":"高知県","prefecture_kana":"コウチケン","city":"須崎市","city_kana":"スサキシ","town":"西崎町","town_kana":"ニシザキマチ","prefecture_code":39},"0012":{"zip_code":"7850012","prefecture":"高知県","prefecture_kana":"コウチケン","city":"須崎市","city_kana":"スサキシ","town":"西糺町","town_kana":"ニシタダスマチ","prefecture_code":39},"0013":{"zip_code":"7850013","prefecture":"高知県","prefecture_kana":"コウチケン","city":"須崎市","city_kana":"スサキシ","town":"西古市町","town_kana":"ニシフルイチマチ","prefecture_code":39},"0009":{"zip_code":"7850009","prefecture":"高知県","prefecture_kana":"コウチケン","city":"須崎市","city_kana":"スサキシ","town":"西町","town_kana":"ニシマチ","prefecture_code":39},"0056":{"zip_code":"7850056","prefecture":"高知県","prefecture_kana":"コウチケン","city":"須崎市","city_kana":"スサキシ","town":"野見","town_kana":"ノミ","prefecture_code":39},"0006":{"zip_code":"7850006","prefecture":"高知県","prefecture_kana":"コウチケン","city":"須崎市","city_kana":"スサキシ","town":"浜町","town_kana":"ハママチ","prefecture_code":39},"0001":{"zip_code":"7850001","prefecture":"高知県","prefecture_kana":"コウチケン","city":"須崎市","city_kana":"スサキシ","town":"原町","town_kana":"ハラマチ","prefecture_code":39},"0011":{"zip_code":"7850011","prefecture":"高知県","prefecture_kana":"コウチケン","city":"須崎市","city_kana":"スサキシ","town":"東糺町","town_kana":"ヒガシタダスマチ","prefecture_code":39},"0005":{"zip_code":"7850005","prefecture":"高知県","prefecture_kana":"コウチケン","city":"須崎市","city_kana":"スサキシ","town":"東古市町","town_kana":"ヒガシフルイチマチ","prefecture_code":39},"0036":{"zip_code":"7850036","prefecture":"高知県","prefecture_kana":"コウチケン","city":"須崎市","city_kana":"スサキシ","town":"緑町","town_kana":"ミドリマチ","prefecture_code":39},"0002":{"zip_code":"7850002","prefecture":"高知県","prefecture_kana":"コウチケン","city":"須崎市","city_kana":"スサキシ","town":"港町","town_kana":"ミナトマチ","prefecture_code":39},"0007":{"zip_code":"7850007","prefecture":"高知県","prefecture_kana":"コウチケン","city":"須崎市","city_kana":"スサキシ","town":"南古市町","town_kana":"ミナミフルイチマチ","prefecture_code":39},"0042":{"zip_code":"7850042","prefecture":"高知県","prefecture_kana":"コウチケン","city":"須崎市","city_kana":"スサキシ","town":"妙見町","town_kana":"ミョウケンマチ","prefecture_code":39},"0031":{"zip_code":"7850031","prefecture":"高知県","prefecture_kana":"コウチケン","city":"須崎市","city_kana":"スサキシ","town":"山手町","town_kana":"ヤマテマチ","prefecture_code":39},"0014":{"zip_code":"7850014","prefecture":"高知県","prefecture_kana":"コウチケン","city":"須崎市","city_kana":"スサキシ","town":"横町","town_kana":"ヨコマチ","prefecture_code":39},"0600":{"zip_code":"7850600","prefecture":"高知県","prefecture_kana":"コウチケン","city":"高岡郡檮原町","city_kana":"タカオカグンユスハラチョウ","town":"以下に掲載がない場合","town_kana":"イカニケイサイガナイバアイ","prefecture_code":39},"0611":{"zip_code":"7850611","prefecture":"高知県","prefecture_kana":"コウチケン","city":"高岡郡檮原町","city_kana":"タカオカグンユスハラチョウ","town":"飯母","town_kana":"イイボ","prefecture_code":39},"0666":{"zip_code":"7850666","prefecture":"高知県","prefecture_kana":"コウチケン","city":"高岡郡檮原町","city_kana":"タカオカグンユスハラチョウ","town":"井高","town_kana":"イコウ","prefecture_code":39},"0602":{"zip_code":"7850602","prefecture":"高知県","prefecture_kana":"コウチケン","city":"高岡郡檮原町","city_kana":"タカオカグンユスハラチョウ","town":"井の谷","town_kana":"イノタニ","prefecture_code":39},"0641":{"zip_code":"7850641","prefecture":"高知県","prefecture_kana":"コウチケン","city":"高岡郡檮原町","city_kana":"タカオカグンユスハラチョウ","town":"上成","town_kana":"ウワナロ","prefecture_code":39},"0603":{"zip_code":"7850603","prefecture":"高知県","prefecture_kana":"コウチケン","city":"高岡郡檮原町","city_kana":"タカオカグンユスハラチョウ","town":"太田戸","town_kana":"オオタド","prefecture_code":39},"0626":{"zip_code":"7850626","prefecture":"高知県","prefecture_kana":"コウチケン","city":"高岡郡檮原町","city_kana":"タカオカグンユスハラチョウ","town":"大野地","town_kana":"オオノジ","prefecture_code":39},"0771":{"zip_code":"7850771","prefecture":"高知県","prefecture_kana":"コウチケン","city":"高岡郡檮原町","city_kana":"タカオカグンユスハラチョウ","town":"大向","town_kana":"オオムカイ","prefecture_code":39},"0613":{"zip_code":"7850613","prefecture":"高知県","prefecture_kana":"コウチケン","city":"高岡郡檮原町","city_kana":"タカオカグンユスハラチョウ","town":"大蔵谷","town_kana":"オゾウタニ","prefecture_code":39},"0652":{"zip_code":"7850652","prefecture":"高知県","prefecture_kana":"コウチケン","city":"高岡郡檮原町","city_kana":"タカオカグンユスハラチョウ","town":"本も谷","town_kana":"オモダニ","prefecture_code":39},"0627":{"zip_code":"7850627","prefecture":"高知県","prefecture_kana":"コウチケン","city":"高岡郡檮原町","city_kana":"タカオカグンユスハラチョウ","town":"影野地","town_kana":"カゲノジ","prefecture_code":39},"0625":{"zip_code":"7850625","prefecture":"高知県","prefecture_kana":"コウチケン","city":"高岡郡檮原町","city_kana":"タカオカグンユスハラチョウ","town":"上折渡","town_kana":"カミオリワタリ","prefecture_code":39},"0654":{"zip_code":"7850654","prefecture":"高知県","prefecture_kana":"コウチケン","city":"高岡郡檮原町","city_kana":"タカオカグンユスハラチョウ","town":"上組","town_kana":"カミグミ","prefecture_code":39},"0646":{"zip_code":"7850646","prefecture":"高知県","prefecture_kana":"コウチケン","city":"高岡郡檮原町","city_kana":"タカオカグンユスハラチョウ","town":"上西の川","town_kana":"カミニシノカワ","prefecture_code":39},"0664":{"zip_code":"7850664","prefecture":"高知県","prefecture_kana":"コウチケン","city":"高岡郡檮原町","city_kana":"タカオカグンユスハラチョウ","town":"神の山","town_kana":"カミノヤマ","prefecture_code":39},"0606":{"zip_code":"7850606","prefecture":"高知県","prefecture_kana":"コウチケン","city":"高岡郡檮原町","city_kana":"タカオカグンユスハラチョウ","town":"上本村","town_kana":"カミホンムラ","prefecture_code":39},"0776":{"zip_code":"7850776","prefecture":"高知県","prefecture_kana":"コウチケン","city":"高岡郡檮原町","city_kana":"タカオカグンユスハラチョウ","town":"家籠戸","town_kana":"カロウト","prefecture_code":39},"0635":{"zip_code":"7850635","prefecture":"高知県","prefecture_kana":"コウチケン","city":"高岡郡檮原町","city_kana":"タカオカグンユスハラチョウ","town":"川井","town_kana":"カワイ","prefecture_code":39},"0636":{"zip_code":"7850636","prefecture":"高知県","prefecture_kana":"コウチケン","city":"高岡郡檮原町","city_kana":"タカオカグンユスハラチョウ","town":"川口","town_kana":"カワグチ","prefecture_code":39},"0612":{"zip_code":"7850612","prefecture":"高知県","prefecture_kana":"コウチケン","city":"高岡郡檮原町","city_kana":"タカオカグンユスハラチョウ","town":"川西路","town_kana":"カワニシジ","prefecture_code":39},"0622":{"zip_code":"7850622","prefecture":"高知県","prefecture_kana":"コウチケン","city":"高岡郡檮原町","city_kana":"タカオカグンユスハラチョウ","town":"神在居","town_kana":"カンザイコ","prefecture_code":39},"0774":{"zip_code":"7850774","prefecture":"高知県","prefecture_kana":"コウチケン","city":"高岡郡檮原町","city_kana":"タカオカグンユスハラチョウ","town":"久保谷","town_kana":"クボタニ","prefecture_code":39},"0657":{"zip_code":"7850657","prefecture":"高知県","prefecture_kana":"コウチケン","city":"高岡郡檮原町","city_kana":"タカオカグンユスハラチョウ","town":"東向","town_kana":"コチムキ","prefecture_code":39},"0608":{"zip_code":"7850608","prefecture":"高知県","prefecture_kana":"コウチケン","city":"高岡郡檮原町","city_kana":"タカオカグンユスハラチョウ","town":"後別当","town_kana":"ゴベットウ","prefecture_code":39},"0662":{"zip_code":"7850662","prefecture":"高知県","prefecture_kana":"コウチケン","city":"高岡郡檮原町","city_kana":"タカオカグンユスハラチョウ","town":"坂本川","town_kana":"サカモトガワ","prefecture_code":39},"0631":{"zip_code":"7850631","prefecture":"高知県","prefecture_kana":"コウチケン","city":"高岡郡檮原町","city_kana":"タカオカグンユスハラチョウ","town":"佐渡","town_kana":"サワタリ","prefecture_code":39},"0775":{"zip_code":"7850775","prefecture":"高知県","prefecture_kana":"コウチケン","city":"高岡郡檮原町","city_kana":"タカオカグンユスハラチョウ","town":"島中","town_kana":"シマジュウ","prefecture_code":39},"0624":{"zip_code":"7850624","prefecture":"高知県","prefecture_kana":"コウチケン","city":"高岡郡檮原町","city_kana":"タカオカグンユスハラチョウ","town":"下折渡","town_kana":"シモオリワタリ","prefecture_code":39},"0655":{"zip_code":"7850655","prefecture":"高知県","prefecture_kana":"コウチケン","city":"高岡郡檮原町","city_kana":"タカオカグンユスハラチョウ","town":"下組","town_kana":"シモグミ","prefecture_code":39},"0647":{"zip_code":"7850647","prefecture":"高知県","prefecture_kana":"コウチケン","city":"高岡郡檮原町","city_kana":"タカオカグンユスハラチョウ","town":"下西の川","town_kana":"シモニシノカワ","prefecture_code":39},"0605":{"zip_code":"7850605","prefecture":"高知県","prefecture_kana":"コウチケン","city":"高岡郡檮原町","city_kana":"タカオカグンユスハラチョウ","town":"下本村","town_kana":"シモホンムラ","prefecture_code":39},"0645":{"zip_code":"7850645","prefecture":"高知県","prefecture_kana":"コウチケン","city":"高岡郡檮原町","city_kana":"タカオカグンユスハラチョウ","town":"竹の薮","town_kana":"タケノヤブ","prefecture_code":39},"0607":{"zip_code":"7850607","prefecture":"高知県","prefecture_kana":"コウチケン","city":"高岡郡檮原町","city_kana":"タカオカグンユスハラチョウ","town":"田野々","town_kana":"タノノ","prefecture_code":39},"0621":{"zip_code":"7850621","prefecture":"高知県","prefecture_kana":"コウチケン","city":"高岡郡檮原町","city_kana":"タカオカグンユスハラチョウ","town":"太郎川","town_kana":"タロウガワ","prefecture_code":39},"0651":{"zip_code":"7850651","prefecture":"高知県","prefecture_kana":"コウチケン","city":"高岡郡檮原町","city_kana":"タカオカグンユスハラチョウ","town":"茶や谷","town_kana":"チャヤダニ","prefecture_code":39},"0665":{"zip_code":"7850665","prefecture":"高知県","prefecture_kana":"コウチケン","city":"高岡郡檮原町","city_kana":"タカオカグンユスハラチョウ","town":"坪野田","town_kana":"ツボノタ","prefecture_code":39},"0658":{"zip_code":"7850658","prefecture":"高知県","prefecture_kana":"コウチケン","city":"高岡郡檮原町","city_kana":"タカオカグンユスハラチョウ","town":"富永","town_kana":"トミナガ","prefecture_code":39},"0633":{"zip_code":"7850633","prefecture":"高知県","prefecture_kana":"コウチケン","city":"高岡郡檮原町","city_kana":"タカオカグンユスハラチョウ","town":"豊原","town_kana":"トヨハラ","prefecture_code":39},"0648":{"zip_code":"7850648","prefecture":"高知県","prefecture_kana":"コウチケン","city":"高岡郡檮原町","city_kana":"タカオカグンユスハラチョウ","town":"仲間","town_kana":"ナカイダ","prefecture_code":39},"0634":{"zip_code":"7850634","prefecture":"高知県","prefecture_kana":"コウチケン","city":"高岡郡檮原町","city_kana":"タカオカグンユスハラチョウ","town":"仲久保","town_kana":"ナカクボ","prefecture_code":39},"0623":{"zip_code":"7850623","prefecture":"高知県","prefecture_kana":"コウチケン","city":"高岡郡檮原町","city_kana":"タカオカグンユスハラチョウ","town":"仲洞","town_kana":"ナカトウ","prefecture_code":39},"0653":{"zip_code":"7850653","prefecture":"高知県","prefecture_kana":"コウチケン","city":"高岡郡檮原町","city_kana":"タカオカグンユスハラチョウ","town":"中の川","town_kana":"ナカノカワ","prefecture_code":39},"0772":{"zip_code":"7850772","prefecture":"高知県","prefecture_kana":"コウチケン","city":"高岡郡檮原町","city_kana":"タカオカグンユスハラチョウ","town":"中平","town_kana":"ナカヒラ","prefecture_code":39},"0601":{"zip_code":"7850601","prefecture":"高知県","prefecture_kana":"コウチケン","city":"高岡郡檮原町","city_kana":"タカオカグンユスハラチョウ","town":"永野","town_kana":"ナガノ","prefecture_code":39},"0632":{"zip_code":"7850632","prefecture":"高知県","prefecture_kana":"コウチケン","city":"高岡郡檮原町","city_kana":"タカオカグンユスハラチョウ","town":"初瀬本村","town_kana":"ハツセホンムラ","prefecture_code":39},"0656":{"zip_code":"7850656","prefecture":"高知県","prefecture_kana":"コウチケン","city":"高岡郡檮原町","city_kana":"タカオカグンユスハラチョウ","town":"東川","town_kana":"ヒガシガワ","prefecture_code":39},"0644":{"zip_code":"7850644","prefecture":"高知県","prefecture_kana":"コウチケン","city":"高岡郡檮原町","city_kana":"タカオカグンユスハラチョウ","town":"広野","town_kana":"ヒロノ","prefecture_code":39},"0663":{"zip_code":"7850663","prefecture":"高知県","prefecture_kana":"コウチケン","city":"高岡郡檮原町","city_kana":"タカオカグンユスハラチョウ","town":"文丸","town_kana":"ブンマル","prefecture_code":39},"0642":{"zip_code":"7850642","prefecture":"高知県","prefecture_kana":"コウチケン","city":"高岡郡檮原町","city_kana":"タカオカグンユスハラチョウ","town":"松谷","town_kana":"マツダニ","prefecture_code":39},"0773":{"zip_code":"7850773","prefecture":"高知県","prefecture_kana":"コウチケン","city":"高岡郡檮原町","city_kana":"タカオカグンユスハラチョウ","town":"松原","town_kana":"マツバラ","prefecture_code":39},"0643":{"zip_code":"7850643","prefecture":"高知県","prefecture_kana":"コウチケン","city":"高岡郡檮原町","city_kana":"タカオカグンユスハラチョウ","town":"宮野々","town_kana":"ミヤノノ","prefecture_code":39},"0610":{"zip_code":"7850610","prefecture":"高知県","prefecture_kana":"コウチケン","city":"高岡郡檮原町","city_kana":"タカオカグンユスハラチョウ","town":"檮原","town_kana":"ユスハラ","prefecture_code":39},"0604":{"zip_code":"7850604","prefecture":"高知県","prefecture_kana":"コウチケン","city":"高岡郡檮原町","city_kana":"タカオカグンユスハラチョウ","town":"横貝","town_kana":"ヨコガイ","prefecture_code":39},"0661":{"zip_code":"7850661","prefecture":"高知県","prefecture_kana":"コウチケン","city":"高岡郡檮原町","city_kana":"タカオカグンユスハラチョウ","town":"六丁","town_kana":"ロクチョウ","prefecture_code":39},"0200":{"zip_code":"7850200","prefecture":"高知県","prefecture_kana":"コウチケン","city":"高岡郡津野町","city_kana":"タカオカグンツノチョウ","town":"以下に掲載がない場合","town_kana":"イカニケイサイガナイバアイ","prefecture_code":39},"0219":{"zip_code":"7850219","prefecture":"高知県","prefecture_kana":"コウチケン","city":"高岡郡津野町","city_kana":"タカオカグンツノチョウ","town":"赤木","town_kana":"アカギ","prefecture_code":39},"0218":{"zip_code":"7850218","prefecture":"高知県","prefecture_kana":"コウチケン","city":"高岡郡津野町","city_kana":"タカオカグンツノチョウ","town":"大野","town_kana":"オオノ","prefecture_code":39},"0203":{"zip_code":"7850203","prefecture":"高知県","prefecture_kana":"コウチケン","city":"高岡郡津野町","city_kana":"タカオカグンツノチョウ","town":"貝ノ川","town_kana":"カイノカワ","prefecture_code":39},"0210":{"zip_code":"7850210","prefecture":"高知県","prefecture_kana":"コウチケン","city":"高岡郡津野町","city_kana":"タカオカグンツノチョウ","town":"貝ノ川床鍋","town_kana":"カイノカワトコナベ","prefecture_code":39},"0206":{"zip_code":"7850206","prefecture":"高知県","prefecture_kana":"コウチケン","city":"高岡郡津野町","city_kana":"タカオカグンツノチョウ","town":"樺の川","town_kana":"カバノカワ","prefecture_code":39},"0413":{"zip_code":"7850413","prefecture":"高知県","prefecture_kana":"コウチケン","city":"高岡郡津野町","city_kana":"タカオカグンツノチョウ","town":"烏出川","town_kana":"カラスデガワ","prefecture_code":39},"0502":{"zip_code":"7850502","prefecture":"高知県","prefecture_kana":"コウチケン","city":"高岡郡津野町","city_kana":"タカオカグンツノチョウ","town":"北川","town_kana":"キタガワ","prefecture_code":39},"0204":{"zip_code":"7850204","prefecture":"高知県","prefecture_kana":"コウチケン","city":"高岡郡津野町","city_kana":"タカオカグンツノチョウ","town":"久保川","town_kana":"クボカワ","prefecture_code":39},"0217":{"zip_code":"7850217","prefecture":"高知県","prefecture_kana":"コウチケン","city":"高岡郡津野町","city_kana":"タカオカグンツノチョウ","town":"黒川","town_kana":"クロカワ","prefecture_code":39},"0412":{"zip_code":"7850412","prefecture":"高知県","prefecture_kana":"コウチケン","city":"高岡郡津野町","city_kana":"タカオカグンツノチョウ","town":"桑ケ市","town_kana":"クワガイチ","prefecture_code":39},"0212":{"zip_code":"7850212","prefecture":"高知県","prefecture_kana":"コウチケン","city":"高岡郡津野町","city_kana":"タカオカグンツノチョウ","town":"白石乙","town_kana":"シライシオツ","prefecture_code":39},"0211":{"zip_code":"7850211","prefecture":"高知県","prefecture_kana":"コウチケン","city":"高岡郡津野町","city_kana":"タカオカグンツノチョウ","town":"白石甲","town_kana":"シライシコウ","prefecture_code":39},"0213":{"zip_code":"7850213","prefecture":"高知県","prefecture_kana":"コウチケン","city":"高岡郡津野町","city_kana":"タカオカグンツノチョウ","town":"白石丙","town_kana":"シライシヘイ","prefecture_code":39},"0207":{"zip_code":"7850207","prefecture":"高知県","prefecture_kana":"コウチケン","city":"高岡郡津野町","city_kana":"タカオカグンツノチョウ","town":"新土居","town_kana":"シンドイ","prefecture_code":39},"0215":{"zip_code":"7850215","prefecture":"高知県","prefecture_kana":"コウチケン","city":"高岡郡津野町","city_kana":"タカオカグンツノチョウ","town":"杉ノ川乙","town_kana":"スギノカワオツ","prefecture_code":39},"0214":{"zip_code":"7850214","prefecture":"高知県","prefecture_kana":"コウチケン","city":"高岡郡津野町","city_kana":"タカオカグンツノチョウ","town":"杉ノ川甲","town_kana":"スギノカワコウ","prefecture_code":39},"0216":{"zip_code":"7850216","prefecture":"高知県","prefecture_kana":"コウチケン","city":"高岡郡津野町","city_kana":"タカオカグンツノチョウ","town":"杉ノ川丙","town_kana":"スギノカワヘイ","prefecture_code":39},"0501":{"zip_code":"7850501","prefecture":"高知県","prefecture_kana":"コウチケン","city":"高岡郡津野町","city_kana":"タカオカグンツノチョウ","town":"力石","town_kana":"チカライシ","prefecture_code":39},"0201":{"zip_code":"7850201","prefecture":"高知県","prefecture_kana":"コウチケン","city":"高岡郡津野町","city_kana":"タカオカグンツノチョウ","town":"永野","town_kana":"ナガノ","prefecture_code":39},"0209":{"zip_code":"7850209","prefecture":"高知県","prefecture_kana":"コウチケン","city":"高岡郡津野町","city_kana":"タカオカグンツノチョウ","town":"西谷乙","town_kana":"ニシダニオツ","prefecture_code":39},"0205":{"zip_code":"7850205","prefecture":"高知県","prefecture_kana":"コウチケン","city":"高岡郡津野町","city_kana":"タカオカグンツノチョウ","town":"西谷甲","town_kana":"ニシダニコウ","prefecture_code":39},"0202":{"zip_code":"7850202","prefecture":"高知県","prefecture_kana":"コウチケン","city":"高岡郡津野町","city_kana":"タカオカグンツノチョウ","town":"姫野々","town_kana":"ヒメノノ","prefecture_code":39},"0411":{"zip_code":"7850411","prefecture":"高知県","prefecture_kana":"コウチケン","city":"高岡郡津野町","city_kana":"タカオカグンツノチョウ","town":"船戸","town_kana":"フナト","prefecture_code":39},"0208":{"zip_code":"7850208","prefecture":"高知県","prefecture_kana":"コウチケン","city":"高岡郡津野町","city_kana":"タカオカグンツノチョウ","town":"三間川","town_kana":"ミマノカワ","prefecture_code":39},"0504":{"zip_code":"7850504","prefecture":"高知県","prefecture_kana":"コウチケン","city":"高岡郡津野町","city_kana":"タカオカグンツノチョウ","town":"芳生野乙","town_kana":"ヨシウノオツ","prefecture_code":39},"0503":{"zip_code":"7850503","prefecture":"高知県","prefecture_kana":"コウチケン","city":"高岡郡津野町","city_kana":"タカオカグンツノチョウ","town":"芳生野甲","town_kana":"ヨシウノコウ","prefecture_code":39},"0505":{"zip_code":"7850505","prefecture":"高知県","prefecture_kana":"コウチケン","city":"高岡郡津野町","city_kana":"タカオカグンツノチョウ","town":"芳生野丙","town_kana":"ヨシウノヘイ","prefecture_code":39}}