{"0000":{"zip_code":"7860000","prefecture":"高知県","prefecture_kana":"コウチケン","city":"高岡郡四万十町","city_kana":"タカオカグンシマントチョウ","town":"以下に掲載がない場合","town_kana":"イカニケイサイガナイバアイ","prefecture_code":39},"0327":{"zip_code":"7860327","prefecture":"高知県","prefecture_kana":"コウチケン","city":"高岡郡四万十町","city_kana":"タカオカグンシマントチョウ","town":"相去","town_kana":"アイザレ","prefecture_code":39},"0075":{"zip_code":"7860075","prefecture":"高知県","prefecture_kana":"コウチケン","city":"高岡郡四万十町","city_kana":"タカオカグンシマントチョウ","town":"秋丸","town_kana":"アキマル","prefecture_code":39},"0064":{"zip_code":"7860064","prefecture":"高知県","prefecture_kana":"コウチケン","city":"高岡郡四万十町","city_kana":"タカオカグンシマントチョウ","town":"家地川","town_kana":"イエジガワ","prefecture_code":39},"0533":{"zip_code":"7860533","prefecture":"高知県","prefecture_kana":"コウチケン","city":"高岡郡四万十町","city_kana":"タカオカグンシマントチョウ","town":"井崎","town_kana":"イサキ","prefecture_code":39},"0088":{"zip_code":"7860088","prefecture":"高知県","prefecture_kana":"コウチケン","city":"高岡郡四万十町","city_kana":"タカオカグンシマントチョウ","town":"市生原","town_kana":"イチウバラ","prefecture_code":39},"0325":{"zip_code":"7860325","prefecture":"高知県","prefecture_kana":"コウチケン","city":"高岡郡四万十町","city_kana":"タカオカグンシマントチョウ","town":"市ノ又","town_kana":"イチノマタ","prefecture_code":39},"0094":{"zip_code":"7860094","prefecture":"高知県","prefecture_kana":"コウチケン","city":"高岡郡四万十町","city_kana":"タカオカグンシマントチョウ","town":"一斗俵","town_kana":"イットヒョウ","prefecture_code":39},"0037":{"zip_code":"7860037","prefecture":"高知県","prefecture_kana":"コウチケン","city":"高岡郡四万十町","city_kana":"タカオカグンシマントチョウ","town":"魚の川","town_kana":"ウオノカワ","prefecture_code":39},"0322":{"zip_code":"7860322","prefecture":"高知県","prefecture_kana":"コウチケン","city":"高岡郡四万十町","city_kana":"タカオカグンシマントチョウ","town":"打井川","town_kana":"ウツイガワ","prefecture_code":39},"0523":{"zip_code":"7860523","prefecture":"高知県","prefecture_kana":"コウチケン","city":"高岡郡四万十町","city_kana":"タカオカグンシマントチョウ","town":"浦越","town_kana":"ウラゴシ","prefecture_code":39},"0307":{"zip_code":"7860307","prefecture":"高知県","prefecture_kana":"コウチケン","city":"高岡郡四万十町","city_kana":"タカオカグンシマントチョウ","town":"江師","town_kana":"エシ","prefecture_code":39},"0532":{"zip_code":"7860532","prefecture":"高知県","prefecture_kana":"コウチケン","city":"高岡郡四万十町","city_kana":"タカオカグンシマントチョウ","town":"大井川","town_kana":"オオイガワ","prefecture_code":39},"0016":{"zip_code":"7860016","prefecture":"高知県","prefecture_kana":"コウチケン","city":"高岡郡四万十町","city_kana":"タカオカグンシマントチョウ","town":"大井野","town_kana":"オオイノ","prefecture_code":39},"0058":{"zip_code":"7860058","prefecture":"高知県","prefecture_kana":"コウチケン","city":"高岡郡四万十町","city_kana":"タカオカグンシマントチョウ","town":"大鶴津","town_kana":"オオツルツ","prefecture_code":39},"0067":{"zip_code":"7860067","prefecture":"高知県","prefecture_kana":"コウチケン","city":"高岡郡四万十町","city_kana":"タカオカグンシマントチョウ","town":"大向","town_kana":"オオムカイ","prefecture_code":39},"0045":{"zip_code":"7860045","prefecture":"高知県","prefecture_kana":"コウチケン","city":"高岡郡四万十町","city_kana":"タカオカグンシマントチョウ","town":"興津（１〜１６９９番）","town_kana":"オキツ(1-1699バン)","prefecture_code":39},"0046":{"zip_code":"7860046","prefecture":"高知県","prefecture_kana":"コウチケン","city":"高岡郡四万十町","city_kana":"タカオカグンシマントチョウ","town":"興津（その他）","town_kana":"オキツ(ソノタ)","prefecture_code":39},"0517":{"zip_code":"7860517","prefecture":"高知県","prefecture_kana":"コウチケン","city":"高岡郡四万十町","city_kana":"タカオカグンシマントチョウ","town":"奥大道","town_kana":"オクオオドウ","prefecture_code":39},"0038":{"zip_code":"7860038","prefecture":"高知県","prefecture_kana":"コウチケン","city":"高岡郡四万十町","city_kana":"タカオカグンシマントチョウ","town":"奥呉地","town_kana":"オククレジ","prefecture_code":39},"0071":{"zip_code":"7860071","prefecture":"高知県","prefecture_kana":"コウチケン","city":"高岡郡四万十町","city_kana":"タカオカグンシマントチョウ","town":"奥神ノ川","town_kana":"オクゴウノカワ","prefecture_code":39},"0531":{"zip_code":"7860531","prefecture":"高知県","prefecture_kana":"コウチケン","city":"高岡郡四万十町","city_kana":"タカオカグンシマントチョウ","town":"小野","town_kana":"オノ","prefecture_code":39},"0048":{"zip_code":"7860048","prefecture":"高知県","prefecture_kana":"コウチケン","city":"高岡郡四万十町","city_kana":"タカオカグンシマントチョウ","town":"親ケ内","town_kana":"オヤガウチ","prefecture_code":39},"0078":{"zip_code":"7860078","prefecture":"高知県","prefecture_kana":"コウチケン","city":"高岡郡四万十町","city_kana":"タカオカグンシマントチョウ","town":"折合","town_kana":"オレアイ","prefecture_code":39},"0034":{"zip_code":"7860034","prefecture":"高知県","prefecture_kana":"コウチケン","city":"高岡郡四万十町","city_kana":"タカオカグンシマントチョウ","town":"替坂本","town_kana":"カエザカモト","prefecture_code":39},"0011":{"zip_code":"7860011","prefecture":"高知県","prefecture_kana":"コウチケン","city":"高岡郡四万十町","city_kana":"タカオカグンシマントチョウ","town":"香月が丘","town_kana":"カゲツガオカ","prefecture_code":39},"0032":{"zip_code":"7860032","prefecture":"高知県","prefecture_kana":"コウチケン","city":"高岡郡四万十町","city_kana":"タカオカグンシマントチョウ","town":"影野","town_kana":"カゲノ","prefecture_code":39},"0049":{"zip_code":"7860049","prefecture":"高知県","prefecture_kana":"コウチケン","city":"高岡郡四万十町","city_kana":"タカオカグンシマントチョウ","town":"数神","town_kana":"カズコウ","prefecture_code":39},"0098":{"zip_code":"7860098","prefecture":"高知県","prefecture_kana":"コウチケン","city":"高岡郡四万十町","city_kana":"タカオカグンシマントチョウ","town":"上秋丸","town_kana":"カミアキマル","prefecture_code":39},"0305":{"zip_code":"7860305","prefecture":"高知県","prefecture_kana":"コウチケン","city":"高岡郡四万十町","city_kana":"タカオカグンシマントチョウ","town":"上岡","town_kana":"カミオカ","prefecture_code":39},"0522":{"zip_code":"7860522","prefecture":"高知県","prefecture_kana":"コウチケン","city":"高岡郡四万十町","city_kana":"タカオカグンシマントチョウ","town":"茅吹手","town_kana":"カヤブクテ","prefecture_code":39},"0326":{"zip_code":"7860326","prefecture":"高知県","prefecture_kana":"コウチケン","city":"高岡郡四万十町","city_kana":"タカオカグンシマントチョウ","town":"烏手","town_kana":"カラスデ","prefecture_code":39},"0514":{"zip_code":"7860514","prefecture":"高知県","prefecture_kana":"コウチケン","city":"高岡郡四万十町","city_kana":"タカオカグンシマントチョウ","town":"河内","town_kana":"カワウチ","prefecture_code":39},"0091":{"zip_code":"7860091","prefecture":"高知県","prefecture_kana":"コウチケン","city":"高岡郡四万十町","city_kana":"タカオカグンシマントチョウ","town":"川ノ内","town_kana":"カワノウチ","prefecture_code":39},"0012":{"zip_code":"7860012","prefecture":"高知県","prefecture_kana":"コウチケン","city":"高岡郡四万十町","city_kana":"タカオカグンシマントチョウ","town":"北琴平町","town_kana":"キタコトヒラマチ","prefecture_code":39},"0303":{"zip_code":"7860303","prefecture":"高知県","prefecture_kana":"コウチケン","city":"高岡郡四万十町","city_kana":"タカオカグンシマントチョウ","town":"希ノ川","town_kana":"キノカワ","prefecture_code":39},"0003":{"zip_code":"7860003","prefecture":"高知県","prefecture_kana":"コウチケン","city":"高岡郡四万十町","city_kana":"タカオカグンシマントチョウ","town":"金上野","town_kana":"キンジョウノ","prefecture_code":39},"0516":{"zip_code":"7860516","prefecture":"高知県","prefecture_kana":"コウチケン","city":"高岡郡四万十町","city_kana":"タカオカグンシマントチョウ","town":"口大道","town_kana":"クチオオドウ","prefecture_code":39},"0073":{"zip_code":"7860073","prefecture":"高知県","prefecture_kana":"コウチケン","city":"高岡郡四万十町","city_kana":"タカオカグンシマントチョウ","town":"口神ノ川","town_kana":"クチゴウノカワ","prefecture_code":39},"0010":{"zip_code":"7860010","prefecture":"高知県","prefecture_kana":"コウチケン","city":"高岡郡四万十町","city_kana":"タカオカグンシマントチョウ","town":"窪川","town_kana":"クボカワ","prefecture_code":39},"0515":{"zip_code":"7860515","prefecture":"高知県","prefecture_kana":"コウチケン","city":"高岡郡四万十町","city_kana":"タカオカグンシマントチョウ","town":"久保川","town_kana":"クボカワ","prefecture_code":39},"0096":{"zip_code":"7860096","prefecture":"高知県","prefecture_kana":"コウチケン","city":"高岡郡四万十町","city_kana":"タカオカグンシマントチョウ","town":"窪川中津川","town_kana":"クボカワナカツガワ","prefecture_code":39},"0042":{"zip_code":"7860042","prefecture":"高知県","prefecture_kana":"コウチケン","city":"高岡郡四万十町","city_kana":"タカオカグンシマントチョウ","town":"黒石","town_kana":"クロイシ","prefecture_code":39},"0306":{"zip_code":"7860306","prefecture":"高知県","prefecture_kana":"コウチケン","city":"高岡郡四万十町","city_kana":"タカオカグンシマントチョウ","town":"小石","town_kana":"コイシ","prefecture_code":39},"0017":{"zip_code":"7860017","prefecture":"高知県","prefecture_kana":"コウチケン","city":"高岡郡四万十町","city_kana":"タカオカグンシマントチョウ","town":"神ノ西","town_kana":"コウノサイ","prefecture_code":39},"0502":{"zip_code":"7860502","prefecture":"高知県","prefecture_kana":"コウチケン","city":"高岡郡四万十町","city_kana":"タカオカグンシマントチョウ","town":"古城","town_kana":"コジョウ","prefecture_code":39},"0057":{"zip_code":"7860057","prefecture":"高知県","prefecture_kana":"コウチケン","city":"高岡郡四万十町","city_kana":"タカオカグンシマントチョウ","town":"小鶴津","town_kana":"コヅルツ","prefecture_code":39},"0013":{"zip_code":"7860013","prefecture":"高知県","prefecture_kana":"コウチケン","city":"高岡郡四万十町","city_kana":"タカオカグンシマントチョウ","town":"琴平町","town_kana":"コトヒラマチ","prefecture_code":39},"0022":{"zip_code":"7860022","prefecture":"高知県","prefecture_kana":"コウチケン","city":"高岡郡四万十町","city_kana":"タカオカグンシマントチョウ","town":"小向","town_kana":"コムカイ","prefecture_code":39},"0313":{"zip_code":"7860313","prefecture":"高知県","prefecture_kana":"コウチケン","city":"高岡郡四万十町","city_kana":"タカオカグンシマントチョウ","town":"木屋ケ内","town_kana":"コヤガウチ","prefecture_code":39},"0028":{"zip_code":"7860028","prefecture":"高知県","prefecture_kana":"コウチケン","city":"高岡郡四万十町","city_kana":"タカオカグンシマントチョウ","town":"根元原","town_kana":"ゴンゲンバラ","prefecture_code":39},"0015":{"zip_code":"7860015","prefecture":"高知県","prefecture_kana":"コウチケン","city":"高岡郡四万十町","city_kana":"タカオカグンシマントチョウ","town":"西原","town_kana":"サイバラ","prefecture_code":39},"0008":{"zip_code":"7860008","prefecture":"高知県","prefecture_kana":"コウチケン","city":"高岡郡四万十町","city_kana":"タカオカグンシマントチョウ","town":"榊山町","town_kana":"サカキヤマチョウ","prefecture_code":39},"0087":{"zip_code":"7860087","prefecture":"高知県","prefecture_kana":"コウチケン","city":"高岡郡四万十町","city_kana":"タカオカグンシマントチョウ","town":"作屋","town_kana":"サクヤ","prefecture_code":39},"0524":{"zip_code":"7860524","prefecture":"高知県","prefecture_kana":"コウチケン","city":"高岡郡四万十町","city_kana":"タカオカグンシマントチョウ","town":"里川","town_kana":"サトカワ","prefecture_code":39},"0004":{"zip_code":"7860004","prefecture":"高知県","prefecture_kana":"コウチケン","city":"高岡郡四万十町","city_kana":"タカオカグンシマントチョウ","town":"茂串町","town_kana":"シゲクシチョウ","prefecture_code":39},"0018":{"zip_code":"7860018","prefecture":"高知県","prefecture_kana":"コウチケン","city":"高岡郡四万十町","city_kana":"タカオカグンシマントチョウ","town":"仕出原","town_kana":"シデハラ","prefecture_code":39},"0304":{"zip_code":"7860304","prefecture":"高知県","prefecture_kana":"コウチケン","city":"高岡郡四万十町","city_kana":"タカオカグンシマントチョウ","town":"下岡","town_kana":"シモオカ","prefecture_code":39},"0036":{"zip_code":"7860036","prefecture":"高知県","prefecture_kana":"コウチケン","city":"高岡郡四万十町","city_kana":"タカオカグンシマントチョウ","town":"下呉地","town_kana":"シモクレジ","prefecture_code":39},"0315":{"zip_code":"7860315","prefecture":"高知県","prefecture_kana":"コウチケン","city":"高岡郡四万十町","city_kana":"タカオカグンシマントチョウ","town":"下津井","town_kana":"シモツイ","prefecture_code":39},"0314":{"zip_code":"7860314","prefecture":"高知県","prefecture_kana":"コウチケン","city":"高岡郡四万十町","city_kana":"タカオカグンシマントチョウ","town":"下道","town_kana":"シモドウ","prefecture_code":39},"0092":{"zip_code":"7860092","prefecture":"高知県","prefecture_kana":"コウチケン","city":"高岡郡四万十町","city_kana":"タカオカグンシマントチョウ","town":"勝賀野","town_kana":"ショウガノ","prefecture_code":39},"0323":{"zip_code":"7860323","prefecture":"高知県","prefecture_kana":"コウチケン","city":"高岡郡四万十町","city_kana":"タカオカグンシマントチョウ","town":"上宮","town_kana":"ジョウグウ","prefecture_code":39},"0513":{"zip_code":"7860513","prefecture":"高知県","prefecture_kana":"コウチケン","city":"高岡郡四万十町","city_kana":"タカオカグンシマントチョウ","town":"昭和乙","town_kana":"ショウワオツ","prefecture_code":39},"0512":{"zip_code":"7860512","prefecture":"高知県","prefecture_kana":"コウチケン","city":"高岡郡四万十町","city_kana":"タカオカグンシマントチョウ","town":"昭和甲","town_kana":"ショウワコウ","prefecture_code":39},"0511":{"zip_code":"7860511","prefecture":"高知県","prefecture_kana":"コウチケン","city":"高岡郡四万十町","city_kana":"タカオカグンシマントチョウ","town":"昭和（その他）","town_kana":"ショウワ(ソノタ)","prefecture_code":39},"0501":{"zip_code":"7860501","prefecture":"高知県","prefecture_kana":"コウチケン","city":"高岡郡四万十町","city_kana":"タカオカグンシマントチョウ","town":"地吉","town_kana":"ジヨシ","prefecture_code":39},"0056":{"zip_code":"7860056","prefecture":"高知県","prefecture_kana":"コウチケン","city":"高岡郡四万十町","city_kana":"タカオカグンシマントチョウ","town":"志和","town_kana":"シワ","prefecture_code":39},"0055":{"zip_code":"7860055","prefecture":"高知県","prefecture_kana":"コウチケン","city":"高岡郡四万十町","city_kana":"タカオカグンシマントチョウ","town":"志和峰","town_kana":"シワミネ","prefecture_code":39},"0014":{"zip_code":"7860014","prefecture":"高知県","prefecture_kana":"コウチケン","city":"高岡郡四万十町","city_kana":"タカオカグンシマントチョウ","town":"新開町","town_kana":"シンガイチョウ","prefecture_code":39},"0302":{"zip_code":"7860302","prefecture":"高知県","prefecture_kana":"コウチケン","city":"高岡郡四万十町","city_kana":"タカオカグンシマントチョウ","town":"瀬里","town_kana":"セリ","prefecture_code":39},"0066":{"zip_code":"7860066","prefecture":"高知県","prefecture_kana":"コウチケン","city":"高岡郡四万十町","city_kana":"タカオカグンシマントチョウ","town":"天の川","town_kana":"ソラノカワ","prefecture_code":39},"0301":{"zip_code":"7860301","prefecture":"高知県","prefecture_kana":"コウチケン","city":"高岡郡四万十町","city_kana":"タカオカグンシマントチョウ","town":"大正（葛籠川、轟崎を含む）","town_kana":"タイショウ(ツヅラガワ、トドロキザキヲフクム)","prefecture_code":39},"0312":{"zip_code":"7860312","prefecture":"高知県","prefecture_kana":"コウチケン","city":"高岡郡四万十町","city_kana":"タカオカグンシマントチョウ","town":"大正大奈路","town_kana":"タイショウオオナロ","prefecture_code":39},"0321":{"zip_code":"7860321","prefecture":"高知県","prefecture_kana":"コウチケン","city":"高岡郡四万十町","city_kana":"タカオカグンシマントチョウ","town":"大正北ノ川","town_kana":"タイショウキタノカワ","prefecture_code":39},"0316":{"zip_code":"7860316","prefecture":"高知県","prefecture_kana":"コウチケン","city":"高岡郡四万十町","city_kana":"タカオカグンシマントチョウ","town":"大正中津川","town_kana":"タイショウナカツカワ","prefecture_code":39},"0063":{"zip_code":"7860063","prefecture":"高知県","prefecture_kana":"コウチケン","city":"高岡郡四万十町","city_kana":"タカオカグンシマントチョウ","town":"高野","town_kana":"タカノ","prefecture_code":39},"0521":{"zip_code":"7860521","prefecture":"高知県","prefecture_kana":"コウチケン","city":"高岡郡四万十町","city_kana":"タカオカグンシマントチョウ","town":"津賀","town_kana":"ツガ","prefecture_code":39},"0076":{"zip_code":"7860076","prefecture":"高知県","prefecture_kana":"コウチケン","city":"高岡郡四万十町","city_kana":"タカオカグンシマントチョウ","town":"寺野","town_kana":"テラノ","prefecture_code":39},"0052":{"zip_code":"7860052","prefecture":"高知県","prefecture_kana":"コウチケン","city":"高岡郡四万十町","city_kana":"タカオカグンシマントチョウ","town":"土居","town_kana":"ドイ","prefecture_code":39},"0033":{"zip_code":"7860033","prefecture":"高知県","prefecture_kana":"コウチケン","city":"高岡郡四万十町","city_kana":"タカオカグンシマントチョウ","town":"道徳","town_kana":"ドウトク","prefecture_code":39},"0504":{"zip_code":"7860504","prefecture":"高知県","prefecture_kana":"コウチケン","city":"高岡郡四万十町","city_kana":"タカオカグンシマントチョウ","town":"十川","town_kana":"トオカワ","prefecture_code":39},"0535":{"zip_code":"7860535","prefecture":"高知県","prefecture_kana":"コウチケン","city":"高岡郡四万十町","city_kana":"タカオカグンシマントチョウ","town":"十和川口","town_kana":"トオワカワグチ","prefecture_code":39},"0503":{"zip_code":"7860503","prefecture":"高知県","prefecture_kana":"コウチケン","city":"高岡郡四万十町","city_kana":"タカオカグンシマントチョウ","town":"戸川","town_kana":"トガワ","prefecture_code":39},"0031":{"zip_code":"7860031","prefecture":"高知県","prefecture_kana":"コウチケン","city":"高岡郡四万十町","city_kana":"タカオカグンシマントチョウ","town":"床鍋","town_kana":"トコナベ","prefecture_code":39},"0025":{"zip_code":"7860025","prefecture":"高知県","prefecture_kana":"コウチケン","city":"高岡郡四万十町","city_kana":"タカオカグンシマントチョウ","town":"富岡","town_kana":"トミオカ","prefecture_code":39},"0072":{"zip_code":"7860072","prefecture":"高知県","prefecture_kana":"コウチケン","city":"高岡郡四万十町","city_kana":"タカオカグンシマントチョウ","town":"中神ノ川","town_kana":"ナカゴウノカワ","prefecture_code":39},"0023":{"zip_code":"7860023","prefecture":"高知県","prefecture_kana":"コウチケン","city":"高岡郡四万十町","city_kana":"タカオカグンシマントチョウ","town":"中ノ越","town_kana":"ナカノコエ","prefecture_code":39},"0081":{"zip_code":"7860081","prefecture":"高知県","prefecture_kana":"コウチケン","city":"高岡郡四万十町","city_kana":"タカオカグンシマントチョウ","town":"中村","town_kana":"ナカムラ","prefecture_code":39},"0082":{"zip_code":"7860082","prefecture":"高知県","prefecture_kana":"コウチケン","city":"高岡郡四万十町","city_kana":"タカオカグンシマントチョウ","town":"七里","town_kana":"ナナサト","prefecture_code":39},"0041":{"zip_code":"7860041","prefecture":"高知県","prefecture_kana":"コウチケン","city":"高岡郡四万十町","city_kana":"タカオカグンシマントチョウ","town":"奈路","town_kana":"ナロ","prefecture_code":39},"0021":{"zip_code":"7860021","prefecture":"高知県","prefecture_kana":"コウチケン","city":"高岡郡四万十町","city_kana":"タカオカグンシマントチョウ","town":"仁井田","town_kana":"ニイダ","prefecture_code":39},"0083":{"zip_code":"7860083","prefecture":"高知県","prefecture_kana":"コウチケン","city":"高岡郡四万十町","city_kana":"タカオカグンシマントチョウ","town":"西川角","town_kana":"ニシカワヅノ","prefecture_code":39},"0311":{"zip_code":"7860311","prefecture":"高知県","prefecture_kana":"コウチケン","city":"高岡郡四万十町","city_kana":"タカオカグンシマントチョウ","town":"西ノ川","town_kana":"ニシノカワ","prefecture_code":39},"0085":{"zip_code":"7860085","prefecture":"高知県","prefecture_kana":"コウチケン","city":"高岡郡四万十町","city_kana":"タカオカグンシマントチョウ","town":"根々崎","town_kana":"ネネザキ","prefecture_code":39},"0065":{"zip_code":"7860065","prefecture":"高知県","prefecture_kana":"コウチケン","city":"高岡郡四万十町","city_kana":"タカオカグンシマントチョウ","town":"野地","town_kana":"ノジ","prefecture_code":39},"0525":{"zip_code":"7860525","prefecture":"高知県","prefecture_kana":"コウチケン","city":"高岡郡四万十町","city_kana":"タカオカグンシマントチョウ","town":"野々川","town_kana":"ノノガワ","prefecture_code":39},"0047":{"zip_code":"7860047","prefecture":"高知県","prefecture_kana":"コウチケン","city":"高岡郡四万十町","city_kana":"タカオカグンシマントチョウ","town":"八千数","town_kana":"ハッセンズ","prefecture_code":39},"0054":{"zip_code":"7860054","prefecture":"高知県","prefecture_kana":"コウチケン","city":"高岡郡四万十町","city_kana":"タカオカグンシマントチョウ","town":"飯ノ川","town_kana":"ハンノカワ","prefecture_code":39},"0027":{"zip_code":"7860027","prefecture":"高知県","prefecture_kana":"コウチケン","city":"高岡郡四万十町","city_kana":"タカオカグンシマントチョウ","town":"東大奈路","town_kana":"ヒガシオオナロ","prefecture_code":39},"0084":{"zip_code":"7860084","prefecture":"高知県","prefecture_kana":"コウチケン","city":"高岡郡四万十町","city_kana":"タカオカグンシマントチョウ","town":"東川角","town_kana":"ヒガシカワヅノ","prefecture_code":39},"0093":{"zip_code":"7860093","prefecture":"高知県","prefecture_kana":"コウチケン","city":"高岡郡四万十町","city_kana":"タカオカグンシマントチョウ","town":"東北ノ川","town_kana":"ヒガシキタノカワ","prefecture_code":39},"0006":{"zip_code":"7860006","prefecture":"高知県","prefecture_kana":"コウチケン","city":"高岡郡四万十町","city_kana":"タカオカグンシマントチョウ","town":"東町","town_kana":"ヒガシマチ","prefecture_code":39},"0077":{"zip_code":"7860077","prefecture":"高知県","prefecture_kana":"コウチケン","city":"高岡郡四万十町","city_kana":"タカオカグンシマントチョウ","town":"桧生原","town_kana":"ヒサハラ","prefecture_code":39},"0097":{"zip_code":"7860097","prefecture":"高知県","prefecture_kana":"コウチケン","city":"高岡郡四万十町","city_kana":"タカオカグンシマントチョウ","town":"日野地","town_kana":"ヒノジ","prefecture_code":39},"0026":{"zip_code":"7860026","prefecture":"高知県","prefecture_kana":"コウチケン","city":"高岡郡四万十町","city_kana":"タカオカグンシマントチョウ","town":"平串","town_kana":"ヒラグシ","prefecture_code":39},"0051":{"zip_code":"7860051","prefecture":"高知県","prefecture_kana":"コウチケン","city":"高岡郡四万十町","city_kana":"タカオカグンシマントチョウ","town":"平野","town_kana":"ヒラノ","prefecture_code":39},"0324":{"zip_code":"7860324","prefecture":"高知県","prefecture_kana":"コウチケン","city":"高岡郡四万十町","city_kana":"タカオカグンシマントチョウ","town":"弘瀬","town_kana":"ヒロセ","prefecture_code":39},"0534":{"zip_code":"7860534","prefecture":"高知県","prefecture_kana":"コウチケン","city":"高岡郡四万十町","city_kana":"タカオカグンシマントチョウ","town":"広瀬","town_kana":"ヒロセ","prefecture_code":39},"0053":{"zip_code":"7860053","prefecture":"高知県","prefecture_kana":"コウチケン","city":"高岡郡四万十町","city_kana":"タカオカグンシマントチョウ","town":"弘見","town_kana":"ヒロミ","prefecture_code":39},"0001":{"zip_code":"7860001","prefecture":"高知県","prefecture_kana":"コウチケン","city":"高岡郡四万十町","city_kana":"タカオカグンシマントチョウ","town":"藤ノ川","town_kana":"フジノガワ","prefecture_code":39},"0007":{"zip_code":"7860007","prefecture":"高知県","prefecture_kana":"コウチケン","city":"高岡郡四万十町","city_kana":"タカオカグンシマントチョウ","town":"古市町","town_kana":"フルイチマチ","prefecture_code":39},"0043":{"zip_code":"7860043","prefecture":"高知県","prefecture_kana":"コウチケン","city":"高岡郡四万十町","city_kana":"タカオカグンシマントチョウ","town":"本堂","town_kana":"ホンドウ","prefecture_code":39},"0005":{"zip_code":"7860005","prefecture":"高知県","prefecture_kana":"コウチケン","city":"高岡郡四万十町","city_kana":"タカオカグンシマントチョウ","town":"本町","town_kana":"ホンマチ","prefecture_code":39},"0002":{"zip_code":"7860002","prefecture":"高知県","prefecture_kana":"コウチケン","city":"高岡郡四万十町","city_kana":"タカオカグンシマントチョウ","town":"見付","town_kana":"ミツケ","prefecture_code":39},"0074":{"zip_code":"7860074","prefecture":"高知県","prefecture_kana":"コウチケン","city":"高岡郡四万十町","city_kana":"タカオカグンシマントチョウ","town":"南川口","town_kana":"ミナミカワグチ","prefecture_code":39},"0061":{"zip_code":"7860061","prefecture":"高知県","prefecture_kana":"コウチケン","city":"高岡郡四万十町","city_kana":"タカオカグンシマントチョウ","town":"峰ノ上","town_kana":"ミネノウエ","prefecture_code":39},"0086":{"zip_code":"7860086","prefecture":"高知県","prefecture_kana":"コウチケン","city":"高岡郡四万十町","city_kana":"タカオカグンシマントチョウ","town":"宮内","town_kana":"ミヤウチ","prefecture_code":39},"0024":{"zip_code":"7860024","prefecture":"高知県","prefecture_kana":"コウチケン","city":"高岡郡四万十町","city_kana":"タカオカグンシマントチョウ","town":"向川","town_kana":"ムカイガワ","prefecture_code":39},"0308":{"zip_code":"7860308","prefecture":"高知県","prefecture_kana":"コウチケン","city":"高岡郡四万十町","city_kana":"タカオカグンシマントチョウ","town":"芳川","town_kana":"ヨシカワ","prefecture_code":39},"0044":{"zip_code":"7860044","prefecture":"高知県","prefecture_kana":"コウチケン","city":"高岡郡四万十町","city_kana":"タカオカグンシマントチョウ","town":"与津地","town_kana":"ヨツジ","prefecture_code":39},"0095":{"zip_code":"7860095","prefecture":"高知県","prefecture_kana":"コウチケン","city":"高岡郡四万十町","city_kana":"タカオカグンシマントチョウ","town":"米奥","town_kana":"ヨネオク","prefecture_code":39},"0035":{"zip_code":"7860035","prefecture":"高知県","prefecture_kana":"コウチケン","city":"高岡郡四万十町","city_kana":"タカオカグンシマントチョウ","town":"六反地","town_kana":"ロクタンジ","prefecture_code":39},"0068":{"zip_code":"7860068","prefecture":"高知県","prefecture_kana":"コウチケン","city":"高岡郡四万十町","city_kana":"タカオカグンシマントチョウ","town":"若井","town_kana":"ワカイ","prefecture_code":39},"0062":{"zip_code":"7860062","prefecture":"高知県","prefecture_kana":"コウチケン","city":"高岡郡四万十町","city_kana":"タカオカグンシマントチョウ","town":"若井川","town_kana":"ワカイガワ","prefecture_code":39}}