{"0300":{"zip_code":"7870300","prefecture":"高知県","prefecture_kana":"コウチケン","city":"土佐清水市","city_kana":"トサシミズシ","town":"","town_kana":"","prefecture_code":39},"0303":{"zip_code":"7870303","prefecture":"高知県","prefecture_kana":"コウチケン","city":"土佐清水市","city_kana":"トサシミズシ","town":"旭町","town_kana":"アサヒマチ","prefecture_code":39},"0315":{"zip_code":"7870315","prefecture":"高知県","prefecture_kana":"コウチケン","city":"土佐清水市","city_kana":"トサシミズシ","town":"足摺岬","town_kana":"アシズリミサキ","prefecture_code":39},"0556":{"zip_code":"7870556","prefecture":"高知県","prefecture_kana":"コウチケン","city":"土佐清水市","city_kana":"トサシミズシ","town":"有永","town_kana":"アリナガ","prefecture_code":39},"0327":{"zip_code":"7870327","prefecture":"高知県","prefecture_kana":"コウチケン","city":"土佐清水市","city_kana":"トサシミズシ","town":"市場町","town_kana":"イチバチョウ","prefecture_code":39},"0302":{"zip_code":"7870302","prefecture":"高知県","prefecture_kana":"コウチケン","city":"土佐清水市","city_kana":"トサシミズシ","town":"以布利","town_kana":"イブリ","prefecture_code":39},"0447":{"zip_code":"7870447","prefecture":"高知県","prefecture_kana":"コウチケン","city":"土佐清水市","city_kana":"トサシミズシ","town":"上野","town_kana":"ウエノ","prefecture_code":39},"0310":{"zip_code":"7870310","prefecture":"高知県","prefecture_kana":"コウチケン","city":"土佐清水市","city_kana":"トサシミズシ","town":"浦尻","town_kana":"ウラジリ","prefecture_code":39},"0331":{"zip_code":"7870331","prefecture":"高知県","prefecture_kana":"コウチケン","city":"土佐清水市","city_kana":"トサシミズシ","town":"越前町","town_kana":"エチゼンチョウ","prefecture_code":39},"0328":{"zip_code":"7870328","prefecture":"高知県","prefecture_kana":"コウチケン","city":"土佐清水市","city_kana":"トサシミズシ","town":"戎町","town_kana":"エビスチョウ","prefecture_code":39},"0301":{"zip_code":"7870301","prefecture":"高知県","prefecture_kana":"コウチケン","city":"土佐清水市","city_kana":"トサシミズシ","town":"大岐","town_kana":"オオキ","prefecture_code":39},"0314":{"zip_code":"7870314","prefecture":"高知県","prefecture_kana":"コウチケン","city":"土佐清水市","city_kana":"トサシミズシ","town":"大谷","town_kana":"オオタニ","prefecture_code":39},"0562":{"zip_code":"7870562","prefecture":"高知県","prefecture_kana":"コウチケン","city":"土佐清水市","city_kana":"トサシミズシ","town":"大津","town_kana":"オオツ","prefecture_code":39},"0317":{"zip_code":"7870317","prefecture":"高知県","prefecture_kana":"コウチケン","city":"土佐清水市","city_kana":"トサシミズシ","town":"大浜","town_kana":"オオハマ","prefecture_code":39},"0446":{"zip_code":"7870446","prefecture":"高知県","prefecture_kana":"コウチケン","city":"土佐清水市","city_kana":"トサシミズシ","town":"斧積","town_kana":"オノズミ","prefecture_code":39},"0243":{"zip_code":"7870243","prefecture":"高知県","prefecture_kana":"コウチケン","city":"土佐清水市","city_kana":"トサシミズシ","town":"鍵掛","town_kana":"カイカケ","prefecture_code":39},"0561":{"zip_code":"7870561","prefecture":"高知県","prefecture_kana":"コウチケン","city":"土佐清水市","city_kana":"トサシミズシ","town":"貝ノ川","town_kana":"カイノカワ","prefecture_code":39},"0334":{"zip_code":"7870334","prefecture":"高知県","prefecture_kana":"コウチケン","city":"土佐清水市","city_kana":"トサシミズシ","town":"加久見入沢町","town_kana":"カグミイリサワチョウ","prefecture_code":39},"0335":{"zip_code":"7870335","prefecture":"高知県","prefecture_kana":"コウチケン","city":"土佐清水市","city_kana":"トサシミズシ","town":"加久見新町","town_kana":"カグミシンマチ","prefecture_code":39},"0338":{"zip_code":"7870338","prefecture":"高知県","prefecture_kana":"コウチケン","city":"土佐清水市","city_kana":"トサシミズシ","town":"加久見松崎","town_kana":"カグミマツザキ","prefecture_code":39},"0336":{"zip_code":"7870336","prefecture":"高知県","prefecture_kana":"コウチケン","city":"土佐清水市","city_kana":"トサシミズシ","town":"加久見","town_kana":"カグミ","prefecture_code":39},"0560":{"zip_code":"7870560","prefecture":"高知県","prefecture_kana":"コウチケン","city":"土佐清水市","city_kana":"トサシミズシ","town":"片粕","town_kana":"カタカス","prefecture_code":39},"0312":{"zip_code":"7870312","prefecture":"高知県","prefecture_kana":"コウチケン","city":"土佐清水市","city_kana":"トサシミズシ","town":"窪津","town_kana":"クボツ","prefecture_code":39},"0244":{"zip_code":"7870244","prefecture":"高知県","prefecture_kana":"コウチケン","city":"土佐清水市","city_kana":"トサシミズシ","town":"久百々","town_kana":"クモモ","prefecture_code":39},"0311":{"zip_code":"7870311","prefecture":"高知県","prefecture_kana":"コウチケン","city":"土佐清水市","city_kana":"トサシミズシ","town":"グリーンハイツ","town_kana":"グリーンハイツ","prefecture_code":39},"0308":{"zip_code":"7870308","prefecture":"高知県","prefecture_kana":"コウチケン","city":"土佐清水市","city_kana":"トサシミズシ","town":"厚生町","town_kana":"コウセイチョウ","prefecture_code":39},"0322":{"zip_code":"7870322","prefecture":"高知県","prefecture_kana":"コウチケン","city":"土佐清水市","city_kana":"トサシミズシ","town":"小江町","town_kana":"コエチョウ","prefecture_code":39},"0323":{"zip_code":"7870323","prefecture":"高知県","prefecture_kana":"コウチケン","city":"土佐清水市","city_kana":"トサシミズシ","town":"寿町","town_kana":"コトブキチョウ","prefecture_code":39},"0306":{"zip_code":"7870306","prefecture":"高知県","prefecture_kana":"コウチケン","city":"土佐清水市","city_kana":"トサシミズシ","town":"幸町","town_kana":"サイワイチョウ","prefecture_code":39},"0325":{"zip_code":"7870325","prefecture":"高知県","prefecture_kana":"コウチケン","city":"土佐清水市","city_kana":"トサシミズシ","town":"栄町","town_kana":"サカエマチ","prefecture_code":39},"0332":{"zip_code":"7870332","prefecture":"高知県","prefecture_kana":"コウチケン","city":"土佐清水市","city_kana":"トサシミズシ","town":"汐見町","town_kana":"シオミチョウ","prefecture_code":39},"0320":{"zip_code":"7870320","prefecture":"高知県","prefecture_kana":"コウチケン","city":"土佐清水市","city_kana":"トサシミズシ","town":"清水","town_kana":"シミズ","prefecture_code":39},"0559":{"zip_code":"7870559","prefecture":"高知県","prefecture_kana":"コウチケン","city":"土佐清水市","city_kana":"トサシミズシ","town":"下川口","town_kana":"シモカワグチ","prefecture_code":39},"0242":{"zip_code":"7870242","prefecture":"高知県","prefecture_kana":"コウチケン","city":"土佐清水市","city_kana":"トサシミズシ","town":"下ノ加江","town_kana":"シモノカエ","prefecture_code":39},"0445":{"zip_code":"7870445","prefecture":"高知県","prefecture_kana":"コウチケン","city":"土佐清水市","city_kana":"トサシミズシ","town":"下益野","town_kana":"シモマシノ","prefecture_code":39},"0563":{"zip_code":"7870563","prefecture":"高知県","prefecture_kana":"コウチケン","city":"土佐清水市","city_kana":"トサシミズシ","town":"宗呂甲","town_kana":"ソウロコウ","prefecture_code":39},"0557":{"zip_code":"7870557","prefecture":"高知県","prefecture_kana":"コウチケン","city":"土佐清水市","city_kana":"トサシミズシ","town":"宗呂乙","town_kana":"ソウロオツ","prefecture_code":39},"0558":{"zip_code":"7870558","prefecture":"高知県","prefecture_kana":"コウチケン","city":"土佐清水市","city_kana":"トサシミズシ","town":"宗呂丙","town_kana":"ソウロヘイ","prefecture_code":39},"0452":{"zip_code":"7870452","prefecture":"高知県","prefecture_kana":"コウチケン","city":"土佐清水市","city_kana":"トサシミズシ","town":"竜串","town_kana":"タツクシ","prefecture_code":39},"0240":{"zip_code":"7870240","prefecture":"高知県","prefecture_kana":"コウチケン","city":"土佐清水市","city_kana":"トサシミズシ","town":"立石","town_kana":"タテイシ","prefecture_code":39},"0324":{"zip_code":"7870324","prefecture":"高知県","prefecture_kana":"コウチケン","city":"土佐清水市","city_kana":"トサシミズシ","town":"中央町","town_kana":"チュウオウチョウ","prefecture_code":39},"0453":{"zip_code":"7870453","prefecture":"高知県","prefecture_kana":"コウチケン","city":"土佐清水市","city_kana":"トサシミズシ","town":"爪白","town_kana":"ツマジロ","prefecture_code":39},"0313":{"zip_code":"7870313","prefecture":"高知県","prefecture_kana":"コウチケン","city":"土佐清水市","city_kana":"トサシミズシ","town":"津呂","town_kana":"ツロ","prefecture_code":39},"0305":{"zip_code":"7870305","prefecture":"高知県","prefecture_kana":"コウチケン","city":"土佐清水市","city_kana":"トサシミズシ","town":"天神町","town_kana":"テンジンマチ","prefecture_code":39},"0318":{"zip_code":"7870318","prefecture":"高知県","prefecture_kana":"コウチケン","city":"土佐清水市","city_kana":"トサシミズシ","town":"中浜","town_kana":"ナカノハマ","prefecture_code":39},"0333":{"zip_code":"7870333","prefecture":"高知県","prefecture_kana":"コウチケン","city":"土佐清水市","city_kana":"トサシミズシ","town":"西町","town_kana":"ニシマチ","prefecture_code":39},"0241":{"zip_code":"7870241","prefecture":"高知県","prefecture_kana":"コウチケン","city":"土佐清水市","city_kana":"トサシミズシ","town":"布","town_kana":"ヌノ","prefecture_code":39},"0321":{"zip_code":"7870321","prefecture":"高知県","prefecture_kana":"コウチケン","city":"土佐清水市","city_kana":"トサシミズシ","town":"浜町","town_kana":"ハママチ","prefecture_code":39},"0326":{"zip_code":"7870326","prefecture":"高知県","prefecture_kana":"コウチケン","city":"土佐清水市","city_kana":"トサシミズシ","town":"本町","town_kana":"ホンマチ","prefecture_code":39},"0316":{"zip_code":"7870316","prefecture":"高知県","prefecture_kana":"コウチケン","city":"土佐清水市","city_kana":"トサシミズシ","town":"松尾","town_kana":"マツオ","prefecture_code":39},"0450":{"zip_code":"7870450","prefecture":"高知県","prefecture_kana":"コウチケン","city":"土佐清水市","city_kana":"トサシミズシ","town":"三崎","town_kana":"ミサキ","prefecture_code":39},"0451":{"zip_code":"7870451","prefecture":"高知県","prefecture_kana":"コウチケン","city":"土佐清水市","city_kana":"トサシミズシ","town":"三崎浦","town_kana":"ミサキウラ","prefecture_code":39},"0307":{"zip_code":"7870307","prefecture":"高知県","prefecture_kana":"コウチケン","city":"土佐清水市","city_kana":"トサシミズシ","town":"緑ケ丘","town_kana":"ミドリガオカ","prefecture_code":39},"0304":{"zip_code":"7870304","prefecture":"高知県","prefecture_kana":"コウチケン","city":"土佐清水市","city_kana":"トサシミズシ","town":"元町","town_kana":"モトマチ","prefecture_code":39},"0337":{"zip_code":"7870337","prefecture":"高知県","prefecture_kana":"コウチケン","city":"土佐清水市","city_kana":"トサシミズシ","town":"養老","town_kana":"ヨウロウ","prefecture_code":39},"0339":{"zip_code":"7870339","prefecture":"高知県","prefecture_kana":"コウチケン","city":"土佐清水市","city_kana":"トサシミズシ","town":"横道","town_kana":"ヨコミチ","prefecture_code":39},"0000":{"zip_code":"7870000","prefecture":"高知県","prefecture_kana":"コウチケン","city":"四万十市","city_kana":"シマントシ","town":"","town_kana":"","prefecture_code":39},"0007":{"zip_code":"7870007","prefecture":"高知県","prefecture_kana":"コウチケン","city":"四万十市","city_kana":"シマントシ","town":"秋田","town_kana":"アイダ","prefecture_code":39},"0052":{"zip_code":"7870052","prefecture":"高知県","prefecture_kana":"コウチケン","city":"四万十市","city_kana":"シマントシ","town":"赤松町","town_kana":"アカマツチョウ","prefecture_code":39},"0006":{"zip_code":"7870006","prefecture":"高知県","prefecture_kana":"コウチケン","city":"四万十市","city_kana":"シマントシ","town":"麻生","town_kana":"アソウ","prefecture_code":39},"0668":{"zip_code":"7870668","prefecture":"高知県","prefecture_kana":"コウチケン","city":"四万十市","city_kana":"シマントシ","town":"荒川","town_kana":"アラカワ","prefecture_code":39},"0771":{"zip_code":"7870771","prefecture":"高知県","prefecture_kana":"コウチケン","city":"四万十市","city_kana":"シマントシ","town":"有岡","town_kana":"アリオカ","prefecture_code":39},"1441":{"zip_code":"7871441","prefecture":"高知県","prefecture_kana":"コウチケン","city":"四万十市","city_kana":"シマントシ","town":"伊才原","town_kana":"イサイバラ","prefecture_code":39},"0150":{"zip_code":"7870150","prefecture":"高知県","prefecture_kana":"コウチケン","city":"四万十市","city_kana":"シマントシ","town":"井沢","town_kana":"イサワ","prefecture_code":39},"0773":{"zip_code":"7870773","prefecture":"高知県","prefecture_kana":"コウチケン","city":"四万十市","city_kana":"シマントシ","town":"磯ノ川","town_kana":"イソノカワ","prefecture_code":39},"1103":{"zip_code":"7871103","prefecture":"高知県","prefecture_kana":"コウチケン","city":"四万十市","city_kana":"シマントシ","town":"板ノ川","town_kana":"イタノカワ","prefecture_code":39},"1107":[{"zip_code":"7871107","prefecture":"高知県","prefecture_kana":"コウチケン","city":"四万十市","city_kana":"シマントシ","town":"岩田","town_kana":"イワタ","prefecture_code":39},{"zip_code":"7871107","prefecture":"高知県","prefecture_kana":"コウチケン","city":"四万十市","city_kana":"シマントシ","town":"中村大用寺","town_kana":"ナカムラダイヨウジ","prefecture_code":39}],"1226":{"zip_code":"7871226","prefecture":"高知県","prefecture_kana":"コウチケン","city":"四万十市","city_kana":"シマントシ","town":"鵜ノ江","town_kana":"ウノエ","prefecture_code":39},"0015":{"zip_code":"7870015","prefecture":"高知県","prefecture_kana":"コウチケン","city":"四万十市","city_kana":"シマントシ","town":"右山","town_kana":"ウヤマ","prefecture_code":39},"0012":{"zip_code":"7870012","prefecture":"高知県","prefecture_kana":"コウチケン","city":"四万十市","city_kana":"シマントシ","town":"右山五月町","town_kana":"ウヤマサツキチョウ","prefecture_code":39},"0013":{"zip_code":"7870013","prefecture":"高知県","prefecture_kana":"コウチケン","city":"四万十市","city_kana":"シマントシ","town":"右山天神町","town_kana":"ウヤマテンジンチョウ","prefecture_code":39},"0011":{"zip_code":"7870011","prefecture":"高知県","prefecture_kana":"コウチケン","city":"四万十市","city_kana":"シマントシ","town":"右山元町","town_kana":"ウヤマモトマチ","prefecture_code":39},"0014":{"zip_code":"7870014","prefecture":"高知県","prefecture_kana":"コウチケン","city":"四万十市","city_kana":"シマントシ","town":"駅前町","town_kana":"エキマエチョウ","prefecture_code":39},"0669":{"zip_code":"7870669","prefecture":"高知県","prefecture_kana":"コウチケン","city":"四万十市","city_kana":"シマントシ","town":"江ノ村","town_kana":"エノムラ","prefecture_code":39},"0774":{"zip_code":"7870774","prefecture":"高知県","prefecture_kana":"コウチケン","city":"四万十市","city_kana":"シマントシ","town":"生ノ川","town_kana":"オイノカワ","prefecture_code":39},"1557":{"zip_code":"7871557","prefecture":"高知県","prefecture_kana":"コウチケン","city":"四万十市","city_kana":"シマントシ","town":"大西ノ川","town_kana":"オオニシノカワ","prefecture_code":39},"1553":{"zip_code":"7871553","prefecture":"高知県","prefecture_kana":"コウチケン","city":"四万十市","city_kana":"シマントシ","town":"大屋敷","town_kana":"オオヤシキ","prefecture_code":39},"1550":{"zip_code":"7871550","prefecture":"高知県","prefecture_kana":"コウチケン","city":"四万十市","city_kana":"シマントシ","town":"大用","town_kana":"オオユウ","prefecture_code":39},"1101":{"zip_code":"7871101","prefecture":"高知県","prefecture_kana":"コウチケン","city":"四万十市","city_kana":"シマントシ","town":"奥鴨川","town_kana":"オクカモガワ","prefecture_code":39},"1552":{"zip_code":"7871552","prefecture":"高知県","prefecture_kana":"コウチケン","city":"四万十市","city_kana":"シマントシ","town":"片魚","town_kana":"カタウオ","prefecture_code":39},"1223":{"zip_code":"7871223","prefecture":"高知県","prefecture_kana":"コウチケン","city":"四万十市","city_kana":"シマントシ","town":"勝間","town_kana":"カツマ","prefecture_code":39},"1224":{"zip_code":"7871224","prefecture":"高知県","prefecture_kana":"コウチケン","city":"四万十市","city_kana":"シマントシ","town":"勝間","town_kana":"カツマ","prefecture_code":39},"0776":{"zip_code":"7870776","prefecture":"高知県","prefecture_kana":"コウチケン","city":"四万十市","city_kana":"シマントシ","town":"上ノ土居","town_kana":"カミノドイ","prefecture_code":39},"1220":{"zip_code":"7871220","prefecture":"高知県","prefecture_kana":"コウチケン","city":"四万十市","city_kana":"シマントシ","town":"川登","town_kana":"カワノボリ","prefecture_code":39},"0775":{"zip_code":"7870775","prefecture":"高知県","prefecture_kana":"コウチケン","city":"四万十市","city_kana":"シマントシ","town":"九樹","town_kana":"クジュウ","prefecture_code":39},"1227":{"zip_code":"7871227","prefecture":"高知県","prefecture_kana":"コウチケン","city":"四万十市","city_kana":"シマントシ","town":"楠","town_kana":"クス","prefecture_code":39},"0666":{"zip_code":"7870666","prefecture":"高知県","prefecture_kana":"コウチケン","city":"四万十市","city_kana":"シマントシ","town":"楠島","town_kana":"クスシマ","prefecture_code":39},"1102":{"zip_code":"7871102","prefecture":"高知県","prefecture_kana":"コウチケン","city":"四万十市","city_kana":"シマントシ","town":"口鴨川","town_kana":"クチカモガワ","prefecture_code":39},"0019":{"zip_code":"7870019","prefecture":"高知県","prefecture_kana":"コウチケン","city":"四万十市","city_kana":"シマントシ","town":"具同","town_kana":"グドウ","prefecture_code":39},"0051":{"zip_code":"7870051","prefecture":"高知県","prefecture_kana":"コウチケン","city":"四万十市","city_kana":"シマントシ","town":"具同田黒","town_kana":"グドウタグロ","prefecture_code":39},"0667":{"zip_code":"7870667","prefecture":"高知県","prefecture_kana":"コウチケン","city":"四万十市","city_kana":"シマントシ","town":"国見","town_kana":"クニミ","prefecture_code":39},"1225":{"zip_code":"7871225","prefecture":"高知県","prefecture_kana":"コウチケン","city":"四万十市","city_kana":"シマントシ","town":"久保川","town_kana":"クボカワ","prefecture_code":39},"0010":{"zip_code":"7870010","prefecture":"高知県","prefecture_kana":"コウチケン","city":"四万十市","city_kana":"シマントシ","town":"古津賀","town_kana":"コツカ","prefecture_code":39},"1556":{"zip_code":"7871556","prefecture":"高知県","prefecture_kana":"コウチケン","city":"四万十市","city_kana":"シマントシ","town":"小西ノ川","town_kana":"コニシノカワ","prefecture_code":39},"1558":{"zip_code":"7871558","prefecture":"高知県","prefecture_kana":"コウチケン","city":"四万十市","city_kana":"シマントシ","town":"古尾","town_kana":"コビ","prefecture_code":39},"0009":{"zip_code":"7870009","prefecture":"高知県","prefecture_kana":"コウチケン","city":"四万十市","city_kana":"シマントシ","town":"佐岡","town_kana":"サオカ","prefecture_code":39},"0156":{"zip_code":"7870156","prefecture":"高知県","prefecture_kana":"コウチケン","city":"四万十市","city_kana":"シマントシ","town":"坂本","town_kana":"サカモト","prefecture_code":39},"1106":{"zip_code":"7871106","prefecture":"高知県","prefecture_kana":"コウチケン","city":"四万十市","city_kana":"シマントシ","town":"佐田","town_kana":"サダ","prefecture_code":39},"0158":{"zip_code":"7870158","prefecture":"高知県","prefecture_kana":"コウチケン","city":"四万十市","city_kana":"シマントシ","town":"実崎","town_kana":"サンザキ","prefecture_code":39},"1108":{"zip_code":"7871108","prefecture":"高知県","prefecture_kana":"コウチケン","city":"四万十市","city_kana":"シマントシ","town":"敷地","town_kana":"シキジ","prefecture_code":39},"0155":{"zip_code":"7870155","prefecture":"高知県","prefecture_kana":"コウチケン","city":"四万十市","city_kana":"シマントシ","town":"下田","town_kana":"シモダ","prefecture_code":39},"1551":{"zip_code":"7871551","prefecture":"高知県","prefecture_kana":"コウチケン","city":"四万十市","city_kana":"シマントシ","town":"住次郎","town_kana":"ジュウジロウ","prefecture_code":39},"1554":{"zip_code":"7871554","prefecture":"高知県","prefecture_kana":"コウチケン","city":"四万十市","city_kana":"シマントシ","town":"常六","town_kana":"ジョウロク","prefecture_code":39},"1228":{"zip_code":"7871228","prefecture":"高知県","prefecture_kana":"コウチケン","city":"四万十市","city_kana":"シマントシ","town":"高瀬","town_kana":"タカセ","prefecture_code":39},"0151":{"zip_code":"7870151","prefecture":"高知県","prefecture_kana":"コウチケン","city":"四万十市","city_kana":"シマントシ","town":"竹島","town_kana":"タケシマ","prefecture_code":39},"1559":{"zip_code":"7871559","prefecture":"高知県","prefecture_kana":"コウチケン","city":"四万十市","city_kana":"シマントシ","town":"竹屋敷","town_kana":"タケヤシキ","prefecture_code":39},"1229":{"zip_code":"7871229","prefecture":"高知県","prefecture_kana":"コウチケン","city":"四万十市","city_kana":"シマントシ","town":"田出ノ川","town_kana":"タデノカワ","prefecture_code":39},"1109":{"zip_code":"7871109","prefecture":"高知県","prefecture_kana":"コウチケン","city":"四万十市","city_kana":"シマントシ","town":"田野川","town_kana":"タノカワ","prefecture_code":39},"1222":{"zip_code":"7871222","prefecture":"高知県","prefecture_kana":"コウチケン","city":"四万十市","city_kana":"シマントシ","town":"手洗川","town_kana":"タライガワ","prefecture_code":39},"0161":{"zip_code":"7870161","prefecture":"高知県","prefecture_kana":"コウチケン","city":"四万十市","city_kana":"シマントシ","town":"津蔵渕","town_kana":"ツクラブチ","prefecture_code":39},"0016":{"zip_code":"7870016","prefecture":"高知県","prefecture_kana":"コウチケン","city":"四万十市","city_kana":"シマントシ","town":"角崎","town_kana":"ツノサキ","prefecture_code":39},"1105":{"zip_code":"7871105","prefecture":"高知県","prefecture_kana":"コウチケン","city":"四万十市","city_kana":"シマントシ","town":"利岡","town_kana":"トシオカ","prefecture_code":39},"0026":{"zip_code":"7870026","prefecture":"高知県","prefecture_kana":"コウチケン","city":"四万十市","city_kana":"シマントシ","town":"中村愛宕町","town_kana":"ナカムラアタゴマチ","prefecture_code":39},"0025":{"zip_code":"7870025","prefecture":"高知県","prefecture_kana":"コウチケン","city":"四万十市","city_kana":"シマントシ","town":"中村一条通","town_kana":"ナカムライチジョウドオリ","prefecture_code":39},"0036":{"zip_code":"7870036","prefecture":"高知県","prefecture_kana":"コウチケン","city":"四万十市","city_kana":"シマントシ","town":"中村岩崎町","town_kana":"ナカムライワサキチョウ","prefecture_code":39},"0033":{"zip_code":"7870033","prefecture":"高知県","prefecture_kana":"コウチケン","city":"四万十市","city_kana":"シマントシ","town":"中村大橋通","town_kana":"ナカムラオオハシドオリ","prefecture_code":39},"0024":{"zip_code":"7870024","prefecture":"高知県","prefecture_kana":"コウチケン","city":"四万十市","city_kana":"シマントシ","town":"中村於東町","town_kana":"ナカムラオヒガシチョウ","prefecture_code":39},"0030":{"zip_code":"7870030","prefecture":"高知県","prefecture_kana":"コウチケン","city":"四万十市","city_kana":"シマントシ","town":"中村上小姓町","town_kana":"ナカムラカミコショウマチ","prefecture_code":39},"0021":{"zip_code":"7870021","prefecture":"高知県","prefecture_kana":"コウチケン","city":"四万十市","city_kana":"シマントシ","town":"中村京町","town_kana":"ナカムラキョウマチ","prefecture_code":39},"0029":{"zip_code":"7870029","prefecture":"高知県","prefecture_kana":"コウチケン","city":"四万十市","city_kana":"シマントシ","town":"中村小姓町","town_kana":"ナカムラコショウマチ","prefecture_code":39},"0032":{"zip_code":"7870032","prefecture":"高知県","prefecture_kana":"コウチケン","city":"四万十市","city_kana":"シマントシ","town":"中村栄町","town_kana":"ナカムラサカエマチ","prefecture_code":39},"0002":{"zip_code":"7870002","prefecture":"高知県","prefecture_kana":"コウチケン","city":"四万十市","city_kana":"シマントシ","town":"中村桜町","town_kana":"ナカムラサクラマチ","prefecture_code":39},"0037":{"zip_code":"7870037","prefecture":"高知県","prefecture_kana":"コウチケン","city":"四万十市","city_kana":"シマントシ","town":"中村四万十町","town_kana":"ナカムラシマントチョウ","prefecture_code":39},"0022":{"zip_code":"7870022","prefecture":"高知県","prefecture_kana":"コウチケン","city":"四万十市","city_kana":"シマントシ","town":"中村新町","town_kana":"ナカムラシンマチ","prefecture_code":39},"0027":{"zip_code":"7870027","prefecture":"高知県","prefecture_kana":"コウチケン","city":"四万十市","city_kana":"シマントシ","town":"中村天神橋","town_kana":"ナカムラテンジンバシ","prefecture_code":39},"0038":{"zip_code":"7870038","prefecture":"高知県","prefecture_kana":"コウチケン","city":"四万十市","city_kana":"シマントシ","town":"中村百笑町","town_kana":"ナカムラドウメキチョウ","prefecture_code":39},"0035":{"zip_code":"7870035","prefecture":"高知県","prefecture_kana":"コウチケン","city":"四万十市","city_kana":"シマントシ","town":"中村羽生小路","town_kana":"ナカムラハブショウジ","prefecture_code":39},"0031":{"zip_code":"7870031","prefecture":"高知県","prefecture_kana":"コウチケン","city":"四万十市","city_kana":"シマントシ","town":"中村東下町","town_kana":"ナカムラヒガシシモマチ","prefecture_code":39},"0023":{"zip_code":"7870023","prefecture":"高知県","prefecture_kana":"コウチケン","city":"四万十市","city_kana":"シマントシ","town":"中村東町","town_kana":"ナカムラヒガシマチ","prefecture_code":39},"0001":{"zip_code":"7870001","prefecture":"高知県","prefecture_kana":"コウチケン","city":"四万十市","city_kana":"シマントシ","town":"中村本町","town_kana":"ナカムラホンマチ","prefecture_code":39},"0004":{"zip_code":"7870004","prefecture":"高知県","prefecture_kana":"コウチケン","city":"四万十市","city_kana":"シマントシ","town":"中村丸の内丸の内ハイランド","town_kana":"ナカムラマルノウチマルノウチハイランド","prefecture_code":39},"0003":{"zip_code":"7870003","prefecture":"高知県","prefecture_kana":"コウチケン","city":"四万十市","city_kana":"シマントシ","town":"中村丸の内","town_kana":"ナカムラマルノウチ","prefecture_code":39},"0028":{"zip_code":"7870028","prefecture":"高知県","prefecture_kana":"コウチケン","city":"四万十市","city_kana":"シマントシ","town":"中村山手通","town_kana":"ナカムラヤマテドオリ","prefecture_code":39},"0034":{"zip_code":"7870034","prefecture":"高知県","prefecture_kana":"コウチケン","city":"四万十市","city_kana":"シマントシ","town":"中村弥生町","town_kana":"ナカムラヤヨイチョウ","prefecture_code":39},"0005":{"zip_code":"7870005","prefecture":"高知県","prefecture_kana":"コウチケン","city":"四万十市","city_kana":"シマントシ","town":"中村桂山団地","town_kana":"ナカムラカツラヤマダンチ","prefecture_code":39},"0163":{"zip_code":"7870163","prefecture":"高知県","prefecture_kana":"コウチケン","city":"四万十市","city_kana":"シマントシ","town":"名鹿","town_kana":"ナシシ","prefecture_code":39},"0152":{"zip_code":"7870152","prefecture":"高知県","prefecture_kana":"コウチケン","city":"四万十市","city_kana":"シマントシ","town":"鍋島","town_kana":"ナベシマ","prefecture_code":39},"1321":{"zip_code":"7871321","prefecture":"高知県","prefecture_kana":"コウチケン","city":"四万十市","city_kana":"シマントシ","town":"西土佐岩間","town_kana":"ニシトサイワマ","prefecture_code":39},"1607":{"zip_code":"7871607","prefecture":"高知県","prefecture_kana":"コウチケン","city":"四万十市","city_kana":"シマントシ","town":"西土佐江川","town_kana":"ニシトサエカワ","prefecture_code":39},"1601":{"zip_code":"7871601","prefecture":"高知県","prefecture_kana":"コウチケン","city":"四万十市","city_kana":"シマントシ","town":"西土佐江川崎","town_kana":"ニシトサエカワサキ","prefecture_code":39},"1615":{"zip_code":"7871615","prefecture":"高知県","prefecture_kana":"コウチケン","city":"四万十市","city_kana":"シマントシ","town":"西土佐大宮","town_kana":"ニシトサオオミヤ","prefecture_code":39},"1326":{"zip_code":"7871326","prefecture":"高知県","prefecture_kana":"コウチケン","city":"四万十市","city_kana":"シマントシ","town":"西土佐奥屋内","town_kana":"ニシトサオクヤナイ","prefecture_code":39},"1322":{"zip_code":"7871322","prefecture":"高知県","prefecture_kana":"コウチケン","city":"四万十市","city_kana":"シマントシ","town":"西土佐茅生","town_kana":"ニシトサカヨウ","prefecture_code":39},"1325":{"zip_code":"7871325","prefecture":"高知県","prefecture_kana":"コウチケン","city":"四万十市","city_kana":"シマントシ","town":"西土佐玖木","town_kana":"ニシトサクキ","prefecture_code":39},"1324":{"zip_code":"7871324","prefecture":"高知県","prefecture_kana":"コウチケン","city":"四万十市","city_kana":"シマントシ","town":"西土佐口屋内","town_kana":"ニシトサクチヤナイ","prefecture_code":39},"1617":{"zip_code":"7871617","prefecture":"高知県","prefecture_kana":"コウチケン","city":"四万十市","city_kana":"シマントシ","town":"西土佐下家地","town_kana":"ニシトサシモイエジ","prefecture_code":39},"1616":{"zip_code":"7871616","prefecture":"高知県","prefecture_kana":"コウチケン","city":"四万十市","city_kana":"シマントシ","town":"西土佐須崎","town_kana":"ニシトサスサキ","prefecture_code":39},"1611":{"zip_code":"7871611","prefecture":"高知県","prefecture_kana":"コウチケン","city":"四万十市","city_kana":"シマントシ","town":"西土佐橘","town_kana":"ニシトサタチバナ","prefecture_code":39},"1613":{"zip_code":"7871613","prefecture":"高知県","prefecture_kana":"コウチケン","city":"四万十市","city_kana":"シマントシ","town":"西土佐津賀","town_kana":"ニシトサツガ","prefecture_code":39},"1612":{"zip_code":"7871612","prefecture":"高知県","prefecture_kana":"コウチケン","city":"四万十市","city_kana":"シマントシ","town":"西土佐津野川","town_kana":"ニシトサツノカワ","prefecture_code":39},"1618":{"zip_code":"7871618","prefecture":"高知県","prefecture_kana":"コウチケン","city":"四万十市","city_kana":"シマントシ","town":"西土佐中家地","town_kana":"ニシトサナカイエジ","prefecture_code":39},"1605":{"zip_code":"7871605","prefecture":"高知県","prefecture_kana":"コウチケン","city":"四万十市","city_kana":"シマントシ","town":"西土佐長生","town_kana":"ニシトサナガオイ","prefecture_code":39},"1323":{"zip_code":"7871323","prefecture":"高知県","prefecture_kana":"コウチケン","city":"四万十市","city_kana":"シマントシ","town":"西土佐中半","town_kana":"ニシトサナカバ","prefecture_code":39},"1602":{"zip_code":"7871602","prefecture":"高知県","prefecture_kana":"コウチケン","city":"四万十市","city_kana":"シマントシ","town":"西土佐西ケ方","town_kana":"ニシトサニシガホウ","prefecture_code":39},"1606":{"zip_code":"7871606","prefecture":"高知県","prefecture_kana":"コウチケン","city":"四万十市","city_kana":"シマントシ","town":"西土佐半家","town_kana":"ニシトサハゲ","prefecture_code":39},"1604":{"zip_code":"7871604","prefecture":"高知県","prefecture_kana":"コウチケン","city":"四万十市","city_kana":"シマントシ","town":"西土佐藤ノ川","town_kana":"ニシトサフジノカワ","prefecture_code":39},"1603":{"zip_code":"7871603","prefecture":"高知県","prefecture_kana":"コウチケン","city":"四万十市","city_kana":"シマントシ","town":"西土佐用井","town_kana":"ニシトサモチイ","prefecture_code":39},"1614":{"zip_code":"7871614","prefecture":"高知県","prefecture_kana":"コウチケン","city":"四万十市","city_kana":"シマントシ","town":"西土佐薮ケ市","town_kana":"ニシトサヤブガイチ","prefecture_code":39},"0020":{"zip_code":"7870020","prefecture":"高知県","prefecture_kana":"コウチケン","city":"四万十市","city_kana":"シマントシ","town":"入田","town_kana":"ニュウタ","prefecture_code":39},"0162":{"zip_code":"7870162","prefecture":"高知県","prefecture_kana":"コウチケン","city":"四万十市","city_kana":"シマントシ","town":"初崎","town_kana":"ハツザキ","prefecture_code":39},"0154":{"zip_code":"7870154","prefecture":"高知県","prefecture_kana":"コウチケン","city":"四万十市","city_kana":"シマントシ","town":"平野","town_kana":"ヒラノ","prefecture_code":39},"0159":{"zip_code":"7870159","prefecture":"高知県","prefecture_kana":"コウチケン","city":"四万十市","city_kana":"シマントシ","town":"深木","town_kana":"フカキ","prefecture_code":39},"1444":{"zip_code":"7871444","prefecture":"高知県","prefecture_kana":"コウチケン","city":"四万十市","city_kana":"シマントシ","town":"藤","town_kana":"フジ","prefecture_code":39},"0153":{"zip_code":"7870153","prefecture":"高知県","prefecture_kana":"コウチケン","city":"四万十市","city_kana":"シマントシ","town":"双海","town_kana":"フタミ","prefecture_code":39},"0017":{"zip_code":"7870017","prefecture":"高知県","prefecture_kana":"コウチケン","city":"四万十市","city_kana":"シマントシ","town":"不破","town_kana":"フバ","prefecture_code":39},"0018":{"zip_code":"7870018","prefecture":"高知県","prefecture_kana":"コウチケン","city":"四万十市","city_kana":"シマントシ","town":"不破上町","town_kana":"フバカミマチ","prefecture_code":39},"0160":{"zip_code":"7870160","prefecture":"高知県","prefecture_kana":"コウチケン","city":"四万十市","city_kana":"シマントシ","town":"間崎","town_kana":"マサキ","prefecture_code":39},"1221":{"zip_code":"7871221","prefecture":"高知県","prefecture_kana":"コウチケン","city":"四万十市","city_kana":"シマントシ","town":"三里","town_kana":"ミサト","prefecture_code":39},"1555":{"zip_code":"7871555","prefecture":"高知県","prefecture_kana":"コウチケン","city":"四万十市","city_kana":"シマントシ","town":"三ツ又","town_kana":"ミツマタ","prefecture_code":39},"0665":{"zip_code":"7870665","prefecture":"高知県","prefecture_kana":"コウチケン","city":"四万十市","city_kana":"シマントシ","town":"森沢","town_kana":"モリサワ","prefecture_code":39},"0008":{"zip_code":"7870008","prefecture":"高知県","prefecture_kana":"コウチケン","city":"四万十市","city_kana":"シマントシ","town":"安並","town_kana":"ヤスナミ","prefecture_code":39},"0157":{"zip_code":"7870157","prefecture":"高知県","prefecture_kana":"コウチケン","city":"四万十市","city_kana":"シマントシ","town":"山路","town_kana":"ヤマチ","prefecture_code":39},"0772":{"zip_code":"7870772","prefecture":"高知県","prefecture_kana":"コウチケン","city":"四万十市","city_kana":"シマントシ","town":"横瀬","town_kana":"ヨコゼ","prefecture_code":39},"1104":{"zip_code":"7871104","prefecture":"高知県","prefecture_kana":"コウチケン","city":"四万十市","city_kana":"シマントシ","town":"若藤","town_kana":"ワカフジ","prefecture_code":39},"0050":{"zip_code":"7870050","prefecture":"高知県","prefecture_kana":"コウチケン","city":"四万十市","city_kana":"シマントシ","town":"渡川","town_kana":"ワタリガワ","prefecture_code":39},"1443":{"zip_code":"7871443","prefecture":"高知県","prefecture_kana":"コウチケン","city":"四万十市","city_kana":"シマントシ","town":"蕨岡乙","town_kana":"ワラビオカオツ","prefecture_code":39},"1442":{"zip_code":"7871442","prefecture":"高知県","prefecture_kana":"コウチケン","city":"四万十市","city_kana":"シマントシ","town":"蕨岡甲","town_kana":"ワラビオカコウ","prefecture_code":39},"0800":{"zip_code":"7870800","prefecture":"高知県","prefecture_kana":"コウチケン","city":"幡多郡三原村","city_kana":"ハタグンミハラムラ","town":"","town_kana":"","prefecture_code":39},"0806":{"zip_code":"7870806","prefecture":"高知県","prefecture_kana":"コウチケン","city":"幡多郡三原村","city_kana":"ハタグンミハラムラ","town":"狼内","town_kana":"オオカミウチ","prefecture_code":39},"0804":{"zip_code":"7870804","prefecture":"高知県","prefecture_kana":"コウチケン","city":"幡多郡三原村","city_kana":"ハタグンミハラムラ","town":"上下長谷","town_kana":"カミシモナガタニ","prefecture_code":39},"0805":{"zip_code":"7870805","prefecture":"高知県","prefecture_kana":"コウチケン","city":"幡多郡三原村","city_kana":"ハタグンミハラムラ","town":"上長谷","town_kana":"カミナガタニ","prefecture_code":39},"0815":{"zip_code":"7870815","prefecture":"高知県","prefecture_kana":"コウチケン","city":"幡多郡三原村","city_kana":"ハタグンミハラムラ","town":"亀ノ川","town_kana":"カメノカワ","prefecture_code":39},"0803":{"zip_code":"7870803","prefecture":"高知県","prefecture_kana":"コウチケン","city":"幡多郡三原村","city_kana":"ハタグンミハラムラ","town":"来栖野","town_kana":"クルスノ","prefecture_code":39},"0816":{"zip_code":"7870816","prefecture":"高知県","prefecture_kana":"コウチケン","city":"幡多郡三原村","city_kana":"ハタグンミハラムラ","town":"下切","town_kana":"シタギリ","prefecture_code":39},"0812":{"zip_code":"7870812","prefecture":"高知県","prefecture_kana":"コウチケン","city":"幡多郡三原村","city_kana":"ハタグンミハラムラ","town":"下長谷","town_kana":"シモナガタニ","prefecture_code":39},"0807":{"zip_code":"7870807","prefecture":"高知県","prefecture_kana":"コウチケン","city":"幡多郡三原村","city_kana":"ハタグンミハラムラ","town":"成山","town_kana":"ナルヤマ","prefecture_code":39},"0814":{"zip_code":"7870814","prefecture":"高知県","prefecture_kana":"コウチケン","city":"幡多郡三原村","city_kana":"ハタグンミハラムラ","town":"広野","town_kana":"ヒロノ","prefecture_code":39},"0813":{"zip_code":"7870813","prefecture":"高知県","prefecture_kana":"コウチケン","city":"幡多郡三原村","city_kana":"ハタグンミハラムラ","town":"皆尾","town_kana":"ミナオ","prefecture_code":39},"0802":{"zip_code":"7870802","prefecture":"高知県","prefecture_kana":"コウチケン","city":"幡多郡三原村","city_kana":"ハタグンミハラムラ","town":"宮ノ川","town_kana":"ミヤノカワ","prefecture_code":39},"0801":{"zip_code":"7870801","prefecture":"高知県","prefecture_kana":"コウチケン","city":"幡多郡三原村","city_kana":"ハタグンミハラムラ","town":"柚ノ木","town_kana":"ユノキ","prefecture_code":39},"0811":{"zip_code":"7870811","prefecture":"高知県","prefecture_kana":"コウチケン","city":"幡多郡三原村","city_kana":"ハタグンミハラムラ","town":"芳井","town_kana":"ヨシイ","prefecture_code":39}}