{"0000":{"zip_code":"7880000","prefecture":"高知県","prefecture_kana":"コウチケン","city":"宿毛市","city_kana":"スクモシ","town":"","town_kana":"","prefecture_code":39},"0021":{"zip_code":"7880021","prefecture":"高知県","prefecture_kana":"コウチケン","city":"宿毛市","city_kana":"スクモシ","town":"池島","town_kana":"イケシマ","prefecture_code":39},"0023":{"zip_code":"7880023","prefecture":"高知県","prefecture_kana":"コウチケン","city":"宿毛市","city_kana":"スクモシ","town":"宇須々木","town_kana":"ウススキ","prefecture_code":39},"0009":{"zip_code":"7880009","prefecture":"高知県","prefecture_kana":"コウチケン","city":"宿毛市","city_kana":"スクモシ","town":"駅東町","town_kana":"エキヒガシマチ","prefecture_code":39},"0010":{"zip_code":"7880010","prefecture":"高知県","prefecture_kana":"コウチケン","city":"宿毛市","city_kana":"スクモシ","town":"駅前町","town_kana":"エキマエチョウ","prefecture_code":39},"0014":{"zip_code":"7880014","prefecture":"高知県","prefecture_kana":"コウチケン","city":"宿毛市","city_kana":"スクモシ","town":"大島","town_kana":"オオシマ","prefecture_code":39},"0034":{"zip_code":"7880034","prefecture":"高知県","prefecture_kana":"コウチケン","city":"宿毛市","city_kana":"スクモシ","town":"大深浦","town_kana":"オオブカウラ","prefecture_code":39},"0679":{"zip_code":"7880679","prefecture":"高知県","prefecture_kana":"コウチケン","city":"宿毛市","city_kana":"スクモシ","town":"沖の島町鵜来島","town_kana":"オキノシマチョウウグルシマ","prefecture_code":39},"0678":{"zip_code":"7880678","prefecture":"高知県","prefecture_kana":"コウチケン","city":"宿毛市","city_kana":"スクモシ","town":"沖の島町弘瀬","town_kana":"オキノシマチョウヒロセ","prefecture_code":39},"0677":{"zip_code":"7880677","prefecture":"高知県","prefecture_kana":"コウチケン","city":"宿毛市","city_kana":"スクモシ","town":"沖の島町母島","town_kana":"オキノシマチョウモシマ","prefecture_code":39},"0051":{"zip_code":"7880051","prefecture":"高知県","prefecture_kana":"コウチケン","city":"宿毛市","city_kana":"スクモシ","town":"押ノ川","town_kana":"オシノカワ","prefecture_code":39},"0031":{"zip_code":"7880031","prefecture":"高知県","prefecture_kana":"コウチケン","city":"宿毛市","city_kana":"スクモシ","town":"貝塚","town_kana":"カイヅカ","prefecture_code":39},"0013":{"zip_code":"7880013","prefecture":"高知県","prefecture_kana":"コウチケン","city":"宿毛市","city_kana":"スクモシ","town":"片島","town_kana":"カタシマ","prefecture_code":39},"0024":{"zip_code":"7880024","prefecture":"高知県","prefecture_kana":"コウチケン","city":"宿毛市","city_kana":"スクモシ","town":"樺","town_kana":"カバ","prefecture_code":39},"0035":{"zip_code":"7880035","prefecture":"高知県","prefecture_kana":"コウチケン","city":"宿毛市","city_kana":"スクモシ","town":"草木薮","town_kana":"クサギヤブ","prefecture_code":39},"0027":{"zip_code":"7880027","prefecture":"高知県","prefecture_kana":"コウチケン","city":"宿毛市","city_kana":"スクモシ","town":"港南台","town_kana":"コウナンダイ","prefecture_code":39},"0272":{"zip_code":"7880272","prefecture":"高知県","prefecture_kana":"コウチケン","city":"宿毛市","city_kana":"スクモシ","town":"小筑紫町石原","town_kana":"コヅクシチョウイシハラ","prefecture_code":39},"0267":{"zip_code":"7880267","prefecture":"高知県","prefecture_kana":"コウチケン","city":"宿毛市","city_kana":"スクモシ","town":"小筑紫町伊与野","town_kana":"コヅクシチョウイヨノ","prefecture_code":39},"0266":{"zip_code":"7880266","prefecture":"高知県","prefecture_kana":"コウチケン","city":"宿毛市","city_kana":"スクモシ","town":"小筑紫町大海","town_kana":"コヅクシチョウオオミ","prefecture_code":39},"0262":{"zip_code":"7880262","prefecture":"高知県","prefecture_kana":"コウチケン","city":"宿毛市","city_kana":"スクモシ","town":"小筑紫町小浦","town_kana":"コヅクシチョウコウラ","prefecture_code":39},"0271":{"zip_code":"7880271","prefecture":"高知県","prefecture_kana":"コウチケン","city":"宿毛市","city_kana":"スクモシ","town":"小筑紫町小筑紫","town_kana":"コヅクシチョウコヅクシ","prefecture_code":39},"0274":{"zip_code":"7880274","prefecture":"高知県","prefecture_kana":"コウチケン","city":"宿毛市","city_kana":"スクモシ","town":"小筑紫町栄喜","town_kana":"コヅクシチョウサカキ","prefecture_code":39},"0261":{"zip_code":"7880261","prefecture":"高知県","prefecture_kana":"コウチケン","city":"宿毛市","city_kana":"スクモシ","town":"小筑紫町田ノ浦","town_kana":"コヅクシチョウタノウラ","prefecture_code":39},"0268":{"zip_code":"7880268","prefecture":"高知県","prefecture_kana":"コウチケン","city":"宿毛市","city_kana":"スクモシ","town":"小筑紫町都賀ノ川","town_kana":"コヅクシチョウツガノガワ","prefecture_code":39},"0263":{"zip_code":"7880263","prefecture":"高知県","prefecture_kana":"コウチケン","city":"宿毛市","city_kana":"スクモシ","town":"小筑紫町内外ノ浦","town_kana":"コヅクシチョウナイガイノウラ","prefecture_code":39},"0273":{"zip_code":"7880273","prefecture":"高知県","prefecture_kana":"コウチケン","city":"宿毛市","city_kana":"スクモシ","town":"小筑紫町福良","town_kana":"コヅクシチョウフクラ","prefecture_code":39},"0265":{"zip_code":"7880265","prefecture":"高知県","prefecture_kana":"コウチケン","city":"宿毛市","city_kana":"スクモシ","town":"小筑紫町湊","town_kana":"コヅクシチョウミナト","prefecture_code":39},"0264":{"zip_code":"7880264","prefecture":"高知県","prefecture_kana":"コウチケン","city":"宿毛市","city_kana":"スクモシ","town":"小筑紫町呼崎","town_kana":"コヅクシチョウヨビサキ","prefecture_code":39},"0033":{"zip_code":"7880033","prefecture":"高知県","prefecture_kana":"コウチケン","city":"宿毛市","city_kana":"スクモシ","town":"小深浦","town_kana":"コブカウラ","prefecture_code":39},"0003":{"zip_code":"7880003","prefecture":"高知県","prefecture_kana":"コウチケン","city":"宿毛市","city_kana":"スクモシ","town":"幸町","town_kana":"サイワイチョウ","prefecture_code":39},"0053":{"zip_code":"7880053","prefecture":"高知県","prefecture_kana":"コウチケン","city":"宿毛市","city_kana":"スクモシ","town":"坂ノ下","town_kana":"サカノシタ","prefecture_code":39},"0054":{"zip_code":"7880054","prefecture":"高知県","prefecture_kana":"コウチケン","city":"宿毛市","city_kana":"スクモシ","town":"さくらが丘","town_kana":"サクラガオカ","prefecture_code":39},"0006":{"zip_code":"7880006","prefecture":"高知県","prefecture_kana":"コウチケン","city":"宿毛市","city_kana":"スクモシ","town":"桜町","town_kana":"サクラマチ","prefecture_code":39},"0030":{"zip_code":"7880030","prefecture":"高知県","prefecture_kana":"コウチケン","city":"宿毛市","city_kana":"スクモシ","town":"四季の丘","town_kana":"シキノオカ","prefecture_code":39},"0026":{"zip_code":"7880026","prefecture":"高知県","prefecture_kana":"コウチケン","city":"宿毛市","city_kana":"スクモシ","town":"自由ケ丘","town_kana":"ジユウガオカ","prefecture_code":39},"0028":{"zip_code":"7880028","prefecture":"高知県","prefecture_kana":"コウチケン","city":"宿毛市","city_kana":"スクモシ","town":"新港","town_kana":"シンコウ","prefecture_code":39},"0011":{"zip_code":"7880011","prefecture":"高知県","prefecture_kana":"コウチケン","city":"宿毛市","city_kana":"スクモシ","town":"新田","town_kana":"シンデン","prefecture_code":39},"0012":{"zip_code":"7880012","prefecture":"高知県","prefecture_kana":"コウチケン","city":"宿毛市","city_kana":"スクモシ","town":"高砂","town_kana":"タカサゴ","prefecture_code":39},"0001":{"zip_code":"7880001","prefecture":"高知県","prefecture_kana":"コウチケン","city":"宿毛市","city_kana":"スクモシ","town":"中央","town_kana":"チュウオウ","prefecture_code":39},"0039":{"zip_code":"7880039","prefecture":"高知県","prefecture_kana":"コウチケン","city":"宿毛市","city_kana":"スクモシ","town":"中角","town_kana":"ナカツノ","prefecture_code":39},"0004":{"zip_code":"7880004","prefecture":"高知県","prefecture_kana":"コウチケン","city":"宿毛市","city_kana":"スクモシ","town":"長田町","town_kana":"ナガタチョウ","prefecture_code":39},"0015":{"zip_code":"7880015","prefecture":"高知県","prefecture_kana":"コウチケン","city":"宿毛市","city_kana":"スクモシ","town":"西片島","town_kana":"ニシカタシマ","prefecture_code":39},"0032":{"zip_code":"7880032","prefecture":"高知県","prefecture_kana":"コウチケン","city":"宿毛市","city_kana":"スクモシ","town":"錦","town_kana":"ニシキ","prefecture_code":39},"0025":{"zip_code":"7880025","prefecture":"高知県","prefecture_kana":"コウチケン","city":"宿毛市","city_kana":"スクモシ","town":"西町","town_kana":"ニシマチ","prefecture_code":39},"0038":{"zip_code":"7880038","prefecture":"高知県","prefecture_kana":"コウチケン","city":"宿毛市","city_kana":"スクモシ","town":"二ノ宮","town_kana":"ニノミヤ","prefecture_code":39},"0036":{"zip_code":"7880036","prefecture":"高知県","prefecture_kana":"コウチケン","city":"宿毛市","city_kana":"スクモシ","town":"野地","town_kana":"ノジ","prefecture_code":39},"0005":{"zip_code":"7880005","prefecture":"高知県","prefecture_kana":"コウチケン","city":"宿毛市","city_kana":"スクモシ","town":"萩原","town_kana":"ハギワラ","prefecture_code":39},"0041":{"zip_code":"7880041","prefecture":"高知県","prefecture_kana":"コウチケン","city":"宿毛市","city_kana":"スクモシ","town":"橋上町出井","town_kana":"ハシカミチョウイデイ","prefecture_code":39},"0045":{"zip_code":"7880045","prefecture":"高知県","prefecture_kana":"コウチケン","city":"宿毛市","city_kana":"スクモシ","town":"橋上町奥奈路","town_kana":"ハシカミチョウオクナロ","prefecture_code":39},"0044":{"zip_code":"7880044","prefecture":"高知県","prefecture_kana":"コウチケン","city":"宿毛市","city_kana":"スクモシ","town":"橋上町神有","town_kana":"ハシカミチョウカミアリ","prefecture_code":39},"0048":{"zip_code":"7880048","prefecture":"高知県","prefecture_kana":"コウチケン","city":"宿毛市","city_kana":"スクモシ","town":"橋上町京法","town_kana":"ハシカミチョウキョウホウ","prefecture_code":39},"0042":{"zip_code":"7880042","prefecture":"高知県","prefecture_kana":"コウチケン","city":"宿毛市","city_kana":"スクモシ","town":"橋上町楠山","town_kana":"ハシカミチョウクスヤマ","prefecture_code":39},"0049":{"zip_code":"7880049","prefecture":"高知県","prefecture_kana":"コウチケン","city":"宿毛市","city_kana":"スクモシ","town":"橋上町還住薮","town_kana":"ハシカミチョウゲンジュヤブ","prefecture_code":39},"0043":{"zip_code":"7880043","prefecture":"高知県","prefecture_kana":"コウチケン","city":"宿毛市","city_kana":"スクモシ","town":"橋上町坂本","town_kana":"ハシカミチョウサカモト","prefecture_code":39},"0046":{"zip_code":"7880046","prefecture":"高知県","prefecture_kana":"コウチケン","city":"宿毛市","city_kana":"スクモシ","town":"橋上町橋上","town_kana":"ハシカミチョウハシカミ","prefecture_code":39},"0047":{"zip_code":"7880047","prefecture":"高知県","prefecture_kana":"コウチケン","city":"宿毛市","city_kana":"スクモシ","town":"橋上町平野","town_kana":"ハシカミチョウヒラノ","prefecture_code":39},"0781":{"zip_code":"7880781","prefecture":"高知県","prefecture_kana":"コウチケン","city":"宿毛市","city_kana":"スクモシ","town":"平田町黒川","town_kana":"ヒラタチョウクロカワ","prefecture_code":39},"0782":{"zip_code":"7880782","prefecture":"高知県","prefecture_kana":"コウチケン","city":"宿毛市","city_kana":"スクモシ","town":"平田町中山","town_kana":"ヒラタチョウナカヤマ","prefecture_code":39},"0786":{"zip_code":"7880786","prefecture":"高知県","prefecture_kana":"コウチケン","city":"宿毛市","city_kana":"スクモシ","town":"平田町東平","town_kana":"ヒラタチョウヒガシダイラ","prefecture_code":39},"0783":{"zip_code":"7880783","prefecture":"高知県","prefecture_kana":"コウチケン","city":"宿毛市","city_kana":"スクモシ","town":"平田町戸内","town_kana":"ヒラタチョウヘナイ","prefecture_code":39},"0007":{"zip_code":"7880007","prefecture":"高知県","prefecture_kana":"コウチケン","city":"宿毛市","city_kana":"スクモシ","town":"松田町","town_kana":"マツダマチ","prefecture_code":39},"0002":{"zip_code":"7880002","prefecture":"高知県","prefecture_kana":"コウチケン","city":"宿毛市","city_kana":"スクモシ","town":"南沖須賀","town_kana":"ミナミオキスガ","prefecture_code":39},"0022":{"zip_code":"7880022","prefecture":"高知県","prefecture_kana":"コウチケン","city":"宿毛市","city_kana":"スクモシ","town":"藻津","town_kana":"ムクヅ","prefecture_code":39},"0037":{"zip_code":"7880037","prefecture":"高知県","prefecture_kana":"コウチケン","city":"宿毛市","city_kana":"スクモシ","town":"山北","town_kana":"ヤマキタ","prefecture_code":39},"0784":{"zip_code":"7880784","prefecture":"高知県","prefecture_kana":"コウチケン","city":"宿毛市","city_kana":"スクモシ","town":"山奈町山田","town_kana":"ヤマナチョウヤマダ","prefecture_code":39},"0785":{"zip_code":"7880785","prefecture":"高知県","prefecture_kana":"コウチケン","city":"宿毛市","city_kana":"スクモシ","town":"山奈町芳奈","town_kana":"ヤマナチョウヨシナ","prefecture_code":39},"0008":{"zip_code":"7880008","prefecture":"高知県","prefecture_kana":"コウチケン","city":"宿毛市","city_kana":"スクモシ","town":"与市明","town_kana":"ヨイチミョウ","prefecture_code":39},"0052":{"zip_code":"7880052","prefecture":"高知県","prefecture_kana":"コウチケン","city":"宿毛市","city_kana":"スクモシ","town":"和田","town_kana":"ワダ","prefecture_code":39},"0300":{"zip_code":"7880300","prefecture":"高知県","prefecture_kana":"コウチケン","city":"幡多郡大月町","city_kana":"ハタグンオオツキチョウ","town":"","town_kana":"","prefecture_code":39},"0332":{"zip_code":"7880332","prefecture":"高知県","prefecture_kana":"コウチケン","city":"幡多郡大月町","city_kana":"ハタグンオオツキチョウ","town":"赤泊","town_kana":"アカドマリ","prefecture_code":39},"0351":{"zip_code":"7880351","prefecture":"高知県","prefecture_kana":"コウチケン","city":"幡多郡大月町","city_kana":"ハタグンオオツキチョウ","town":"安満地","town_kana":"アマジ","prefecture_code":39},"0342":{"zip_code":"7880342","prefecture":"高知県","prefecture_kana":"コウチケン","city":"幡多郡大月町","city_kana":"ハタグンオオツキチョウ","town":"一切","town_kana":"イッサイ","prefecture_code":39},"0324":{"zip_code":"7880324","prefecture":"高知県","prefecture_kana":"コウチケン","city":"幡多郡大月町","city_kana":"ハタグンオオツキチョウ","town":"大浦","town_kana":"オオウラ","prefecture_code":39},"0334":{"zip_code":"7880334","prefecture":"高知県","prefecture_kana":"コウチケン","city":"幡多郡大月町","city_kana":"ハタグンオオツキチョウ","town":"樫ノ浦","town_kana":"カシノウラ","prefecture_code":39},"0314":{"zip_code":"7880314","prefecture":"高知県","prefecture_kana":"コウチケン","city":"幡多郡大月町","city_kana":"ハタグンオオツキチョウ","town":"頭集","town_kana":"カシラツドイ","prefecture_code":39},"0343":{"zip_code":"7880343","prefecture":"高知県","prefecture_kana":"コウチケン","city":"幡多郡大月町","city_kana":"ハタグンオオツキチョウ","town":"柏島","town_kana":"カシワジマ","prefecture_code":39},"0335":{"zip_code":"7880335","prefecture":"高知県","prefecture_kana":"コウチケン","city":"幡多郡大月町","city_kana":"ハタグンオオツキチョウ","town":"唐岩","town_kana":"カライワ","prefecture_code":39},"0331":{"zip_code":"7880331","prefecture":"高知県","prefecture_kana":"コウチケン","city":"幡多郡大月町","city_kana":"ハタグンオオツキチョウ","town":"姫ノ井","town_kana":"ヒメノイ","prefecture_code":39},"0322":{"zip_code":"7880322","prefecture":"高知県","prefecture_kana":"コウチケン","city":"幡多郡大月町","city_kana":"ハタグンオオツキチョウ","town":"小才角","town_kana":"コサイツノ","prefecture_code":39},"0315":{"zip_code":"7880315","prefecture":"高知県","prefecture_kana":"コウチケン","city":"幡多郡大月町","city_kana":"ハタグンオオツキチョウ","town":"古満目","town_kana":"コマメ","prefecture_code":39},"0323":{"zip_code":"7880323","prefecture":"高知県","prefecture_kana":"コウチケン","city":"幡多郡大月町","city_kana":"ハタグンオオツキチョウ","town":"才角","town_kana":"サイツノ","prefecture_code":39},"0312":{"zip_code":"7880312","prefecture":"高知県","prefecture_kana":"コウチケン","city":"幡多郡大月町","city_kana":"ハタグンオオツキチョウ","town":"清王","town_kana":"セイオウ","prefecture_code":39},"0363":{"zip_code":"7880363","prefecture":"高知県","prefecture_kana":"コウチケン","city":"幡多郡大月町","city_kana":"ハタグンオオツキチョウ","town":"添ノ川","town_kana":"ソイノカワ","prefecture_code":39},"0313":{"zip_code":"7880313","prefecture":"高知県","prefecture_kana":"コウチケン","city":"幡多郡大月町","city_kana":"ハタグンオオツキチョウ","town":"周防形","town_kana":"ソオウガタ","prefecture_code":39},"0352":{"zip_code":"7880352","prefecture":"高知県","prefecture_kana":"コウチケン","city":"幡多郡大月町","city_kana":"ハタグンオオツキチョウ","town":"橘浦","town_kana":"タチバナウラ","prefecture_code":39},"0361":{"zip_code":"7880361","prefecture":"高知県","prefecture_kana":"コウチケン","city":"幡多郡大月町","city_kana":"ハタグンオオツキチョウ","town":"龍ケ迫","town_kana":"タツガサコ","prefecture_code":39},"0325":{"zip_code":"7880325","prefecture":"高知県","prefecture_kana":"コウチケン","city":"幡多郡大月町","city_kana":"ハタグンオオツキチョウ","town":"月ケ丘","town_kana":"ツキガオカ","prefecture_code":39},"0353":{"zip_code":"7880353","prefecture":"高知県","prefecture_kana":"コウチケン","city":"幡多郡大月町","city_kana":"ハタグンオオツキチョウ","town":"泊浦","town_kana":"トマリウラ","prefecture_code":39},"0333":{"zip_code":"7880333","prefecture":"高知県","prefecture_kana":"コウチケン","city":"幡多郡大月町","city_kana":"ハタグンオオツキチョウ","town":"西泊","town_kana":"ニシドマリ","prefecture_code":39},"0321":{"zip_code":"7880321","prefecture":"高知県","prefecture_kana":"コウチケン","city":"幡多郡大月町","city_kana":"ハタグンオオツキチョウ","town":"春遠","town_kana":"ハルドオ","prefecture_code":39},"0341":{"zip_code":"7880341","prefecture":"高知県","prefecture_kana":"コウチケン","city":"幡多郡大月町","city_kana":"ハタグンオオツキチョウ","town":"平山","town_kana":"ヒラヤマ","prefecture_code":39},"0302":{"zip_code":"7880302","prefecture":"高知県","prefecture_kana":"コウチケン","city":"幡多郡大月町","city_kana":"ハタグンオオツキチョウ","town":"弘見","town_kana":"ヒロミ","prefecture_code":39},"0311":{"zip_code":"7880311","prefecture":"高知県","prefecture_kana":"コウチケン","city":"幡多郡大月町","city_kana":"ハタグンオオツキチョウ","town":"鉾土","town_kana":"ホコツチ","prefecture_code":39},"0362":{"zip_code":"7880362","prefecture":"高知県","prefecture_kana":"コウチケン","city":"幡多郡大月町","city_kana":"ハタグンオオツキチョウ","town":"芳ノ沢","town_kana":"ヨシノサワ","prefecture_code":39}}