{"0582":{"zip_code":"7890582","prefecture":"高知県","prefecture_kana":"コウチケン","city":"香美市","city_kana":"カミシ","town":"土佐山田町角茂谷","town_kana":"トサヤマダチョウカクモダニ","prefecture_code":39},"0586":{"zip_code":"7890586","prefecture":"高知県","prefecture_kana":"コウチケン","city":"香美市","city_kana":"カミシ","town":"土佐山田町樫谷","town_kana":"トサヤマダチョウカシノタニ","prefecture_code":39},"0587":{"zip_code":"7890587","prefecture":"高知県","prefecture_kana":"コウチケン","city":"香美市","city_kana":"カミシ","town":"土佐山田町上穴内","town_kana":"トサヤマダチョウカミアナナイ","prefecture_code":39},"0584":{"zip_code":"7890584","prefecture":"高知県","prefecture_kana":"コウチケン","city":"香美市","city_kana":"カミシ","town":"土佐山田町北滝本","town_kana":"トサヤマダチョウキタタキモト","prefecture_code":39},"0585":{"zip_code":"7890585","prefecture":"高知県","prefecture_kana":"コウチケン","city":"香美市","city_kana":"カミシ","town":"土佐山田町繁藤","town_kana":"トサヤマダチョウシゲトウ","prefecture_code":39},"0581":{"zip_code":"7890581","prefecture":"高知県","prefecture_kana":"コウチケン","city":"香美市","city_kana":"カミシ","town":"土佐山田町西又","town_kana":"トサヤマダチョウニシマタ","prefecture_code":39},"0583":[{"zip_code":"7890583","prefecture":"高知県","prefecture_kana":"コウチケン","city":"香美市","city_kana":"カミシ","town":"土佐山田町平山","town_kana":"トサヤマダチョウヒラヤマ","prefecture_code":39},{"zip_code":"7890583","prefecture":"高知県","prefecture_kana":"コウチケン","city":"香美市","city_kana":"カミシ","town":"土佐山田町平山岡田丸","town_kana":"トサヤマダチョウヒラヤマオカダマル","prefecture_code":39},{"zip_code":"7890583","prefecture":"高知県","prefecture_kana":"コウチケン","city":"香美市","city_kana":"カミシ","town":"土佐山田町平山双子岩","town_kana":"トサヤマダチョウヒラヤマフタゴイワ","prefecture_code":39},{"zip_code":"7890583","prefecture":"高知県","prefecture_kana":"コウチケン","city":"香美市","city_kana":"カミシ","town":"土佐山田町平山向田","town_kana":"トサヤマダチョウヒラヤマムカイダ","prefecture_code":39}],"0300":{"zip_code":"7890300","prefecture":"高知県","prefecture_kana":"コウチケン","city":"長岡郡大豊町","city_kana":"ナガオカグンオオトヨチョウ","town":"","town_kana":"","prefecture_code":39},"0167":{"zip_code":"7890167","prefecture":"高知県","prefecture_kana":"コウチケン","city":"長岡郡大豊町","city_kana":"ナガオカグンオオトヨチョウ","town":"粟生","town_kana":"アオウ","prefecture_code":39},"0307":{"zip_code":"7890307","prefecture":"高知県","prefecture_kana":"コウチケン","city":"長岡郡大豊町","city_kana":"ナガオカグンオオトヨチョウ","town":"穴内","town_kana":"アナナイ","prefecture_code":39},"0237":{"zip_code":"7890237","prefecture":"高知県","prefecture_kana":"コウチケン","city":"長岡郡大豊町","city_kana":"ナガオカグンオオトヨチョウ","town":"庵谷","town_kana":"イオノタニ","prefecture_code":39},"0157":{"zip_code":"7890157","prefecture":"高知県","prefecture_kana":"コウチケン","city":"長岡郡大豊町","city_kana":"ナガオカグンオオトヨチョウ","town":"筏木","town_kana":"イカダギ","prefecture_code":39},"0233":{"zip_code":"7890233","prefecture":"高知県","prefecture_kana":"コウチケン","city":"長岡郡大豊町","city_kana":"ナガオカグンオオトヨチョウ","town":"磯谷","town_kana":"イソダニ","prefecture_code":39},"0158":{"zip_code":"7890158","prefecture":"高知県","prefecture_kana":"コウチケン","city":"長岡郡大豊町","city_kana":"ナガオカグンオオトヨチョウ","town":"岩原","town_kana":"イワハラ","prefecture_code":39},"0323":{"zip_code":"7890323","prefecture":"高知県","prefecture_kana":"コウチケン","city":"長岡郡大豊町","city_kana":"ナガオカグンオオトヨチョウ","town":"馬瀬","town_kana":"ウマゼ","prefecture_code":39},"0306":{"zip_code":"7890306","prefecture":"高知県","prefecture_kana":"コウチケン","city":"長岡郡大豊町","city_kana":"ナガオカグンオオトヨチョウ","town":"尾生","town_kana":"オウ","prefecture_code":39},"0248":{"zip_code":"7890248","prefecture":"高知県","prefecture_kana":"コウチケン","city":"長岡郡大豊町","city_kana":"ナガオカグンオオトヨチョウ","town":"大久保","town_kana":"オオクボ","prefecture_code":39},"0247":{"zip_code":"7890247","prefecture":"高知県","prefecture_kana":"コウチケン","city":"長岡郡大豊町","city_kana":"ナガオカグンオオトヨチョウ","town":"大砂子","town_kana":"オオスナゴ","prefecture_code":39},"0173":[{"zip_code":"7890173","prefecture":"高知県","prefecture_kana":"コウチケン","city":"長岡郡大豊町","city_kana":"ナガオカグンオオトヨチョウ","town":"大平","town_kana":"オオダイラ","prefecture_code":39},{"zip_code":"7890173","prefecture":"高知県","prefecture_kana":"コウチケン","city":"長岡郡大豊町","city_kana":"ナガオカグンオオトヨチョウ","town":"大平高原","town_kana":"オオダイラタカハラ","prefecture_code":39}],"0169":{"zip_code":"7890169","prefecture":"高知県","prefecture_kana":"コウチケン","city":"長岡郡大豊町","city_kana":"ナガオカグンオオトヨチョウ","town":"大平","town_kana":"オオダイラ","prefecture_code":39},"0170":[{"zip_code":"7890170","prefecture":"高知県","prefecture_kana":"コウチケン","city":"長岡郡大豊町","city_kana":"ナガオカグンオオトヨチョウ","town":"大滝","town_kana":"オオダキ","prefecture_code":39},{"zip_code":"7890170","prefecture":"高知県","prefecture_kana":"コウチケン","city":"長岡郡大豊町","city_kana":"ナガオカグンオオトヨチョウ","town":"大滝落合","town_kana":"オオダキオチアイ","prefecture_code":39}],"0171":{"zip_code":"7890171","prefecture":"高知県","prefecture_kana":"コウチケン","city":"長岡郡大豊町","city_kana":"ナガオカグンオオトヨチョウ","town":"大滝","town_kana":"オオダキ","prefecture_code":39},"0316":{"zip_code":"7890316","prefecture":"高知県","prefecture_kana":"コウチケン","city":"長岡郡大豊町","city_kana":"ナガオカグンオオトヨチョウ","town":"小川","town_kana":"オガワ","prefecture_code":39},"0231":{"zip_code":"7890231","prefecture":"高知県","prefecture_kana":"コウチケン","city":"長岡郡大豊町","city_kana":"ナガオカグンオオトヨチョウ","town":"奥大田","town_kana":"オクオオタ","prefecture_code":39},"0321":{"zip_code":"7890321","prefecture":"高知県","prefecture_kana":"コウチケン","city":"長岡郡大豊町","city_kana":"ナガオカグンオオトヨチョウ","town":"角茂谷","town_kana":"カクモダニ","prefecture_code":39},"0232":[{"zip_code":"7890232","prefecture":"高知県","prefecture_kana":"コウチケン","city":"長岡郡大豊町","city_kana":"ナガオカグンオオトヨチョウ","town":"梶ケ内","town_kana":"カジガウチ","prefecture_code":39},{"zip_code":"7890232","prefecture":"高知県","prefecture_kana":"コウチケン","city":"長岡郡大豊町","city_kana":"ナガオカグンオオトヨチョウ","town":"梶ケ内石堂","town_kana":"カジガウチイシドウ","prefecture_code":39},{"zip_code":"7890232","prefecture":"高知県","prefecture_kana":"コウチケン","city":"長岡郡大豊町","city_kana":"ナガオカグンオオトヨチョウ","town":"梶ケ内佐賀井","town_kana":"カジガウチサガイ","prefecture_code":39}],"0428":[{"zip_code":"7890428","prefecture":"高知県","prefecture_kana":"コウチケン","city":"長岡郡大豊町","city_kana":"ナガオカグンオオトヨチョウ","town":"葛原","town_kana":"カズラワラ","prefecture_code":39},{"zip_code":"7890428","prefecture":"高知県","prefecture_kana":"コウチケン","city":"長岡郡大豊町","city_kana":"ナガオカグンオオトヨチョウ","town":"葛原千野々","town_kana":"カズラワラチノノ","prefecture_code":39}],"0302":{"zip_code":"7890302","prefecture":"高知県","prefecture_kana":"コウチケン","city":"長岡郡大豊町","city_kana":"ナガオカグンオオトヨチョウ","town":"葛原","town_kana":"カズラワラ","prefecture_code":39},"0252":{"zip_code":"7890252","prefecture":"高知県","prefecture_kana":"コウチケン","city":"長岡郡大豊町","city_kana":"ナガオカグンオオトヨチョウ","town":"上東","town_kana":"カミヒガシ","prefecture_code":39},"0172":{"zip_code":"7890172","prefecture":"高知県","prefecture_kana":"コウチケン","city":"長岡郡大豊町","city_kana":"ナガオカグンオオトヨチョウ","town":"川井","town_kana":"カワイ","prefecture_code":39},"0303":{"zip_code":"7890303","prefecture":"高知県","prefecture_kana":"コウチケン","city":"長岡郡大豊町","city_kana":"ナガオカグンオオトヨチョウ","town":"川口","town_kana":"カワグチ","prefecture_code":39},"0313":{"zip_code":"7890313","prefecture":"高知県","prefecture_kana":"コウチケン","city":"長岡郡大豊町","city_kana":"ナガオカグンオオトヨチョウ","town":"川口南","town_kana":"カワグチミナミ","prefecture_code":39},"0241":{"zip_code":"7890241","prefecture":"高知県","prefecture_kana":"コウチケン","city":"長岡郡大豊町","city_kana":"ナガオカグンオオトヨチョウ","town":"川戸","town_kana":"カワド","prefecture_code":39},"0325":{"zip_code":"7890325","prefecture":"高知県","prefecture_kana":"コウチケン","city":"長岡郡大豊町","city_kana":"ナガオカグンオオトヨチョウ","town":"北川","town_kana":"キタガワ","prefecture_code":39},"0324":{"zip_code":"7890324","prefecture":"高知県","prefecture_kana":"コウチケン","city":"長岡郡大豊町","city_kana":"ナガオカグンオオトヨチョウ","town":"久寿軒","town_kana":"クスノキ","prefecture_code":39},"0250":{"zip_code":"7890250","prefecture":"高知県","prefecture_kana":"コウチケン","city":"長岡郡大豊町","city_kana":"ナガオカグンオオトヨチョウ","town":"黒石","town_kana":"クロイシ","prefecture_code":39},"0255":{"zip_code":"7890255","prefecture":"高知県","prefecture_kana":"コウチケン","city":"長岡郡大豊町","city_kana":"ナガオカグンオオトヨチョウ","town":"佐賀山","town_kana":"サガヤマ","prefecture_code":39},"0305":{"zip_code":"7890305","prefecture":"高知県","prefecture_kana":"コウチケン","city":"長岡郡大豊町","city_kana":"ナガオカグンオオトヨチョウ","town":"式岩","town_kana":"シキノイワ","prefecture_code":39},"0311":{"zip_code":"7890311","prefecture":"高知県","prefecture_kana":"コウチケン","city":"長岡郡大豊町","city_kana":"ナガオカグンオオトヨチョウ","town":"杉","town_kana":"スギ","prefecture_code":39},"0312":{"zip_code":"7890312","prefecture":"高知県","prefecture_kana":"コウチケン","city":"長岡郡大豊町","city_kana":"ナガオカグンオオトヨチョウ","town":"高須","town_kana":"タカズ","prefecture_code":39},"0426":{"zip_code":"7890426","prefecture":"高知県","prefecture_kana":"コウチケン","city":"長岡郡大豊町","city_kana":"ナガオカグンオオトヨチョウ","town":"立川上名","town_kana":"タジカワカミミョウ","prefecture_code":39},"0427":{"zip_code":"7890427","prefecture":"高知県","prefecture_kana":"コウチケン","city":"長岡郡大豊町","city_kana":"ナガオカグンオオトヨチョウ","town":"立川下名","town_kana":"タジカワシモミョウ","prefecture_code":39},"0168":{"zip_code":"7890168","prefecture":"高知県","prefecture_kana":"コウチケン","city":"長岡郡大豊町","city_kana":"ナガオカグンオオトヨチョウ","town":"立野","town_kana":"タツノ","prefecture_code":39},"0304":{"zip_code":"7890304","prefecture":"高知県","prefecture_kana":"コウチケン","city":"長岡郡大豊町","city_kana":"ナガオカグンオオトヨチョウ","town":"谷","town_kana":"タニ","prefecture_code":39},"0301":[{"zip_code":"7890301","prefecture":"高知県","prefecture_kana":"コウチケン","city":"長岡郡大豊町","city_kana":"ナガオカグンオオトヨチョウ","town":"津家","town_kana":"ツゲ","prefecture_code":39},{"zip_code":"7890301","prefecture":"高知県","prefecture_kana":"コウチケン","city":"長岡郡大豊町","city_kana":"ナガオカグンオオトヨチョウ","town":"津家桧生","town_kana":"ツゲヒノキオ","prefecture_code":39}],"0242":{"zip_code":"7890242","prefecture":"高知県","prefecture_kana":"コウチケン","city":"長岡郡大豊町","city_kana":"ナガオカグンオオトヨチョウ","town":"連火","town_kana":"ツレビ","prefecture_code":39},"0234":[{"zip_code":"7890234","prefecture":"高知県","prefecture_kana":"コウチケン","city":"長岡郡大豊町","city_kana":"ナガオカグンオオトヨチョウ","town":"寺内","town_kana":"テラウチ","prefecture_code":39},{"zip_code":"7890234","prefecture":"高知県","prefecture_kana":"コウチケン","city":"長岡郡大豊町","city_kana":"ナガオカグンオオトヨチョウ","town":"寺内大田口","town_kana":"テラウチオオタグチ","prefecture_code":39}],"0322":{"zip_code":"7890322","prefecture":"高知県","prefecture_kana":"コウチケン","city":"長岡郡大豊町","city_kana":"ナガオカグンオオトヨチョウ","town":"戸手野","town_kana":"トデノ","prefecture_code":39},"0174":{"zip_code":"7890174","prefecture":"高知県","prefecture_kana":"コウチケン","city":"長岡郡大豊町","city_kana":"ナガオカグンオオトヨチョウ","town":"中内","town_kana":"ナカウチ","prefecture_code":39},"0315":{"zip_code":"7890315","prefecture":"高知県","prefecture_kana":"コウチケン","city":"長岡郡大豊町","city_kana":"ナガオカグンオオトヨチョウ","town":"中村大王","town_kana":"ナカムラダイオウ","prefecture_code":39},"0251":{"zip_code":"7890251","prefecture":"高知県","prefecture_kana":"コウチケン","city":"長岡郡大豊町","city_kana":"ナガオカグンオオトヨチョウ","town":"中屋","town_kana":"ナカヤ","prefecture_code":39},"0245":{"zip_code":"7890245","prefecture":"高知県","prefecture_kana":"コウチケン","city":"長岡郡大豊町","city_kana":"ナガオカグンオオトヨチョウ","town":"永淵","town_kana":"ナガフチ","prefecture_code":39},"0165":{"zip_code":"7890165","prefecture":"高知県","prefecture_kana":"コウチケン","city":"長岡郡大豊町","city_kana":"ナガオカグンオオトヨチョウ","town":"西川","town_kana":"ニシガワ","prefecture_code":39},"0243":{"zip_code":"7890243","prefecture":"高知県","prefecture_kana":"コウチケン","city":"長岡郡大豊町","city_kana":"ナガオカグンオオトヨチョウ","town":"西久保","town_kana":"ニシクボ","prefecture_code":39},"0254":{"zip_code":"7890254","prefecture":"高知県","prefecture_kana":"コウチケン","city":"長岡郡大豊町","city_kana":"ナガオカグンオオトヨチョウ","town":"西土居","town_kana":"ニシドイ","prefecture_code":39},"0159":[{"zip_code":"7890159","prefecture":"高知県","prefecture_kana":"コウチケン","city":"長岡郡大豊町","city_kana":"ナガオカグンオオトヨチョウ","town":"西峰","town_kana":"ニシミネ","prefecture_code":39},{"zip_code":"7890159","prefecture":"高知県","prefecture_kana":"コウチケン","city":"長岡郡大豊町","city_kana":"ナガオカグンオオトヨチョウ","town":"西峰三谷","town_kana":"ニシミネミタニ","prefecture_code":39}],"0160":{"zip_code":"7890160","prefecture":"高知県","prefecture_kana":"コウチケン","city":"長岡郡大豊町","city_kana":"ナガオカグンオオトヨチョウ","town":"西峰","town_kana":"ニシミネ","prefecture_code":39},"0162":{"zip_code":"7890162","prefecture":"高知県","prefecture_kana":"コウチケン","city":"長岡郡大豊町","city_kana":"ナガオカグンオオトヨチョウ","town":"怒田","town_kana":"ヌタ","prefecture_code":39},"0314":{"zip_code":"7890314","prefecture":"高知県","prefecture_kana":"コウチケン","city":"長岡郡大豊町","city_kana":"ナガオカグンオオトヨチョウ","town":"日浦","town_kana":"ヒウラ","prefecture_code":39},"0166":{"zip_code":"7890166","prefecture":"高知県","prefecture_kana":"コウチケン","city":"長岡郡大豊町","city_kana":"ナガオカグンオオトヨチョウ","town":"東土居","town_kana":"ヒガシドイ","prefecture_code":39},"0235":{"zip_code":"7890235","prefecture":"高知県","prefecture_kana":"コウチケン","city":"長岡郡大豊町","city_kana":"ナガオカグンオオトヨチョウ","town":"船戸","town_kana":"フナト","prefecture_code":39},"0163":{"zip_code":"7890163","prefecture":"高知県","prefecture_kana":"コウチケン","city":"長岡郡大豊町","city_kana":"ナガオカグンオオトヨチョウ","town":"南大王","town_kana":"ミナミダイオウ","prefecture_code":39},"0244":{"zip_code":"7890244","prefecture":"高知県","prefecture_kana":"コウチケン","city":"長岡郡大豊町","city_kana":"ナガオカグンオオトヨチョウ","town":"桃原","town_kana":"モモハラ","prefecture_code":39},"0156":{"zip_code":"7890156","prefecture":"高知県","prefecture_kana":"コウチケン","city":"長岡郡大豊町","city_kana":"ナガオカグンオオトヨチョウ","town":"八川","town_kana":"ヤカワ","prefecture_code":39},"0253":{"zip_code":"7890253","prefecture":"高知県","prefecture_kana":"コウチケン","city":"長岡郡大豊町","city_kana":"ナガオカグンオオトヨチョウ","town":"安野々","town_kana":"ヤスノノ","prefecture_code":39},"0246":{"zip_code":"7890246","prefecture":"高知県","prefecture_kana":"コウチケン","city":"長岡郡大豊町","city_kana":"ナガオカグンオオトヨチョウ","town":"柳野","town_kana":"ヤナギノ","prefecture_code":39},"0161":{"zip_code":"7890161","prefecture":"高知県","prefecture_kana":"コウチケン","city":"長岡郡大豊町","city_kana":"ナガオカグンオオトヨチョウ","town":"柚木","town_kana":"ユノキ","prefecture_code":39},"0164":{"zip_code":"7890164","prefecture":"高知県","prefecture_kana":"コウチケン","city":"長岡郡大豊町","city_kana":"ナガオカグンオオトヨチョウ","town":"八畝","town_kana":"ヨウネ","prefecture_code":39},"0236":[{"zip_code":"7890236","prefecture":"高知県","prefecture_kana":"コウチケン","city":"長岡郡大豊町","city_kana":"ナガオカグンオオトヨチョウ","town":"和田","town_kana":"ワダ","prefecture_code":39},{"zip_code":"7890236","prefecture":"高知県","prefecture_kana":"コウチケン","city":"長岡郡大豊町","city_kana":"ナガオカグンオオトヨチョウ","town":"和田目付","town_kana":"ワダメツケ","prefecture_code":39}],"1300":{"zip_code":"7891300","prefecture":"高知県","prefecture_kana":"コウチケン","city":"高岡郡中土佐町","city_kana":"タカオカグンナカトサチョウ","town":"","town_kana":"","prefecture_code":39},"1413":{"zip_code":"7891413","prefecture":"高知県","prefecture_kana":"コウチケン","city":"高岡郡中土佐町","city_kana":"タカオカグンナカトサチョウ","town":"大野見荒瀬","town_kana":"オオノミアラセ","prefecture_code":39},"1414":{"zip_code":"7891414","prefecture":"高知県","prefecture_kana":"コウチケン","city":"高岡郡中土佐町","city_kana":"タカオカグンナカトサチョウ","town":"大野見神母野","town_kana":"オオノミイゲノ","prefecture_code":39},"1405":{"zip_code":"7891405","prefecture":"高知県","prefecture_kana":"コウチケン","city":"高岡郡中土佐町","city_kana":"タカオカグンナカトサチョウ","town":"大野見伊勢川","town_kana":"オオノミイセガワ","prefecture_code":39},"1418":{"zip_code":"7891418","prefecture":"高知県","prefecture_kana":"コウチケン","city":"高岡郡中土佐町","city_kana":"タカオカグンナカトサチョウ","town":"大野見大股","town_kana":"オオノミオオマタ","prefecture_code":39},"1412":{"zip_code":"7891412","prefecture":"高知県","prefecture_kana":"コウチケン","city":"高岡郡中土佐町","city_kana":"タカオカグンナカトサチョウ","town":"大野見川奥","town_kana":"オオノミカワオク","prefecture_code":39},"1416":{"zip_code":"7891416","prefecture":"高知県","prefecture_kana":"コウチケン","city":"高岡郡中土佐町","city_kana":"タカオカグンナカトサチョウ","town":"大野見下ル川","town_kana":"オオノミクダルカワ","prefecture_code":39},"1403":{"zip_code":"7891403","prefecture":"高知県","prefecture_kana":"コウチケン","city":"高岡郡中土佐町","city_kana":"タカオカグンナカトサチョウ","town":"大野見久万秋","town_kana":"オオノミクマアキ","prefecture_code":39},"1419":{"zip_code":"7891419","prefecture":"高知県","prefecture_kana":"コウチケン","city":"高岡郡中土佐町","city_kana":"タカオカグンナカトサチョウ","town":"大野見島ノ川","town_kana":"オオノミシマノガワ","prefecture_code":39},"1409":{"zip_code":"7891409","prefecture":"高知県","prefecture_kana":"コウチケン","city":"高岡郡中土佐町","city_kana":"タカオカグンナカトサチョウ","town":"大野見竹原","town_kana":"オオノミタケハラ","prefecture_code":39},"1410":{"zip_code":"7891410","prefecture":"高知県","prefecture_kana":"コウチケン","city":"高岡郡中土佐町","city_kana":"タカオカグンナカトサチョウ","town":"大野見栂ノ川","town_kana":"オオノミツガノカワ","prefecture_code":39},"1415":{"zip_code":"7891415","prefecture":"高知県","prefecture_kana":"コウチケン","city":"高岡郡中土佐町","city_kana":"タカオカグンナカトサチョウ","town":"大野見寺野","town_kana":"オオノミテラノ","prefecture_code":39},"1411":{"zip_code":"7891411","prefecture":"高知県","prefecture_kana":"コウチケン","city":"高岡郡中土佐町","city_kana":"タカオカグンナカトサチョウ","town":"大野見野老野","town_kana":"オオノミトコロノ","prefecture_code":39},"1408":{"zip_code":"7891408","prefecture":"高知県","prefecture_kana":"コウチケン","city":"高岡郡中土佐町","city_kana":"タカオカグンナカトサチョウ","town":"大野見長野","town_kana":"オオノミナガノ","prefecture_code":39},"1404":{"zip_code":"7891404","prefecture":"高知県","prefecture_kana":"コウチケン","city":"高岡郡中土佐町","city_kana":"タカオカグンナカトサチョウ","town":"大野見奈路","town_kana":"オオノミナロ","prefecture_code":39},"1417":{"zip_code":"7891417","prefecture":"高知県","prefecture_kana":"コウチケン","city":"高岡郡中土佐町","city_kana":"タカオカグンナカトサチョウ","town":"大野見萩中","town_kana":"オオノミハギナカ","prefecture_code":39},"1402":{"zip_code":"7891402","prefecture":"高知県","prefecture_kana":"コウチケン","city":"高岡郡中土佐町","city_kana":"タカオカグンナカトサチョウ","town":"大野見橋谷","town_kana":"オオノミハシダニ","prefecture_code":39},"1406":{"zip_code":"7891406","prefecture":"高知県","prefecture_kana":"コウチケン","city":"高岡郡中土佐町","city_kana":"タカオカグンナカトサチョウ","town":"大野見槇野々","town_kana":"オオノミマキノノ","prefecture_code":39},"1407":{"zip_code":"7891407","prefecture":"高知県","prefecture_kana":"コウチケン","city":"高岡郡中土佐町","city_kana":"タカオカグンナカトサチョウ","town":"大野見三ツ又","town_kana":"オオノミミツマタ","prefecture_code":39},"1401":{"zip_code":"7891401","prefecture":"高知県","prefecture_kana":"コウチケン","city":"高岡郡中土佐町","city_kana":"タカオカグンナカトサチョウ","town":"大野見吉野","town_kana":"オオノミヨシノ","prefecture_code":39},"1302":{"zip_code":"7891302","prefecture":"高知県","prefecture_kana":"コウチケン","city":"高岡郡中土佐町","city_kana":"タカオカグンナカトサチョウ","town":"上ノ加江","town_kana":"カミノカエ","prefecture_code":39},"1301":{"zip_code":"7891301","prefecture":"高知県","prefecture_kana":"コウチケン","city":"高岡郡中土佐町","city_kana":"タカオカグンナカトサチョウ","town":"久礼","town_kana":"クレ","prefecture_code":39},"1304":{"zip_code":"7891304","prefecture":"高知県","prefecture_kana":"コウチケン","city":"高岡郡中土佐町","city_kana":"タカオカグンナカトサチョウ","town":"矢井賀乙","town_kana":"ヤイカオツ","prefecture_code":39},"1303":{"zip_code":"7891303","prefecture":"高知県","prefecture_kana":"コウチケン","city":"高岡郡中土佐町","city_kana":"タカオカグンナカトサチョウ","town":"矢井賀甲","town_kana":"ヤイカコウ","prefecture_code":39},"1200":{"zip_code":"7891200","prefecture":"高知県","prefecture_kana":"コウチケン","city":"高岡郡佐川町","city_kana":"タカオカグンサカワチョウ","town":"","town_kana":"","prefecture_code":39},"1217":{"zip_code":"7891217","prefecture":"高知県","prefecture_kana":"コウチケン","city":"高岡郡佐川町","city_kana":"タカオカグンサカワチョウ","town":"大田川","town_kana":"オオタカワ","prefecture_code":39},"1202":{"zip_code":"7891202","prefecture":"高知県","prefecture_kana":"コウチケン","city":"高岡郡佐川町","city_kana":"タカオカグンサカワチョウ","town":"乙","town_kana":"オツ","prefecture_code":39},"1204":{"zip_code":"7891204","prefecture":"高知県","prefecture_kana":"コウチケン","city":"高岡郡佐川町","city_kana":"タカオカグンサカワチョウ","town":"加茂","town_kana":"カモ","prefecture_code":39},"1235":{"zip_code":"7891235","prefecture":"高知県","prefecture_kana":"コウチケン","city":"高岡郡佐川町","city_kana":"タカオカグンサカワチョウ","town":"川ノ内組","town_kana":"カワノウチグミ","prefecture_code":39},"1211":{"zip_code":"7891211","prefecture":"高知県","prefecture_kana":"コウチケン","city":"高岡郡佐川町","city_kana":"タカオカグンサカワチョウ","town":"黒原","town_kana":"クロハラ","prefecture_code":39},"1201":{"zip_code":"7891201","prefecture":"高知県","prefecture_kana":"コウチケン","city":"高岡郡佐川町","city_kana":"タカオカグンサカワチョウ","town":"甲","town_kana":"コウ","prefecture_code":39},"1216":{"zip_code":"7891216","prefecture":"高知県","prefecture_kana":"コウチケン","city":"高岡郡佐川町","city_kana":"タカオカグンサカワチョウ","town":"庄田","town_kana":"ショウダ","prefecture_code":39},"1215":{"zip_code":"7891215","prefecture":"高知県","prefecture_kana":"コウチケン","city":"高岡郡佐川町","city_kana":"タカオカグンサカワチョウ","town":"瑞応","town_kana":"ズイオウ","prefecture_code":39},"1233":{"zip_code":"7891233","prefecture":"高知県","prefecture_kana":"コウチケン","city":"高岡郡佐川町","city_kana":"タカオカグンサカワチョウ","town":"中組","town_kana":"ナカグミ","prefecture_code":39},"1214":{"zip_code":"7891214","prefecture":"高知県","prefecture_kana":"コウチケン","city":"高岡郡佐川町","city_kana":"タカオカグンサカワチョウ","town":"中野","town_kana":"ナカノ","prefecture_code":39},"1231":{"zip_code":"7891231","prefecture":"高知県","prefecture_kana":"コウチケン","city":"高岡郡佐川町","city_kana":"タカオカグンサカワチョウ","town":"永野","town_kana":"ナガノ","prefecture_code":39},"1234":{"zip_code":"7891234","prefecture":"高知県","prefecture_kana":"コウチケン","city":"高岡郡佐川町","city_kana":"タカオカグンサカワチョウ","town":"西組","town_kana":"ニシグミ","prefecture_code":39},"1222":{"zip_code":"7891222","prefecture":"高知県","prefecture_kana":"コウチケン","city":"高岡郡佐川町","city_kana":"タカオカグンサカワチョウ","town":"西山組","town_kana":"ニシヤマグミ","prefecture_code":39},"1223":{"zip_code":"7891223","prefecture":"高知県","prefecture_kana":"コウチケン","city":"高岡郡佐川町","city_kana":"タカオカグンサカワチョウ","town":"西山耕","town_kana":"ニシヤマコウ","prefecture_code":39},"1232":{"zip_code":"7891232","prefecture":"高知県","prefecture_kana":"コウチケン","city":"高岡郡佐川町","city_kana":"タカオカグンサカワチョウ","town":"東組","town_kana":"ヒガシグミ","prefecture_code":39},"1218":{"zip_code":"7891218","prefecture":"高知県","prefecture_kana":"コウチケン","city":"高岡郡佐川町","city_kana":"タカオカグンサカワチョウ","town":"平野","town_kana":"ヒラノ","prefecture_code":39},"1213":{"zip_code":"7891213","prefecture":"高知県","prefecture_kana":"コウチケン","city":"高岡郡佐川町","city_kana":"タカオカグンサカワチョウ","town":"二ツ野","town_kana":"フタツノ","prefecture_code":39},"1224":{"zip_code":"7891224","prefecture":"高知県","prefecture_kana":"コウチケン","city":"高岡郡佐川町","city_kana":"タカオカグンサカワチョウ","town":"古畑耕","town_kana":"フルハタコウ","prefecture_code":39},"1203":{"zip_code":"7891203","prefecture":"高知県","prefecture_kana":"コウチケン","city":"高岡郡佐川町","city_kana":"タカオカグンサカワチョウ","town":"丙","town_kana":"ヘイ","prefecture_code":39},"1221":{"zip_code":"7891221","prefecture":"高知県","prefecture_kana":"コウチケン","city":"高岡郡佐川町","city_kana":"タカオカグンサカワチョウ","town":"本郷耕","town_kana":"ホンゴウコウ","prefecture_code":39},"1225":{"zip_code":"7891225","prefecture":"高知県","prefecture_kana":"コウチケン","city":"高岡郡佐川町","city_kana":"タカオカグンサカワチョウ","town":"峰耕","town_kana":"ミネコウ","prefecture_code":39},"1205":{"zip_code":"7891205","prefecture":"高知県","prefecture_kana":"コウチケン","city":"高岡郡佐川町","city_kana":"タカオカグンサカワチョウ","town":"室原","town_kana":"ムロハラ","prefecture_code":39},"1212":{"zip_code":"7891212","prefecture":"高知県","prefecture_kana":"コウチケン","city":"高岡郡佐川町","city_kana":"タカオカグンサカワチョウ","town":"四ツ白","town_kana":"ヨツジロ","prefecture_code":39},"1900":{"zip_code":"7891900","prefecture":"高知県","prefecture_kana":"コウチケン","city":"幡多郡黒潮町","city_kana":"ハタグンクロシオチョウ","town":"","town_kana":"","prefecture_code":39},"1903":{"zip_code":"7891903","prefecture":"高知県","prefecture_kana":"コウチケン","city":"幡多郡黒潮町","city_kana":"ハタグンクロシオチョウ","town":"有井川","town_kana":"アリイガワ","prefecture_code":39},"1904":{"zip_code":"7891904","prefecture":"高知県","prefecture_kana":"コウチケン","city":"幡多郡黒潮町","city_kana":"ハタグンクロシオチョウ","town":"伊田","town_kana":"イダ","prefecture_code":39},"1701":{"zip_code":"7891701","prefecture":"高知県","prefecture_kana":"コウチケン","city":"幡多郡黒潮町","city_kana":"ハタグンクロシオチョウ","town":"市野瀬","town_kana":"イチノセ","prefecture_code":39},"1711":{"zip_code":"7891711","prefecture":"高知県","prefecture_kana":"コウチケン","city":"幡多郡黒潮町","city_kana":"ハタグンクロシオチョウ","town":"市野々川","town_kana":"イチノノガワ","prefecture_code":39},"1934":{"zip_code":"7891934","prefecture":"高知県","prefecture_kana":"コウチケン","city":"幡多郡黒潮町","city_kana":"ハタグンクロシオチョウ","town":"出口","town_kana":"イデグチ","prefecture_code":39},"1713":{"zip_code":"7891713","prefecture":"高知県","prefecture_kana":"コウチケン","city":"幡多郡黒潮町","city_kana":"ハタグンクロシオチョウ","town":"伊与喜","town_kana":"イヨキ","prefecture_code":39},"1931":{"zip_code":"7891931","prefecture":"高知県","prefecture_kana":"コウチケン","city":"幡多郡黒潮町","city_kana":"ハタグンクロシオチョウ","town":"入野","town_kana":"イリノ","prefecture_code":39},"1911":{"zip_code":"7891911","prefecture":"高知県","prefecture_kana":"コウチケン","city":"幡多郡黒潮町","city_kana":"ハタグンクロシオチョウ","town":"浮鞭","town_kana":"ウキブチ","prefecture_code":39},"1924":{"zip_code":"7891924","prefecture":"高知県","prefecture_kana":"コウチケン","city":"幡多郡黒潮町","city_kana":"ハタグンクロシオチョウ","town":"馬荷","town_kana":"ウマニ","prefecture_code":39},"1923":{"zip_code":"7891923","prefecture":"高知県","prefecture_kana":"コウチケン","city":"幡多郡黒潮町","city_kana":"ハタグンクロシオチョウ","town":"大井川","town_kana":"オオイガワ","prefecture_code":39},"1925":{"zip_code":"7891925","prefecture":"高知県","prefecture_kana":"コウチケン","city":"幡多郡黒潮町","city_kana":"ハタグンクロシオチョウ","town":"大方橘川","town_kana":"オオガタタチバナガワ","prefecture_code":39},"1913":{"zip_code":"7891913","prefecture":"高知県","prefecture_kana":"コウチケン","city":"幡多郡黒潮町","city_kana":"ハタグンクロシオチョウ","town":"奥湊川","town_kana":"オクミナトガワ","prefecture_code":39},"1936":{"zip_code":"7891936","prefecture":"高知県","prefecture_kana":"コウチケン","city":"幡多郡黒潮町","city_kana":"ハタグンクロシオチョウ","town":"御坊畑","town_kana":"オンボウバタ","prefecture_code":39},"1705":{"zip_code":"7891705","prefecture":"高知県","prefecture_kana":"コウチケン","city":"幡多郡黒潮町","city_kana":"ハタグンクロシオチョウ","town":"荷稲","town_kana":"カイナ","prefecture_code":39},"1901":{"zip_code":"7891901","prefecture":"高知県","prefecture_kana":"コウチケン","city":"幡多郡黒潮町","city_kana":"ハタグンクロシオチョウ","town":"上川口","town_kana":"カミカワグチ","prefecture_code":39},"1935":{"zip_code":"7891935","prefecture":"高知県","prefecture_kana":"コウチケン","city":"幡多郡黒潮町","city_kana":"ハタグンクロシオチョウ","town":"上田の口","town_kana":"カミタノクチ","prefecture_code":39},"1921":{"zip_code":"7891921","prefecture":"高知県","prefecture_kana":"コウチケン","city":"幡多郡黒潮町","city_kana":"ハタグンクロシオチョウ","town":"加持","town_kana":"カモチ","prefecture_code":39},"1922":{"zip_code":"7891922","prefecture":"高知県","prefecture_kana":"コウチケン","city":"幡多郡黒潮町","city_kana":"ハタグンクロシオチョウ","town":"加持川","town_kana":"カモチガワ","prefecture_code":39},"1704":{"zip_code":"7891704","prefecture":"高知県","prefecture_kana":"コウチケン","city":"幡多郡黒潮町","city_kana":"ハタグンクロシオチョウ","town":"川奥","town_kana":"カワオク","prefecture_code":39},"1912":{"zip_code":"7891912","prefecture":"高知県","prefecture_kana":"コウチケン","city":"幡多郡黒潮町","city_kana":"ハタグンクロシオチョウ","town":"口湊川","town_kana":"クチミナトガワ","prefecture_code":39},"1715":{"zip_code":"7891715","prefecture":"高知県","prefecture_kana":"コウチケン","city":"幡多郡黒潮町","city_kana":"ハタグンクロシオチョウ","town":"熊井","town_kana":"クマイ","prefecture_code":39},"1716":{"zip_code":"7891716","prefecture":"高知県","prefecture_kana":"コウチケン","city":"幡多郡黒潮町","city_kana":"ハタグンクロシオチョウ","town":"熊野浦","town_kana":"クマノウラ","prefecture_code":39},"1706":{"zip_code":"7891706","prefecture":"高知県","prefecture_kana":"コウチケン","city":"幡多郡黒潮町","city_kana":"ハタグンクロシオチョウ","town":"小黒ノ川","town_kana":"コグロノカワ","prefecture_code":39},"1703":{"zip_code":"7891703","prefecture":"高知県","prefecture_kana":"コウチケン","city":"幡多郡黒潮町","city_kana":"ハタグンクロシオチョウ","town":"拳ノ川","town_kana":"コブシノカワ","prefecture_code":39},"1723":[{"zip_code":"7891723","prefecture":"高知県","prefecture_kana":"コウチケン","city":"幡多郡黒潮町","city_kana":"ハタグンクロシオチョウ","town":"佐賀","town_kana":"サガ","prefecture_code":39},{"zip_code":"7891723","prefecture":"高知県","prefecture_kana":"コウチケン","city":"幡多郡黒潮町","city_kana":"ハタグンクロシオチョウ","town":"佐賀馬地","town_kana":"サガウマジ","prefecture_code":39}],"1722":[{"zip_code":"7891722","prefecture":"高知県","prefecture_kana":"コウチケン","city":"幡多郡黒潮町","city_kana":"ハタグンクロシオチョウ","town":"佐賀","town_kana":"サガ","prefecture_code":39},{"zip_code":"7891722","prefecture":"高知県","prefecture_kana":"コウチケン","city":"幡多郡黒潮町","city_kana":"ハタグンクロシオチョウ","town":"佐賀坂折","town_kana":"サガサカオリ","prefecture_code":39}],"1721":[{"zip_code":"7891721","prefecture":"高知県","prefecture_kana":"コウチケン","city":"幡多郡黒潮町","city_kana":"ハタグンクロシオチョウ","town":"佐賀","town_kana":"サガ","prefecture_code":39},{"zip_code":"7891721","prefecture":"高知県","prefecture_kana":"コウチケン","city":"幡多郡黒潮町","city_kana":"ハタグンクロシオチョウ","town":"佐賀中角","town_kana":"サガナカカド","prefecture_code":39}],"1724":[{"zip_code":"7891724","prefecture":"高知県","prefecture_kana":"コウチケン","city":"幡多郡黒潮町","city_kana":"ハタグンクロシオチョウ","town":"佐賀","town_kana":"サガ","prefecture_code":39},{"zip_code":"7891724","prefecture":"高知県","prefecture_kana":"コウチケン","city":"幡多郡黒潮町","city_kana":"ハタグンクロシオチョウ","town":"佐賀横浜","town_kana":"サガヨコハマ","prefecture_code":39}],"1720":{"zip_code":"7891720","prefecture":"高知県","prefecture_kana":"コウチケン","city":"幡多郡黒潮町","city_kana":"ハタグンクロシオチョウ","town":"佐賀","town_kana":"サガ","prefecture_code":39},"1702":{"zip_code":"7891702","prefecture":"高知県","prefecture_kana":"コウチケン","city":"幡多郡黒潮町","city_kana":"ハタグンクロシオチョウ","town":"佐賀橘川","town_kana":"サガタチバナガワ","prefecture_code":39},"1932":{"zip_code":"7891932","prefecture":"高知県","prefecture_kana":"コウチケン","city":"幡多郡黒潮町","city_kana":"ハタグンクロシオチョウ","town":"下田の口","town_kana":"シモタノクチ","prefecture_code":39},"1725":{"zip_code":"7891725","prefecture":"高知県","prefecture_kana":"コウチケン","city":"幡多郡黒潮町","city_kana":"ハタグンクロシオチョウ","town":"白浜","town_kana":"シラハマ","prefecture_code":39},"1708":{"zip_code":"7891708","prefecture":"高知県","prefecture_kana":"コウチケン","city":"幡多郡黒潮町","city_kana":"ハタグンクロシオチョウ","town":"鈴","town_kana":"スズ","prefecture_code":39},"1933":{"zip_code":"7891933","prefecture":"高知県","prefecture_kana":"コウチケン","city":"幡多郡黒潮町","city_kana":"ハタグンクロシオチョウ","town":"田野浦","town_kana":"タノウラ","prefecture_code":39},"1707":{"zip_code":"7891707","prefecture":"高知県","prefecture_kana":"コウチケン","city":"幡多郡黒潮町","city_kana":"ハタグンクロシオチョウ","town":"中ノ川","town_kana":"ナカノカワ","prefecture_code":39},"1905":{"zip_code":"7891905","prefecture":"高知県","prefecture_kana":"コウチケン","city":"幡多郡黒潮町","city_kana":"ハタグンクロシオチョウ","town":"灘","town_kana":"ナダ","prefecture_code":39},"1714":{"zip_code":"7891714","prefecture":"高知県","prefecture_kana":"コウチケン","city":"幡多郡黒潮町","city_kana":"ハタグンクロシオチョウ","town":"藤縄","town_kana":"フジナワ","prefecture_code":39},"1712":{"zip_code":"7891712","prefecture":"高知県","prefecture_kana":"コウチケン","city":"幡多郡黒潮町","city_kana":"ハタグンクロシオチョウ","town":"不破原","town_kana":"フバハラ","prefecture_code":39},"1902":{"zip_code":"7891902","prefecture":"高知県","prefecture_kana":"コウチケン","city":"幡多郡黒潮町","city_kana":"ハタグンクロシオチョウ","town":"蜷川","town_kana":"ミナガワ","prefecture_code":39}}