{"0064":{"zip_code":"7900064","prefecture":"愛媛県","prefecture_kana":"エヒメケン","city":"松山市","city_kana":"マツヤマシ","town":"愛光町","town_kana":"アイコウチョウ","prefecture_code":38},"0876":{"zip_code":"7900876","prefecture":"愛媛県","prefecture_kana":"エヒメケン","city":"松山市","city_kana":"マツヤマシ","town":"旭町","town_kana":"アサヒマチ","prefecture_code":38},"0952":{"zip_code":"7900952","prefecture":"愛媛県","prefecture_kana":"エヒメケン","city":"松山市","city_kana":"マツヤマシ","town":"朝生田町","town_kana":"アソダマチ","prefecture_code":38},"0951":[{"zip_code":"7900951","prefecture":"愛媛県","prefecture_kana":"エヒメケン","city":"松山市","city_kana":"マツヤマシ","town":"天山","town_kana":"アマヤマ","prefecture_code":38},{"zip_code":"7900951","prefecture":"愛媛県","prefecture_kana":"エヒメケン","city":"松山市","city_kana":"マツヤマシ","town":"天山町","town_kana":"アマヤママチ","prefecture_code":38}],"0934":{"zip_code":"7900934","prefecture":"愛媛県","prefecture_kana":"エヒメケン","city":"松山市","city_kana":"マツヤマシ","town":"居相","town_kana":"イアイ","prefecture_code":38},"0051":{"zip_code":"7900051","prefecture":"愛媛県","prefecture_kana":"エヒメケン","city":"松山市","city_kana":"マツヤマシ","town":"生石町","town_kana":"イクシマチ","prefecture_code":38},"0852":{"zip_code":"7900852","prefecture":"愛媛県","prefecture_kana":"エヒメケン","city":"松山市","city_kana":"マツヤマシ","town":"石手","town_kana":"イシテ","prefecture_code":38},"0902":{"zip_code":"7900902","prefecture":"愛媛県","prefecture_kana":"エヒメケン","city":"松山市","city_kana":"マツヤマシ","town":"石手白石","town_kana":"イシテシライシ","prefecture_code":38},"0025":{"zip_code":"7900025","prefecture":"愛媛県","prefecture_kana":"エヒメケン","city":"松山市","city_kana":"マツヤマシ","town":"泉町","town_kana":"イズミマチ","prefecture_code":38},"0941":{"zip_code":"7900941","prefecture":"愛媛県","prefecture_kana":"エヒメケン","city":"松山市","city_kana":"マツヤマシ","town":"和泉南","town_kana":"イズミミナミ","prefecture_code":38},"0038":{"zip_code":"7900038","prefecture":"愛媛県","prefecture_kana":"エヒメケン","city":"松山市","city_kana":"マツヤマシ","town":"和泉北","town_kana":"イズミキタ","prefecture_code":38},"0948":{"zip_code":"7900948","prefecture":"愛媛県","prefecture_kana":"エヒメケン","city":"松山市","city_kana":"マツヤマシ","town":"市坪西町","town_kana":"イチツボニシマチ","prefecture_code":38},"0947":{"zip_code":"7900947","prefecture":"愛媛県","prefecture_kana":"エヒメケン","city":"松山市","city_kana":"マツヤマシ","town":"市坪南","town_kana":"イチツボミナミ","prefecture_code":38},"0946":{"zip_code":"7900946","prefecture":"愛媛県","prefecture_kana":"エヒメケン","city":"松山市","city_kana":"マツヤマシ","town":"市坪北","town_kana":"イチツボキタ","prefecture_code":38},"0001":{"zip_code":"7900001","prefecture":"愛媛県","prefecture_kana":"エヒメケン","city":"松山市","city_kana":"マツヤマシ","town":"一番町","town_kana":"イチバンチョウ","prefecture_code":38},"0833":{"zip_code":"7900833","prefecture":"愛媛県","prefecture_kana":"エヒメケン","city":"松山市","city_kana":"マツヤマシ","town":"祝谷","town_kana":"イワイダニ","prefecture_code":38},"0835":{"zip_code":"7900835","prefecture":"愛媛県","prefecture_kana":"エヒメケン","city":"松山市","city_kana":"マツヤマシ","town":"祝谷東町","town_kana":"イワイダニヒガシマチ","prefecture_code":38},"0832":{"zip_code":"7900832","prefecture":"愛媛県","prefecture_kana":"エヒメケン","city":"松山市","city_kana":"マツヤマシ","town":"祝谷西町","town_kana":"イワイダニニシマチ","prefecture_code":38},"0834":{"zip_code":"7900834","prefecture":"愛媛県","prefecture_kana":"エヒメケン","city":"松山市","city_kana":"マツヤマシ","town":"祝谷町","town_kana":"イワイダニマチ","prefecture_code":38},"0854":{"zip_code":"7900854","prefecture":"愛媛県","prefecture_kana":"エヒメケン","city":"松山市","city_kana":"マツヤマシ","town":"岩崎町","town_kana":"イワサキマチ","prefecture_code":38},"0022":{"zip_code":"7900022","prefecture":"愛媛県","prefecture_kana":"エヒメケン","city":"松山市","city_kana":"マツヤマシ","town":"永代町","town_kana":"エイダイマチ","prefecture_code":38},"0962":{"zip_code":"7900962","prefecture":"愛媛県","prefecture_kana":"エヒメケン","city":"松山市","city_kana":"マツヤマシ","town":"枝松","town_kana":"エダマツ","prefecture_code":38},"0004":{"zip_code":"7900004","prefecture":"愛媛県","prefecture_kana":"エヒメケン","city":"松山市","city_kana":"マツヤマシ","town":"大街道","town_kana":"オオカイドウ","prefecture_code":38},"0067":{"zip_code":"7900067","prefecture":"愛媛県","prefecture_kana":"エヒメケン","city":"松山市","city_kana":"マツヤマシ","town":"大手町","town_kana":"オオテマチ","prefecture_code":38},"0036":{"zip_code":"7900036","prefecture":"愛媛県","prefecture_kana":"エヒメケン","city":"松山市","city_kana":"マツヤマシ","town":"小栗","town_kana":"オグリ","prefecture_code":38},"0037":{"zip_code":"7900037","prefecture":"愛媛県","prefecture_kana":"エヒメケン","city":"松山市","city_kana":"マツヤマシ","town":"小栗町","town_kana":"オグリマチ","prefecture_code":38},"0933":{"zip_code":"7900933","prefecture":"愛媛県","prefecture_kana":"エヒメケン","city":"松山市","city_kana":"マツヤマシ","town":"越智","town_kana":"オチ","prefecture_code":38},"0024":{"zip_code":"7900024","prefecture":"愛媛県","prefecture_kana":"エヒメケン","city":"松山市","city_kana":"マツヤマシ","town":"春日町","town_kana":"カスガマチ","prefecture_code":38},"0801":{"zip_code":"7900801","prefecture":"愛媛県","prefecture_kana":"エヒメケン","city":"松山市","city_kana":"マツヤマシ","town":"歩行町","town_kana":"カチマチ","prefecture_code":38},"0878":{"zip_code":"7900878","prefecture":"愛媛県","prefecture_kana":"エヒメケン","city":"松山市","city_kana":"マツヤマシ","town":"勝山町","town_kana":"カツヤマチョウ","prefecture_code":38},"0853":{"zip_code":"7900853","prefecture":"愛媛県","prefecture_kana":"エヒメケン","city":"松山市","city_kana":"マツヤマシ","town":"上市","town_kana":"カミイチ","prefecture_code":38},"0813":{"zip_code":"7900813","prefecture":"愛媛県","prefecture_kana":"エヒメケン","city":"松山市","city_kana":"マツヤマシ","town":"萱町","town_kana":"カヤマチ","prefecture_code":38},"0013":{"zip_code":"7900013","prefecture":"愛媛県","prefecture_kana":"エヒメケン","city":"松山市","city_kana":"マツヤマシ","town":"河原町","town_kana":"カワラマチ","prefecture_code":38},"0965":{"zip_code":"7900965","prefecture":"愛媛県","prefecture_kana":"エヒメケン","city":"松山市","city_kana":"マツヤマシ","town":"祇園町","town_kana":"ギオンマチ","prefecture_code":38},"0923":{"zip_code":"7900923","prefecture":"愛媛県","prefecture_kana":"エヒメケン","city":"松山市","city_kana":"マツヤマシ","town":"北久米町","town_kana":"キタクメマチ","prefecture_code":38},"0867":{"zip_code":"7900867","prefecture":"愛媛県","prefecture_kana":"エヒメケン","city":"松山市","city_kana":"マツヤマシ","town":"北立花町","town_kana":"キタタチバナマチ","prefecture_code":38},"0033":{"zip_code":"7900033","prefecture":"愛媛県","prefecture_kana":"エヒメケン","city":"松山市","city_kana":"マツヤマシ","town":"北藤原町","town_kana":"キタフジワラマチ","prefecture_code":38},"0873":{"zip_code":"7900873","prefecture":"愛媛県","prefecture_kana":"エヒメケン","city":"松山市","city_kana":"マツヤマシ","town":"北持田町","town_kana":"キタモチダマチ","prefecture_code":38},"0821":{"zip_code":"7900821","prefecture":"愛媛県","prefecture_kana":"エヒメケン","city":"松山市","city_kana":"マツヤマシ","town":"木屋町","town_kana":"キヤチョウ","prefecture_code":38},"0802":{"zip_code":"7900802","prefecture":"愛媛県","prefecture_kana":"エヒメケン","city":"松山市","city_kana":"マツヤマシ","town":"喜与町","town_kana":"キヨマチ","prefecture_code":38},"0054":{"zip_code":"7900054","prefecture":"愛媛県","prefecture_kana":"エヒメケン","city":"松山市","city_kana":"マツヤマシ","town":"空港通（１、２丁目）","town_kana":"クウコウドオリ(1、2チョウメ)","prefecture_code":38},"0911":{"zip_code":"7900911","prefecture":"愛媛県","prefecture_kana":"エヒメケン","city":"松山市","city_kana":"マツヤマシ","town":"桑原","town_kana":"クワバラ","prefecture_code":38},"0963":{"zip_code":"7900963","prefecture":"愛媛県","prefecture_kana":"エヒメケン","city":"松山市","city_kana":"マツヤマシ","town":"小坂","town_kana":"コサカ","prefecture_code":38},"0863":{"zip_code":"7900863","prefecture":"愛媛県","prefecture_kana":"エヒメケン","city":"松山市","city_kana":"マツヤマシ","town":"此花町","town_kana":"コノハナマチ","prefecture_code":38},"0838":{"zip_code":"7900838","prefecture":"愛媛県","prefecture_kana":"エヒメケン","city":"松山市","city_kana":"マツヤマシ","town":"桜谷町","town_kana":"サクラダニチョウ","prefecture_code":38},"0914":{"zip_code":"7900914","prefecture":"愛媛県","prefecture_kana":"エヒメケン","city":"松山市","city_kana":"マツヤマシ","town":"三町","town_kana":"サンチョウ","prefecture_code":38},"0003":{"zip_code":"7900003","prefecture":"愛媛県","prefecture_kana":"エヒメケン","city":"松山市","city_kana":"マツヤマシ","town":"三番町","town_kana":"サンバンチョウ","prefecture_code":38},"0803":{"zip_code":"7900803","prefecture":"愛媛県","prefecture_kana":"エヒメケン","city":"松山市","city_kana":"マツヤマシ","town":"東雲町","town_kana":"シノノメチョウ","prefecture_code":38},"0823":{"zip_code":"7900823","prefecture":"愛媛県","prefecture_kana":"エヒメケン","city":"松山市","city_kana":"マツヤマシ","town":"清水町","town_kana":"シミズマチ","prefecture_code":38},"0904":{"zip_code":"7900904","prefecture":"愛媛県","prefecture_kana":"エヒメケン","city":"松山市","city_kana":"マツヤマシ","town":"正円寺","town_kana":"ショウエンジ","prefecture_code":38},"0851":{"zip_code":"7900851","prefecture":"愛媛県","prefecture_kana":"エヒメケン","city":"松山市","city_kana":"マツヤマシ","town":"常光寺町","town_kana":"ジョウコウジチョウ","prefecture_code":38},"0872":{"zip_code":"7900872","prefecture":"愛媛県","prefecture_kana":"エヒメケン","city":"松山市","city_kana":"マツヤマシ","town":"昭和町","town_kana":"ショウワマチ","prefecture_code":38},"0901":{"zip_code":"7900901","prefecture":"愛媛県","prefecture_kana":"エヒメケン","city":"松山市","city_kana":"マツヤマシ","town":"新石手","town_kana":"シンイシテ","prefecture_code":38},"0865":{"zip_code":"7900865","prefecture":"愛媛県","prefecture_kana":"エヒメケン","city":"松山市","city_kana":"マツヤマシ","town":"新立町","town_kana":"シンダテマチ","prefecture_code":38},"0023":{"zip_code":"7900023","prefecture":"愛媛県","prefecture_kana":"エヒメケン","city":"松山市","city_kana":"マツヤマシ","town":"末広町","town_kana":"スエヒロマチ","prefecture_code":38},"0822":{"zip_code":"7900822","prefecture":"愛媛県","prefecture_kana":"エヒメケン","city":"松山市","city_kana":"マツヤマシ","town":"高砂町","town_kana":"タカサゴマチ","prefecture_code":38},"0925":{"zip_code":"7900925","prefecture":"愛媛県","prefecture_kana":"エヒメケン","city":"松山市","city_kana":"マツヤマシ","town":"鷹子町","town_kana":"タカノコマチ","prefecture_code":38},"0967":{"zip_code":"7900967","prefecture":"愛媛県","prefecture_kana":"エヒメケン","city":"松山市","city_kana":"マツヤマシ","town":"拓川町","town_kana":"タクセンチョウ","prefecture_code":38},"0053":{"zip_code":"7900053","prefecture":"愛媛県","prefecture_kana":"エヒメケン","city":"松山市","city_kana":"マツヤマシ","town":"竹原","town_kana":"タケワラ","prefecture_code":38},"0052":{"zip_code":"7900052","prefecture":"愛媛県","prefecture_kana":"エヒメケン","city":"松山市","city_kana":"マツヤマシ","town":"竹原町","town_kana":"タケワラマチ","prefecture_code":38},"0966":{"zip_code":"7900966","prefecture":"愛媛県","prefecture_kana":"エヒメケン","city":"松山市","city_kana":"マツヤマシ","town":"立花","town_kana":"タチバナ","prefecture_code":38},"0905":{"zip_code":"7900905","prefecture":"愛媛県","prefecture_kana":"エヒメケン","city":"松山市","city_kana":"マツヤマシ","town":"樽味","town_kana":"タルミ","prefecture_code":38},"0011":{"zip_code":"7900011","prefecture":"愛媛県","prefecture_kana":"エヒメケン","city":"松山市","city_kana":"マツヤマシ","town":"千舟町","town_kana":"チフネマチ","prefecture_code":38},"0916":{"zip_code":"7900916","prefecture":"愛媛県","prefecture_kana":"エヒメケン","city":"松山市","city_kana":"マツヤマシ","town":"束本","town_kana":"ツカモト","prefecture_code":38},"0864":{"zip_code":"7900864","prefecture":"愛媛県","prefecture_kana":"エヒメケン","city":"松山市","city_kana":"マツヤマシ","town":"築山町","town_kana":"ツキヤマチョウ","prefecture_code":38},"0063":{"zip_code":"7900063","prefecture":"愛媛県","prefecture_kana":"エヒメケン","city":"松山市","city_kana":"マツヤマシ","town":"辻町","town_kana":"ツジマチ","prefecture_code":38},"0048":{"zip_code":"7900048","prefecture":"愛媛県","prefecture_kana":"エヒメケン","city":"松山市","city_kana":"マツヤマシ","town":"出合","town_kana":"デアイ","prefecture_code":38},"0827":{"zip_code":"7900827","prefecture":"愛媛県","prefecture_kana":"エヒメケン","city":"松山市","city_kana":"マツヤマシ","town":"鉄砲町","town_kana":"テッポウチョウ","prefecture_code":38},"0056":{"zip_code":"7900056","prefecture":"愛媛県","prefecture_kana":"エヒメケン","city":"松山市","city_kana":"マツヤマシ","town":"土居田町","town_kana":"ドイダマチ","prefecture_code":38},"0844":{"zip_code":"7900844","prefecture":"愛媛県","prefecture_kana":"エヒメケン","city":"松山市","city_kana":"マツヤマシ","town":"道後一万","town_kana":"ドウゴイチマン","prefecture_code":38},"0845":{"zip_code":"7900845","prefecture":"愛媛県","prefecture_kana":"エヒメケン","city":"松山市","city_kana":"マツヤマシ","town":"道後今市","town_kana":"ドウゴイマイチ","prefecture_code":38},"0846":{"zip_code":"7900846","prefecture":"愛媛県","prefecture_kana":"エヒメケン","city":"松山市","city_kana":"マツヤマシ","town":"道後北代","town_kana":"ドウゴキタシロ","prefecture_code":38},"0848":{"zip_code":"7900848","prefecture":"愛媛県","prefecture_kana":"エヒメケン","city":"松山市","city_kana":"マツヤマシ","town":"道後喜多町","town_kana":"ドウゴキタマチ","prefecture_code":38},"0857":{"zip_code":"7900857","prefecture":"愛媛県","prefecture_kana":"エヒメケン","city":"松山市","city_kana":"マツヤマシ","town":"道後公園","town_kana":"ドウゴコウエン","prefecture_code":38},"0836":{"zip_code":"7900836","prefecture":"愛媛県","prefecture_kana":"エヒメケン","city":"松山市","city_kana":"マツヤマシ","town":"道後鷺谷町","town_kana":"ドウゴサギダニチョウ","prefecture_code":38},"0841":{"zip_code":"7900841","prefecture":"愛媛県","prefecture_kana":"エヒメケン","city":"松山市","city_kana":"マツヤマシ","town":"道後多幸町","town_kana":"ドウゴタコウチョウ","prefecture_code":38},"0825":{"zip_code":"7900825","prefecture":"愛媛県","prefecture_kana":"エヒメケン","city":"松山市","city_kana":"マツヤマシ","town":"道後樋又","town_kana":"ドウゴヒマタ","prefecture_code":38},"0858":{"zip_code":"7900858","prefecture":"愛媛県","prefecture_kana":"エヒメケン","city":"松山市","city_kana":"マツヤマシ","town":"道後姫塚","town_kana":"ドウゴヒメヅカ","prefecture_code":38},"0847":{"zip_code":"7900847","prefecture":"愛媛県","prefecture_kana":"エヒメケン","city":"松山市","city_kana":"マツヤマシ","town":"道後緑台","town_kana":"ドウゴミドリダイ","prefecture_code":38},"0837":{"zip_code":"7900837","prefecture":"愛媛県","prefecture_kana":"エヒメケン","city":"松山市","city_kana":"マツヤマシ","town":"道後湯月町","town_kana":"ドウゴユヅキチョウ","prefecture_code":38},"0842":{"zip_code":"7900842","prefecture":"愛媛県","prefecture_kana":"エヒメケン","city":"松山市","city_kana":"マツヤマシ","town":"道後湯之町","town_kana":"ドウゴユノマチ","prefecture_code":38},"0843":{"zip_code":"7900843","prefecture":"愛媛県","prefecture_kana":"エヒメケン","city":"松山市","city_kana":"マツヤマシ","town":"道後町（１、２丁目）","town_kana":"ドウゴマチ(1、2チョウメ)","prefecture_code":38},"0032":{"zip_code":"7900032","prefecture":"愛媛県","prefecture_kana":"エヒメケン","city":"松山市","city_kana":"マツヤマシ","town":"土橋町","town_kana":"ドバシマチ","prefecture_code":38},"0804":{"zip_code":"7900804","prefecture":"愛媛県","prefecture_kana":"エヒメケン","city":"松山市","city_kana":"マツヤマシ","town":"中一万町","town_kana":"ナカイチマンマチ","prefecture_code":38},"0964":{"zip_code":"7900964","prefecture":"愛媛県","prefecture_kana":"エヒメケン","city":"松山市","city_kana":"マツヤマシ","town":"中村","town_kana":"ナカムラ","prefecture_code":38},"0866":{"zip_code":"7900866","prefecture":"愛媛県","prefecture_kana":"エヒメケン","city":"松山市","city_kana":"マツヤマシ","town":"永木町","town_kana":"ナガキマチ","prefecture_code":38},"0931":{"zip_code":"7900931","prefecture":"愛媛県","prefecture_kana":"エヒメケン","city":"松山市","city_kana":"マツヤマシ","town":"西石井","town_kana":"ニシイシイ","prefecture_code":38},"0805":{"zip_code":"7900805","prefecture":"愛媛県","prefecture_kana":"エヒメケン","city":"松山市","city_kana":"マツヤマシ","town":"西一万町","town_kana":"ニシイチマンマチ","prefecture_code":38},"0877":{"zip_code":"7900877","prefecture":"愛媛県","prefecture_kana":"エヒメケン","city":"松山市","city_kana":"マツヤマシ","town":"錦町","town_kana":"ニシキマチ","prefecture_code":38},"0002":{"zip_code":"7900002","prefecture":"愛媛県","prefecture_kana":"エヒメケン","city":"松山市","city_kana":"マツヤマシ","town":"二番町","town_kana":"ニバンチョウ","prefecture_code":38},"0913":{"zip_code":"7900913","prefecture":"愛媛県","prefecture_kana":"エヒメケン","city":"松山市","city_kana":"マツヤマシ","town":"畑寺","town_kana":"ハタデラ","prefecture_code":38},"0912":{"zip_code":"7900912","prefecture":"愛媛県","prefecture_kana":"エヒメケン","city":"松山市","city_kana":"マツヤマシ","town":"畑寺町","town_kana":"ハタデラマチ","prefecture_code":38},"0005":{"zip_code":"7900005","prefecture":"愛媛県","prefecture_kana":"エヒメケン","city":"松山市","city_kana":"マツヤマシ","town":"花園町","town_kana":"ハナゾノマチ","prefecture_code":38},"0055":{"zip_code":"7900055","prefecture":"愛媛県","prefecture_kana":"エヒメケン","city":"松山市","city_kana":"マツヤマシ","town":"針田町","town_kana":"ハリタマチ","prefecture_code":38},"0932":{"zip_code":"7900932","prefecture":"愛媛県","prefecture_kana":"エヒメケン","city":"松山市","city_kana":"マツヤマシ","town":"東石井","town_kana":"ヒガシイシイ","prefecture_code":38},"0871":{"zip_code":"7900871","prefecture":"愛媛県","prefecture_kana":"エヒメケン","city":"松山市","city_kana":"マツヤマシ","town":"東一万町","town_kana":"ヒガシイチマンマチ","prefecture_code":38},"0903":{"zip_code":"7900903","prefecture":"愛媛県","prefecture_kana":"エヒメケン","city":"松山市","city_kana":"マツヤマシ","town":"東野","town_kana":"ヒガシノ","prefecture_code":38},"0961":{"zip_code":"7900961","prefecture":"愛媛県","prefecture_kana":"エヒメケン","city":"松山市","city_kana":"マツヤマシ","town":"日の出町","town_kana":"ヒノデマチ","prefecture_code":38},"0921":{"zip_code":"7900921","prefecture":"愛媛県","prefecture_kana":"エヒメケン","city":"松山市","city_kana":"マツヤマシ","town":"福音寺町","town_kana":"フクオンジマチ","prefecture_code":38},"0035":{"zip_code":"7900035","prefecture":"愛媛県","prefecture_kana":"エヒメケン","city":"松山市","city_kana":"マツヤマシ","town":"藤原","town_kana":"フジワラ","prefecture_code":38},"0034":{"zip_code":"7900034","prefecture":"愛媛県","prefecture_kana":"エヒメケン","city":"松山市","city_kana":"マツヤマシ","town":"藤原町","town_kana":"フジワラマチ","prefecture_code":38},"0945":{"zip_code":"7900945","prefecture":"愛媛県","prefecture_kana":"エヒメケン","city":"松山市","city_kana":"マツヤマシ","town":"古川町","town_kana":"フルカワマチ","prefecture_code":38},"0944":{"zip_code":"7900944","prefecture":"愛媛県","prefecture_kana":"エヒメケン","city":"松山市","city_kana":"マツヤマシ","town":"古川西","town_kana":"フルカワニシ","prefecture_code":38},"0943":{"zip_code":"7900943","prefecture":"愛媛県","prefecture_kana":"エヒメケン","city":"松山市","city_kana":"マツヤマシ","town":"古川南","town_kana":"フルカワミナミ","prefecture_code":38},"0942":{"zip_code":"7900942","prefecture":"愛媛県","prefecture_kana":"エヒメケン","city":"松山市","city_kana":"マツヤマシ","town":"古川北","town_kana":"フルカワキタ","prefecture_code":38},"0826":{"zip_code":"7900826","prefecture":"愛媛県","prefecture_kana":"エヒメケン","city":"松山市","city_kana":"マツヤマシ","town":"文京町","town_kana":"ブンキョウチョウ","prefecture_code":38},"0807":{"zip_code":"7900807","prefecture":"愛媛県","prefecture_kana":"エヒメケン","city":"松山市","city_kana":"マツヤマシ","town":"平和通","town_kana":"ヘイワドオリ","prefecture_code":38},"0041":{"zip_code":"7900041","prefecture":"愛媛県","prefecture_kana":"エヒメケン","city":"松山市","city_kana":"マツヤマシ","town":"保免上","town_kana":"ホウメンカミ","prefecture_code":38},"0042":{"zip_code":"7900042","prefecture":"愛媛県","prefecture_kana":"エヒメケン","city":"松山市","city_kana":"マツヤマシ","town":"保免中","town_kana":"ホウメンナカ","prefecture_code":38},"0043":{"zip_code":"7900043","prefecture":"愛媛県","prefecture_kana":"エヒメケン","city":"松山市","city_kana":"マツヤマシ","town":"保免西","town_kana":"ホウメンニシ","prefecture_code":38},"0922":[{"zip_code":"7900922","prefecture":"愛媛県","prefecture_kana":"エヒメケン","city":"松山市","city_kana":"マツヤマシ","town":"星岡","town_kana":"ホシオカ","prefecture_code":38},{"zip_code":"7900922","prefecture":"愛媛県","prefecture_kana":"エヒメケン","city":"松山市","city_kana":"マツヤマシ","town":"星岡町","town_kana":"ホシオカマチ","prefecture_code":38}],"0007":{"zip_code":"7900007","prefecture":"愛媛県","prefecture_kana":"エヒメケン","city":"松山市","city_kana":"マツヤマシ","town":"堀之内","town_kana":"ホリノウチ","prefecture_code":38},"0811":{"zip_code":"7900811","prefecture":"愛媛県","prefecture_kana":"エヒメケン","city":"松山市","city_kana":"マツヤマシ","town":"本町","town_kana":"ホンマチ","prefecture_code":38},"0812":{"zip_code":"7900812","prefecture":"愛媛県","prefecture_kana":"エヒメケン","city":"松山市","city_kana":"マツヤマシ","town":"松前町","town_kana":"マサキマチ","prefecture_code":38},"0021":{"zip_code":"7900021","prefecture":"愛媛県","prefecture_kana":"エヒメケン","city":"松山市","city_kana":"マツヤマシ","town":"真砂町","town_kana":"マサゴチョウ","prefecture_code":38},"0915":{"zip_code":"7900915","prefecture":"愛媛県","prefecture_kana":"エヒメケン","city":"松山市","city_kana":"マツヤマシ","town":"松末","town_kana":"マツスエ","prefecture_code":38},"0008":{"zip_code":"7900008","prefecture":"愛媛県","prefecture_kana":"エヒメケン","city":"松山市","city_kana":"マツヤマシ","town":"丸之内","town_kana":"マルノウチ","prefecture_code":38},"0814":{"zip_code":"7900814","prefecture":"愛媛県","prefecture_kana":"エヒメケン","city":"松山市","city_kana":"マツヤマシ","town":"味酒町","town_kana":"ミサケマチ","prefecture_code":38},"0875":{"zip_code":"7900875","prefecture":"愛媛県","prefecture_kana":"エヒメケン","city":"松山市","city_kana":"マツヤマシ","town":"御宝町","town_kana":"ミタカラマチ","prefecture_code":38},"0806":{"zip_code":"7900806","prefecture":"愛媛県","prefecture_kana":"エヒメケン","city":"松山市","city_kana":"マツヤマシ","town":"緑町","town_kana":"ミドリマチ","prefecture_code":38},"0012":{"zip_code":"7900012","prefecture":"愛媛県","prefecture_kana":"エヒメケン","city":"松山市","city_kana":"マツヤマシ","town":"湊町","town_kana":"ミナトマチ","prefecture_code":38},"0062":{"zip_code":"7900062","prefecture":"愛媛県","prefecture_kana":"エヒメケン","city":"松山市","city_kana":"マツヤマシ","town":"南江戸","town_kana":"ミナミエド","prefecture_code":38},"0061":{"zip_code":"7900061","prefecture":"愛媛県","prefecture_kana":"エヒメケン","city":"松山市","city_kana":"マツヤマシ","town":"南江戸町","town_kana":"ミナミエドマチ","prefecture_code":38},"0924":{"zip_code":"7900924","prefecture":"愛媛県","prefecture_kana":"エヒメケン","city":"松山市","city_kana":"マツヤマシ","town":"南久米町","town_kana":"ミナミクメマチ","prefecture_code":38},"0006":{"zip_code":"7900006","prefecture":"愛媛県","prefecture_kana":"エヒメケン","city":"松山市","city_kana":"マツヤマシ","town":"南堀端町","town_kana":"ミナミホリバタチョウ","prefecture_code":38},"0856":{"zip_code":"7900856","prefecture":"愛媛県","prefecture_kana":"エヒメケン","city":"松山市","city_kana":"マツヤマシ","town":"南町","town_kana":"ミナミマチ","prefecture_code":38},"0874":{"zip_code":"7900874","prefecture":"愛媛県","prefecture_kana":"エヒメケン","city":"松山市","city_kana":"マツヤマシ","town":"南持田町","town_kana":"ミナミモチダマチ","prefecture_code":38},"0066":{"zip_code":"7900066","prefecture":"愛媛県","prefecture_kana":"エヒメケン","city":"松山市","city_kana":"マツヤマシ","town":"宮田町","town_kana":"ミヤタマチ","prefecture_code":38},"0065":{"zip_code":"7900065","prefecture":"愛媛県","prefecture_kana":"エヒメケン","city":"松山市","city_kana":"マツヤマシ","town":"宮西","town_kana":"ミヤニシ","prefecture_code":38},"0824":{"zip_code":"7900824","prefecture":"愛媛県","prefecture_kana":"エヒメケン","city":"松山市","city_kana":"マツヤマシ","town":"御幸","town_kana":"ミユキ","prefecture_code":38},"0026":{"zip_code":"7900026","prefecture":"愛媛県","prefecture_kana":"エヒメケン","city":"松山市","city_kana":"マツヤマシ","town":"室町","town_kana":"ムロマチ","prefecture_code":38},"0855":{"zip_code":"7900855","prefecture":"愛媛県","prefecture_kana":"エヒメケン","city":"松山市","city_kana":"マツヤマシ","town":"持田町","town_kana":"モチダマチ","prefecture_code":38},"0861":{"zip_code":"7900861","prefecture":"愛媛県","prefecture_kana":"エヒメケン","city":"松山市","city_kana":"マツヤマシ","town":"紅葉町","town_kana":"モミジマチ","prefecture_code":38},"0014":{"zip_code":"7900014","prefecture":"愛媛県","prefecture_kana":"エヒメケン","city":"松山市","city_kana":"マツヤマシ","town":"柳井町","town_kana":"ヤナイマチ","prefecture_code":38},"0831":{"zip_code":"7900831","prefecture":"愛媛県","prefecture_kana":"エヒメケン","city":"松山市","city_kana":"マツヤマシ","town":"山田町","town_kana":"ヤマダチョウ","prefecture_code":38},"0031":{"zip_code":"7900031","prefecture":"愛媛県","prefecture_kana":"エヒメケン","city":"松山市","city_kana":"マツヤマシ","town":"雄郡","town_kana":"ユウグン","prefecture_code":38},"0862":{"zip_code":"7900862","prefecture":"愛媛県","prefecture_kana":"エヒメケン","city":"松山市","city_kana":"マツヤマシ","town":"湯渡町","town_kana":"ユワタリマチ","prefecture_code":38},"0045":{"zip_code":"7900045","prefecture":"愛媛県","prefecture_kana":"エヒメケン","city":"松山市","city_kana":"マツヤマシ","town":"余戸中","town_kana":"ヨウゴナカ","prefecture_code":38},"0044":{"zip_code":"7900044","prefecture":"愛媛県","prefecture_kana":"エヒメケン","city":"松山市","city_kana":"マツヤマシ","town":"余戸東","town_kana":"ヨウゴヒガシ","prefecture_code":38},"0046":{"zip_code":"7900046","prefecture":"愛媛県","prefecture_kana":"エヒメケン","city":"松山市","city_kana":"マツヤマシ","town":"余戸西","town_kana":"ヨウゴニシ","prefecture_code":38},"0047":{"zip_code":"7900047","prefecture":"愛媛県","prefecture_kana":"エヒメケン","city":"松山市","city_kana":"マツヤマシ","town":"余戸南","town_kana":"ヨウゴミナミ","prefecture_code":38},"0808":{"zip_code":"7900808","prefecture":"愛媛県","prefecture_kana":"エヒメケン","city":"松山市","city_kana":"マツヤマシ","town":"若草町","town_kana":"ワカクサチョウ","prefecture_code":38}}