{"0000":{"zip_code":"7910000","prefecture":"愛媛県","prefecture_kana":"エヒメケン","city":"松山市","city_kana":"マツヤマシ","town":"","town_kana":"","prefecture_code":38},"8076":{"zip_code":"7918076","prefecture":"愛媛県","prefecture_kana":"エヒメケン","city":"松山市","city_kana":"マツヤマシ","town":"会津町","town_kana":"アイヅマチ","prefecture_code":38},"0124":{"zip_code":"7910124","prefecture":"愛媛県","prefecture_kana":"エヒメケン","city":"松山市","city_kana":"マツヤマシ","town":"青波町","town_kana":"アオナミマチ","prefecture_code":38},"8019":{"zip_code":"7918019","prefecture":"愛媛県","prefecture_kana":"エヒメケン","city":"松山市","city_kana":"マツヤマシ","town":"青葉台","town_kana":"アオバダイ","prefecture_code":38},"8024":{"zip_code":"7918024","prefecture":"愛媛県","prefecture_kana":"エヒメケン","city":"松山市","city_kana":"マツヤマシ","town":"朝日ケ丘","town_kana":"アサヒガオカ","prefecture_code":38},"8023":{"zip_code":"7918023","prefecture":"愛媛県","prefecture_kana":"エヒメケン","city":"松山市","city_kana":"マツヤマシ","town":"朝美","town_kana":"アサミ","prefecture_code":38},"8006":{"zip_code":"7918006","prefecture":"愛媛県","prefecture_kana":"エヒメケン","city":"松山市","city_kana":"マツヤマシ","town":"安城寺町","town_kana":"アンジョウジマチ","prefecture_code":38},"8084":{"zip_code":"7918084","prefecture":"愛媛県","prefecture_kana":"エヒメケン","city":"松山市","city_kana":"マツヤマシ","town":"石風呂町","town_kana":"イシフロマチ","prefecture_code":38},"1114":{"zip_code":"7911114","prefecture":"愛媛県","prefecture_kana":"エヒメケン","city":"松山市","city_kana":"マツヤマシ","town":"井門町","town_kana":"イドマチ","prefecture_code":38},"1106":{"zip_code":"7911106","prefecture":"愛媛県","prefecture_kana":"エヒメケン","city":"松山市","city_kana":"マツヤマシ","town":"今在家","town_kana":"イマザイケ","prefecture_code":38},"1103":{"zip_code":"7911103","prefecture":"愛媛県","prefecture_kana":"エヒメケン","city":"松山市","city_kana":"マツヤマシ","town":"今在家町","town_kana":"イマザイケマチ","prefecture_code":38},"1136":{"zip_code":"7911136","prefecture":"愛媛県","prefecture_kana":"エヒメケン","city":"松山市","city_kana":"マツヤマシ","town":"上野町","town_kana":"ウエノマチ","prefecture_code":38},"8077":{"zip_code":"7918077","prefecture":"愛媛県","prefecture_kana":"エヒメケン","city":"松山市","city_kana":"マツヤマシ","town":"内浜町","town_kana":"ウチハマチョウ","prefecture_code":38},"8051":{"zip_code":"7918051","prefecture":"愛媛県","prefecture_kana":"エヒメケン","city":"松山市","city_kana":"マツヤマシ","town":"梅田町","town_kana":"ウメダマチ","prefecture_code":38},"4506":{"zip_code":"7914506","prefecture":"愛媛県","prefecture_kana":"エヒメケン","city":"松山市","city_kana":"マツヤマシ","town":"宇和間","town_kana":"ウワマ","prefecture_code":38},"1134":{"zip_code":"7911134","prefecture":"愛媛県","prefecture_kana":"エヒメケン","city":"松山市","city_kana":"マツヤマシ","town":"恵原町","town_kana":"エバラマチ","prefecture_code":38},"0134":{"zip_code":"7910134","prefecture":"愛媛県","prefecture_kana":"エヒメケン","city":"松山市","city_kana":"マツヤマシ","town":"大井野町","town_kana":"オオイノマチ","prefecture_code":38},"8057":{"zip_code":"7918057","prefecture":"愛媛県","prefecture_kana":"エヒメケン","city":"松山市","city_kana":"マツヤマシ","town":"大可賀","town_kana":"オオカガ","prefecture_code":38},"1126":{"zip_code":"7911126","prefecture":"愛媛県","prefecture_kana":"エヒメケン","city":"松山市","city_kana":"マツヤマシ","town":"大橋町","town_kana":"オオハシマチ","prefecture_code":38},"0241":{"zip_code":"7910241","prefecture":"愛媛県","prefecture_kana":"エヒメケン","city":"松山市","city_kana":"マツヤマシ","town":"小野町","town_kana":"オノマチ","prefecture_code":38},"4502":{"zip_code":"7914502","prefecture":"愛媛県","prefecture_kana":"エヒメケン","city":"松山市","city_kana":"マツヤマシ","town":"小浜","town_kana":"オバマ","prefecture_code":38},"8058":{"zip_code":"7918058","prefecture":"愛媛県","prefecture_kana":"エヒメケン","city":"松山市","city_kana":"マツヤマシ","town":"海岸通","town_kana":"カイガンドオリ","prefecture_code":38},"8091":{"zip_code":"7918091","prefecture":"愛媛県","prefecture_kana":"エヒメケン","city":"松山市","city_kana":"マツヤマシ","town":"門田町","town_kana":"カドタマチ","prefecture_code":38},"0111":{"zip_code":"7910111","prefecture":"愛媛県","prefecture_kana":"エヒメケン","city":"松山市","city_kana":"マツヤマシ","town":"上伊台町","town_kana":"カミイダイマチ","prefecture_code":38},"1124":{"zip_code":"7911124","prefecture":"愛媛県","prefecture_kana":"エヒメケン","city":"松山市","city_kana":"マツヤマシ","town":"上川原町","town_kana":"カミガワラマチ","prefecture_code":38},"0103":{"zip_code":"7910103","prefecture":"愛媛県","prefecture_kana":"エヒメケン","city":"松山市","city_kana":"マツヤマシ","town":"上高野町","town_kana":"カミタカノマチ","prefecture_code":38},"4322":{"zip_code":"7914322","prefecture":"愛媛県","prefecture_kana":"エヒメケン","city":"松山市","city_kana":"マツヤマシ","town":"上怒和","town_kana":"カミヌワ","prefecture_code":38},"8004":{"zip_code":"7918004","prefecture":"愛媛県","prefecture_kana":"エヒメケン","city":"松山市","city_kana":"マツヤマシ","town":"鴨川","town_kana":"カモガワ","prefecture_code":38},"0132":{"zip_code":"7910132","prefecture":"愛媛県","prefecture_kana":"エヒメケン","city":"松山市","city_kana":"マツヤマシ","town":"河中町","town_kana":"カワナカマチ","prefecture_code":38},"0129":{"zip_code":"7910129","prefecture":"愛媛県","prefecture_kana":"エヒメケン","city":"松山市","city_kana":"マツヤマシ","town":"川の郷町","town_kana":"カワノゴウマチ","prefecture_code":38},"8063":{"zip_code":"7918063","prefecture":"愛媛県","prefecture_kana":"エヒメケン","city":"松山市","city_kana":"マツヤマシ","town":"神田町","town_kana":"カンダマチ","prefecture_code":38},"1102":{"zip_code":"7911102","prefecture":"愛媛県","prefecture_kana":"エヒメケン","city":"松山市","city_kana":"マツヤマシ","town":"来住町","town_kana":"キシマチ","prefecture_code":38},"1105":{"zip_code":"7911105","prefecture":"愛媛県","prefecture_kana":"エヒメケン","city":"松山市","city_kana":"マツヤマシ","town":"北井門","town_kana":"キタイド","prefecture_code":38},"0242":{"zip_code":"7910242","prefecture":"愛媛県","prefecture_kana":"エヒメケン","city":"松山市","city_kana":"マツヤマシ","town":"北梅本町","town_kana":"キタウメモトマチ","prefecture_code":38},"8031":{"zip_code":"7918031","prefecture":"愛媛県","prefecture_kana":"エヒメケン","city":"松山市","city_kana":"マツヤマシ","town":"北斎院町","town_kana":"キタサヤチョウ","prefecture_code":38},"1104":{"zip_code":"7911104","prefecture":"愛媛県","prefecture_kana":"エヒメケン","city":"松山市","city_kana":"マツヤマシ","town":"北土居","town_kana":"キタドイ","prefecture_code":38},"8041":{"zip_code":"7918041","prefecture":"愛媛県","prefecture_kana":"エヒメケン","city":"松山市","city_kana":"マツヤマシ","town":"北吉田町","town_kana":"キタヨシダマチ","prefecture_code":38},"8025":{"zip_code":"7918025","prefecture":"愛媛県","prefecture_kana":"エヒメケン","city":"松山市","city_kana":"マツヤマシ","town":"衣山","town_kana":"キヌヤマ","prefecture_code":38},"8055":{"zip_code":"7918055","prefecture":"愛媛県","prefecture_kana":"エヒメケン","city":"松山市","city_kana":"マツヤマシ","town":"清住","town_kana":"キヨスミ","prefecture_code":38},"0054":{"zip_code":"7910054","prefecture":"愛媛県","prefecture_kana":"エヒメケン","city":"松山市","city_kana":"マツヤマシ","town":"空港通","town_kana":"クウコウドオリ","prefecture_code":38},"0150":{"zip_code":"7910150","prefecture":"愛媛県","prefecture_kana":"エヒメケン","city":"松山市","city_kana":"マツヤマシ","town":"九川","town_kana":"クガワ","prefecture_code":38},"1132":{"zip_code":"7911132","prefecture":"愛媛県","prefecture_kana":"エヒメケン","city":"松山市","city_kana":"マツヤマシ","town":"久谷町","town_kana":"クタニマチ","prefecture_code":38},"8035":{"zip_code":"7918035","prefecture":"愛媛県","prefecture_kana":"エヒメケン","city":"松山市","city_kana":"マツヤマシ","town":"久保田町","town_kana":"クボタマチ","prefecture_code":38},"1131":{"zip_code":"7911131","prefecture":"愛媛県","prefecture_kana":"エヒメケン","city":"松山市","city_kana":"マツヤマシ","town":"窪野町","town_kana":"クボノマチ","prefecture_code":38},"4507":{"zip_code":"7914507","prefecture":"愛媛県","prefecture_kana":"エヒメケン","city":"松山市","city_kana":"マツヤマシ","town":"熊田","town_kana":"クマタ","prefecture_code":38},"8016":{"zip_code":"7918016","prefecture":"愛媛県","prefecture_kana":"エヒメケン","city":"松山市","city_kana":"マツヤマシ","town":"久万ノ台","town_kana":"クマノダイ","prefecture_code":38},"1101":{"zip_code":"7911101","prefecture":"愛媛県","prefecture_kana":"エヒメケン","city":"松山市","city_kana":"マツヤマシ","town":"久米窪田町","town_kana":"クメクボタマチ","prefecture_code":38},"4505":{"zip_code":"7914505","prefecture":"愛媛県","prefecture_kana":"エヒメケン","city":"松山市","city_kana":"マツヤマシ","town":"神浦","town_kana":"コウノウラ","prefecture_code":38},"1125":{"zip_code":"7911125","prefecture":"愛媛県","prefecture_kana":"エヒメケン","city":"松山市","city_kana":"マツヤマシ","town":"小村町","town_kana":"コムラマチ","prefecture_code":38},"0135":{"zip_code":"7910135","prefecture":"愛媛県","prefecture_kana":"エヒメケン","city":"松山市","city_kana":"マツヤマシ","town":"米野町","town_kana":"コメノマチ","prefecture_code":38},"8072":{"zip_code":"7918072","prefecture":"愛媛県","prefecture_kana":"エヒメケン","city":"松山市","city_kana":"マツヤマシ","town":"桜ケ丘","town_kana":"サクラガオカ","prefecture_code":38},"0104":{"zip_code":"7910104","prefecture":"愛媛県","prefecture_kana":"エヒメケン","city":"松山市","city_kana":"マツヤマシ","town":"食場町","town_kana":"ジキバマチ","prefecture_code":38},"8003":{"zip_code":"7918003","prefecture":"愛媛県","prefecture_kana":"エヒメケン","city":"松山市","city_kana":"マツヤマシ","town":"志津川町","town_kana":"シツカワマチ","prefecture_code":38},"0112":{"zip_code":"7910112","prefecture":"愛媛県","prefecture_kana":"エヒメケン","city":"松山市","city_kana":"マツヤマシ","town":"下伊台町","town_kana":"シモイダイマチ","prefecture_code":38},"0123":{"zip_code":"7910123","prefecture":"愛媛県","prefecture_kana":"エヒメケン","city":"松山市","city_kana":"マツヤマシ","town":"宿野町","town_kana":"シュクノマチ","prefecture_code":38},"1133":{"zip_code":"7911133","prefecture":"愛媛県","prefecture_kana":"エヒメケン","city":"松山市","city_kana":"マツヤマシ","town":"浄瑠璃町","town_kana":"ジョウルリマチ","prefecture_code":38},"8083":{"zip_code":"7918083","prefecture":"愛媛県","prefecture_kana":"エヒメケン","city":"松山市","city_kana":"マツヤマシ","town":"新浜町","town_kana":"シンハママチ","prefecture_code":38},"0122":{"zip_code":"7910122","prefecture":"愛媛県","prefecture_kana":"エヒメケン","city":"松山市","city_kana":"マツヤマシ","town":"末町","town_kana":"スエマチ","prefecture_code":38},"8052":{"zip_code":"7918052","prefecture":"愛媛県","prefecture_kana":"エヒメケン","city":"松山市","city_kana":"マツヤマシ","town":"須賀町","town_kana":"スガマチ","prefecture_code":38},"0105":{"zip_code":"7910105","prefecture":"愛媛県","prefecture_kana":"エヒメケン","city":"松山市","city_kana":"マツヤマシ","town":"杉立町","town_kana":"スギタテマチ","prefecture_code":38},"8062":{"zip_code":"7918062","prefecture":"愛媛県","prefecture_kana":"エヒメケン","city":"松山市","city_kana":"マツヤマシ","town":"住吉","town_kana":"スミヨシ","prefecture_code":38},"1111":{"zip_code":"7911111","prefecture":"愛媛県","prefecture_kana":"エヒメケン","city":"松山市","city_kana":"マツヤマシ","town":"高井町","town_kana":"タカイマチ","prefecture_code":38},"8036":{"zip_code":"7918036","prefecture":"愛媛県","prefecture_kana":"エヒメケン","city":"松山市","city_kana":"マツヤマシ","town":"高岡町","town_kana":"タカオカマチ","prefecture_code":38},"8007":{"zip_code":"7918007","prefecture":"愛媛県","prefecture_kana":"エヒメケン","city":"松山市","city_kana":"マツヤマシ","town":"高木町","town_kana":"タカギチョウ","prefecture_code":38},"0102":{"zip_code":"7910102","prefecture":"愛媛県","prefecture_kana":"エヒメケン","city":"松山市","city_kana":"マツヤマシ","town":"高野町","town_kana":"タカノマチ","prefecture_code":38},"8081":{"zip_code":"7918081","prefecture":"愛媛県","prefecture_kana":"エヒメケン","city":"松山市","city_kana":"マツヤマシ","town":"高浜町","town_kana":"タカハママチ","prefecture_code":38},"8079":{"zip_code":"7918079","prefecture":"愛媛県","prefecture_kana":"エヒメケン","city":"松山市","city_kana":"マツヤマシ","town":"高山町","town_kana":"タカヤマチョウ","prefecture_code":38},"8086":{"zip_code":"7918086","prefecture":"愛媛県","prefecture_kana":"エヒメケン","city":"松山市","city_kana":"マツヤマシ","town":"辰巳町","town_kana":"タツミチョウ","prefecture_code":38},"8002":{"zip_code":"7918002","prefecture":"愛媛県","prefecture_kana":"エヒメケン","city":"松山市","city_kana":"マツヤマシ","town":"谷町","town_kana":"タニマチ","prefecture_code":38},"0126":{"zip_code":"7910126","prefecture":"愛媛県","prefecture_kana":"エヒメケン","city":"松山市","city_kana":"マツヤマシ","town":"玉谷町","town_kana":"タマタニマチ","prefecture_code":38},"8015":{"zip_code":"7918015","prefecture":"愛媛県","prefecture_kana":"エヒメケン","city":"松山市","city_kana":"マツヤマシ","town":"中央","town_kana":"チュウオウ","prefecture_code":38},"1122":{"zip_code":"7911122","prefecture":"愛媛県","prefecture_kana":"エヒメケン","city":"松山市","city_kana":"マツヤマシ","town":"津吉町","town_kana":"ツヨシマチ","prefecture_code":38},"4324":{"zip_code":"7914324","prefecture":"愛媛県","prefecture_kana":"エヒメケン","city":"松山市","city_kana":"マツヤマシ","town":"津和地","town_kana":"ツワジ","prefecture_code":38},"1115":{"zip_code":"7911115","prefecture":"愛媛県","prefecture_kana":"エヒメケン","city":"松山市","city_kana":"マツヤマシ","town":"土居町","town_kana":"ドイマチ","prefecture_code":38},"8018":{"zip_code":"7918018","prefecture":"愛媛県","prefecture_kana":"エヒメケン","city":"松山市","city_kana":"マツヤマシ","town":"問屋町","town_kana":"トイヤチョウ","prefecture_code":38},"8093":{"zip_code":"7918093","prefecture":"愛媛県","prefecture_kana":"エヒメケン","city":"松山市","city_kana":"マツヤマシ","town":"泊町","town_kana":"トマリマチ","prefecture_code":38},"8034":{"zip_code":"7918034","prefecture":"愛媛県","prefecture_kana":"エヒメケン","city":"松山市","city_kana":"マツヤマシ","town":"富久町","town_kana":"トミヒサマチ","prefecture_code":38},"8078":{"zip_code":"7918078","prefecture":"愛媛県","prefecture_kana":"エヒメケン","city":"松山市","city_kana":"マツヤマシ","town":"中須賀","town_kana":"ナカスガ","prefecture_code":38},"1121":{"zip_code":"7911121","prefecture":"愛媛県","prefecture_kana":"エヒメケン","city":"松山市","city_kana":"マツヤマシ","town":"中野町","town_kana":"ナカノマチ","prefecture_code":38},"4503":{"zip_code":"7914503","prefecture":"愛媛県","prefecture_kana":"エヒメケン","city":"松山市","city_kana":"マツヤマシ","town":"長師","town_kana":"ナガシ","prefecture_code":38},"4511":{"zip_code":"7914511","prefecture":"愛媛県","prefecture_kana":"エヒメケン","city":"松山市","city_kana":"マツヤマシ","town":"中島粟井","town_kana":"ナカジマアワイ","prefecture_code":38},"4501":{"zip_code":"7914501","prefecture":"愛媛県","prefecture_kana":"エヒメケン","city":"松山市","city_kana":"マツヤマシ","town":"中島大浦","town_kana":"ナカジマオオウラ","prefecture_code":38},"8017":{"zip_code":"7918017","prefecture":"愛媛県","prefecture_kana":"エヒメケン","city":"松山市","city_kana":"マツヤマシ","town":"西長戸町","town_kana":"ニシナガトチョウ","prefecture_code":38},"1135":{"zip_code":"7911135","prefecture":"愛媛県","prefecture_kana":"エヒメケン","city":"松山市","city_kana":"マツヤマシ","town":"西野町","town_kana":"ニシノマチ","prefecture_code":38},"8044":{"zip_code":"7918044","prefecture":"愛媛県","prefecture_kana":"エヒメケン","city":"松山市","city_kana":"マツヤマシ","town":"西垣生町","town_kana":"ニシハブマチ","prefecture_code":38},"4509":{"zip_code":"7914509","prefecture":"愛媛県","prefecture_kana":"エヒメケン","city":"松山市","city_kana":"マツヤマシ","town":"饒","town_kana":"ニョウ","prefecture_code":38},"4432":{"zip_code":"7914432","prefecture":"愛媛県","prefecture_kana":"エヒメケン","city":"松山市","city_kana":"マツヤマシ","town":"野忽那","town_kana":"ノグツナ","prefecture_code":38},"8082":{"zip_code":"7918082","prefecture":"愛媛県","prefecture_kana":"エヒメケン","city":"松山市","city_kana":"マツヤマシ","town":"梅津寺町","town_kana":"バイシンジマチ","prefecture_code":38},"0113":{"zip_code":"7910113","prefecture":"愛媛県","prefecture_kana":"エヒメケン","city":"松山市","city_kana":"マツヤマシ","town":"白水台","town_kana":"ハクスイダイ","prefecture_code":38},"4510":{"zip_code":"7914510","prefecture":"愛媛県","prefecture_kana":"エヒメケン","city":"松山市","city_kana":"マツヤマシ","town":"畑里","town_kana":"ハタリ","prefecture_code":38},"8066":{"zip_code":"7918066","prefecture":"愛媛県","prefecture_kana":"エヒメケン","city":"松山市","city_kana":"マツヤマシ","town":"祓川","town_kana":"ハライカワ","prefecture_code":38},"8087":{"zip_code":"7918087","prefecture":"愛媛県","prefecture_kana":"エヒメケン","city":"松山市","city_kana":"マツヤマシ","town":"春美町","town_kana":"ハルミチョウ","prefecture_code":38},"1123":{"zip_code":"7911123","prefecture":"愛媛県","prefecture_kana":"エヒメケン","city":"松山市","city_kana":"マツヤマシ","town":"東方町","town_kana":"ヒガシガタマチ","prefecture_code":38},"0133":{"zip_code":"7910133","prefecture":"愛媛県","prefecture_kana":"エヒメケン","city":"松山市","city_kana":"マツヤマシ","town":"東川町","town_kana":"ヒガシガワマチ","prefecture_code":38},"8005":{"zip_code":"7918005","prefecture":"愛媛県","prefecture_kana":"エヒメケン","city":"松山市","city_kana":"マツヤマシ","town":"東長戸","town_kana":"ヒガシナガト","prefecture_code":38},"8043":{"zip_code":"7918043","prefecture":"愛媛県","prefecture_kana":"エヒメケン","city":"松山市","city_kana":"マツヤマシ","town":"東垣生町","town_kana":"ヒガシハブマチ","prefecture_code":38},"8074":{"zip_code":"7918074","prefecture":"愛媛県","prefecture_kana":"エヒメケン","city":"松山市","city_kana":"マツヤマシ","town":"東山町","town_kana":"ヒガシヤママチ","prefecture_code":38},"8075":{"zip_code":"7918075","prefecture":"愛媛県","prefecture_kana":"エヒメケン","city":"松山市","city_kana":"マツヤマシ","town":"ひばりケ丘","town_kana":"ヒバリガオカ","prefecture_code":38},"8012":{"zip_code":"7918012","prefecture":"愛媛県","prefecture_kana":"エヒメケン","city":"松山市","city_kana":"マツヤマシ","town":"姫原","town_kana":"ヒメバラ","prefecture_code":38},"0243":{"zip_code":"7910243","prefecture":"愛媛県","prefecture_kana":"エヒメケン","city":"松山市","city_kana":"マツヤマシ","town":"平井町","town_kana":"ヒライマチ","prefecture_code":38},"8001":{"zip_code":"7918001","prefecture":"愛媛県","prefecture_kana":"エヒメケン","city":"松山市","city_kana":"マツヤマシ","town":"平田町","town_kana":"ヒラタマチ","prefecture_code":38},"0128":{"zip_code":"7910128","prefecture":"愛媛県","prefecture_kana":"エヒメケン","city":"松山市","city_kana":"マツヤマシ","town":"福見川町","town_kana":"フクミガワマチ","prefecture_code":38},"0127":{"zip_code":"7910127","prefecture":"愛媛県","prefecture_kana":"エヒメケン","city":"松山市","city_kana":"マツヤマシ","town":"藤野町","town_kana":"フジノマチ","prefecture_code":38},"4323":{"zip_code":"7914323","prefecture":"愛媛県","prefecture_kana":"エヒメケン","city":"松山市","city_kana":"マツヤマシ","town":"二神","town_kana":"フタガミ","prefecture_code":38},"8073":{"zip_code":"7918073","prefecture":"愛媛県","prefecture_kana":"エヒメケン","city":"松山市","city_kana":"マツヤマシ","town":"船ケ谷町","town_kana":"フネガタニチョウ","prefecture_code":38},"8067":[{"zip_code":"7918067","prefecture":"愛媛県","prefecture_kana":"エヒメケン","city":"松山市","city_kana":"マツヤマシ","town":"古三津","town_kana":"フルミツ","prefecture_code":38},{"zip_code":"7918067","prefecture":"愛媛県","prefecture_kana":"エヒメケン","city":"松山市","city_kana":"マツヤマシ","town":"古三津町","town_kana":"フルミツマチ","prefecture_code":38}],"8056":{"zip_code":"7918056","prefecture":"愛媛県","prefecture_kana":"エヒメケン","city":"松山市","city_kana":"マツヤマシ","town":"別府町","town_kana":"ベフチョウ","prefecture_code":38},"8054":{"zip_code":"7918054","prefecture":"愛媛県","prefecture_kana":"エヒメケン","city":"松山市","city_kana":"マツヤマシ","town":"松江町","town_kana":"マツエチョウ","prefecture_code":38},"8071":{"zip_code":"7918071","prefecture":"愛媛県","prefecture_kana":"エヒメケン","city":"松山市","city_kana":"マツヤマシ","town":"松ノ木","town_kana":"マツノキ","prefecture_code":38},"8022":{"zip_code":"7918022","prefecture":"愛媛県","prefecture_kana":"エヒメケン","city":"松山市","city_kana":"マツヤマシ","town":"美沢","town_kana":"ミサワ","prefecture_code":38},"8065":{"zip_code":"7918065","prefecture":"愛媛県","prefecture_kana":"エヒメケン","city":"松山市","city_kana":"マツヤマシ","town":"三杉町","town_kana":"ミスギマチ","prefecture_code":38},"0101":{"zip_code":"7910101","prefecture":"愛媛県","prefecture_kana":"エヒメケン","city":"松山市","city_kana":"マツヤマシ","town":"溝辺町","town_kana":"ミゾノベマチ","prefecture_code":38},"8061":{"zip_code":"7918061","prefecture":"愛媛県","prefecture_kana":"エヒメケン","city":"松山市","city_kana":"マツヤマシ","town":"三津","town_kana":"ミツ","prefecture_code":38},"8060":{"zip_code":"7918060","prefecture":"愛媛県","prefecture_kana":"エヒメケン","city":"松山市","city_kana":"マツヤマシ","town":"三津ふ頭","town_kana":"ミツフトウ","prefecture_code":38},"8068":{"zip_code":"7918068","prefecture":"愛媛県","prefecture_kana":"エヒメケン","city":"松山市","city_kana":"マツヤマシ","town":"みどりケ丘","town_kana":"ミドリガオカ","prefecture_code":38},"0244":{"zip_code":"7910244","prefecture":"愛媛県","prefecture_kana":"エヒメケン","city":"松山市","city_kana":"マツヤマシ","town":"水泥町","town_kana":"ミドロマチ","prefecture_code":38},"0131":{"zip_code":"7910131","prefecture":"愛媛県","prefecture_kana":"エヒメケン","city":"松山市","city_kana":"マツヤマシ","town":"水口町","town_kana":"ミナクチマチ","prefecture_code":38},"8085":{"zip_code":"7918085","prefecture":"愛媛県","prefecture_kana":"エヒメケン","city":"松山市","city_kana":"マツヤマシ","town":"港山町","town_kana":"ミナトヤママチ","prefecture_code":38},"0245":{"zip_code":"7910245","prefecture":"愛媛県","prefecture_kana":"エヒメケン","city":"松山市","city_kana":"マツヤマシ","town":"南梅本町","town_kana":"ミナミウメモトマチ","prefecture_code":38},"8032":{"zip_code":"7918032","prefecture":"愛媛県","prefecture_kana":"エヒメケン","city":"松山市","city_kana":"マツヤマシ","town":"南斎院町","town_kana":"ミナミサヤチョウ","prefecture_code":38},"1112":{"zip_code":"7911112","prefecture":"愛媛県","prefecture_kana":"エヒメケン","city":"松山市","city_kana":"マツヤマシ","town":"南高井町","town_kana":"ミナミタカイマチ","prefecture_code":38},"1116":{"zip_code":"7911116","prefecture":"愛媛県","prefecture_kana":"エヒメケン","city":"松山市","city_kana":"マツヤマシ","town":"南土居町","town_kana":"ミナミドイマチ","prefecture_code":38},"0114":{"zip_code":"7910114","prefecture":"愛媛県","prefecture_kana":"エヒメケン","city":"松山市","city_kana":"マツヤマシ","town":"南白水","town_kana":"ミナミハクスイ","prefecture_code":38},"8042":{"zip_code":"7918042","prefecture":"愛媛県","prefecture_kana":"エヒメケン","city":"松山市","city_kana":"マツヤマシ","town":"南吉田町","town_kana":"ミナミヨシダマチ","prefecture_code":38},"4504":{"zip_code":"7914504","prefecture":"愛媛県","prefecture_kana":"エヒメケン","city":"松山市","city_kana":"マツヤマシ","town":"宮野","town_kana":"ミヤノ","prefecture_code":38},"8027":{"zip_code":"7918027","prefecture":"愛媛県","prefecture_kana":"エヒメケン","city":"松山市","city_kana":"マツヤマシ","town":"明神丘","town_kana":"ミョウジンオカ","prefecture_code":38},"4431":{"zip_code":"7914431","prefecture":"愛媛県","prefecture_kana":"エヒメケン","city":"松山市","city_kana":"マツヤマシ","town":"睦月","town_kana":"ムヅキ","prefecture_code":38},"4321":{"zip_code":"7914321","prefecture":"愛媛県","prefecture_kana":"エヒメケン","city":"松山市","city_kana":"マツヤマシ","town":"元怒和","town_kana":"モトヌワ","prefecture_code":38},"8064":{"zip_code":"7918064","prefecture":"愛媛県","prefecture_kana":"エヒメケン","city":"松山市","city_kana":"マツヤマシ","town":"元町","town_kana":"モトマチ","prefecture_code":38},"1113":{"zip_code":"7911113","prefecture":"愛媛県","prefecture_kana":"エヒメケン","city":"松山市","city_kana":"マツヤマシ","town":"森松町","town_kana":"モリマツマチ","prefecture_code":38},"8013":{"zip_code":"7918013","prefecture":"愛媛県","prefecture_kana":"エヒメケン","city":"松山市","city_kana":"マツヤマシ","town":"山越","town_kana":"ヤマゴエ","prefecture_code":38},"8014":{"zip_code":"7918014","prefecture":"愛媛県","prefecture_kana":"エヒメケン","city":"松山市","city_kana":"マツヤマシ","town":"山越町","town_kana":"ヤマゴエマチ","prefecture_code":38},"8026":{"zip_code":"7918026","prefecture":"愛媛県","prefecture_kana":"エヒメケン","city":"松山市","city_kana":"マツヤマシ","town":"山西町","town_kana":"ヤマニシチョウ","prefecture_code":38},"0121":{"zip_code":"7910121","prefecture":"愛媛県","prefecture_kana":"エヒメケン","city":"松山市","city_kana":"マツヤマシ","town":"湯の山","town_kana":"ユノヤマ","prefecture_code":38},"0120":{"zip_code":"7910120","prefecture":"愛媛県","prefecture_kana":"エヒメケン","city":"松山市","city_kana":"マツヤマシ","town":"湯の山東","town_kana":"ユノヤマヒガシ","prefecture_code":38},"0125":{"zip_code":"7910125","prefecture":"愛媛県","prefecture_kana":"エヒメケン","city":"松山市","city_kana":"マツヤマシ","town":"湯山柳","town_kana":"ユヤマヤナギ","prefecture_code":38},"8092":{"zip_code":"7918092","prefecture":"愛媛県","prefecture_kana":"エヒメケン","city":"松山市","city_kana":"マツヤマシ","town":"由良町","town_kana":"ユラマチ","prefecture_code":38},"4508":{"zip_code":"7914508","prefecture":"愛媛県","prefecture_kana":"エヒメケン","city":"松山市","city_kana":"マツヤマシ","town":"吉木","town_kana":"ヨシキ","prefecture_code":38},"8069":{"zip_code":"7918069","prefecture":"愛媛県","prefecture_kana":"エヒメケン","city":"松山市","city_kana":"マツヤマシ","town":"吉野町","town_kana":"ヨシノチョウ","prefecture_code":38},"8011":{"zip_code":"7918011","prefecture":"愛媛県","prefecture_kana":"エヒメケン","city":"松山市","city_kana":"マツヤマシ","town":"吉藤","town_kana":"ヨシフジ","prefecture_code":38},"8021":{"zip_code":"7918021","prefecture":"愛媛県","prefecture_kana":"エヒメケン","city":"松山市","city_kana":"マツヤマシ","town":"六軒家町","town_kana":"ロッケンヤチョウ","prefecture_code":38},"8053":{"zip_code":"7918053","prefecture":"愛媛県","prefecture_kana":"エヒメケン","city":"松山市","city_kana":"マツヤマシ","town":"若葉町","town_kana":"ワカバチョウ","prefecture_code":38},"0562":{"zip_code":"7910562","prefecture":"愛媛県","prefecture_kana":"エヒメケン","city":"西条市","city_kana":"サイジョウシ","town":"小松町石鎚上戸石","town_kana":"コマツチョウイシヅチカミトイシ","prefecture_code":38},"0533":{"zip_code":"7910533","prefecture":"愛媛県","prefecture_kana":"エヒメケン","city":"西条市","city_kana":"サイジョウシ","town":"丹原町明穂","town_kana":"タンバラチョウアカオ","prefecture_code":38},"0508":{"zip_code":"7910508","prefecture":"愛媛県","prefecture_kana":"エヒメケン","city":"西条市","city_kana":"サイジョウシ","town":"丹原町池田","town_kana":"タンバラチョウイケダ","prefecture_code":38},"0532":{"zip_code":"7910532","prefecture":"愛媛県","prefecture_kana":"エヒメケン","city":"西条市","city_kana":"サイジョウシ","town":"丹原町石経","town_kana":"タンバラチョウイシキョウ","prefecture_code":38},"0503":{"zip_code":"7910503","prefecture":"愛媛県","prefecture_kana":"エヒメケン","city":"西条市","city_kana":"サイジョウシ","town":"丹原町今井","town_kana":"タンバラチョウイマイ","prefecture_code":38},"0537":{"zip_code":"7910537","prefecture":"愛媛県","prefecture_kana":"エヒメケン","city":"西条市","city_kana":"サイジョウシ","town":"丹原町臼坂","town_kana":"タンバラチョウウスザカ","prefecture_code":38},"0525":{"zip_code":"7910525","prefecture":"愛媛県","prefecture_kana":"エヒメケン","city":"西条市","city_kana":"サイジョウシ","town":"丹原町川根","town_kana":"タンバラチョウカワネ","prefecture_code":38},"0502":{"zip_code":"7910502","prefecture":"愛媛県","prefecture_kana":"エヒメケン","city":"西条市","city_kana":"サイジョウシ","town":"丹原町願連寺","town_kana":"タンバラチョウガンレンジ","prefecture_code":38},"0523":{"zip_code":"7910523","prefecture":"愛媛県","prefecture_kana":"エヒメケン","city":"西条市","city_kana":"サイジョウシ","town":"丹原町北田野","town_kana":"タンバラチョウキタタノ","prefecture_code":38},"0542":{"zip_code":"7910542","prefecture":"愛媛県","prefecture_kana":"エヒメケン","city":"西条市","city_kana":"サイジョウシ","town":"丹原町楠窪","town_kana":"タンバラチョウクスクボ","prefecture_code":38},"0504":{"zip_code":"7910504","prefecture":"愛媛県","prefecture_kana":"エヒメケン","city":"西条市","city_kana":"サイジョウシ","town":"丹原町久妙寺","town_kana":"タンバラチョウクミョウジ","prefecture_code":38},"0541":{"zip_code":"7910541","prefecture":"愛媛県","prefecture_kana":"エヒメケン","city":"西条市","city_kana":"サイジョウシ","town":"丹原町鞍瀬","town_kana":"タンバラチョウクラセ","prefecture_code":38},"0531":{"zip_code":"7910531","prefecture":"愛媛県","prefecture_kana":"エヒメケン","city":"西条市","city_kana":"サイジョウシ","town":"丹原町来見","town_kana":"タンバラチョウクルミ","prefecture_code":38},"0507":{"zip_code":"7910507","prefecture":"愛媛県","prefecture_kana":"エヒメケン","city":"西条市","city_kana":"サイジョウシ","town":"丹原町高知","town_kana":"タンバラチョウコウチ","prefecture_code":38},"0505":{"zip_code":"7910505","prefecture":"愛媛県","prefecture_kana":"エヒメケン","city":"西条市","city_kana":"サイジョウシ","town":"丹原町古田","town_kana":"タンバラチョウコタ","prefecture_code":38},"0535":{"zip_code":"7910535","prefecture":"愛媛県","prefecture_kana":"エヒメケン","city":"西条市","city_kana":"サイジョウシ","town":"丹原町志川","town_kana":"タンバラチョウシカワ","prefecture_code":38},"0527":{"zip_code":"7910527","prefecture":"愛媛県","prefecture_kana":"エヒメケン","city":"西条市","city_kana":"サイジョウシ","town":"丹原町関屋","town_kana":"タンバラチョウセキヤ","prefecture_code":38},"0524":{"zip_code":"7910524","prefecture":"愛媛県","prefecture_kana":"エヒメケン","city":"西条市","city_kana":"サイジョウシ","town":"丹原町高松","town_kana":"タンバラチョウタカマツ","prefecture_code":38},"0526":{"zip_code":"7910526","prefecture":"愛媛県","prefecture_kana":"エヒメケン","city":"西条市","city_kana":"サイジョウシ","town":"丹原町田滝","town_kana":"タンバラチョウタタキ","prefecture_code":38},"0522":{"zip_code":"7910522","prefecture":"愛媛県","prefecture_kana":"エヒメケン","city":"西条市","city_kana":"サイジョウシ","town":"丹原町田野上方","town_kana":"タンバラチョウタノウワガタ","prefecture_code":38},"0510":{"zip_code":"7910510","prefecture":"愛媛県","prefecture_kana":"エヒメケン","city":"西条市","city_kana":"サイジョウシ","town":"丹原町丹原","town_kana":"タンバラチョウタンバラ","prefecture_code":38},"0538":{"zip_code":"7910538","prefecture":"愛媛県","prefecture_kana":"エヒメケン","city":"西条市","city_kana":"サイジョウシ","town":"丹原町千原","town_kana":"タンバラチョウチハラ","prefecture_code":38},"0534":{"zip_code":"7910534","prefecture":"愛媛県","prefecture_kana":"エヒメケン","city":"西条市","city_kana":"サイジョウシ","town":"丹原町寺尾","town_kana":"タンバラチョウテラオ","prefecture_code":38},"0506":{"zip_code":"7910506","prefecture":"愛媛県","prefecture_kana":"エヒメケン","city":"西条市","city_kana":"サイジョウシ","town":"丹原町徳能","town_kana":"タンバラチョウトクノウ","prefecture_code":38},"0501":{"zip_code":"7910501","prefecture":"愛媛県","prefecture_kana":"エヒメケン","city":"西条市","city_kana":"サイジョウシ","town":"丹原町徳能出作","town_kana":"タンバラチョウトクノデサク","prefecture_code":38},"0521":{"zip_code":"7910521","prefecture":"愛媛県","prefecture_kana":"エヒメケン","city":"西条市","city_kana":"サイジョウシ","town":"丹原町長野","town_kana":"タンバラチョウナガノ","prefecture_code":38},"0543":{"zip_code":"7910543","prefecture":"愛媛県","prefecture_kana":"エヒメケン","city":"西条市","city_kana":"サイジョウシ","town":"丹原町明河","town_kana":"タンバラチョウミョウガ","prefecture_code":38},"0536":{"zip_code":"7910536","prefecture":"愛媛県","prefecture_kana":"エヒメケン","city":"西条市","city_kana":"サイジョウシ","town":"丹原町湯谷口","town_kana":"タンバラチョウユヤグチ","prefecture_code":38},"3203":{"zip_code":"7913203","prefecture":"愛媛県","prefecture_kana":"エヒメケン","city":"伊予市","city_kana":"イヨシ","town":"中山町出渕","town_kana":"ナカヤマチョウイズブチ","prefecture_code":38},"3204":{"zip_code":"7913204","prefecture":"愛媛県","prefecture_kana":"エヒメケン","city":"伊予市","city_kana":"イヨシ","town":"中山町出渕","town_kana":"ナカヤマチョウイズブチ","prefecture_code":38},"3202":{"zip_code":"7913202","prefecture":"愛媛県","prefecture_kana":"エヒメケン","city":"伊予市","city_kana":"イヨシ","town":"中山町栗田","town_kana":"ナカヤマチョウクリダ","prefecture_code":38},"3201":{"zip_code":"7913201","prefecture":"愛媛県","prefecture_kana":"エヒメケン","city":"伊予市","city_kana":"イヨシ","town":"中山町佐礼谷","town_kana":"ナカヤマチョウサレタニ","prefecture_code":38},"3205":{"zip_code":"7913205","prefecture":"愛媛県","prefecture_kana":"エヒメケン","city":"伊予市","city_kana":"イヨシ","town":"中山町中山泉町","town_kana":"ナカヤマチョウナカヤマイズミマチ","prefecture_code":38},"3206":{"zip_code":"7913206","prefecture":"愛媛県","prefecture_kana":"エヒメケン","city":"伊予市","city_kana":"イヨシ","town":"中山町中山","town_kana":"ナカヤマチョウナカヤマ","prefecture_code":38},"0200":{"zip_code":"7910200","prefecture":"愛媛県","prefecture_kana":"エヒメケン","city":"東温市","city_kana":"トウオンシ","town":"","town_kana":"","prefecture_code":38},"0315":{"zip_code":"7910315","prefecture":"愛媛県","prefecture_kana":"エヒメケン","city":"東温市","city_kana":"トウオンシ","town":"井内","town_kana":"イウチ","prefecture_code":38},"0221":{"zip_code":"7910221","prefecture":"愛媛県","prefecture_kana":"エヒメケン","city":"東温市","city_kana":"トウオンシ","town":"上村","town_kana":"ウエムラ","prefecture_code":38},"0213":{"zip_code":"7910213","prefecture":"愛媛県","prefecture_kana":"エヒメケン","city":"東温市","city_kana":"トウオンシ","town":"牛渕","town_kana":"ウシブチ","prefecture_code":38},"0223":{"zip_code":"7910223","prefecture":"愛媛県","prefecture_kana":"エヒメケン","city":"東温市","city_kana":"トウオンシ","town":"上林","town_kana":"カミバヤシ","prefecture_code":38},"0321":{"zip_code":"7910321","prefecture":"愛媛県","prefecture_kana":"エヒメケン","city":"東温市","city_kana":"トウオンシ","town":"河之内","town_kana":"カワノウチ","prefecture_code":38},"0303":{"zip_code":"7910303","prefecture":"愛媛県","prefecture_kana":"エヒメケン","city":"東温市","city_kana":"トウオンシ","town":"北方","town_kana":"キタガタ","prefecture_code":38},"0215":{"zip_code":"7910215","prefecture":"愛媛県","prefecture_kana":"エヒメケン","city":"東温市","city_kana":"トウオンシ","town":"北野田","town_kana":"キタノダ","prefecture_code":38},"0204":{"zip_code":"7910204","prefecture":"愛媛県","prefecture_kana":"エヒメケン","city":"東温市","city_kana":"トウオンシ","town":"志津川","town_kana":"シツカワ","prefecture_code":38},"0222":{"zip_code":"7910222","prefecture":"愛媛県","prefecture_kana":"エヒメケン","city":"東温市","city_kana":"トウオンシ","town":"下林","town_kana":"シモバヤシ","prefecture_code":38},"0311":{"zip_code":"7910311","prefecture":"愛媛県","prefecture_kana":"エヒメケン","city":"東温市","city_kana":"トウオンシ","town":"則之内甲","town_kana":"スノウチコウ","prefecture_code":38},"0312":{"zip_code":"7910312","prefecture":"愛媛県","prefecture_kana":"エヒメケン","city":"東温市","city_kana":"トウオンシ","town":"則之内乙","town_kana":"スノウチオツ","prefecture_code":38},"0313":{"zip_code":"7910313","prefecture":"愛媛県","prefecture_kana":"エヒメケン","city":"東温市","city_kana":"トウオンシ","town":"則之内丙","town_kana":"スノウチヘイ","prefecture_code":38},"0212":{"zip_code":"7910212","prefecture":"愛媛県","prefecture_kana":"エヒメケン","city":"東温市","city_kana":"トウオンシ","town":"田窪","town_kana":"タノクボ","prefecture_code":38},"0322":{"zip_code":"7910322","prefecture":"愛媛県","prefecture_kana":"エヒメケン","city":"東温市","city_kana":"トウオンシ","town":"滑川","town_kana":"ナメガワ","prefecture_code":38},"0205":{"zip_code":"7910205","prefecture":"愛媛県","prefecture_kana":"エヒメケン","city":"東温市","city_kana":"トウオンシ","town":"西岡","town_kana":"ニシオカ","prefecture_code":38},"0216":{"zip_code":"7910216","prefecture":"愛媛県","prefecture_kana":"エヒメケン","city":"東温市","city_kana":"トウオンシ","town":"野田","town_kana":"ノダ","prefecture_code":38},"0202":{"zip_code":"7910202","prefecture":"愛媛県","prefecture_kana":"エヒメケン","city":"東温市","city_kana":"トウオンシ","town":"樋口","town_kana":"ヒノクチ","prefecture_code":38},"0314":{"zip_code":"7910314","prefecture":"愛媛県","prefecture_kana":"エヒメケン","city":"東温市","city_kana":"トウオンシ","town":"松瀬川","town_kana":"マセカワ","prefecture_code":38},"0301":{"zip_code":"7910301","prefecture":"愛媛県","prefecture_kana":"エヒメケン","city":"東温市","city_kana":"トウオンシ","town":"南方","town_kana":"ミナミガタ","prefecture_code":38},"0214":{"zip_code":"7910214","prefecture":"愛媛県","prefecture_kana":"エヒメケン","city":"東温市","city_kana":"トウオンシ","town":"南野田","town_kana":"ミナミノダ","prefecture_code":38},"0211":{"zip_code":"7910211","prefecture":"愛媛県","prefecture_kana":"エヒメケン","city":"東温市","city_kana":"トウオンシ","town":"見奈良","town_kana":"ミナラ","prefecture_code":38},"0323":{"zip_code":"7910323","prefecture":"愛媛県","prefecture_kana":"エヒメケン","city":"東温市","city_kana":"トウオンシ","town":"明河","town_kana":"ミョウガ","prefecture_code":38},"0201":{"zip_code":"7910201","prefecture":"愛媛県","prefecture_kana":"エヒメケン","city":"東温市","city_kana":"トウオンシ","town":"山之内","town_kana":"ヤマノウチ","prefecture_code":38},"0203":{"zip_code":"7910203","prefecture":"愛媛県","prefecture_kana":"エヒメケン","city":"東温市","city_kana":"トウオンシ","town":"横河原","town_kana":"ヨコガワラ","prefecture_code":38},"0302":{"zip_code":"7910302","prefecture":"愛媛県","prefecture_kana":"エヒメケン","city":"東温市","city_kana":"トウオンシ","town":"吉久","town_kana":"ヨシヒサ","prefecture_code":38},"1200":{"zip_code":"7911200","prefecture":"愛媛県","prefecture_kana":"エヒメケン","city":"上浮穴郡久万高原町","city_kana":"カミウケナグンクマコウゲンチョウ","town":"","town_kana":"","prefecture_code":38},"1709":{"zip_code":"7911709","prefecture":"愛媛県","prefecture_kana":"エヒメケン","city":"上浮穴郡久万高原町","city_kana":"カミウケナグンクマコウゲンチョウ","town":"相の木","town_kana":"アイノキ","prefecture_code":38},"1705":{"zip_code":"7911705","prefecture":"愛媛県","prefecture_kana":"エヒメケン","city":"上浮穴郡久万高原町","city_kana":"カミウケナグンクマコウゲンチョウ","town":"相の峰","town_kana":"アイノミネ","prefecture_code":38},"1505":{"zip_code":"7911505","prefecture":"愛媛県","prefecture_kana":"エヒメケン","city":"上浮穴郡久万高原町","city_kana":"カミウケナグンクマコウゲンチョウ","town":"有枝","town_kana":"アリエダ","prefecture_code":38},"1202":{"zip_code":"7911202","prefecture":"愛媛県","prefecture_kana":"エヒメケン","city":"上浮穴郡久万高原町","city_kana":"カミウケナグンクマコウゲンチョウ","town":"入野","town_kana":"イリノ","prefecture_code":38},"1504":{"zip_code":"7911504","prefecture":"愛媛県","prefecture_kana":"エヒメケン","city":"上浮穴郡久万高原町","city_kana":"カミウケナグンクマコウゲンチョウ","town":"大川","town_kana":"オオガワ","prefecture_code":38},"1702":{"zip_code":"7911702","prefecture":"愛媛県","prefecture_kana":"エヒメケン","city":"上浮穴郡久万高原町","city_kana":"カミウケナグンクマコウゲンチョウ","town":"大成","town_kana":"オオナル","prefecture_code":38},"1703":{"zip_code":"7911703","prefecture":"愛媛県","prefecture_kana":"エヒメケン","city":"上浮穴郡久万高原町","city_kana":"カミウケナグンクマコウゲンチョウ","town":"笠方","town_kana":"カサガタ","prefecture_code":38},"1501":{"zip_code":"7911501","prefecture":"愛媛県","prefecture_kana":"エヒメケン","city":"上浮穴郡久万高原町","city_kana":"カミウケナグンクマコウゲンチョウ","town":"上黒岩","town_kana":"カミクロイワ","prefecture_code":38},"1206":{"zip_code":"7911206","prefecture":"愛媛県","prefecture_kana":"エヒメケン","city":"上浮穴郡久万高原町","city_kana":"カミウケナグンクマコウゲンチョウ","town":"上野尻","town_kana":"カミノジリ","prefecture_code":38},"1211":{"zip_code":"7911211","prefecture":"愛媛県","prefecture_kana":"エヒメケン","city":"上浮穴郡久万高原町","city_kana":"カミウケナグンクマコウゲンチョウ","town":"上畑野川","town_kana":"カミハタノカワ","prefecture_code":38},"1201":{"zip_code":"7911201","prefecture":"愛媛県","prefecture_kana":"エヒメケン","city":"上浮穴郡久万高原町","city_kana":"カミウケナグンクマコウゲンチョウ","town":"久万","town_kana":"クマ","prefecture_code":38},"1515":{"zip_code":"7911515","prefecture":"愛媛県","prefecture_kana":"エヒメケン","city":"上浮穴郡久万高原町","city_kana":"カミウケナグンクマコウゲンチョウ","town":"黒藤川","town_kana":"クロフジガワ","prefecture_code":38},"1708":{"zip_code":"7911708","prefecture":"愛媛県","prefecture_kana":"エヒメケン","city":"上浮穴郡久万高原町","city_kana":"カミウケナグンクマコウゲンチョウ","town":"河の子","town_kana":"コウノコ","prefecture_code":38},"1514":{"zip_code":"7911514","prefecture":"愛媛県","prefecture_kana":"エヒメケン","city":"上浮穴郡久万高原町","city_kana":"カミウケナグンクマコウゲンチョウ","town":"沢渡","town_kana":"サワタリ","prefecture_code":38},"1513":{"zip_code":"7911513","prefecture":"愛媛県","prefecture_kana":"エヒメケン","city":"上浮穴郡久万高原町","city_kana":"カミウケナグンクマコウゲンチョウ","town":"仕出","town_kana":"シデ","prefecture_code":38},"1701":{"zip_code":"7911701","prefecture":"愛媛県","prefecture_kana":"エヒメケン","city":"上浮穴郡久万高原町","city_kana":"カミウケナグンクマコウゲンチョウ","town":"渋草","town_kana":"シブクサ","prefecture_code":38},"1207":{"zip_code":"7911207","prefecture":"愛媛県","prefecture_kana":"エヒメケン","city":"上浮穴郡久万高原町","city_kana":"カミウケナグンクマコウゲンチョウ","town":"下野尻","town_kana":"シモノジリ","prefecture_code":38},"1212":{"zip_code":"7911212","prefecture":"愛媛県","prefecture_kana":"エヒメケン","city":"上浮穴郡久万高原町","city_kana":"カミウケナグンクマコウゲンチョウ","town":"下畑野川","town_kana":"シモハタノカワ","prefecture_code":38},"1205":{"zip_code":"7911205","prefecture":"愛媛県","prefecture_kana":"エヒメケン","city":"上浮穴郡久万高原町","city_kana":"カミウケナグンクマコウゲンチョウ","town":"菅生","town_kana":"スゴウ","prefecture_code":38},"1223":{"zip_code":"7911223","prefecture":"愛媛県","prefecture_kana":"エヒメケン","city":"上浮穴郡久万高原町","city_kana":"カミウケナグンクマコウゲンチョウ","town":"父野川","town_kana":"チチノカワ","prefecture_code":38},"1221":{"zip_code":"7911221","prefecture":"愛媛県","prefecture_kana":"エヒメケン","city":"上浮穴郡久万高原町","city_kana":"カミウケナグンクマコウゲンチョウ","town":"露峰","town_kana":"ツユミネ","prefecture_code":38},"1213":{"zip_code":"7911213","prefecture":"愛媛県","prefecture_kana":"エヒメケン","city":"上浮穴郡久万高原町","city_kana":"カミウケナグンクマコウゲンチョウ","town":"直瀬","town_kana":"ナオセ","prefecture_code":38},"1707":{"zip_code":"7911707","prefecture":"愛媛県","prefecture_kana":"エヒメケン","city":"上浮穴郡久万高原町","city_kana":"カミウケナグンクマコウゲンチョウ","town":"中組","town_kana":"ナカグミ","prefecture_code":38},"1502":{"zip_code":"7911502","prefecture":"愛媛県","prefecture_kana":"エヒメケン","city":"上浮穴郡久万高原町","city_kana":"カミウケナグンクマコウゲンチョウ","town":"中黒岩","town_kana":"ナカクロイワ","prefecture_code":38},"1803":{"zip_code":"7911803","prefecture":"愛媛県","prefecture_kana":"エヒメケン","city":"上浮穴郡久万高原町","city_kana":"カミウケナグンクマコウゲンチョウ","town":"中津","town_kana":"ナカツ","prefecture_code":38},"1511":{"zip_code":"7911511","prefecture":"愛媛県","prefecture_kana":"エヒメケン","city":"上浮穴郡久万高原町","city_kana":"カミウケナグンクマコウゲンチョウ","town":"七鳥","town_kana":"ナナトリ","prefecture_code":38},"1802":{"zip_code":"7911802","prefecture":"愛媛県","prefecture_kana":"エヒメケン","city":"上浮穴郡久万高原町","city_kana":"カミウケナグンクマコウゲンチョウ","town":"西谷","town_kana":"ニシダニ","prefecture_code":38},"1203":{"zip_code":"7911203","prefecture":"愛媛県","prefecture_kana":"エヒメケン","city":"上浮穴郡久万高原町","city_kana":"カミウケナグンクマコウゲンチョウ","town":"西明神","town_kana":"ニシミョウジン","prefecture_code":38},"1222":{"zip_code":"7911222","prefecture":"愛媛県","prefecture_kana":"エヒメケン","city":"上浮穴郡久万高原町","city_kana":"カミウケナグンクマコウゲンチョウ","town":"二名","town_kana":"ニミョウ","prefecture_code":38},"1512":{"zip_code":"7911512","prefecture":"愛媛県","prefecture_kana":"エヒメケン","city":"上浮穴郡久万高原町","city_kana":"カミウケナグンクマコウゲンチョウ","town":"東川","town_kana":"ヒガシガワ","prefecture_code":38},"1204":{"zip_code":"7911204","prefecture":"愛媛県","prefecture_kana":"エヒメケン","city":"上浮穴郡久万高原町","city_kana":"カミウケナグンクマコウゲンチョウ","town":"東明神","town_kana":"ヒガシミョウジン","prefecture_code":38},"1503":{"zip_code":"7911503","prefecture":"愛媛県","prefecture_kana":"エヒメケン","city":"上浮穴郡久万高原町","city_kana":"カミウケナグンクマコウゲンチョウ","town":"日野浦","town_kana":"ヒノウラ","prefecture_code":38},"1706":{"zip_code":"7911706","prefecture":"愛媛県","prefecture_kana":"エヒメケン","city":"上浮穴郡久万高原町","city_kana":"カミウケナグンクマコウゲンチョウ","town":"本組","town_kana":"ホングミ","prefecture_code":38},"1704":{"zip_code":"7911704","prefecture":"愛媛県","prefecture_kana":"エヒメケン","city":"上浮穴郡久万高原町","city_kana":"カミウケナグンクマコウゲンチョウ","town":"前組","town_kana":"マエグミ","prefecture_code":38},"1801":{"zip_code":"7911801","prefecture":"愛媛県","prefecture_kana":"エヒメケン","city":"上浮穴郡久万高原町","city_kana":"カミウケナグンクマコウゲンチョウ","town":"柳井川","town_kana":"ヤナイガワ","prefecture_code":38},"1710":{"zip_code":"7911710","prefecture":"愛媛県","prefecture_kana":"エヒメケン","city":"上浮穴郡久万高原町","city_kana":"カミウケナグンクマコウゲンチョウ","town":"若山","town_kana":"ワカヤマ","prefecture_code":38},"3100":{"zip_code":"7913100","prefecture":"愛媛県","prefecture_kana":"エヒメケン","city":"伊予郡松前町","city_kana":"イヨグンマサキチョウ","town":"","town_kana":"","prefecture_code":38},"3141":{"zip_code":"7913141","prefecture":"愛媛県","prefecture_kana":"エヒメケン","city":"伊予郡松前町","city_kana":"イヨグンマサキチョウ","town":"恵久美","town_kana":"エクビ","prefecture_code":38},"3153":{"zip_code":"7913153","prefecture":"愛媛県","prefecture_kana":"エヒメケン","city":"伊予郡松前町","city_kana":"イヨグンマサキチョウ","town":"大溝","town_kana":"オオミゾ","prefecture_code":38},"3142":{"zip_code":"7913142","prefecture":"愛媛県","prefecture_kana":"エヒメケン","city":"伊予郡松前町","city_kana":"イヨグンマサキチョウ","town":"上高柳","town_kana":"カミタカヤナギ","prefecture_code":38},"3161":{"zip_code":"7913161","prefecture":"愛媛県","prefecture_kana":"エヒメケン","city":"伊予郡松前町","city_kana":"イヨグンマサキチョウ","town":"神崎","town_kana":"カンザキ","prefecture_code":38},"3131":{"zip_code":"7913131","prefecture":"愛媛県","prefecture_kana":"エヒメケン","city":"伊予郡松前町","city_kana":"イヨグンマサキチョウ","town":"北川原","town_kana":"キタガワラ","prefecture_code":38},"3102":{"zip_code":"7913102","prefecture":"愛媛県","prefecture_kana":"エヒメケン","city":"伊予郡松前町","city_kana":"イヨグンマサキチョウ","town":"北黒田","town_kana":"キタクロダ","prefecture_code":38},"3162":{"zip_code":"7913162","prefecture":"愛媛県","prefecture_kana":"エヒメケン","city":"伊予郡松前町","city_kana":"イヨグンマサキチョウ","town":"出作","town_kana":"シュツサク","prefecture_code":38},"3133":{"zip_code":"7913133","prefecture":"愛媛県","prefecture_kana":"エヒメケン","city":"伊予郡松前町","city_kana":"イヨグンマサキチョウ","town":"昌農内","town_kana":"ショウノウチ","prefecture_code":38},"3143":{"zip_code":"7913143","prefecture":"愛媛県","prefecture_kana":"エヒメケン","city":"伊予郡松前町","city_kana":"イヨグンマサキチョウ","town":"大間","town_kana":"ダイマ","prefecture_code":38},"3120":{"zip_code":"7913120","prefecture":"愛媛県","prefecture_kana":"エヒメケン","city":"伊予郡松前町","city_kana":"イヨグンマサキチョウ","town":"筒井","town_kana":"ツツイ","prefecture_code":38},"3155":{"zip_code":"7913155","prefecture":"愛媛県","prefecture_kana":"エヒメケン","city":"伊予郡松前町","city_kana":"イヨグンマサキチョウ","town":"鶴吉","town_kana":"ツルヨシ","prefecture_code":38},"3163":{"zip_code":"7913163","prefecture":"愛媛県","prefecture_kana":"エヒメケン","city":"伊予郡松前町","city_kana":"イヨグンマサキチョウ","town":"徳丸","town_kana":"トクマル","prefecture_code":38},"3164":{"zip_code":"7913164","prefecture":"愛媛県","prefecture_kana":"エヒメケン","city":"伊予郡松前町","city_kana":"イヨグンマサキチョウ","town":"中川原","town_kana":"ナカガワラ","prefecture_code":38},"3152":{"zip_code":"7913152","prefecture":"愛媛県","prefecture_kana":"エヒメケン","city":"伊予郡松前町","city_kana":"イヨグンマサキチョウ","town":"永田","town_kana":"ナガタ","prefecture_code":38},"3134":{"zip_code":"7913134","prefecture":"愛媛県","prefecture_kana":"エヒメケン","city":"伊予郡松前町","city_kana":"イヨグンマサキチョウ","town":"西古泉","town_kana":"ニシコイズミ","prefecture_code":38},"3132":{"zip_code":"7913132","prefecture":"愛媛県","prefecture_kana":"エヒメケン","city":"伊予郡松前町","city_kana":"イヨグンマサキチョウ","town":"西高柳","town_kana":"ニシタカヤナギ","prefecture_code":38},"3110":{"zip_code":"7913110","prefecture":"愛媛県","prefecture_kana":"エヒメケン","city":"伊予郡松前町","city_kana":"イヨグンマサキチョウ","town":"浜","town_kana":"ハマ","prefecture_code":38},"3151":{"zip_code":"7913151","prefecture":"愛媛県","prefecture_kana":"エヒメケン","city":"伊予郡松前町","city_kana":"イヨグンマサキチョウ","town":"東古泉","town_kana":"ヒガシコイズミ","prefecture_code":38},"3101":{"zip_code":"7913101","prefecture":"愛媛県","prefecture_kana":"エヒメケン","city":"伊予郡松前町","city_kana":"イヨグンマサキチョウ","town":"南黒田","town_kana":"ミナミクロダ","prefecture_code":38},"3154":{"zip_code":"7913154","prefecture":"愛媛県","prefecture_kana":"エヒメケン","city":"伊予郡松前町","city_kana":"イヨグンマサキチョウ","town":"横田","town_kana":"ヨコタ","prefecture_code":38},"2100":{"zip_code":"7912100","prefecture":"愛媛県","prefecture_kana":"エヒメケン","city":"伊予郡砥部町","city_kana":"イヨグントベチョウ","town":"","town_kana":"","prefecture_code":38},"2114":{"zip_code":"7912114","prefecture":"愛媛県","prefecture_kana":"エヒメケン","city":"伊予郡砥部町","city_kana":"イヨグントベチョウ","town":"麻生","town_kana":"アソウ","prefecture_code":38},"2142":{"zip_code":"7912142","prefecture":"愛媛県","prefecture_kana":"エヒメケン","city":"伊予郡砥部町","city_kana":"イヨグントベチョウ","town":"岩谷","town_kana":"イワヤ","prefecture_code":38},"2141":{"zip_code":"7912141","prefecture":"愛媛県","prefecture_kana":"エヒメケン","city":"伊予郡砥部町","city_kana":"イヨグントベチョウ","town":"岩谷口","town_kana":"イワヤグチ","prefecture_code":38},"2135":{"zip_code":"7912135","prefecture":"愛媛県","prefecture_kana":"エヒメケン","city":"伊予郡砥部町","city_kana":"イヨグントベチョウ","town":"鵜ノ崎","town_kana":"ウノサキ","prefecture_code":38},"2206":{"zip_code":"7912206","prefecture":"愛媛県","prefecture_kana":"エヒメケン","city":"伊予郡砥部町","city_kana":"イヨグントベチョウ","town":"多居谷","town_kana":"オオイダニ","prefecture_code":38},"2126":{"zip_code":"7912126","prefecture":"愛媛県","prefecture_kana":"エヒメケン","city":"伊予郡砥部町","city_kana":"イヨグントベチョウ","town":"大角蔵","town_kana":"オオカクラ","prefecture_code":38},"2145":{"zip_code":"7912145","prefecture":"愛媛県","prefecture_kana":"エヒメケン","city":"伊予郡砥部町","city_kana":"イヨグントベチョウ","town":"大平","town_kana":"オオヒラ","prefecture_code":38},"2132":{"zip_code":"7912132","prefecture":"愛媛県","prefecture_kana":"エヒメケン","city":"伊予郡砥部町","city_kana":"イヨグントベチョウ","town":"大南","town_kana":"オオミナミ","prefecture_code":38},"2117":{"zip_code":"7912117","prefecture":"愛媛県","prefecture_kana":"エヒメケン","city":"伊予郡砥部町","city_kana":"イヨグントベチョウ","town":"上原町","town_kana":"カミハラマチ","prefecture_code":38},"2123":{"zip_code":"7912123","prefecture":"愛媛県","prefecture_kana":"エヒメケン","city":"伊予郡砥部町","city_kana":"イヨグントベチョウ","town":"川井","town_kana":"カワイ","prefecture_code":38},"2143":{"zip_code":"7912143","prefecture":"愛媛県","prefecture_kana":"エヒメケン","city":"伊予郡砥部町","city_kana":"イヨグントベチョウ","town":"川登","town_kana":"カワノボリ","prefecture_code":38},"2131":{"zip_code":"7912131","prefecture":"愛媛県","prefecture_kana":"エヒメケン","city":"伊予郡砥部町","city_kana":"イヨグントベチョウ","town":"北川毛","town_kana":"キタカワゲ","prefecture_code":38},"2133":{"zip_code":"7912133","prefecture":"愛媛県","prefecture_kana":"エヒメケン","city":"伊予郡砥部町","city_kana":"イヨグントベチョウ","town":"五本松","town_kana":"ゴホンマツ","prefecture_code":38},"2112":{"zip_code":"7912112","prefecture":"愛媛県","prefecture_kana":"エヒメケン","city":"伊予郡砥部町","city_kana":"イヨグントベチョウ","town":"重光","town_kana":"シゲミツ","prefecture_code":38},"2113":{"zip_code":"7912113","prefecture":"愛媛県","prefecture_kana":"エヒメケン","city":"伊予郡砥部町","city_kana":"イヨグントベチョウ","town":"拾町","town_kana":"ジツチョウ","prefecture_code":38},"2122":{"zip_code":"7912122","prefecture":"愛媛県","prefecture_kana":"エヒメケン","city":"伊予郡砥部町","city_kana":"イヨグントベチョウ","town":"千足","town_kana":"センゾク","prefecture_code":38},"2207":{"zip_code":"7912207","prefecture":"愛媛県","prefecture_kana":"エヒメケン","city":"伊予郡砥部町","city_kana":"イヨグントベチョウ","town":"仙波","town_kana":"センバ","prefecture_code":38},"2205":{"zip_code":"7912205","prefecture":"愛媛県","prefecture_kana":"エヒメケン","city":"伊予郡砥部町","city_kana":"イヨグントベチョウ","town":"総津","town_kana":"ソウヅ","prefecture_code":38},"2204":{"zip_code":"7912204","prefecture":"愛媛県","prefecture_kana":"エヒメケン","city":"伊予郡砥部町","city_kana":"イヨグントベチョウ","town":"高市","town_kana":"タカイチ","prefecture_code":38},"2103":{"zip_code":"7912103","prefecture":"愛媛県","prefecture_kana":"エヒメケン","city":"伊予郡砥部町","city_kana":"イヨグントベチョウ","town":"高尾田上野団地","town_kana":"タコオダウエノダンチ","prefecture_code":38},"2102":{"zip_code":"7912102","prefecture":"愛媛県","prefecture_kana":"エヒメケン","city":"伊予郡砥部町","city_kana":"イヨグントベチョウ","town":"高尾田砥部団地","town_kana":"タコオダトベダンチ","prefecture_code":38},"2101":{"zip_code":"7912101","prefecture":"愛媛県","prefecture_kana":"エヒメケン","city":"伊予郡砥部町","city_kana":"イヨグントベチョウ","town":"高尾田","town_kana":"タコオダ","prefecture_code":38},"2124":{"zip_code":"7912124","prefecture":"愛媛県","prefecture_kana":"エヒメケン","city":"伊予郡砥部町","city_kana":"イヨグントベチョウ","town":"田ノ浦","town_kana":"タノウラ","prefecture_code":38},"2202":{"zip_code":"7912202","prefecture":"愛媛県","prefecture_kana":"エヒメケン","city":"伊予郡砥部町","city_kana":"イヨグントベチョウ","town":"玉谷","town_kana":"タマタニ","prefecture_code":38},"2134":{"zip_code":"7912134","prefecture":"愛媛県","prefecture_kana":"エヒメケン","city":"伊予郡砥部町","city_kana":"イヨグントベチョウ","town":"外山","town_kana":"トヤマ","prefecture_code":38},"2203":{"zip_code":"7912203","prefecture":"愛媛県","prefecture_kana":"エヒメケン","city":"伊予郡砥部町","city_kana":"イヨグントベチョウ","town":"中野川","town_kana":"ナカノカワ","prefecture_code":38},"2125":{"zip_code":"7912125","prefecture":"愛媛県","prefecture_kana":"エヒメケン","city":"伊予郡砥部町","city_kana":"イヨグントベチョウ","town":"七折","town_kana":"ナナオレ","prefecture_code":38},"2116":{"zip_code":"7912116","prefecture":"愛媛県","prefecture_kana":"エヒメケン","city":"伊予郡砥部町","city_kana":"イヨグントベチョウ","town":"原町","town_kana":"ハラマチ","prefecture_code":38},"2144":{"zip_code":"7912144","prefecture":"愛媛県","prefecture_kana":"エヒメケン","city":"伊予郡砥部町","city_kana":"イヨグントベチョウ","town":"万年","town_kana":"マンネン","prefecture_code":38},"2201":{"zip_code":"7912201","prefecture":"愛媛県","prefecture_kana":"エヒメケン","city":"伊予郡砥部町","city_kana":"イヨグントベチョウ","town":"満穂","town_kana":"ミツホ","prefecture_code":38},"2121":{"zip_code":"7912121","prefecture":"愛媛県","prefecture_kana":"エヒメケン","city":"伊予郡砥部町","city_kana":"イヨグントベチョウ","town":"宮内山並","town_kana":"ミヤウチヤマナミ","prefecture_code":38},"2120":{"zip_code":"7912120","prefecture":"愛媛県","prefecture_kana":"エヒメケン","city":"伊予郡砥部町","city_kana":"イヨグントベチョウ","town":"宮内","town_kana":"ミヤウチ","prefecture_code":38},"2115":{"zip_code":"7912115","prefecture":"愛媛県","prefecture_kana":"エヒメケン","city":"伊予郡砥部町","city_kana":"イヨグントベチョウ","town":"三角","town_kana":"ミョウカ","prefecture_code":38},"2111":{"zip_code":"7912111","prefecture":"愛媛県","prefecture_kana":"エヒメケン","city":"伊予郡砥部町","city_kana":"イヨグントベチョウ","town":"八倉","town_kana":"ヤクラ","prefecture_code":38},"3300":{"zip_code":"7913300","prefecture":"愛媛県","prefecture_kana":"エヒメケン","city":"喜多郡内子町","city_kana":"キタグンウチコチョウ","town":"","town_kana":"","prefecture_code":38},"3343":{"zip_code":"7913343","prefecture":"愛媛県","prefecture_kana":"エヒメケン","city":"喜多郡内子町","city_kana":"キタグンウチコチョウ","town":"石畳","town_kana":"イシダタミ","prefecture_code":38},"3351":{"zip_code":"7913351","prefecture":"愛媛県","prefecture_kana":"エヒメケン","city":"喜多郡内子町","city_kana":"キタグンウチコチョウ","town":"五百木","town_kana":"イヨキ","prefecture_code":38},"3514":{"zip_code":"7913514","prefecture":"愛媛県","prefecture_kana":"エヒメケン","city":"喜多郡内子町","city_kana":"キタグンウチコチョウ","town":"臼杵","town_kana":"ウスキ","prefecture_code":38},"3301":{"zip_code":"7913301","prefecture":"愛媛県","prefecture_kana":"エヒメケン","city":"喜多郡内子町","city_kana":"キタグンウチコチョウ","town":"内子","town_kana":"ウチコ","prefecture_code":38},"3360":{"zip_code":"7913360","prefecture":"愛媛県","prefecture_kana":"エヒメケン","city":"喜多郡内子町","city_kana":"キタグンウチコチョウ","town":"大瀬","town_kana":"オオセ","prefecture_code":38},"3363":{"zip_code":"7913363","prefecture":"愛媛県","prefecture_kana":"エヒメケン","city":"喜多郡内子町","city_kana":"キタグンウチコチョウ","town":"大瀬東","town_kana":"オオセヒガシ","prefecture_code":38},"3364":{"zip_code":"7913364","prefecture":"愛媛県","prefecture_kana":"エヒメケン","city":"喜多郡内子町","city_kana":"キタグンウチコチョウ","town":"大瀬南","town_kana":"オオセミナミ","prefecture_code":38},"3362":[{"zip_code":"7913362","prefecture":"愛媛県","prefecture_kana":"エヒメケン","city":"喜多郡内子町","city_kana":"キタグンウチコチョウ","town":"大瀬北乙影山","town_kana":"オオセキタオツカゲヤマ","prefecture_code":38},{"zip_code":"7913362","prefecture":"愛媛県","prefecture_kana":"エヒメケン","city":"喜多郡内子町","city_kana":"キタグンウチコチョウ","town":"大瀬北熊の滝","town_kana":"オオセキタクマノタキ","prefecture_code":38},{"zip_code":"7913362","prefecture":"愛媛県","prefecture_kana":"エヒメケン","city":"喜多郡内子町","city_kana":"キタグンウチコチョウ","town":"大瀬北甲影山","town_kana":"オオセキタコウガケヤマ","prefecture_code":38},{"zip_code":"7913362","prefecture":"愛媛県","prefecture_kana":"エヒメケン","city":"喜多郡内子町","city_kana":"キタグンウチコチョウ","town":"大瀬北程内","town_kana":"オオセキタホドウチ","prefecture_code":38}],"3361":[{"zip_code":"7913361","prefecture":"愛媛県","prefecture_kana":"エヒメケン","city":"喜多郡内子町","city_kana":"キタグンウチコチョウ","town":"大瀬中央鵜川","town_kana":"オオセチュウオウウカワ","prefecture_code":38},{"zip_code":"7913361","prefecture":"愛媛県","prefecture_kana":"エヒメケン","city":"喜多郡内子町","city_kana":"キタグンウチコチョウ","town":"大瀬中央大久保","town_kana":"オオセチュウオウオオクボ","prefecture_code":38},{"zip_code":"7913361","prefecture":"愛媛県","prefecture_kana":"エヒメケン","city":"喜多郡内子町","city_kana":"キタグンウチコチョウ","town":"大瀬中央乙成","town_kana":"オオセチュウオウオツナリ","prefecture_code":38},{"zip_code":"7913361","prefecture":"愛媛県","prefecture_kana":"エヒメケン","city":"喜多郡内子町","city_kana":"キタグンウチコチョウ","town":"大瀬中央中野","town_kana":"オオセチュウオウナカノ","prefecture_code":38},{"zip_code":"7913361","prefecture":"愛媛県","prefecture_kana":"エヒメケン","city":"喜多郡内子町","city_kana":"キタグンウチコチョウ","town":"大瀬中央","town_kana":"オオセチュウオウ","prefecture_code":38}],"3504":{"zip_code":"7913504","prefecture":"愛媛県","prefecture_kana":"エヒメケン","city":"喜多郡内子町","city_kana":"キタグンウチコチョウ","town":"大平","town_kana":"オオヒラ","prefecture_code":38},"3501":{"zip_code":"7913501","prefecture":"愛媛県","prefecture_kana":"エヒメケン","city":"喜多郡内子町","city_kana":"キタグンウチコチョウ","town":"小田","town_kana":"オダ","prefecture_code":38},"3524":{"zip_code":"7913524","prefecture":"愛媛県","prefecture_kana":"エヒメケン","city":"喜多郡内子町","city_kana":"キタグンウチコチョウ","town":"小田深山","town_kana":"オダミヤマ","prefecture_code":38},"3523":{"zip_code":"7913523","prefecture":"愛媛県","prefecture_kana":"エヒメケン","city":"喜多郡内子町","city_kana":"キタグンウチコチョウ","town":"上川","town_kana":"カミガワ","prefecture_code":38},"3513":{"zip_code":"7913513","prefecture":"愛媛県","prefecture_kana":"エヒメケン","city":"喜多郡内子町","city_kana":"キタグンウチコチョウ","town":"上田渡","town_kana":"カミタド","prefecture_code":38},"3321":{"zip_code":"7913321","prefecture":"愛媛県","prefecture_kana":"エヒメケン","city":"喜多郡内子町","city_kana":"キタグンウチコチョウ","town":"川中","town_kana":"カワナカ","prefecture_code":38},"3342":{"zip_code":"7913342","prefecture":"愛媛県","prefecture_kana":"エヒメケン","city":"喜多郡内子町","city_kana":"キタグンウチコチョウ","town":"河内","town_kana":"カワノウチ","prefecture_code":38},"3310":{"zip_code":"7913310","prefecture":"愛媛県","prefecture_kana":"エヒメケン","city":"喜多郡内子町","city_kana":"キタグンウチコチョウ","town":"城廻","town_kana":"シロマワリ","prefecture_code":38},"3331":{"zip_code":"7913331","prefecture":"愛媛県","prefecture_kana":"エヒメケン","city":"喜多郡内子町","city_kana":"キタグンウチコチョウ","town":"立山","town_kana":"タチヤマ","prefecture_code":38},"3505":{"zip_code":"7913505","prefecture":"愛媛県","prefecture_kana":"エヒメケン","city":"喜多郡内子町","city_kana":"キタグンウチコチョウ","town":"立石","town_kana":"タテイシ","prefecture_code":38},"3322":{"zip_code":"7913322","prefecture":"愛媛県","prefecture_kana":"エヒメケン","city":"喜多郡内子町","city_kana":"キタグンウチコチョウ","town":"知清","town_kana":"チセイ","prefecture_code":38},"3502":{"zip_code":"7913502","prefecture":"愛媛県","prefecture_kana":"エヒメケン","city":"喜多郡内子町","city_kana":"キタグンウチコチョウ","town":"寺村","town_kana":"テラムラ","prefecture_code":38},"3522":{"zip_code":"7913522","prefecture":"愛媛県","prefecture_kana":"エヒメケン","city":"喜多郡内子町","city_kana":"キタグンウチコチョウ","town":"中川","town_kana":"ナカガワ","prefecture_code":38},"3512":{"zip_code":"7913512","prefecture":"愛媛県","prefecture_kana":"エヒメケン","city":"喜多郡内子町","city_kana":"キタグンウチコチョウ","town":"中田渡","town_kana":"ナカタド","prefecture_code":38},"3503":{"zip_code":"7913503","prefecture":"愛媛県","prefecture_kana":"エヒメケン","city":"喜多郡内子町","city_kana":"キタグンウチコチョウ","town":"日野川","town_kana":"ヒノカワ","prefecture_code":38},"3332":{"zip_code":"7913332","prefecture":"愛媛県","prefecture_kana":"エヒメケン","city":"喜多郡内子町","city_kana":"キタグンウチコチョウ","town":"袋口","town_kana":"フロク","prefecture_code":38},"3521":{"zip_code":"7913521","prefecture":"愛媛県","prefecture_kana":"エヒメケン","city":"喜多郡内子町","city_kana":"キタグンウチコチョウ","town":"本川","town_kana":"ホンガワ","prefecture_code":38},"3506":{"zip_code":"7913506","prefecture":"愛媛県","prefecture_kana":"エヒメケン","city":"喜多郡内子町","city_kana":"キタグンウチコチョウ","town":"南山","town_kana":"ミナミヤマ","prefecture_code":38},"3352":{"zip_code":"7913352","prefecture":"愛媛県","prefecture_kana":"エヒメケン","city":"喜多郡内子町","city_kana":"キタグンウチコチョウ","town":"村前","town_kana":"ムラサキ","prefecture_code":38},"3511":{"zip_code":"7913511","prefecture":"愛媛県","prefecture_kana":"エヒメケン","city":"喜多郡内子町","city_kana":"キタグンウチコチョウ","town":"吉野川","town_kana":"ヨシノカワ","prefecture_code":38},"3341":{"zip_code":"7913341","prefecture":"愛媛県","prefecture_kana":"エヒメケン","city":"喜多郡内子町","city_kana":"キタグンウチコチョウ","town":"論田","town_kana":"ロンデン","prefecture_code":38}}