{"0080":{"zip_code":"7920080","prefecture":"愛媛県","prefecture_kana":"エヒメケン","city":"今治市","city_kana":"イマバリシ","town":"宮窪町四阪島","town_kana":"ミヤクボチョウシサカジマ","prefecture_code":38},"0000":{"zip_code":"7920000","prefecture":"愛媛県","prefecture_kana":"エヒメケン","city":"新居浜市","city_kana":"ニイハマシ","town":"以下に掲載がない場合","town_kana":"イカニケイサイガナイバアイ","prefecture_code":38},"0897":{"zip_code":"7920897","prefecture":"愛媛県","prefecture_kana":"エヒメケン","city":"新居浜市","city_kana":"ニイハマシ","town":"阿島乙","town_kana":"アシマオツ","prefecture_code":38},"0896":{"zip_code":"7920896","prefecture":"愛媛県","prefecture_kana":"エヒメケン","city":"新居浜市","city_kana":"ニイハマシ","town":"阿島（その他）","town_kana":"アシマ(ソノタ)","prefecture_code":38},"0013":{"zip_code":"7920013","prefecture":"愛媛県","prefecture_kana":"エヒメケン","city":"新居浜市","city_kana":"ニイハマシ","town":"泉池町","town_kana":"イズミイケチョウ","prefecture_code":38},"0021":{"zip_code":"7920021","prefecture":"愛媛県","prefecture_kana":"エヒメケン","city":"新居浜市","city_kana":"ニイハマシ","town":"泉宮町","town_kana":"イズミミヤチョウ","prefecture_code":38},"0002":{"zip_code":"7920002","prefecture":"愛媛県","prefecture_kana":"エヒメケン","city":"新居浜市","city_kana":"ニイハマシ","town":"磯浦町","town_kana":"イソウラチョウ","prefecture_code":38},"0025":{"zip_code":"7920025","prefecture":"愛媛県","prefecture_kana":"エヒメケン","city":"新居浜市","city_kana":"ニイハマシ","town":"一宮町","town_kana":"イックチョウ","prefecture_code":38},"0866":{"zip_code":"7920866","prefecture":"愛媛県","prefecture_kana":"エヒメケン","city":"新居浜市","city_kana":"ニイハマシ","town":"宇高町","town_kana":"ウダカチョウ","prefecture_code":38},"0046":{"zip_code":"7920046","prefecture":"愛媛県","prefecture_kana":"エヒメケン","city":"新居浜市","city_kana":"ニイハマシ","town":"上原","town_kana":"ウワバラ","prefecture_code":38},"0005":{"zip_code":"7920005","prefecture":"愛媛県","prefecture_kana":"エヒメケン","city":"新居浜市","city_kana":"ニイハマシ","town":"江口町","town_kana":"エグチチョウ","prefecture_code":38},"0008":{"zip_code":"7920008","prefecture":"愛媛県","prefecture_kana":"エヒメケン","city":"新居浜市","city_kana":"ニイハマシ","town":"王子町","town_kana":"オウジチョウ","prefecture_code":38},"0015":{"zip_code":"7920015","prefecture":"愛媛県","prefecture_kana":"エヒメケン","city":"新居浜市","city_kana":"ニイハマシ","town":"大江町","town_kana":"オオエチョウ","prefecture_code":38},"0891":{"zip_code":"7920891","prefecture":"愛媛県","prefecture_kana":"エヒメケン","city":"新居浜市","city_kana":"ニイハマシ","town":"大島","town_kana":"オオシマ","prefecture_code":38},"0060":{"zip_code":"7920060","prefecture":"愛媛県","prefecture_kana":"エヒメケン","city":"新居浜市","city_kana":"ニイハマシ","town":"大生院","town_kana":"オオジョウイン","prefecture_code":38},"0047":{"zip_code":"7920047","prefecture":"愛媛県","prefecture_kana":"エヒメケン","city":"新居浜市","city_kana":"ニイハマシ","town":"御蔵町","town_kana":"オクラチョウ","prefecture_code":38},"0883":{"zip_code":"7920883","prefecture":"愛媛県","prefecture_kana":"エヒメケン","city":"新居浜市","city_kana":"ニイハマシ","town":"落神町","town_kana":"オチガミチョウ","prefecture_code":38},"0071":{"zip_code":"7920071","prefecture":"愛媛県","prefecture_kana":"エヒメケン","city":"新居浜市","city_kana":"ニイハマシ","town":"金子丙","town_kana":"カネコヘイ","prefecture_code":38},"0824":{"zip_code":"7920824","prefecture":"愛媛県","prefecture_kana":"エヒメケン","city":"新居浜市","city_kana":"ニイハマシ","town":"上泉町","town_kana":"カミイズミチョウ","prefecture_code":38},"0851":{"zip_code":"7920851","prefecture":"愛媛県","prefecture_kana":"エヒメケン","city":"新居浜市","city_kana":"ニイハマシ","town":"観音原町","town_kana":"カンノンバラチョウ","prefecture_code":38},"0801":{"zip_code":"7920801","prefecture":"愛媛県","prefecture_kana":"エヒメケン","city":"新居浜市","city_kana":"ニイハマシ","town":"菊本町","town_kana":"キクモトチョウ","prefecture_code":38},"0826":{"zip_code":"7920826","prefecture":"愛媛県","prefecture_kana":"エヒメケン","city":"新居浜市","city_kana":"ニイハマシ","town":"喜光地町","town_kana":"キコウジチョウ","prefecture_code":38},"0815":{"zip_code":"7920815","prefecture":"愛媛県","prefecture_kana":"エヒメケン","city":"新居浜市","city_kana":"ニイハマシ","town":"岸の上町","town_kana":"キシノウエチョウ","prefecture_code":38},"0842":{"zip_code":"7920842","prefecture":"愛媛県","prefecture_kana":"エヒメケン","city":"新居浜市","city_kana":"ニイハマシ","town":"北内町","town_kana":"キタウチチョウ","prefecture_code":38},"0004":{"zip_code":"7920004","prefecture":"愛媛県","prefecture_kana":"エヒメケン","city":"新居浜市","city_kana":"ニイハマシ","town":"北新町","town_kana":"キタシンマチ","prefecture_code":38},"0885":{"zip_code":"7920885","prefecture":"愛媛県","prefecture_kana":"エヒメケン","city":"新居浜市","city_kana":"ニイハマシ","town":"清住町","town_kana":"キヨズミチョウ","prefecture_code":38},"0890":{"zip_code":"7920890","prefecture":"愛媛県","prefecture_kana":"エヒメケン","city":"新居浜市","city_kana":"ニイハマシ","town":"楠崎","town_kana":"クッサキ","prefecture_code":38},"0026":{"zip_code":"7920026","prefecture":"愛媛県","prefecture_kana":"エヒメケン","city":"新居浜市","city_kana":"ニイハマシ","town":"久保田町","town_kana":"クボタチョウ","prefecture_code":38},"0892":{"zip_code":"7920892","prefecture":"愛媛県","prefecture_kana":"エヒメケン","city":"新居浜市","city_kana":"ニイハマシ","town":"黒島","town_kana":"クロシマ","prefecture_code":38},"0884":{"zip_code":"7920884","prefecture":"愛媛県","prefecture_kana":"エヒメケン","city":"新居浜市","city_kana":"ニイハマシ","town":"神郷","town_kana":"コウザト","prefecture_code":38},"0006":{"zip_code":"7920006","prefecture":"愛媛県","prefecture_kana":"エヒメケン","city":"新居浜市","city_kana":"ニイハマシ","town":"河内町","town_kana":"コウチチョウ","prefecture_code":38},"0853":{"zip_code":"7920853","prefecture":"愛媛県","prefecture_kana":"エヒメケン","city":"新居浜市","city_kana":"ニイハマシ","town":"光明寺","town_kana":"コウミョウジ","prefecture_code":38},"0854":{"zip_code":"7920854","prefecture":"愛媛県","prefecture_kana":"エヒメケン","city":"新居浜市","city_kana":"ニイハマシ","town":"国領","town_kana":"コクリョウ","prefecture_code":38},"0822":{"zip_code":"7920822","prefecture":"愛媛県","prefecture_kana":"エヒメケン","city":"新居浜市","city_kana":"ニイハマシ","town":"寿町","town_kana":"コトブキチョウ","prefecture_code":38},"0886":{"zip_code":"7920886","prefecture":"愛媛県","prefecture_kana":"エヒメケン","city":"新居浜市","city_kana":"ニイハマシ","town":"郷（丁目）","town_kana":"ゴウ(チョウメ)","prefecture_code":38},"0895":{"zip_code":"7920895","prefecture":"愛媛県","prefecture_kana":"エヒメケン","city":"新居浜市","city_kana":"ニイハマシ","town":"郷乙","town_kana":"ゴウオツ","prefecture_code":38},"0894":{"zip_code":"7920894","prefecture":"愛媛県","prefecture_kana":"エヒメケン","city":"新居浜市","city_kana":"ニイハマシ","town":"郷（その他）","town_kana":"ゴウ(ソノタ)","prefecture_code":38},"0831":{"zip_code":"7920831","prefecture":"愛媛県","prefecture_kana":"エヒメケン","city":"新居浜市","city_kana":"ニイハマシ","town":"西連寺町","town_kana":"サイレンジチョウ","prefecture_code":38},"0812":{"zip_code":"7920812","prefecture":"愛媛県","prefecture_kana":"エヒメケン","city":"新居浜市","city_kana":"ニイハマシ","town":"坂井町","town_kana":"サカイチョウ","prefecture_code":38},"0865":{"zip_code":"7920865","prefecture":"愛媛県","prefecture_kana":"エヒメケン","city":"新居浜市","city_kana":"ニイハマシ","town":"桜木町","town_kana":"サクラギチョウ","prefecture_code":38},"0862":{"zip_code":"7920862","prefecture":"愛媛県","prefecture_kana":"エヒメケン","city":"新居浜市","city_kana":"ニイハマシ","town":"沢津町","town_kana":"サワヅチョウ","prefecture_code":38},"0023":{"zip_code":"7920023","prefecture":"愛媛県","prefecture_kana":"エヒメケン","city":"新居浜市","city_kana":"ニイハマシ","town":"繁本町","town_kana":"シゲモトチョウ","prefecture_code":38},"0855":{"zip_code":"7920855","prefecture":"愛媛県","prefecture_kana":"エヒメケン","city":"新居浜市","city_kana":"ニイハマシ","town":"七宝台町","town_kana":"シッポウダイチョウ","prefecture_code":38},"0864":{"zip_code":"7920864","prefecture":"愛媛県","prefecture_kana":"エヒメケン","city":"新居浜市","city_kana":"ニイハマシ","town":"東雲町","town_kana":"シノノメチョウ","prefecture_code":38},"0836":{"zip_code":"7920836","prefecture":"愛媛県","prefecture_kana":"エヒメケン","city":"新居浜市","city_kana":"ニイハマシ","town":"篠場町","town_kana":"シノバチョウ","prefecture_code":38},"0861":{"zip_code":"7920861","prefecture":"愛媛県","prefecture_kana":"エヒメケン","city":"新居浜市","city_kana":"ニイハマシ","town":"清水町","town_kana":"シミズチョウ","prefecture_code":38},"0813":{"zip_code":"7920813","prefecture":"愛媛県","prefecture_kana":"エヒメケン","city":"新居浜市","city_kana":"ニイハマシ","town":"下泉町","town_kana":"シモイズミチョウ","prefecture_code":38},"0811":{"zip_code":"7920811","prefecture":"愛媛県","prefecture_kana":"エヒメケン","city":"新居浜市","city_kana":"ニイハマシ","town":"庄内町","town_kana":"ショウナイチョウ","prefecture_code":38},"0814":{"zip_code":"7920814","prefecture":"愛媛県","prefecture_kana":"エヒメケン","city":"新居浜市","city_kana":"ニイハマシ","town":"城下町","town_kana":"シロシタチョウ","prefecture_code":38},"0802":{"zip_code":"7920802","prefecture":"愛媛県","prefecture_kana":"エヒメケン","city":"新居浜市","city_kana":"ニイハマシ","town":"新須賀町","town_kana":"シンスカチョウ","prefecture_code":38},"0003":{"zip_code":"7920003","prefecture":"愛媛県","prefecture_kana":"エヒメケン","city":"新居浜市","city_kana":"ニイハマシ","town":"新田町","town_kana":"シンデンチョウ","prefecture_code":38},"0857":{"zip_code":"7920857","prefecture":"愛媛県","prefecture_kana":"エヒメケン","city":"新居浜市","city_kana":"ニイハマシ","town":"角野","town_kana":"スミノ","prefecture_code":38},"0844":{"zip_code":"7920844","prefecture":"愛媛県","prefecture_kana":"エヒメケン","city":"新居浜市","city_kana":"ニイハマシ","town":"角野新田町","town_kana":"スミノシンデンチョウ","prefecture_code":38},"0821":{"zip_code":"7920821","prefecture":"愛媛県","prefecture_kana":"エヒメケン","city":"新居浜市","city_kana":"ニイハマシ","town":"瀬戸町","town_kana":"セトチョウ","prefecture_code":38},"0001":{"zip_code":"7920001","prefecture":"愛媛県","prefecture_kana":"エヒメケン","city":"新居浜市","city_kana":"ニイハマシ","town":"惣開町","town_kana":"ソウビラキチョウ","prefecture_code":38},"0847":{"zip_code":"7920847","prefecture":"愛媛県","prefecture_kana":"エヒメケン","city":"新居浜市","city_kana":"ニイハマシ","town":"大永山","town_kana":"ダイエイヤマ","prefecture_code":38},"0031":{"zip_code":"7920031","prefecture":"愛媛県","prefecture_kana":"エヒメケン","city":"新居浜市","city_kana":"ニイハマシ","town":"高木町","town_kana":"タカギチョウ","prefecture_code":38},"0887":{"zip_code":"7920887","prefecture":"愛媛県","prefecture_kana":"エヒメケン","city":"新居浜市","city_kana":"ニイハマシ","town":"高田","town_kana":"タカタ","prefecture_code":38},"0867":{"zip_code":"7920867","prefecture":"愛媛県","prefecture_kana":"エヒメケン","city":"新居浜市","city_kana":"ニイハマシ","town":"高津町","town_kana":"タカツチョウ","prefecture_code":38},"0034":{"zip_code":"7920034","prefecture":"愛媛県","prefecture_kana":"エヒメケン","city":"新居浜市","city_kana":"ニイハマシ","town":"滝の宮町","town_kana":"タキノミヤチョウ","prefecture_code":38},"0893":{"zip_code":"7920893","prefecture":"愛媛県","prefecture_kana":"エヒメケン","city":"新居浜市","city_kana":"ニイハマシ","town":"多喜浜","town_kana":"タキハマ","prefecture_code":38},"0846":{"zip_code":"7920846","prefecture":"愛媛県","prefecture_kana":"エヒメケン","city":"新居浜市","city_kana":"ニイハマシ","town":"立川町（立川山を含む）","town_kana":"タツカワチョウ(タツカワヤマヲフクム)","prefecture_code":38},"0804":{"zip_code":"7920804","prefecture":"愛媛県","prefecture_kana":"エヒメケン","city":"新居浜市","city_kana":"ニイハマシ","town":"田所町","town_kana":"タドコロチョウ","prefecture_code":38},"0845":{"zip_code":"7920845","prefecture":"愛媛県","prefecture_kana":"エヒメケン","city":"新居浜市","city_kana":"ニイハマシ","town":"種子川町","town_kana":"タネガワチョウ","prefecture_code":38},"0848":{"zip_code":"7920848","prefecture":"愛媛県","prefecture_kana":"エヒメケン","city":"新居浜市","city_kana":"ニイハマシ","town":"種子川山","town_kana":"タネガワヤマ","prefecture_code":38},"0888":{"zip_code":"7920888","prefecture":"愛媛県","prefecture_kana":"エヒメケン","city":"新居浜市","city_kana":"ニイハマシ","town":"田の上","town_kana":"タノウエ","prefecture_code":38},"0043":{"zip_code":"7920043","prefecture":"愛媛県","prefecture_kana":"エヒメケン","city":"新居浜市","city_kana":"ニイハマシ","town":"土橋","town_kana":"ツチハシ","prefecture_code":38},"0852":{"zip_code":"7920852","prefecture":"愛媛県","prefecture_kana":"エヒメケン","city":"新居浜市","city_kana":"ニイハマシ","town":"東田","town_kana":"トウダ","prefecture_code":38},"0022":{"zip_code":"7920022","prefecture":"愛媛県","prefecture_kana":"エヒメケン","city":"新居浜市","city_kana":"ニイハマシ","town":"徳常町","town_kana":"トクツネチョウ","prefecture_code":38},"0823":{"zip_code":"7920823","prefecture":"愛媛県","prefecture_kana":"エヒメケン","city":"新居浜市","city_kana":"ニイハマシ","town":"外山町","town_kana":"トヤマチョウ","prefecture_code":38},"0012":{"zip_code":"7920012","prefecture":"愛媛県","prefecture_kana":"エヒメケン","city":"新居浜市","city_kana":"ニイハマシ","town":"中須賀町","town_kana":"ナカスカチョウ","prefecture_code":38},"0841":{"zip_code":"7920841","prefecture":"愛媛県","prefecture_kana":"エヒメケン","city":"新居浜市","city_kana":"ニイハマシ","town":"中筋町","town_kana":"ナカスジチョウ","prefecture_code":38},"0834":{"zip_code":"7920834","prefecture":"愛媛県","prefecture_kana":"エヒメケン","city":"新居浜市","city_kana":"ニイハマシ","town":"中西町","town_kana":"ナカニシチョウ","prefecture_code":38},"0045":{"zip_code":"7920045","prefecture":"愛媛県","prefecture_kana":"エヒメケン","city":"新居浜市","city_kana":"ニイハマシ","town":"中萩町","town_kana":"ナカハギチョウ","prefecture_code":38},"0044":{"zip_code":"7920044","prefecture":"愛媛県","prefecture_kana":"エヒメケン","city":"新居浜市","city_kana":"ニイハマシ","town":"中村","town_kana":"ナカムラ","prefecture_code":38},"0041":{"zip_code":"7920041","prefecture":"愛媛県","prefecture_kana":"エヒメケン","city":"新居浜市","city_kana":"ニイハマシ","town":"中村松木","town_kana":"ナカムラマツギ","prefecture_code":38},"0874":{"zip_code":"7920874","prefecture":"愛媛県","prefecture_kana":"エヒメケン","city":"新居浜市","city_kana":"ニイハマシ","town":"長岩町","town_kana":"ナガイワチョウ","prefecture_code":38},"0072":{"zip_code":"7920072","prefecture":"愛媛県","prefecture_kana":"エヒメケン","city":"新居浜市","city_kana":"ニイハマシ","town":"新居浜乙","town_kana":"ニイハマオツ","prefecture_code":38},"0832":{"zip_code":"7920832","prefecture":"愛媛県","prefecture_kana":"エヒメケン","city":"新居浜市","city_kana":"ニイハマシ","town":"西泉町","town_kana":"ニシイズミチョウ","prefecture_code":38},"0827":{"zip_code":"7920827","prefecture":"愛媛県","prefecture_kana":"エヒメケン","city":"新居浜市","city_kana":"ニイハマシ","town":"西喜光地町","town_kana":"ニシキコウジチョウ","prefecture_code":38},"0035":{"zip_code":"7920035","prefecture":"愛媛県","prefecture_kana":"エヒメケン","city":"新居浜市","city_kana":"ニイハマシ","town":"西の土居町","town_kana":"ニシノドイチョウ","prefecture_code":38},"0011":{"zip_code":"7920011","prefecture":"愛媛県","prefecture_kana":"エヒメケン","city":"新居浜市","city_kana":"ニイハマシ","town":"西原町","town_kana":"ニシバラチョウ","prefecture_code":38},"0014":{"zip_code":"7920014","prefecture":"愛媛県","prefecture_kana":"エヒメケン","city":"新居浜市","city_kana":"ニイハマシ","town":"西町","town_kana":"ニシマチ","prefecture_code":38},"0898":{"zip_code":"7920898","prefecture":"愛媛県","prefecture_kana":"エヒメケン","city":"新居浜市","city_kana":"ニイハマシ","town":"荷内町","town_kana":"ニナイチョウ","prefecture_code":38},"0050":{"zip_code":"7920050","prefecture":"愛媛県","prefecture_kana":"エヒメケン","city":"新居浜市","city_kana":"ニイハマシ","town":"萩生","town_kana":"ハギュウ","prefecture_code":38},"0871":{"zip_code":"7920871","prefecture":"愛媛県","prefecture_kana":"エヒメケン","city":"新居浜市","city_kana":"ニイハマシ","town":"八幡","town_kana":"ハチマン","prefecture_code":38},"0872":{"zip_code":"7920872","prefecture":"愛媛県","prefecture_kana":"エヒメケン","city":"新居浜市","city_kana":"ニイハマシ","town":"垣生（丁目）","town_kana":"ハブ(チョウメ)","prefecture_code":38},"0873":{"zip_code":"7920873","prefecture":"愛媛県","prefecture_kana":"エヒメケン","city":"新居浜市","city_kana":"ニイハマシ","town":"垣生（番地）","town_kana":"ハブ(バンチ)","prefecture_code":38},"0803":{"zip_code":"7920803","prefecture":"愛媛県","prefecture_kana":"エヒメケン","city":"新居浜市","city_kana":"ニイハマシ","town":"平形町","town_kana":"ヒラカタチョウ","prefecture_code":38},"0856":{"zip_code":"7920856","prefecture":"愛媛県","prefecture_kana":"エヒメケン","city":"新居浜市","city_kana":"ニイハマシ","town":"船木","town_kana":"フナキ","prefecture_code":38},"0009":{"zip_code":"7920009","prefecture":"愛媛県","prefecture_kana":"エヒメケン","city":"新居浜市","city_kana":"ニイハマシ","town":"星越町","town_kana":"ホシゴエチョウ","prefecture_code":38},"0825":{"zip_code":"7920825","prefecture":"愛媛県","prefecture_kana":"エヒメケン","city":"新居浜市","city_kana":"ニイハマシ","town":"星原町","town_kana":"ホシバラチョウ","prefecture_code":38},"0042":{"zip_code":"7920042","prefecture":"愛媛県","prefecture_kana":"エヒメケン","city":"新居浜市","city_kana":"ニイハマシ","town":"本郷","town_kana":"ホンゴウ","prefecture_code":38},"0007":{"zip_code":"7920007","prefecture":"愛媛県","prefecture_kana":"エヒメケン","city":"新居浜市","city_kana":"ニイハマシ","town":"前田町","town_kana":"マエダチョウ","prefecture_code":38},"0032":{"zip_code":"7920032","prefecture":"愛媛県","prefecture_kana":"エヒメケン","city":"新居浜市","city_kana":"ニイハマシ","town":"政枝町","town_kana":"マサエダチョウ","prefecture_code":38},"0882":{"zip_code":"7920882","prefecture":"愛媛県","prefecture_kana":"エヒメケン","city":"新居浜市","city_kana":"ニイハマシ","town":"又野","town_kana":"マタノ","prefecture_code":38},"0829":{"zip_code":"7920829","prefecture":"愛媛県","prefecture_kana":"エヒメケン","city":"新居浜市","city_kana":"ニイハマシ","town":"松木町","town_kana":"マツギチョウ","prefecture_code":38},"0868":{"zip_code":"7920868","prefecture":"愛媛県","prefecture_kana":"エヒメケン","city":"新居浜市","city_kana":"ニイハマシ","town":"松の木町","town_kana":"マツノキチョウ","prefecture_code":38},"0828":{"zip_code":"7920828","prefecture":"愛媛県","prefecture_kana":"エヒメケン","city":"新居浜市","city_kana":"ニイハマシ","town":"松原町","town_kana":"マツバラチョウ","prefecture_code":38},"0881":{"zip_code":"7920881","prefecture":"愛媛県","prefecture_kana":"エヒメケン","city":"新居浜市","city_kana":"ニイハマシ","town":"松神子","town_kana":"マツミコ","prefecture_code":38},"0016":{"zip_code":"7920016","prefecture":"愛媛県","prefecture_kana":"エヒメケン","city":"新居浜市","city_kana":"ニイハマシ","town":"港町","town_kana":"ミナトマチ","prefecture_code":38},"0863":{"zip_code":"7920863","prefecture":"愛媛県","prefecture_kana":"エヒメケン","city":"新居浜市","city_kana":"ニイハマシ","town":"南小松原町","town_kana":"ミナミコマツバラチョウ","prefecture_code":38},"0024":{"zip_code":"7920024","prefecture":"愛媛県","prefecture_kana":"エヒメケン","city":"新居浜市","city_kana":"ニイハマシ","town":"宮西町","town_kana":"ミヤニシチョウ","prefecture_code":38},"0833":{"zip_code":"7920833","prefecture":"愛媛県","prefecture_kana":"エヒメケン","city":"新居浜市","city_kana":"ニイハマシ","town":"宮原町","town_kana":"ミヤバラチョウ","prefecture_code":38},"0805":{"zip_code":"7920805","prefecture":"愛媛県","prefecture_kana":"エヒメケン","city":"新居浜市","city_kana":"ニイハマシ","town":"八雲町","town_kana":"ヤグモチョウ","prefecture_code":38},"0837":{"zip_code":"7920837","prefecture":"愛媛県","prefecture_kana":"エヒメケン","city":"新居浜市","city_kana":"ニイハマシ","town":"山田町","town_kana":"ヤマダチョウ","prefecture_code":38},"0835":{"zip_code":"7920835","prefecture":"愛媛県","prefecture_kana":"エヒメケン","city":"新居浜市","city_kana":"ニイハマシ","town":"山根町","town_kana":"ヤマネチョウ","prefecture_code":38},"0033":{"zip_code":"7920033","prefecture":"愛媛県","prefecture_kana":"エヒメケン","city":"新居浜市","city_kana":"ニイハマシ","town":"横水町","town_kana":"ヨコズイチョウ","prefecture_code":38},"0843":{"zip_code":"7920843","prefecture":"愛媛県","prefecture_kana":"エヒメケン","city":"新居浜市","city_kana":"ニイハマシ","town":"吉岡町","town_kana":"ヨシオカチョウ","prefecture_code":38},"0017":{"zip_code":"7920017","prefecture":"愛媛県","prefecture_kana":"エヒメケン","city":"新居浜市","city_kana":"ニイハマシ","town":"若水町","town_kana":"ワカミズチョウ","prefecture_code":38}}