{"0000":{"zip_code":"7930000","prefecture":"愛媛県","prefecture_kana":"エヒメケン","city":"西条市","city_kana":"サイジョウシ","town":"以下に掲載がない場合","town_kana":"イカニケイサイガナイバアイ","prefecture_code":38},"0023":{"zip_code":"7930023","prefecture":"愛媛県","prefecture_kana":"エヒメケン","city":"西条市","city_kana":"サイジョウシ","town":"明屋敷","town_kana":"アケヤシキ","prefecture_code":38},"0103":{"zip_code":"7930103","prefecture":"愛媛県","prefecture_kana":"エヒメケン","city":"西条市","city_kana":"サイジョウシ","town":"荒川","town_kana":"アラカワ","prefecture_code":38},"0051":{"zip_code":"7930051","prefecture":"愛媛県","prefecture_kana":"エヒメケン","city":"西条市","city_kana":"サイジョウシ","town":"安知生","town_kana":"アンジュウ","prefecture_code":38},"0010":{"zip_code":"7930010","prefecture":"愛媛県","prefecture_kana":"エヒメケン","city":"西条市","city_kana":"サイジョウシ","town":"飯岡","town_kana":"イイオカ","prefecture_code":38},"0037":{"zip_code":"7930037","prefecture":"愛媛県","prefecture_kana":"エヒメケン","city":"西条市","city_kana":"サイジョウシ","town":"市之川","town_kana":"イチノカワ","prefecture_code":38},"0016":{"zip_code":"7930016","prefecture":"愛媛県","prefecture_kana":"エヒメケン","city":"西条市","city_kana":"サイジョウシ","town":"大浜","town_kana":"オオハマ","prefecture_code":38},"0211":{"zip_code":"7930211","prefecture":"愛媛県","prefecture_kana":"エヒメケン","city":"西条市","city_kana":"サイジョウシ","town":"大保木","town_kana":"オオフキ","prefecture_code":38},"0030":{"zip_code":"7930030","prefecture":"愛媛県","prefecture_kana":"エヒメケン","city":"西条市","city_kana":"サイジョウシ","town":"大町","town_kana":"オオマチ","prefecture_code":38},"0041":{"zip_code":"7930041","prefecture":"愛媛県","prefecture_kana":"エヒメケン","city":"西条市","city_kana":"サイジョウシ","town":"神拝甲","town_kana":"カンバイコウ","prefecture_code":38},"0021":{"zip_code":"7930021","prefecture":"愛媛県","prefecture_kana":"エヒメケン","city":"西条市","city_kana":"サイジョウシ","town":"神拝乙","town_kana":"カンバイオツ","prefecture_code":38},"0042":{"zip_code":"7930042","prefecture":"愛媛県","prefecture_kana":"エヒメケン","city":"西条市","city_kana":"サイジョウシ","town":"喜多川","town_kana":"キタガワ","prefecture_code":38},"0212":{"zip_code":"7930212","prefecture":"愛媛県","prefecture_kana":"エヒメケン","city":"西条市","city_kana":"サイジョウシ","town":"黒瀬","town_kana":"クロセ","prefecture_code":38},"0025":{"zip_code":"7930025","prefecture":"愛媛県","prefecture_kana":"エヒメケン","city":"西条市","city_kana":"サイジョウシ","town":"栄町","town_kana":"サカエマチ","prefecture_code":38},"0067":{"zip_code":"7930067","prefecture":"愛媛県","prefecture_kana":"エヒメケン","city":"西条市","city_kana":"サイジョウシ","town":"坂元甲","town_kana":"サカモトコウ","prefecture_code":38},"0006":{"zip_code":"7930006","prefecture":"愛媛県","prefecture_kana":"エヒメケン","city":"西条市","city_kana":"サイジョウシ","town":"下島山甲","town_kana":"シモシマヤマコウ","prefecture_code":38},"0007":{"zip_code":"7930007","prefecture":"愛媛県","prefecture_kana":"エヒメケン","city":"西条市","city_kana":"サイジョウシ","town":"下島山乙","town_kana":"シモシマヤマオツ","prefecture_code":38},"0028":{"zip_code":"7930028","prefecture":"愛媛県","prefecture_kana":"エヒメケン","city":"西条市","city_kana":"サイジョウシ","town":"新田","town_kana":"シンデン","prefecture_code":38},"0053":{"zip_code":"7930053","prefecture":"愛媛県","prefecture_kana":"エヒメケン","city":"西条市","city_kana":"サイジョウシ","town":"洲之内甲","town_kana":"スノウチコウ","prefecture_code":38},"0101":{"zip_code":"7930101","prefecture":"愛媛県","prefecture_kana":"エヒメケン","city":"西条市","city_kana":"サイジョウシ","town":"千町","town_kana":"センジョウ","prefecture_code":38},"0024":{"zip_code":"7930024","prefecture":"愛媛県","prefecture_kana":"エヒメケン","city":"西条市","city_kana":"サイジョウシ","town":"大師町","town_kana":"ダイシマチ","prefecture_code":38},"0001":{"zip_code":"7930001","prefecture":"愛媛県","prefecture_kana":"エヒメケン","city":"西条市","city_kana":"サイジョウシ","town":"玉津","town_kana":"タマツ","prefecture_code":38},"0027":{"zip_code":"7930027","prefecture":"愛媛県","prefecture_kana":"エヒメケン","city":"西条市","city_kana":"サイジョウシ","town":"朔日市","town_kana":"ツイタチ","prefecture_code":38},"0057":{"zip_code":"7930057","prefecture":"愛媛県","prefecture_kana":"エヒメケン","city":"西条市","city_kana":"サイジョウシ","town":"津越","town_kana":"ツゴエ","prefecture_code":38},"0061":{"zip_code":"7930061","prefecture":"愛媛県","prefecture_kana":"エヒメケン","city":"西条市","city_kana":"サイジョウシ","town":"禎瑞","town_kana":"テイズイ","prefecture_code":38},"0002":{"zip_code":"7930002","prefecture":"愛媛県","prefecture_kana":"エヒメケン","city":"西条市","city_kana":"サイジョウシ","town":"天神","town_kana":"テンジン","prefecture_code":38},"0213":{"zip_code":"7930213","prefecture":"愛媛県","prefecture_kana":"エヒメケン","city":"西条市","city_kana":"サイジョウシ","town":"兎之山","town_kana":"トノヤマ","prefecture_code":38},"0214":{"zip_code":"7930214","prefecture":"愛媛県","prefecture_kana":"エヒメケン","city":"西条市","city_kana":"サイジョウシ","town":"中奥","town_kana":"ナカオク","prefecture_code":38},"0052":{"zip_code":"7930052","prefecture":"愛媛県","prefecture_kana":"エヒメケン","city":"西条市","city_kana":"サイジョウシ","town":"中西","town_kana":"ナカニシ","prefecture_code":38},"0054":{"zip_code":"7930054","prefecture":"愛媛県","prefecture_kana":"エヒメケン","city":"西条市","city_kana":"サイジョウシ","town":"中野甲","town_kana":"ナカノコウ","prefecture_code":38},"0055":{"zip_code":"7930055","prefecture":"愛媛県","prefecture_kana":"エヒメケン","city":"西条市","city_kana":"サイジョウシ","town":"中野乙","town_kana":"ナカノオツ","prefecture_code":38},"0056":{"zip_code":"7930056","prefecture":"愛媛県","prefecture_kana":"エヒメケン","city":"西条市","city_kana":"サイジョウシ","town":"中野丙","town_kana":"ナカノヘイ","prefecture_code":38},"0065":{"zip_code":"7930065","prefecture":"愛媛県","prefecture_kana":"エヒメケン","city":"西条市","city_kana":"サイジョウシ","town":"楢木","town_kana":"ナラノキ","prefecture_code":38},"0063":{"zip_code":"7930063","prefecture":"愛媛県","prefecture_kana":"エヒメケン","city":"西条市","city_kana":"サイジョウシ","town":"西泉甲","town_kana":"ニシイズミコウ","prefecture_code":38},"0064":{"zip_code":"7930064","prefecture":"愛媛県","prefecture_kana":"エヒメケン","city":"西条市","city_kana":"サイジョウシ","town":"西泉乙","town_kana":"ニシイズミオツ","prefecture_code":38},"0062":{"zip_code":"7930062","prefecture":"愛媛県","prefecture_kana":"エヒメケン","city":"西条市","city_kana":"サイジョウシ","town":"西田甲","town_kana":"ニシダコウ","prefecture_code":38},"0215":{"zip_code":"7930215","prefecture":"愛媛県","prefecture_kana":"エヒメケン","city":"西条市","city_kana":"サイジョウシ","town":"西之川","town_kana":"ニシノカワ","prefecture_code":38},"0066":{"zip_code":"7930066","prefecture":"愛媛県","prefecture_kana":"エヒメケン","city":"西条市","city_kana":"サイジョウシ","town":"野々市","town_kana":"ノノイチ","prefecture_code":38},"0017":{"zip_code":"7930017","prefecture":"愛媛県","prefecture_kana":"エヒメケン","city":"西条市","city_kana":"サイジョウシ","town":"早川","town_kana":"ハイガワ","prefecture_code":38},"0003":{"zip_code":"7930003","prefecture":"愛媛県","prefecture_kana":"エヒメケン","city":"西条市","city_kana":"サイジョウシ","town":"ひうち","town_kana":"ヒウチ","prefecture_code":38},"0216":{"zip_code":"7930216","prefecture":"愛媛県","prefecture_kana":"エヒメケン","city":"西条市","city_kana":"サイジョウシ","town":"東之川","town_kana":"ヒガシノカワ","prefecture_code":38},"0026":{"zip_code":"7930026","prefecture":"愛媛県","prefecture_kana":"エヒメケン","city":"西条市","city_kana":"サイジョウシ","town":"東町","town_kana":"ヒガシマチ","prefecture_code":38},"0043":{"zip_code":"7930043","prefecture":"愛媛県","prefecture_kana":"エヒメケン","city":"西条市","city_kana":"サイジョウシ","town":"樋之口","town_kana":"ヒノクチ","prefecture_code":38},"0071":{"zip_code":"7930071","prefecture":"愛媛県","prefecture_kana":"エヒメケン","city":"西条市","city_kana":"サイジョウシ","town":"氷見甲","town_kana":"ヒミコウ","prefecture_code":38},"0072":{"zip_code":"7930072","prefecture":"愛媛県","prefecture_kana":"エヒメケン","city":"西条市","city_kana":"サイジョウシ","town":"氷見乙","town_kana":"ヒミオツ","prefecture_code":38},"0073":{"zip_code":"7930073","prefecture":"愛媛県","prefecture_kana":"エヒメケン","city":"西条市","city_kana":"サイジョウシ","town":"氷見丙","town_kana":"ヒミヘイ","prefecture_code":38},"0074":{"zip_code":"7930074","prefecture":"愛媛県","prefecture_kana":"エヒメケン","city":"西条市","city_kana":"サイジョウシ","town":"氷見丁","town_kana":"ヒミテイ","prefecture_code":38},"0075":{"zip_code":"7930075","prefecture":"愛媛県","prefecture_kana":"エヒメケン","city":"西条市","city_kana":"サイジョウシ","town":"氷見戊","town_kana":"ヒミボ","prefecture_code":38},"0035":{"zip_code":"7930035","prefecture":"愛媛県","prefecture_kana":"エヒメケン","city":"西条市","city_kana":"サイジョウシ","town":"福武甲","town_kana":"フクタケコウ","prefecture_code":38},"0036":{"zip_code":"7930036","prefecture":"愛媛県","prefecture_kana":"エヒメケン","city":"西条市","city_kana":"サイジョウシ","town":"福武乙","town_kana":"フクタケオツ","prefecture_code":38},"0102":{"zip_code":"7930102","prefecture":"愛媛県","prefecture_kana":"エヒメケン","city":"西条市","city_kana":"サイジョウシ","town":"藤之石","town_kana":"フジノイシ","prefecture_code":38},"0004":{"zip_code":"7930004","prefecture":"愛媛県","prefecture_kana":"エヒメケン","city":"西条市","city_kana":"サイジョウシ","town":"船屋甲","town_kana":"フナヤコウ","prefecture_code":38},"0005":{"zip_code":"7930005","prefecture":"愛媛県","prefecture_kana":"エヒメケン","city":"西条市","city_kana":"サイジョウシ","town":"船屋乙","town_kana":"フナヤオツ","prefecture_code":38},"0044":{"zip_code":"7930044","prefecture":"愛媛県","prefecture_kana":"エヒメケン","city":"西条市","city_kana":"サイジョウシ","town":"古川甲","town_kana":"フルカワコウ","prefecture_code":38},"0045":{"zip_code":"7930045","prefecture":"愛媛県","prefecture_kana":"エヒメケン","city":"西条市","city_kana":"サイジョウシ","town":"古川乙","town_kana":"フルカワオツ","prefecture_code":38},"0039":{"zip_code":"7930039","prefecture":"愛媛県","prefecture_kana":"エヒメケン","city":"西条市","city_kana":"サイジョウシ","town":"保野","town_kana":"ホウノ","prefecture_code":38},"0022":{"zip_code":"7930022","prefecture":"愛媛県","prefecture_kana":"エヒメケン","city":"西条市","city_kana":"サイジョウシ","town":"本町","town_kana":"ホンマチ","prefecture_code":38},"0038":{"zip_code":"7930038","prefecture":"愛媛県","prefecture_kana":"エヒメケン","city":"西条市","city_kana":"サイジョウシ","town":"丸野","town_kana":"マルノ","prefecture_code":38},"0046":{"zip_code":"7930046","prefecture":"愛媛県","prefecture_kana":"エヒメケン","city":"西条市","city_kana":"サイジョウシ","town":"港","town_kana":"ミナト","prefecture_code":38},"0034":{"zip_code":"7930034","prefecture":"愛媛県","prefecture_kana":"エヒメケン","city":"西条市","city_kana":"サイジョウシ","town":"明神木","town_kana":"ミョウジンギ","prefecture_code":38}}