{"0000":{"zip_code":"7940000","prefecture":"愛媛県","prefecture_kana":"エヒメケン","city":"今治市","city_kana":"イマバリシ","town":"","town_kana":"","prefecture_code":38},"0081":{"zip_code":"7940081","prefecture":"愛媛県","prefecture_kana":"エヒメケン","city":"今治市","city_kana":"イマバリシ","town":"阿方","town_kana":"アガタ","prefecture_code":38},"0042":{"zip_code":"7940042","prefecture":"愛媛県","prefecture_kana":"エヒメケン","city":"今治市","city_kana":"イマバリシ","town":"旭町","town_kana":"アサヒマチ","prefecture_code":38},"0861":{"zip_code":"7940861","prefecture":"愛媛県","prefecture_kana":"エヒメケン","city":"今治市","city_kana":"イマバリシ","town":"五十嵐","town_kana":"イカナシ","prefecture_code":38},"0085":{"zip_code":"7940085","prefecture":"愛媛県","prefecture_kana":"エヒメケン","city":"今治市","city_kana":"イマバリシ","town":"いこいの丘","town_kana":"イコイノオカ","prefecture_code":38},"0006":{"zip_code":"7940006","prefecture":"愛媛県","prefecture_kana":"エヒメケン","city":"今治市","city_kana":"イマバリシ","town":"石井町","town_kana":"イシイチョウ","prefecture_code":38},"0824":{"zip_code":"7940824","prefecture":"愛媛県","prefecture_kana":"エヒメケン","city":"今治市","city_kana":"イマバリシ","town":"石橋町","town_kana":"イシバシチョウ","prefecture_code":38},"0057":{"zip_code":"7940057","prefecture":"愛媛県","prefecture_kana":"エヒメケン","city":"今治市","city_kana":"イマバリシ","town":"泉川町","town_kana":"イズミガワチョウ","prefecture_code":38},"0014":{"zip_code":"7940014","prefecture":"愛媛県","prefecture_kana":"エヒメケン","city":"今治市","city_kana":"イマバリシ","town":"今治村比岐島","town_kana":"イマバリムラヒキジマ","prefecture_code":38},"0062":{"zip_code":"7940062","prefecture":"愛媛県","prefecture_kana":"エヒメケン","city":"今治市","city_kana":"イマバリシ","town":"馬越町","town_kana":"ウマゴエチョウ","prefecture_code":38},"0061":{"zip_code":"7940061","prefecture":"愛媛県","prefecture_kana":"エヒメケン","city":"今治市","city_kana":"イマバリシ","town":"馬越二番耕地","town_kana":"ウマゴエニバンコウチ","prefecture_code":38},"0035":{"zip_code":"7940035","prefecture":"愛媛県","prefecture_kana":"エヒメケン","city":"今治市","city_kana":"イマバリシ","town":"枝堀町","town_kana":"エダボリチョウ","prefecture_code":38},"0031":{"zip_code":"7940031","prefecture":"愛媛県","prefecture_kana":"エヒメケン","city":"今治市","city_kana":"イマバリシ","town":"恵美須町","town_kana":"エビスチョウ","prefecture_code":38},"0084":{"zip_code":"7940084","prefecture":"愛媛県","prefecture_kana":"エヒメケン","city":"今治市","city_kana":"イマバリシ","town":"延喜","town_kana":"エンギ","prefecture_code":38},"0005":{"zip_code":"7940005","prefecture":"愛媛県","prefecture_kana":"エヒメケン","city":"今治市","city_kana":"イマバリシ","town":"大新田町","town_kana":"オオシンデンチョウ","prefecture_code":38},"0002":{"zip_code":"7940002","prefecture":"愛媛県","prefecture_kana":"エヒメケン","city":"今治市","city_kana":"イマバリシ","town":"大浜町","town_kana":"オオハマチョウ","prefecture_code":38},"1303":{"zip_code":"7941303","prefecture":"愛媛県","prefecture_kana":"エヒメケン","city":"今治市","city_kana":"イマバリシ","town":"大三島町明日","town_kana":"オオミシマチョウアケビ","prefecture_code":38},"1305":{"zip_code":"7941305","prefecture":"愛媛県","prefecture_kana":"エヒメケン","city":"今治市","city_kana":"イマバリシ","town":"大三島町台","town_kana":"オオミシマチョウウテナ","prefecture_code":38},"1308":{"zip_code":"7941308","prefecture":"愛媛県","prefecture_kana":"エヒメケン","city":"今治市","city_kana":"イマバリシ","town":"大三島町浦戸","town_kana":"オオミシマチョウウラド","prefecture_code":38},"1302":{"zip_code":"7941302","prefecture":"愛媛県","prefecture_kana":"エヒメケン","city":"今治市","city_kana":"イマバリシ","town":"大三島町大見","town_kana":"オオミシマチョウオオミ","prefecture_code":38},"1307":{"zip_code":"7941307","prefecture":"愛媛県","prefecture_kana":"エヒメケン","city":"今治市","city_kana":"イマバリシ","town":"大三島町口総","town_kana":"オオミシマチョウクチスボ","prefecture_code":38},"1306":{"zip_code":"7941306","prefecture":"愛媛県","prefecture_kana":"エヒメケン","city":"今治市","city_kana":"イマバリシ","town":"大三島町野々江","town_kana":"オオミシマチョウノノエ","prefecture_code":38},"1301":{"zip_code":"7941301","prefecture":"愛媛県","prefecture_kana":"エヒメケン","city":"今治市","city_kana":"イマバリシ","town":"大三島町肥海","town_kana":"オオミシマチョウヒガイ","prefecture_code":38},"1304":{"zip_code":"7941304","prefecture":"愛媛県","prefecture_kana":"エヒメケン","city":"今治市","city_kana":"イマバリシ","town":"大三島町宮浦","town_kana":"オオミシマチョウミヤウラ","prefecture_code":38},"1309":{"zip_code":"7941309","prefecture":"愛媛県","prefecture_kana":"エヒメケン","city":"今治市","city_kana":"イマバリシ","town":"大三島町宗方","town_kana":"オオミシマチョウムナガタ","prefecture_code":38},"0017":{"zip_code":"7940017","prefecture":"愛媛県","prefecture_kana":"エヒメケン","city":"今治市","city_kana":"イマバリシ","town":"風早町","town_kana":"カザハヤチョウ","prefecture_code":38},"0013":{"zip_code":"7940013","prefecture":"愛媛県","prefecture_kana":"エヒメケン","city":"今治市","city_kana":"イマバリシ","town":"片原町","town_kana":"カタハラチョウ","prefecture_code":38},"0063":{"zip_code":"7940063","prefecture":"愛媛県","prefecture_kana":"エヒメケン","city":"今治市","city_kana":"イマバリシ","town":"片山","town_kana":"カタヤマ","prefecture_code":38},"0822":{"zip_code":"7940822","prefecture":"愛媛県","prefecture_kana":"エヒメケン","city":"今治市","city_kana":"イマバリシ","town":"河南町","town_kana":"カナンチョウ","prefecture_code":38},"0004":{"zip_code":"7940004","prefecture":"愛媛県","prefecture_kana":"エヒメケン","city":"今治市","city_kana":"イマバリシ","town":"鐘場町","town_kana":"カネバチョウ","prefecture_code":38},"1403":{"zip_code":"7941403","prefecture":"愛媛県","prefecture_kana":"エヒメケン","city":"今治市","city_kana":"イマバリシ","town":"上浦町甘崎","town_kana":"カミウラチョウアマザキ","prefecture_code":38},"1402":{"zip_code":"7941402","prefecture":"愛媛県","prefecture_kana":"エヒメケン","city":"今治市","city_kana":"イマバリシ","town":"上浦町井口","town_kana":"カミウラチョウイノクチ","prefecture_code":38},"1401":{"zip_code":"7941401","prefecture":"愛媛県","prefecture_kana":"エヒメケン","city":"今治市","city_kana":"イマバリシ","town":"上浦町盛","town_kana":"カミウラチョウサカリ","prefecture_code":38},"1404":{"zip_code":"7941404","prefecture":"愛媛県","prefecture_kana":"エヒメケン","city":"今治市","city_kana":"イマバリシ","town":"上浦町瀬戸","town_kana":"カミウラチョウセト","prefecture_code":38},"0074":{"zip_code":"7940074","prefecture":"愛媛県","prefecture_kana":"エヒメケン","city":"今治市","city_kana":"イマバリシ","town":"神宮","town_kana":"カンノミヤ","prefecture_code":38},"0804":{"zip_code":"7940804","prefecture":"愛媛県","prefecture_kana":"エヒメケン","city":"今治市","city_kana":"イマバリシ","town":"祇園町","town_kana":"ギオンチョウ","prefecture_code":38},"0812":{"zip_code":"7940812","prefecture":"愛媛県","prefecture_kana":"エヒメケン","city":"今治市","city_kana":"イマバリシ","town":"北高下町","town_kana":"キタコウゲチョウ","prefecture_code":38},"0803":{"zip_code":"7940803","prefecture":"愛媛県","prefecture_kana":"エヒメケン","city":"今治市","city_kana":"イマバリシ","town":"北鳥生町","town_kana":"キタトリウチョウ","prefecture_code":38},"0011":{"zip_code":"7940011","prefecture":"愛媛県","prefecture_kana":"エヒメケン","city":"今治市","city_kana":"イマバリシ","town":"北浜町","town_kana":"キタハマチョウ","prefecture_code":38},"0054":{"zip_code":"7940054","prefecture":"愛媛県","prefecture_kana":"エヒメケン","city":"今治市","city_kana":"イマバリシ","town":"北日吉町","town_kana":"キタヒヨシチョウ","prefecture_code":38},"0028":{"zip_code":"7940028","prefecture":"愛媛県","prefecture_kana":"エヒメケン","city":"今治市","city_kana":"イマバリシ","town":"北宝来町","town_kana":"キタホウライチョウ","prefecture_code":38},"0813":{"zip_code":"7940813","prefecture":"愛媛県","prefecture_kana":"エヒメケン","city":"今治市","city_kana":"イマバリシ","town":"衣干町","town_kana":"キヌボシチョウ","prefecture_code":38},"0024":{"zip_code":"7940024","prefecture":"愛媛県","prefecture_kana":"エヒメケン","city":"今治市","city_kana":"イマバリシ","town":"共栄町","town_kana":"キョウエイチョウ","prefecture_code":38},"0044":{"zip_code":"7940044","prefecture":"愛媛県","prefecture_kana":"エヒメケン","city":"今治市","city_kana":"イマバリシ","town":"蔵敷町","town_kana":"クラシキチョウ","prefecture_code":38},"0069":{"zip_code":"7940069","prefecture":"愛媛県","prefecture_kana":"エヒメケン","city":"今治市","city_kana":"イマバリシ","town":"クリエイティブヒルズ","town_kana":"クリエイティブヒルズ","prefecture_code":38},"0059":{"zip_code":"7940059","prefecture":"愛媛県","prefecture_kana":"エヒメケン","city":"今治市","city_kana":"イマバリシ","town":"鯉池町","town_kana":"コイケチョウ","prefecture_code":38},"0064":{"zip_code":"7940064","prefecture":"愛媛県","prefecture_kana":"エヒメケン","city":"今治市","city_kana":"イマバリシ","town":"小泉","town_kana":"コイズミ","prefecture_code":38},"0826":{"zip_code":"7940826","prefecture":"愛媛県","prefecture_kana":"エヒメケン","city":"今治市","city_kana":"イマバリシ","town":"郷新屋敷町","town_kana":"ゴウシンヤシキチョウ","prefecture_code":38},"0823":{"zip_code":"7940823","prefecture":"愛媛県","prefecture_kana":"エヒメケン","city":"今治市","city_kana":"イマバリシ","town":"郷本町","town_kana":"ゴウホンチョウ","prefecture_code":38},"0825":{"zip_code":"7940825","prefecture":"愛媛県","prefecture_kana":"エヒメケン","city":"今治市","city_kana":"イマバリシ","town":"郷六ケ内町","town_kana":"ゴウロクガウチチョウ","prefecture_code":38},"0805":{"zip_code":"7940805","prefecture":"愛媛県","prefecture_kana":"エヒメケン","city":"今治市","city_kana":"イマバリシ","town":"広紹寺町","town_kana":"コウジョウジチョウ","prefecture_code":38},"0051":{"zip_code":"7940051","prefecture":"愛媛県","prefecture_kana":"エヒメケン","city":"今治市","city_kana":"イマバリシ","town":"高地町","town_kana":"コウチチョウ","prefecture_code":38},"0037":{"zip_code":"7940037","prefecture":"愛媛県","prefecture_kana":"エヒメケン","city":"今治市","city_kana":"イマバリシ","town":"黄金町","town_kana":"コガネチョウ","prefecture_code":38},"0021":{"zip_code":"7940021","prefecture":"愛媛県","prefecture_kana":"エヒメケン","city":"今治市","city_kana":"イマバリシ","town":"米屋町","town_kana":"コメヤマチ","prefecture_code":38},"0023":{"zip_code":"7940023","prefecture":"愛媛県","prefecture_kana":"エヒメケン","city":"今治市","city_kana":"イマバリシ","town":"栄町","town_kana":"サカエマチ","prefecture_code":38},"0086":{"zip_code":"7940086","prefecture":"愛媛県","prefecture_kana":"エヒメケン","city":"今治市","city_kana":"イマバリシ","town":"しまなみの杜","town_kana":"シマナミノモリ","prefecture_code":38},"0087":{"zip_code":"7940087","prefecture":"愛媛県","prefecture_kana":"エヒメケン","city":"今治市","city_kana":"イマバリシ","town":"しまなみヒルズ","town_kana":"シマナミヒルズ","prefecture_code":38},"0038":{"zip_code":"7940038","prefecture":"愛媛県","prefecture_kana":"エヒメケン","city":"今治市","city_kana":"イマバリシ","town":"末広町","town_kana":"スエヒロチョウ","prefecture_code":38},"0001":{"zip_code":"7940001","prefecture":"愛媛県","prefecture_kana":"エヒメケン","city":"今治市","city_kana":"イマバリシ","town":"砂場町","town_kana":"スナバチョウ","prefecture_code":38},"1103":{"zip_code":"7941103","prefecture":"愛媛県","prefecture_kana":"エヒメケン","city":"今治市","city_kana":"イマバリシ","town":"関前大下","town_kana":"セキゼンオオゲ","prefecture_code":38},"1101":{"zip_code":"7941101","prefecture":"愛媛県","prefecture_kana":"エヒメケン","city":"今治市","city_kana":"イマバリシ","town":"関前岡村","town_kana":"セキゼンオカムラ","prefecture_code":38},"1102":{"zip_code":"7941102","prefecture":"愛媛県","prefecture_kana":"エヒメケン","city":"今治市","city_kana":"イマバリシ","town":"関前小大下","town_kana":"セキゼンコオゲ","prefecture_code":38},"0058":{"zip_code":"7940058","prefecture":"愛媛県","prefecture_kana":"エヒメケン","city":"今治市","city_kana":"イマバリシ","town":"蒼社町","town_kana":"ソウシャチョウ","prefecture_code":38},"0025":{"zip_code":"7940025","prefecture":"愛媛県","prefecture_kana":"エヒメケン","city":"今治市","city_kana":"イマバリシ","town":"大正町","town_kana":"タイショウチョウ","prefecture_code":38},"0066":{"zip_code":"7940066","prefecture":"愛媛県","prefecture_kana":"エヒメケン","city":"今治市","city_kana":"イマバリシ","town":"高橋","town_kana":"タカハシ","prefecture_code":38},"0067":{"zip_code":"7940067","prefecture":"愛媛県","prefecture_kana":"エヒメケン","city":"今治市","city_kana":"イマバリシ","town":"高橋ふれあいの丘","town_kana":"タカハシフレアイノオカ","prefecture_code":38},"0083":{"zip_code":"7940083","prefecture":"愛媛県","prefecture_kana":"エヒメケン","city":"今治市","city_kana":"イマバリシ","town":"宅間","town_kana":"タクマ","prefecture_code":38},"0821":{"zip_code":"7940821","prefecture":"愛媛県","prefecture_kana":"エヒメケン","city":"今治市","city_kana":"イマバリシ","town":"立花町","town_kana":"タチバナチョウ","prefecture_code":38},"0102":{"zip_code":"7940102","prefecture":"愛媛県","prefecture_kana":"エヒメケン","city":"今治市","city_kana":"イマバリシ","town":"玉川町大野","town_kana":"タマガワチョウオオノ","prefecture_code":38},"0117":{"zip_code":"7940117","prefecture":"愛媛県","prefecture_kana":"エヒメケン","city":"今治市","city_kana":"イマバリシ","town":"玉川町鬼原","town_kana":"タマガワチョウオニバラ","prefecture_code":38},"0125":{"zip_code":"7940125","prefecture":"愛媛県","prefecture_kana":"エヒメケン","city":"今治市","city_kana":"イマバリシ","town":"玉川町葛谷","town_kana":"タマガワチョウカズラタニ","prefecture_code":38},"0107":{"zip_code":"7940107","prefecture":"愛媛県","prefecture_kana":"エヒメケン","city":"今治市","city_kana":"イマバリシ","town":"玉川町桂","town_kana":"タマガワチョウカツラ","prefecture_code":38},"0122":{"zip_code":"7940122","prefecture":"愛媛県","prefecture_kana":"エヒメケン","city":"今治市","city_kana":"イマバリシ","town":"玉川町木地","town_kana":"タマガワチョウキジ","prefecture_code":38},"0115":{"zip_code":"7940115","prefecture":"愛媛県","prefecture_kana":"エヒメケン","city":"今治市","city_kana":"イマバリシ","town":"玉川町高野","town_kana":"タマガワチョウコウヤ","prefecture_code":38},"0112":{"zip_code":"7940112","prefecture":"愛媛県","prefecture_kana":"エヒメケン","city":"今治市","city_kana":"イマバリシ","town":"玉川町小鴨部","town_kana":"タマガワチョウコカンベ","prefecture_code":38},"0101":{"zip_code":"7940101","prefecture":"愛媛県","prefecture_kana":"エヒメケン","city":"今治市","city_kana":"イマバリシ","town":"玉川町三反地","town_kana":"タマガワチョウサンダンジ","prefecture_code":38},"0104":{"zip_code":"7940104","prefecture":"愛媛県","prefecture_kana":"エヒメケン","city":"今治市","city_kana":"イマバリシ","town":"玉川町摺木","town_kana":"タマガワチョウスルギ","prefecture_code":38},"0109":{"zip_code":"7940109","prefecture":"愛媛県","prefecture_kana":"エヒメケン","city":"今治市","city_kana":"イマバリシ","town":"玉川町長谷","town_kana":"タマガワチョウナガタニ","prefecture_code":38},"0111":{"zip_code":"7940111","prefecture":"愛媛県","prefecture_kana":"エヒメケン","city":"今治市","city_kana":"イマバリシ","town":"玉川町中村","town_kana":"タマガワチョウナカムラ","prefecture_code":38},"0106":{"zip_code":"7940106","prefecture":"愛媛県","prefecture_kana":"エヒメケン","city":"今治市","city_kana":"イマバリシ","town":"玉川町鍋地","town_kana":"タマガワチョウナベジ","prefecture_code":38},"0121":{"zip_code":"7940121","prefecture":"愛媛県","prefecture_kana":"エヒメケン","city":"今治市","city_kana":"イマバリシ","town":"玉川町鈍川","town_kana":"タマガワチョウニブカワ","prefecture_code":38},"0116":{"zip_code":"7940116","prefecture":"愛媛県","prefecture_kana":"エヒメケン","city":"今治市","city_kana":"イマバリシ","town":"玉川町畑寺","town_kana":"タマガワチョウハタデラ","prefecture_code":38},"0113":{"zip_code":"7940113","prefecture":"愛媛県","prefecture_kana":"エヒメケン","city":"今治市","city_kana":"イマバリシ","town":"玉川町別所","town_kana":"タマガワチョウベッショ","prefecture_code":38},"0103":{"zip_code":"7940103","prefecture":"愛媛県","prefecture_kana":"エヒメケン","city":"今治市","city_kana":"イマバリシ","town":"玉川町法界寺","town_kana":"タマガワチョウホウカイジ","prefecture_code":38},"0108":{"zip_code":"7940108","prefecture":"愛媛県","prefecture_kana":"エヒメケン","city":"今治市","city_kana":"イマバリシ","town":"玉川町御厩","town_kana":"タマガワチョウミマヤ","prefecture_code":38},"0114":{"zip_code":"7940114","prefecture":"愛媛県","prefecture_kana":"エヒメケン","city":"今治市","city_kana":"イマバリシ","town":"玉川町八幡","town_kana":"タマガワチョウヤワタ","prefecture_code":38},"0105":{"zip_code":"7940105","prefecture":"愛媛県","prefecture_kana":"エヒメケン","city":"今治市","city_kana":"イマバリシ","town":"玉川町與和木","town_kana":"タマガワチョウヨワギ","prefecture_code":38},"0124":{"zip_code":"7940124","prefecture":"愛媛県","prefecture_kana":"エヒメケン","city":"今治市","city_kana":"イマバリシ","town":"玉川町龍岡上","town_kana":"タマガワチョウリュウオカカミ","prefecture_code":38},"0123":{"zip_code":"7940123","prefecture":"愛媛県","prefecture_kana":"エヒメケン","city":"今治市","city_kana":"イマバリシ","town":"玉川町龍岡下","town_kana":"タマガワチョウリュウオカシモ","prefecture_code":38},"0007":{"zip_code":"7940007","prefecture":"愛媛県","prefecture_kana":"エヒメケン","city":"今治市","city_kana":"イマバリシ","town":"近見町","town_kana":"チカミチョウ","prefecture_code":38},"0827":{"zip_code":"7940827","prefecture":"愛媛県","prefecture_kana":"エヒメケン","city":"今治市","city_kana":"イマバリシ","town":"辻堂","town_kana":"ツジドウ","prefecture_code":38},"0815":{"zip_code":"7940815","prefecture":"愛媛県","prefecture_kana":"エヒメケン","city":"今治市","city_kana":"イマバリシ","town":"土橋町","town_kana":"ツチバシチョウ","prefecture_code":38},"0032":{"zip_code":"7940032","prefecture":"愛媛県","prefecture_kana":"エヒメケン","city":"今治市","city_kana":"イマバリシ","town":"天保山町","town_kana":"テンポウザンチョウ","prefecture_code":38},"0036":{"zip_code":"7940036","prefecture":"愛媛県","prefecture_kana":"エヒメケン","city":"今治市","city_kana":"イマバリシ","town":"通町","town_kana":"トオリチョウ","prefecture_code":38},"0015":{"zip_code":"7940015","prefecture":"愛媛県","prefecture_kana":"エヒメケン","city":"今治市","city_kana":"イマバリシ","town":"常盤町","town_kana":"トキワチョウ","prefecture_code":38},"0863":{"zip_code":"7940863","prefecture":"愛媛県","prefecture_kana":"エヒメケン","city":"今治市","city_kana":"イマバリシ","town":"徳重","town_kana":"トクシゲ","prefecture_code":38},"0840":{"zip_code":"7940840","prefecture":"愛媛県","prefecture_kana":"エヒメケン","city":"今治市","city_kana":"イマバリシ","town":"中寺","town_kana":"ナカデラ","prefecture_code":38},"0016":{"zip_code":"7940016","prefecture":"愛媛県","prefecture_kana":"エヒメケン","city":"今治市","city_kana":"イマバリシ","town":"中浜町","town_kana":"ナカバマチョウ","prefecture_code":38},"0055":{"zip_code":"7940055","prefecture":"愛媛県","prefecture_kana":"エヒメケン","city":"今治市","city_kana":"イマバリシ","town":"中日吉町","town_kana":"ナカヒヨシチョウ","prefecture_code":38},"0068":{"zip_code":"7940068","prefecture":"愛媛県","prefecture_kana":"エヒメケン","city":"今治市","city_kana":"イマバリシ","town":"にぎわい広場","town_kana":"ニギワイヒロバ","prefecture_code":38},"0850":{"zip_code":"7940850","prefecture":"愛媛県","prefecture_kana":"エヒメケン","city":"今治市","city_kana":"イマバリシ","town":"新谷","town_kana":"ニヤ","prefecture_code":38},"0082":{"zip_code":"7940082","prefecture":"愛媛県","prefecture_kana":"エヒメケン","city":"今治市","city_kana":"イマバリシ","town":"野間","town_kana":"ノマ","prefecture_code":38},"2301":{"zip_code":"7942301","prefecture":"愛媛県","prefecture_kana":"エヒメケン","city":"今治市","city_kana":"イマバリシ","town":"伯方町有津","town_kana":"ハカタチョウアロウヅ","prefecture_code":38},"2303":{"zip_code":"7942303","prefecture":"愛媛県","prefecture_kana":"エヒメケン","city":"今治市","city_kana":"イマバリシ","town":"伯方町伊方","town_kana":"ハカタチョウイカタ","prefecture_code":38},"2302":{"zip_code":"7942302","prefecture":"愛媛県","prefecture_kana":"エヒメケン","city":"今治市","city_kana":"イマバリシ","town":"伯方町叶浦","town_kana":"ハカタチョウカノウラ","prefecture_code":38},"2304":{"zip_code":"7942304","prefecture":"愛媛県","prefecture_kana":"エヒメケン","city":"今治市","city_kana":"イマバリシ","town":"伯方町北浦","town_kana":"ハカタチョウキタウラ","prefecture_code":38},"2305":{"zip_code":"7942305","prefecture":"愛媛県","prefecture_kana":"エヒメケン","city":"今治市","city_kana":"イマバリシ","town":"伯方町木浦","town_kana":"ハカタチョウキノウラ","prefecture_code":38},"0831":{"zip_code":"7940831","prefecture":"愛媛県","prefecture_kana":"エヒメケン","city":"今治市","city_kana":"イマバリシ","town":"八町東","town_kana":"ハッチョウヒガシ","prefecture_code":38},"0832":{"zip_code":"7940832","prefecture":"愛媛県","prefecture_kana":"エヒメケン","city":"今治市","city_kana":"イマバリシ","town":"八町西","town_kana":"ハッチョウニシ","prefecture_code":38},"0801":{"zip_code":"7940801","prefecture":"愛媛県","prefecture_kana":"エヒメケン","city":"今治市","city_kana":"イマバリシ","town":"東鳥生町","town_kana":"ヒガシトリウチョウ","prefecture_code":38},"0033":{"zip_code":"7940033","prefecture":"愛媛県","prefecture_kana":"エヒメケン","city":"今治市","city_kana":"イマバリシ","town":"東門町","town_kana":"ヒガシモンチョウ","prefecture_code":38},"0026":{"zip_code":"7940026","prefecture":"愛媛県","prefecture_kana":"エヒメケン","city":"今治市","city_kana":"イマバリシ","town":"別宮町","town_kana":"ベックチョウ","prefecture_code":38},"0065":{"zip_code":"7940065","prefecture":"愛媛県","prefecture_kana":"エヒメケン","city":"今治市","city_kana":"イマバリシ","town":"別名","town_kana":"ベツミョウ","prefecture_code":38},"0018":{"zip_code":"7940018","prefecture":"愛媛県","prefecture_kana":"エヒメケン","city":"今治市","city_kana":"イマバリシ","town":"本町","town_kana":"ホンマチ","prefecture_code":38},"0041":{"zip_code":"7940041","prefecture":"愛媛県","prefecture_kana":"エヒメケン","city":"今治市","city_kana":"イマバリシ","town":"松本町","town_kana":"マツモトチョウ","prefecture_code":38},"0034":{"zip_code":"7940034","prefecture":"愛媛県","prefecture_kana":"エヒメケン","city":"今治市","city_kana":"イマバリシ","town":"美須賀町","town_kana":"ミスカチョウ","prefecture_code":38},"0003":{"zip_code":"7940003","prefecture":"愛媛県","prefecture_kana":"エヒメケン","city":"今治市","city_kana":"イマバリシ","town":"湊町","town_kana":"ミナトチョウ","prefecture_code":38},"0811":{"zip_code":"7940811","prefecture":"愛媛県","prefecture_kana":"エヒメケン","city":"今治市","city_kana":"イマバリシ","town":"南高下町","town_kana":"ミナミコウゲチョウ","prefecture_code":38},"0027":{"zip_code":"7940027","prefecture":"愛媛県","prefecture_kana":"エヒメケン","city":"今治市","city_kana":"イマバリシ","town":"南大門町","town_kana":"ミナミダイモンチョウ","prefecture_code":38},"0802":{"zip_code":"7940802","prefecture":"愛媛県","prefecture_kana":"エヒメケン","city":"今治市","city_kana":"イマバリシ","town":"南鳥生町","town_kana":"ミナミトリウチョウ","prefecture_code":38},"0056":{"zip_code":"7940056","prefecture":"愛媛県","prefecture_kana":"エヒメケン","city":"今治市","city_kana":"イマバリシ","town":"南日吉町","town_kana":"ミナミヒヨシチョウ","prefecture_code":38},"0043":{"zip_code":"7940043","prefecture":"愛媛県","prefecture_kana":"エヒメケン","city":"今治市","city_kana":"イマバリシ","town":"南宝来町","town_kana":"ミナミホウライチョウ","prefecture_code":38},"0012":{"zip_code":"7940012","prefecture":"愛媛県","prefecture_kana":"エヒメケン","city":"今治市","city_kana":"イマバリシ","town":"美保町","town_kana":"ミホチョウ","prefecture_code":38},"2204":{"zip_code":"7942204","prefecture":"愛媛県","prefecture_kana":"エヒメケン","city":"今治市","city_kana":"イマバリシ","town":"宮窪町友浦","town_kana":"ミヤクボチョウトモウラ","prefecture_code":38},"2201":{"zip_code":"7942201","prefecture":"愛媛県","prefecture_kana":"エヒメケン","city":"今治市","city_kana":"イマバリシ","town":"宮窪町早川","town_kana":"ミヤクボチョウハヤカワ","prefecture_code":38},"2203":{"zip_code":"7942203","prefecture":"愛媛県","prefecture_kana":"エヒメケン","city":"今治市","city_kana":"イマバリシ","town":"宮窪町宮窪","town_kana":"ミヤクボチョウミヤクボ","prefecture_code":38},"2202":{"zip_code":"7942202","prefecture":"愛媛県","prefecture_kana":"エヒメケン","city":"今治市","city_kana":"イマバリシ","town":"宮窪町余所国","town_kana":"ミヤクボチョウヨソクニ","prefecture_code":38},"0052":{"zip_code":"7940052","prefecture":"愛媛県","prefecture_kana":"エヒメケン","city":"今治市","city_kana":"イマバリシ","town":"宮下町","town_kana":"ミヤシタチョウ","prefecture_code":38},"0022":{"zip_code":"7940022","prefecture":"愛媛県","prefecture_kana":"エヒメケン","city":"今治市","city_kana":"イマバリシ","town":"室屋町","town_kana":"ムロヤチョウ","prefecture_code":38},"0073":{"zip_code":"7940073","prefecture":"愛媛県","prefecture_kana":"エヒメケン","city":"今治市","city_kana":"イマバリシ","town":"矢田","town_kana":"ヤタ","prefecture_code":38},"0053":{"zip_code":"7940053","prefecture":"愛媛県","prefecture_kana":"エヒメケン","city":"今治市","city_kana":"イマバリシ","town":"山方町","town_kana":"ヤマカタチョウ","prefecture_code":38},"0072":{"zip_code":"7940072","prefecture":"愛媛県","prefecture_kana":"エヒメケン","city":"今治市","city_kana":"イマバリシ","town":"山路","town_kana":"ヤマジ","prefecture_code":38},"0071":{"zip_code":"7940071","prefecture":"愛媛県","prefecture_kana":"エヒメケン","city":"今治市","city_kana":"イマバリシ","town":"山路町","town_kana":"ヤマジチョウ","prefecture_code":38},"0814":{"zip_code":"7940814","prefecture":"愛媛県","prefecture_kana":"エヒメケン","city":"今治市","city_kana":"イマバリシ","town":"横田町","town_kana":"ヨコタチョウ","prefecture_code":38},"2111":{"zip_code":"7942111","prefecture":"愛媛県","prefecture_kana":"エヒメケン","city":"今治市","city_kana":"イマバリシ","town":"吉海町幸新田","town_kana":"ヨシウミチョウサイワイシンデン","prefecture_code":38},"2117":{"zip_code":"7942117","prefecture":"愛媛県","prefecture_kana":"エヒメケン","city":"今治市","city_kana":"イマバリシ","town":"吉海町正味","town_kana":"ヨシウミチョウショウミ","prefecture_code":38},"2101":{"zip_code":"7942101","prefecture":"愛媛県","prefecture_kana":"エヒメケン","city":"今治市","city_kana":"イマバリシ","town":"吉海町田浦","town_kana":"ヨシウミチョウタノウラ","prefecture_code":38},"2119":{"zip_code":"7942119","prefecture":"愛媛県","prefecture_kana":"エヒメケン","city":"今治市","city_kana":"イマバリシ","town":"吉海町津島","town_kana":"ヨシウミチョウツシマ","prefecture_code":38},"2102":{"zip_code":"7942102","prefecture":"愛媛県","prefecture_kana":"エヒメケン","city":"今治市","city_kana":"イマバリシ","town":"吉海町泊","town_kana":"ヨシウミチョウトマリ","prefecture_code":38},"2116":{"zip_code":"7942116","prefecture":"愛媛県","prefecture_kana":"エヒメケン","city":"今治市","city_kana":"イマバリシ","town":"吉海町名駒","town_kana":"ヨシウミチョウナゴマ","prefecture_code":38},"2104":{"zip_code":"7942104","prefecture":"愛媛県","prefecture_kana":"エヒメケン","city":"今治市","city_kana":"イマバリシ","town":"吉海町仁江","town_kana":"ヨシウミチョウニエ","prefecture_code":38},"2103":{"zip_code":"7942103","prefecture":"愛媛県","prefecture_kana":"エヒメケン","city":"今治市","city_kana":"イマバリシ","town":"吉海町福田","town_kana":"ヨシウミチョウフクダ","prefecture_code":38},"2118":{"zip_code":"7942118","prefecture":"愛媛県","prefecture_kana":"エヒメケン","city":"今治市","city_kana":"イマバリシ","town":"吉海町臥間","town_kana":"ヨシウミチョウフスマ","prefecture_code":38},"2112":{"zip_code":"7942112","prefecture":"愛媛県","prefecture_kana":"エヒメケン","city":"今治市","city_kana":"イマバリシ","town":"吉海町本庄","town_kana":"ヨシウミチョウホンジョウ","prefecture_code":38},"2115":{"zip_code":"7942115","prefecture":"愛媛県","prefecture_kana":"エヒメケン","city":"今治市","city_kana":"イマバリシ","town":"吉海町南浦","town_kana":"ヨシウミチョウミナミウラ","prefecture_code":38},"2114":{"zip_code":"7942114","prefecture":"愛媛県","prefecture_kana":"エヒメケン","city":"今治市","city_kana":"イマバリシ","town":"吉海町名","town_kana":"ヨシウミチョウミョウ","prefecture_code":38},"2113":{"zip_code":"7942113","prefecture":"愛媛県","prefecture_kana":"エヒメケン","city":"今治市","city_kana":"イマバリシ","town":"吉海町椋名","town_kana":"ヨシウミチョウムクナ","prefecture_code":38},"2110":{"zip_code":"7942110","prefecture":"愛媛県","prefecture_kana":"エヒメケン","city":"今治市","city_kana":"イマバリシ","town":"吉海町八幡","town_kana":"ヨシウミチョウヤワタ","prefecture_code":38},"0862":{"zip_code":"7940862","prefecture":"愛媛県","prefecture_kana":"エヒメケン","city":"今治市","city_kana":"イマバリシ","town":"四村","town_kana":"ヨムラ","prefecture_code":38},"2500":{"zip_code":"7942500","prefecture":"愛媛県","prefecture_kana":"エヒメケン","city":"越智郡上島町","city_kana":"オチグンカミジマチョウ","town":"","town_kana":"","prefecture_code":38},"2550":{"zip_code":"7942550","prefecture":"愛媛県","prefecture_kana":"エヒメケン","city":"越智郡上島町","city_kana":"オチグンカミジマチョウ","town":"生名","town_kana":"イキナ","prefecture_code":38},"2410":{"zip_code":"7942410","prefecture":"愛媛県","prefecture_kana":"エヒメケン","city":"越智郡上島町","city_kana":"オチグンカミジマチョウ","town":"岩城","town_kana":"イワギ","prefecture_code":38},"2540":{"zip_code":"7942540","prefecture":"愛媛県","prefecture_kana":"エヒメケン","city":"越智郡上島町","city_kana":"オチグンカミジマチョウ","town":"魚島一番耕地","town_kana":"ウオシマイチバンコウチ","prefecture_code":38},"2541":{"zip_code":"7942541","prefecture":"愛媛県","prefecture_kana":"エヒメケン","city":"越智郡上島町","city_kana":"オチグンカミジマチョウ","town":"魚島二番耕地","town_kana":"ウオシマニバンコウチ","prefecture_code":38},"2542":{"zip_code":"7942542","prefecture":"愛媛県","prefecture_kana":"エヒメケン","city":"越智郡上島町","city_kana":"オチグンカミジマチョウ","town":"魚島三番耕地","town_kana":"ウオシマサンバンコウチ","prefecture_code":38},"2508":{"zip_code":"7942508","prefecture":"愛媛県","prefecture_kana":"エヒメケン","city":"越智郡上島町","city_kana":"オチグンカミジマチョウ","town":"弓削太田","town_kana":"ユゲオオタ","prefecture_code":38},"2513":{"zip_code":"7942513","prefecture":"愛媛県","prefecture_kana":"エヒメケン","city":"越智郡上島町","city_kana":"オチグンカミジマチョウ","town":"弓削大谷","town_kana":"ユゲオオタニ","prefecture_code":38},"2510":{"zip_code":"7942510","prefecture":"愛媛県","prefecture_kana":"エヒメケン","city":"越智郡上島町","city_kana":"オチグンカミジマチョウ","town":"弓削鎌田","town_kana":"ユゲカマダ","prefecture_code":38},"2503":[{"zip_code":"7942503","prefecture":"愛媛県","prefecture_kana":"エヒメケン","city":"越智郡上島町","city_kana":"オチグンカミジマチョウ","town":"弓削上弓削","town_kana":"ユゲカミユゲ","prefecture_code":38},{"zip_code":"7942503","prefecture":"愛媛県","prefecture_kana":"エヒメケン","city":"越智郡上島町","city_kana":"オチグンカミジマチョウ","town":"弓削百貫","town_kana":"ユゲヒャッカン","prefecture_code":38}],"2512":{"zip_code":"7942512","prefecture":"愛媛県","prefecture_kana":"エヒメケン","city":"越智郡上島町","city_kana":"オチグンカミジマチョウ","town":"弓削狩尾","town_kana":"ユゲカリオ","prefecture_code":38},"2501":{"zip_code":"7942501","prefecture":"愛媛県","prefecture_kana":"エヒメケン","city":"越智郡上島町","city_kana":"オチグンカミジマチョウ","town":"弓削久司浦","town_kana":"ユゲクジウラ","prefecture_code":38},"2520":{"zip_code":"7942520","prefecture":"愛媛県","prefecture_kana":"エヒメケン","city":"越智郡上島町","city_kana":"オチグンカミジマチョウ","town":"弓削佐島","town_kana":"ユゲサシマ","prefecture_code":38},"2502":{"zip_code":"7942502","prefecture":"愛媛県","prefecture_kana":"エヒメケン","city":"越智郡上島町","city_kana":"オチグンカミジマチョウ","town":"弓削沢津","town_kana":"ユゲサワヅ","prefecture_code":38},"2506":{"zip_code":"7942506","prefecture":"愛媛県","prefecture_kana":"エヒメケン","city":"越智郡上島町","city_kana":"オチグンカミジマチョウ","town":"弓削下弓削","town_kana":"ユゲシモユゲ","prefecture_code":38},"2530":{"zip_code":"7942530","prefecture":"愛媛県","prefecture_kana":"エヒメケン","city":"越智郡上島町","city_kana":"オチグンカミジマチョウ","town":"弓削豊島","town_kana":"ユゲトヨシマ","prefecture_code":38},"2509":{"zip_code":"7942509","prefecture":"愛媛県","prefecture_kana":"エヒメケン","city":"越智郡上島町","city_kana":"オチグンカミジマチョウ","town":"弓削土生","town_kana":"ユゲハブ","prefecture_code":38},"2504":{"zip_code":"7942504","prefecture":"愛媛県","prefecture_kana":"エヒメケン","city":"越智郡上島町","city_kana":"オチグンカミジマチョウ","town":"弓削引野","town_kana":"ユゲヒキノ","prefecture_code":38},"2511":{"zip_code":"7942511","prefecture":"愛媛県","prefecture_kana":"エヒメケン","city":"越智郡上島町","city_kana":"オチグンカミジマチョウ","town":"弓削日比","town_kana":"ユゲヒビ","prefecture_code":38},"2507":{"zip_code":"7942507","prefecture":"愛媛県","prefecture_kana":"エヒメケン","city":"越智郡上島町","city_kana":"オチグンカミジマチョウ","town":"弓削藤谷","town_kana":"ユゲフジタニ","prefecture_code":38},"2505":{"zip_code":"7942505","prefecture":"愛媛県","prefecture_kana":"エヒメケン","city":"越智郡上島町","city_kana":"オチグンカミジマチョウ","town":"弓削明神","town_kana":"ユゲミョウジン","prefecture_code":38}}