{"0000":{"zip_code":"7960000","prefecture":"愛媛県","prefecture_kana":"エヒメケン","city":"八幡浜市","city_kana":"ヤワタハマシ","town":"","town_kana":"","prefecture_code":38},"0088":{"zip_code":"7960088","prefecture":"愛媛県","prefecture_kana":"エヒメケン","city":"八幡浜市","city_kana":"ヤワタハマシ","town":"八幡浜市の次に番地がくる場合","town_kana":"ヤワタハマシノツギニバンチガクルバアイ","prefecture_code":38},"0081":{"zip_code":"7960081","prefecture":"愛媛県","prefecture_kana":"エヒメケン","city":"八幡浜市","city_kana":"ヤワタハマシ","town":"朝汐橋","town_kana":"アサシオバシ","prefecture_code":38},"0086":{"zip_code":"7960086","prefecture":"愛媛県","prefecture_kana":"エヒメケン","city":"八幡浜市","city_kana":"ヤワタハマシ","town":"旭町","town_kana":"アサヒマチ","prefecture_code":38},"0056":{"zip_code":"7960056","prefecture":"愛媛県","prefecture_kana":"エヒメケン","city":"八幡浜市","city_kana":"ヤワタハマシ","town":"愛宕","town_kana":"アタゴ","prefecture_code":38},"8054":{"zip_code":"7968054","prefecture":"愛媛県","prefecture_kana":"エヒメケン","city":"八幡浜市","city_kana":"ヤワタハマシ","town":"穴井","town_kana":"アナイ","prefecture_code":38},"0022":{"zip_code":"7960022","prefecture":"愛媛県","prefecture_kana":"エヒメケン","city":"八幡浜市","city_kana":"ヤワタハマシ","town":"駅前","town_kana":"エキマエ","prefecture_code":38},"0031":{"zip_code":"7960031","prefecture":"愛媛県","prefecture_kana":"エヒメケン","city":"八幡浜市","city_kana":"ヤワタハマシ","town":"江戸岡","town_kana":"エドオカ","prefecture_code":38},"0061":{"zip_code":"7960061","prefecture":"愛媛県","prefecture_kana":"エヒメケン","city":"八幡浜市","city_kana":"ヤワタハマシ","town":"海老崎","town_kana":"エビサキ","prefecture_code":38},"0073":{"zip_code":"7960073","prefecture":"愛媛県","prefecture_kana":"エヒメケン","city":"八幡浜市","city_kana":"ヤワタハマシ","town":"戎町","town_kana":"エビスマチ","prefecture_code":38},"8060":{"zip_code":"7968060","prefecture":"愛媛県","prefecture_kana":"エヒメケン","city":"八幡浜市","city_kana":"ヤワタハマシ","town":"大島","town_kana":"オオシマ","prefecture_code":38},"8001":{"zip_code":"7968001","prefecture":"愛媛県","prefecture_kana":"エヒメケン","city":"八幡浜市","city_kana":"ヤワタハマシ","town":"大谷口","town_kana":"オオタニグチ","prefecture_code":38},"0004":{"zip_code":"7960004","prefecture":"愛媛県","prefecture_kana":"エヒメケン","city":"八幡浜市","city_kana":"ヤワタハマシ","town":"大平","town_kana":"オオヒラ","prefecture_code":38},"0002":{"zip_code":"7960002","prefecture":"愛媛県","prefecture_kana":"エヒメケン","city":"八幡浜市","city_kana":"ヤワタハマシ","town":"大平","town_kana":"オオヒラ","prefecture_code":38},"0003":{"zip_code":"7960003","prefecture":"愛媛県","prefecture_kana":"エヒメケン","city":"八幡浜市","city_kana":"ヤワタハマシ","town":"大平","town_kana":"オオヒラ","prefecture_code":38},"0087":{"zip_code":"7960087","prefecture":"愛媛県","prefecture_kana":"エヒメケン","city":"八幡浜市","city_kana":"ヤワタハマシ","town":"沖新田","town_kana":"オキシンデン","prefecture_code":38},"0053":{"zip_code":"7960053","prefecture":"愛媛県","prefecture_kana":"エヒメケン","city":"八幡浜市","city_kana":"ヤワタハマシ","town":"海望園","town_kana":"カイボウエン","prefecture_code":38},"0065":{"zip_code":"7960065","prefecture":"愛媛県","prefecture_kana":"エヒメケン","city":"八幡浜市","city_kana":"ヤワタハマシ","town":"片山町","town_kana":"カタヤマチョウ","prefecture_code":38},"8036":{"zip_code":"7968036","prefecture":"愛媛県","prefecture_kana":"エヒメケン","city":"八幡浜市","city_kana":"ヤワタハマシ","town":"釜倉","town_kana":"カマノクラ","prefecture_code":38},"8051":{"zip_code":"7968051","prefecture":"愛媛県","prefecture_kana":"エヒメケン","city":"八幡浜市","city_kana":"ヤワタハマシ","town":"川上町上泊","town_kana":"カワカミチョウカミドマリ","prefecture_code":38},"8050":{"zip_code":"7968050","prefecture":"愛媛県","prefecture_kana":"エヒメケン","city":"八幡浜市","city_kana":"ヤワタハマシ","town":"川上町川名津","town_kana":"カワカミチョウカワナヅ","prefecture_code":38},"8052":{"zip_code":"7968052","prefecture":"愛媛県","prefecture_kana":"エヒメケン","city":"八幡浜市","city_kana":"ヤワタハマシ","town":"川上町白石","town_kana":"カワカミチョウシライシ","prefecture_code":38},"8025":{"zip_code":"7968025","prefecture":"愛媛県","prefecture_kana":"エヒメケン","city":"八幡浜市","city_kana":"ヤワタハマシ","town":"川之内","town_kana":"カワノウチ","prefecture_code":38},"0082":{"zip_code":"7960082","prefecture":"愛媛県","prefecture_kana":"エヒメケン","city":"八幡浜市","city_kana":"ヤワタハマシ","town":"北大黒町","town_kana":"キタダイコクマチ","prefecture_code":38},"0048":{"zip_code":"7960048","prefecture":"愛媛県","prefecture_kana":"エヒメケン","city":"八幡浜市","city_kana":"ヤワタハマシ","town":"北浜","town_kana":"キタハマ","prefecture_code":38},"0011":{"zip_code":"7960011","prefecture":"愛媛県","prefecture_kana":"エヒメケン","city":"八幡浜市","city_kana":"ヤワタハマシ","town":"木多町","town_kana":"キタマチ","prefecture_code":38},"0042":{"zip_code":"7960042","prefecture":"愛媛県","prefecture_kana":"エヒメケン","city":"八幡浜市","city_kana":"ヤワタハマシ","town":"喜多町","town_kana":"キタマチ","prefecture_code":38},"0046":{"zip_code":"7960046","prefecture":"愛媛県","prefecture_kana":"エヒメケン","city":"八幡浜市","city_kana":"ヤワタハマシ","town":"旧港","town_kana":"キュウミナト","prefecture_code":38},"0077":{"zip_code":"7960077","prefecture":"愛媛県","prefecture_kana":"エヒメケン","city":"八幡浜市","city_kana":"ヤワタハマシ","town":"旧役場前通","town_kana":"キュウヤクバマエドオリ","prefecture_code":38},"8015":{"zip_code":"7968015","prefecture":"愛媛県","prefecture_kana":"エヒメケン","city":"八幡浜市","city_kana":"ヤワタハマシ","town":"国木","town_kana":"クニギ","prefecture_code":38},"8008":{"zip_code":"7968008","prefecture":"愛媛県","prefecture_kana":"エヒメケン","city":"八幡浜市","city_kana":"ヤワタハマシ","town":"栗野浦","town_kana":"クリノウラ","prefecture_code":38},"8020":{"zip_code":"7968020","prefecture":"愛媛県","prefecture_kana":"エヒメケン","city":"八幡浜市","city_kana":"ヤワタハマシ","town":"郷","town_kana":"ゴウ","prefecture_code":38},"8041":{"zip_code":"7968041","prefecture":"愛媛県","prefecture_kana":"エヒメケン","city":"八幡浜市","city_kana":"ヤワタハマシ","town":"合田","town_kana":"ゴウダ","prefecture_code":38},"8010":{"zip_code":"7968010","prefecture":"愛媛県","prefecture_kana":"エヒメケン","city":"八幡浜市","city_kana":"ヤワタハマシ","town":"五反田","town_kana":"ゴタンダ","prefecture_code":38},"0054":{"zip_code":"7960054","prefecture":"愛媛県","prefecture_kana":"エヒメケン","city":"八幡浜市","city_kana":"ヤワタハマシ","town":"琴平町","town_kana":"コトヒラチョウ","prefecture_code":38},"0041":{"zip_code":"7960041","prefecture":"愛媛県","prefecture_kana":"エヒメケン","city":"八幡浜市","city_kana":"ヤワタハマシ","town":"裁判所通","town_kana":"サイバンショドオリ","prefecture_code":38},"0051":{"zip_code":"7960051","prefecture":"愛媛県","prefecture_kana":"エヒメケン","city":"八幡浜市","city_kana":"ヤワタハマシ","town":"幸町","town_kana":"サイワイマチ","prefecture_code":38},"8004":{"zip_code":"7968004","prefecture":"愛媛県","prefecture_kana":"エヒメケン","city":"八幡浜市","city_kana":"ヤワタハマシ","town":"産業通","town_kana":"サンギョウドオリ","prefecture_code":38},"8040":{"zip_code":"7968040","prefecture":"愛媛県","prefecture_kana":"エヒメケン","city":"八幡浜市","city_kana":"ヤワタハマシ","town":"舌間","town_kana":"シタマ","prefecture_code":38},"0069":{"zip_code":"7960069","prefecture":"愛媛県","prefecture_kana":"エヒメケン","city":"八幡浜市","city_kana":"ヤワタハマシ","town":"下道","town_kana":"シタミチ","prefecture_code":38},"0028":{"zip_code":"7960028","prefecture":"愛媛県","prefecture_kana":"エヒメケン","city":"八幡浜市","city_kana":"ヤワタハマシ","town":"清水町","town_kana":"シミズマチ","prefecture_code":38},"0037":{"zip_code":"7960037","prefecture":"愛媛県","prefecture_kana":"エヒメケン","city":"八幡浜市","city_kana":"ヤワタハマシ","town":"昭和通","town_kana":"ショウワドオリ","prefecture_code":38},"0047":{"zip_code":"7960047","prefecture":"愛媛県","prefecture_kana":"エヒメケン","city":"八幡浜市","city_kana":"ヤワタハマシ","town":"白浜通","town_kana":"シロハマドオリ","prefecture_code":38},"0062":{"zip_code":"7960062","prefecture":"愛媛県","prefecture_kana":"エヒメケン","city":"八幡浜市","city_kana":"ヤワタハマシ","town":"新栄町","town_kana":"シンエイチョウ","prefecture_code":38},"0036":{"zip_code":"7960036","prefecture":"愛媛県","prefecture_kana":"エヒメケン","city":"八幡浜市","city_kana":"ヤワタハマシ","town":"新川","town_kana":"シンカワ","prefecture_code":38},"0024":{"zip_code":"7960024","prefecture":"愛媛県","prefecture_kana":"エヒメケン","city":"八幡浜市","city_kana":"ヤワタハマシ","town":"神宮通","town_kana":"ジングウドオリ","prefecture_code":38},"0023":{"zip_code":"7960023","prefecture":"愛媛県","prefecture_kana":"エヒメケン","city":"八幡浜市","city_kana":"ヤワタハマシ","town":"神宮前","town_kana":"ジングウマエ","prefecture_code":38},"0071":{"zip_code":"7960071","prefecture":"愛媛県","prefecture_kana":"エヒメケン","city":"八幡浜市","city_kana":"ヤワタハマシ","town":"新町","town_kana":"シンマチ","prefecture_code":38},"0074":{"zip_code":"7960074","prefecture":"愛媛県","prefecture_kana":"エヒメケン","city":"八幡浜市","city_kana":"ヤワタハマシ","town":"新港","town_kana":"シンミナト","prefecture_code":38},"0014":{"zip_code":"7960014","prefecture":"愛媛県","prefecture_kana":"エヒメケン","city":"八幡浜市","city_kana":"ヤワタハマシ","town":"新和田町","town_kana":"シンワダマチ","prefecture_code":38},"0035":{"zip_code":"7960035","prefecture":"愛媛県","prefecture_kana":"エヒメケン","city":"八幡浜市","city_kana":"ヤワタハマシ","town":"須崎","town_kana":"スサキ","prefecture_code":38},"0064":{"zip_code":"7960064","prefecture":"愛媛県","prefecture_kana":"エヒメケン","city":"八幡浜市","city_kana":"ヤワタハマシ","town":"船場通","town_kana":"センバドオリ","prefecture_code":38},"0083":{"zip_code":"7960083","prefecture":"愛媛県","prefecture_kana":"エヒメケン","city":"八幡浜市","city_kana":"ヤワタハマシ","town":"大黒町","town_kana":"ダイコクマチ","prefecture_code":38},"0033":{"zip_code":"7960033","prefecture":"愛媛県","prefecture_kana":"エヒメケン","city":"八幡浜市","city_kana":"ヤワタハマシ","town":"大正町","town_kana":"タイショウマチ","prefecture_code":38},"0055":{"zip_code":"7960055","prefecture":"愛媛県","prefecture_kana":"エヒメケン","city":"八幡浜市","city_kana":"ヤワタハマシ","town":"大門","town_kana":"ダイモン","prefecture_code":38},"0005":{"zip_code":"7960005","prefecture":"愛媛県","prefecture_kana":"エヒメケン","city":"八幡浜市","city_kana":"ヤワタハマシ","town":"高野地","town_kana":"タカノジ","prefecture_code":38},"8037":{"zip_code":"7968037","prefecture":"愛媛県","prefecture_kana":"エヒメケン","city":"八幡浜市","city_kana":"ヤワタハマシ","town":"谷","town_kana":"タニ","prefecture_code":38},"0067":{"zip_code":"7960067","prefecture":"愛媛県","prefecture_kana":"エヒメケン","city":"八幡浜市","city_kana":"ヤワタハマシ","town":"中央","town_kana":"チュウオウ","prefecture_code":38},"0078":{"zip_code":"7960078","prefecture":"愛媛県","prefecture_kana":"エヒメケン","city":"八幡浜市","city_kana":"ヤワタハマシ","town":"中央マーケット","town_kana":"チュウオウマーケット","prefecture_code":38},"0076":{"zip_code":"7960076","prefecture":"愛媛県","prefecture_kana":"エヒメケン","city":"八幡浜市","city_kana":"ヤワタハマシ","town":"千代田町","town_kana":"チヨダマチ","prefecture_code":38},"0085":{"zip_code":"7960085","prefecture":"愛媛県","prefecture_kana":"エヒメケン","city":"八幡浜市","city_kana":"ヤワタハマシ","town":"天神通","town_kana":"テンジンドオリ","prefecture_code":38},"8030":{"zip_code":"7968030","prefecture":"愛媛県","prefecture_kana":"エヒメケン","city":"八幡浜市","city_kana":"ヤワタハマシ","town":"中津川","town_kana":"ナカツカワ","prefecture_code":38},"0075":{"zip_code":"7960075","prefecture":"愛媛県","prefecture_kana":"エヒメケン","city":"八幡浜市","city_kana":"ヤワタハマシ","town":"仲之町","town_kana":"ナカノマチ","prefecture_code":38},"0044":{"zip_code":"7960044","prefecture":"愛媛県","prefecture_kana":"エヒメケン","city":"八幡浜市","city_kana":"ヤワタハマシ","town":"西近江屋町","town_kana":"ニシオオミヤチョウ","prefecture_code":38},"0045":{"zip_code":"7960045","prefecture":"愛媛県","prefecture_kana":"エヒメケン","city":"八幡浜市","city_kana":"ヤワタハマシ","town":"西近江屋町浜通","town_kana":"ニシオオミヤチョウハマドオリ","prefecture_code":38},"0029":{"zip_code":"7960029","prefecture":"愛媛県","prefecture_kana":"エヒメケン","city":"八幡浜市","city_kana":"ヤワタハマシ","town":"花小路","town_kana":"ハナコウジ","prefecture_code":38},"0034":{"zip_code":"7960034","prefecture":"愛媛県","prefecture_kana":"エヒメケン","city":"八幡浜市","city_kana":"ヤワタハマシ","town":"浜田町","town_kana":"ハマダマチ","prefecture_code":38},"0068":{"zip_code":"7960068","prefecture":"愛媛県","prefecture_kana":"エヒメケン","city":"八幡浜市","city_kana":"ヤワタハマシ","town":"浜之町","town_kana":"ハマノチョウ","prefecture_code":38},"0043":{"zip_code":"7960043","prefecture":"愛媛県","prefecture_kana":"エヒメケン","city":"八幡浜市","city_kana":"ヤワタハマシ","town":"東近江屋町","town_kana":"ヒガシオオミヤチョウ","prefecture_code":38},"0032":{"zip_code":"7960032","prefecture":"愛媛県","prefecture_kana":"エヒメケン","city":"八幡浜市","city_kana":"ヤワタハマシ","town":"東新川","town_kana":"ヒガシシンカワ","prefecture_code":38},"0025":{"zip_code":"7960025","prefecture":"愛媛県","prefecture_kana":"エヒメケン","city":"八幡浜市","city_kana":"ヤワタハマシ","town":"東矢野町","town_kana":"ヒガシヤノマチ","prefecture_code":38},"0170":{"zip_code":"7960170","prefecture":"愛媛県","prefecture_kana":"エヒメケン","city":"八幡浜市","city_kana":"ヤワタハマシ","town":"日土町","town_kana":"ヒヅチチョウ","prefecture_code":38},"0021":{"zip_code":"7960021","prefecture":"愛媛県","prefecture_kana":"エヒメケン","city":"八幡浜市","city_kana":"ヤワタハマシ","town":"桧谷","town_kana":"ヒノキダニ","prefecture_code":38},"8002":{"zip_code":"7968002","prefecture":"愛媛県","prefecture_kana":"エヒメケン","city":"八幡浜市","city_kana":"ヤワタハマシ","town":"広瀬","town_kana":"ヒロセ","prefecture_code":38},"8039":{"zip_code":"7968039","prefecture":"愛媛県","prefecture_kana":"エヒメケン","city":"八幡浜市","city_kana":"ヤワタハマシ","town":"布喜川","town_kana":"フキノカワ","prefecture_code":38},"8003":{"zip_code":"7968003","prefecture":"愛媛県","prefecture_kana":"エヒメケン","city":"八幡浜市","city_kana":"ヤワタハマシ","town":"古町","town_kana":"フルマチ","prefecture_code":38},"0203":{"zip_code":"7960203","prefecture":"愛媛県","prefecture_kana":"エヒメケン","city":"八幡浜市","city_kana":"ヤワタハマシ","town":"保内町磯崎","town_kana":"ホナイチョウイサキ","prefecture_code":38},"0201":{"zip_code":"7960201","prefecture":"愛媛県","prefecture_kana":"エヒメケン","city":"八幡浜市","city_kana":"ヤワタハマシ","town":"保内町川之石","town_kana":"ホナイチョウカワノイシ","prefecture_code":38},"0111":{"zip_code":"7960111","prefecture":"愛媛県","prefecture_kana":"エヒメケン","city":"八幡浜市","city_kana":"ヤワタハマシ","town":"保内町喜木","town_kana":"ホナイチョウキキ","prefecture_code":38},"0204":{"zip_code":"7960204","prefecture":"愛媛県","prefecture_kana":"エヒメケン","city":"八幡浜市","city_kana":"ヤワタハマシ","town":"保内町喜木津","town_kana":"ホナイチョウキキツ","prefecture_code":38},"0112":{"zip_code":"7960112","prefecture":"愛媛県","prefecture_kana":"エヒメケン","city":"八幡浜市","city_kana":"ヤワタハマシ","town":"保内町須川","town_kana":"ホナイチョウスガワ","prefecture_code":38},"0205":{"zip_code":"7960205","prefecture":"愛媛県","prefecture_kana":"エヒメケン","city":"八幡浜市","city_kana":"ヤワタハマシ","town":"保内町広早","town_kana":"ホナイチョウヒロハヤ","prefecture_code":38},"0202":{"zip_code":"7960202","prefecture":"愛媛県","prefecture_kana":"エヒメケン","city":"八幡浜市","city_kana":"ヤワタハマシ","town":"保内町宮内","town_kana":"ホナイチョウミヤウチ","prefecture_code":38},"0066":{"zip_code":"7960066","prefecture":"愛媛県","prefecture_kana":"エヒメケン","city":"八幡浜市","city_kana":"ヤワタハマシ","town":"本町","town_kana":"ホンマチ","prefecture_code":38},"8053":{"zip_code":"7968053","prefecture":"愛媛県","prefecture_kana":"エヒメケン","city":"八幡浜市","city_kana":"ヤワタハマシ","town":"真網代","town_kana":"マアジロ","prefecture_code":38},"0027":{"zip_code":"7960027","prefecture":"愛媛県","prefecture_kana":"エヒメケン","city":"八幡浜市","city_kana":"ヤワタハマシ","town":"松蔭町","town_kana":"マツカゲチョウ","prefecture_code":38},"0010":{"zip_code":"7960010","prefecture":"愛媛県","prefecture_kana":"エヒメケン","city":"八幡浜市","city_kana":"ヤワタハマシ","town":"松柏","town_kana":"マツカヤ","prefecture_code":38},"0052":{"zip_code":"7960052","prefecture":"愛媛県","prefecture_kana":"エヒメケン","city":"八幡浜市","city_kana":"ヤワタハマシ","town":"松本町","town_kana":"マツモトチョウ","prefecture_code":38},"0072":{"zip_code":"7960072","prefecture":"愛媛県","prefecture_kana":"エヒメケン","city":"八幡浜市","city_kana":"ヤワタハマシ","town":"港町","town_kana":"ミナトマチ","prefecture_code":38},"0012":{"zip_code":"7960012","prefecture":"愛媛県","prefecture_kana":"エヒメケン","city":"八幡浜市","city_kana":"ヤワタハマシ","town":"南柏","town_kana":"ミナミガヤ","prefecture_code":38},"0084":{"zip_code":"7960084","prefecture":"愛媛県","prefecture_kana":"エヒメケン","city":"八幡浜市","city_kana":"ヤワタハマシ","town":"南大黒町","town_kana":"ミナミダイコクマチ","prefecture_code":38},"0001":{"zip_code":"7960001","prefecture":"愛媛県","prefecture_kana":"エヒメケン","city":"八幡浜市","city_kana":"ヤワタハマシ","town":"向灘","town_kana":"ムカイナダ","prefecture_code":38},"8011":{"zip_code":"7968011","prefecture":"愛媛県","prefecture_kana":"エヒメケン","city":"八幡浜市","city_kana":"ヤワタハマシ","town":"元城団地","town_kana":"モトジョウダンチ","prefecture_code":38},"8006":{"zip_code":"7968006","prefecture":"愛媛県","prefecture_kana":"エヒメケン","city":"八幡浜市","city_kana":"ヤワタハマシ","town":"八代","town_kana":"ヤシロ","prefecture_code":38},"8007":{"zip_code":"7968007","prefecture":"愛媛県","prefecture_kana":"エヒメケン","city":"八幡浜市","city_kana":"ヤワタハマシ","town":"八代","town_kana":"ヤシロ","prefecture_code":38},"8005":{"zip_code":"7968005","prefecture":"愛媛県","prefecture_kana":"エヒメケン","city":"八幡浜市","city_kana":"ヤワタハマシ","town":"矢野町","town_kana":"ヤノマチ","prefecture_code":38},"0026":{"zip_code":"7960026","prefecture":"愛媛県","prefecture_kana":"エヒメケン","city":"八幡浜市","city_kana":"ヤワタハマシ","town":"矢野町","town_kana":"ヤノマチ","prefecture_code":38},"0013":{"zip_code":"7960013","prefecture":"愛媛県","prefecture_kana":"エヒメケン","city":"八幡浜市","city_kana":"ヤワタハマシ","town":"山越","town_kana":"ヤマグイ","prefecture_code":38},"8038":{"zip_code":"7968038","prefecture":"愛媛県","prefecture_kana":"エヒメケン","city":"八幡浜市","city_kana":"ヤワタハマシ","town":"横平","town_kana":"ヨコヒラ","prefecture_code":38},"0063":{"zip_code":"7960063","prefecture":"愛媛県","prefecture_kana":"エヒメケン","city":"八幡浜市","city_kana":"ヤワタハマシ","town":"横町","town_kana":"ヨコマチ","prefecture_code":38},"8035":{"zip_code":"7968035","prefecture":"愛媛県","prefecture_kana":"エヒメケン","city":"八幡浜市","city_kana":"ヤワタハマシ","town":"若山","town_kana":"ワカヤマ","prefecture_code":38},"0907":{"zip_code":"7960907","prefecture":"愛媛県","prefecture_kana":"エヒメケン","city":"西予市","city_kana":"セイヨシ","town":"三瓶町朝立","town_kana":"ミカメチョウアサダツ","prefecture_code":38},"0909":{"zip_code":"7960909","prefecture":"愛媛県","prefecture_kana":"エヒメケン","city":"西予市","city_kana":"セイヨシ","town":"三瓶町安土","town_kana":"ミカメチョウアヅチ","prefecture_code":38},"0910":{"zip_code":"7960910","prefecture":"愛媛県","prefecture_kana":"エヒメケン","city":"西予市","city_kana":"セイヨシ","town":"三瓶町有網代","town_kana":"ミカメチョウアラジロ","prefecture_code":38},"0911":{"zip_code":"7960911","prefecture":"愛媛県","prefecture_kana":"エヒメケン","city":"西予市","city_kana":"セイヨシ","town":"三瓶町有太刀","town_kana":"ミカメチョウアラタチ","prefecture_code":38},"0906":{"zip_code":"7960906","prefecture":"愛媛県","prefecture_kana":"エヒメケン","city":"西予市","city_kana":"セイヨシ","town":"三瓶町和泉","town_kana":"ミカメチョウイズミ","prefecture_code":38},"0913":{"zip_code":"7960913","prefecture":"愛媛県","prefecture_kana":"エヒメケン","city":"西予市","city_kana":"セイヨシ","town":"三瓶町蔵貫","town_kana":"ミカメチョウクラヌキ","prefecture_code":38},"0912":{"zip_code":"7960912","prefecture":"愛媛県","prefecture_kana":"エヒメケン","city":"西予市","city_kana":"セイヨシ","town":"三瓶町蔵貫浦","town_kana":"ミカメチョウクラヌキウラ","prefecture_code":38},"0905":{"zip_code":"7960905","prefecture":"愛媛県","prefecture_kana":"エヒメケン","city":"西予市","city_kana":"セイヨシ","town":"三瓶町鴫山","town_kana":"ミカメチョウシギヤマ","prefecture_code":38},"0915":{"zip_code":"7960915","prefecture":"愛媛県","prefecture_kana":"エヒメケン","city":"西予市","city_kana":"セイヨシ","town":"三瓶町下泊","town_kana":"ミカメチョウシモドマリ","prefecture_code":38},"0901":{"zip_code":"7960901","prefecture":"愛媛県","prefecture_kana":"エヒメケン","city":"西予市","city_kana":"セイヨシ","town":"三瓶町周木","town_kana":"ミカメチョウシュウキ","prefecture_code":38},"0908":{"zip_code":"7960908","prefecture":"愛媛県","prefecture_kana":"エヒメケン","city":"西予市","city_kana":"セイヨシ","town":"三瓶町津布理","town_kana":"ミカメチョウツブリ","prefecture_code":38},"0902":{"zip_code":"7960902","prefecture":"愛媛県","prefecture_kana":"エヒメケン","city":"西予市","city_kana":"セイヨシ","town":"三瓶町長早","town_kana":"ミカメチョウナガハヤ","prefecture_code":38},"0903":{"zip_code":"7960903","prefecture":"愛媛県","prefecture_kana":"エヒメケン","city":"西予市","city_kana":"セイヨシ","town":"三瓶町二及","town_kana":"ミカメチョウニギュウ","prefecture_code":38},"0904":{"zip_code":"7960904","prefecture":"愛媛県","prefecture_kana":"エヒメケン","city":"西予市","city_kana":"セイヨシ","town":"三瓶町垣生","town_kana":"ミカメチョウハブ","prefecture_code":38},"0914":{"zip_code":"7960914","prefecture":"愛媛県","prefecture_kana":"エヒメケン","city":"西予市","city_kana":"セイヨシ","town":"三瓶町皆江","town_kana":"ミカメチョウミナエ","prefecture_code":38},"0300":{"zip_code":"7960300","prefecture":"愛媛県","prefecture_kana":"エヒメケン","city":"西宇和郡伊方町","city_kana":"ニシウワグンイカタチョウ","town":"","town_kana":"","prefecture_code":38},"0501":{"zip_code":"7960501","prefecture":"愛媛県","prefecture_kana":"エヒメケン","city":"西宇和郡伊方町","city_kana":"ニシウワグンイカタチョウ","town":"足成","town_kana":"アシナル","prefecture_code":38},"0304":{"zip_code":"7960304","prefecture":"愛媛県","prefecture_kana":"エヒメケン","city":"西宇和郡伊方町","city_kana":"ニシウワグンイカタチョウ","town":"伊方越","town_kana":"イカタゴシ","prefecture_code":38},"0805":{"zip_code":"7960805","prefecture":"愛媛県","prefecture_kana":"エヒメケン","city":"西宇和郡伊方町","city_kana":"ニシウワグンイカタチョウ","town":"井野浦","town_kana":"イノウラ","prefecture_code":38},"0503":{"zip_code":"7960503","prefecture":"愛媛県","prefecture_kana":"エヒメケン","city":"西宇和郡伊方町","city_kana":"ニシウワグンイカタチョウ","town":"大江","town_kana":"オオエ","prefecture_code":38},"0612":{"zip_code":"7960612","prefecture":"愛媛県","prefecture_kana":"エヒメケン","city":"西宇和郡伊方町","city_kana":"ニシウワグンイカタチョウ","town":"大久","town_kana":"オオク","prefecture_code":38},"0804":{"zip_code":"7960804","prefecture":"愛媛県","prefecture_kana":"エヒメケン","city":"西宇和郡伊方町","city_kana":"ニシウワグンイカタチョウ","town":"大佐田","town_kana":"オオサダ","prefecture_code":38},"0308":{"zip_code":"7960308","prefecture":"愛媛県","prefecture_kana":"エヒメケン","city":"西宇和郡伊方町","city_kana":"ニシウワグンイカタチョウ","town":"大浜","town_kana":"オオハマ","prefecture_code":38},"0815":{"zip_code":"7960815","prefecture":"愛媛県","prefecture_kana":"エヒメケン","city":"西宇和郡伊方町","city_kana":"ニシウワグンイカタチョウ","town":"釜木","town_kana":"カマギ","prefecture_code":38},"0303":{"zip_code":"7960303","prefecture":"愛媛県","prefecture_kana":"エヒメケン","city":"西宇和郡伊方町","city_kana":"ニシウワグンイカタチョウ","town":"亀浦","town_kana":"カメウラ","prefecture_code":38},"0305":{"zip_code":"7960305","prefecture":"愛媛県","prefecture_kana":"エヒメケン","city":"西宇和郡伊方町","city_kana":"ニシウワグンイカタチョウ","town":"河内","town_kana":"カワウチ","prefecture_code":38},"0312":{"zip_code":"7960312","prefecture":"愛媛県","prefecture_kana":"エヒメケン","city":"西宇和郡伊方町","city_kana":"ニシウワグンイカタチョウ","town":"川永田","town_kana":"カワナガタ","prefecture_code":38},"0611":{"zip_code":"7960611","prefecture":"愛媛県","prefecture_kana":"エヒメケン","city":"西宇和郡伊方町","city_kana":"ニシウワグンイカタチョウ","town":"川之浜","town_kana":"カワノハマ","prefecture_code":38},"0822":{"zip_code":"7960822","prefecture":"愛媛県","prefecture_kana":"エヒメケン","city":"西宇和郡伊方町","city_kana":"ニシウワグンイカタチョウ","town":"串","town_kana":"クシ","prefecture_code":38},"0421":{"zip_code":"7960421","prefecture":"愛媛県","prefecture_kana":"エヒメケン","city":"西宇和郡伊方町","city_kana":"ニシウワグンイカタチョウ","town":"九町","town_kana":"クチョウ","prefecture_code":38},"0613":{"zip_code":"7960613","prefecture":"愛媛県","prefecture_kana":"エヒメケン","city":"西宇和郡伊方町","city_kana":"ニシウワグンイカタチョウ","town":"神崎","town_kana":"コウザキ","prefecture_code":38},"0615":{"zip_code":"7960615","prefecture":"愛媛県","prefecture_kana":"エヒメケン","city":"西宇和郡伊方町","city_kana":"ニシウワグンイカタチョウ","town":"高茂","town_kana":"コウモ","prefecture_code":38},"0505":{"zip_code":"7960505","prefecture":"愛媛県","prefecture_kana":"エヒメケン","city":"西宇和郡伊方町","city_kana":"ニシウワグンイカタチョウ","town":"小島","town_kana":"コジマ","prefecture_code":38},"0302":{"zip_code":"7960302","prefecture":"愛媛県","prefecture_kana":"エヒメケン","city":"西宇和郡伊方町","city_kana":"ニシウワグンイカタチョウ","town":"小中浦","town_kana":"コナカウラ","prefecture_code":38},"0803":{"zip_code":"7960803","prefecture":"愛媛県","prefecture_kana":"エヒメケン","city":"西宇和郡伊方町","city_kana":"ニシウワグンイカタチョウ","town":"佐田","town_kana":"サダ","prefecture_code":38},"0506":{"zip_code":"7960506","prefecture":"愛媛県","prefecture_kana":"エヒメケン","city":"西宇和郡伊方町","city_kana":"ニシウワグンイカタチョウ","town":"塩成","town_kana":"シオナシ","prefecture_code":38},"0504":{"zip_code":"7960504","prefecture":"愛媛県","prefecture_kana":"エヒメケン","city":"西宇和郡伊方町","city_kana":"ニシウワグンイカタチョウ","town":"志津","town_kana":"シツ","prefecture_code":38},"0823":{"zip_code":"7960823","prefecture":"愛媛県","prefecture_kana":"エヒメケン","city":"西宇和郡伊方町","city_kana":"ニシウワグンイカタチョウ","town":"正野","town_kana":"ショウノ","prefecture_code":38},"0802":{"zip_code":"7960802","prefecture":"愛媛県","prefecture_kana":"エヒメケン","city":"西宇和郡伊方町","city_kana":"ニシウワグンイカタチョウ","town":"高浦","town_kana":"タカウラ","prefecture_code":38},"0614":{"zip_code":"7960614","prefecture":"愛媛県","prefecture_kana":"エヒメケン","city":"西宇和郡伊方町","city_kana":"ニシウワグンイカタチョウ","town":"田部","town_kana":"タブ","prefecture_code":38},"0313":{"zip_code":"7960313","prefecture":"愛媛県","prefecture_kana":"エヒメケン","city":"西宇和郡伊方町","city_kana":"ニシウワグンイカタチョウ","town":"豊之浦","town_kana":"トヨノウラ","prefecture_code":38},"0311":{"zip_code":"7960311","prefecture":"愛媛県","prefecture_kana":"エヒメケン","city":"西宇和郡伊方町","city_kana":"ニシウワグンイカタチョウ","town":"中浦","town_kana":"ナカウラ","prefecture_code":38},"0307":{"zip_code":"7960307","prefecture":"愛媛県","prefecture_kana":"エヒメケン","city":"西宇和郡伊方町","city_kana":"ニシウワグンイカタチョウ","town":"中之浜","town_kana":"ナカノハマ","prefecture_code":38},"0816":{"zip_code":"7960816","prefecture":"愛媛県","prefecture_kana":"エヒメケン","city":"西宇和郡伊方町","city_kana":"ニシウワグンイカタチョウ","town":"名取","town_kana":"ナトリ","prefecture_code":38},"0306":{"zip_code":"7960306","prefecture":"愛媛県","prefecture_kana":"エヒメケン","city":"西宇和郡伊方町","city_kana":"ニシウワグンイカタチョウ","town":"仁田之浜","town_kana":"ニタノハマ","prefecture_code":38},"0814":{"zip_code":"7960814","prefecture":"愛媛県","prefecture_kana":"エヒメケン","city":"西宇和郡伊方町","city_kana":"ニシウワグンイカタチョウ","town":"平礒","town_kana":"ヒライソ","prefecture_code":38},"0813":{"zip_code":"7960813","prefecture":"愛媛県","prefecture_kana":"エヒメケン","city":"西宇和郡伊方町","city_kana":"ニシウワグンイカタチョウ","town":"二名津","town_kana":"フタナヅ","prefecture_code":38},"0422":{"zip_code":"7960422","prefecture":"愛媛県","prefecture_kana":"エヒメケン","city":"西宇和郡伊方町","city_kana":"ニシウワグンイカタチョウ","town":"二見","town_kana":"フタミ","prefecture_code":38},"0811":{"zip_code":"7960811","prefecture":"愛媛県","prefecture_kana":"エヒメケン","city":"西宇和郡伊方町","city_kana":"ニシウワグンイカタチョウ","town":"松","town_kana":"マツ","prefecture_code":38},"0801":{"zip_code":"7960801","prefecture":"愛媛県","prefecture_kana":"エヒメケン","city":"西宇和郡伊方町","city_kana":"ニシウワグンイカタチョウ","town":"三崎","town_kana":"ミサキ","prefecture_code":38},"0502":{"zip_code":"7960502","prefecture":"愛媛県","prefecture_kana":"エヒメケン","city":"西宇和郡伊方町","city_kana":"ニシウワグンイカタチョウ","town":"三机","town_kana":"ミツクエ","prefecture_code":38},"0301":{"zip_code":"7960301","prefecture":"愛媛県","prefecture_kana":"エヒメケン","city":"西宇和郡伊方町","city_kana":"ニシウワグンイカタチョウ","town":"湊浦","town_kana":"ミナトウラ","prefecture_code":38},"0812":{"zip_code":"7960812","prefecture":"愛媛県","prefecture_kana":"エヒメケン","city":"西宇和郡伊方町","city_kana":"ニシウワグンイカタチョウ","town":"明神","town_kana":"ミョウジン","prefecture_code":38},"0821":{"zip_code":"7960821","prefecture":"愛媛県","prefecture_kana":"エヒメケン","city":"西宇和郡伊方町","city_kana":"ニシウワグンイカタチョウ","town":"与侈","town_kana":"ヨボコリ","prefecture_code":38}}