{"1601":{"zip_code":"7971601","prefecture":"愛媛県","prefecture_kana":"エヒメケン","city":"大洲市","city_kana":"オオズシ","town":"河辺町植松","town_kana":"カワベチョウウエマツ","prefecture_code":38},"1607":{"zip_code":"7971607","prefecture":"愛媛県","prefecture_kana":"エヒメケン","city":"大洲市","city_kana":"オオズシ","town":"河辺町川上","town_kana":"カワベチョウカワカミ","prefecture_code":38},"1604":{"zip_code":"7971604","prefecture":"愛媛県","prefecture_kana":"エヒメケン","city":"大洲市","city_kana":"オオズシ","town":"河辺町川崎","town_kana":"カワベチョウカワサキ","prefecture_code":38},"1605":{"zip_code":"7971605","prefecture":"愛媛県","prefecture_kana":"エヒメケン","city":"大洲市","city_kana":"オオズシ","town":"河辺町河都","town_kana":"カワベチョウカワト","prefecture_code":38},"1608":{"zip_code":"7971608","prefecture":"愛媛県","prefecture_kana":"エヒメケン","city":"大洲市","city_kana":"オオズシ","town":"河辺町北平","town_kana":"カワベチョウキタヒラ","prefecture_code":38},"1606":{"zip_code":"7971606","prefecture":"愛媛県","prefecture_kana":"エヒメケン","city":"大洲市","city_kana":"オオズシ","town":"河辺町三嶋","town_kana":"カワベチョウミシマ","prefecture_code":38},"1602":{"zip_code":"7971602","prefecture":"愛媛県","prefecture_kana":"エヒメケン","city":"大洲市","city_kana":"オオズシ","town":"河辺町山鳥坂","town_kana":"カワベチョウヤマトサカ","prefecture_code":38},"1603":{"zip_code":"7971603","prefecture":"愛媛県","prefecture_kana":"エヒメケン","city":"大洲市","city_kana":"オオズシ","town":"河辺町横山","town_kana":"カワベチョウヨコヤマ","prefecture_code":38},"1503":{"zip_code":"7971503","prefecture":"愛媛県","prefecture_kana":"エヒメケン","city":"大洲市","city_kana":"オオズシ","town":"肱川町宇和川","town_kana":"ヒジカワチョウウワガワ","prefecture_code":38},"1507":{"zip_code":"7971507","prefecture":"愛媛県","prefecture_kana":"エヒメケン","city":"大洲市","city_kana":"オオズシ","town":"肱川町大谷","town_kana":"ヒジカワチョウオオタニ","prefecture_code":38},"1501":{"zip_code":"7971501","prefecture":"愛媛県","prefecture_kana":"エヒメケン","city":"大洲市","city_kana":"オオズシ","town":"肱川町中居谷","town_kana":"ヒジカワチョウナカイダニ","prefecture_code":38},"1506":{"zip_code":"7971506","prefecture":"愛媛県","prefecture_kana":"エヒメケン","city":"大洲市","city_kana":"オオズシ","town":"肱川町中津","town_kana":"ヒジカワチョウナカツ","prefecture_code":38},"1508":{"zip_code":"7971508","prefecture":"愛媛県","prefecture_kana":"エヒメケン","city":"大洲市","city_kana":"オオズシ","town":"肱川町西","town_kana":"ヒジカワチョウニシ","prefecture_code":38},"1502":{"zip_code":"7971502","prefecture":"愛媛県","prefecture_kana":"エヒメケン","city":"大洲市","city_kana":"オオズシ","town":"肱川町名荷谷","town_kana":"ヒジカワチョウミョウガダニ","prefecture_code":38},"1504":{"zip_code":"7971504","prefecture":"愛媛県","prefecture_kana":"エヒメケン","city":"大洲市","city_kana":"オオズシ","town":"肱川町山鳥坂","town_kana":"ヒジカワチョウヤマトサカ","prefecture_code":38},"1505":{"zip_code":"7971505","prefecture":"愛媛県","prefecture_kana":"エヒメケン","city":"大洲市","city_kana":"オオズシ","town":"肱川町予子林","town_kana":"ヒジカワチョウヨコハヤシ","prefecture_code":38},"0000":{"zip_code":"7970000","prefecture":"愛媛県","prefecture_kana":"エヒメケン","city":"西予市","city_kana":"セイヨシ","town":"","town_kana":"","prefecture_code":38},"0113":{"zip_code":"7970113","prefecture":"愛媛県","prefecture_kana":"エヒメケン","city":"西予市","city_kana":"セイヨシ","town":"明浜町狩浜","town_kana":"アケハマチョウカリハマ","prefecture_code":38},"0201":{"zip_code":"7970201","prefecture":"愛媛県","prefecture_kana":"エヒメケン","city":"西予市","city_kana":"セイヨシ","town":"明浜町高山","town_kana":"アケハマチョウタカヤマ","prefecture_code":38},"0203":{"zip_code":"7970203","prefecture":"愛媛県","prefecture_kana":"エヒメケン","city":"西予市","city_kana":"セイヨシ","town":"明浜町田之浜","town_kana":"アケハマチョウタノハマ","prefecture_code":38},"0111":{"zip_code":"7970111","prefecture":"愛媛県","prefecture_kana":"エヒメケン","city":"西予市","city_kana":"セイヨシ","town":"明浜町俵津","town_kana":"アケハマチョウタワラヅ","prefecture_code":38},"0112":{"zip_code":"7970112","prefecture":"愛媛県","prefecture_kana":"エヒメケン","city":"西予市","city_kana":"セイヨシ","town":"明浜町渡江","town_kana":"アケハマチョウトノエ","prefecture_code":38},"0202":{"zip_code":"7970202","prefecture":"愛媛県","prefecture_kana":"エヒメケン","city":"西予市","city_kana":"セイヨシ","town":"明浜町宮野浦","town_kana":"アケハマチョウミヤノウラ","prefecture_code":38},"0010":{"zip_code":"7970010","prefecture":"愛媛県","prefecture_kana":"エヒメケン","city":"西予市","city_kana":"セイヨシ","town":"宇和町明間","town_kana":"ウワチョウアカンマ","prefecture_code":38},"0007":{"zip_code":"7970007","prefecture":"愛媛県","prefecture_kana":"エヒメケン","city":"西予市","city_kana":"セイヨシ","town":"宇和町明石","town_kana":"ウワチョウアゲイシ","prefecture_code":38},"0014":{"zip_code":"7970014","prefecture":"愛媛県","prefecture_kana":"エヒメケン","city":"西予市","city_kana":"セイヨシ","town":"宇和町伊賀上","town_kana":"ウワチョウイガジョウ","prefecture_code":38},"0004":{"zip_code":"7970004","prefecture":"愛媛県","prefecture_kana":"エヒメケン","city":"西予市","city_kana":"セイヨシ","town":"宇和町伊崎","town_kana":"ウワチョウイサキ","prefecture_code":38},"0013":{"zip_code":"7970013","prefecture":"愛媛県","prefecture_kana":"エヒメケン","city":"西予市","city_kana":"セイヨシ","town":"宇和町稲生","town_kana":"ウワチョウイノウ","prefecture_code":38},"0034":{"zip_code":"7970034","prefecture":"愛媛県","prefecture_kana":"エヒメケン","city":"西予市","city_kana":"セイヨシ","town":"宇和町伊延","town_kana":"ウワチョウイノベ","prefecture_code":38},"0026":{"zip_code":"7970026","prefecture":"愛媛県","prefecture_kana":"エヒメケン","city":"西予市","city_kana":"セイヨシ","town":"宇和町岩木","town_kana":"ウワチョウイワキ","prefecture_code":38},"0015":{"zip_code":"7970015","prefecture":"愛媛県","prefecture_kana":"エヒメケン","city":"西予市","city_kana":"セイヨシ","town":"宇和町卯之町","town_kana":"ウワチョウウノマチ","prefecture_code":38},"0043":{"zip_code":"7970043","prefecture":"愛媛県","prefecture_kana":"エヒメケン","city":"西予市","city_kana":"セイヨシ","town":"宇和町大江","town_kana":"ウワチョウオオエ","prefecture_code":38},"0033":{"zip_code":"7970033","prefecture":"愛媛県","prefecture_kana":"エヒメケン","city":"西予市","city_kana":"セイヨシ","town":"宇和町岡山","town_kana":"ウワチョウオカヤマ","prefecture_code":38},"0022":{"zip_code":"7970022","prefecture":"愛媛県","prefecture_kana":"エヒメケン","city":"西予市","city_kana":"セイヨシ","town":"宇和町小野田","town_kana":"ウワチョウオノダ","prefecture_code":38},"0027":{"zip_code":"7970027","prefecture":"愛媛県","prefecture_kana":"エヒメケン","city":"西予市","city_kana":"セイヨシ","town":"宇和町小原","town_kana":"ウワチョウオバラ","prefecture_code":38},"0012":{"zip_code":"7970012","prefecture":"愛媛県","prefecture_kana":"エヒメケン","city":"西予市","city_kana":"セイヨシ","town":"宇和町皆田","town_kana":"ウワチョウカイダ","prefecture_code":38},"0046":{"zip_code":"7970046","prefecture":"愛媛県","prefecture_kana":"エヒメケン","city":"西予市","city_kana":"セイヨシ","town":"宇和町上松葉","town_kana":"ウワチョウカミマツバ","prefecture_code":38},"0044":{"zip_code":"7970044","prefecture":"愛媛県","prefecture_kana":"エヒメケン","city":"西予市","city_kana":"セイヨシ","town":"宇和町加茂","town_kana":"ウワチョウカモ","prefecture_code":38},"0035":{"zip_code":"7970035","prefecture":"愛媛県","prefecture_kana":"エヒメケン","city":"西予市","city_kana":"セイヨシ","town":"宇和町河内","town_kana":"ウワチョウカワチ","prefecture_code":38},"0030":{"zip_code":"7970030","prefecture":"愛媛県","prefecture_kana":"エヒメケン","city":"西予市","city_kana":"セイヨシ","town":"宇和町清沢","town_kana":"ウワチョウキヨサワ","prefecture_code":38},"0036":{"zip_code":"7970036","prefecture":"愛媛県","prefecture_kana":"エヒメケン","city":"西予市","city_kana":"セイヨシ","town":"宇和町久保","town_kana":"ウワチョウクボ","prefecture_code":38},"0003":{"zip_code":"7970003","prefecture":"愛媛県","prefecture_kana":"エヒメケン","city":"西予市","city_kana":"セイヨシ","town":"宇和町窪","town_kana":"ウワチョウクボ","prefecture_code":38},"0025":{"zip_code":"7970025","prefecture":"愛媛県","prefecture_kana":"エヒメケン","city":"西予市","city_kana":"セイヨシ","town":"宇和町郷内","town_kana":"ウワチョウゴウナイ","prefecture_code":38},"0045":{"zip_code":"7970045","prefecture":"愛媛県","prefecture_kana":"エヒメケン","city":"西予市","city_kana":"セイヨシ","town":"宇和町坂戸","town_kana":"ウワチョウサカド","prefecture_code":38},"0008":{"zip_code":"7970008","prefecture":"愛媛県","prefecture_kana":"エヒメケン","city":"西予市","city_kana":"セイヨシ","town":"宇和町さくら","town_kana":"ウワチョウサクラ","prefecture_code":38},"0018":{"zip_code":"7970018","prefecture":"愛媛県","prefecture_kana":"エヒメケン","city":"西予市","city_kana":"セイヨシ","town":"宇和町下松葉","town_kana":"ウワチョウシモマツバ","prefecture_code":38},"0005":{"zip_code":"7970005","prefecture":"愛媛県","prefecture_kana":"エヒメケン","city":"西予市","city_kana":"セイヨシ","town":"宇和町常定寺","town_kana":"ウワチョウジョウジョウジ","prefecture_code":38},"0006":{"zip_code":"7970006","prefecture":"愛媛県","prefecture_kana":"エヒメケン","city":"西予市","city_kana":"セイヨシ","town":"宇和町新城","town_kana":"ウワチョウシンジョウ","prefecture_code":38},"0016":{"zip_code":"7970016","prefecture":"愛媛県","prefecture_kana":"エヒメケン","city":"西予市","city_kana":"セイヨシ","town":"宇和町神領","town_kana":"ウワチョウジンリョウ","prefecture_code":38},"0042":{"zip_code":"7970042","prefecture":"愛媛県","prefecture_kana":"エヒメケン","city":"西予市","city_kana":"セイヨシ","town":"宇和町瀬戸","town_kana":"ウワチョウセト","prefecture_code":38},"0032":{"zip_code":"7970032","prefecture":"愛媛県","prefecture_kana":"エヒメケン","city":"西予市","city_kana":"セイヨシ","town":"宇和町田苗真土","town_kana":"ウワチョウタナエマツチ","prefecture_code":38},"0001":{"zip_code":"7970001","prefecture":"愛媛県","prefecture_kana":"エヒメケン","city":"西予市","city_kana":"セイヨシ","town":"宇和町田野中","town_kana":"ウワチョウタノナカ","prefecture_code":38},"0029":{"zip_code":"7970029","prefecture":"愛媛県","prefecture_kana":"エヒメケン","city":"西予市","city_kana":"セイヨシ","town":"宇和町永長","town_kana":"ウワチョウナガオサ","prefecture_code":38},"0024":{"zip_code":"7970024","prefecture":"愛媛県","prefecture_kana":"エヒメケン","city":"西予市","city_kana":"セイヨシ","town":"宇和町西山田","town_kana":"ウワチョウニシヤマダ","prefecture_code":38},"0021":{"zip_code":"7970021","prefecture":"愛媛県","prefecture_kana":"エヒメケン","city":"西予市","city_kana":"セイヨシ","town":"宇和町野田","town_kana":"ウワチョウノダ","prefecture_code":38},"0037":{"zip_code":"7970037","prefecture":"愛媛県","prefecture_kana":"エヒメケン","city":"西予市","city_kana":"セイヨシ","town":"宇和町信里","town_kana":"ウワチョウノブサト","prefecture_code":38},"0041":{"zip_code":"7970041","prefecture":"愛媛県","prefecture_kana":"エヒメケン","city":"西予市","city_kana":"セイヨシ","town":"宇和町東多田","town_kana":"ウワチョウヒガシタダ","prefecture_code":38},"0020":{"zip_code":"7970020","prefecture":"愛媛県","prefecture_kana":"エヒメケン","city":"西予市","city_kana":"セイヨシ","town":"宇和町久枝","town_kana":"ウワチョウヒサエダ","prefecture_code":38},"0011":{"zip_code":"7970011","prefecture":"愛媛県","prefecture_kana":"エヒメケン","city":"西予市","city_kana":"セイヨシ","town":"宇和町下川","town_kana":"ウワチョウヒトウガワ","prefecture_code":38},"0017":{"zip_code":"7970017","prefecture":"愛媛県","prefecture_kana":"エヒメケン","city":"西予市","city_kana":"セイヨシ","town":"宇和町ひまわり","town_kana":"ウワチョウヒマワリ","prefecture_code":38},"0002":{"zip_code":"7970002","prefecture":"愛媛県","prefecture_kana":"エヒメケン","city":"西予市","city_kana":"セイヨシ","town":"宇和町平野","town_kana":"ウワチョウヒラノ","prefecture_code":38},"0031":{"zip_code":"7970031","prefecture":"愛媛県","prefecture_kana":"エヒメケン","city":"西予市","city_kana":"セイヨシ","town":"宇和町杢所","town_kana":"ウワチョウモクショ","prefecture_code":38},"0023":{"zip_code":"7970023","prefecture":"愛媛県","prefecture_kana":"エヒメケン","city":"西予市","city_kana":"セイヨシ","town":"宇和町山田","town_kana":"ウワチョウヤマダ","prefecture_code":38},"0028":{"zip_code":"7970028","prefecture":"愛媛県","prefecture_kana":"エヒメケン","city":"西予市","city_kana":"セイヨシ","town":"宇和町れんげ","town_kana":"ウワチョウレンゲ","prefecture_code":38},"1716":{"zip_code":"7971716","prefecture":"愛媛県","prefecture_kana":"エヒメケン","city":"西予市","city_kana":"セイヨシ","town":"城川町魚成","town_kana":"シロカワチョウウオナシ","prefecture_code":38},"1717":{"zip_code":"7971717","prefecture":"愛媛県","prefecture_kana":"エヒメケン","city":"西予市","city_kana":"セイヨシ","town":"城川町下相","town_kana":"シロカワチョウオリアイ","prefecture_code":38},"1714":{"zip_code":"7971714","prefecture":"愛媛県","prefecture_kana":"エヒメケン","city":"西予市","city_kana":"セイヨシ","town":"城川町男河内","town_kana":"シロカワチョウオンガワチ","prefecture_code":38},"1713":{"zip_code":"7971713","prefecture":"愛媛県","prefecture_kana":"エヒメケン","city":"西予市","city_kana":"セイヨシ","town":"城川町嘉喜尾","town_kana":"シロカワチョウカギオ","prefecture_code":38},"1704":{"zip_code":"7971704","prefecture":"愛媛県","prefecture_kana":"エヒメケン","city":"西予市","city_kana":"セイヨシ","town":"城川町川津南","town_kana":"シロカワチョウカワヅミナミ","prefecture_code":38},"1703":{"zip_code":"7971703","prefecture":"愛媛県","prefecture_kana":"エヒメケン","city":"西予市","city_kana":"セイヨシ","town":"城川町窪野","town_kana":"シロカワチョウクボノ","prefecture_code":38},"1715":{"zip_code":"7971715","prefecture":"愛媛県","prefecture_kana":"エヒメケン","city":"西予市","city_kana":"セイヨシ","town":"城川町田穂","town_kana":"シロカワチョウタオ","prefecture_code":38},"1705":{"zip_code":"7971705","prefecture":"愛媛県","prefecture_kana":"エヒメケン","city":"西予市","city_kana":"セイヨシ","town":"城川町高野子","town_kana":"シロカワチョウタカノコ","prefecture_code":38},"1701":{"zip_code":"7971701","prefecture":"愛媛県","prefecture_kana":"エヒメケン","city":"西予市","city_kana":"セイヨシ","town":"城川町土居","town_kana":"シロカワチョウドイ","prefecture_code":38},"1711":{"zip_code":"7971711","prefecture":"愛媛県","prefecture_kana":"エヒメケン","city":"西予市","city_kana":"セイヨシ","town":"城川町野井川","town_kana":"シロカワチョウノイガワ","prefecture_code":38},"1702":{"zip_code":"7971702","prefecture":"愛媛県","prefecture_kana":"エヒメケン","city":"西予市","city_kana":"セイヨシ","town":"城川町古市","town_kana":"シロカワチョウフルイチ","prefecture_code":38},"1712":{"zip_code":"7971712","prefecture":"愛媛県","prefecture_kana":"エヒメケン","city":"西予市","city_kana":"セイヨシ","town":"城川町遊子谷","town_kana":"シロカワチョウユスタニ","prefecture_code":38},"1211":{"zip_code":"7971211","prefecture":"愛媛県","prefecture_kana":"エヒメケン","city":"西予市","city_kana":"セイヨシ","town":"野村町阿下","town_kana":"ノムラチョウアゲ","prefecture_code":38},"1106":{"zip_code":"7971106","prefecture":"愛媛県","prefecture_kana":"エヒメケン","city":"西予市","city_kana":"セイヨシ","town":"野村町旭","town_kana":"ノムラチョウアサヒ","prefecture_code":38},"1324":{"zip_code":"7971324","prefecture":"愛媛県","prefecture_kana":"エヒメケン","city":"西予市","city_kana":"セイヨシ","town":"野村町大西","town_kana":"ノムラチョウオオニシ","prefecture_code":38},"1434":{"zip_code":"7971434","prefecture":"愛媛県","prefecture_kana":"エヒメケン","city":"西予市","city_kana":"セイヨシ","town":"野村町大野ケ原","town_kana":"ノムラチョウオオノガハラ","prefecture_code":38},"1213":{"zip_code":"7971213","prefecture":"愛媛県","prefecture_kana":"エヒメケン","city":"西予市","city_kana":"セイヨシ","town":"野村町片川","town_kana":"ノムラチョウカタカワ","prefecture_code":38},"1323":{"zip_code":"7971323","prefecture":"愛媛県","prefecture_kana":"エヒメケン","city":"西予市","city_kana":"セイヨシ","town":"野村町釜川","town_kana":"ノムラチョウカマガワ","prefecture_code":38},"1326":{"zip_code":"7971326","prefecture":"愛媛県","prefecture_kana":"エヒメケン","city":"西予市","city_kana":"セイヨシ","town":"野村町鎌田","town_kana":"ノムラチョウカマンタ","prefecture_code":38},"1104":{"zip_code":"7971104","prefecture":"愛媛県","prefecture_kana":"エヒメケン","city":"西予市","city_kana":"セイヨシ","town":"野村町河西","town_kana":"ノムラチョウカワサイ","prefecture_code":38},"1216":{"zip_code":"7971216","prefecture":"愛媛県","prefecture_kana":"エヒメケン","city":"西予市","city_kana":"セイヨシ","town":"野村町蔵良","town_kana":"ノムラチョウクララ","prefecture_code":38},"1327":{"zip_code":"7971327","prefecture":"愛媛県","prefecture_kana":"エヒメケン","city":"西予市","city_kana":"セイヨシ","town":"野村町栗木","town_kana":"ノムラチョウクリノキ","prefecture_code":38},"1433":{"zip_code":"7971433","prefecture":"愛媛県","prefecture_kana":"エヒメケン","city":"西予市","city_kana":"セイヨシ","town":"野村町小松","town_kana":"ノムラチョウコマツ","prefecture_code":38},"1322":{"zip_code":"7971322","prefecture":"愛媛県","prefecture_kana":"エヒメケン","city":"西予市","city_kana":"セイヨシ","town":"野村町坂石","town_kana":"ノムラチョウサカイシ","prefecture_code":38},"1101":{"zip_code":"7971101","prefecture":"愛媛県","prefecture_kana":"エヒメケン","city":"西予市","city_kana":"セイヨシ","town":"野村町白髭","town_kana":"ノムラチョウシラヒゲ","prefecture_code":38},"1103":{"zip_code":"7971103","prefecture":"愛媛県","prefecture_kana":"エヒメケン","city":"西予市","city_kana":"セイヨシ","town":"野村町四郎谷","town_kana":"ノムラチョウシロウタニ","prefecture_code":38},"1432":{"zip_code":"7971432","prefecture":"愛媛県","prefecture_kana":"エヒメケン","city":"西予市","city_kana":"セイヨシ","town":"野村町惣川","town_kana":"ノムラチョウソウガワ","prefecture_code":38},"1215":{"zip_code":"7971215","prefecture":"愛媛県","prefecture_kana":"エヒメケン","city":"西予市","city_kana":"セイヨシ","town":"野村町高瀬","town_kana":"ノムラチョウタカセ","prefecture_code":38},"1107":{"zip_code":"7971107","prefecture":"愛媛県","prefecture_kana":"エヒメケン","city":"西予市","city_kana":"セイヨシ","town":"野村町鳥鹿野","town_kana":"ノムラチョウトジガノ","prefecture_code":38},"1214":{"zip_code":"7971214","prefecture":"愛媛県","prefecture_kana":"エヒメケン","city":"西予市","city_kana":"セイヨシ","town":"野村町富野川","town_kana":"ノムラチョウトミノカワ","prefecture_code":38},"1105":{"zip_code":"7971105","prefecture":"愛媛県","prefecture_kana":"エヒメケン","city":"西予市","city_kana":"セイヨシ","town":"野村町長谷","town_kana":"ノムラチョウナガタニ","prefecture_code":38},"1325":{"zip_code":"7971325","prefecture":"愛媛県","prefecture_kana":"エヒメケン","city":"西予市","city_kana":"セイヨシ","town":"野村町中通川","town_kana":"ノムラチョウナカトオガワ","prefecture_code":38},"1328":{"zip_code":"7971328","prefecture":"愛媛県","prefecture_kana":"エヒメケン","city":"西予市","city_kana":"セイヨシ","town":"野村町西","town_kana":"ノムラチョウニシ","prefecture_code":38},"1212":{"zip_code":"7971212","prefecture":"愛媛県","prefecture_kana":"エヒメケン","city":"西予市","city_kana":"セイヨシ","town":"野村町野村","town_kana":"ノムラチョウノムラ","prefecture_code":38},"1217":{"zip_code":"7971217","prefecture":"愛媛県","prefecture_kana":"エヒメケン","city":"西予市","city_kana":"セイヨシ","town":"野村町平野","town_kana":"ノムラチョウヒラノ","prefecture_code":38},"1431":{"zip_code":"7971431","prefecture":"愛媛県","prefecture_kana":"エヒメケン","city":"西予市","city_kana":"セイヨシ","town":"野村町舟戸","town_kana":"ノムラチョウフナト","prefecture_code":38},"1102":{"zip_code":"7971102","prefecture":"愛媛県","prefecture_kana":"エヒメケン","city":"西予市","city_kana":"セイヨシ","town":"野村町松渓","town_kana":"ノムラチョウマツタニ","prefecture_code":38},"1321":{"zip_code":"7971321","prefecture":"愛媛県","prefecture_kana":"エヒメケン","city":"西予市","city_kana":"セイヨシ","town":"野村町予子林","town_kana":"ノムラチョウヨコバヤシ","prefecture_code":38}}