{"0000":{"zip_code":"7980000","prefecture":"愛媛県","prefecture_kana":"エヒメケン","city":"宇和島市","city_kana":"ウワジマシ","town":"","town_kana":"","prefecture_code":38},"0030":{"zip_code":"7980030","prefecture":"愛媛県","prefecture_kana":"エヒメケン","city":"宇和島市","city_kana":"ウワジマシ","town":"曙町","town_kana":"アケボノチョウ","prefecture_code":38},"0004":{"zip_code":"7980004","prefecture":"愛媛県","prefecture_kana":"エヒメケン","city":"宇和島市","city_kana":"ウワジマシ","town":"朝日町","town_kana":"アサヒマチ","prefecture_code":38},"0042":{"zip_code":"7980042","prefecture":"愛媛県","prefecture_kana":"エヒメケン","city":"宇和島市","city_kana":"ウワジマシ","town":"愛宕町","town_kana":"アタゴチョウ","prefecture_code":38},"0026":{"zip_code":"7980026","prefecture":"愛媛県","prefecture_kana":"エヒメケン","city":"宇和島市","city_kana":"ウワジマシ","town":"泉町","town_kana":"イズミマチ","prefecture_code":38},"0023":{"zip_code":"7980023","prefecture":"愛媛県","prefecture_kana":"エヒメケン","city":"宇和島市","city_kana":"ウワジマシ","town":"伊吹町","town_kana":"イブキチョウ","prefecture_code":38},"0024":{"zip_code":"7980024","prefecture":"愛媛県","prefecture_kana":"エヒメケン","city":"宇和島市","city_kana":"ウワジマシ","town":"伊吹町","town_kana":"イブキチョウ","prefecture_code":38},"0025":{"zip_code":"7980025","prefecture":"愛媛県","prefecture_kana":"エヒメケン","city":"宇和島市","city_kana":"ウワジマシ","town":"伊吹町","town_kana":"イブキチョウ","prefecture_code":38},"0022":{"zip_code":"7980022","prefecture":"愛媛県","prefecture_kana":"エヒメケン","city":"宇和島市","city_kana":"ウワジマシ","town":"伊吹町","town_kana":"イブキチョウ","prefecture_code":38},"0078":{"zip_code":"7980078","prefecture":"愛媛県","prefecture_kana":"エヒメケン","city":"宇和島市","city_kana":"ウワジマシ","town":"祝森","town_kana":"イワイノモリ","prefecture_code":38},"0043":{"zip_code":"7980043","prefecture":"愛媛県","prefecture_kana":"エヒメケン","city":"宇和島市","city_kana":"ウワジマシ","town":"宇和津町","town_kana":"ウワツチョウ","prefecture_code":38},"0032":{"zip_code":"7980032","prefecture":"愛媛県","prefecture_kana":"エヒメケン","city":"宇和島市","city_kana":"ウワジマシ","town":"恵美須町","town_kana":"エビスマチ","prefecture_code":38},"0001":{"zip_code":"7980001","prefecture":"愛媛県","prefecture_kana":"エヒメケン","city":"宇和島市","city_kana":"ウワジマシ","town":"大浦","town_kana":"オオウラ","prefecture_code":38},"0002":{"zip_code":"7980002","prefecture":"愛媛県","prefecture_kana":"エヒメケン","city":"宇和島市","city_kana":"ウワジマシ","town":"大浦","town_kana":"オオウラ","prefecture_code":38},"0039":{"zip_code":"7980039","prefecture":"愛媛県","prefecture_kana":"エヒメケン","city":"宇和島市","city_kana":"ウワジマシ","town":"大宮町","town_kana":"オオミヤチョウ","prefecture_code":38},"0063":{"zip_code":"7980063","prefecture":"愛媛県","prefecture_kana":"エヒメケン","city":"宇和島市","city_kana":"ウワジマシ","town":"御徒町","town_kana":"オカチマチ","prefecture_code":38},"0027":{"zip_code":"7980027","prefecture":"愛媛県","prefecture_kana":"エヒメケン","city":"宇和島市","city_kana":"ウワジマシ","town":"柿原","town_kana":"カキハラ","prefecture_code":38},"0053":{"zip_code":"7980053","prefecture":"愛媛県","prefecture_kana":"エヒメケン","city":"宇和島市","city_kana":"ウワジマシ","town":"賀古町","town_kana":"カコチョウ","prefecture_code":38},"0076":{"zip_code":"7980076","prefecture":"愛媛県","prefecture_kana":"エヒメケン","city":"宇和島市","city_kana":"ウワジマシ","town":"川内","town_kana":"カワチ","prefecture_code":38},"0075":{"zip_code":"7980075","prefecture":"愛媛県","prefecture_kana":"エヒメケン","city":"宇和島市","city_kana":"ウワジマシ","town":"川内","town_kana":"カワチ","prefecture_code":38},"0010":{"zip_code":"7980010","prefecture":"愛媛県","prefecture_kana":"エヒメケン","city":"宇和島市","city_kana":"ウワジマシ","town":"藤江","town_kana":"フジエ","prefecture_code":38},"0052":{"zip_code":"7980052","prefecture":"愛媛県","prefecture_kana":"エヒメケン","city":"宇和島市","city_kana":"ウワジマシ","town":"京町","town_kana":"キョウマチ","prefecture_code":38},"0093":{"zip_code":"7980093","prefecture":"愛媛県","prefecture_kana":"エヒメケン","city":"宇和島市","city_kana":"ウワジマシ","town":"小池","town_kana":"コイケ","prefecture_code":38},"0091":{"zip_code":"7980091","prefecture":"愛媛県","prefecture_kana":"エヒメケン","city":"宇和島市","city_kana":"ウワジマシ","town":"石応","town_kana":"コクボ","prefecture_code":38},"0061":{"zip_code":"7980061","prefecture":"愛媛県","prefecture_kana":"エヒメケン","city":"宇和島市","city_kana":"ウワジマシ","town":"御殿町","town_kana":"ゴテンマチ","prefecture_code":38},"0007":{"zip_code":"7980007","prefecture":"愛媛県","prefecture_kana":"エヒメケン","city":"宇和島市","city_kana":"ウワジマシ","town":"寿町","town_kana":"コトブキチョウ","prefecture_code":38},"0092":{"zip_code":"7980092","prefecture":"愛媛県","prefecture_kana":"エヒメケン","city":"宇和島市","city_kana":"ウワジマシ","town":"小浜","town_kana":"コハマ","prefecture_code":38},"0211":{"zip_code":"7980211","prefecture":"愛媛県","prefecture_kana":"エヒメケン","city":"宇和島市","city_kana":"ウワジマシ","town":"蒋渕","town_kana":"コモブチ","prefecture_code":38},"0064":{"zip_code":"7980064","prefecture":"愛媛県","prefecture_kana":"エヒメケン","city":"宇和島市","city_kana":"ウワジマシ","town":"佐伯町","town_kana":"サイキマチ","prefecture_code":38},"0031":{"zip_code":"7980031","prefecture":"愛媛県","prefecture_kana":"エヒメケン","city":"宇和島市","city_kana":"ウワジマシ","town":"栄町港","town_kana":"サカエマチミナト","prefecture_code":38},"0087":{"zip_code":"7980087","prefecture":"愛媛県","prefecture_kana":"エヒメケン","city":"宇和島市","city_kana":"ウワジマシ","town":"坂下津","town_kana":"サカシヅ","prefecture_code":38},"0062":{"zip_code":"7980062","prefecture":"愛媛県","prefecture_kana":"エヒメケン","city":"宇和島市","city_kana":"ウワジマシ","town":"桜町","town_kana":"サクラマチ","prefecture_code":38},"0054":{"zip_code":"7980054","prefecture":"愛媛県","prefecture_kana":"エヒメケン","city":"宇和島市","city_kana":"ウワジマシ","town":"笹町","town_kana":"ササマチ","prefecture_code":38},"0104":{"zip_code":"7980104","prefecture":"愛媛県","prefecture_kana":"エヒメケン","city":"宇和島市","city_kana":"ウワジマシ","town":"下波","town_kana":"シタバ","prefecture_code":38},"0090":{"zip_code":"7980090","prefecture":"愛媛県","prefecture_kana":"エヒメケン","city":"宇和島市","city_kana":"ウワジマシ","town":"白浜","town_kana":"シラハマ","prefecture_code":38},"0070":{"zip_code":"7980070","prefecture":"愛媛県","prefecture_kana":"エヒメケン","city":"宇和島市","city_kana":"ウワジマシ","town":"神田川原","town_kana":"ジンデンガワラ","prefecture_code":38},"0080":{"zip_code":"7980080","prefecture":"愛媛県","prefecture_kana":"エヒメケン","city":"宇和島市","city_kana":"ウワジマシ","town":"新田町","town_kana":"シンデンチョウ","prefecture_code":38},"0035":{"zip_code":"7980035","prefecture":"愛媛県","prefecture_kana":"エヒメケン","city":"宇和島市","city_kana":"ウワジマシ","town":"新町","town_kana":"シンマチ","prefecture_code":38},"0011":{"zip_code":"7980011","prefecture":"愛媛県","prefecture_kana":"エヒメケン","city":"宇和島市","city_kana":"ウワジマシ","town":"須賀通","town_kana":"スカドオリ","prefecture_code":38},"0003":{"zip_code":"7980003","prefecture":"愛媛県","prefecture_kana":"エヒメケン","city":"宇和島市","city_kana":"ウワジマシ","town":"住吉町","town_kana":"スミヨシチョウ","prefecture_code":38},"0045":{"zip_code":"7980045","prefecture":"愛媛県","prefecture_kana":"エヒメケン","city":"宇和島市","city_kana":"ウワジマシ","town":"大超寺奥","town_kana":"ダイチョウジオク","prefecture_code":38},"0020":{"zip_code":"7980020","prefecture":"愛媛県","prefecture_kana":"エヒメケン","city":"宇和島市","city_kana":"ウワジマシ","town":"高串","town_kana":"タカグシ","prefecture_code":38},"0040":{"zip_code":"7980040","prefecture":"愛媛県","prefecture_kana":"エヒメケン","city":"宇和島市","city_kana":"ウワジマシ","town":"中央町","town_kana":"チュウオウチョウ","prefecture_code":38},"0005":{"zip_code":"7980005","prefecture":"愛媛県","prefecture_kana":"エヒメケン","city":"宇和島市","city_kana":"ウワジマシ","town":"築地町","town_kana":"ツキジチョウ","prefecture_code":38},"3344":{"zip_code":"7983344","prefecture":"愛媛県","prefecture_kana":"エヒメケン","city":"宇和島市","city_kana":"ウワジマシ","town":"津島町嵐","town_kana":"ツシマチョウアラシ","prefecture_code":38},"3311":{"zip_code":"7983311","prefecture":"愛媛県","prefecture_kana":"エヒメケン","city":"宇和島市","city_kana":"ウワジマシ","town":"津島町岩淵","town_kana":"ツシマチョウイワブチ","prefecture_code":38},"3301":{"zip_code":"7983301","prefecture":"愛媛県","prefecture_kana":"エヒメケン","city":"宇和島市","city_kana":"ウワジマシ","town":"津島町岩松","town_kana":"ツシマチョウイワマツ","prefecture_code":38},"3331":{"zip_code":"7983331","prefecture":"愛媛県","prefecture_kana":"エヒメケン","city":"宇和島市","city_kana":"ウワジマシ","town":"津島町後","town_kana":"ツシマチョウウシロ","prefecture_code":38},"3342":{"zip_code":"7983342","prefecture":"愛媛県","prefecture_kana":"エヒメケン","city":"宇和島市","city_kana":"ウワジマシ","town":"津島町浦知","town_kana":"ツシマチョウウラシリ","prefecture_code":38},"3341":{"zip_code":"7983341","prefecture":"愛媛県","prefecture_kana":"エヒメケン","city":"宇和島市","city_kana":"ウワジマシ","town":"津島町塩定","town_kana":"ツシマチョウエンジョウ","prefecture_code":38},"3337":{"zip_code":"7983337","prefecture":"愛媛県","prefecture_kana":"エヒメケン","city":"宇和島市","city_kana":"ウワジマシ","town":"津島町大浦","town_kana":"ツシマチョウオオウラ","prefecture_code":38},"3338":{"zip_code":"7983338","prefecture":"愛媛県","prefecture_kana":"エヒメケン","city":"宇和島市","city_kana":"ウワジマシ","town":"津島町柿之浦","town_kana":"ツシマチョウカキノウラ","prefecture_code":38},"3323":{"zip_code":"7983323","prefecture":"愛媛県","prefecture_kana":"エヒメケン","city":"宇和島市","city_kana":"ウワジマシ","town":"津島町上畑地","town_kana":"ツシマチョウカミハタジ","prefecture_code":38},"3362":{"zip_code":"7983362","prefecture":"愛媛県","prefecture_kana":"エヒメケン","city":"宇和島市","city_kana":"ウワジマシ","town":"津島町北灘乙","town_kana":"ツシマチョウキタナダオツ","prefecture_code":38},"3361":{"zip_code":"7983361","prefecture":"愛媛県","prefecture_kana":"エヒメケン","city":"宇和島市","city_kana":"ウワジマシ","town":"津島町北灘甲","town_kana":"ツシマチョウキタナダコウ","prefecture_code":38},"3363":{"zip_code":"7983363","prefecture":"愛媛県","prefecture_kana":"エヒメケン","city":"宇和島市","city_kana":"ウワジマシ","town":"津島町北灘丙","town_kana":"ツシマチョウキタナダヘイ","prefecture_code":38},"3364":{"zip_code":"7983364","prefecture":"愛媛県","prefecture_kana":"エヒメケン","city":"宇和島市","city_kana":"ウワジマシ","town":"津島町北灘丁","town_kana":"ツシマチョウキタナダテイ","prefecture_code":38},"3312":{"zip_code":"7983312","prefecture":"愛媛県","prefecture_kana":"エヒメケン","city":"宇和島市","city_kana":"ウワジマシ","town":"津島町山財","town_kana":"ツシマチョウサンザイ","prefecture_code":38},"3322":{"zip_code":"7983322","prefecture":"愛媛県","prefecture_kana":"エヒメケン","city":"宇和島市","city_kana":"ウワジマシ","town":"津島町下畑地乙","town_kana":"ツシマチョウシモハタジオツ","prefecture_code":38},"3321":{"zip_code":"7983321","prefecture":"愛媛県","prefecture_kana":"エヒメケン","city":"宇和島市","city_kana":"ウワジマシ","town":"津島町下畑地","town_kana":"ツシマチョウシモハタジ","prefecture_code":38},"3332":{"zip_code":"7983332","prefecture":"愛媛県","prefecture_kana":"エヒメケン","city":"宇和島市","city_kana":"ウワジマシ","town":"津島町須下","town_kana":"ツシマチョウスゲ","prefecture_code":38},"3356":{"zip_code":"7983356","prefecture":"愛媛県","prefecture_kana":"エヒメケン","city":"宇和島市","city_kana":"ウワジマシ","town":"津島町曽根","town_kana":"ツシマチョウソネ","prefecture_code":38},"3354":{"zip_code":"7983354","prefecture":"愛媛県","prefecture_kana":"エヒメケン","city":"宇和島市","city_kana":"ウワジマシ","town":"津島町田颪","town_kana":"ツシマチョウタオロシ","prefecture_code":38},"3302":{"zip_code":"7983302","prefecture":"愛媛県","prefecture_kana":"エヒメケン","city":"宇和島市","city_kana":"ウワジマシ","town":"津島町高田","town_kana":"ツシマチョウタカタ","prefecture_code":38},"3358":{"zip_code":"7983358","prefecture":"愛媛県","prefecture_kana":"エヒメケン","city":"宇和島市","city_kana":"ウワジマシ","town":"津島町竹ケ島","town_kana":"ツシマチョウタケガシマ","prefecture_code":38},"3357":{"zip_code":"7983357","prefecture":"愛媛県","prefecture_kana":"エヒメケン","city":"宇和島市","city_kana":"ウワジマシ","town":"津島町田之浜","town_kana":"ツシマチョウタノハマ","prefecture_code":38},"3303":{"zip_code":"7983303","prefecture":"愛媛県","prefecture_kana":"エヒメケン","city":"宇和島市","city_kana":"ウワジマシ","town":"津島町近家","town_kana":"ツシマチョウチカイエ","prefecture_code":38},"3352":{"zip_code":"7983352","prefecture":"愛媛県","prefecture_kana":"エヒメケン","city":"宇和島市","city_kana":"ウワジマシ","town":"津島町坪井","town_kana":"ツシマチョウツボイ","prefecture_code":38},"3353":{"zip_code":"7983353","prefecture":"愛媛県","prefecture_kana":"エヒメケン","city":"宇和島市","city_kana":"ウワジマシ","town":"津島町泥目水","town_kana":"ツシマチョウドロメズ","prefecture_code":38},"3333":{"zip_code":"7983333","prefecture":"愛媛県","prefecture_kana":"エヒメケン","city":"宇和島市","city_kana":"ウワジマシ","town":"津島町成","town_kana":"ツシマチョウナル","prefecture_code":38},"3346":{"zip_code":"7983346","prefecture":"愛媛県","prefecture_kana":"エヒメケン","city":"宇和島市","city_kana":"ウワジマシ","town":"津島町鼡鳴","town_kana":"ツシマチョウネズナキ","prefecture_code":38},"3343":{"zip_code":"7983343","prefecture":"愛媛県","prefecture_kana":"エヒメケン","city":"宇和島市","city_kana":"ウワジマシ","town":"津島町針木","town_kana":"ツシマチョウハリギ","prefecture_code":38},"3335":{"zip_code":"7983335","prefecture":"愛媛県","prefecture_kana":"エヒメケン","city":"宇和島市","city_kana":"ウワジマシ","town":"津島町平井","town_kana":"ツシマチョウヒライ","prefecture_code":38},"3336":{"zip_code":"7983336","prefecture":"愛媛県","prefecture_kana":"エヒメケン","city":"宇和島市","city_kana":"ウワジマシ","town":"津島町曲烏","town_kana":"ツシマチョウマガラス","prefecture_code":38},"3272":{"zip_code":"7983272","prefecture":"愛媛県","prefecture_kana":"エヒメケン","city":"宇和島市","city_kana":"ウワジマシ","town":"津島町槇川","town_kana":"ツシマチョウマキガワ","prefecture_code":38},"3313":{"zip_code":"7983313","prefecture":"愛媛県","prefecture_kana":"エヒメケン","city":"宇和島市","city_kana":"ウワジマシ","town":"津島町増穂","town_kana":"ツシマチョウマスホ","prefecture_code":38},"3271":{"zip_code":"7983271","prefecture":"愛媛県","prefecture_kana":"エヒメケン","city":"宇和島市","city_kana":"ウワジマシ","town":"津島町御内","town_kana":"ツシマチョウミウチ","prefecture_code":38},"3351":{"zip_code":"7983351","prefecture":"愛媛県","prefecture_kana":"エヒメケン","city":"宇和島市","city_kana":"ウワジマシ","town":"津島町弓立","town_kana":"ツシマチョウユダチ","prefecture_code":38},"3345":{"zip_code":"7983345","prefecture":"愛媛県","prefecture_kana":"エヒメケン","city":"宇和島市","city_kana":"ウワジマシ","town":"津島町横浦","town_kana":"ツシマチョウヨコウラ","prefecture_code":38},"3334":{"zip_code":"7983334","prefecture":"愛媛県","prefecture_kana":"エヒメケン","city":"宇和島市","city_kana":"ウワジマシ","town":"津島町漁家","town_kana":"ツシマチョウリョウケ","prefecture_code":38},"3355":{"zip_code":"7983355","prefecture":"愛媛県","prefecture_kana":"エヒメケン","city":"宇和島市","city_kana":"ウワジマシ","town":"津島町脇","town_kana":"ツシマチョウワキ","prefecture_code":38},"0033":{"zip_code":"7980033","prefecture":"愛媛県","prefecture_kana":"エヒメケン","city":"宇和島市","city_kana":"ウワジマシ","town":"鶴島町","town_kana":"ツルシマチョウ","prefecture_code":38},"0065":{"zip_code":"7980065","prefecture":"愛媛県","prefecture_kana":"エヒメケン","city":"宇和島市","city_kana":"ウワジマシ","town":"天赦公園","town_kana":"テンシャコウエン","prefecture_code":38},"0036":{"zip_code":"7980036","prefecture":"愛媛県","prefecture_kana":"エヒメケン","city":"宇和島市","city_kana":"ウワジマシ","town":"天神町","town_kana":"テンジンマチ","prefecture_code":38},"0212":{"zip_code":"7980212","prefecture":"愛媛県","prefecture_kana":"エヒメケン","city":"宇和島市","city_kana":"ウワジマシ","town":"戸島","town_kana":"トジマ","prefecture_code":38},"0081":{"zip_code":"7980081","prefecture":"愛媛県","prefecture_kana":"エヒメケン","city":"宇和島市","city_kana":"ウワジマシ","town":"中沢町","town_kana":"ナカザワチョウ","prefecture_code":38},"0082":{"zip_code":"7980082","prefecture":"愛媛県","prefecture_kana":"エヒメケン","city":"宇和島市","city_kana":"ウワジマシ","town":"長堀","town_kana":"ナガホリ","prefecture_code":38},"0083":{"zip_code":"7980083","prefecture":"愛媛県","prefecture_kana":"エヒメケン","city":"宇和島市","city_kana":"ウワジマシ","town":"夏目町","town_kana":"ナツメチョウ","prefecture_code":38},"0074":{"zip_code":"7980074","prefecture":"愛媛県","prefecture_kana":"エヒメケン","city":"宇和島市","city_kana":"ウワジマシ","town":"並松","town_kana":"ナミマツ","prefecture_code":38},"0034":{"zip_code":"7980034","prefecture":"愛媛県","prefecture_kana":"エヒメケン","city":"宇和島市","city_kana":"ウワジマシ","town":"錦町","town_kana":"ニシキマチ","prefecture_code":38},"2146":{"zip_code":"7982146","prefecture":"愛媛県","prefecture_kana":"エヒメケン","city":"宇和島市","city_kana":"ウワジマシ","town":"野川","town_kana":"ノガワ","prefecture_code":38},"0044":{"zip_code":"7980044","prefecture":"愛媛県","prefecture_kana":"エヒメケン","city":"宇和島市","city_kana":"ウワジマシ","town":"野川","town_kana":"ノガワ","prefecture_code":38},"0098":{"zip_code":"7980098","prefecture":"愛媛県","prefecture_kana":"エヒメケン","city":"宇和島市","city_kana":"ウワジマシ","town":"蛤","town_kana":"ハマグリ","prefecture_code":38},"0099":{"zip_code":"7980099","prefecture":"愛媛県","prefecture_kana":"エヒメケン","city":"宇和島市","city_kana":"ウワジマシ","town":"日振島","town_kana":"ヒブリシマ","prefecture_code":38},"0097":{"zip_code":"7980097","prefecture":"愛媛県","prefecture_kana":"エヒメケン","city":"宇和島市","city_kana":"ウワジマシ","town":"百之浦","town_kana":"ヒャクノウラ","prefecture_code":38},"0095":{"zip_code":"7980095","prefecture":"愛媛県","prefecture_kana":"エヒメケン","city":"宇和島市","city_kana":"ウワジマシ","town":"平浦","town_kana":"ヒラウラ","prefecture_code":38},"0051":{"zip_code":"7980051","prefecture":"愛媛県","prefecture_kana":"エヒメケン","city":"宇和島市","city_kana":"ウワジマシ","town":"広小路","town_kana":"ヒロコウジ","prefecture_code":38},"0066":{"zip_code":"7980066","prefecture":"愛媛県","prefecture_kana":"エヒメケン","city":"宇和島市","city_kana":"ウワジマシ","town":"文京町","town_kana":"ブンキョウチョウ","prefecture_code":38},"0086":{"zip_code":"7980086","prefecture":"愛媛県","prefecture_kana":"エヒメケン","city":"宇和島市","city_kana":"ウワジマシ","town":"別当","town_kana":"ベツトウ","prefecture_code":38},"0006":{"zip_code":"7980006","prefecture":"愛媛県","prefecture_kana":"エヒメケン","city":"宇和島市","city_kana":"ウワジマシ","town":"弁天町","town_kana":"ベンテンチョウ","prefecture_code":38},"0088":{"zip_code":"7980088","prefecture":"愛媛県","prefecture_kana":"エヒメケン","city":"宇和島市","city_kana":"ウワジマシ","town":"保手","town_kana":"ホデ","prefecture_code":38},"0050":{"zip_code":"7980050","prefecture":"愛媛県","prefecture_kana":"エヒメケン","city":"宇和島市","city_kana":"ウワジマシ","town":"堀端町","town_kana":"ホリバタチョウ","prefecture_code":38},"0096":{"zip_code":"7980096","prefecture":"愛媛県","prefecture_kana":"エヒメケン","city":"宇和島市","city_kana":"ウワジマシ","town":"本九島","town_kana":"ホンクシマ","prefecture_code":38},"0041":{"zip_code":"7980041","prefecture":"愛媛県","prefecture_kana":"エヒメケン","city":"宇和島市","city_kana":"ウワジマシ","town":"本町追手","town_kana":"ホンマチオウテ","prefecture_code":38},"0067":{"zip_code":"7980067","prefecture":"愛媛県","prefecture_kana":"エヒメケン","city":"宇和島市","city_kana":"ウワジマシ","town":"桝形町","town_kana":"マスガタチョウ","prefecture_code":38},"0037":{"zip_code":"7980037","prefecture":"愛媛県","prefecture_kana":"エヒメケン","city":"宇和島市","city_kana":"ウワジマシ","town":"丸穂町","town_kana":"マルオチョウ","prefecture_code":38},"0038":{"zip_code":"7980038","prefecture":"愛媛県","prefecture_kana":"エヒメケン","city":"宇和島市","city_kana":"ウワジマシ","town":"丸穂","town_kana":"マルオ","prefecture_code":38},"0060":{"zip_code":"7980060","prefecture":"愛媛県","prefecture_kana":"エヒメケン","city":"宇和島市","city_kana":"ウワジマシ","town":"丸之内","town_kana":"マルノウチ","prefecture_code":38},"0101":{"zip_code":"7980101","prefecture":"愛媛県","prefecture_kana":"エヒメケン","city":"宇和島市","city_kana":"ウワジマシ","town":"三浦東","town_kana":"ミウラヒガシ","prefecture_code":38},"0102":{"zip_code":"7980102","prefecture":"愛媛県","prefecture_kana":"エヒメケン","city":"宇和島市","city_kana":"ウワジマシ","town":"三浦西","town_kana":"ミウラニシ","prefecture_code":38},"0021":{"zip_code":"7980021","prefecture":"愛媛県","prefecture_kana":"エヒメケン","city":"宇和島市","city_kana":"ウワジマシ","town":"光満","town_kana":"ミツマ","prefecture_code":38},"1136":{"zip_code":"7981136","prefecture":"愛媛県","prefecture_kana":"エヒメケン","city":"宇和島市","city_kana":"ウワジマシ","town":"三間町大内","town_kana":"ミマチョウオオウチ","prefecture_code":38},"1101":{"zip_code":"7981101","prefecture":"愛媛県","prefecture_kana":"エヒメケン","city":"宇和島市","city_kana":"ウワジマシ","town":"三間町大藤","town_kana":"ミマチョウオオフジ","prefecture_code":38},"1141":{"zip_code":"7981141","prefecture":"愛媛県","prefecture_kana":"エヒメケン","city":"宇和島市","city_kana":"ウワジマシ","town":"三間町音地","town_kana":"ミマチョウオンジ","prefecture_code":38},"1134":{"zip_code":"7981134","prefecture":"愛媛県","prefecture_kana":"エヒメケン","city":"宇和島市","city_kana":"ウワジマシ","town":"三間町金銅","town_kana":"ミマチョウカナドウ","prefecture_code":38},"1137":{"zip_code":"7981137","prefecture":"愛媛県","prefecture_kana":"エヒメケン","city":"宇和島市","city_kana":"ウワジマシ","town":"三間町兼近","town_kana":"ミマチョウカネチカ","prefecture_code":38},"1121":{"zip_code":"7981121","prefecture":"愛媛県","prefecture_kana":"エヒメケン","city":"宇和島市","city_kana":"ウワジマシ","town":"三間町川之内","town_kana":"ミマチョウカワノウチ","prefecture_code":38},"1111":{"zip_code":"7981111","prefecture":"愛媛県","prefecture_kana":"エヒメケン","city":"宇和島市","city_kana":"ウワジマシ","town":"三間町北増穂","town_kana":"ミマチョウキタマスオ","prefecture_code":38},"1116":{"zip_code":"7981116","prefecture":"愛媛県","prefecture_kana":"エヒメケン","city":"宇和島市","city_kana":"ウワジマシ","town":"三間町黒井地","town_kana":"ミマチョウクロイジ","prefecture_code":38},"1143":{"zip_code":"7981143","prefecture":"愛媛県","prefecture_kana":"エヒメケン","city":"宇和島市","city_kana":"ウワジマシ","town":"三間町黒川","town_kana":"ミマチョウクロカワ","prefecture_code":38},"1122":{"zip_code":"7981122","prefecture":"愛媛県","prefecture_kana":"エヒメケン","city":"宇和島市","city_kana":"ウワジマシ","town":"三間町小沢川","town_kana":"ミマチョウコソウガワ","prefecture_code":38},"1135":{"zip_code":"7981135","prefecture":"愛媛県","prefecture_kana":"エヒメケン","city":"宇和島市","city_kana":"ウワジマシ","town":"三間町古藤田","town_kana":"ミマチョウコトウダ","prefecture_code":38},"1139":{"zip_code":"7981139","prefecture":"愛媛県","prefecture_kana":"エヒメケン","city":"宇和島市","city_kana":"ウワジマシ","town":"三間町是延","town_kana":"ミマチョウコレノブ","prefecture_code":38},"1105":{"zip_code":"7981105","prefecture":"愛媛県","prefecture_kana":"エヒメケン","city":"宇和島市","city_kana":"ウワジマシ","town":"三間町是能","town_kana":"ミマチョウコレヨシ","prefecture_code":38},"1102":{"zip_code":"7981102","prefecture":"愛媛県","prefecture_kana":"エヒメケン","city":"宇和島市","city_kana":"ウワジマシ","town":"三間町則","town_kana":"ミマチョウスナワチ","prefecture_code":38},"1104":{"zip_code":"7981104","prefecture":"愛媛県","prefecture_kana":"エヒメケン","city":"宇和島市","city_kana":"ウワジマシ","town":"三間町曽根","town_kana":"ミマチョウソネ","prefecture_code":38},"1131":{"zip_code":"7981131","prefecture":"愛媛県","prefecture_kana":"エヒメケン","city":"宇和島市","city_kana":"ウワジマシ","town":"三間町田川","town_kana":"ミマチョウタガワ","prefecture_code":38},"1138":{"zip_code":"7981138","prefecture":"愛媛県","prefecture_kana":"エヒメケン","city":"宇和島市","city_kana":"ウワジマシ","town":"三間町土居垣内","town_kana":"ミマチョウドイカキウチ","prefecture_code":38},"1125":{"zip_code":"7981125","prefecture":"愛媛県","prefecture_kana":"エヒメケン","city":"宇和島市","city_kana":"ウワジマシ","town":"三間町土居中","town_kana":"ミマチョウドイナカ","prefecture_code":38},"1115":{"zip_code":"7981115","prefecture":"愛媛県","prefecture_kana":"エヒメケン","city":"宇和島市","city_kana":"ウワジマシ","town":"三間町戸雁","town_kana":"ミマチョウトガリ","prefecture_code":38},"1133":{"zip_code":"7981133","prefecture":"愛媛県","prefecture_kana":"エヒメケン","city":"宇和島市","city_kana":"ウワジマシ","town":"三間町中野中","town_kana":"ミマチョウナカノナカ","prefecture_code":38},"1132":{"zip_code":"7981132","prefecture":"愛媛県","prefecture_kana":"エヒメケン","city":"宇和島市","city_kana":"ウワジマシ","town":"三間町波岡","town_kana":"ミマチョウナミオカ","prefecture_code":38},"1103":{"zip_code":"7981103","prefecture":"愛媛県","prefecture_kana":"エヒメケン","city":"宇和島市","city_kana":"ウワジマシ","town":"三間町成家","town_kana":"ミマチョウナルイエ","prefecture_code":38},"1113":{"zip_code":"7981113","prefecture":"愛媛県","prefecture_kana":"エヒメケン","city":"宇和島市","city_kana":"ウワジマシ","town":"三間町迫目","town_kana":"ミマチョウハザメ","prefecture_code":38},"1124":{"zip_code":"7981124","prefecture":"愛媛県","prefecture_kana":"エヒメケン","city":"宇和島市","city_kana":"ウワジマシ","town":"三間町増田","town_kana":"ミマチョウマスダ","prefecture_code":38},"1142":{"zip_code":"7981142","prefecture":"愛媛県","prefecture_kana":"エヒメケン","city":"宇和島市","city_kana":"ウワジマシ","town":"三間町三間中間","town_kana":"ミマチョウミマナカイダ","prefecture_code":38},"1112":{"zip_code":"7981112","prefecture":"愛媛県","prefecture_kana":"エヒメケン","city":"宇和島市","city_kana":"ウワジマシ","town":"三間町宮野下","town_kana":"ミマチョウミヤノシタ","prefecture_code":38},"1114":{"zip_code":"7981114","prefecture":"愛媛県","prefecture_kana":"エヒメケン","city":"宇和島市","city_kana":"ウワジマシ","town":"三間町務田","town_kana":"ミマチョウムデン","prefecture_code":38},"1123":{"zip_code":"7981123","prefecture":"愛媛県","prefecture_kana":"エヒメケン","city":"宇和島市","city_kana":"ウワジマシ","town":"三間町元宗","town_kana":"ミマチョウモトムネ","prefecture_code":38},"0085":{"zip_code":"7980085","prefecture":"愛媛県","prefecture_kana":"エヒメケン","city":"宇和島市","city_kana":"ウワジマシ","town":"宮下","town_kana":"ミヤシタ","prefecture_code":38},"0013":{"zip_code":"7980013","prefecture":"愛媛県","prefecture_kana":"エヒメケン","city":"宇和島市","city_kana":"ウワジマシ","town":"御幸町","town_kana":"ミユキマチ","prefecture_code":38},"0071":{"zip_code":"7980071","prefecture":"愛媛県","prefecture_kana":"エヒメケン","city":"宇和島市","city_kana":"ウワジマシ","town":"妙典寺前","town_kana":"ミョウデンジマエ","prefecture_code":38},"0068":{"zip_code":"7980068","prefecture":"愛媛県","prefecture_kana":"エヒメケン","city":"宇和島市","city_kana":"ウワジマシ","town":"明倫町","town_kana":"メイリンチョウ","prefecture_code":38},"0072":{"zip_code":"7980072","prefecture":"愛媛県","prefecture_kana":"エヒメケン","city":"宇和島市","city_kana":"ウワジマシ","town":"元結掛","town_kana":"モトユイギ","prefecture_code":38},"0077":{"zip_code":"7980077","prefecture":"愛媛県","prefecture_kana":"エヒメケン","city":"宇和島市","city_kana":"ウワジマシ","town":"保田","town_kana":"ヤスダ","prefecture_code":38},"0073":{"zip_code":"7980073","prefecture":"愛媛県","prefecture_kana":"エヒメケン","city":"宇和島市","city_kana":"ウワジマシ","town":"山際","town_kana":"ヤマギワ","prefecture_code":38},"0103":{"zip_code":"7980103","prefecture":"愛媛県","prefecture_kana":"エヒメケン","city":"宇和島市","city_kana":"ウワジマシ","town":"遊子","town_kana":"ユス","prefecture_code":38},"0084":{"zip_code":"7980084","prefecture":"愛媛県","prefecture_kana":"エヒメケン","city":"宇和島市","city_kana":"ウワジマシ","town":"寄松","town_kana":"ヨリマツ","prefecture_code":38},"0094":{"zip_code":"7980094","prefecture":"愛媛県","prefecture_kana":"エヒメケン","city":"宇和島市","city_kana":"ウワジマシ","town":"蕨","town_kana":"ワラビ","prefecture_code":38},"0014":{"zip_code":"7980014","prefecture":"愛媛県","prefecture_kana":"エヒメケン","city":"宇和島市","city_kana":"ウワジマシ","town":"和霊公園","town_kana":"ワレイコウエン","prefecture_code":38},"0016":{"zip_code":"7980016","prefecture":"愛媛県","prefecture_kana":"エヒメケン","city":"宇和島市","city_kana":"ウワジマシ","town":"和霊中町","town_kana":"ワレイナカマチ","prefecture_code":38},"0017":{"zip_code":"7980017","prefecture":"愛媛県","prefecture_kana":"エヒメケン","city":"宇和島市","city_kana":"ウワジマシ","town":"和霊東町","town_kana":"ワレイヒガシマチ","prefecture_code":38},"0015":{"zip_code":"7980015","prefecture":"愛媛県","prefecture_kana":"エヒメケン","city":"宇和島市","city_kana":"ウワジマシ","town":"和霊元町","town_kana":"ワレイモトマチ","prefecture_code":38},"0012":{"zip_code":"7980012","prefecture":"愛媛県","prefecture_kana":"エヒメケン","city":"宇和島市","city_kana":"ウワジマシ","town":"和霊町","town_kana":"ワレイチョウ","prefecture_code":38},"2100":{"zip_code":"7982100","prefecture":"愛媛県","prefecture_kana":"エヒメケン","city":"北宇和郡松野町","city_kana":"キタウワグンマツノチョウ","town":"","town_kana":"","prefecture_code":38},"2113":{"zip_code":"7982113","prefecture":"愛媛県","prefecture_kana":"エヒメケン","city":"北宇和郡松野町","city_kana":"キタウワグンマツノチョウ","town":"奥野川","town_kana":"オクノカワ","prefecture_code":38},"2105":{"zip_code":"7982105","prefecture":"愛媛県","prefecture_kana":"エヒメケン","city":"北宇和郡松野町","city_kana":"キタウワグンマツノチョウ","town":"上家地","town_kana":"カミイエジ","prefecture_code":38},"2104":{"zip_code":"7982104","prefecture":"愛媛県","prefecture_kana":"エヒメケン","city":"北宇和郡松野町","city_kana":"キタウワグンマツノチョウ","town":"富岡","town_kana":"トミオカ","prefecture_code":38},"2103":{"zip_code":"7982103","prefecture":"愛媛県","prefecture_kana":"エヒメケン","city":"北宇和郡松野町","city_kana":"キタウワグンマツノチョウ","town":"豊岡","town_kana":"トヨオカ","prefecture_code":38},"2102":{"zip_code":"7982102","prefecture":"愛媛県","prefecture_kana":"エヒメケン","city":"北宇和郡松野町","city_kana":"キタウワグンマツノチョウ","town":"延野々","town_kana":"ノビノノ","prefecture_code":38},"2101":{"zip_code":"7982101","prefecture":"愛媛県","prefecture_kana":"エヒメケン","city":"北宇和郡松野町","city_kana":"キタウワグンマツノチョウ","town":"松丸","town_kana":"マツマル","prefecture_code":38},"2106":{"zip_code":"7982106","prefecture":"愛媛県","prefecture_kana":"エヒメケン","city":"北宇和郡松野町","city_kana":"キタウワグンマツノチョウ","town":"目黒","town_kana":"メグロ","prefecture_code":38},"2111":{"zip_code":"7982111","prefecture":"愛媛県","prefecture_kana":"エヒメケン","city":"北宇和郡松野町","city_kana":"キタウワグンマツノチョウ","town":"吉野","town_kana":"ヨシノ","prefecture_code":38},"2112":{"zip_code":"7982112","prefecture":"愛媛県","prefecture_kana":"エヒメケン","city":"北宇和郡松野町","city_kana":"キタウワグンマツノチョウ","town":"蕨生","town_kana":"ワラビョウ","prefecture_code":38},"1300":{"zip_code":"7981300","prefecture":"愛媛県","prefecture_kana":"エヒメケン","city":"北宇和郡鬼北町","city_kana":"キタウワグンキホクチョウ","town":"","town_kana":"","prefecture_code":38},"1375":{"zip_code":"7981375","prefecture":"愛媛県","prefecture_kana":"エヒメケン","city":"北宇和郡鬼北町","city_kana":"キタウワグンキホクチョウ","town":"畔屋","town_kana":"アゼヤ","prefecture_code":38},"1371":{"zip_code":"7981371","prefecture":"愛媛県","prefecture_kana":"エヒメケン","city":"北宇和郡鬼北町","city_kana":"キタウワグンキホクチョウ","town":"生田","town_kana":"イクタ","prefecture_code":38},"1332":{"zip_code":"7981332","prefecture":"愛媛県","prefecture_kana":"エヒメケン","city":"北宇和郡鬼北町","city_kana":"キタウワグンキホクチョウ","town":"出目","town_kana":"イズメ","prefecture_code":38},"1323":{"zip_code":"7981323","prefecture":"愛媛県","prefecture_kana":"エヒメケン","city":"北宇和郡鬼北町","city_kana":"キタウワグンキホクチョウ","town":"岩谷","town_kana":"イワヤ","prefecture_code":38},"1363":{"zip_code":"7981363","prefecture":"愛媛県","prefecture_kana":"エヒメケン","city":"北宇和郡鬼北町","city_kana":"キタウワグンキホクチョウ","town":"内深田","town_kana":"ウチフカタ","prefecture_code":38},"1301":{"zip_code":"7981301","prefecture":"愛媛県","prefecture_kana":"エヒメケン","city":"北宇和郡鬼北町","city_kana":"キタウワグンキホクチョウ","town":"大宿","town_kana":"オオジク","prefecture_code":38},"1331":{"zip_code":"7981331","prefecture":"愛媛県","prefecture_kana":"エヒメケン","city":"北宇和郡鬼北町","city_kana":"キタウワグンキホクチョウ","town":"興野々","town_kana":"オキノノ","prefecture_code":38},"1321":{"zip_code":"7981321","prefecture":"愛媛県","prefecture_kana":"エヒメケン","city":"北宇和郡鬼北町","city_kana":"キタウワグンキホクチョウ","town":"小倉","town_kana":"オグワ","prefecture_code":38},"1503":{"zip_code":"7981503","prefecture":"愛媛県","prefecture_kana":"エヒメケン","city":"北宇和郡鬼北町","city_kana":"キタウワグンキホクチョウ","town":"上大野","town_kana":"カミオオノ","prefecture_code":38},"1501":{"zip_code":"7981501","prefecture":"愛媛県","prefecture_kana":"エヒメケン","city":"北宇和郡鬼北町","city_kana":"キタウワグンキホクチョウ","town":"上鍵山","town_kana":"カミカギヤマ","prefecture_code":38},"1322":{"zip_code":"7981322","prefecture":"愛媛県","prefecture_kana":"エヒメケン","city":"北宇和郡鬼北町","city_kana":"キタウワグンキホクチョウ","town":"上川","town_kana":"カミカワ","prefecture_code":38},"1312":{"zip_code":"7981312","prefecture":"愛媛県","prefecture_kana":"エヒメケン","city":"北宇和郡鬼北町","city_kana":"キタウワグンキホクチョウ","town":"川上","town_kana":"カワカミ","prefecture_code":38},"1354":{"zip_code":"7981354","prefecture":"愛媛県","prefecture_kana":"エヒメケン","city":"北宇和郡鬼北町","city_kana":"キタウワグンキホクチョウ","town":"北川","town_kana":"キタガワ","prefecture_code":38},"1362":{"zip_code":"7981362","prefecture":"愛媛県","prefecture_kana":"エヒメケン","city":"北宇和郡鬼北町","city_kana":"キタウワグンキホクチョウ","town":"清延","town_kana":"キヨノブ","prefecture_code":38},"1361":{"zip_code":"7981361","prefecture":"愛媛県","prefecture_kana":"エヒメケン","city":"北宇和郡鬼北町","city_kana":"キタウワグンキホクチョウ","town":"国遠","town_kana":"クニトオ","prefecture_code":38},"1314":{"zip_code":"7981314","prefecture":"愛媛県","prefecture_kana":"エヒメケン","city":"北宇和郡鬼北町","city_kana":"キタウワグンキホクチョウ","town":"久保","town_kana":"クボ","prefecture_code":38},"1324":{"zip_code":"7981324","prefecture":"愛媛県","prefecture_kana":"エヒメケン","city":"北宇和郡鬼北町","city_kana":"キタウワグンキホクチョウ","town":"小西野々","town_kana":"コニシノノ","prefecture_code":38},"1311":{"zip_code":"7981311","prefecture":"愛媛県","prefecture_kana":"エヒメケン","city":"北宇和郡鬼北町","city_kana":"キタウワグンキホクチョウ","town":"小松","town_kana":"コマツ","prefecture_code":38},"1367":{"zip_code":"7981367","prefecture":"愛媛県","prefecture_kana":"エヒメケン","city":"北宇和郡鬼北町","city_kana":"キタウワグンキホクチョウ","town":"沢松","town_kana":"サワマツ","prefecture_code":38},"1355":{"zip_code":"7981355","prefecture":"愛媛県","prefecture_kana":"エヒメケン","city":"北宇和郡鬼北町","city_kana":"キタウワグンキホクチョウ","town":"芝","town_kana":"シバ","prefecture_code":38},"1302":{"zip_code":"7981302","prefecture":"愛媛県","prefecture_kana":"エヒメケン","city":"北宇和郡鬼北町","city_kana":"キタウワグンキホクチョウ","town":"下大野","town_kana":"シモオオノ","prefecture_code":38},"1502":{"zip_code":"7981502","prefecture":"愛媛県","prefecture_kana":"エヒメケン","city":"北宇和郡鬼北町","city_kana":"キタウワグンキホクチョウ","town":"下鍵山","town_kana":"シモカギヤマ","prefecture_code":38},"1373":{"zip_code":"7981373","prefecture":"愛媛県","prefecture_kana":"エヒメケン","city":"北宇和郡鬼北町","city_kana":"キタウワグンキホクチョウ","town":"清水","town_kana":"セイズイ","prefecture_code":38},"1341":{"zip_code":"7981341","prefecture":"愛媛県","prefecture_kana":"エヒメケン","city":"北宇和郡鬼北町","city_kana":"キタウワグンキホクチョウ","town":"近永","town_kana":"チカナガ","prefecture_code":38},"1342":{"zip_code":"7981342","prefecture":"愛媛県","prefecture_kana":"エヒメケン","city":"北宇和郡鬼北町","city_kana":"キタウワグンキホクチョウ","town":"近永","town_kana":"チカナガ","prefecture_code":38},"1343":{"zip_code":"7981343","prefecture":"愛媛県","prefecture_kana":"エヒメケン","city":"北宇和郡鬼北町","city_kana":"キタウワグンキホクチョウ","town":"近永","town_kana":"チカナガ","prefecture_code":38},"1344":{"zip_code":"7981344","prefecture":"愛媛県","prefecture_kana":"エヒメケン","city":"北宇和郡鬼北町","city_kana":"キタウワグンキホクチョウ","town":"近永","town_kana":"チカナガ","prefecture_code":38},"1345":{"zip_code":"7981345","prefecture":"愛媛県","prefecture_kana":"エヒメケン","city":"北宇和郡鬼北町","city_kana":"キタウワグンキホクチョウ","town":"近永","town_kana":"チカナガ","prefecture_code":38},"1505":{"zip_code":"7981505","prefecture":"愛媛県","prefecture_kana":"エヒメケン","city":"北宇和郡鬼北町","city_kana":"キタウワグンキホクチョウ","town":"父野川上","town_kana":"チチノカワカミ","prefecture_code":38},"1506":{"zip_code":"7981506","prefecture":"愛媛県","prefecture_kana":"エヒメケン","city":"北宇和郡鬼北町","city_kana":"キタウワグンキホクチョウ","town":"父野川中","town_kana":"チチノカワナカ","prefecture_code":38},"1507":{"zip_code":"7981507","prefecture":"愛媛県","prefecture_kana":"エヒメケン","city":"北宇和郡鬼北町","city_kana":"キタウワグンキホクチョウ","town":"父野川下","town_kana":"チチノカワシモ","prefecture_code":38},"1333":{"zip_code":"7981333","prefecture":"愛媛県","prefecture_kana":"エヒメケン","city":"北宇和郡鬼北町","city_kana":"キタウワグンキホクチョウ","town":"永野市","town_kana":"ナガノイチ","prefecture_code":38},"1356":{"zip_code":"7981356","prefecture":"愛媛県","prefecture_kana":"エヒメケン","city":"北宇和郡鬼北町","city_kana":"キタウワグンキホクチョウ","town":"中野川","town_kana":"ナカノカワ","prefecture_code":38},"1352":{"zip_code":"7981352","prefecture":"愛媛県","prefecture_kana":"エヒメケン","city":"北宇和郡鬼北町","city_kana":"キタウワグンキホクチョウ","town":"奈良","town_kana":"ナラ","prefecture_code":38},"1353":{"zip_code":"7981353","prefecture":"愛媛県","prefecture_kana":"エヒメケン","city":"北宇和郡鬼北町","city_kana":"キタウワグンキホクチョウ","town":"奈良","town_kana":"ナラ","prefecture_code":38},"1351":{"zip_code":"7981351","prefecture":"愛媛県","prefecture_kana":"エヒメケン","city":"北宇和郡鬼北町","city_kana":"キタウワグンキホクチョウ","town":"奈良","town_kana":"ナラ","prefecture_code":38},"1374":{"zip_code":"7981374","prefecture":"愛媛県","prefecture_kana":"エヒメケン","city":"北宇和郡鬼北町","city_kana":"キタウワグンキホクチョウ","town":"成藤","town_kana":"ナリフジ","prefecture_code":38},"1365":{"zip_code":"7981365","prefecture":"愛媛県","prefecture_kana":"エヒメケン","city":"北宇和郡鬼北町","city_kana":"キタウワグンキホクチョウ","town":"西仲","town_kana":"ニシナカ","prefecture_code":38},"1372":{"zip_code":"7981372","prefecture":"愛媛県","prefecture_kana":"エヒメケン","city":"北宇和郡鬼北町","city_kana":"キタウワグンキホクチョウ","town":"西野々","town_kana":"ニシノノ","prefecture_code":38},"1313":{"zip_code":"7981313","prefecture":"愛媛県","prefecture_kana":"エヒメケン","city":"北宇和郡鬼北町","city_kana":"キタウワグンキホクチョウ","town":"延川","town_kana":"ノブカワ","prefecture_code":38},"1366":{"zip_code":"7981366","prefecture":"愛媛県","prefecture_kana":"エヒメケン","city":"北宇和郡鬼北町","city_kana":"キタウワグンキホクチョウ","town":"東仲","town_kana":"ヒガシナカ","prefecture_code":38},"1504":{"zip_code":"7981504","prefecture":"愛媛県","prefecture_kana":"エヒメケン","city":"北宇和郡鬼北町","city_kana":"キタウワグンキホクチョウ","town":"日向谷","town_kana":"ヒュウガイ","prefecture_code":38},"1303":{"zip_code":"7981303","prefecture":"愛媛県","prefecture_kana":"エヒメケン","city":"北宇和郡鬼北町","city_kana":"キタウワグンキホクチョウ","town":"広見","town_kana":"ヒロミ","prefecture_code":38},"1364":{"zip_code":"7981364","prefecture":"愛媛県","prefecture_kana":"エヒメケン","city":"北宇和郡鬼北町","city_kana":"キタウワグンキホクチョウ","town":"吉波","town_kana":"ヨシナミ","prefecture_code":38},"4100":{"zip_code":"7984100","prefecture":"愛媛県","prefecture_kana":"エヒメケン","city":"南宇和郡愛南町","city_kana":"ミナミウワグンアイナンチョウ","town":"","town_kana":"","prefecture_code":38},"4123":{"zip_code":"7984123","prefecture":"愛媛県","prefecture_kana":"エヒメケン","city":"南宇和郡愛南町","city_kana":"ミナミウワグンアイナンチョウ","town":"赤水","town_kana":"アカミズ","prefecture_code":38},"3708":{"zip_code":"7983708","prefecture":"愛媛県","prefecture_kana":"エヒメケン","city":"南宇和郡愛南町","city_kana":"ミナミウワグンアイナンチョウ","town":"網代","town_kana":"アジロ","prefecture_code":38},"4345":{"zip_code":"7984345","prefecture":"愛媛県","prefecture_kana":"エヒメケン","city":"南宇和郡愛南町","city_kana":"ミナミウワグンアイナンチョウ","town":"敦盛","town_kana":"アツモリ","prefecture_code":38},"3705":{"zip_code":"7983705","prefecture":"愛媛県","prefecture_kana":"エヒメケン","city":"南宇和郡愛南町","city_kana":"ミナミウワグンアイナンチョウ","town":"家串","town_kana":"イエクシ","prefecture_code":38},"4408":{"zip_code":"7984408","prefecture":"愛媛県","prefecture_kana":"エヒメケン","city":"南宇和郡愛南町","city_kana":"ミナミウワグンアイナンチョウ","town":"一本松","town_kana":"イッポンマツ","prefecture_code":38},"4351":{"zip_code":"7984351","prefecture":"愛媛県","prefecture_kana":"エヒメケン","city":"南宇和郡愛南町","city_kana":"ミナミウワグンアイナンチョウ","town":"鯆越","town_kana":"イルカゴエ","prefecture_code":38},"4344":{"zip_code":"7984344","prefecture":"愛媛県","prefecture_kana":"エヒメケン","city":"南宇和郡愛南町","city_kana":"ミナミウワグンアイナンチョウ","town":"岩水","town_kana":"イワミズ","prefecture_code":38},"4206":{"zip_code":"7984206","prefecture":"愛媛県","prefecture_kana":"エヒメケン","city":"南宇和郡愛南町","city_kana":"ミナミウワグンアイナンチョウ","town":"内泊","town_kana":"ウチドマリ","prefecture_code":38},"4407":{"zip_code":"7984407","prefecture":"愛媛県","prefecture_kana":"エヒメケン","city":"南宇和郡愛南町","city_kana":"ミナミウワグンアイナンチョウ","town":"上大道","town_kana":"ウワオオドウ","prefecture_code":38},"4214":{"zip_code":"7984214","prefecture":"愛媛県","prefecture_kana":"エヒメケン","city":"南宇和郡愛南町","city_kana":"ミナミウワグンアイナンチョウ","town":"大成川","town_kana":"オオナルカワ","prefecture_code":38},"4347":{"zip_code":"7984347","prefecture":"愛媛県","prefecture_kana":"エヒメケン","city":"南宇和郡愛南町","city_kana":"ミナミウワグンアイナンチョウ","town":"大浜","town_kana":"オオハマ","prefecture_code":38},"4343":{"zip_code":"7984343","prefecture":"愛媛県","prefecture_kana":"エヒメケン","city":"南宇和郡愛南町","city_kana":"ミナミウワグンアイナンチョウ","town":"垣内","town_kana":"カキウチ","prefecture_code":38},"4346":{"zip_code":"7984346","prefecture":"愛媛県","prefecture_kana":"エヒメケン","city":"南宇和郡愛南町","city_kana":"ミナミウワグンアイナンチョウ","town":"柿ノ浦","town_kana":"カキノウラ","prefecture_code":38},"4204":{"zip_code":"7984204","prefecture":"愛媛県","prefecture_kana":"エヒメケン","city":"南宇和郡愛南町","city_kana":"ミナミウワグンアイナンチョウ","town":"樫月","town_kana":"カシヅク","prefecture_code":38},"4209":{"zip_code":"7984209","prefecture":"愛媛県","prefecture_kana":"エヒメケン","city":"南宇和郡愛南町","city_kana":"ミナミウワグンアイナンチョウ","town":"鹿島","town_kana":"カシマ","prefecture_code":38},"3701":{"zip_code":"7983701","prefecture":"愛媛県","prefecture_kana":"エヒメケン","city":"南宇和郡愛南町","city_kana":"ミナミウワグンアイナンチョウ","town":"柏","town_kana":"カシワ","prefecture_code":38},"3702":{"zip_code":"7983702","prefecture":"愛媛県","prefecture_kana":"エヒメケン","city":"南宇和郡愛南町","city_kana":"ミナミウワグンアイナンチョウ","town":"柏崎","town_kana":"カシワザキ","prefecture_code":38},"4219":{"zip_code":"7984219","prefecture":"愛媛県","prefecture_kana":"エヒメケン","city":"南宇和郡愛南町","city_kana":"ミナミウワグンアイナンチョウ","town":"高茂","town_kana":"コウモ","prefecture_code":38},"4203":{"zip_code":"7984203","prefecture":"愛媛県","prefecture_kana":"エヒメケン","city":"南宇和郡愛南町","city_kana":"ミナミウワグンアイナンチョウ","town":"小浦","town_kana":"コウラ","prefecture_code":38},"4201":{"zip_code":"7984201","prefecture":"愛媛県","prefecture_kana":"エヒメケン","city":"南宇和郡愛南町","city_kana":"ミナミウワグンアイナンチョウ","town":"越田","town_kana":"コシダ","prefecture_code":38},"4215":{"zip_code":"7984215","prefecture":"愛媛県","prefecture_kana":"エヒメケン","city":"南宇和郡愛南町","city_kana":"ミナミウワグンアイナンチョウ","town":"小成川","town_kana":"コナルカワ","prefecture_code":38},"4403":{"zip_code":"7984403","prefecture":"愛媛県","prefecture_kana":"エヒメケン","city":"南宇和郡愛南町","city_kana":"ミナミウワグンアイナンチョウ","town":"小山","town_kana":"コヤマ","prefecture_code":38},"4126":{"zip_code":"7984126","prefecture":"愛媛県","prefecture_kana":"エヒメケン","city":"南宇和郡愛南町","city_kana":"ミナミウワグンアイナンチョウ","town":"猿鳴","town_kana":"サルナギ","prefecture_code":38},"4212":{"zip_code":"7984212","prefecture":"愛媛県","prefecture_kana":"エヒメケン","city":"南宇和郡愛南町","city_kana":"ミナミウワグンアイナンチョウ","town":"下久家","town_kana":"シモヒサゲ","prefecture_code":38},"4131":{"zip_code":"7984131","prefecture":"愛媛県","prefecture_kana":"エヒメケン","city":"南宇和郡愛南町","city_kana":"ミナミウワグンアイナンチョウ","town":"城辺甲","town_kana":"ジョウヘンコウ","prefecture_code":38},"4132":{"zip_code":"7984132","prefecture":"愛媛県","prefecture_kana":"エヒメケン","city":"南宇和郡愛南町","city_kana":"ミナミウワグンアイナンチョウ","town":"城辺乙","town_kana":"ジョウヘンオツ","prefecture_code":38},"3703":{"zip_code":"7983703","prefecture":"愛媛県","prefecture_kana":"エヒメケン","city":"南宇和郡愛南町","city_kana":"ミナミウワグンアイナンチョウ","town":"須ノ川","town_kana":"スノカワ","prefecture_code":38},"4136":{"zip_code":"7984136","prefecture":"愛媛県","prefecture_kana":"エヒメケン","city":"南宇和郡愛南町","city_kana":"ミナミウワグンアイナンチョウ","town":"僧都","town_kana":"ソウヅ","prefecture_code":38},"4208":{"zip_code":"7984208","prefecture":"愛媛県","prefecture_kana":"エヒメケン","city":"南宇和郡愛南町","city_kana":"ミナミウワグンアイナンチョウ","town":"外泊","town_kana":"ソトドマリ","prefecture_code":38},"4124":{"zip_code":"7984124","prefecture":"愛媛県","prefecture_kana":"エヒメケン","city":"南宇和郡愛南町","city_kana":"ミナミウワグンアイナンチョウ","town":"高畑","town_kana":"タカハタ","prefecture_code":38},"4213":{"zip_code":"7984213","prefecture":"愛媛県","prefecture_kana":"エヒメケン","city":"南宇和郡愛南町","city_kana":"ミナミウワグンアイナンチョウ","town":"樽見","town_kana":"タルミ","prefecture_code":38},"4125":{"zip_code":"7984125","prefecture":"愛媛県","prefecture_kana":"エヒメケン","city":"南宇和郡愛南町","city_kana":"ミナミウワグンアイナンチョウ","town":"中浦","town_kana":"ナカウラ","prefecture_code":38},"4348":{"zip_code":"7984348","prefecture":"愛媛県","prefecture_kana":"エヒメケン","city":"南宇和郡愛南町","city_kana":"ミナミウワグンアイナンチョウ","town":"中玉","town_kana":"ナカタマ","prefecture_code":38},"4207":{"zip_code":"7984207","prefecture":"愛媛県","prefecture_kana":"エヒメケン","city":"南宇和郡愛南町","city_kana":"ミナミウワグンアイナンチョウ","town":"中泊","town_kana":"ナカドマリ","prefecture_code":38},"4404":{"zip_code":"7984404","prefecture":"愛媛県","prefecture_kana":"エヒメケン","city":"南宇和郡愛南町","city_kana":"ミナミウワグンアイナンチョウ","town":"中川","town_kana":"ナカノカワ","prefecture_code":38},"3707":{"zip_code":"7983707","prefecture":"愛媛県","prefecture_kana":"エヒメケン","city":"南宇和郡愛南町","city_kana":"ミナミウワグンアイナンチョウ","town":"魚神山","town_kana":"ナガミヤマ","prefecture_code":38},"4211":{"zip_code":"7984211","prefecture":"愛媛県","prefecture_kana":"エヒメケン","city":"南宇和郡愛南町","city_kana":"ミナミウワグンアイナンチョウ","town":"久家","town_kana":"ヒサゲ","prefecture_code":38},"4353":{"zip_code":"7984353","prefecture":"愛媛県","prefecture_kana":"エヒメケン","city":"南宇和郡愛南町","city_kana":"ミナミウワグンアイナンチョウ","town":"久良","town_kana":"ヒサヨシ","prefecture_code":38},"3704":{"zip_code":"7983704","prefecture":"愛媛県","prefecture_kana":"エヒメケン","city":"南宇和郡愛南町","city_kana":"ミナミウワグンアイナンチョウ","town":"平碆","town_kana":"ヒラバエ","prefecture_code":38},"4406":{"zip_code":"7984406","prefecture":"愛媛県","prefecture_kana":"エヒメケン","city":"南宇和郡愛南町","city_kana":"ミナミウワグンアイナンチョウ","town":"広見","town_kana":"ヒロミ","prefecture_code":38},"4342":{"zip_code":"7984342","prefecture":"愛媛県","prefecture_kana":"エヒメケン","city":"南宇和郡愛南町","city_kana":"ミナミウワグンアイナンチョウ","town":"深浦","town_kana":"フカウラ","prefecture_code":38},"4216":{"zip_code":"7984216","prefecture":"愛媛県","prefecture_kana":"エヒメケン","city":"南宇和郡愛南町","city_kana":"ミナミウワグンアイナンチョウ","town":"福浦","town_kana":"フクウラ","prefecture_code":38},"4205":{"zip_code":"7984205","prefecture":"愛媛県","prefecture_kana":"エヒメケン","city":"南宇和郡愛南町","city_kana":"ミナミウワグンアイナンチョウ","town":"船越","town_kana":"フナコシ","prefecture_code":38},"4352":{"zip_code":"7984352","prefecture":"愛媛県","prefecture_kana":"エヒメケン","city":"南宇和郡愛南町","city_kana":"ミナミウワグンアイナンチョウ","town":"古月","town_kana":"フルツキ","prefecture_code":38},"4122":{"zip_code":"7984122","prefecture":"愛媛県","prefecture_kana":"エヒメケン","city":"南宇和郡愛南町","city_kana":"ミナミウワグンアイナンチョウ","town":"防城成川","town_kana":"ボウジョウナルカワ","prefecture_code":38},"4401":{"zip_code":"7984401","prefecture":"愛媛県","prefecture_kana":"エヒメケン","city":"南宇和郡愛南町","city_kana":"ミナミウワグンアイナンチョウ","town":"正木","town_kana":"マサキ","prefecture_code":38},"4402":{"zip_code":"7984402","prefecture":"愛媛県","prefecture_kana":"エヒメケン","city":"南宇和郡愛南町","city_kana":"ミナミウワグンアイナンチョウ","town":"増田","town_kana":"マスダ","prefecture_code":38},"4101":{"zip_code":"7984101","prefecture":"愛媛県","prefecture_kana":"エヒメケン","city":"南宇和郡愛南町","city_kana":"ミナミウワグンアイナンチョウ","town":"御荘菊川","town_kana":"ミショウキクガワ","prefecture_code":38},"4103":{"zip_code":"7984103","prefecture":"愛媛県","prefecture_kana":"エヒメケン","city":"南宇和郡愛南町","city_kana":"ミナミウワグンアイナンチョウ","town":"御荘長洲","town_kana":"ミショウナガス","prefecture_code":38},"4105":{"zip_code":"7984105","prefecture":"愛媛県","prefecture_kana":"エヒメケン","city":"南宇和郡愛南町","city_kana":"ミナミウワグンアイナンチョウ","town":"御荘長月","town_kana":"ミショウナガツキ","prefecture_code":38},"4110":{"zip_code":"7984110","prefecture":"愛媛県","prefecture_kana":"エヒメケン","city":"南宇和郡愛南町","city_kana":"ミナミウワグンアイナンチョウ","town":"御荘平城","town_kana":"ミショウヒラジョウ","prefecture_code":38},"4102":{"zip_code":"7984102","prefecture":"愛媛県","prefecture_kana":"エヒメケン","city":"南宇和郡愛南町","city_kana":"ミナミウワグンアイナンチョウ","town":"御荘平山","town_kana":"ミショウヒラヤマ","prefecture_code":38},"4121":{"zip_code":"7984121","prefecture":"愛媛県","prefecture_kana":"エヒメケン","city":"南宇和郡愛南町","city_kana":"ミナミウワグンアイナンチョウ","town":"御荘深泥","town_kana":"ミショウミドロ","prefecture_code":38},"4104":{"zip_code":"7984104","prefecture":"愛媛県","prefecture_kana":"エヒメケン","city":"南宇和郡愛南町","city_kana":"ミナミウワグンアイナンチョウ","town":"御荘和口","town_kana":"ミショウワグチ","prefecture_code":38},"4405":{"zip_code":"7984405","prefecture":"愛媛県","prefecture_kana":"エヒメケン","city":"南宇和郡愛南町","city_kana":"ミナミウワグンアイナンチョウ","town":"満倉","town_kana":"ミチクラ","prefecture_code":38},"4134":{"zip_code":"7984134","prefecture":"愛媛県","prefecture_kana":"エヒメケン","city":"南宇和郡愛南町","city_kana":"ミナミウワグンアイナンチョウ","town":"緑甲","town_kana":"ミドリコウ","prefecture_code":38},"4133":{"zip_code":"7984133","prefecture":"愛媛県","prefecture_kana":"エヒメケン","city":"南宇和郡愛南町","city_kana":"ミナミウワグンアイナンチョウ","town":"緑乙","town_kana":"ミドリオツ","prefecture_code":38},"4135":{"zip_code":"7984135","prefecture":"愛媛県","prefecture_kana":"エヒメケン","city":"南宇和郡愛南町","city_kana":"ミナミウワグンアイナンチョウ","town":"緑丙","town_kana":"ミドリヘイ","prefecture_code":38},"4217":{"zip_code":"7984217","prefecture":"愛媛県","prefecture_kana":"エヒメケン","city":"南宇和郡愛南町","city_kana":"ミナミウワグンアイナンチョウ","town":"麦ケ浦","town_kana":"ムギガウラ","prefecture_code":38},"4218":{"zip_code":"7984218","prefecture":"愛媛県","prefecture_kana":"エヒメケン","city":"南宇和郡愛南町","city_kana":"ミナミウワグンアイナンチョウ","town":"武者泊","town_kana":"ムシャドマリ","prefecture_code":38},"3706":{"zip_code":"7983706","prefecture":"愛媛県","prefecture_kana":"エヒメケン","city":"南宇和郡愛南町","city_kana":"ミナミウワグンアイナンチョウ","town":"油袋","town_kana":"ユタイ","prefecture_code":38},"4202":{"zip_code":"7984202","prefecture":"愛媛県","prefecture_kana":"エヒメケン","city":"南宇和郡愛南町","city_kana":"ミナミウワグンアイナンチョウ","town":"弓立","town_kana":"ユダチ","prefecture_code":38},"4341":{"zip_code":"7984341","prefecture":"愛媛県","prefecture_kana":"エヒメケン","city":"南宇和郡愛南町","city_kana":"ミナミウワグンアイナンチョウ","town":"蓮乗寺","town_kana":"レンジョウジ","prefecture_code":38},"4349":{"zip_code":"7984349","prefecture":"愛媛県","prefecture_kana":"エヒメケン","city":"南宇和郡愛南町","city_kana":"ミナミウワグンアイナンチョウ","town":"脇本","town_kana":"ワキモト","prefecture_code":38}}