{"2433":{"zip_code":"7992433","prefecture":"愛媛県","prefecture_kana":"エヒメケン","city":"松山市","city_kana":"マツヤマシ","town":"安居島","town_kana":"アイジマ","prefecture_code":38},"2401":{"zip_code":"7992401","prefecture":"愛媛県","prefecture_kana":"エヒメケン","city":"松山市","city_kana":"マツヤマシ","town":"浅海原","town_kana":"アサナミハラ","prefecture_code":38},"2402":{"zip_code":"7992402","prefecture":"愛媛県","prefecture_kana":"エヒメケン","city":"松山市","city_kana":"マツヤマシ","town":"浅海本谷","town_kana":"アサナミホンダニ","prefecture_code":38},"2463":{"zip_code":"7992463","prefecture":"愛媛県","prefecture_kana":"エヒメケン","city":"松山市","city_kana":"マツヤマシ","town":"粟井河原","town_kana":"アワイカワラ","prefecture_code":38},"2467":{"zip_code":"7992467","prefecture":"愛媛県","prefecture_kana":"エヒメケン","city":"松山市","city_kana":"マツヤマシ","town":"磯河内","town_kana":"イソコウチ","prefecture_code":38},"2416":[{"zip_code":"7992416","prefecture":"愛媛県","prefecture_kana":"エヒメケン","city":"松山市","city_kana":"マツヤマシ","town":"猪木","town_kana":"イノキ","prefecture_code":38},{"zip_code":"7992416","prefecture":"愛媛県","prefecture_kana":"エヒメケン","city":"松山市","city_kana":"マツヤマシ","town":"滝本","town_kana":"タキモト","prefecture_code":38}],"2423":{"zip_code":"7992423","prefecture":"愛媛県","prefecture_kana":"エヒメケン","city":"松山市","city_kana":"マツヤマシ","town":"院内","town_kana":"インナイ","prefecture_code":38},"2446":{"zip_code":"7992446","prefecture":"愛媛県","prefecture_kana":"エヒメケン","city":"松山市","city_kana":"マツヤマシ","town":"牛谷","town_kana":"ウシダニ","prefecture_code":38},"2654":{"zip_code":"7992654","prefecture":"愛媛県","prefecture_kana":"エヒメケン","city":"松山市","city_kana":"マツヤマシ","town":"内宮町","town_kana":"ウチミヤチョウ","prefecture_code":38},"2655":{"zip_code":"7992655","prefecture":"愛媛県","prefecture_kana":"エヒメケン","city":"松山市","city_kana":"マツヤマシ","town":"馬木町","town_kana":"ウマキチョウ","prefecture_code":38},"2643":{"zip_code":"7992643","prefecture":"愛媛県","prefecture_kana":"エヒメケン","city":"松山市","city_kana":"マツヤマシ","town":"梅木町","town_kana":"ウメキマチ","prefecture_code":38},"2408":{"zip_code":"7992408","prefecture":"愛媛県","prefecture_kana":"エヒメケン","city":"松山市","city_kana":"マツヤマシ","town":"大浦","town_kana":"オオウラ","prefecture_code":38},"2458":{"zip_code":"7992458","prefecture":"愛媛県","prefecture_kana":"エヒメケン","city":"松山市","city_kana":"マツヤマシ","town":"大西谷","town_kana":"オオニシダニ","prefecture_code":38},"2468":{"zip_code":"7992468","prefecture":"愛媛県","prefecture_kana":"エヒメケン","city":"松山市","city_kana":"マツヤマシ","town":"小川","town_kana":"オガワ","prefecture_code":38},"2418":{"zip_code":"7992418","prefecture":"愛媛県","prefecture_kana":"エヒメケン","city":"松山市","city_kana":"マツヤマシ","town":"尾儀原","town_kana":"オギハラ","prefecture_code":38},"2410":{"zip_code":"7992410","prefecture":"愛媛県","prefecture_kana":"エヒメケン","city":"松山市","city_kana":"マツヤマシ","town":"小山田","town_kana":"オヤマダ","prefecture_code":38},"2642":{"zip_code":"7992642","prefecture":"愛媛県","prefecture_kana":"エヒメケン","city":"松山市","city_kana":"マツヤマシ","town":"恩地町","town_kana":"オンジマチ","prefecture_code":38},"2644":{"zip_code":"7992644","prefecture":"愛媛県","prefecture_kana":"エヒメケン","city":"松山市","city_kana":"マツヤマシ","town":"上総町","town_kana":"カズサマチ","prefecture_code":38},"2439":{"zip_code":"7992439","prefecture":"愛媛県","prefecture_kana":"エヒメケン","city":"松山市","city_kana":"マツヤマシ","town":"片山","town_kana":"カタヤマ","prefecture_code":38},"2661":{"zip_code":"7992661","prefecture":"愛媛県","prefecture_kana":"エヒメケン","city":"松山市","city_kana":"マツヤマシ","town":"勝岡町","town_kana":"カツオカチョウ","prefecture_code":38},"2461":{"zip_code":"7992461","prefecture":"愛媛県","prefecture_kana":"エヒメケン","city":"松山市","city_kana":"マツヤマシ","town":"鹿峰","town_kana":"カノミネ","prefecture_code":38},"2405":{"zip_code":"7992405","prefecture":"愛媛県","prefecture_kana":"エヒメケン","city":"松山市","city_kana":"マツヤマシ","town":"上難波","town_kana":"カミナンバ","prefecture_code":38},"2466":{"zip_code":"7992466","prefecture":"愛媛県","prefecture_kana":"エヒメケン","city":"松山市","city_kana":"マツヤマシ","town":"鴨之池","town_kana":"カモノイケ","prefecture_code":38},"2411":{"zip_code":"7992411","prefecture":"愛媛県","prefecture_kana":"エヒメケン","city":"松山市","city_kana":"マツヤマシ","town":"儀式","town_kana":"ギシキ","prefecture_code":38},"2454":{"zip_code":"7992454","prefecture":"愛媛県","prefecture_kana":"エヒメケン","city":"松山市","city_kana":"マツヤマシ","town":"客","town_kana":"キャク","prefecture_code":38},"2462":{"zip_code":"7992462","prefecture":"愛媛県","prefecture_kana":"エヒメケン","city":"松山市","city_kana":"マツヤマシ","town":"久保","town_kana":"クボ","prefecture_code":38},"2445":{"zip_code":"7992445","prefecture":"愛媛県","prefecture_kana":"エヒメケン","city":"松山市","city_kana":"マツヤマシ","town":"河野高山","town_kana":"コウノコヤマ","prefecture_code":38},"2438":{"zip_code":"7992438","prefecture":"愛媛県","prefecture_kana":"エヒメケン","city":"松山市","city_kana":"マツヤマシ","town":"河野中須賀","town_kana":"コウノナカスガ","prefecture_code":38},"2436":{"zip_code":"7992436","prefecture":"愛媛県","prefecture_kana":"エヒメケン","city":"松山市","city_kana":"マツヤマシ","town":"河野別府","town_kana":"コウノベップ","prefecture_code":38},"2469":{"zip_code":"7992469","prefecture":"愛媛県","prefecture_kana":"エヒメケン","city":"松山市","city_kana":"マツヤマシ","town":"光洋台","town_kana":"コウヨウダイ","prefecture_code":38},"2451":{"zip_code":"7992451","prefecture":"愛媛県","prefecture_kana":"エヒメケン","city":"松山市","city_kana":"マツヤマシ","town":"小川谷","town_kana":"コガダニ","prefecture_code":38},"2645":{"zip_code":"7992645","prefecture":"愛媛県","prefecture_kana":"エヒメケン","city":"松山市","city_kana":"マツヤマシ","town":"小屋町","town_kana":"コヤマチ","prefecture_code":38},"2653":{"zip_code":"7992653","prefecture":"愛媛県","prefecture_kana":"エヒメケン","city":"松山市","city_kana":"マツヤマシ","town":"権現町","town_kana":"ゴンゲンチョウ","prefecture_code":38},"2417":{"zip_code":"7992417","prefecture":"愛媛県","prefecture_kana":"エヒメケン","city":"松山市","city_kana":"マツヤマシ","town":"才之原","town_kana":"サイノハラ","prefecture_code":38},"2447":{"zip_code":"7992447","prefecture":"愛媛県","prefecture_kana":"エヒメケン","city":"松山市","city_kana":"マツヤマシ","town":"佐古","town_kana":"サコ","prefecture_code":38},"2415":{"zip_code":"7992415","prefecture":"愛媛県","prefecture_kana":"エヒメケン","city":"松山市","city_kana":"マツヤマシ","town":"猿川","town_kana":"サルカワ","prefecture_code":38},"2419":{"zip_code":"7992419","prefecture":"愛媛県","prefecture_kana":"エヒメケン","city":"松山市","city_kana":"マツヤマシ","town":"猿川原","town_kana":"サルカワバラ","prefecture_code":38},"2407":{"zip_code":"7992407","prefecture":"愛媛県","prefecture_kana":"エヒメケン","city":"松山市","city_kana":"マツヤマシ","town":"下難波","town_kana":"シモナンバ","prefecture_code":38},"2404":{"zip_code":"7992404","prefecture":"愛媛県","prefecture_kana":"エヒメケン","city":"松山市","city_kana":"マツヤマシ","town":"庄","town_kana":"ショウ","prefecture_code":38},"2647":{"zip_code":"7992647","prefecture":"愛媛県","prefecture_kana":"エヒメケン","city":"松山市","city_kana":"マツヤマシ","town":"城山町","town_kana":"ジョウザンマチ","prefecture_code":38},"2412":{"zip_code":"7992412","prefecture":"愛媛県","prefecture_kana":"エヒメケン","city":"松山市","city_kana":"マツヤマシ","town":"庄府","town_kana":"ショウブ","prefecture_code":38},"2442":{"zip_code":"7992442","prefecture":"愛媛県","prefecture_kana":"エヒメケン","city":"松山市","city_kana":"マツヤマシ","town":"常保免","town_kana":"ジョウホウメン","prefecture_code":38},"2646":{"zip_code":"7992646","prefecture":"愛媛県","prefecture_kana":"エヒメケン","city":"松山市","city_kana":"マツヤマシ","town":"神次郎町","town_kana":"ジンジロウマチ","prefecture_code":38},"2648":{"zip_code":"7992648","prefecture":"愛媛県","prefecture_kana":"エヒメケン","city":"松山市","city_kana":"マツヤマシ","town":"菅沢町","town_kana":"スゲザワマチ","prefecture_code":38},"2460":{"zip_code":"7992460","prefecture":"愛媛県","prefecture_kana":"エヒメケン","city":"松山市","city_kana":"マツヤマシ","town":"苞木","town_kana":"スボキ","prefecture_code":38},"2443":{"zip_code":"7992443","prefecture":"愛媛県","prefecture_kana":"エヒメケン","city":"松山市","city_kana":"マツヤマシ","town":"善応寺","town_kana":"ゼンオウジ","prefecture_code":38},"2662":{"zip_code":"7992662","prefecture":"愛媛県","prefecture_kana":"エヒメケン","city":"松山市","city_kana":"マツヤマシ","town":"太山寺町","town_kana":"タイサンジチョウ","prefecture_code":38},"2422":{"zip_code":"7992422","prefecture":"愛媛県","prefecture_kana":"エヒメケン","city":"松山市","city_kana":"マツヤマシ","town":"高田","town_kana":"タカタ","prefecture_code":38},"2413":{"zip_code":"7992413","prefecture":"愛媛県","prefecture_kana":"エヒメケン","city":"松山市","city_kana":"マツヤマシ","town":"立岩米之野","town_kana":"タテイワコメノノ","prefecture_code":38},"2414":{"zip_code":"7992414","prefecture":"愛媛県","prefecture_kana":"エヒメケン","city":"松山市","city_kana":"マツヤマシ","town":"立岩中村","town_kana":"タテイワナカムラ","prefecture_code":38},"2455":{"zip_code":"7992455","prefecture":"愛媛県","prefecture_kana":"エヒメケン","city":"松山市","city_kana":"マツヤマシ","town":"常竹","town_kana":"ツネタケ","prefecture_code":38},"2432":{"zip_code":"7992432","prefecture":"愛媛県","prefecture_kana":"エヒメケン","city":"松山市","city_kana":"マツヤマシ","town":"土手内","town_kana":"ドテウチ","prefecture_code":38},"2406":{"zip_code":"7992406","prefecture":"愛媛県","prefecture_kana":"エヒメケン","city":"松山市","city_kana":"マツヤマシ","town":"中通","town_kana":"ナカドオリ","prefecture_code":38},"2426":{"zip_code":"7992426","prefecture":"愛媛県","prefecture_kana":"エヒメケン","city":"松山市","city_kana":"マツヤマシ","town":"中西内","town_kana":"ナカニシウチ","prefecture_code":38},"2425":{"zip_code":"7992425","prefecture":"愛媛県","prefecture_kana":"エヒメケン","city":"松山市","city_kana":"マツヤマシ","town":"中西外","town_kana":"ナカニシソト","prefecture_code":38},"2437":{"zip_code":"7992437","prefecture":"愛媛県","prefecture_kana":"エヒメケン","city":"松山市","city_kana":"マツヤマシ","town":"夏目","town_kana":"ナツメ","prefecture_code":38},"2457":{"zip_code":"7992457","prefecture":"愛媛県","prefecture_kana":"エヒメケン","city":"松山市","city_kana":"マツヤマシ","town":"西谷","town_kana":"ニシダニ","prefecture_code":38},"2403":{"zip_code":"7992403","prefecture":"愛媛県","prefecture_kana":"エヒメケン","city":"松山市","city_kana":"マツヤマシ","town":"萩原","town_kana":"ハギワラ","prefecture_code":38},"2424":{"zip_code":"7992424","prefecture":"愛媛県","prefecture_kana":"エヒメケン","city":"松山市","city_kana":"マツヤマシ","town":"八反地","town_kana":"ハッタンジ","prefecture_code":38},"2649":{"zip_code":"7992649","prefecture":"愛媛県","prefecture_kana":"エヒメケン","city":"松山市","city_kana":"マツヤマシ","town":"東大栗町","town_kana":"ヒガシオオグリチョウ","prefecture_code":38},"2452":{"zip_code":"7992452","prefecture":"愛媛県","prefecture_kana":"エヒメケン","city":"松山市","city_kana":"マツヤマシ","town":"平林","town_kana":"ヒラバヤシ","prefecture_code":38},"2652":{"zip_code":"7992652","prefecture":"愛媛県","prefecture_kana":"エヒメケン","city":"松山市","city_kana":"マツヤマシ","town":"福角町","town_kana":"フクズミチョウ","prefecture_code":38},"2435":{"zip_code":"7992435","prefecture":"愛媛県","prefecture_kana":"エヒメケン","city":"松山市","city_kana":"マツヤマシ","town":"府中","town_kana":"フチュウ","prefecture_code":38},"2453":{"zip_code":"7992453","prefecture":"愛媛県","prefecture_kana":"エヒメケン","city":"松山市","city_kana":"マツヤマシ","town":"麓","town_kana":"フモト","prefecture_code":38},"2431":{"zip_code":"7992431","prefecture":"愛媛県","prefecture_kana":"エヒメケン","city":"松山市","city_kana":"マツヤマシ","town":"北条","town_kana":"ホウジョウ","prefecture_code":38},"2430":{"zip_code":"7992430","prefecture":"愛媛県","prefecture_kana":"エヒメケン","city":"松山市","city_kana":"マツヤマシ","town":"北条辻","town_kana":"ホウジョウツジ","prefecture_code":38},"2651":{"zip_code":"7992651","prefecture":"愛媛県","prefecture_kana":"エヒメケン","city":"松山市","city_kana":"マツヤマシ","town":"堀江町","town_kana":"ホリエチョウ","prefecture_code":38},"2456":{"zip_code":"7992456","prefecture":"愛媛県","prefecture_kana":"エヒメケン","city":"松山市","city_kana":"マツヤマシ","town":"本谷","town_kana":"ホンダニ","prefecture_code":38},"2421":{"zip_code":"7992421","prefecture":"愛媛県","prefecture_kana":"エヒメケン","city":"松山市","city_kana":"マツヤマシ","town":"正岡神田","town_kana":"マサオカカンダ","prefecture_code":38},"2441":{"zip_code":"7992441","prefecture":"愛媛県","prefecture_kana":"エヒメケン","city":"松山市","city_kana":"マツヤマシ","town":"宮内","town_kana":"ミヤウチ","prefecture_code":38},"2464":{"zip_code":"7992464","prefecture":"愛媛県","prefecture_kana":"エヒメケン","city":"松山市","city_kana":"マツヤマシ","town":"安岡","town_kana":"ヤスオカ","prefecture_code":38},"2641":{"zip_code":"7992641","prefecture":"愛媛県","prefecture_kana":"エヒメケン","city":"松山市","city_kana":"マツヤマシ","town":"柳谷町","town_kana":"ヤナイダニマチ","prefecture_code":38},"2434":{"zip_code":"7992434","prefecture":"愛媛県","prefecture_kana":"エヒメケン","city":"松山市","city_kana":"マツヤマシ","town":"柳原","town_kana":"ヤナギハラ","prefecture_code":38},"2444":{"zip_code":"7992444","prefecture":"愛媛県","prefecture_kana":"エヒメケン","city":"松山市","city_kana":"マツヤマシ","town":"横谷","town_kana":"ヨコダニ","prefecture_code":38},"2656":{"zip_code":"7992656","prefecture":"愛媛県","prefecture_kana":"エヒメケン","city":"松山市","city_kana":"マツヤマシ","town":"和気町","town_kana":"ワケマチ","prefecture_code":38},"2465":{"zip_code":"7992465","prefecture":"愛媛県","prefecture_kana":"エヒメケン","city":"松山市","city_kana":"マツヤマシ","town":"和田","town_kana":"ワダ","prefecture_code":38},"1607":{"zip_code":"7991607","prefecture":"愛媛県","prefecture_kana":"エヒメケン","city":"今治市","city_kana":"イマバリシ","town":"朝倉上","town_kana":"アサクラカミ","prefecture_code":38},"1604":{"zip_code":"7991604","prefecture":"愛媛県","prefecture_kana":"エヒメケン","city":"今治市","city_kana":"イマバリシ","town":"朝倉北","town_kana":"アサクラキタ","prefecture_code":38},"1603":{"zip_code":"7991603","prefecture":"愛媛県","prefecture_kana":"エヒメケン","city":"今治市","city_kana":"イマバリシ","town":"朝倉下","town_kana":"アサクラシモ","prefecture_code":38},"1606":{"zip_code":"7991606","prefecture":"愛媛県","prefecture_kana":"エヒメケン","city":"今治市","city_kana":"イマバリシ","town":"朝倉南乙","town_kana":"アサクラミナミオツ","prefecture_code":38},"1605":{"zip_code":"7991605","prefecture":"愛媛県","prefecture_kana":"エヒメケン","city":"今治市","city_kana":"イマバリシ","town":"朝倉南甲","town_kana":"アサクラミナミコウ","prefecture_code":38},"2116":{"zip_code":"7992116","prefecture":"愛媛県","prefecture_kana":"エヒメケン","city":"今治市","city_kana":"イマバリシ","town":"内堀","town_kana":"ウチボリ","prefecture_code":38},"2123":{"zip_code":"7992123","prefecture":"愛媛県","prefecture_kana":"エヒメケン","city":"今治市","city_kana":"イマバリシ","town":"馬島","town_kana":"ウマシマ","prefecture_code":38},"2204":{"zip_code":"7992204","prefecture":"愛媛県","prefecture_kana":"エヒメケン","city":"今治市","city_kana":"イマバリシ","town":"大西町大井浜","town_kana":"オオニシチョウオオイハマ","prefecture_code":38},"2201":{"zip_code":"7992201","prefecture":"愛媛県","prefecture_kana":"エヒメケン","city":"今治市","city_kana":"イマバリシ","town":"大西町九王","town_kana":"オオニシチョウクオウ","prefecture_code":38},"2202":{"zip_code":"7992202","prefecture":"愛媛県","prefecture_kana":"エヒメケン","city":"今治市","city_kana":"イマバリシ","town":"大西町紺原","town_kana":"オオニシチョウコンバラ","prefecture_code":38},"2203":{"zip_code":"7992203","prefecture":"愛媛県","prefecture_kana":"エヒメケン","city":"今治市","city_kana":"イマバリシ","town":"大西町新町","town_kana":"オオニシチョウシンチョウ","prefecture_code":38},"2209":{"zip_code":"7992209","prefecture":"愛媛県","prefecture_kana":"エヒメケン","city":"今治市","city_kana":"イマバリシ","town":"大西町別府","town_kana":"オオニシチョウベフ","prefecture_code":38},"2208":{"zip_code":"7992208","prefecture":"愛媛県","prefecture_kana":"エヒメケン","city":"今治市","city_kana":"イマバリシ","town":"大西町星浦","town_kana":"オオニシチョウホシノウラ","prefecture_code":38},"2205":{"zip_code":"7992205","prefecture":"愛媛県","prefecture_kana":"エヒメケン","city":"今治市","city_kana":"イマバリシ","town":"大西町宮脇","town_kana":"オオニシチョウミヤワキ","prefecture_code":38},"2207":{"zip_code":"7992207","prefecture":"愛媛県","prefecture_kana":"エヒメケン","city":"今治市","city_kana":"イマバリシ","town":"大西町山之内","town_kana":"オオニシチョウヤマノウチ","prefecture_code":38},"2206":{"zip_code":"7992206","prefecture":"愛媛県","prefecture_kana":"エヒメケン","city":"今治市","city_kana":"イマバリシ","town":"大西町脇","town_kana":"オオニシチョウワキ","prefecture_code":38},"1511":{"zip_code":"7991511","prefecture":"愛媛県","prefecture_kana":"エヒメケン","city":"今治市","city_kana":"イマバリシ","town":"上徳","town_kana":"カミトク","prefecture_code":38},"1531":{"zip_code":"7991531","prefecture":"愛媛県","prefecture_kana":"エヒメケン","city":"今治市","city_kana":"イマバリシ","town":"唐子台東","town_kana":"カラコダイヒガシ","prefecture_code":38},"1532":{"zip_code":"7991532","prefecture":"愛媛県","prefecture_kana":"エヒメケン","city":"今治市","city_kana":"イマバリシ","town":"唐子台西","town_kana":"カラコダイニシ","prefecture_code":38},"2304":{"zip_code":"7992304","prefecture":"愛媛県","prefecture_kana":"エヒメケン","city":"今治市","city_kana":"イマバリシ","town":"菊間町池原","town_kana":"キクマチョウイケノハラ","prefecture_code":38},"2307":{"zip_code":"7992307","prefecture":"愛媛県","prefecture_kana":"エヒメケン","city":"今治市","city_kana":"イマバリシ","town":"菊間町川上","town_kana":"キクマチョウカワカミ","prefecture_code":38},"2306":{"zip_code":"7992306","prefecture":"愛媛県","prefecture_kana":"エヒメケン","city":"今治市","city_kana":"イマバリシ","town":"菊間町河之内","town_kana":"キクマチョウカワノウチ","prefecture_code":38},"2309":{"zip_code":"7992309","prefecture":"愛媛県","prefecture_kana":"エヒメケン","city":"今治市","city_kana":"イマバリシ","town":"菊間町高田","town_kana":"キクマチョウコウダ","prefecture_code":38},"2301":{"zip_code":"7992301","prefecture":"愛媛県","prefecture_kana":"エヒメケン","city":"今治市","city_kana":"イマバリシ","town":"菊間町佐方","town_kana":"キクマチョウサガタ","prefecture_code":38},"2302":{"zip_code":"7992302","prefecture":"愛媛県","prefecture_kana":"エヒメケン","city":"今治市","city_kana":"イマバリシ","town":"菊間町種","town_kana":"キクマチョウタネ","prefecture_code":38},"2312":{"zip_code":"7992312","prefecture":"愛媛県","prefecture_kana":"エヒメケン","city":"今治市","city_kana":"イマバリシ","town":"菊間町田之尻","town_kana":"キクマチョウタノシリ","prefecture_code":38},"2310":{"zip_code":"7992310","prefecture":"愛媛県","prefecture_kana":"エヒメケン","city":"今治市","city_kana":"イマバリシ","town":"菊間町長坂","town_kana":"キクマチョウナガサカ","prefecture_code":38},"2308":{"zip_code":"7992308","prefecture":"愛媛県","prefecture_kana":"エヒメケン","city":"今治市","city_kana":"イマバリシ","town":"菊間町中川","town_kana":"キクマチョウナカノカワ","prefecture_code":38},"2311":{"zip_code":"7992311","prefecture":"愛媛県","prefecture_kana":"エヒメケン","city":"今治市","city_kana":"イマバリシ","town":"菊間町西山","town_kana":"キクマチョウニシヤマ","prefecture_code":38},"2303":{"zip_code":"7992303","prefecture":"愛媛県","prefecture_kana":"エヒメケン","city":"今治市","city_kana":"イマバリシ","town":"菊間町浜","town_kana":"キクマチョウハマ","prefecture_code":38},"2305":{"zip_code":"7992305","prefecture":"愛媛県","prefecture_kana":"エヒメケン","city":"今治市","city_kana":"イマバリシ","town":"菊間町松尾","town_kana":"キクマチョウマツオ","prefecture_code":38},"1502":{"zip_code":"7991502","prefecture":"愛媛県","prefecture_kana":"エヒメケン","city":"今治市","city_kana":"イマバリシ","town":"喜田村（丁目）","town_kana":"キタムラ(チョウメ)","prefecture_code":38},"1501":{"zip_code":"7991501","prefecture":"愛媛県","prefecture_kana":"エヒメケン","city":"今治市","city_kana":"イマバリシ","town":"喜田村（番地）","town_kana":"キタムラ(バンチ)","prefecture_code":38},"2122":{"zip_code":"7992122","prefecture":"愛媛県","prefecture_kana":"エヒメケン","city":"今治市","city_kana":"イマバリシ","town":"来島（小島）","town_kana":"クルシマ(オシマ)","prefecture_code":38},"2121":{"zip_code":"7992121","prefecture":"愛媛県","prefecture_kana":"エヒメケン","city":"今治市","city_kana":"イマバリシ","town":"来島（その他）","town_kana":"クルシマ(ソノタ)","prefecture_code":38},"1523":{"zip_code":"7991523","prefecture":"愛媛県","prefecture_kana":"エヒメケン","city":"今治市","city_kana":"イマバリシ","town":"郷桜井","town_kana":"ゴウザクライ","prefecture_code":38},"2111":{"zip_code":"7992111","prefecture":"愛媛県","prefecture_kana":"エヒメケン","city":"今治市","city_kana":"イマバリシ","town":"小浦町","town_kana":"コウラチョウ","prefecture_code":38},"1533":{"zip_code":"7991533","prefecture":"愛媛県","prefecture_kana":"エヒメケン","city":"今治市","city_kana":"イマバリシ","town":"国分","town_kana":"コクブ","prefecture_code":38},"1601":{"zip_code":"7991601","prefecture":"愛媛県","prefecture_kana":"エヒメケン","city":"今治市","city_kana":"イマバリシ","town":"古谷","town_kana":"コヤ","prefecture_code":38},"1522":{"zip_code":"7991522","prefecture":"愛媛県","prefecture_kana":"エヒメケン","city":"今治市","city_kana":"イマバリシ","town":"桜井（丁目）","town_kana":"サクライ(チョウメ)","prefecture_code":38},"1524":{"zip_code":"7991524","prefecture":"愛媛県","prefecture_kana":"エヒメケン","city":"今治市","city_kana":"イマバリシ","town":"桜井（番地）","town_kana":"サクライ(バンチ)","prefecture_code":38},"1534":{"zip_code":"7991534","prefecture":"愛媛県","prefecture_kana":"エヒメケン","city":"今治市","city_kana":"イマバリシ","town":"桜井団地","town_kana":"サクライダンチ","prefecture_code":38},"2117":{"zip_code":"7992117","prefecture":"愛媛県","prefecture_kana":"エヒメケン","city":"今治市","city_kana":"イマバリシ","town":"地堀","town_kana":"ジボリ","prefecture_code":38},"2114":{"zip_code":"7992114","prefecture":"愛媛県","prefecture_kana":"エヒメケン","city":"今治市","city_kana":"イマバリシ","town":"杣田","town_kana":"ソマダ","prefecture_code":38},"1512":{"zip_code":"7991512","prefecture":"愛媛県","prefecture_kana":"エヒメケン","city":"今治市","city_kana":"イマバリシ","town":"高市","town_kana":"タカイチ","prefecture_code":38},"2113":{"zip_code":"7992113","prefecture":"愛媛県","prefecture_kana":"エヒメケン","city":"今治市","city_kana":"イマバリシ","town":"高部","town_kana":"タカベ","prefecture_code":38},"1536":{"zip_code":"7991536","prefecture":"愛媛県","prefecture_kana":"エヒメケン","city":"今治市","city_kana":"イマバリシ","town":"旦","town_kana":"ダン","prefecture_code":38},"1503":{"zip_code":"7991503","prefecture":"愛媛県","prefecture_kana":"エヒメケン","city":"今治市","city_kana":"イマバリシ","town":"富田新港","town_kana":"トミタシンコウ","prefecture_code":38},"1527":{"zip_code":"7991527","prefecture":"愛媛県","prefecture_kana":"エヒメケン","city":"今治市","city_kana":"イマバリシ","town":"長沢","town_kana":"ナガサワ","prefecture_code":38},"2115":{"zip_code":"7992115","prefecture":"愛媛県","prefecture_kana":"エヒメケン","city":"今治市","city_kana":"イマバリシ","town":"中堀","town_kana":"ナカボリ","prefecture_code":38},"2110":[{"zip_code":"7992110","prefecture":"愛媛県","prefecture_kana":"エヒメケン","city":"今治市","city_kana":"イマバリシ","town":"波方町大浦","town_kana":"ナミカタチョウオオウラ","prefecture_code":38},{"zip_code":"7992110","prefecture":"愛媛県","prefecture_kana":"エヒメケン","city":"今治市","city_kana":"イマバリシ","town":"波方町郷","town_kana":"ナミカタチョウゴウ","prefecture_code":38}],"2108":{"zip_code":"7992108","prefecture":"愛媛県","prefecture_kana":"エヒメケン","city":"今治市","city_kana":"イマバリシ","town":"波方町岡","town_kana":"ナミカタチョウオカ","prefecture_code":38},"2103":{"zip_code":"7992103","prefecture":"愛媛県","prefecture_kana":"エヒメケン","city":"今治市","city_kana":"イマバリシ","town":"波方町小部","town_kana":"ナミカタチョウオベ","prefecture_code":38},"2101":{"zip_code":"7992101","prefecture":"愛媛県","prefecture_kana":"エヒメケン","city":"今治市","city_kana":"イマバリシ","town":"波方町波方","town_kana":"ナミカタチョウナミカタ","prefecture_code":38},"2107":{"zip_code":"7992107","prefecture":"愛媛県","prefecture_kana":"エヒメケン","city":"今治市","city_kana":"イマバリシ","town":"波方町西浦","town_kana":"ナミカタチョウニシウラ","prefecture_code":38},"2102":{"zip_code":"7992102","prefecture":"愛媛県","prefecture_kana":"エヒメケン","city":"今治市","city_kana":"イマバリシ","town":"波方町樋口","town_kana":"ナミカタチョウヒノクチ","prefecture_code":38},"2105":{"zip_code":"7992105","prefecture":"愛媛県","prefecture_kana":"エヒメケン","city":"今治市","city_kana":"イマバリシ","town":"波方町馬刀潟","town_kana":"ナミカタチョウマテガタ","prefecture_code":38},"2104":{"zip_code":"7992104","prefecture":"愛媛県","prefecture_kana":"エヒメケン","city":"今治市","city_kana":"イマバリシ","town":"波方町宮崎","town_kana":"ナミカタチョウミヤザキ","prefecture_code":38},"2106":{"zip_code":"7992106","prefecture":"愛媛県","prefecture_kana":"エヒメケン","city":"今治市","city_kana":"イマバリシ","town":"波方町森上","town_kana":"ナミカタチョウモリアゲ","prefecture_code":38},"2109":{"zip_code":"7992109","prefecture":"愛媛県","prefecture_kana":"エヒメケン","city":"今治市","city_kana":"イマバリシ","town":"波方町養老","town_kana":"ナミカタチョウヨウロウ","prefecture_code":38},"1535":{"zip_code":"7991535","prefecture":"愛媛県","prefecture_kana":"エヒメケン","city":"今治市","city_kana":"イマバリシ","town":"登畑","town_kana":"ノボリバタ","prefecture_code":38},"1504":{"zip_code":"7991504","prefecture":"愛媛県","prefecture_kana":"エヒメケン","city":"今治市","city_kana":"イマバリシ","town":"拝志","town_kana":"ハイシ","prefecture_code":38},"2112":{"zip_code":"7992112","prefecture":"愛媛県","prefecture_kana":"エヒメケン","city":"今治市","city_kana":"イマバリシ","town":"波止浜（丁目）","town_kana":"ハシハマ(チョウメ)","prefecture_code":38},"2118":{"zip_code":"7992118","prefecture":"愛媛県","prefecture_kana":"エヒメケン","city":"今治市","city_kana":"イマバリシ","town":"波止浜（番地）","town_kana":"ハシハマ(バンチ)","prefecture_code":38},"1506":{"zip_code":"7991506","prefecture":"愛媛県","prefecture_kana":"エヒメケン","city":"今治市","city_kana":"イマバリシ","town":"東村（丁目）","town_kana":"ヒガシムラ(チョウメ)","prefecture_code":38},"1505":{"zip_code":"7991505","prefecture":"愛媛県","prefecture_kana":"エヒメケン","city":"今治市","city_kana":"イマバリシ","town":"東村（番地）","town_kana":"ヒガシムラ(バンチ)","prefecture_code":38},"1507":{"zip_code":"7991507","prefecture":"愛媛県","prefecture_kana":"エヒメケン","city":"今治市","city_kana":"イマバリシ","town":"東村南","town_kana":"ヒガシムラミナミ","prefecture_code":38},"1521":{"zip_code":"7991521","prefecture":"愛媛県","prefecture_kana":"エヒメケン","city":"今治市","city_kana":"イマバリシ","town":"古国分","town_kana":"フルコクブ","prefecture_code":38},"1526":{"zip_code":"7991526","prefecture":"愛媛県","prefecture_kana":"エヒメケン","city":"今治市","city_kana":"イマバリシ","town":"孫兵衛作","town_kana":"マゴベエサク","prefecture_code":38},"1514":{"zip_code":"7991514","prefecture":"愛媛県","prefecture_kana":"エヒメケン","city":"今治市","city_kana":"イマバリシ","town":"町谷","town_kana":"マチヤ","prefecture_code":38},"1513":{"zip_code":"7991513","prefecture":"愛媛県","prefecture_kana":"エヒメケン","city":"今治市","city_kana":"イマバリシ","town":"松木","town_kana":"マツギ","prefecture_code":38},"1537":{"zip_code":"7991537","prefecture":"愛媛県","prefecture_kana":"エヒメケン","city":"今治市","city_kana":"イマバリシ","town":"宮ケ崎","town_kana":"ミヤガザキ","prefecture_code":38},"1602":{"zip_code":"7991602","prefecture":"愛媛県","prefecture_kana":"エヒメケン","city":"今治市","city_kana":"イマバリシ","town":"山口","town_kana":"ヤマグチ","prefecture_code":38},"1525":{"zip_code":"7991525","prefecture":"愛媛県","prefecture_kana":"エヒメケン","city":"今治市","city_kana":"イマバリシ","town":"湯ノ浦","town_kana":"ユノウラ","prefecture_code":38},"3763":{"zip_code":"7993763","prefecture":"愛媛県","prefecture_kana":"エヒメケン","city":"宇和島市","city_kana":"ウワジマシ","town":"吉田町浅川","town_kana":"ヨシダチョウアサカワ","prefecture_code":38},"3704":{"zip_code":"7993704","prefecture":"愛媛県","prefecture_kana":"エヒメケン","city":"宇和島市","city_kana":"ウワジマシ","town":"吉田町魚棚","town_kana":"ヨシダチョウウオタナ","prefecture_code":38},"3706":{"zip_code":"7993706","prefecture":"愛媛県","prefecture_kana":"エヒメケン","city":"宇和島市","city_kana":"ウワジマシ","town":"吉田町裡町","town_kana":"ヨシダチョウウラマチ","prefecture_code":38},"3751":{"zip_code":"7993751","prefecture":"愛媛県","prefecture_kana":"エヒメケン","city":"宇和島市","city_kana":"ウワジマシ","town":"吉田町沖村","town_kana":"ヨシダチョウオキムラ","prefecture_code":38},"3772":{"zip_code":"7993772","prefecture":"愛媛県","prefecture_kana":"エヒメケン","city":"宇和島市","city_kana":"ウワジマシ","town":"吉田町奥浦","town_kana":"ヨシダチョウオクウラ","prefecture_code":38},"3752":{"zip_code":"7993752","prefecture":"愛媛県","prefecture_kana":"エヒメケン","city":"宇和島市","city_kana":"ウワジマシ","town":"吉田町河内","town_kana":"ヨシダチョウカワチ","prefecture_code":38},"3701":{"zip_code":"7993701","prefecture":"愛媛県","prefecture_kana":"エヒメケン","city":"宇和島市","city_kana":"ウワジマシ","town":"吉田町北小路","town_kana":"ヨシダチョウキタコウジ","prefecture_code":38},"3741":{"zip_code":"7993741","prefecture":"愛媛県","prefecture_kana":"エヒメケン","city":"宇和島市","city_kana":"ウワジマシ","town":"吉田町白浦","town_kana":"ヨシダチョウシロウラ","prefecture_code":38},"3730":{"zip_code":"7993730","prefecture":"愛媛県","prefecture_kana":"エヒメケン","city":"宇和島市","city_kana":"ウワジマシ","town":"吉田町立間","town_kana":"ヨシダチョウタチマ","prefecture_code":38},"3710":{"zip_code":"7993710","prefecture":"愛媛県","prefecture_kana":"エヒメケン","city":"宇和島市","city_kana":"ウワジマシ","town":"吉田町立間尻","town_kana":"ヨシダチョウタチマジリ","prefecture_code":38},"3720":{"zip_code":"7993720","prefecture":"愛媛県","prefecture_kana":"エヒメケン","city":"宇和島市","city_kana":"ウワジマシ","town":"吉田町知永","town_kana":"ヨシダチョウチナガ","prefecture_code":38},"3707":{"zip_code":"7993707","prefecture":"愛媛県","prefecture_kana":"エヒメケン","city":"宇和島市","city_kana":"ウワジマシ","town":"吉田町鶴間（御殿内）","town_kana":"ヨシダチョウツルマ(ゴテンウチ)","prefecture_code":38},"3762":{"zip_code":"7993762","prefecture":"愛媛県","prefecture_kana":"エヒメケン","city":"宇和島市","city_kana":"ウワジマシ","town":"吉田町鶴間（鶴間団地）","town_kana":"ヨシダチョウツルマ(ツルマダンチ)","prefecture_code":38},"3761":{"zip_code":"7993761","prefecture":"愛媛県","prefecture_kana":"エヒメケン","city":"宇和島市","city_kana":"ウワジマシ","town":"吉田町鶴間（その他）","town_kana":"ヨシダチョウツルマ(ソノタ)","prefecture_code":38},"3771":{"zip_code":"7993771","prefecture":"愛媛県","prefecture_kana":"エヒメケン","city":"宇和島市","city_kana":"ウワジマシ","town":"吉田町南君","town_kana":"ヨシダチョウナギミ","prefecture_code":38},"3702":{"zip_code":"7993702","prefecture":"愛媛県","prefecture_kana":"エヒメケン","city":"宇和島市","city_kana":"ウワジマシ","town":"吉田町西小路","town_kana":"ヨシダチョウニシコウジ","prefecture_code":38},"3703":{"zip_code":"7993703","prefecture":"愛媛県","prefecture_kana":"エヒメケン","city":"宇和島市","city_kana":"ウワジマシ","town":"吉田町東小路","town_kana":"ヨシダチョウヒガシコウジ","prefecture_code":38},"3743":{"zip_code":"7993743","prefecture":"愛媛県","prefecture_kana":"エヒメケン","city":"宇和島市","city_kana":"ウワジマシ","town":"吉田町深浦","town_kana":"ヨシダチョウフカウラ","prefecture_code":38},"3742":{"zip_code":"7993742","prefecture":"愛媛県","prefecture_kana":"エヒメケン","city":"宇和島市","city_kana":"ウワジマシ","town":"吉田町法花津","town_kana":"ヨシダチョウホケヅ","prefecture_code":38},"3705":{"zip_code":"7993705","prefecture":"愛媛県","prefecture_kana":"エヒメケン","city":"宇和島市","city_kana":"ウワジマシ","town":"吉田町本町","town_kana":"ヨシダチョウホンマチ","prefecture_code":38},"0650":{"zip_code":"7990650","prefecture":"愛媛県","prefecture_kana":"エヒメケン","city":"新居浜市","city_kana":"ニイハマシ","town":"別子山","town_kana":"ベッシヤマ","prefecture_code":38},"1345":{"zip_code":"7991345","prefecture":"愛媛県","prefecture_kana":"エヒメケン","city":"西条市","city_kana":"サイジョウシ","town":"明理川","town_kana":"アカリガワ","prefecture_code":38},"1364":{"zip_code":"7991364","prefecture":"愛媛県","prefecture_kana":"エヒメケン","city":"西条市","city_kana":"サイジョウシ","town":"石田","town_kana":"イシダ","prefecture_code":38},"1335":{"zip_code":"7991335","prefecture":"愛媛県","prefecture_kana":"エヒメケン","city":"西条市","city_kana":"サイジョウシ","town":"石延","town_kana":"イシノベ","prefecture_code":38},"1362":{"zip_code":"7991362","prefecture":"愛媛県","prefecture_kana":"エヒメケン","city":"西条市","city_kana":"サイジョウシ","town":"今在家","town_kana":"イマザイケ","prefecture_code":38},"1344":{"zip_code":"7991344","prefecture":"愛媛県","prefecture_kana":"エヒメケン","city":"西条市","city_kana":"サイジョウシ","town":"円海寺","town_kana":"エンカイジ","prefecture_code":38},"1342":{"zip_code":"7991342","prefecture":"愛媛県","prefecture_kana":"エヒメケン","city":"西条市","city_kana":"サイジョウシ","town":"大新田","town_kana":"オオシンデン","prefecture_code":38},"1312":{"zip_code":"7991312","prefecture":"愛媛県","prefecture_kana":"エヒメケン","city":"西条市","city_kana":"サイジョウシ","town":"大野","town_kana":"オオノ","prefecture_code":38},"1336":{"zip_code":"7991336","prefecture":"愛媛県","prefecture_kana":"エヒメケン","city":"西条市","city_kana":"サイジョウシ","town":"上市","town_kana":"カミイチ","prefecture_code":38},"1314":{"zip_code":"7991314","prefecture":"愛媛県","prefecture_kana":"エヒメケン","city":"西条市","city_kana":"サイジョウシ","town":"河之内","town_kana":"カワノウチ","prefecture_code":38},"1303":{"zip_code":"7991303","prefecture":"愛媛県","prefecture_kana":"エヒメケン","city":"西条市","city_kana":"サイジョウシ","town":"河原津","town_kana":"カワラヅ","prefecture_code":38},"1304":{"zip_code":"7991304","prefecture":"愛媛県","prefecture_kana":"エヒメケン","city":"西条市","city_kana":"サイジョウシ","town":"河原津新田","town_kana":"カワラヅシンデン","prefecture_code":38},"1343":{"zip_code":"7991343","prefecture":"愛媛県","prefecture_kana":"エヒメケン","city":"西条市","city_kana":"サイジョウシ","town":"喜多台","town_kana":"キタダイ","prefecture_code":38},"1302":{"zip_code":"7991302","prefecture":"愛媛県","prefecture_kana":"エヒメケン","city":"西条市","city_kana":"サイジョウシ","town":"楠","town_kana":"クス","prefecture_code":38},"1322":{"zip_code":"7991322","prefecture":"愛媛県","prefecture_kana":"エヒメケン","city":"西条市","city_kana":"サイジョウシ","town":"国安","town_kana":"クニヤス","prefecture_code":38},"1315":{"zip_code":"7991315","prefecture":"愛媛県","prefecture_kana":"エヒメケン","city":"西条市","city_kana":"サイジョウシ","town":"黒谷","town_kana":"クロダニ","prefecture_code":38},"1323":{"zip_code":"7991323","prefecture":"愛媛県","prefecture_kana":"エヒメケン","city":"西条市","city_kana":"サイジョウシ","town":"桑村","town_kana":"クワムラ","prefecture_code":38},"1107":{"zip_code":"7991107","prefecture":"愛媛県","prefecture_kana":"エヒメケン","city":"西条市","city_kana":"サイジョウシ","town":"小松町明穂","town_kana":"コマツチョウアカオ","prefecture_code":38},"1111":{"zip_code":"7991111","prefecture":"愛媛県","prefecture_kana":"エヒメケン","city":"西条市","city_kana":"サイジョウシ","town":"小松町石鎚（湯浪）","town_kana":"コマツチョウイシヅチ(ユウナミ)","prefecture_code":38},"1112":{"zip_code":"7991112","prefecture":"愛媛県","prefecture_kana":"エヒメケン","city":"西条市","city_kana":"サイジョウシ","town":"小松町石鎚（その他）","town_kana":"コマツチョウイシヅチ(ソノタ)","prefecture_code":38},"1105":{"zip_code":"7991105","prefecture":"愛媛県","prefecture_kana":"エヒメケン","city":"西条市","city_kana":"サイジョウシ","town":"小松町大郷","town_kana":"コマツチョウオオゴ","prefecture_code":38},"1106":{"zip_code":"7991106","prefecture":"愛媛県","prefecture_kana":"エヒメケン","city":"西条市","city_kana":"サイジョウシ","town":"小松町大頭","town_kana":"コマツチョウオオト","prefecture_code":38},"1103":{"zip_code":"7991103","prefecture":"愛媛県","prefecture_kana":"エヒメケン","city":"西条市","city_kana":"サイジョウシ","town":"小松町北川","town_kana":"コマツチョウキタガワ","prefecture_code":38},"1101":{"zip_code":"7991101","prefecture":"愛媛県","prefecture_kana":"エヒメケン","city":"西条市","city_kana":"サイジョウシ","town":"小松町新屋敷","town_kana":"コマツチョウシンヤシキ","prefecture_code":38},"1102":{"zip_code":"7991102","prefecture":"愛媛県","prefecture_kana":"エヒメケン","city":"西条市","city_kana":"サイジョウシ","town":"小松町南川","town_kana":"コマツチョウミナミガワ","prefecture_code":38},"1104":{"zip_code":"7991104","prefecture":"愛媛県","prefecture_kana":"エヒメケン","city":"西条市","city_kana":"サイジョウシ","town":"小松町妙口","town_kana":"コマツチョウミョウグチ","prefecture_code":38},"1108":{"zip_code":"7991108","prefecture":"愛媛県","prefecture_kana":"エヒメケン","city":"西条市","city_kana":"サイジョウシ","town":"小松町安井","town_kana":"コマツチョウヤスイ","prefecture_code":38},"1317":{"zip_code":"7991317","prefecture":"愛媛県","prefecture_kana":"エヒメケン","city":"西条市","city_kana":"サイジョウシ","town":"実報寺","town_kana":"ジツポウジ","prefecture_code":38},"1371":{"zip_code":"7991371","prefecture":"愛媛県","prefecture_kana":"エヒメケン","city":"西条市","city_kana":"サイジョウシ","town":"周布","town_kana":"シュウ","prefecture_code":38},"1325":{"zip_code":"7991325","prefecture":"愛媛県","prefecture_kana":"エヒメケン","city":"西条市","city_kana":"サイジョウシ","town":"新市","town_kana":"シンイチ","prefecture_code":38},"1331":{"zip_code":"7991331","prefecture":"愛媛県","prefecture_kana":"エヒメケン","city":"西条市","city_kana":"サイジョウシ","town":"新町","town_kana":"シンマチ","prefecture_code":38},"1324":{"zip_code":"7991324","prefecture":"愛媛県","prefecture_kana":"エヒメケン","city":"西条市","city_kana":"サイジョウシ","town":"高田（正法寺）","town_kana":"タカタ(ショウホウジ)","prefecture_code":38},"1321":{"zip_code":"7991321","prefecture":"愛媛県","prefecture_kana":"エヒメケン","city":"西条市","city_kana":"サイジョウシ","town":"高田（その他）","town_kana":"タカタ(ソノタ)","prefecture_code":38},"1363":{"zip_code":"7991363","prefecture":"愛媛県","prefecture_kana":"エヒメケン","city":"西条市","city_kana":"サイジョウシ","town":"玉之江","town_kana":"タマノエ","prefecture_code":38},"1313":{"zip_code":"7991313","prefecture":"愛媛県","prefecture_kana":"エヒメケン","city":"西条市","city_kana":"サイジョウシ","town":"旦之上","town_kana":"ダンノウエ","prefecture_code":38},"1341":{"zip_code":"7991341","prefecture":"愛媛県","prefecture_kana":"エヒメケン","city":"西条市","city_kana":"サイジョウシ","town":"壬生川","town_kana":"ニュウガワ","prefecture_code":38},"1361":{"zip_code":"7991361","prefecture":"愛媛県","prefecture_kana":"エヒメケン","city":"西条市","city_kana":"サイジョウシ","town":"広江","town_kana":"ヒロエ","prefecture_code":38},"1334":{"zip_code":"7991334","prefecture":"愛媛県","prefecture_kana":"エヒメケン","city":"西条市","city_kana":"サイジョウシ","town":"広岡","town_kana":"ヒロオカ","prefecture_code":38},"1316":{"zip_code":"7991316","prefecture":"愛媛県","prefecture_kana":"エヒメケン","city":"西条市","city_kana":"サイジョウシ","town":"福成寺","town_kana":"フクジョウジ","prefecture_code":38},"1354":{"zip_code":"7991354","prefecture":"愛媛県","prefecture_kana":"エヒメケン","city":"西条市","city_kana":"サイジョウシ","town":"北条","town_kana":"ホウジョウ","prefecture_code":38},"1351":{"zip_code":"7991351","prefecture":"愛媛県","prefecture_kana":"エヒメケン","city":"西条市","city_kana":"サイジョウシ","town":"三津屋","town_kana":"ミツヤ","prefecture_code":38},"1352":{"zip_code":"7991352","prefecture":"愛媛県","prefecture_kana":"エヒメケン","city":"西条市","city_kana":"サイジョウシ","town":"三津屋東","town_kana":"ミツヤヒガシ","prefecture_code":38},"1353":{"zip_code":"7991353","prefecture":"愛媛県","prefecture_kana":"エヒメケン","city":"西条市","city_kana":"サイジョウシ","town":"三津屋南","town_kana":"ミツヤミナミ","prefecture_code":38},"1311":{"zip_code":"7991311","prefecture":"愛媛県","prefecture_kana":"エヒメケン","city":"西条市","city_kana":"サイジョウシ","town":"宮之内","town_kana":"ミヤノウチ","prefecture_code":38},"1301":{"zip_code":"7991301","prefecture":"愛媛県","prefecture_kana":"エヒメケン","city":"西条市","city_kana":"サイジョウシ","town":"三芳","town_kana":"ミヨシ","prefecture_code":38},"1333":{"zip_code":"7991333","prefecture":"愛媛県","prefecture_kana":"エヒメケン","city":"西条市","city_kana":"サイジョウシ","town":"安用","town_kana":"ヤスモチ","prefecture_code":38},"1332":{"zip_code":"7991332","prefecture":"愛媛県","prefecture_kana":"エヒメケン","city":"西条市","city_kana":"サイジョウシ","town":"安用出作","town_kana":"ヤスモチデサク","prefecture_code":38},"1372":{"zip_code":"7991372","prefecture":"愛媛県","prefecture_kana":"エヒメケン","city":"西条市","city_kana":"サイジョウシ","town":"吉田","town_kana":"ヨシダ","prefecture_code":38},"3421":{"zip_code":"7993421","prefecture":"愛媛県","prefecture_kana":"エヒメケン","city":"大洲市","city_kana":"オオズシ","town":"戒川甲","town_kana":"カイカワコウ","prefecture_code":38},"3433":{"zip_code":"7993433","prefecture":"愛媛県","prefecture_kana":"エヒメケン","city":"大洲市","city_kana":"オオズシ","town":"柴乙","town_kana":"シバオツ","prefecture_code":38},"3432":{"zip_code":"7993432","prefecture":"愛媛県","prefecture_kana":"エヒメケン","city":"大洲市","city_kana":"オオズシ","town":"柴甲","town_kana":"シバコウ","prefecture_code":38},"3431":{"zip_code":"7993431","prefecture":"愛媛県","prefecture_kana":"エヒメケン","city":"大洲市","city_kana":"オオズシ","town":"白滝甲","town_kana":"シラタキコウ","prefecture_code":38},"3462":{"zip_code":"7993462","prefecture":"愛媛県","prefecture_kana":"エヒメケン","city":"大洲市","city_kana":"オオズシ","town":"豊茂乙","town_kana":"トヨシゲオツ","prefecture_code":38},"3461":{"zip_code":"7993461","prefecture":"愛媛県","prefecture_kana":"エヒメケン","city":"大洲市","city_kana":"オオズシ","town":"豊茂甲","town_kana":"トヨシゲコウ","prefecture_code":38},"3464":{"zip_code":"7993464","prefecture":"愛媛県","prefecture_kana":"エヒメケン","city":"大洲市","city_kana":"オオズシ","town":"豊茂丁","town_kana":"トヨシゲテイ","prefecture_code":38},"3463":{"zip_code":"7993463","prefecture":"愛媛県","prefecture_kana":"エヒメケン","city":"大洲市","city_kana":"オオズシ","town":"豊茂丙","town_kana":"トヨシゲヘイ","prefecture_code":38},"3402":{"zip_code":"7993402","prefecture":"愛媛県","prefecture_kana":"エヒメケン","city":"大洲市","city_kana":"オオズシ","town":"長浜乙","town_kana":"ナガハマオツ","prefecture_code":38},"3401":{"zip_code":"7993401","prefecture":"愛媛県","prefecture_kana":"エヒメケン","city":"大洲市","city_kana":"オオズシ","town":"長浜甲","town_kana":"ナガハマコウ","prefecture_code":38},"3470":{"zip_code":"7993470","prefecture":"愛媛県","prefecture_kana":"エヒメケン","city":"大洲市","city_kana":"オオズシ","town":"長浜町青島","town_kana":"ナガハマチョウアオシマ","prefecture_code":38},"3456":{"zip_code":"7993456","prefecture":"愛媛県","prefecture_kana":"エヒメケン","city":"大洲市","city_kana":"オオズシ","town":"長浜町出海乙","town_kana":"ナガハマチョウイズミオツ","prefecture_code":38},"3455":{"zip_code":"7993455","prefecture":"愛媛県","prefecture_kana":"エヒメケン","city":"大洲市","city_kana":"オオズシ","town":"長浜町出海甲","town_kana":"ナガハマチョウイズミコウ","prefecture_code":38},"3422":{"zip_code":"7993422","prefecture":"愛媛県","prefecture_kana":"エヒメケン","city":"大洲市","city_kana":"オオズシ","town":"長浜町大越甲","town_kana":"ナガハマチョウオオゴシコウ","prefecture_code":38},"3405":{"zip_code":"7993405","prefecture":"愛媛県","prefecture_kana":"エヒメケン","city":"大洲市","city_kana":"オオズシ","town":"長浜町沖浦乙","town_kana":"ナガハマチョウオキウラオツ","prefecture_code":38},"3404":{"zip_code":"7993404","prefecture":"愛媛県","prefecture_kana":"エヒメケン","city":"大洲市","city_kana":"オオズシ","town":"長浜町沖浦甲","town_kana":"ナガハマチョウオキウラコウ","prefecture_code":38},"3406":{"zip_code":"7993406","prefecture":"愛媛県","prefecture_kana":"エヒメケン","city":"大洲市","city_kana":"オオズシ","town":"長浜町沖浦丙","town_kana":"ナガハマチョウオキウラヘイ","prefecture_code":38},"3453":{"zip_code":"7993453","prefecture":"愛媛県","prefecture_kana":"エヒメケン","city":"大洲市","city_kana":"オオズシ","town":"長浜町櫛生乙","town_kana":"ナガハマチョウクシュウオツ","prefecture_code":38},"3452":{"zip_code":"7993452","prefecture":"愛媛県","prefecture_kana":"エヒメケン","city":"大洲市","city_kana":"オオズシ","town":"長浜町櫛生甲","town_kana":"ナガハマチョウクシュウコウ","prefecture_code":38},"3454":{"zip_code":"7993454","prefecture":"愛媛県","prefecture_kana":"エヒメケン","city":"大洲市","city_kana":"オオズシ","town":"長浜町櫛生丙","town_kana":"ナガハマチョウクシュウヘイ","prefecture_code":38},"3407":{"zip_code":"7993407","prefecture":"愛媛県","prefecture_kana":"エヒメケン","city":"大洲市","city_kana":"オオズシ","town":"長浜町黒田甲","town_kana":"ナガハマチョウクロンタコウ","prefecture_code":38},"3411":{"zip_code":"7993411","prefecture":"愛媛県","prefecture_kana":"エヒメケン","city":"大洲市","city_kana":"オオズシ","town":"長浜町今坊甲","town_kana":"ナガハマチョウコンボウコウ","prefecture_code":38},"3441":{"zip_code":"7993441","prefecture":"愛媛県","prefecture_kana":"エヒメケン","city":"大洲市","city_kana":"オオズシ","town":"長浜町下須戒甲","town_kana":"ナガハマチョウシモスカイコウ","prefecture_code":38},"3444":{"zip_code":"7993444","prefecture":"愛媛県","prefecture_kana":"エヒメケン","city":"大洲市","city_kana":"オオズシ","town":"長浜町上老松甲","town_kana":"ナガハマチョウジョロマツコウ","prefecture_code":38},"3451":{"zip_code":"7993451","prefecture":"愛媛県","prefecture_kana":"エヒメケン","city":"大洲市","city_kana":"オオズシ","town":"長浜町須沢丙","town_kana":"ナガハマチョウスサワヘイ","prefecture_code":38},"3413":{"zip_code":"7993413","prefecture":"愛媛県","prefecture_kana":"エヒメケン","city":"大洲市","city_kana":"オオズシ","town":"長浜町拓海","town_kana":"ナガハマチョウタクミ","prefecture_code":38},"3403":{"zip_code":"7993403","prefecture":"愛媛県","prefecture_kana":"エヒメケン","city":"大洲市","city_kana":"オオズシ","town":"長浜町仁久甲","town_kana":"ナガハマチョウニギュウコウ","prefecture_code":38},"3412":{"zip_code":"7993412","prefecture":"愛媛県","prefecture_kana":"エヒメケン","city":"大洲市","city_kana":"オオズシ","town":"長浜町晴海","town_kana":"ナガハマチョウハルミ","prefecture_code":38},"3442":{"zip_code":"7993442","prefecture":"愛媛県","prefecture_kana":"エヒメケン","city":"大洲市","city_kana":"オオズシ","town":"長浜町穂積甲","town_kana":"ナガハマチョウホズミコウ","prefecture_code":38},"3443":{"zip_code":"7993443","prefecture":"愛媛県","prefecture_kana":"エヒメケン","city":"大洲市","city_kana":"オオズシ","town":"長浜町穂積乙","town_kana":"ナガハマチョウホヅミオツ","prefecture_code":38},"3100":{"zip_code":"7993100","prefecture":"愛媛県","prefecture_kana":"エヒメケン","city":"伊予市","city_kana":"イヨシ","town":"以下に掲載がない場合","town_kana":"イカニケイサイガナイバアイ","prefecture_code":38},"3122":{"zip_code":"7993122","prefecture":"愛媛県","prefecture_kana":"エヒメケン","city":"伊予市","city_kana":"イヨシ","town":"市場","town_kana":"イチバ","prefecture_code":38},"3121":{"zip_code":"7993121","prefecture":"愛媛県","prefecture_kana":"エヒメケン","city":"伊予市","city_kana":"イヨシ","town":"稲荷","town_kana":"イナリ","prefecture_code":38},"3103":{"zip_code":"7993103","prefecture":"愛媛県","prefecture_kana":"エヒメケン","city":"伊予市","city_kana":"イヨシ","town":"上野","town_kana":"ウエノ","prefecture_code":38},"3136":{"zip_code":"7993136","prefecture":"愛媛県","prefecture_kana":"エヒメケン","city":"伊予市","city_kana":"イヨシ","town":"鵜崎","town_kana":"ウノサキ","prefecture_code":38},"3131":{"zip_code":"7993131","prefecture":"愛媛県","prefecture_kana":"エヒメケン","city":"伊予市","city_kana":"イヨシ","town":"大平","town_kana":"オオヒラ","prefecture_code":38},"3127":{"zip_code":"7993127","prefecture":"愛媛県","prefecture_kana":"エヒメケン","city":"伊予市","city_kana":"イヨシ","town":"尾崎","town_kana":"オサキ","prefecture_code":38},"3112":{"zip_code":"7993112","prefecture":"愛媛県","prefecture_kana":"エヒメケン","city":"伊予市","city_kana":"イヨシ","town":"上吾川","town_kana":"カミアガワ","prefecture_code":38},"3134":{"zip_code":"7993134","prefecture":"愛媛県","prefecture_kana":"エヒメケン","city":"伊予市","city_kana":"イヨシ","town":"上唐川","town_kana":"カミカラカワ","prefecture_code":38},"3104":{"zip_code":"7993104","prefecture":"愛媛県","prefecture_kana":"エヒメケン","city":"伊予市","city_kana":"イヨシ","town":"上三谷","town_kana":"カミミタニ","prefecture_code":38},"3113":{"zip_code":"7993113","prefecture":"愛媛県","prefecture_kana":"エヒメケン","city":"伊予市","city_kana":"イヨシ","town":"米湊","town_kana":"コミナト","prefecture_code":38},"3111":{"zip_code":"7993111","prefecture":"愛媛県","prefecture_kana":"エヒメケン","city":"伊予市","city_kana":"イヨシ","town":"下吾川","town_kana":"シモアガワ","prefecture_code":38},"3133":{"zip_code":"7993133","prefecture":"愛媛県","prefecture_kana":"エヒメケン","city":"伊予市","city_kana":"イヨシ","town":"下唐川","town_kana":"シモカラカワ","prefecture_code":38},"3105":{"zip_code":"7993105","prefecture":"愛媛県","prefecture_kana":"エヒメケン","city":"伊予市","city_kana":"イヨシ","town":"下三谷","town_kana":"シモミタニ","prefecture_code":38},"3123":{"zip_code":"7993123","prefecture":"愛媛県","prefecture_kana":"エヒメケン","city":"伊予市","city_kana":"イヨシ","town":"中村","town_kana":"ナカムラ","prefecture_code":38},"3114":{"zip_code":"7993114","prefecture":"愛媛県","prefecture_kana":"エヒメケン","city":"伊予市","city_kana":"イヨシ","town":"灘町","town_kana":"ナダマチ","prefecture_code":38},"3132":{"zip_code":"7993132","prefecture":"愛媛県","prefecture_kana":"エヒメケン","city":"伊予市","city_kana":"イヨシ","town":"平岡","town_kana":"ヒラオカ","prefecture_code":38},"3311":{"zip_code":"7993311","prefecture":"愛媛県","prefecture_kana":"エヒメケン","city":"伊予市","city_kana":"イヨシ","town":"双海町大久保","town_kana":"フタミチョウオオクボ","prefecture_code":38},"3202":{"zip_code":"7993202","prefecture":"愛媛県","prefecture_kana":"エヒメケン","city":"伊予市","city_kana":"イヨシ","town":"双海町上灘","town_kana":"フタミチョウカミナダ","prefecture_code":38},"3313":{"zip_code":"7993313","prefecture":"愛媛県","prefecture_kana":"エヒメケン","city":"伊予市","city_kana":"イヨシ","town":"双海町串（上浜）","town_kana":"フタミチョウクシ(カミハマ)","prefecture_code":38},"3314":{"zip_code":"7993314","prefecture":"愛媛県","prefecture_kana":"エヒメケン","city":"伊予市","city_kana":"イヨシ","town":"双海町串（下浜）","town_kana":"フタミチョウクシ(シモハマ)","prefecture_code":38},"3312":{"zip_code":"7993312","prefecture":"愛媛県","prefecture_kana":"エヒメケン","city":"伊予市","city_kana":"イヨシ","town":"双海町串（その他）","town_kana":"フタミチョウクシ(ソノタ)","prefecture_code":38},"3201":{"zip_code":"7993201","prefecture":"愛媛県","prefecture_kana":"エヒメケン","city":"伊予市","city_kana":"イヨシ","town":"双海町高野川","town_kana":"フタミチョウコウノカワ","prefecture_code":38},"3207":{"zip_code":"7993207","prefecture":"愛媛県","prefecture_kana":"エヒメケン","city":"伊予市","city_kana":"イヨシ","town":"双海町高岸","town_kana":"フタミチョウタカギシ","prefecture_code":38},"3126":{"zip_code":"7993126","prefecture":"愛媛県","prefecture_kana":"エヒメケン","city":"伊予市","city_kana":"イヨシ","town":"本郡","town_kana":"ホング","prefecture_code":38},"3124":{"zip_code":"7993124","prefecture":"愛媛県","prefecture_kana":"エヒメケン","city":"伊予市","city_kana":"イヨシ","town":"三秋","town_kana":"ミアキ","prefecture_code":38},"3128":{"zip_code":"7993128","prefecture":"愛媛県","prefecture_kana":"エヒメケン","city":"伊予市","city_kana":"イヨシ","town":"三島町","town_kana":"ミシママチ","prefecture_code":38},"3115":{"zip_code":"7993115","prefecture":"愛媛県","prefecture_kana":"エヒメケン","city":"伊予市","city_kana":"イヨシ","town":"湊町","town_kana":"ミナトマチ","prefecture_code":38},"3102":{"zip_code":"7993102","prefecture":"愛媛県","prefecture_kana":"エヒメケン","city":"伊予市","city_kana":"イヨシ","town":"宮下","town_kana":"ミヤシタ","prefecture_code":38},"3125":{"zip_code":"7993125","prefecture":"愛媛県","prefecture_kana":"エヒメケン","city":"伊予市","city_kana":"イヨシ","town":"森","town_kana":"モリ","prefecture_code":38},"3101":{"zip_code":"7993101","prefecture":"愛媛県","prefecture_kana":"エヒメケン","city":"伊予市","city_kana":"イヨシ","town":"八倉","town_kana":"ヤクラ","prefecture_code":38},"3135":{"zip_code":"7993135","prefecture":"愛媛県","prefecture_kana":"エヒメケン","city":"伊予市","city_kana":"イヨシ","town":"両沢","town_kana":"リョウザワ","prefecture_code":38},"0400":{"zip_code":"7990400","prefecture":"愛媛県","prefecture_kana":"エヒメケン","city":"四国中央市","city_kana":"シコクチュウオウシ","town":"以下に掲載がない場合","town_kana":"イカニケイサイガナイバアイ","prefecture_code":38},"0123":{"zip_code":"7990123","prefecture":"愛媛県","prefecture_kana":"エヒメケン","city":"四国中央市","city_kana":"シコクチュウオウシ","town":"金田町金川","town_kana":"カナダチョウカナガワ","prefecture_code":38},"0124":{"zip_code":"7990124","prefecture":"愛媛県","prefecture_kana":"エヒメケン","city":"四国中央市","city_kana":"シコクチュウオウシ","town":"金田町三角寺","town_kana":"カナダチョウサンカクジ","prefecture_code":38},"0122":{"zip_code":"7990122","prefecture":"愛媛県","prefecture_kana":"エヒメケン","city":"四国中央市","city_kana":"シコクチュウオウシ","town":"金田町半田","town_kana":"カナダチョウハンダ","prefecture_code":38},"0412":{"zip_code":"7990412","prefecture":"愛媛県","prefecture_kana":"エヒメケン","city":"四国中央市","city_kana":"シコクチュウオウシ","town":"上柏町","town_kana":"カミガシワチョウ","prefecture_code":38},"0121":{"zip_code":"7990121","prefecture":"愛媛県","prefecture_kana":"エヒメケン","city":"四国中央市","city_kana":"シコクチュウオウシ","town":"上分町","town_kana":"カミブンチョウ","prefecture_code":38},"0127":{"zip_code":"7990127","prefecture":"愛媛県","prefecture_kana":"エヒメケン","city":"四国中央市","city_kana":"シコクチュウオウシ","town":"川滝町下山","town_kana":"カワタキチョウシモヤマ","prefecture_code":38},"0128":{"zip_code":"7990128","prefecture":"愛媛県","prefecture_kana":"エヒメケン","city":"四国中央市","city_kana":"シコクチュウオウシ","town":"川滝町領家","town_kana":"カワタキチョウリョウケ","prefecture_code":38},"0101":{"zip_code":"7990101","prefecture":"愛媛県","prefecture_kana":"エヒメケン","city":"四国中央市","city_kana":"シコクチュウオウシ","town":"川之江町","town_kana":"カワノエチョウ","prefecture_code":38},"0102":{"zip_code":"7990102","prefecture":"愛媛県","prefecture_kana":"エヒメケン","city":"四国中央市","city_kana":"シコクチュウオウシ","town":"川之江町長須","town_kana":"カワノエチョウナガス","prefecture_code":38},"0103":{"zip_code":"7990103","prefecture":"愛媛県","prefecture_kana":"エヒメケン","city":"四国中央市","city_kana":"シコクチュウオウシ","town":"川之江町余木","town_kana":"カワノエチョウヨキ","prefecture_code":38},"0641":{"zip_code":"7990641","prefecture":"愛媛県","prefecture_kana":"エヒメケン","city":"四国中央市","city_kana":"シコクチュウオウシ","town":"金砂町小川山","town_kana":"キンシャチョウオガワヤマ","prefecture_code":38},"0642":{"zip_code":"7990642","prefecture":"愛媛県","prefecture_kana":"エヒメケン","city":"四国中央市","city_kana":"シコクチュウオウシ","town":"金砂町平野山","town_kana":"キンシャチョウヒラノヤマ","prefecture_code":38},"0111":{"zip_code":"7990111","prefecture":"愛媛県","prefecture_kana":"エヒメケン","city":"四国中央市","city_kana":"シコクチュウオウシ","town":"金生町下分","town_kana":"キンセイチョウシモブン","prefecture_code":38},"0112":{"zip_code":"7990112","prefecture":"愛媛県","prefecture_kana":"エヒメケン","city":"四国中央市","city_kana":"シコクチュウオウシ","town":"金生町山田井","town_kana":"キンセイチョウヤマダイ","prefecture_code":38},"0423":{"zip_code":"7990423","prefecture":"愛媛県","prefecture_kana":"エヒメケン","city":"四国中央市","city_kana":"シコクチュウオウシ","town":"具定町","town_kana":"グジョウチョウ","prefecture_code":38},"0431":{"zip_code":"7990431","prefecture":"愛媛県","prefecture_kana":"エヒメケン","city":"四国中央市","city_kana":"シコクチュウオウシ","town":"寒川町","town_kana":"サンガワチョウ","prefecture_code":38},"0125":{"zip_code":"7990125","prefecture":"愛媛県","prefecture_kana":"エヒメケン","city":"四国中央市","city_kana":"シコクチュウオウシ","town":"柴生町","town_kana":"シボウチョウ","prefecture_code":38},"0411":{"zip_code":"7990411","prefecture":"愛媛県","prefecture_kana":"エヒメケン","city":"四国中央市","city_kana":"シコクチュウオウシ","town":"下柏町","town_kana":"シモガシワチョウ","prefecture_code":38},"0126":{"zip_code":"7990126","prefecture":"愛媛県","prefecture_kana":"エヒメケン","city":"四国中央市","city_kana":"シコクチュウオウシ","town":"下川町","town_kana":"シモカワチョウ","prefecture_code":38},"0301":{"zip_code":"7990301","prefecture":"愛媛県","prefecture_kana":"エヒメケン","city":"四国中央市","city_kana":"シコクチュウオウシ","town":"新宮町馬立","town_kana":"シングウチョウウマタテ","prefecture_code":38},"0302":{"zip_code":"7990302","prefecture":"愛媛県","prefecture_kana":"エヒメケン","city":"四国中央市","city_kana":"シコクチュウオウシ","town":"新宮町上山","town_kana":"シングウチョウカミヤマ","prefecture_code":38},"0303":{"zip_code":"7990303","prefecture":"愛媛県","prefecture_kana":"エヒメケン","city":"四国中央市","city_kana":"シコクチュウオウシ","town":"新宮町新宮","town_kana":"シングウチョウシングウ","prefecture_code":38},"0304":{"zip_code":"7990304","prefecture":"愛媛県","prefecture_kana":"エヒメケン","city":"四国中央市","city_kana":"シコクチュウオウシ","town":"新宮町新瀬川","town_kana":"シングウチョウシンセガワ","prefecture_code":38},"0712":{"zip_code":"7990712","prefecture":"愛媛県","prefecture_kana":"エヒメケン","city":"四国中央市","city_kana":"シコクチュウオウシ","town":"土居町入野","town_kana":"ドイチョウイリノ","prefecture_code":38},"0721":{"zip_code":"7990721","prefecture":"愛媛県","prefecture_kana":"エヒメケン","city":"四国中央市","city_kana":"シコクチュウオウシ","town":"土居町上野","town_kana":"ドイチョウウエノ","prefecture_code":38},"0713":{"zip_code":"7990713","prefecture":"愛媛県","prefecture_kana":"エヒメケン","city":"四国中央市","city_kana":"シコクチュウオウシ","town":"土居町浦山","town_kana":"ドイチョウウラヤマ","prefecture_code":38},"0724":{"zip_code":"7990724","prefecture":"愛媛県","prefecture_kana":"エヒメケン","city":"四国中央市","city_kana":"シコクチュウオウシ","town":"土居町蕪崎","town_kana":"ドイチョウカブラサキ","prefecture_code":38},"0722":{"zip_code":"7990722","prefecture":"愛媛県","prefecture_kana":"エヒメケン","city":"四国中央市","city_kana":"シコクチュウオウシ","town":"土居町北野","town_kana":"ドイチョウキタノ","prefecture_code":38},"0702":{"zip_code":"7990702","prefecture":"愛媛県","prefecture_kana":"エヒメケン","city":"四国中央市","city_kana":"シコクチュウオウシ","town":"土居町小林","town_kana":"ドイチョウコバヤシ","prefecture_code":38},"0704":{"zip_code":"7990704","prefecture":"愛媛県","prefecture_kana":"エヒメケン","city":"四国中央市","city_kana":"シコクチュウオウシ","town":"土居町津根","town_kana":"ドイチョウツネ","prefecture_code":38},"0723":{"zip_code":"7990723","prefecture":"愛媛県","prefecture_kana":"エヒメケン","city":"四国中央市","city_kana":"シコクチュウオウシ","town":"土居町天満","town_kana":"ドイチョウテンマ","prefecture_code":38},"0711":{"zip_code":"7990711","prefecture":"愛媛県","prefecture_kana":"エヒメケン","city":"四国中央市","city_kana":"シコクチュウオウシ","town":"土居町土居","town_kana":"ドイチョウドイ","prefecture_code":38},"0701":{"zip_code":"7990701","prefecture":"愛媛県","prefecture_kana":"エヒメケン","city":"四国中央市","city_kana":"シコクチュウオウシ","town":"土居町中村","town_kana":"ドイチョウナカムラ","prefecture_code":38},"0705":{"zip_code":"7990705","prefecture":"愛媛県","prefecture_kana":"エヒメケン","city":"四国中央市","city_kana":"シコクチュウオウシ","town":"土居町野田","town_kana":"ドイチョウノダ","prefecture_code":38},"0714":{"zip_code":"7990714","prefecture":"愛媛県","prefecture_kana":"エヒメケン","city":"四国中央市","city_kana":"シコクチュウオウシ","town":"土居町畑野","town_kana":"ドイチョウハタノ","prefecture_code":38},"0703":{"zip_code":"7990703","prefecture":"愛媛県","prefecture_kana":"エヒメケン","city":"四国中央市","city_kana":"シコクチュウオウシ","town":"土居町藤原","town_kana":"ドイチョウフジワラ","prefecture_code":38},"0643":{"zip_code":"7990643","prefecture":"愛媛県","prefecture_kana":"エヒメケン","city":"四国中央市","city_kana":"シコクチュウオウシ","town":"富郷町寒川山","town_kana":"トミサトチョウサンガワヤマ","prefecture_code":38},"0645":{"zip_code":"7990645","prefecture":"愛媛県","prefecture_kana":"エヒメケン","city":"四国中央市","city_kana":"シコクチュウオウシ","town":"富郷町津根山","town_kana":"トミサトチョウツネヤマ","prefecture_code":38},"0644":{"zip_code":"7990644","prefecture":"愛媛県","prefecture_kana":"エヒメケン","city":"四国中央市","city_kana":"シコクチュウオウシ","town":"富郷町豊坂","town_kana":"トミサトチョウトヨサカ","prefecture_code":38},"0434":{"zip_code":"7990434","prefecture":"愛媛県","prefecture_kana":"エヒメケン","city":"四国中央市","city_kana":"シコクチュウオウシ","town":"豊岡町五良野","town_kana":"トヨオカチョウイラノ","prefecture_code":38},"0432":{"zip_code":"7990432","prefecture":"愛媛県","prefecture_kana":"エヒメケン","city":"四国中央市","city_kana":"シコクチュウオウシ","town":"豊岡町大町","town_kana":"トヨオカチョウオオマチ","prefecture_code":38},"0436":{"zip_code":"7990436","prefecture":"愛媛県","prefecture_kana":"エヒメケン","city":"四国中央市","city_kana":"シコクチュウオウシ","town":"豊岡町岡銅","town_kana":"トヨオカチョウオカドウ","prefecture_code":38},"0435":{"zip_code":"7990435","prefecture":"愛媛県","prefecture_kana":"エヒメケン","city":"四国中央市","city_kana":"シコクチュウオウシ","town":"豊岡町長田","town_kana":"トヨオカチョウオサダ","prefecture_code":38},"0433":{"zip_code":"7990433","prefecture":"愛媛県","prefecture_kana":"エヒメケン","city":"四国中央市","city_kana":"シコクチュウオウシ","town":"豊岡町豊田","town_kana":"トヨオカチョウトヨダ","prefecture_code":38},"0413":{"zip_code":"7990413","prefecture":"愛媛県","prefecture_kana":"エヒメケン","city":"四国中央市","city_kana":"シコクチュウオウシ","town":"中曽根町","town_kana":"ナカゾネチョウ","prefecture_code":38},"0422":{"zip_code":"7990422","prefecture":"愛媛県","prefecture_kana":"エヒメケン","city":"四国中央市","city_kana":"シコクチュウオウシ","town":"中之庄町","town_kana":"ナカノショウチョウ","prefecture_code":38},"0403":{"zip_code":"7990403","prefecture":"愛媛県","prefecture_kana":"エヒメケン","city":"四国中央市","city_kana":"シコクチュウオウシ","town":"三島朝日","town_kana":"ミシマアサヒ","prefecture_code":38},"0421":{"zip_code":"7990421","prefecture":"愛媛県","prefecture_kana":"エヒメケン","city":"四国中央市","city_kana":"シコクチュウオウシ","town":"三島金子","town_kana":"ミシマカネコ","prefecture_code":38},"0402":{"zip_code":"7990402","prefecture":"愛媛県","prefecture_kana":"エヒメケン","city":"四国中央市","city_kana":"シコクチュウオウシ","town":"三島紙屋町","town_kana":"ミシマカミヤチョウ","prefecture_code":38},"0405":{"zip_code":"7990405","prefecture":"愛媛県","prefecture_kana":"エヒメケン","city":"四国中央市","city_kana":"シコクチュウオウシ","town":"三島中央","town_kana":"ミシマチュウオウ","prefecture_code":38},"0404":{"zip_code":"7990404","prefecture":"愛媛県","prefecture_kana":"エヒメケン","city":"四国中央市","city_kana":"シコクチュウオウシ","town":"三島宮川","town_kana":"ミシマミヤガワ","prefecture_code":38},"0401":{"zip_code":"7990401","prefecture":"愛媛県","prefecture_kana":"エヒメケン","city":"四国中央市","city_kana":"シコクチュウオウシ","town":"村松町","town_kana":"ムラマツチョウ","prefecture_code":38},"0113":{"zip_code":"7990113","prefecture":"愛媛県","prefecture_kana":"エヒメケン","city":"四国中央市","city_kana":"シコクチュウオウシ","town":"妻鳥町","town_kana":"メンドリチョウ","prefecture_code":38}}