{"0864":{"zip_code":"8010864","prefecture":"福岡県","prefecture_kana":"フクオカケン","city":"北九州市門司区","city_kana":"キタキュウシュウシモジク","town":"老松町","town_kana":"オイマツチョウ","prefecture_code":40},"0883":{"zip_code":"8010883","prefecture":"福岡県","prefecture_kana":"フクオカケン","city":"北九州市門司区","city_kana":"キタキュウシュウシモジク","town":"大久保","town_kana":"オオクボ","prefecture_code":40},"0811":{"zip_code":"8010811","prefecture":"福岡県","prefecture_kana":"フクオカケン","city":"北九州市門司区","city_kana":"キタキュウシュウシモジク","town":"大積","town_kana":"オオツミ","prefecture_code":40},"0876":{"zip_code":"8010876","prefecture":"福岡県","prefecture_kana":"フクオカケン","city":"北九州市門司区","city_kana":"キタキュウシュウシモジク","town":"花月園","town_kana":"カゲツエン","prefecture_code":40},"0801":{"zip_code":"8010801","prefecture":"福岡県","prefecture_kana":"フクオカケン","city":"北九州市門司区","city_kana":"キタキュウシュウシモジク","town":"風師（１〜３丁目）","town_kana":"カザシ(1-3チョウメ)","prefecture_code":40},"0823":{"zip_code":"8010823","prefecture":"福岡県","prefecture_kana":"フクオカケン","city":"北九州市門司区","city_kana":"キタキュウシュウシモジク","town":"春日町","town_kana":"カスガマチ","prefecture_code":40},"0871":{"zip_code":"8010871","prefecture":"福岡県","prefecture_kana":"フクオカケン","city":"北九州市門司区","city_kana":"キタキュウシュウシモジク","town":"上本町","town_kana":"カミホンマチ","prefecture_code":40},"0812":{"zip_code":"8010812","prefecture":"福岡県","prefecture_kana":"フクオカケン","city":"北九州市門司区","city_kana":"キタキュウシュウシモジク","town":"喜多久","town_kana":"キタク","prefecture_code":40},"0854":{"zip_code":"8010854","prefecture":"福岡県","prefecture_kana":"フクオカケン","city":"北九州市門司区","city_kana":"キタキュウシュウシモジク","town":"旧門司","town_kana":"キュウモジ","prefecture_code":40},"0833":{"zip_code":"8010833","prefecture":"福岡県","prefecture_kana":"フクオカケン","city":"北九州市門司区","city_kana":"キタキュウシュウシモジク","town":"清滝","town_kana":"キヨタキ","prefecture_code":40},"0882":{"zip_code":"8010882","prefecture":"福岡県","prefecture_kana":"フクオカケン","city":"北九州市門司区","city_kana":"キタキュウシュウシモジク","town":"清見","town_kana":"キヨミ","prefecture_code":40},"0886":{"zip_code":"8010886","prefecture":"福岡県","prefecture_kana":"フクオカケン","city":"北九州市門司区","city_kana":"キタキュウシュウシモジク","town":"清見佐夜町","town_kana":"キヨミサヤマチ","prefecture_code":40},"0808":{"zip_code":"8010808","prefecture":"福岡県","prefecture_kana":"フクオカケン","city":"北九州市門司区","city_kana":"キタキュウシュウシモジク","town":"葛葉（１丁目）","town_kana":"クズハ(1チョウメ)","prefecture_code":40},"0821":{"zip_code":"8010821","prefecture":"福岡県","prefecture_kana":"フクオカケン","city":"北九州市門司区","city_kana":"キタキュウシュウシモジク","town":"黒川","town_kana":"クロガワ","prefecture_code":40},"0826":{"zip_code":"8010826","prefecture":"福岡県","prefecture_kana":"フクオカケン","city":"北九州市門司区","city_kana":"キタキュウシュウシモジク","town":"黒川東","town_kana":"クロガワヒガシ","prefecture_code":40},"0825":{"zip_code":"8010825","prefecture":"福岡県","prefecture_kana":"フクオカケン","city":"北九州市門司区","city_kana":"キタキュウシュウシモジク","town":"黒川西","town_kana":"クロガワニシ","prefecture_code":40},"0863":{"zip_code":"8010863","prefecture":"福岡県","prefecture_kana":"フクオカケン","city":"北九州市門司区","city_kana":"キタキュウシュウシモジク","town":"栄町","town_kana":"サカエマチ","prefecture_code":40},"0865":{"zip_code":"8010865","prefecture":"福岡県","prefecture_kana":"フクオカケン","city":"北九州市門司区","city_kana":"キタキュウシュウシモジク","town":"庄司町","town_kana":"ショウジマチ","prefecture_code":40},"0802":{"zip_code":"8010802","prefecture":"福岡県","prefecture_kana":"フクオカケン","city":"北九州市門司区","city_kana":"キタキュウシュウシモジク","town":"白野江","town_kana":"シラノエ","prefecture_code":40},"0885":{"zip_code":"8010885","prefecture":"福岡県","prefecture_kana":"フクオカケン","city":"北九州市門司区","city_kana":"キタキュウシュウシモジク","town":"新開","town_kana":"シンカイ","prefecture_code":40},"0884":{"zip_code":"8010884","prefecture":"福岡県","prefecture_kana":"フクオカケン","city":"北九州市門司区","city_kana":"キタキュウシュウシモジク","town":"瀬戸町","town_kana":"セトマチ","prefecture_code":40},"0822":{"zip_code":"8010822","prefecture":"福岡県","prefecture_kana":"フクオカケン","city":"北九州市門司区","city_kana":"キタキュウシュウシモジク","town":"高砂町","town_kana":"タカサゴマチ","prefecture_code":40},"0805":{"zip_code":"8010805","prefecture":"福岡県","prefecture_kana":"フクオカケン","city":"北九州市門司区","city_kana":"キタキュウシュウシモジク","town":"太刀浦海岸","town_kana":"タチノウラカイガン","prefecture_code":40},"0872":{"zip_code":"8010872","prefecture":"福岡県","prefecture_kana":"フクオカケン","city":"北九州市門司区","city_kana":"キタキュウシュウシモジク","town":"谷町","town_kana":"タニマチ","prefecture_code":40},"0803":{"zip_code":"8010803","prefecture":"福岡県","prefecture_kana":"フクオカケン","city":"北九州市門司区","city_kana":"キタキュウシュウシモジク","town":"田野浦","town_kana":"タノウラ","prefecture_code":40},"0804":{"zip_code":"8010804","prefecture":"福岡県","prefecture_kana":"フクオカケン","city":"北九州市門司区","city_kana":"キタキュウシュウシモジク","town":"田野浦海岸","town_kana":"タノウラカイガン","prefecture_code":40},"0861":{"zip_code":"8010861","prefecture":"福岡県","prefecture_kana":"フクオカケン","city":"北九州市門司区","city_kana":"キタキュウシュウシモジク","town":"長谷","town_kana":"ナガタニ","prefecture_code":40},"0881":{"zip_code":"8010881","prefecture":"福岡県","prefecture_kana":"フクオカケン","city":"北九州市門司区","city_kana":"キタキュウシュウシモジク","town":"鳴竹","town_kana":"ナルタケ","prefecture_code":40},"0841":{"zip_code":"8010841","prefecture":"福岡県","prefecture_kana":"フクオカケン","city":"北九州市門司区","city_kana":"キタキュウシュウシモジク","town":"西海岸","town_kana":"ニシカイガン","prefecture_code":40},"0862":{"zip_code":"8010862","prefecture":"福岡県","prefecture_kana":"フクオカケン","city":"北九州市門司区","city_kana":"キタキュウシュウシモジク","town":"錦町","town_kana":"ニシキマチ","prefecture_code":40},"0874":{"zip_code":"8010874","prefecture":"福岡県","prefecture_kana":"フクオカケン","city":"北九州市門司区","city_kana":"キタキュウシュウシモジク","town":"畑田町","town_kana":"ハタケダマチ","prefecture_code":40},"0856":{"zip_code":"8010856","prefecture":"福岡県","prefecture_kana":"フクオカケン","city":"北九州市門司区","city_kana":"キタキュウシュウシモジク","town":"浜町","town_kana":"ハママチ","prefecture_code":40},"0851":{"zip_code":"8010851","prefecture":"福岡県","prefecture_kana":"フクオカケン","city":"北九州市門司区","city_kana":"キタキュウシュウシモジク","town":"東本町","town_kana":"ヒガシホンマチ","prefecture_code":40},"0853":{"zip_code":"8010853","prefecture":"福岡県","prefecture_kana":"フクオカケン","city":"北九州市門司区","city_kana":"キタキュウシュウシモジク","town":"東港町","town_kana":"ヒガシミナトマチ","prefecture_code":40},"0873":{"zip_code":"8010873","prefecture":"福岡県","prefecture_kana":"フクオカケン","city":"北九州市門司区","city_kana":"キタキュウシュウシモジク","town":"東門司","town_kana":"ヒガシモジ","prefecture_code":40},"0813":{"zip_code":"8010813","prefecture":"福岡県","prefecture_kana":"フクオカケン","city":"北九州市門司区","city_kana":"キタキュウシュウシモジク","town":"柄杓田","town_kana":"ヒシャクダ","prefecture_code":40},"0814":{"zip_code":"8010814","prefecture":"福岡県","prefecture_kana":"フクオカケン","city":"北九州市門司区","city_kana":"キタキュウシュウシモジク","town":"柄杓田町","town_kana":"ヒシャクダマチ","prefecture_code":40},"0842":{"zip_code":"8010842","prefecture":"福岡県","prefecture_kana":"フクオカケン","city":"北九州市門司区","city_kana":"キタキュウシュウシモジク","town":"広石","town_kana":"ヒロイシ","prefecture_code":40},"0875":{"zip_code":"8010875","prefecture":"福岡県","prefecture_kana":"フクオカケン","city":"北九州市門司区","city_kana":"キタキュウシュウシモジク","town":"法師庵","town_kana":"ホウシアン","prefecture_code":40},"0834":{"zip_code":"8010834","prefecture":"福岡県","prefecture_kana":"フクオカケン","city":"北九州市門司区","city_kana":"キタキュウシュウシモジク","town":"本町","town_kana":"ホンマチ","prefecture_code":40},"0831":{"zip_code":"8010831","prefecture":"福岡県","prefecture_kana":"フクオカケン","city":"北九州市門司区","city_kana":"キタキュウシュウシモジク","town":"丸山","town_kana":"マルヤマ","prefecture_code":40},"0824":{"zip_code":"8010824","prefecture":"福岡県","prefecture_kana":"フクオカケン","city":"北九州市門司区","city_kana":"キタキュウシュウシモジク","town":"丸山吉野町","town_kana":"マルヤマヨシノマチ","prefecture_code":40},"0852":{"zip_code":"8010852","prefecture":"福岡県","prefecture_kana":"フクオカケン","city":"北九州市門司区","city_kana":"キタキュウシュウシモジク","town":"港町","town_kana":"ミナトマチ","prefecture_code":40},"0855":{"zip_code":"8010855","prefecture":"福岡県","prefecture_kana":"フクオカケン","city":"北九州市門司区","city_kana":"キタキュウシュウシモジク","town":"門司","town_kana":"モジ","prefecture_code":40},"0832":{"zip_code":"8010832","prefecture":"福岡県","prefecture_kana":"フクオカケン","city":"北九州市門司区","city_kana":"キタキュウシュウシモジク","town":"元清滝","town_kana":"モトキヨタキ","prefecture_code":40}}