{"0000":[{"zip_code":"8020000","prefecture":"福岡県","prefecture_kana":"フクオカケン","city":"北九州市小倉北区","city_kana":"キタキュウシュウシコクラキタク","town":"","town_kana":"","prefecture_code":40},{"zip_code":"8020000","prefecture":"福岡県","prefecture_kana":"フクオカケン","city":"北九州市小倉南区","city_kana":"キタキュウシュウシコクラミナミク","town":"","town_kana":"","prefecture_code":40}],"0091":{"zip_code":"8020091","prefecture":"福岡県","prefecture_kana":"フクオカケン","city":"北九州市小倉北区","city_kana":"キタキュウシュウシコクラキタク","town":"藍島","town_kana":"アイノシマ","prefecture_code":40},"0032":{"zip_code":"8020032","prefecture":"福岡県","prefecture_kana":"フクオカケン","city":"北九州市小倉北区","city_kana":"キタキュウシュウシコクラキタク","town":"赤坂","town_kana":"アカサカ","prefecture_code":40},"0031":{"zip_code":"8020031","prefecture":"福岡県","prefecture_kana":"フクオカケン","city":"北九州市小倉北区","city_kana":"キタキュウシュウシコクラキタク","town":"赤坂海岸","town_kana":"アカサカカイガン","prefecture_code":40},"0001":{"zip_code":"8020001","prefecture":"福岡県","prefecture_kana":"フクオカケン","city":"北九州市小倉北区","city_kana":"キタキュウシュウシコクラキタク","town":"浅野","town_kana":"アサノ","prefecture_code":40},"0043":{"zip_code":"8020043","prefecture":"福岡県","prefecture_kana":"フクオカケン","city":"北九州市小倉北区","city_kana":"キタキュウシュウシコクラキタク","town":"足原","town_kana":"アシハラ","prefecture_code":40},"0042":{"zip_code":"8020042","prefecture":"福岡県","prefecture_kana":"フクオカケン","city":"北九州市小倉北区","city_kana":"キタキュウシュウシコクラキタク","town":"足立","town_kana":"アダチ","prefecture_code":40},"0006":{"zip_code":"8020006","prefecture":"福岡県","prefecture_kana":"フクオカケン","city":"北九州市小倉北区","city_kana":"キタキュウシュウシコクラキタク","town":"魚町","town_kana":"ウオマチ","prefecture_code":40},"0016":{"zip_code":"8020016","prefecture":"福岡県","prefecture_kana":"フクオカケン","city":"北九州市小倉北区","city_kana":"キタキュウシュウシコクラキタク","town":"宇佐町","town_kana":"ウサマチ","prefecture_code":40},"0092":{"zip_code":"8020092","prefecture":"福岡県","prefecture_kana":"フクオカケン","city":"北九州市小倉北区","city_kana":"キタキュウシュウシコクラキタク","town":"馬島","town_kana":"ウマシマ","prefecture_code":40},"0083":{"zip_code":"8020083","prefecture":"福岡県","prefecture_kana":"フクオカケン","city":"北九州市小倉北区","city_kana":"キタキュウシュウシコクラキタク","town":"江南町","town_kana":"エナミチョウ","prefecture_code":40},"0015":{"zip_code":"8020015","prefecture":"福岡県","prefecture_kana":"フクオカケン","city":"北九州市小倉北区","city_kana":"キタキュウシュウシコクラキタク","town":"大田町","town_kana":"オオタマチ","prefecture_code":40},"0026":{"zip_code":"8020026","prefecture":"福岡県","prefecture_kana":"フクオカケン","city":"北九州市小倉北区","city_kana":"キタキュウシュウシコクラキタク","town":"大畠","town_kana":"オオバタケ","prefecture_code":40},"0004":{"zip_code":"8020004","prefecture":"福岡県","prefecture_kana":"フクオカケン","city":"北九州市小倉北区","city_kana":"キタキュウシュウシコクラキタク","town":"鍛冶町","town_kana":"カジマチ","prefecture_code":40},"0064":{"zip_code":"8020064","prefecture":"福岡県","prefecture_kana":"フクオカケン","city":"北九州市小倉北区","city_kana":"キタキュウシュウシコクラキタク","town":"片野","town_kana":"カタノ","prefecture_code":40},"0062":{"zip_code":"8020062","prefecture":"福岡県","prefecture_kana":"フクオカケン","city":"北九州市小倉北区","city_kana":"キタキュウシュウシコクラキタク","town":"片野新町","town_kana":"カタノシンマチ","prefecture_code":40},"0022":{"zip_code":"8020022","prefecture":"福岡県","prefecture_kana":"フクオカケン","city":"北九州市小倉北区","city_kana":"キタキュウシュウシコクラキタク","town":"上富野","town_kana":"カミトミノ","prefecture_code":40},"0084":{"zip_code":"8020084","prefecture":"福岡県","prefecture_kana":"フクオカケン","city":"北九州市小倉北区","city_kana":"キタキュウシュウシコクラキタク","town":"香春口","town_kana":"カワラグチ","prefecture_code":40},"0045":{"zip_code":"8020045","prefecture":"福岡県","prefecture_kana":"フクオカケン","city":"北九州市小倉北区","city_kana":"キタキュウシュウシコクラキタク","town":"神岳","town_kana":"カンタケ","prefecture_code":40},"0073":{"zip_code":"8020073","prefecture":"福岡県","prefecture_kana":"フクオカケン","city":"北九州市小倉北区","city_kana":"キタキュウシュウシコクラキタク","town":"貴船町","town_kana":"キフネマチ","prefecture_code":40},"0002":{"zip_code":"8020002","prefecture":"福岡県","prefecture_kana":"フクオカケン","city":"北九州市小倉北区","city_kana":"キタキュウシュウシコクラキタク","town":"京町","town_kana":"キョウマチ","prefecture_code":40},"0052":{"zip_code":"8020052","prefecture":"福岡県","prefecture_kana":"フクオカケン","city":"北九州市小倉北区","city_kana":"キタキュウシュウシコクラキタク","town":"霧ケ丘","town_kana":"キリガオカ","prefecture_code":40},"0044":{"zip_code":"8020044","prefecture":"福岡県","prefecture_kana":"フクオカケン","city":"北九州市小倉北区","city_kana":"キタキュウシュウシコクラキタク","town":"熊本","town_kana":"クマモト","prefecture_code":40},"0056":{"zip_code":"8020056","prefecture":"福岡県","prefecture_kana":"フクオカケン","city":"北九州市小倉北区","city_kana":"キタキュウシュウシコクラキタク","town":"黒住町","town_kana":"クロズミチョウ","prefecture_code":40},"0051":{"zip_code":"8020051","prefecture":"福岡県","prefecture_kana":"フクオカケン","city":"北九州市小倉北区","city_kana":"キタキュウシュウシコクラキタク","town":"黒原","town_kana":"クロバル","prefecture_code":40},"0071":{"zip_code":"8020071","prefecture":"福岡県","prefecture_kana":"フクオカケン","city":"北九州市小倉北区","city_kana":"キタキュウシュウシコクラキタク","town":"黄金","town_kana":"コガネ","prefecture_code":40},"0003":{"zip_code":"8020003","prefecture":"福岡県","prefecture_kana":"フクオカケン","city":"北九州市小倉北区","city_kana":"キタキュウシュウシコクラキタク","town":"米町","town_kana":"コメマチ","prefecture_code":40},"0037":{"zip_code":"8020037","prefecture":"福岡県","prefecture_kana":"フクオカケン","city":"北九州市小倉北区","city_kana":"キタキュウシュウシコクラキタク","town":"小文字","town_kana":"コモンジ","prefecture_code":40},"0081":{"zip_code":"8020081","prefecture":"福岡県","prefecture_kana":"フクオカケン","city":"北九州市小倉北区","city_kana":"キタキュウシュウシコクラキタク","town":"紺屋町","town_kana":"コンヤマチ","prefecture_code":40},"0005":{"zip_code":"8020005","prefecture":"福岡県","prefecture_kana":"フクオカケン","city":"北九州市小倉北区","city_kana":"キタキュウシュウシコクラキタク","town":"堺町","town_kana":"サカイマチ","prefecture_code":40},"0061":{"zip_code":"8020061","prefecture":"福岡県","prefecture_kana":"フクオカケン","city":"北九州市小倉北区","city_kana":"キタキュウシュウシコクラキタク","town":"三郎丸","town_kana":"サブロウマル","prefecture_code":40},"0024":{"zip_code":"8020024","prefecture":"福岡県","prefecture_kana":"フクオカケン","city":"北九州市小倉北区","city_kana":"キタキュウシュウシコクラキタク","town":"山門町","town_kana":"サンモンチョウ","prefecture_code":40},"0011":{"zip_code":"8020011","prefecture":"福岡県","prefecture_kana":"フクオカケン","city":"北九州市小倉北区","city_kana":"キタキュウシュウシコクラキタク","town":"重住","town_kana":"シゲズミ","prefecture_code":40},"0023":{"zip_code":"8020023","prefecture":"福岡県","prefecture_kana":"フクオカケン","city":"北九州市小倉北区","city_kana":"キタキュウシュウシコクラキタク","town":"下富野","town_kana":"シモトミノ","prefecture_code":40},"0025":{"zip_code":"8020025","prefecture":"福岡県","prefecture_kana":"フクオカケン","city":"北九州市小倉北区","city_kana":"キタキュウシュウシコクラキタク","town":"寿山町","town_kana":"ジュザンチョウ","prefecture_code":40},"0055":{"zip_code":"8020055","prefecture":"福岡県","prefecture_kana":"フクオカケン","city":"北九州市小倉北区","city_kana":"キタキュウシュウシコクラキタク","town":"城野団地","town_kana":"ジョウノダンチ","prefecture_code":40},"0075":{"zip_code":"8020075","prefecture":"福岡県","prefecture_kana":"フクオカケン","city":"北九州市小倉北区","city_kana":"キタキュウシュウシコクラキタク","town":"昭和町","town_kana":"ショウワマチ","prefecture_code":40},"0074":{"zip_code":"8020074","prefecture":"福岡県","prefecture_kana":"フクオカケン","city":"北九州市小倉北区","city_kana":"キタキュウシュウシコクラキタク","town":"白銀","town_kana":"シラガネ","prefecture_code":40},"0038":{"zip_code":"8020038","prefecture":"福岡県","prefecture_kana":"フクオカケン","city":"北九州市小倉北区","city_kana":"キタキュウシュウシコクラキタク","town":"神幸町","town_kana":"シンコウチョウ","prefecture_code":40},"0012":{"zip_code":"8020012","prefecture":"福岡県","prefecture_kana":"フクオカケン","city":"北九州市小倉北区","city_kana":"キタキュウシュウシコクラキタク","town":"末広","town_kana":"スエヒロ","prefecture_code":40},"0034":{"zip_code":"8020034","prefecture":"福岡県","prefecture_kana":"フクオカケン","city":"北九州市小倉北区","city_kana":"キタキュウシュウシコクラキタク","town":"須賀町","town_kana":"スガマチ","prefecture_code":40},"0014":{"zip_code":"8020014","prefecture":"福岡県","prefecture_kana":"フクオカケン","city":"北九州市小倉北区","city_kana":"キタキュウシュウシコクラキタク","town":"砂津","town_kana":"スナツ","prefecture_code":40},"0008":{"zip_code":"8020008","prefecture":"福岡県","prefecture_kana":"フクオカケン","city":"北九州市小倉北区","city_kana":"キタキュウシュウシコクラキタク","town":"船頭町","town_kana":"センドウマチ","prefecture_code":40},"0007":{"zip_code":"8020007","prefecture":"福岡県","prefecture_kana":"フクオカケン","city":"北九州市小倉北区","city_kana":"キタキュウシュウシコクラキタク","town":"船場町","town_kana":"センバマチ","prefecture_code":40},"0021":{"zip_code":"8020021","prefecture":"福岡県","prefecture_kana":"フクオカケン","city":"北九州市小倉北区","city_kana":"キタキュウシュウシコクラキタク","town":"高浜","town_kana":"タカハマ","prefecture_code":40},"0053":{"zip_code":"8020053","prefecture":"福岡県","prefecture_kana":"フクオカケン","city":"北九州市小倉北区","city_kana":"キタキュウシュウシコクラキタク","town":"高坊","town_kana":"タカボウ","prefecture_code":40},"0035":{"zip_code":"8020035","prefecture":"福岡県","prefecture_kana":"フクオカケン","city":"北九州市小倉北区","city_kana":"キタキュウシュウシコクラキタク","town":"常盤町","town_kana":"トキワマチ","prefecture_code":40},"0036":{"zip_code":"8020036","prefecture":"福岡県","prefecture_kana":"フクオカケン","city":"北九州市小倉北区","city_kana":"キタキュウシュウシコクラキタク","town":"富野","town_kana":"トミノ","prefecture_code":40},"0033":{"zip_code":"8020033","prefecture":"福岡県","prefecture_kana":"フクオカケン","city":"北九州市小倉北区","city_kana":"キタキュウシュウシコクラキタク","town":"富野台","town_kana":"トミノダイ","prefecture_code":40},"0076":{"zip_code":"8020076","prefecture":"福岡県","prefecture_kana":"フクオカケン","city":"北九州市小倉北区","city_kana":"キタキュウシュウシコクラキタク","town":"中島","town_kana":"ナカシマ","prefecture_code":40},"0018":{"zip_code":"8020018","prefecture":"福岡県","prefecture_kana":"フクオカケン","city":"北九州市小倉北区","city_kana":"キタキュウシュウシコクラキタク","town":"中津口","town_kana":"ナカツグチ","prefecture_code":40},"0013":{"zip_code":"8020013","prefecture":"福岡県","prefecture_kana":"フクオカケン","city":"北九州市小倉北区","city_kana":"キタキュウシュウシコクラキタク","town":"長浜町","town_kana":"ナガハママチ","prefecture_code":40},"0066":{"zip_code":"8020066","prefecture":"福岡県","prefecture_kana":"フクオカケン","city":"北九州市小倉北区","city_kana":"キタキュウシュウシコクラキタク","town":"萩崎町","town_kana":"ハギザキマチ","prefecture_code":40},"0077":{"zip_code":"8020077","prefecture":"福岡県","prefecture_kana":"フクオカケン","city":"北九州市小倉北区","city_kana":"キタキュウシュウシコクラキタク","town":"馬借","town_kana":"バシャク","prefecture_code":40},"0072":{"zip_code":"8020072","prefecture":"福岡県","prefecture_kana":"フクオカケン","city":"北九州市小倉北区","city_kana":"キタキュウシュウシコクラキタク","town":"東篠崎","town_kana":"ヒガシシノザキ","prefecture_code":40},"0054":{"zip_code":"8020054","prefecture":"福岡県","prefecture_kana":"フクオカケン","city":"北九州市小倉北区","city_kana":"キタキュウシュウシコクラキタク","town":"東城野町","town_kana":"ヒガシジョウノマチ","prefecture_code":40},"0082":{"zip_code":"8020082","prefecture":"福岡県","prefecture_kana":"フクオカケン","city":"北九州市小倉北区","city_kana":"キタキュウシュウシコクラキタク","town":"古船場町","town_kana":"フルセンバマチ","prefecture_code":40},"0065":{"zip_code":"8020065","prefecture":"福岡県","prefecture_kana":"フクオカケン","city":"北九州市小倉北区","city_kana":"キタキュウシュウシコクラキタク","town":"三萩野","town_kana":"ミハギノ","prefecture_code":40},"0041":{"zip_code":"8020041","prefecture":"福岡県","prefecture_kana":"フクオカケン","city":"北九州市小倉北区","city_kana":"キタキュウシュウシコクラキタク","town":"妙見町","town_kana":"ミョウケンチョウ","prefecture_code":40},"0017":{"zip_code":"8020017","prefecture":"福岡県","prefecture_kana":"フクオカケン","city":"北九州市小倉北区","city_kana":"キタキュウシュウシコクラキタク","town":"明和町","town_kana":"メイワマチ","prefecture_code":40},"0085":{"zip_code":"8020085","prefecture":"福岡県","prefecture_kana":"フクオカケン","city":"北九州市小倉北区","city_kana":"キタキュウシュウシコクラキタク","town":"吉野町","town_kana":"ヨシノマチ","prefecture_code":40},"0063":{"zip_code":"8020063","prefecture":"福岡県","prefecture_kana":"フクオカケン","city":"北九州市小倉北区","city_kana":"キタキュウシュウシコクラキタク","town":"若富士町","town_kana":"ワカフジチョウ","prefecture_code":40},"0838":{"zip_code":"8020838","prefecture":"福岡県","prefecture_kana":"フクオカケン","city":"北九州市小倉南区","city_kana":"キタキュウシュウシコクラミナミク","town":"石田町","town_kana":"イシダマチ","prefecture_code":40},"0836":{"zip_code":"8020836","prefecture":"福岡県","prefecture_kana":"フクオカケン","city":"北九州市小倉南区","city_kana":"キタキュウシュウシコクラミナミク","town":"石田南","town_kana":"イシダミナミ","prefecture_code":40},"0834":{"zip_code":"8020834","prefecture":"福岡県","prefecture_kana":"フクオカケン","city":"北九州市小倉南区","city_kana":"キタキュウシュウシコクラミナミク","town":"隠蓑","town_kana":"カクレミノ","prefecture_code":40},"0833":{"zip_code":"8020833","prefecture":"福岡県","prefecture_kana":"フクオカケン","city":"北九州市小倉南区","city_kana":"キタキュウシュウシコクラミナミク","town":"上石田","town_kana":"カミイシダ","prefecture_code":40},"0978":{"zip_code":"8020978","prefecture":"福岡県","prefecture_kana":"フクオカケン","city":"北九州市小倉南区","city_kana":"キタキュウシュウシコクラミナミク","town":"蒲生","town_kana":"ガモウ","prefecture_code":40},"0981":{"zip_code":"8020981","prefecture":"福岡県","prefecture_kana":"フクオカケン","city":"北九州市小倉南区","city_kana":"キタキュウシュウシコクラミナミク","town":"企救丘","town_kana":"キクガオカ","prefecture_code":40},"0841":{"zip_code":"8020841","prefecture":"福岡県","prefecture_kana":"フクオカケン","city":"北九州市小倉南区","city_kana":"キタキュウシュウシコクラミナミク","town":"北方","town_kana":"キタガタ","prefecture_code":40},"0985":{"zip_code":"8020985","prefecture":"福岡県","prefecture_kana":"フクオカケン","city":"北九州市小倉南区","city_kana":"キタキュウシュウシコクラミナミク","town":"志井","town_kana":"シイ","prefecture_code":40},"0984":{"zip_code":"8020984","prefecture":"福岡県","prefecture_kana":"フクオカケン","city":"北九州市小倉南区","city_kana":"キタキュウシュウシコクラミナミク","town":"志井公園","town_kana":"シイコウエン","prefecture_code":40},"0986":{"zip_code":"8020986","prefecture":"福岡県","prefecture_kana":"フクオカケン","city":"北九州市小倉南区","city_kana":"キタキュウシュウシコクラミナミク","town":"志井鷹羽台","town_kana":"シイタカハダイ","prefecture_code":40},"0811":{"zip_code":"8020811","prefecture":"福岡県","prefecture_kana":"フクオカケン","city":"北九州市小倉南区","city_kana":"キタキュウシュウシコクラミナミク","town":"重住","town_kana":"シゲズミ","prefecture_code":40},"0983":{"zip_code":"8020983","prefecture":"福岡県","prefecture_kana":"フクオカケン","city":"北九州市小倉南区","city_kana":"キタキュウシュウシコクラミナミク","town":"志徳","town_kana":"シトク","prefecture_code":40},"0832":{"zip_code":"8020832","prefecture":"福岡県","prefecture_kana":"フクオカケン","city":"北九州市小倉南区","city_kana":"キタキュウシュウシコクラミナミク","town":"下石田","town_kana":"シモイシダ","prefecture_code":40},"0804":{"zip_code":"8020804","prefecture":"福岡県","prefecture_kana":"フクオカケン","city":"北九州市小倉南区","city_kana":"キタキュウシュウシコクラミナミク","town":"下城野","town_kana":"シモジョウノ","prefecture_code":40},"0977":{"zip_code":"8020977","prefecture":"福岡県","prefecture_kana":"フクオカケン","city":"北九州市小倉南区","city_kana":"キタキュウシュウシコクラミナミク","town":"下南方","town_kana":"シモミナミガタ","prefecture_code":40},"0802":{"zip_code":"8020802","prefecture":"福岡県","prefecture_kana":"フクオカケン","city":"北九州市小倉南区","city_kana":"キタキュウシュウシコクラミナミク","town":"城野","town_kana":"ジョウノ","prefecture_code":40},"0973":{"zip_code":"8020973","prefecture":"福岡県","prefecture_kana":"フクオカケン","city":"北九州市小倉南区","city_kana":"キタキュウシュウシコクラミナミク","town":"星和台","town_kana":"セイワダイ","prefecture_code":40},"0974":{"zip_code":"8020974","prefecture":"福岡県","prefecture_kana":"フクオカケン","city":"北九州市小倉南区","city_kana":"キタキュウシュウシコクラミナミク","town":"徳力","town_kana":"トクリキ","prefecture_code":40},"0979":{"zip_code":"8020979","prefecture":"福岡県","prefecture_kana":"フクオカケン","city":"北九州市小倉南区","city_kana":"キタキュウシュウシコクラミナミク","town":"徳力新町","town_kana":"トクリキシンマチ","prefecture_code":40},"0975":{"zip_code":"8020975","prefecture":"福岡県","prefecture_kana":"フクオカケン","city":"北九州市小倉南区","city_kana":"キタキュウシュウシコクラミナミク","town":"徳力団地","town_kana":"トクリキダンチ","prefecture_code":40},"0812":{"zip_code":"8020812","prefecture":"福岡県","prefecture_kana":"フクオカケン","city":"北九州市小倉南区","city_kana":"キタキュウシュウシコクラミナミク","town":"西水町","town_kana":"ニシミズマチ","prefecture_code":40},"0814":{"zip_code":"8020814","prefecture":"福岡県","prefecture_kana":"フクオカケン","city":"北九州市小倉南区","city_kana":"キタキュウシュウシコクラミナミク","town":"蜷田若園","town_kana":"ニナタワカゾノ","prefecture_code":40},"0805":{"zip_code":"8020805","prefecture":"福岡県","prefecture_kana":"フクオカケン","city":"北九州市小倉南区","city_kana":"キタキュウシュウシコクラミナミク","town":"八幡町","town_kana":"ハチマンチョウ","prefecture_code":40},"0837":{"zip_code":"8020837","prefecture":"福岡県","prefecture_kana":"フクオカケン","city":"北九州市小倉南区","city_kana":"キタキュウシュウシコクラミナミク","town":"葉山町","town_kana":"ハヤマチョウ","prefecture_code":40},"0803":{"zip_code":"8020803","prefecture":"福岡県","prefecture_kana":"フクオカケン","city":"北九州市小倉南区","city_kana":"キタキュウシュウシコクラミナミク","town":"春ケ丘","town_kana":"ハルガオカ","prefecture_code":40},"0813":{"zip_code":"8020813","prefecture":"福岡県","prefecture_kana":"フクオカケン","city":"北九州市小倉南区","city_kana":"キタキュウシュウシコクラミナミク","town":"東水町","town_kana":"ヒガシミズマチ","prefecture_code":40},"0842":{"zip_code":"8020842","prefecture":"福岡県","prefecture_kana":"フクオカケン","city":"北九州市小倉南区","city_kana":"キタキュウシュウシコクラミナミク","town":"日の出町","town_kana":"ヒノデマチ","prefecture_code":40},"0801":{"zip_code":"8020801","prefecture":"福岡県","prefecture_kana":"フクオカケン","city":"北九州市小倉南区","city_kana":"キタキュウシュウシコクラミナミク","town":"富士見","town_kana":"フジミ","prefecture_code":40},"0835":{"zip_code":"8020835","prefecture":"福岡県","prefecture_kana":"フクオカケン","city":"北九州市小倉南区","city_kana":"キタキュウシュウシコクラミナミク","town":"堀越","town_kana":"ホリコシ","prefecture_code":40},"0823":{"zip_code":"8020823","prefecture":"福岡県","prefecture_kana":"フクオカケン","city":"北九州市小倉南区","city_kana":"キタキュウシュウシコクラミナミク","town":"舞ケ丘","town_kana":"マイガオカ","prefecture_code":40},"0976":{"zip_code":"8020976","prefecture":"福岡県","prefecture_kana":"フクオカケン","city":"北九州市小倉南区","city_kana":"キタキュウシュウシコクラミナミク","town":"南方","town_kana":"ミナミガタ","prefecture_code":40},"0815":{"zip_code":"8020815","prefecture":"福岡県","prefecture_kana":"フクオカケン","city":"北九州市小倉南区","city_kana":"キタキュウシュウシコクラミナミク","town":"南若園町","town_kana":"ミナミワカゾノマチ","prefecture_code":40},"0972":{"zip_code":"8020972","prefecture":"福岡県","prefecture_kana":"フクオカケン","city":"北九州市小倉南区","city_kana":"キタキュウシュウシコクラミナミク","town":"守恒","town_kana":"モリツネ","prefecture_code":40},"0971":{"zip_code":"8020971","prefecture":"福岡県","prefecture_kana":"フクオカケン","city":"北九州市小倉南区","city_kana":"キタキュウシュウシコクラミナミク","town":"守恒本町","town_kana":"モリツネホンマチ","prefecture_code":40},"0831":{"zip_code":"8020831","prefecture":"福岡県","prefecture_kana":"フクオカケン","city":"北九州市小倉南区","city_kana":"キタキュウシュウシコクラミナミク","town":"八重洲町","town_kana":"ヤエスマチ","prefecture_code":40},"0982":{"zip_code":"8020982","prefecture":"福岡県","prefecture_kana":"フクオカケン","city":"北九州市小倉南区","city_kana":"キタキュウシュウシコクラミナミク","town":"山手","town_kana":"ヤマテ","prefecture_code":40},"0824":{"zip_code":"8020824","prefecture":"福岡県","prefecture_kana":"フクオカケン","city":"北九州市小倉南区","city_kana":"キタキュウシュウシコクラミナミク","town":"横代","town_kana":"ヨコシロ","prefecture_code":40},"0825":{"zip_code":"8020825","prefecture":"福岡県","prefecture_kana":"フクオカケン","city":"北九州市小倉南区","city_kana":"キタキュウシュウシコクラミナミク","town":"横代葉山","town_kana":"ヨコシロハヤマ","prefecture_code":40},"0822":{"zip_code":"8020822","prefecture":"福岡県","prefecture_kana":"フクオカケン","city":"北九州市小倉南区","city_kana":"キタキュウシュウシコクラミナミク","town":"横代東町","town_kana":"ヨコシロヒガシマチ","prefecture_code":40},"0826":{"zip_code":"8020826","prefecture":"福岡県","prefecture_kana":"フクオカケン","city":"北九州市小倉南区","city_kana":"キタキュウシュウシコクラミナミク","town":"横代南町","town_kana":"ヨコシロミナミマチ","prefecture_code":40},"0821":{"zip_code":"8020821","prefecture":"福岡県","prefecture_kana":"フクオカケン","city":"北九州市小倉南区","city_kana":"キタキュウシュウシコクラミナミク","town":"横代北町","town_kana":"ヨコシロキタマチ","prefecture_code":40},"0816":{"zip_code":"8020816","prefecture":"福岡県","prefecture_kana":"フクオカケン","city":"北九州市小倉南区","city_kana":"キタキュウシュウシコクラミナミク","town":"若園","town_kana":"ワカゾノ","prefecture_code":40}}