{"0822":{"zip_code":"8030822","prefecture":"福岡県","prefecture_kana":"フクオカケン","city":"北九州市小倉北区","city_kana":"キタキュウシュウシコクラキタク","town":"青葉","town_kana":"アオバ","prefecture_code":40},"0833":{"zip_code":"8030833","prefecture":"福岡県","prefecture_kana":"フクオカケン","city":"北九州市小倉北区","city_kana":"キタキュウシュウシコクラキタク","town":"朝日ケ丘","town_kana":"アサヒガオカ","prefecture_code":40},"0828":{"zip_code":"8030828","prefecture":"福岡県","prefecture_kana":"フクオカケン","city":"北九州市小倉北区","city_kana":"キタキュウシュウシコクラキタク","town":"愛宕","town_kana":"アタゴ","prefecture_code":40},"0842":{"zip_code":"8030842","prefecture":"福岡県","prefecture_kana":"フクオカケン","city":"北九州市小倉北区","city_kana":"キタキュウシュウシコクラキタク","town":"泉台","town_kana":"イズミダイ","prefecture_code":40},"0824":{"zip_code":"8030824","prefecture":"福岡県","prefecture_kana":"フクオカケン","city":"北九州市小倉北区","city_kana":"キタキュウシュウシコクラキタク","town":"板櫃町","town_kana":"イタビツマチ","prefecture_code":40},"0835":{"zip_code":"8030835","prefecture":"福岡県","prefecture_kana":"フクオカケン","city":"北九州市小倉北区","city_kana":"キタキュウシュウシコクラキタク","town":"井堀","town_kana":"イボリ","prefecture_code":40},"0862":{"zip_code":"8030862","prefecture":"福岡県","prefecture_kana":"フクオカケン","city":"北九州市小倉北区","city_kana":"キタキュウシュウシコクラキタク","town":"今町","town_kana":"イママチ","prefecture_code":40},"0821":{"zip_code":"8030821","prefecture":"福岡県","prefecture_kana":"フクオカケン","city":"北九州市小倉北区","city_kana":"キタキュウシュウシコクラキタク","town":"鋳物師町","town_kana":"イモジマチ","prefecture_code":40},"0814":{"zip_code":"8030814","prefecture":"福岡県","prefecture_kana":"フクオカケン","city":"北九州市小倉北区","city_kana":"キタキュウシュウシコクラキタク","town":"大手町","town_kana":"オオテマチ","prefecture_code":40},"0816":{"zip_code":"8030816","prefecture":"福岡県","prefecture_kana":"フクオカケン","city":"北九州市小倉北区","city_kana":"キタキュウシュウシコクラキタク","town":"金田","town_kana":"カナダ","prefecture_code":40},"0845":{"zip_code":"8030845","prefecture":"福岡県","prefecture_kana":"フクオカケン","city":"北九州市小倉北区","city_kana":"キタキュウシュウシコクラキタク","town":"上到津","town_kana":"カミイトウヅ","prefecture_code":40},"0851":{"zip_code":"8030851","prefecture":"福岡県","prefecture_kana":"フクオカケン","city":"北九州市小倉北区","city_kana":"キタキュウシュウシコクラキタク","town":"木町","town_kana":"キマチ","prefecture_code":40},"0841":{"zip_code":"8030841","prefecture":"福岡県","prefecture_kana":"フクオカケン","city":"北九州市小倉北区","city_kana":"キタキュウシュウシコクラキタク","town":"清水","town_kana":"キヨミズ","prefecture_code":40},"0843":{"zip_code":"8030843","prefecture":"福岡県","prefecture_kana":"フクオカケン","city":"北九州市小倉北区","city_kana":"キタキュウシュウシコクラキタク","town":"金鶏町","town_kana":"キンケイチョウ","prefecture_code":40},"0864":{"zip_code":"8030864","prefecture":"福岡県","prefecture_kana":"フクオカケン","city":"北九州市小倉北区","city_kana":"キタキュウシュウシコクラキタク","town":"熊谷","town_kana":"クマガイ","prefecture_code":40},"0803":{"zip_code":"8030803","prefecture":"福岡県","prefecture_kana":"フクオカケン","city":"北九州市小倉北区","city_kana":"キタキュウシュウシコクラキタク","town":"許斐町","town_kana":"コノミマチ","prefecture_code":40},"0823":{"zip_code":"8030823","prefecture":"福岡県","prefecture_kana":"フクオカケン","city":"北九州市小倉北区","city_kana":"キタキュウシュウシコクラキタク","town":"菜園場","town_kana":"サエンバ","prefecture_code":40},"0854":{"zip_code":"8030854","prefecture":"福岡県","prefecture_kana":"フクオカケン","city":"北九州市小倉北区","city_kana":"キタキュウシュウシコクラキタク","town":"皿山町","town_kana":"サラヤママチ","prefecture_code":40},"0861":{"zip_code":"8030861","prefecture":"福岡県","prefecture_kana":"フクオカケン","city":"北九州市小倉北区","city_kana":"キタキュウシュウシコクラキタク","town":"篠崎","town_kana":"シノザキ","prefecture_code":40},"0846":{"zip_code":"8030846","prefecture":"福岡県","prefecture_kana":"フクオカケン","city":"北九州市小倉北区","city_kana":"キタキュウシュウシコクラキタク","town":"下到津","town_kana":"シモイトウヅ","prefecture_code":40},"0813":{"zip_code":"8030813","prefecture":"福岡県","prefecture_kana":"フクオカケン","city":"北九州市小倉北区","city_kana":"キタキュウシュウシコクラキタク","town":"城内","town_kana":"ジョウナイ","prefecture_code":40},"0825":{"zip_code":"8030825","prefecture":"福岡県","prefecture_kana":"フクオカケン","city":"北九州市小倉北区","city_kana":"キタキュウシュウシコクラキタク","town":"白萩町","town_kana":"シラハギマチ","prefecture_code":40},"0852":{"zip_code":"8030852","prefecture":"福岡県","prefecture_kana":"フクオカケン","city":"北九州市小倉北区","city_kana":"キタキュウシュウシコクラキタク","town":"新高田","town_kana":"シンタカダ","prefecture_code":40},"0805":{"zip_code":"8030805","prefecture":"福岡県","prefecture_kana":"フクオカケン","city":"北九州市小倉北区","city_kana":"キタキュウシュウシコクラキタク","town":"親和町","town_kana":"シンワマチ","prefecture_code":40},"0811":{"zip_code":"8030811","prefecture":"福岡県","prefecture_kana":"フクオカケン","city":"北九州市小倉北区","city_kana":"キタキュウシュウシコクラキタク","town":"大門","town_kana":"ダイモン","prefecture_code":40},"0853":{"zip_code":"8030853","prefecture":"福岡県","prefecture_kana":"フクオカケン","city":"北九州市小倉北区","city_kana":"キタキュウシュウシコクラキタク","town":"高尾","town_kana":"タカオ","prefecture_code":40},"0838":{"zip_code":"8030838","prefecture":"福岡県","prefecture_kana":"フクオカケン","city":"北九州市小倉北区","city_kana":"キタキュウシュウシコクラキタク","town":"高見台","town_kana":"タカミダイ","prefecture_code":40},"0826":{"zip_code":"8030826","prefecture":"福岡県","prefecture_kana":"フクオカケン","city":"北九州市小倉北区","city_kana":"キタキュウシュウシコクラキタク","town":"高峰町","town_kana":"タカミネチョウ","prefecture_code":40},"0855":{"zip_code":"8030855","prefecture":"福岡県","prefecture_kana":"フクオカケン","city":"北九州市小倉北区","city_kana":"キタキュウシュウシコクラキタク","town":"竪林町","town_kana":"タテバヤシマチ","prefecture_code":40},"0818":{"zip_code":"8030818","prefecture":"福岡県","prefecture_kana":"フクオカケン","city":"北九州市小倉北区","city_kana":"キタキュウシュウシコクラキタク","town":"竪町","town_kana":"タテマチ","prefecture_code":40},"0817":{"zip_code":"8030817","prefecture":"福岡県","prefecture_kana":"フクオカケン","city":"北九州市小倉北区","city_kana":"キタキュウシュウシコクラキタク","town":"田町","town_kana":"タマチ","prefecture_code":40},"0836":{"zip_code":"8030836","prefecture":"福岡県","prefecture_kana":"フクオカケン","city":"北九州市小倉北区","city_kana":"キタキュウシュウシコクラキタク","town":"中井","town_kana":"ナカイ","prefecture_code":40},"0837":{"zip_code":"8030837","prefecture":"福岡県","prefecture_kana":"フクオカケン","city":"北九州市小倉北区","city_kana":"キタキュウシュウシコクラキタク","town":"中井口","town_kana":"ナカイグチ","prefecture_code":40},"0804":{"zip_code":"8030804","prefecture":"福岡県","prefecture_kana":"フクオカケン","city":"北九州市小倉北区","city_kana":"キタキュウシュウシコクラキタク","town":"中井浜","town_kana":"ナカイハマ","prefecture_code":40},"0801":{"zip_code":"8030801","prefecture":"福岡県","prefecture_kana":"フクオカケン","city":"北九州市小倉北区","city_kana":"キタキュウシュウシコクラキタク","town":"西港町","town_kana":"ニシミナトマチ","prefecture_code":40},"0815":{"zip_code":"8030815","prefecture":"福岡県","prefecture_kana":"フクオカケン","city":"北九州市小倉北区","city_kana":"キタキュウシュウシコクラキタク","town":"原町","town_kana":"ハラマチ","prefecture_code":40},"0831":{"zip_code":"8030831","prefecture":"福岡県","prefecture_kana":"フクオカケン","city":"北九州市小倉北区","city_kana":"キタキュウシュウシコクラキタク","town":"日明","town_kana":"ヒアガリ","prefecture_code":40},"0802":{"zip_code":"8030802","prefecture":"福岡県","prefecture_kana":"フクオカケン","city":"北九州市小倉北区","city_kana":"キタキュウシュウシコクラキタク","town":"東港","town_kana":"ヒガシミナト","prefecture_code":40},"0832":{"zip_code":"8030832","prefecture":"福岡県","prefecture_kana":"フクオカケン","city":"北九州市小倉北区","city_kana":"キタキュウシュウシコクラキタク","town":"平松町","town_kana":"ヒラマツマチ","prefecture_code":40},"0856":{"zip_code":"8030856","prefecture":"福岡県","prefecture_kana":"フクオカケン","city":"北九州市小倉北区","city_kana":"キタキュウシュウシコクラキタク","town":"弁天町","town_kana":"ベンテンマチ","prefecture_code":40},"0844":{"zip_code":"8030844","prefecture":"福岡県","prefecture_kana":"フクオカケン","city":"北九州市小倉北区","city_kana":"キタキュウシュウシコクラキタク","town":"真鶴","town_kana":"マナヅル","prefecture_code":40},"0827":{"zip_code":"8030827","prefecture":"福岡県","prefecture_kana":"フクオカケン","city":"北九州市小倉北区","city_kana":"キタキュウシュウシコクラキタク","town":"緑ケ丘","town_kana":"ミドリガオカ","prefecture_code":40},"0863":{"zip_code":"8030863","prefecture":"福岡県","prefecture_kana":"フクオカケン","city":"北九州市小倉北区","city_kana":"キタキュウシュウシコクラキタク","town":"南丘","town_kana":"ミナミガオカ","prefecture_code":40},"0834":{"zip_code":"8030834","prefecture":"福岡県","prefecture_kana":"フクオカケン","city":"北九州市小倉北区","city_kana":"キタキュウシュウシコクラキタク","town":"都","town_kana":"ミヤコ","prefecture_code":40},"0812":{"zip_code":"8030812","prefecture":"福岡県","prefecture_kana":"フクオカケン","city":"北九州市小倉北区","city_kana":"キタキュウシュウシコクラキタク","town":"室町","town_kana":"ムロマチ","prefecture_code":40},"0865":{"zip_code":"8030865","prefecture":"福岡県","prefecture_kana":"フクオカケン","city":"北九州市小倉北区","city_kana":"キタキュウシュウシコクラキタク","town":"山田町","town_kana":"ヤマダマチ","prefecture_code":40},"0185":{"zip_code":"8030185","prefecture":"福岡県","prefecture_kana":"フクオカケン","city":"北九州市小倉南区","city_kana":"キタキュウシュウシコクラミナミク","town":"石原町","town_kana":"イシハラマチ","prefecture_code":40},"0183":{"zip_code":"8030183","prefecture":"福岡県","prefecture_kana":"フクオカケン","city":"北九州市小倉南区","city_kana":"キタキュウシュウシコクラミナミク","town":"市丸","town_kana":"イチマル","prefecture_code":40},"0189":{"zip_code":"8030189","prefecture":"福岡県","prefecture_kana":"フクオカケン","city":"北九州市小倉南区","city_kana":"キタキュウシュウシコクラミナミク","town":"井手浦","town_kana":"イデウラ","prefecture_code":40},"0261":{"zip_code":"8030261","prefecture":"福岡県","prefecture_kana":"フクオカケン","city":"北九州市小倉南区","city_kana":"キタキュウシュウシコクラミナミク","town":"合馬","town_kana":"オウマ","prefecture_code":40},"0271":{"zip_code":"8030271","prefecture":"福岡県","prefecture_kana":"フクオカケン","city":"北九州市小倉南区","city_kana":"キタキュウシュウシコクラミナミク","town":"長行","town_kana":"オサユキ","prefecture_code":40},"0273":{"zip_code":"8030273","prefecture":"福岡県","prefecture_kana":"フクオカケン","city":"北九州市小倉南区","city_kana":"キタキュウシュウシコクラミナミク","town":"長行東","town_kana":"オサユキヒガシ","prefecture_code":40},"0272":{"zip_code":"8030272","prefecture":"福岡県","prefecture_kana":"フクオカケン","city":"北九州市小倉南区","city_kana":"キタキュウシュウシコクラミナミク","town":"長行西","town_kana":"オサユキニシ","prefecture_code":40},"0267":{"zip_code":"8030267","prefecture":"福岡県","prefecture_kana":"フクオカケン","city":"北九州市小倉南区","city_kana":"キタキュウシュウシコクラミナミク","town":"頂吉","town_kana":"カグメヨシ","prefecture_code":40},"0184":{"zip_code":"8030184","prefecture":"福岡県","prefecture_kana":"フクオカケン","city":"北九州市小倉南区","city_kana":"キタキュウシュウシコクラミナミク","town":"木下","town_kana":"キノシタ","prefecture_code":40},"0182":{"zip_code":"8030182","prefecture":"福岡県","prefecture_kana":"フクオカケン","city":"北九州市小倉南区","city_kana":"キタキュウシュウシコクラミナミク","town":"小森","town_kana":"コモリ","prefecture_code":40},"0186":{"zip_code":"8030186","prefecture":"福岡県","prefecture_kana":"フクオカケン","city":"北九州市小倉南区","city_kana":"キタキュウシュウシコクラミナミク","town":"新道寺","town_kana":"シンドウジ","prefecture_code":40},"0268":{"zip_code":"8030268","prefecture":"福岡県","prefecture_kana":"フクオカケン","city":"北九州市小倉南区","city_kana":"キタキュウシュウシコクラミナミク","town":"高津尾","town_kana":"タカツオ","prefecture_code":40},"0275":{"zip_code":"8030275","prefecture":"福岡県","prefecture_kana":"フクオカケン","city":"北九州市小倉南区","city_kana":"キタキュウシュウシコクラミナミク","town":"高野","town_kana":"タカノ","prefecture_code":40},"0262":{"zip_code":"8030262","prefecture":"福岡県","prefecture_kana":"フクオカケン","city":"北九州市小倉南区","city_kana":"キタキュウシュウシコクラミナミク","town":"田代","town_kana":"タシロ","prefecture_code":40},"0263":{"zip_code":"8030263","prefecture":"福岡県","prefecture_kana":"フクオカケン","city":"北九州市小倉南区","city_kana":"キタキュウシュウシコクラミナミク","town":"辻三","town_kana":"ツジミツ","prefecture_code":40},"0266":{"zip_code":"8030266","prefecture":"福岡県","prefecture_kana":"フクオカケン","city":"北九州市小倉南区","city_kana":"キタキュウシュウシコクラミナミク","town":"道原","town_kana":"ドウバル","prefecture_code":40},"0276":{"zip_code":"8030276","prefecture":"福岡県","prefecture_kana":"フクオカケン","city":"北九州市小倉南区","city_kana":"キタキュウシュウシコクラミナミク","town":"徳吉","town_kana":"トクヨシ","prefecture_code":40},"0277":{"zip_code":"8030277","prefecture":"福岡県","prefecture_kana":"フクオカケン","city":"北九州市小倉南区","city_kana":"キタキュウシュウシコクラミナミク","town":"徳吉東","town_kana":"トクヨシヒガシ","prefecture_code":40},"0278":{"zip_code":"8030278","prefecture":"福岡県","prefecture_kana":"フクオカケン","city":"北九州市小倉南区","city_kana":"キタキュウシュウシコクラミナミク","town":"徳吉西","town_kana":"トクヨシニシ","prefecture_code":40},"0279":{"zip_code":"8030279","prefecture":"福岡県","prefecture_kana":"フクオカケン","city":"北九州市小倉南区","city_kana":"キタキュウシュウシコクラミナミク","town":"徳吉南","town_kana":"トクヨシミナミ","prefecture_code":40},"0274":{"zip_code":"8030274","prefecture":"福岡県","prefecture_kana":"フクオカケン","city":"北九州市小倉南区","city_kana":"キタキュウシュウシコクラミナミク","town":"長尾","town_kana":"ナガオ","prefecture_code":40},"0265":{"zip_code":"8030265","prefecture":"福岡県","prefecture_kana":"フクオカケン","city":"北九州市小倉南区","city_kana":"キタキュウシュウシコクラミナミク","town":"春吉","town_kana":"ハルヨシ","prefecture_code":40},"0180":{"zip_code":"8030180","prefecture":"福岡県","prefecture_kana":"フクオカケン","city":"北九州市小倉南区","city_kana":"キタキュウシュウシコクラミナミク","town":"平尾台","town_kana":"ヒラオダイ","prefecture_code":40},"0187":{"zip_code":"8030187","prefecture":"福岡県","prefecture_kana":"フクオカケン","city":"北九州市小倉南区","city_kana":"キタキュウシュウシコクラミナミク","town":"母原","town_kana":"モハラ","prefecture_code":40},"0188":{"zip_code":"8030188","prefecture":"福岡県","prefecture_kana":"フクオカケン","city":"北九州市小倉南区","city_kana":"キタキュウシュウシコクラミナミク","town":"母原","town_kana":"モハラ","prefecture_code":40},"0264":{"zip_code":"8030264","prefecture":"福岡県","prefecture_kana":"フクオカケン","city":"北九州市小倉南区","city_kana":"キタキュウシュウシコクラミナミク","town":"山本","town_kana":"ヤマモト","prefecture_code":40},"0181":{"zip_code":"8030181","prefecture":"福岡県","prefecture_kana":"フクオカケン","city":"北九州市小倉南区","city_kana":"キタキュウシュウシコクラミナミク","town":"呼野","town_kana":"ヨブノ","prefecture_code":40}}