{"0000":{"zip_code":"8080000","prefecture":"福岡県","prefecture_kana":"フクオカケン","city":"北九州市若松区","city_kana":"キタキュウシュウシワカマツク","town":"以下に掲載がない場合","town_kana":"イカニケイサイガナイバアイ","prefecture_code":40},"0141":{"zip_code":"8080141","prefecture":"福岡県","prefecture_kana":"フクオカケン","city":"北九州市若松区","city_kana":"キタキュウシュウシワカマツク","town":"青葉台東","town_kana":"アオバダイヒガシ","prefecture_code":40},"0143":{"zip_code":"8080143","prefecture":"福岡県","prefecture_kana":"フクオカケン","city":"北九州市若松区","city_kana":"キタキュウシュウシワカマツク","town":"青葉台西","town_kana":"アオバダイニシ","prefecture_code":40},"0142":{"zip_code":"8080142","prefecture":"福岡県","prefecture_kana":"フクオカケン","city":"北九州市若松区","city_kana":"キタキュウシュウシワカマツク","town":"青葉台南","town_kana":"アオバダイミナミ","prefecture_code":40},"0175":{"zip_code":"8080175","prefecture":"福岡県","prefecture_kana":"フクオカケン","city":"北九州市若松区","city_kana":"キタキュウシュウシワカマツク","town":"赤岩町（１０〜１２番地）","town_kana":"アカイワマチ(10-12バンチ)","prefecture_code":40},"0075":{"zip_code":"8080075","prefecture":"福岡県","prefecture_kana":"フクオカケン","city":"北九州市若松区","city_kana":"キタキュウシュウシワカマツク","town":"赤岩町（その他）","town_kana":"アカイワマチ(ソノタ)","prefecture_code":40},"0003":{"zip_code":"8080003","prefecture":"福岡県","prefecture_kana":"フクオカケン","city":"北九州市若松区","city_kana":"キタキュウシュウシワカマツク","town":"赤崎町","town_kana":"アカサキマチ","prefecture_code":40},"0073":{"zip_code":"8080073","prefecture":"福岡県","prefecture_kana":"フクオカケン","city":"北九州市若松区","city_kana":"キタキュウシュウシワカマツク","town":"赤島町","town_kana":"アカシママチ","prefecture_code":40},"0122":{"zip_code":"8080122","prefecture":"福岡県","prefecture_kana":"フクオカケン","city":"北九州市若松区","city_kana":"キタキュウシュウシワカマツク","town":"蜑住","town_kana":"アマスミ","prefecture_code":40},"0123":{"zip_code":"8080123","prefecture":"福岡県","prefecture_kana":"フクオカケン","city":"北九州市若松区","city_kana":"キタキュウシュウシワカマツク","town":"有毛","town_kana":"アリゲ","prefecture_code":40},"0022":{"zip_code":"8080022","prefecture":"福岡県","prefecture_kana":"フクオカケン","city":"北九州市若松区","city_kana":"キタキュウシュウシワカマツク","town":"安瀬","town_kana":"アンセ","prefecture_code":40},"0124":{"zip_code":"8080124","prefecture":"福岡県","prefecture_kana":"フクオカケン","city":"北九州市若松区","city_kana":"キタキュウシュウシワカマツク","town":"安屋","town_kana":"アンヤ","prefecture_code":40},"0071":{"zip_code":"8080071","prefecture":"福岡県","prefecture_kana":"フクオカケン","city":"北九州市若松区","city_kana":"キタキュウシュウシワカマツク","town":"今光","town_kana":"イマミツ","prefecture_code":40},"0014":{"zip_code":"8080014","prefecture":"福岡県","prefecture_kana":"フクオカケン","city":"北九州市若松区","city_kana":"キタキュウシュウシワカマツク","town":"栄盛川町","town_kana":"エイセイガワマチ","prefecture_code":40},"0032":{"zip_code":"8080032","prefecture":"福岡県","prefecture_kana":"フクオカケン","city":"北九州市若松区","city_kana":"キタキュウシュウシワカマツク","town":"老松","town_kana":"オイマツ","prefecture_code":40},"0061":{"zip_code":"8080061","prefecture":"福岡県","prefecture_kana":"フクオカケン","city":"北九州市若松区","city_kana":"キタキュウシュウシワカマツク","town":"大池町","town_kana":"オオイケマチ","prefecture_code":40},"0033":{"zip_code":"8080033","prefecture":"福岡県","prefecture_kana":"フクオカケン","city":"北九州市若松区","city_kana":"キタキュウシュウシワカマツク","town":"大井戸町","town_kana":"オオイドマチ","prefecture_code":40},"0051":{"zip_code":"8080051","prefecture":"福岡県","prefecture_kana":"フクオカケン","city":"北九州市若松区","city_kana":"キタキュウシュウシワカマツク","town":"大谷町","town_kana":"オオタニマチ","prefecture_code":40},"0133":{"zip_code":"8080133","prefecture":"福岡県","prefecture_kana":"フクオカケン","city":"北九州市若松区","city_kana":"キタキュウシュウシワカマツク","town":"大鳥居","town_kana":"オオトリイ","prefecture_code":40},"0008":[{"zip_code":"8080008","prefecture":"福岡県","prefecture_kana":"フクオカケン","city":"北九州市若松区","city_kana":"キタキュウシュウシワカマツク","town":"小竹（１〜１９５３、３００６〜３００８番地、相川、鬼ケ坂、唐木、","town_kana":"オダケ(1-1953、3006-3008バンチ、アイカワ、オニガサカ、カラキ、","prefecture_code":40},{"zip_code":"8080008","prefecture":"福岡県","prefecture_kana":"フクオカケン","city":"北九州市若松区","city_kana":"キタキュウシュウシワカマツク","town":"椿、脇ノ浦）","town_kana":"ツバキ、ワキノウラ)","prefecture_code":40}],"0108":{"zip_code":"8080108","prefecture":"福岡県","prefecture_kana":"フクオカケン","city":"北九州市若松区","city_kana":"キタキュウシュウシワカマツク","town":"小竹（その他）","town_kana":"オダケ(ソノタ)","prefecture_code":40},"0134":{"zip_code":"8080134","prefecture":"福岡県","prefecture_kana":"フクオカケン","city":"北九州市若松区","city_kana":"キタキュウシュウシワカマツク","town":"乙丸","town_kana":"オトマル","prefecture_code":40},"0106":{"zip_code":"8080106","prefecture":"福岡県","prefecture_kana":"フクオカケン","city":"北九州市若松区","city_kana":"キタキュウシュウシワカマツク","town":"片山","town_kana":"カタヤマ","prefecture_code":40},"0015":{"zip_code":"8080015","prefecture":"福岡県","prefecture_kana":"フクオカケン","city":"北九州市若松区","city_kana":"キタキュウシュウシワカマツク","town":"上原町","town_kana":"カミハラマチ","prefecture_code":40},"0105":{"zip_code":"8080105","prefecture":"福岡県","prefecture_kana":"フクオカケン","city":"北九州市若松区","city_kana":"キタキュウシュウシワカマツク","town":"鴨生田","town_kana":"カモオダ","prefecture_code":40},"0023":{"zip_code":"8080023","prefecture":"福岡県","prefecture_kana":"フクオカケン","city":"北九州市若松区","city_kana":"キタキュウシュウシワカマツク","town":"北浜","town_kana":"キタハマ","prefecture_code":40},"0027":{"zip_code":"8080027","prefecture":"福岡県","prefecture_kana":"フクオカケン","city":"北九州市若松区","city_kana":"キタキュウシュウシワカマツク","town":"北湊町","town_kana":"キタミナトマチ","prefecture_code":40},"0011":{"zip_code":"8080011","prefecture":"福岡県","prefecture_kana":"フクオカケン","city":"北九州市若松区","city_kana":"キタキュウシュウシワカマツク","town":"響南町","town_kana":"キョウナンマチ","prefecture_code":40},"0066":{"zip_code":"8080066","prefecture":"福岡県","prefecture_kana":"フクオカケン","city":"北九州市若松区","city_kana":"キタキュウシュウシワカマツク","town":"くきのうみ中央","town_kana":"クキノウミチュウオウ","prefecture_code":40},"0054":{"zip_code":"8080054","prefecture":"福岡県","prefecture_kana":"フクオカケン","city":"北九州市若松区","city_kana":"キタキュウシュウシワカマツク","town":"久岐の浜","town_kana":"クキノハマ","prefecture_code":40},"0007":{"zip_code":"8080007","prefecture":"福岡県","prefecture_kana":"フクオカケン","city":"北九州市若松区","city_kana":"キタキュウシュウシワカマツク","town":"小石","town_kana":"コイシ","prefecture_code":40},"0001":{"zip_code":"8080001","prefecture":"福岡県","prefecture_kana":"フクオカケン","city":"北九州市若松区","city_kana":"キタキュウシュウシワカマツク","town":"小石本村町","town_kana":"コイシホンムラマチ","prefecture_code":40},"0046":{"zip_code":"8080046","prefecture":"福岡県","prefecture_kana":"フクオカケン","city":"北九州市若松区","city_kana":"キタキュウシュウシワカマツク","town":"小糸町","town_kana":"コイトマチ","prefecture_code":40},"0002":{"zip_code":"8080002","prefecture":"福岡県","prefecture_kana":"フクオカケン","city":"北九州市若松区","city_kana":"キタキュウシュウシワカマツク","town":"向洋町","town_kana":"コウヨウマチ","prefecture_code":40},"0132":{"zip_code":"8080132","prefecture":"福岡県","prefecture_kana":"フクオカケン","city":"北九州市若松区","city_kana":"キタキュウシュウシワカマツク","town":"小敷","town_kana":"コシキ","prefecture_code":40},"0139":{"zip_code":"8080139","prefecture":"福岡県","prefecture_kana":"フクオカケン","city":"北九州市若松区","city_kana":"キタキュウシュウシワカマツク","town":"小敷ひびきの","town_kana":"コシキヒビキノ","prefecture_code":40},"0026":{"zip_code":"8080026","prefecture":"福岡県","prefecture_kana":"フクオカケン","city":"北九州市若松区","city_kana":"キタキュウシュウシワカマツク","town":"桜町","town_kana":"サクラマチ","prefecture_code":40},"0041":{"zip_code":"8080041","prefecture":"福岡県","prefecture_kana":"フクオカケン","city":"北九州市若松区","city_kana":"キタキュウシュウシワカマツク","town":"迫田町","town_kana":"サコダマチ","prefecture_code":40},"0131":{"zip_code":"8080131","prefecture":"福岡県","prefecture_kana":"フクオカケン","city":"北九州市若松区","city_kana":"キタキュウシュウシワカマツク","town":"塩屋","town_kana":"シオヤ","prefecture_code":40},"0005":{"zip_code":"8080005","prefecture":"福岡県","prefecture_kana":"フクオカケン","city":"北九州市若松区","city_kana":"キタキュウシュウシワカマツク","town":"下原町","town_kana":"シモハラマチ","prefecture_code":40},"0052":{"zip_code":"8080052","prefecture":"福岡県","prefecture_kana":"フクオカケン","city":"北九州市若松区","city_kana":"キタキュウシュウシワカマツク","town":"新大谷町","town_kana":"シンオオタニマチ","prefecture_code":40},"0053":{"zip_code":"8080053","prefecture":"福岡県","prefecture_kana":"フクオカケン","city":"北九州市若松区","city_kana":"キタキュウシュウシワカマツク","town":"修多羅","town_kana":"スタラ","prefecture_code":40},"0148":{"zip_code":"8080148","prefecture":"福岡県","prefecture_kana":"フクオカケン","city":"北九州市若松区","city_kana":"キタキュウシュウシワカマツク","town":"高須","town_kana":"タカス","prefecture_code":40},"0144":{"zip_code":"8080144","prefecture":"福岡県","prefecture_kana":"フクオカケン","city":"北九州市若松区","city_kana":"キタキュウシュウシワカマツク","town":"高須東","town_kana":"タカスヒガシ","prefecture_code":40},"0146":{"zip_code":"8080146","prefecture":"福岡県","prefecture_kana":"フクオカケン","city":"北九州市若松区","city_kana":"キタキュウシュウシワカマツク","town":"高須西","town_kana":"タカスニシ","prefecture_code":40},"0145":{"zip_code":"8080145","prefecture":"福岡県","prefecture_kana":"フクオカケン","city":"北九州市若松区","city_kana":"キタキュウシュウシワカマツク","town":"高須南","town_kana":"タカスミナミ","prefecture_code":40},"0147":{"zip_code":"8080147","prefecture":"福岡県","prefecture_kana":"フクオカケン","city":"北九州市若松区","city_kana":"キタキュウシュウシワカマツク","town":"高須北","town_kana":"タカスキタ","prefecture_code":40},"0121":{"zip_code":"8080121","prefecture":"福岡県","prefecture_kana":"フクオカケン","city":"北九州市若松区","city_kana":"キタキュウシュウシワカマツク","town":"竹並","town_kana":"タケナミ","prefecture_code":40},"0042":{"zip_code":"8080042","prefecture":"福岡県","prefecture_kana":"フクオカケン","city":"北九州市若松区","city_kana":"キタキュウシュウシワカマツク","town":"棚田町","town_kana":"タナダマチ","prefecture_code":40},"0076":{"zip_code":"8080076","prefecture":"福岡県","prefecture_kana":"フクオカケン","city":"北九州市若松区","city_kana":"キタキュウシュウシワカマツク","town":"童子丸","town_kana":"ドウジマル","prefecture_code":40},"0112":{"zip_code":"8080112","prefecture":"福岡県","prefecture_kana":"フクオカケン","city":"北九州市若松区","city_kana":"キタキュウシュウシワカマツク","town":"頓田","town_kana":"トンダ","prefecture_code":40},"0025":{"zip_code":"8080025","prefecture":"福岡県","prefecture_kana":"フクオカケン","city":"北九州市若松区","city_kana":"キタキュウシュウシワカマツク","town":"中川町","town_kana":"ナカガワマチ","prefecture_code":40},"0047":{"zip_code":"8080047","prefecture":"福岡県","prefecture_kana":"フクオカケン","city":"北九州市若松区","city_kana":"キタキュウシュウシワカマツク","town":"中畑町","town_kana":"ナカハタマチ","prefecture_code":40},"0013":{"zip_code":"8080013","prefecture":"福岡県","prefecture_kana":"フクオカケン","city":"北九州市若松区","city_kana":"キタキュウシュウシワカマツク","town":"波打町","town_kana":"ナミウチマチ","prefecture_code":40},"0004":{"zip_code":"8080004","prefecture":"福岡県","prefecture_kana":"フクオカケン","city":"北九州市若松区","city_kana":"キタキュウシュウシワカマツク","town":"西小石町","town_kana":"ニシコイシマチ","prefecture_code":40},"0031":{"zip_code":"8080031","prefecture":"福岡県","prefecture_kana":"フクオカケン","city":"北九州市若松区","city_kana":"キタキュウシュウシワカマツク","town":"西園町","town_kana":"ニシゾノマチ","prefecture_code":40},"0101":{"zip_code":"8080101","prefecture":"福岡県","prefecture_kana":"フクオカケン","city":"北九州市若松区","city_kana":"キタキュウシュウシワカマツク","town":"西天神町","town_kana":"ニシテンジンマチ","prefecture_code":40},"0043":{"zip_code":"8080043","prefecture":"福岡県","prefecture_kana":"フクオカケン","city":"北九州市若松区","city_kana":"キタキュウシュウシワカマツク","town":"西畑町","town_kana":"ニシハタマチ","prefecture_code":40},"0035":{"zip_code":"8080035","prefecture":"福岡県","prefecture_kana":"フクオカケン","city":"北九州市若松区","city_kana":"キタキュウシュウシワカマツク","town":"白山","town_kana":"ハクサン","prefecture_code":40},"0104":{"zip_code":"8080104","prefecture":"福岡県","prefecture_kana":"フクオカケン","city":"北九州市若松区","city_kana":"キタキュウシュウシワカマツク","town":"畠田","town_kana":"ハタケダ","prefecture_code":40},"0055":{"zip_code":"8080055","prefecture":"福岡県","prefecture_kana":"フクオカケン","city":"北九州市若松区","city_kana":"キタキュウシュウシワカマツク","town":"畑谷町","town_kana":"ハタダニマチ","prefecture_code":40},"0136":{"zip_code":"8080136","prefecture":"福岡県","prefecture_kana":"フクオカケン","city":"北九州市若松区","city_kana":"キタキュウシュウシワカマツク","town":"花野路","town_kana":"ハナノジ","prefecture_code":40},"0024":{"zip_code":"8080024","prefecture":"福岡県","prefecture_kana":"フクオカケン","city":"北九州市若松区","city_kana":"キタキュウシュウシワカマツク","town":"浜町","town_kana":"ハママチ","prefecture_code":40},"0113":{"zip_code":"8080113","prefecture":"福岡県","prefecture_kana":"フクオカケン","city":"北九州市若松区","city_kana":"キタキュウシュウシワカマツク","town":"払川","town_kana":"ハライガワ","prefecture_code":40},"0016":{"zip_code":"8080016","prefecture":"福岡県","prefecture_kana":"フクオカケン","city":"北九州市若松区","city_kana":"キタキュウシュウシワカマツク","town":"原町","town_kana":"ハラマチ","prefecture_code":40},"0017":{"zip_code":"8080017","prefecture":"福岡県","prefecture_kana":"フクオカケン","city":"北九州市若松区","city_kana":"キタキュウシュウシワカマツク","town":"東小石町","town_kana":"ヒガシコイシマチ","prefecture_code":40},"0044":{"zip_code":"8080044","prefecture":"福岡県","prefecture_kana":"フクオカケン","city":"北九州市若松区","city_kana":"キタキュウシュウシワカマツク","town":"東畑町","town_kana":"ヒガシハタマチ","prefecture_code":40},"0102":{"zip_code":"8080102","prefecture":"福岡県","prefecture_kana":"フクオカケン","city":"北九州市若松区","city_kana":"キタキュウシュウシワカマツク","town":"東二島","town_kana":"ヒガシフタジマ","prefecture_code":40},"0135":{"zip_code":"8080135","prefecture":"福岡県","prefecture_kana":"フクオカケン","city":"北九州市若松区","city_kana":"キタキュウシュウシワカマツク","town":"ひびきの","town_kana":"ヒビキノ","prefecture_code":40},"0138":{"zip_code":"8080138","prefecture":"福岡県","prefecture_kana":"フクオカケン","city":"北九州市若松区","city_kana":"キタキュウシュウシワカマツク","town":"ひびきの北","town_kana":"ヒビキノキタ","prefecture_code":40},"0137":{"zip_code":"8080137","prefecture":"福岡県","prefecture_kana":"フクオカケン","city":"北九州市若松区","city_kana":"キタキュウシュウシワカマツク","town":"ひびきの南","town_kana":"ヒビキノミナミ","prefecture_code":40},"0021":{"zip_code":"8080021","prefecture":"福岡県","prefecture_kana":"フクオカケン","city":"北九州市若松区","city_kana":"キタキュウシュウシワカマツク","town":"響町","town_kana":"ヒビキマチ","prefecture_code":40},"0012":{"zip_code":"8080012","prefecture":"福岡県","prefecture_kana":"フクオカケン","city":"北九州市若松区","city_kana":"キタキュウシュウシワカマツク","town":"深町","town_kana":"フカマチ","prefecture_code":40},"0065":{"zip_code":"8080065","prefecture":"福岡県","prefecture_kana":"フクオカケン","city":"北九州市若松区","city_kana":"キタキュウシュウシワカマツク","town":"藤木","town_kana":"フジノキ","prefecture_code":40},"0074":{"zip_code":"8080074","prefecture":"福岡県","prefecture_kana":"フクオカケン","city":"北九州市若松区","city_kana":"キタキュウシュウシワカマツク","town":"藤ノ木","town_kana":"フジノキ","prefecture_code":40},"0103":{"zip_code":"8080103","prefecture":"福岡県","prefecture_kana":"フクオカケン","city":"北九州市若松区","city_kana":"キタキュウシュウシワカマツク","town":"二島","town_kana":"フタジマ","prefecture_code":40},"0062":{"zip_code":"8080062","prefecture":"福岡県","prefecture_kana":"フクオカケン","city":"北九州市若松区","city_kana":"キタキュウシュウシワカマツク","town":"古前","town_kana":"フルマエ","prefecture_code":40},"0034":{"zip_code":"8080034","prefecture":"福岡県","prefecture_kana":"フクオカケン","city":"北九州市若松区","city_kana":"キタキュウシュウシワカマツク","town":"本町","town_kana":"ホンマチ","prefecture_code":40},"0109":{"zip_code":"8080109","prefecture":"福岡県","prefecture_kana":"フクオカケン","city":"北九州市若松区","city_kana":"キタキュウシュウシワカマツク","town":"南二島","town_kana":"ミナミフタジマ","prefecture_code":40},"0006":{"zip_code":"8080006","prefecture":"福岡県","prefecture_kana":"フクオカケン","city":"北九州市若松区","city_kana":"キタキュウシュウシワカマツク","town":"宮前町","town_kana":"ミヤマエマチ","prefecture_code":40},"0064":{"zip_code":"8080064","prefecture":"福岡県","prefecture_kana":"フクオカケン","city":"北九州市若松区","city_kana":"キタキュウシュウシワカマツク","town":"宮丸","town_kana":"ミヤマル","prefecture_code":40},"0111":{"zip_code":"8080111","prefecture":"福岡県","prefecture_kana":"フクオカケン","city":"北九州市若松区","city_kana":"キタキュウシュウシワカマツク","town":"柳崎町","town_kana":"ヤナガサキマチ","prefecture_code":40},"0036":{"zip_code":"8080036","prefecture":"福岡県","prefecture_kana":"フクオカケン","city":"北九州市若松区","city_kana":"キタキュウシュウシワカマツク","town":"山手町","town_kana":"ヤマテマチ","prefecture_code":40},"0045":{"zip_code":"8080045","prefecture":"福岡県","prefecture_kana":"フクオカケン","city":"北九州市若松区","city_kana":"キタキュウシュウシワカマツク","town":"山ノ堂町","town_kana":"ヤマノドウマチ","prefecture_code":40},"0072":{"zip_code":"8080072","prefecture":"福岡県","prefecture_kana":"フクオカケン","city":"北九州市若松区","city_kana":"キタキュウシュウシワカマツク","town":"百合野町","town_kana":"ユリノマチ","prefecture_code":40},"0077":{"zip_code":"8080077","prefecture":"福岡県","prefecture_kana":"フクオカケン","city":"北九州市若松区","city_kana":"キタキュウシュウシワカマツク","town":"用勺町","town_kana":"ヨウジャクマチ","prefecture_code":40},"0063":{"zip_code":"8080063","prefecture":"福岡県","prefecture_kana":"フクオカケン","city":"北九州市若松区","city_kana":"キタキュウシュウシワカマツク","town":"和田町","town_kana":"ワダマチ","prefecture_code":40}}