{"0801":{"zip_code":"8100801","prefecture":"福岡県","prefecture_kana":"フクオカケン","city":"福岡市博多区","city_kana":"フクオカシハカタク","town":"中洲","town_kana":"ナカス","prefecture_code":40},"0802":{"zip_code":"8100802","prefecture":"福岡県","prefecture_kana":"フクオカケン","city":"福岡市博多区","city_kana":"フクオカシハカタク","town":"中洲中島町","town_kana":"ナカスナカシママチ","prefecture_code":40},"0000":{"zip_code":"8100000","prefecture":"福岡県","prefecture_kana":"フクオカケン","city":"福岡市中央区","city_kana":"フクオカシチュウオウク","town":"以下に掲載がない場合","town_kana":"イカニケイサイガナイバアイ","prefecture_code":40},"0042":{"zip_code":"8100042","prefecture":"福岡県","prefecture_kana":"フクオカケン","city":"福岡市中央区","city_kana":"フクオカシチュウオウク","town":"赤坂","town_kana":"アカサカ","prefecture_code":40},"0076":{"zip_code":"8100076","prefecture":"福岡県","prefecture_kana":"フクオカケン","city":"福岡市中央区","city_kana":"フクオカシチュウオウク","town":"荒津","town_kana":"アラツ","prefecture_code":40},"0062":{"zip_code":"8100062","prefecture":"福岡県","prefecture_kana":"フクオカケン","city":"福岡市中央区","city_kana":"フクオカシチュウオウク","town":"荒戸","town_kana":"アラト","prefecture_code":40},"0067":{"zip_code":"8100067","prefecture":"福岡県","prefecture_kana":"フクオカケン","city":"福岡市中央区","city_kana":"フクオカシチュウオウク","town":"伊崎","town_kana":"イザキ","prefecture_code":40},"0021":{"zip_code":"8100021","prefecture":"福岡県","prefecture_kana":"フクオカケン","city":"福岡市中央区","city_kana":"フクオカシチュウオウク","town":"今泉","town_kana":"イマイズミ","prefecture_code":40},"0054":{"zip_code":"8100054","prefecture":"福岡県","prefecture_kana":"フクオカケン","city":"福岡市中央区","city_kana":"フクオカシチュウオウク","town":"今川","town_kana":"イマガワ","prefecture_code":40},"0074":{"zip_code":"8100074","prefecture":"福岡県","prefecture_kana":"フクオカケン","city":"福岡市中央区","city_kana":"フクオカシチュウオウク","town":"大手門","town_kana":"オオテモン","prefecture_code":40},"0052":{"zip_code":"8100052","prefecture":"福岡県","prefecture_kana":"フクオカケン","city":"福岡市中央区","city_kana":"フクオカシチュウオウク","town":"大濠","town_kana":"オオホリ","prefecture_code":40},"0051":{"zip_code":"8100051","prefecture":"福岡県","prefecture_kana":"フクオカケン","city":"福岡市中央区","city_kana":"フクオカシチュウオウク","town":"大濠公園","town_kana":"オオホリコウエン","prefecture_code":40},"0013":{"zip_code":"8100013","prefecture":"福岡県","prefecture_kana":"フクオカケン","city":"福岡市中央区","city_kana":"フクオカシチュウオウク","town":"大宮","town_kana":"オオミヤ","prefecture_code":40},"0033":{"zip_code":"8100033","prefecture":"福岡県","prefecture_kana":"フクオカケン","city":"福岡市中央区","city_kana":"フクオカシチュウオウク","town":"小笹","town_kana":"オザサ","prefecture_code":40},"0005":{"zip_code":"8100005","prefecture":"福岡県","prefecture_kana":"フクオカケン","city":"福岡市中央区","city_kana":"フクオカシチュウオウク","town":"清川","town_kana":"キヨカワ","prefecture_code":40},"0045":{"zip_code":"8100045","prefecture":"福岡県","prefecture_kana":"フクオカケン","city":"福岡市中央区","city_kana":"フクオカシチュウオウク","town":"草香江","town_kana":"クサガエ","prefecture_code":40},"0055":{"zip_code":"8100055","prefecture":"福岡県","prefecture_kana":"フクオカケン","city":"福岡市中央区","city_kana":"フクオカシチュウオウク","town":"黒門","town_kana":"クロモン","prefecture_code":40},"0023":{"zip_code":"8100023","prefecture":"福岡県","prefecture_kana":"フクオカケン","city":"福岡市中央区","city_kana":"フクオカシチュウオウク","town":"警固","town_kana":"ケゴ","prefecture_code":40},"0027":{"zip_code":"8100027","prefecture":"福岡県","prefecture_kana":"フクオカケン","city":"福岡市中央区","city_kana":"フクオカシチュウオウク","town":"御所ケ谷","town_kana":"ゴショガダニ","prefecture_code":40},"0024":{"zip_code":"8100024","prefecture":"福岡県","prefecture_kana":"フクオカケン","city":"福岡市中央区","city_kana":"フクオカシチュウオウク","town":"桜坂","town_kana":"サクラザカ","prefecture_code":40},"0034":{"zip_code":"8100034","prefecture":"福岡県","prefecture_kana":"フクオカケン","city":"福岡市中央区","city_kana":"フクオカシチュウオウク","town":"笹丘","town_kana":"ササオカ","prefecture_code":40},"0018":{"zip_code":"8100018","prefecture":"福岡県","prefecture_kana":"フクオカケン","city":"福岡市中央区","city_kana":"フクオカシチュウオウク","town":"山荘通","town_kana":"サンソウドオリ","prefecture_code":40},"0028":{"zip_code":"8100028","prefecture":"福岡県","prefecture_kana":"フクオカケン","city":"福岡市中央区","city_kana":"フクオカシチュウオウク","town":"浄水通","town_kana":"ジョウスイドオリ","prefecture_code":40},"0043":{"zip_code":"8100043","prefecture":"福岡県","prefecture_kana":"フクオカケン","city":"福岡市中央区","city_kana":"フクオカシチュウオウク","town":"城内","town_kana":"ジョウナイ","prefecture_code":40},"0012":{"zip_code":"8100012","prefecture":"福岡県","prefecture_kana":"フクオカケン","city":"福岡市中央区","city_kana":"フクオカシチュウオウク","town":"白金","town_kana":"シロガネ","prefecture_code":40},"0064":{"zip_code":"8100064","prefecture":"福岡県","prefecture_kana":"フクオカケン","city":"福岡市中央区","city_kana":"フクオカシチュウオウク","town":"地行","town_kana":"ジギョウ","prefecture_code":40},"0065":{"zip_code":"8100065","prefecture":"福岡県","prefecture_kana":"フクオカケン","city":"福岡市中央区","city_kana":"フクオカシチュウオウク","town":"地行浜","town_kana":"ジギョウハマ","prefecture_code":40},"0041":{"zip_code":"8100041","prefecture":"福岡県","prefecture_kana":"フクオカケン","city":"福岡市中央区","city_kana":"フクオカシチュウオウク","town":"大名","town_kana":"ダイミョウ","prefecture_code":40},"0011":{"zip_code":"8100011","prefecture":"福岡県","prefecture_kana":"フクオカケン","city":"福岡市中央区","city_kana":"フクオカシチュウオウク","town":"高砂","town_kana":"タカサゴ","prefecture_code":40},"0031":{"zip_code":"8100031","prefecture":"福岡県","prefecture_kana":"フクオカケン","city":"福岡市中央区","city_kana":"フクオカシチュウオウク","town":"谷","town_kana":"タニ","prefecture_code":40},"0032":{"zip_code":"8100032","prefecture":"福岡県","prefecture_kana":"フクオカケン","city":"福岡市中央区","city_kana":"フクオカシチュウオウク","town":"輝国","town_kana":"テルクニ","prefecture_code":40},"0001":{"zip_code":"8100001","prefecture":"福岡県","prefecture_kana":"フクオカケン","city":"福岡市中央区","city_kana":"フクオカシチュウオウク","town":"天神","town_kana":"テンジン","prefecture_code":40},"0063":{"zip_code":"8100063","prefecture":"福岡県","prefecture_kana":"フクオカケン","city":"福岡市中央区","city_kana":"フクオカシチュウオウク","town":"唐人町","town_kana":"トウジンマチ","prefecture_code":40},"0053":{"zip_code":"8100053","prefecture":"福岡県","prefecture_kana":"フクオカケン","city":"福岡市中央区","city_kana":"フクオカシチュウオウク","town":"鳥飼","town_kana":"トリカイ","prefecture_code":40},"0072":{"zip_code":"8100072","prefecture":"福岡県","prefecture_kana":"フクオカケン","city":"福岡市中央区","city_kana":"フクオカシチュウオウク","town":"長浜","town_kana":"ナガハマ","prefecture_code":40},"0015":{"zip_code":"8100015","prefecture":"福岡県","prefecture_kana":"フクオカケン","city":"福岡市中央区","city_kana":"フクオカシチュウオウク","town":"那の川","town_kana":"ナノカワ","prefecture_code":40},"0071":{"zip_code":"8100071","prefecture":"福岡県","prefecture_kana":"フクオカケン","city":"福岡市中央区","city_kana":"フクオカシチュウオウク","town":"那の津","town_kana":"ナノツ","prefecture_code":40},"0061":{"zip_code":"8100061","prefecture":"福岡県","prefecture_kana":"フクオカケン","city":"福岡市中央区","city_kana":"フクオカシチュウオウク","town":"西公園","town_kana":"ニシコウエン","prefecture_code":40},"0002":{"zip_code":"8100002","prefecture":"福岡県","prefecture_kana":"フクオカケン","city":"福岡市中央区","city_kana":"フクオカシチュウオウク","town":"西中洲","town_kana":"ニシナカス","prefecture_code":40},"0035":{"zip_code":"8100035","prefecture":"福岡県","prefecture_kana":"フクオカケン","city":"福岡市中央区","city_kana":"フクオカシチュウオウク","town":"梅光園","town_kana":"バイコウエン","prefecture_code":40},"0036":{"zip_code":"8100036","prefecture":"福岡県","prefecture_kana":"フクオカケン","city":"福岡市中央区","city_kana":"フクオカシチュウオウク","town":"梅光園団地","town_kana":"バイコウエンダンチ","prefecture_code":40},"0003":{"zip_code":"8100003","prefecture":"福岡県","prefecture_kana":"フクオカケン","city":"福岡市中央区","city_kana":"フクオカシチュウオウク","town":"春吉","town_kana":"ハルヨシ","prefecture_code":40},"0014":{"zip_code":"8100014","prefecture":"福岡県","prefecture_kana":"フクオカケン","city":"福岡市中央区","city_kana":"フクオカシチュウオウク","town":"平尾","town_kana":"ヒラオ","prefecture_code":40},"0017":{"zip_code":"8100017","prefecture":"福岡県","prefecture_kana":"フクオカケン","city":"福岡市中央区","city_kana":"フクオカシチュウオウク","town":"平丘町","town_kana":"ヒラオカマチ","prefecture_code":40},"0029":{"zip_code":"8100029","prefecture":"福岡県","prefecture_kana":"フクオカケン","city":"福岡市中央区","city_kana":"フクオカシチュウオウク","town":"平尾浄水町","town_kana":"ヒラオジョウスイマチ","prefecture_code":40},"0066":{"zip_code":"8100066","prefecture":"福岡県","prefecture_kana":"フクオカケン","city":"福岡市中央区","city_kana":"フクオカシチュウオウク","town":"福浜","town_kana":"フクハマ","prefecture_code":40},"0026":{"zip_code":"8100026","prefecture":"福岡県","prefecture_kana":"フクオカケン","city":"福岡市中央区","city_kana":"フクオカシチュウオウク","town":"古小烏町","town_kana":"フルコガラスマチ","prefecture_code":40},"0016":{"zip_code":"8100016","prefecture":"福岡県","prefecture_kana":"フクオカケン","city":"福岡市中央区","city_kana":"フクオカシチュウオウク","town":"平和","town_kana":"ヘイワ","prefecture_code":40},"0073":{"zip_code":"8100073","prefecture":"福岡県","prefecture_kana":"フクオカケン","city":"福岡市中央区","city_kana":"フクオカシチュウオウク","town":"舞鶴","town_kana":"マイヅル","prefecture_code":40},"0075":{"zip_code":"8100075","prefecture":"福岡県","prefecture_kana":"フクオカケン","city":"福岡市中央区","city_kana":"フクオカシチュウオウク","town":"港","town_kana":"ミナト","prefecture_code":40},"0037":{"zip_code":"8100037","prefecture":"福岡県","prefecture_kana":"フクオカケン","city":"福岡市中央区","city_kana":"フクオカシチュウオウク","town":"南公園","town_kana":"ミナミコウエン","prefecture_code":40},"0022":{"zip_code":"8100022","prefecture":"福岡県","prefecture_kana":"フクオカケン","city":"福岡市中央区","city_kana":"フクオカシチュウオウク","town":"薬院","town_kana":"ヤクイン","prefecture_code":40},"0025":{"zip_code":"8100025","prefecture":"福岡県","prefecture_kana":"フクオカケン","city":"福岡市中央区","city_kana":"フクオカシチュウオウク","town":"薬院伊福町","town_kana":"ヤクインイフクマチ","prefecture_code":40},"0044":{"zip_code":"8100044","prefecture":"福岡県","prefecture_kana":"フクオカケン","city":"福岡市中央区","city_kana":"フクオカシチュウオウク","town":"六本松","town_kana":"ロッポンマツ","prefecture_code":40},"0004":{"zip_code":"8100004","prefecture":"福岡県","prefecture_kana":"フクオカケン","city":"福岡市中央区","city_kana":"フクオカシチュウオウク","town":"渡辺通","town_kana":"ワタナベドオリ","prefecture_code":40}}