{"0322":{"zip_code":"8110322","prefecture":"福岡県","prefecture_kana":"フクオカケン","city":"福岡市東区","city_kana":"フクオカシヒガシク","town":"大岳","town_kana":"オオタケ","prefecture_code":40},"0325":{"zip_code":"8110325","prefecture":"福岡県","prefecture_kana":"フクオカケン","city":"福岡市東区","city_kana":"フクオカシヒガシク","town":"勝馬","town_kana":"カツマ","prefecture_code":40},"0216":{"zip_code":"8110216","prefecture":"福岡県","prefecture_kana":"フクオカケン","city":"福岡市東区","city_kana":"フクオカシヒガシク","town":"上和白","town_kana":"カミワジロ","prefecture_code":40},"0206":{"zip_code":"8110206","prefecture":"福岡県","prefecture_kana":"フクオカケン","city":"福岡市東区","city_kana":"フクオカシヒガシク","town":"雁の巣","town_kana":"ガンノス","prefecture_code":40},"0321":{"zip_code":"8110321","prefecture":"福岡県","prefecture_kana":"フクオカケン","city":"福岡市東区","city_kana":"フクオカシヒガシク","town":"西戸崎","town_kana":"サイトザキ","prefecture_code":40},"0203":{"zip_code":"8110203","prefecture":"福岡県","prefecture_kana":"フクオカケン","city":"福岡市東区","city_kana":"フクオカシヒガシク","town":"塩浜","town_kana":"シオハマ","prefecture_code":40},"0323":{"zip_code":"8110323","prefecture":"福岡県","prefecture_kana":"フクオカケン","city":"福岡市東区","city_kana":"フクオカシヒガシク","town":"志賀島","town_kana":"シカシマ","prefecture_code":40},"0215":{"zip_code":"8110215","prefecture":"福岡県","prefecture_kana":"フクオカケン","city":"福岡市東区","city_kana":"フクオカシヒガシク","town":"高美台","town_kana":"タカミダイ","prefecture_code":40},"0204":{"zip_code":"8110204","prefecture":"福岡県","prefecture_kana":"フクオカケン","city":"福岡市東区","city_kana":"フクオカシヒガシク","town":"奈多","town_kana":"ナタ","prefecture_code":40},"0205":{"zip_code":"8110205","prefecture":"福岡県","prefecture_kana":"フクオカケン","city":"福岡市東区","city_kana":"フクオカシヒガシク","town":"奈多団地","town_kana":"ナタダンチ","prefecture_code":40},"0324":{"zip_code":"8110324","prefecture":"福岡県","prefecture_kana":"フクオカケン","city":"福岡市東区","city_kana":"フクオカシヒガシク","town":"弘","town_kana":"ヒロ","prefecture_code":40},"0201":{"zip_code":"8110201","prefecture":"福岡県","prefecture_kana":"フクオカケン","city":"福岡市東区","city_kana":"フクオカシヒガシク","town":"三苫","town_kana":"ミトマ","prefecture_code":40},"0212":{"zip_code":"8110212","prefecture":"福岡県","prefecture_kana":"フクオカケン","city":"福岡市東区","city_kana":"フクオカシヒガシク","town":"美和台","town_kana":"ミワダイ","prefecture_code":40},"0211":{"zip_code":"8110211","prefecture":"福岡県","prefecture_kana":"フクオカケン","city":"福岡市東区","city_kana":"フクオカシヒガシク","town":"美和台新町","town_kana":"ミワダイシンマチ","prefecture_code":40},"0202":{"zip_code":"8110202","prefecture":"福岡県","prefecture_kana":"フクオカケン","city":"福岡市東区","city_kana":"フクオカシヒガシク","town":"和白","town_kana":"ワジロ","prefecture_code":40},"0213":{"zip_code":"8110213","prefecture":"福岡県","prefecture_kana":"フクオカケン","city":"福岡市東区","city_kana":"フクオカシヒガシク","town":"和白丘","town_kana":"ワジロガオカ","prefecture_code":40},"0214":{"zip_code":"8110214","prefecture":"福岡県","prefecture_kana":"フクオカケン","city":"福岡市東区","city_kana":"フクオカシヒガシク","town":"和白東","town_kana":"ワジロヒガシ","prefecture_code":40},"1302":{"zip_code":"8111302","prefecture":"福岡県","prefecture_kana":"フクオカケン","city":"福岡市南区","city_kana":"フクオカシミナミク","town":"井尻","town_kana":"イジリ","prefecture_code":40},"1313":{"zip_code":"8111313","prefecture":"福岡県","prefecture_kana":"フクオカケン","city":"福岡市南区","city_kana":"フクオカシミナミク","town":"曰佐","town_kana":"オサ","prefecture_code":40},"1303":{"zip_code":"8111303","prefecture":"福岡県","prefecture_kana":"フクオカケン","city":"福岡市南区","city_kana":"フクオカシミナミク","town":"折立町","town_kana":"オリタテマチ","prefecture_code":40},"1353":{"zip_code":"8111353","prefecture":"福岡県","prefecture_kana":"フクオカケン","city":"福岡市南区","city_kana":"フクオカシミナミク","town":"柏原","town_kana":"カシワラ","prefecture_code":40},"1324":{"zip_code":"8111324","prefecture":"福岡県","prefecture_kana":"フクオカケン","city":"福岡市南区","city_kana":"フクオカシミナミク","town":"警弥郷","town_kana":"ケヤゴウ","prefecture_code":40},"1365":{"zip_code":"8111365","prefecture":"福岡県","prefecture_kana":"フクオカケン","city":"福岡市南区","city_kana":"フクオカシミナミク","town":"皿山","town_kana":"サラヤマ","prefecture_code":40},"1354":{"zip_code":"8111354","prefecture":"福岡県","prefecture_kana":"フクオカケン","city":"福岡市南区","city_kana":"フクオカシミナミク","town":"大平寺","town_kana":"タイヘイジ","prefecture_code":40},"1352":{"zip_code":"8111352","prefecture":"福岡県","prefecture_kana":"フクオカケン","city":"福岡市南区","city_kana":"フクオカシミナミク","town":"鶴田","town_kana":"ツルタ","prefecture_code":40},"1364":{"zip_code":"8111364","prefecture":"福岡県","prefecture_kana":"フクオカケン","city":"福岡市南区","city_kana":"フクオカシミナミク","town":"中尾","town_kana":"ナカオ","prefecture_code":40},"1362":{"zip_code":"8111362","prefecture":"福岡県","prefecture_kana":"フクオカケン","city":"福岡市南区","city_kana":"フクオカシミナミク","town":"長住","town_kana":"ナガズミ","prefecture_code":40},"1361":{"zip_code":"8111361","prefecture":"福岡県","prefecture_kana":"フクオカケン","city":"福岡市南区","city_kana":"フクオカシミナミク","town":"西長住","town_kana":"ニシナガズミ","prefecture_code":40},"1347":{"zip_code":"8111347","prefecture":"福岡県","prefecture_kana":"フクオカケン","city":"福岡市南区","city_kana":"フクオカシミナミク","town":"野多目","town_kana":"ノタメ","prefecture_code":40},"1356":{"zip_code":"8111356","prefecture":"福岡県","prefecture_kana":"フクオカケン","city":"福岡市南区","city_kana":"フクオカシミナミク","town":"花畑","town_kana":"ハナハタ","prefecture_code":40},"1355":{"zip_code":"8111355","prefecture":"福岡県","prefecture_kana":"フクオカケン","city":"福岡市南区","city_kana":"フクオカシミナミク","town":"桧原","town_kana":"ヒバル","prefecture_code":40},"1314":{"zip_code":"8111314","prefecture":"福岡県","prefecture_kana":"フクオカケン","city":"福岡市南区","city_kana":"フクオカシミナミク","town":"的場","town_kana":"マトバ","prefecture_code":40},"1344":{"zip_code":"8111344","prefecture":"福岡県","prefecture_kana":"フクオカケン","city":"福岡市南区","city_kana":"フクオカシミナミク","town":"三宅","town_kana":"ミヤケ","prefecture_code":40},"1345":{"zip_code":"8111345","prefecture":"福岡県","prefecture_kana":"フクオカケン","city":"福岡市南区","city_kana":"フクオカシミナミク","town":"向新町","town_kana":"ムカイシンマチ","prefecture_code":40},"1351":{"zip_code":"8111351","prefecture":"福岡県","prefecture_kana":"フクオカケン","city":"福岡市南区","city_kana":"フクオカシミナミク","town":"屋形原","town_kana":"ヤカタバル","prefecture_code":40},"1323":{"zip_code":"8111323","prefecture":"福岡県","prefecture_kana":"フクオカケン","city":"福岡市南区","city_kana":"フクオカシミナミク","town":"弥永","town_kana":"ヤナガ","prefecture_code":40},"1322":{"zip_code":"8111322","prefecture":"福岡県","prefecture_kana":"フクオカケン","city":"福岡市南区","city_kana":"フクオカシミナミク","town":"弥永団地","town_kana":"ヤナガダンチ","prefecture_code":40},"1321":{"zip_code":"8111321","prefecture":"福岡県","prefecture_kana":"フクオカケン","city":"福岡市南区","city_kana":"フクオカシミナミク","town":"柳瀬","town_kana":"ヤナセ","prefecture_code":40},"1311":{"zip_code":"8111311","prefecture":"福岡県","prefecture_kana":"フクオカケン","city":"福岡市南区","city_kana":"フクオカシミナミク","town":"横手","town_kana":"ヨコテ","prefecture_code":40},"1312":{"zip_code":"8111312","prefecture":"福岡県","prefecture_kana":"フクオカケン","city":"福岡市南区","city_kana":"フクオカシミナミク","town":"横手南町","town_kana":"ヨコテミナミマチ","prefecture_code":40},"1346":{"zip_code":"8111346","prefecture":"福岡県","prefecture_kana":"フクオカケン","city":"福岡市南区","city_kana":"フクオカシミナミク","town":"老司","town_kana":"ロウジ","prefecture_code":40},"1343":{"zip_code":"8111343","prefecture":"福岡県","prefecture_kana":"フクオカケン","city":"福岡市南区","city_kana":"フクオカシミナミク","town":"和田","town_kana":"ワダ","prefecture_code":40},"1134":{"zip_code":"8111134","prefecture":"福岡県","prefecture_kana":"フクオカケン","city":"福岡市早良区","city_kana":"フクオカシサワラク","town":"飯場","town_kana":"イイバ","prefecture_code":40},"1132":{"zip_code":"8111132","prefecture":"福岡県","prefecture_kana":"フクオカケン","city":"福岡市早良区","city_kana":"フクオカシサワラク","town":"石釜","town_kana":"イシガマ","prefecture_code":40},"1113":{"zip_code":"8111113","prefecture":"福岡県","prefecture_kana":"フクオカケン","city":"福岡市早良区","city_kana":"フクオカシサワラク","town":"板屋","town_kana":"イタヤ","prefecture_code":40},"1123":{"zip_code":"8111123","prefecture":"福岡県","prefecture_kana":"フクオカケン","city":"福岡市早良区","city_kana":"フクオカシサワラク","town":"内野","town_kana":"ウチノ","prefecture_code":40},"1112":{"zip_code":"8111112","prefecture":"福岡県","prefecture_kana":"フクオカケン","city":"福岡市早良区","city_kana":"フクオカシサワラク","town":"小笠木","town_kana":"オカサギ","prefecture_code":40},"1124":{"zip_code":"8111124","prefecture":"福岡県","prefecture_kana":"フクオカケン","city":"福岡市早良区","city_kana":"フクオカシサワラク","town":"金武","town_kana":"カナタケ","prefecture_code":40},"1122":{"zip_code":"8111122","prefecture":"福岡県","prefecture_kana":"フクオカケン","city":"福岡市早良区","city_kana":"フクオカシサワラク","town":"早良","town_kana":"サワラ","prefecture_code":40},"1114":{"zip_code":"8111114","prefecture":"福岡県","prefecture_kana":"フクオカケン","city":"福岡市早良区","city_kana":"フクオカシサワラク","town":"椎原","town_kana":"シイバ","prefecture_code":40},"1103":{"zip_code":"8111103","prefecture":"福岡県","prefecture_kana":"フクオカケン","city":"福岡市早良区","city_kana":"フクオカシサワラク","town":"四箇","town_kana":"シカ","prefecture_code":40},"1101":{"zip_code":"8111101","prefecture":"福岡県","prefecture_kana":"フクオカケン","city":"福岡市早良区","city_kana":"フクオカシサワラク","town":"重留","town_kana":"シゲドメ","prefecture_code":40},"1131":{"zip_code":"8111131","prefecture":"福岡県","prefecture_kana":"フクオカケン","city":"福岡市早良区","city_kana":"フクオカシサワラク","town":"西","town_kana":"ニシ","prefecture_code":40},"1121":{"zip_code":"8111121","prefecture":"福岡県","prefecture_kana":"フクオカケン","city":"福岡市早良区","city_kana":"フクオカシサワラク","town":"西入部","town_kana":"ニシイルベ","prefecture_code":40},"1102":{"zip_code":"8111102","prefecture":"福岡県","prefecture_kana":"フクオカケン","city":"福岡市早良区","city_kana":"フクオカシサワラク","town":"東入部","town_kana":"ヒガシイルベ","prefecture_code":40},"1133":{"zip_code":"8111133","prefecture":"福岡県","prefecture_kana":"フクオカケン","city":"福岡市早良区","city_kana":"フクオカシサワラク","town":"曲渕","town_kana":"マガリブチ","prefecture_code":40},"1111":{"zip_code":"8111111","prefecture":"福岡県","prefecture_kana":"フクオカケン","city":"福岡市早良区","city_kana":"フクオカシサワラク","town":"脇山","town_kana":"ワキヤマ","prefecture_code":40},"3400":{"zip_code":"8113400","prefecture":"福岡県","prefecture_kana":"フクオカケン","city":"宗像市","city_kana":"ムナカタシ","town":"以下に掲載がない場合","town_kana":"イカニケイサイガナイバアイ","prefecture_code":40},"4162":{"zip_code":"8114162","prefecture":"福岡県","prefecture_kana":"フクオカケン","city":"宗像市","city_kana":"ムナカタシ","town":"青葉台","town_kana":"アオバダイ","prefecture_code":40},"4146":{"zip_code":"8114146","prefecture":"福岡県","prefecture_kana":"フクオカケン","city":"宗像市","city_kana":"ムナカタシ","town":"赤間","town_kana":"アカマ","prefecture_code":40},"4185":{"zip_code":"8114185","prefecture":"福岡県","prefecture_kana":"フクオカケン","city":"宗像市","city_kana":"ムナカタシ","town":"赤間駅前","town_kana":"アカマエキマエ","prefecture_code":40},"4176":{"zip_code":"8114176","prefecture":"福岡県","prefecture_kana":"フクオカケン","city":"宗像市","city_kana":"ムナカタシ","town":"赤間ケ丘","town_kana":"アカマガオカ","prefecture_code":40},"4148":{"zip_code":"8114148","prefecture":"福岡県","prefecture_kana":"フクオカケン","city":"宗像市","city_kana":"ムナカタシ","town":"赤間文教町","town_kana":"アカマブンキョウマチ","prefecture_code":40},"3415":{"zip_code":"8113415","prefecture":"福岡県","prefecture_kana":"フクオカケン","city":"宗像市","city_kana":"ムナカタシ","town":"朝野","town_kana":"アサノ","prefecture_code":40},"4161":{"zip_code":"8114161","prefecture":"福岡県","prefecture_kana":"フクオカケン","city":"宗像市","city_kana":"ムナカタシ","town":"朝町","town_kana":"アサマチ","prefecture_code":40},"4157":{"zip_code":"8114157","prefecture":"福岡県","prefecture_kana":"フクオカケン","city":"宗像市","city_kana":"ムナカタシ","town":"アスティ","town_kana":"アスティ","prefecture_code":40},"3401":{"zip_code":"8113401","prefecture":"福岡県","prefecture_kana":"フクオカケン","city":"宗像市","city_kana":"ムナカタシ","town":"池浦","town_kana":"イケウラ","prefecture_code":40},"3515":{"zip_code":"8113515","prefecture":"福岡県","prefecture_kana":"フクオカケン","city":"宗像市","city_kana":"ムナカタシ","town":"池田","town_kana":"イケダ","prefecture_code":40},"4147":{"zip_code":"8114147","prefecture":"福岡県","prefecture_kana":"フクオカケン","city":"宗像市","city_kana":"ムナカタシ","town":"石丸","town_kana":"イシマル","prefecture_code":40},"4142":{"zip_code":"8114142","prefecture":"福岡県","prefecture_kana":"フクオカケン","city":"宗像市","city_kana":"ムナカタシ","town":"泉ケ丘","town_kana":"イズミガオカ","prefecture_code":40},"3406":{"zip_code":"8113406","prefecture":"福岡県","prefecture_kana":"フクオカケン","city":"宗像市","city_kana":"ムナカタシ","town":"稲元","town_kana":"イナモト","prefecture_code":40},"3502":{"zip_code":"8113502","prefecture":"福岡県","prefecture_kana":"フクオカケン","city":"宗像市","city_kana":"ムナカタシ","town":"江口","town_kana":"エグチ","prefecture_code":40},"4177":{"zip_code":"8114177","prefecture":"福岡県","prefecture_kana":"フクオカケン","city":"宗像市","city_kana":"ムナカタシ","town":"桜美台","town_kana":"オウビダイ","prefecture_code":40},"3422":{"zip_code":"8113422","prefecture":"福岡県","prefecture_kana":"フクオカケン","city":"宗像市","city_kana":"ムナカタシ","town":"王丸","town_kana":"オウマル","prefecture_code":40},"3432":{"zip_code":"8113432","prefecture":"福岡県","prefecture_kana":"フクオカケン","city":"宗像市","city_kana":"ムナカタシ","town":"大井","town_kana":"オオイ","prefecture_code":40},"3433":{"zip_code":"8113433","prefecture":"福岡県","prefecture_kana":"フクオカケン","city":"宗像市","city_kana":"ムナカタシ","town":"大井台","town_kana":"オオイダイ","prefecture_code":40},"3440":{"zip_code":"8113440","prefecture":"福岡県","prefecture_kana":"フクオカケン","city":"宗像市","city_kana":"ムナカタシ","town":"大井南","town_kana":"オオイミナミ","prefecture_code":40},"3701":{"zip_code":"8113701","prefecture":"福岡県","prefecture_kana":"フクオカケン","city":"宗像市","city_kana":"ムナカタシ","town":"大島","town_kana":"オオシマ","prefecture_code":40},"4141":{"zip_code":"8114141","prefecture":"福岡県","prefecture_kana":"フクオカケン","city":"宗像市","city_kana":"ムナカタシ","town":"大谷","town_kana":"オオタニ","prefecture_code":40},"3421":{"zip_code":"8113421","prefecture":"福岡県","prefecture_kana":"フクオカケン","city":"宗像市","city_kana":"ムナカタシ","town":"大穂","town_kana":"オオブ","prefecture_code":40},"3402":{"zip_code":"8113402","prefecture":"福岡県","prefecture_kana":"フクオカケン","city":"宗像市","city_kana":"ムナカタシ","town":"河東","town_kana":"カトウ","prefecture_code":40},"3512":{"zip_code":"8113512","prefecture":"福岡県","prefecture_kana":"フクオカケン","city":"宗像市","city_kana":"ムナカタシ","town":"鐘崎","town_kana":"カネザキ","prefecture_code":40},"3437":{"zip_code":"8113437","prefecture":"福岡県","prefecture_kana":"フクオカケン","city":"宗像市","city_kana":"ムナカタシ","town":"久原","town_kana":"クバラ","prefecture_code":40},"4184":{"zip_code":"8114184","prefecture":"福岡県","prefecture_kana":"フクオカケン","city":"宗像市","city_kana":"ムナカタシ","town":"くりえいと","town_kana":"クリエイト","prefecture_code":40},"3516":{"zip_code":"8113516","prefecture":"福岡県","prefecture_kana":"フクオカケン","city":"宗像市","city_kana":"ムナカタシ","town":"公園通り","town_kana":"コウエンドオリ","prefecture_code":40},"3513":{"zip_code":"8113513","prefecture":"福岡県","prefecture_kana":"フクオカケン","city":"宗像市","city_kana":"ムナカタシ","town":"上八","town_kana":"コウジョウ","prefecture_code":40},"3501":{"zip_code":"8113501","prefecture":"福岡県","prefecture_kana":"フクオカケン","city":"宗像市","city_kana":"ムナカタシ","town":"神湊","town_kana":"コウノミナト","prefecture_code":40},"4165":{"zip_code":"8114165","prefecture":"福岡県","prefecture_kana":"フクオカケン","city":"宗像市","city_kana":"ムナカタシ","town":"広陵台","town_kana":"コウリョウダイ","prefecture_code":40},"4173":{"zip_code":"8114173","prefecture":"福岡県","prefecture_kana":"フクオカケン","city":"宗像市","city_kana":"ムナカタシ","town":"栄町","town_kana":"サカエマチ","prefecture_code":40},"4166":{"zip_code":"8114166","prefecture":"福岡県","prefecture_kana":"フクオカケン","city":"宗像市","city_kana":"ムナカタシ","town":"桜","town_kana":"サクラ","prefecture_code":40},"4143":{"zip_code":"8114143","prefecture":"福岡県","prefecture_kana":"フクオカケン","city":"宗像市","city_kana":"ムナカタシ","town":"三郎丸","town_kana":"サブロウマル","prefecture_code":40},"3511":{"zip_code":"8113511","prefecture":"福岡県","prefecture_kana":"フクオカケン","city":"宗像市","city_kana":"ムナカタシ","town":"地島","town_kana":"ジノシマ","prefecture_code":40},"4163":{"zip_code":"8114163","prefecture":"福岡県","prefecture_kana":"フクオカケン","city":"宗像市","city_kana":"ムナカタシ","town":"自由ケ丘","town_kana":"ジユウガオカ","prefecture_code":40},"4174":{"zip_code":"8114174","prefecture":"福岡県","prefecture_kana":"フクオカケン","city":"宗像市","city_kana":"ムナカタシ","town":"自由ケ丘西町","town_kana":"ジユウガオカニシマチ","prefecture_code":40},"4156":{"zip_code":"8114156","prefecture":"福岡県","prefecture_kana":"フクオカケン","city":"宗像市","city_kana":"ムナカタシ","town":"自由ケ丘南","town_kana":"ジユウガオカミナミ","prefecture_code":40},"4182":{"zip_code":"8114182","prefecture":"福岡県","prefecture_kana":"フクオカケン","city":"宗像市","city_kana":"ムナカタシ","town":"城ケ谷","town_kana":"ジョウガタニ","prefecture_code":40},"3404":{"zip_code":"8113404","prefecture":"福岡県","prefecture_kana":"フクオカケン","city":"宗像市","city_kana":"ムナカタシ","town":"城西ケ丘","town_kana":"ジョウセイガオカ","prefecture_code":40},"4151":{"zip_code":"8114151","prefecture":"福岡県","prefecture_kana":"フクオカケン","city":"宗像市","city_kana":"ムナカタシ","town":"城南ケ丘","town_kana":"ジョウナンガオカ","prefecture_code":40},"4181":{"zip_code":"8114181","prefecture":"福岡県","prefecture_kana":"フクオカケン","city":"宗像市","city_kana":"ムナカタシ","town":"城山ニュータウン","town_kana":"ジョウヤマニュータウン","prefecture_code":40},"3408":{"zip_code":"8113408","prefecture":"福岡県","prefecture_kana":"フクオカケン","city":"宗像市","city_kana":"ムナカタシ","town":"樟陽台","town_kana":"ショウヨウダイ","prefecture_code":40},"3405":{"zip_code":"8113405","prefecture":"福岡県","prefecture_kana":"フクオカケン","city":"宗像市","city_kana":"ムナカタシ","town":"須恵","town_kana":"スエ","prefecture_code":40},"4175":{"zip_code":"8114175","prefecture":"福岡県","prefecture_kana":"フクオカケン","city":"宗像市","city_kana":"ムナカタシ","town":"田久","town_kana":"タク","prefecture_code":40},"3431":{"zip_code":"8113431","prefecture":"福岡県","prefecture_kana":"フクオカケン","city":"宗像市","city_kana":"ムナカタシ","town":"田熊","town_kana":"タグマ","prefecture_code":40},"4152":{"zip_code":"8114152","prefecture":"福岡県","prefecture_kana":"フクオカケン","city":"宗像市","city_kana":"ムナカタシ","town":"武丸","town_kana":"タケマル","prefecture_code":40},"3505":{"zip_code":"8113505","prefecture":"福岡県","prefecture_kana":"フクオカケン","city":"宗像市","city_kana":"ムナカタシ","town":"田島","town_kana":"タシマ","prefecture_code":40},"3514":{"zip_code":"8113514","prefecture":"福岡県","prefecture_kana":"フクオカケン","city":"宗像市","city_kana":"ムナカタシ","town":"田野","town_kana":"タノ","prefecture_code":40},"3507":{"zip_code":"8113507","prefecture":"福岡県","prefecture_kana":"フクオカケン","city":"宗像市","city_kana":"ムナカタシ","town":"多禮","town_kana":"タレ","prefecture_code":40},"4183":{"zip_code":"8114183","prefecture":"福岡県","prefecture_kana":"フクオカケン","city":"宗像市","city_kana":"ムナカタシ","town":"土穴","town_kana":"ツチアナ","prefecture_code":40},"3407":{"zip_code":"8113407","prefecture":"福岡県","prefecture_kana":"フクオカケン","city":"宗像市","city_kana":"ムナカタシ","town":"天平台","town_kana":"テンピョウダイ","prefecture_code":40},"3436":{"zip_code":"8113436","prefecture":"福岡県","prefecture_kana":"フクオカケン","city":"宗像市","city_kana":"ムナカタシ","town":"東郷","town_kana":"トウゴウ","prefecture_code":40},"4164":{"zip_code":"8114164","prefecture":"福岡県","prefecture_kana":"フクオカケン","city":"宗像市","city_kana":"ムナカタシ","town":"徳重","town_kana":"トクシゲ","prefecture_code":40},"4155":{"zip_code":"8114155","prefecture":"福岡県","prefecture_kana":"フクオカケン","city":"宗像市","city_kana":"ムナカタシ","town":"名残","town_kana":"ナゴリ","prefecture_code":40},"3423":{"zip_code":"8113423","prefecture":"福岡県","prefecture_kana":"フクオカケン","city":"宗像市","city_kana":"ムナカタシ","town":"野坂","town_kana":"ノサカ","prefecture_code":40},"4171":{"zip_code":"8114171","prefecture":"福岡県","prefecture_kana":"フクオカケン","city":"宗像市","city_kana":"ムナカタシ","town":"葉山","town_kana":"ハヤマ","prefecture_code":40},"3424":{"zip_code":"8113424","prefecture":"福岡県","prefecture_kana":"フクオカケン","city":"宗像市","city_kana":"ムナカタシ","town":"原町","town_kana":"ハルマチ","prefecture_code":40},"3403":{"zip_code":"8113403","prefecture":"福岡県","prefecture_kana":"フクオカケン","city":"宗像市","city_kana":"ムナカタシ","town":"ひかりケ丘","town_kana":"ヒカリガオカ","prefecture_code":40},"3425":{"zip_code":"8113425","prefecture":"福岡県","prefecture_kana":"フクオカケン","city":"宗像市","city_kana":"ムナカタシ","town":"日の里","town_kana":"ヒノサト","prefecture_code":40},"3412":{"zip_code":"8113412","prefecture":"福岡県","prefecture_kana":"フクオカケン","city":"宗像市","city_kana":"ムナカタシ","town":"平等寺","town_kana":"ビョウドウジ","prefecture_code":40},"3430":{"zip_code":"8113430","prefecture":"福岡県","prefecture_kana":"フクオカケン","city":"宗像市","city_kana":"ムナカタシ","town":"平井","town_kana":"ヒライ","prefecture_code":40},"3504":{"zip_code":"8113504","prefecture":"福岡県","prefecture_kana":"フクオカケン","city":"宗像市","city_kana":"ムナカタシ","town":"深田","town_kana":"フカタ","prefecture_code":40},"4154":{"zip_code":"8114154","prefecture":"福岡県","prefecture_kana":"フクオカケン","city":"宗像市","city_kana":"ムナカタシ","town":"冨地原","town_kana":"フジワラ","prefecture_code":40},"4113":{"zip_code":"8114113","prefecture":"福岡県","prefecture_kana":"フクオカケン","city":"宗像市","city_kana":"ムナカタシ","town":"曲（２５、３５）","town_kana":"マガリ(25、35)","prefecture_code":40},"3413":{"zip_code":"8113413","prefecture":"福岡県","prefecture_kana":"フクオカケン","city":"宗像市","city_kana":"ムナカタシ","town":"曲（その他）","town_kana":"マガリ(ソノタ)","prefecture_code":40},"3439":{"zip_code":"8113439","prefecture":"福岡県","prefecture_kana":"フクオカケン","city":"宗像市","city_kana":"ムナカタシ","town":"三倉","town_kana":"ミクラ","prefecture_code":40},"3414":{"zip_code":"8113414","prefecture":"福岡県","prefecture_kana":"フクオカケン","city":"宗像市","city_kana":"ムナカタシ","town":"光岡","town_kana":"ミツオカ","prefecture_code":40},"4172":{"zip_code":"8114172","prefecture":"福岡県","prefecture_kana":"フクオカケン","city":"宗像市","city_kana":"ムナカタシ","town":"緑町","town_kana":"ミドリマチ","prefecture_code":40},"3416":{"zip_code":"8113416","prefecture":"福岡県","prefecture_kana":"フクオカケン","city":"宗像市","city_kana":"ムナカタシ","town":"宮田","town_kana":"ミヤタ","prefecture_code":40},"3503":{"zip_code":"8113503","prefecture":"福岡県","prefecture_kana":"フクオカケン","city":"宗像市","city_kana":"ムナカタシ","town":"牟田尻","town_kana":"ムタジリ","prefecture_code":40},"3434":{"zip_code":"8113434","prefecture":"福岡県","prefecture_kana":"フクオカケン","city":"宗像市","city_kana":"ムナカタシ","town":"村山田","town_kana":"ムラヤマダ","prefecture_code":40},"3435":{"zip_code":"8113435","prefecture":"福岡県","prefecture_kana":"フクオカケン","city":"宗像市","city_kana":"ムナカタシ","town":"用山","town_kana":"モチヤマ","prefecture_code":40},"3411":{"zip_code":"8113411","prefecture":"福岡県","prefecture_kana":"フクオカケン","city":"宗像市","city_kana":"ムナカタシ","town":"山田","town_kana":"ヤマダ","prefecture_code":40},"3506":{"zip_code":"8113506","prefecture":"福岡県","prefecture_kana":"フクオカケン","city":"宗像市","city_kana":"ムナカタシ","town":"吉田","town_kana":"ヨシダ","prefecture_code":40},"4153":{"zip_code":"8114153","prefecture":"福岡県","prefecture_kana":"フクオカケン","city":"宗像市","city_kana":"ムナカタシ","town":"吉留","town_kana":"ヨシドメ","prefecture_code":40},"4145":{"zip_code":"8114145","prefecture":"福岡県","prefecture_kana":"フクオカケン","city":"宗像市","city_kana":"ムナカタシ","town":"陵厳寺","town_kana":"リョウゲンジ","prefecture_code":40},"3438":{"zip_code":"8113438","prefecture":"福岡県","prefecture_kana":"フクオカケン","city":"宗像市","city_kana":"ムナカタシ","town":"和歌美台","town_kana":"ワカミダイ","prefecture_code":40},"3100":{"zip_code":"8113100","prefecture":"福岡県","prefecture_kana":"フクオカケン","city":"古賀市","city_kana":"コガシ","town":"以下に掲載がない場合","town_kana":"イカニケイサイガナイバアイ","prefecture_code":40},"3134":{"zip_code":"8113134","prefecture":"福岡県","prefecture_kana":"フクオカケン","city":"古賀市","city_kana":"コガシ","town":"青柳","town_kana":"アオヤギ","prefecture_code":40},"3133":{"zip_code":"8113133","prefecture":"福岡県","prefecture_kana":"フクオカケン","city":"古賀市","city_kana":"コガシ","town":"青柳町","town_kana":"アオヤギマチ","prefecture_code":40},"3136":{"zip_code":"8113136","prefecture":"福岡県","prefecture_kana":"フクオカケン","city":"古賀市","city_kana":"コガシ","town":"糸ケ浦","town_kana":"イトガウラ","prefecture_code":40},"3131":{"zip_code":"8113131","prefecture":"福岡県","prefecture_kana":"フクオカケン","city":"古賀市","city_kana":"コガシ","town":"今在家","town_kana":"イマザイケ","prefecture_code":40},"3117":{"zip_code":"8113117","prefecture":"福岡県","prefecture_kana":"フクオカケン","city":"古賀市","city_kana":"コガシ","town":"今の庄","town_kana":"イマノショウ","prefecture_code":40},"3102":{"zip_code":"8113102","prefecture":"福岡県","prefecture_kana":"フクオカケン","city":"古賀市","city_kana":"コガシ","town":"駅東","town_kana":"エキヒガシ","prefecture_code":40},"3135":{"zip_code":"8113135","prefecture":"福岡県","prefecture_kana":"フクオカケン","city":"古賀市","city_kana":"コガシ","town":"小竹","town_kana":"オダケ","prefecture_code":40},"3126":{"zip_code":"8113126","prefecture":"福岡県","prefecture_kana":"フクオカケン","city":"古賀市","city_kana":"コガシ","town":"小山田","town_kana":"オヤマダ","prefecture_code":40},"3104":{"zip_code":"8113104","prefecture":"福岡県","prefecture_kana":"フクオカケン","city":"古賀市","city_kana":"コガシ","town":"花鶴丘","town_kana":"カヅルガオカ","prefecture_code":40},"3132":{"zip_code":"8113132","prefecture":"福岡県","prefecture_kana":"フクオカケン","city":"古賀市","city_kana":"コガシ","town":"川原","town_kana":"カワバル","prefecture_code":40},"3115":{"zip_code":"8113115","prefecture":"福岡県","prefecture_kana":"フクオカケン","city":"古賀市","city_kana":"コガシ","town":"久保","town_kana":"クボ","prefecture_code":40},"3137":{"zip_code":"8113137","prefecture":"福岡県","prefecture_kana":"フクオカケン","city":"古賀市","city_kana":"コガシ","town":"古賀","town_kana":"コガ","prefecture_code":40},"3122":{"zip_code":"8113122","prefecture":"福岡県","prefecture_kana":"フクオカケン","city":"古賀市","city_kana":"コガシ","town":"薦野","town_kana":"コモノ","prefecture_code":40},"3105":{"zip_code":"8113105","prefecture":"福岡県","prefecture_kana":"フクオカケン","city":"古賀市","city_kana":"コガシ","town":"鹿部","town_kana":"シシブ","prefecture_code":40},"3116":{"zip_code":"8113116","prefecture":"福岡県","prefecture_kana":"フクオカケン","city":"古賀市","city_kana":"コガシ","town":"庄","town_kana":"ショウ","prefecture_code":40},"3118":{"zip_code":"8113118","prefecture":"福岡県","prefecture_kana":"フクオカケン","city":"古賀市","city_kana":"コガシ","town":"新久保","town_kana":"シンクボ","prefecture_code":40},"3127":{"zip_code":"8113127","prefecture":"福岡県","prefecture_kana":"フクオカケン","city":"古賀市","city_kana":"コガシ","town":"新原","town_kana":"シンバル","prefecture_code":40},"3125":{"zip_code":"8113125","prefecture":"福岡県","prefecture_kana":"フクオカケン","city":"古賀市","city_kana":"コガシ","town":"谷山","town_kana":"タニヤマ","prefecture_code":40},"3113":{"zip_code":"8113113","prefecture":"福岡県","prefecture_kana":"フクオカケン","city":"古賀市","city_kana":"コガシ","town":"千鳥","town_kana":"チドリ","prefecture_code":40},"3103":{"zip_code":"8113103","prefecture":"福岡県","prefecture_kana":"フクオカケン","city":"古賀市","city_kana":"コガシ","town":"中央","town_kana":"チュウオウ","prefecture_code":40},"3101":{"zip_code":"8113101","prefecture":"福岡県","prefecture_kana":"フクオカケン","city":"古賀市","city_kana":"コガシ","town":"天神","town_kana":"テンジン","prefecture_code":40},"3123":{"zip_code":"8113123","prefecture":"福岡県","prefecture_kana":"フクオカケン","city":"古賀市","city_kana":"コガシ","town":"米多比","town_kana":"ネタビ","prefecture_code":40},"3112":{"zip_code":"8113112","prefecture":"福岡県","prefecture_kana":"フクオカケン","city":"古賀市","city_kana":"コガシ","town":"花見東","town_kana":"ハナミヒガシ","prefecture_code":40},"3111":{"zip_code":"8113111","prefecture":"福岡県","prefecture_kana":"フクオカケン","city":"古賀市","city_kana":"コガシ","town":"花見南","town_kana":"ハナミミナミ","prefecture_code":40},"3106":{"zip_code":"8113106","prefecture":"福岡県","prefecture_kana":"フクオカケン","city":"古賀市","city_kana":"コガシ","town":"日吉","town_kana":"ヒヨシ","prefecture_code":40},"3114":{"zip_code":"8113114","prefecture":"福岡県","prefecture_kana":"フクオカケン","city":"古賀市","city_kana":"コガシ","town":"舞の里","town_kana":"マイノサト","prefecture_code":40},"3107":{"zip_code":"8113107","prefecture":"福岡県","prefecture_kana":"フクオカケン","city":"古賀市","city_kana":"コガシ","town":"美明","town_kana":"ミアケ","prefecture_code":40},"3121":{"zip_code":"8113121","prefecture":"福岡県","prefecture_kana":"フクオカケン","city":"古賀市","city_kana":"コガシ","town":"筵内","town_kana":"ムシロウチ","prefecture_code":40},"3124":{"zip_code":"8113124","prefecture":"福岡県","prefecture_kana":"フクオカケン","city":"古賀市","city_kana":"コガシ","town":"薬王寺","town_kana":"ヤクオウジ","prefecture_code":40},"3200":{"zip_code":"8113200","prefecture":"福岡県","prefecture_kana":"フクオカケン","city":"福津市","city_kana":"フクツシ","town":"以下に掲載がない場合","town_kana":"イカニケイサイガナイバアイ","prefecture_code":40},"3213":{"zip_code":"8113213","prefecture":"福岡県","prefecture_kana":"フクオカケン","city":"福津市","city_kana":"フクツシ","town":"福津市の次に番地がくる場合","town_kana":"フクツシノツギニバンチガクルバアイ","prefecture_code":40},"3220":{"zip_code":"8113220","prefecture":"福岡県","prefecture_kana":"フクオカケン","city":"福津市","city_kana":"フクツシ","town":"あけぼの","town_kana":"アケボノ","prefecture_code":40},"3202":{"zip_code":"8113202","prefecture":"福岡県","prefecture_kana":"フクオカケン","city":"福津市","city_kana":"フクツシ","town":"畦町","town_kana":"アゼマチ","prefecture_code":40},"3301":{"zip_code":"8113301","prefecture":"福岡県","prefecture_kana":"フクオカケン","city":"福津市","city_kana":"フクツシ","town":"在自","town_kana":"アラジ","prefecture_code":40},"3205":{"zip_code":"8113205","prefecture":"福岡県","prefecture_kana":"フクオカケン","city":"福津市","city_kana":"フクツシ","town":"内殿","town_kana":"ウチドノ","prefecture_code":40},"3302":{"zip_code":"8113302","prefecture":"福岡県","prefecture_kana":"フクオカケン","city":"福津市","city_kana":"フクツシ","town":"大石","town_kana":"オオイシ","prefecture_code":40},"3226":{"zip_code":"8113226","prefecture":"福岡県","prefecture_kana":"フクオカケン","city":"福津市","city_kana":"フクツシ","town":"小竹","town_kana":"オダケ","prefecture_code":40},"3521":{"zip_code":"8113521","prefecture":"福岡県","prefecture_kana":"フクオカケン","city":"福津市","city_kana":"フクツシ","town":"勝浦","town_kana":"カツウラ","prefecture_code":40},"3207":{"zip_code":"8113207","prefecture":"福岡県","prefecture_kana":"フクオカケン","city":"福津市","city_kana":"フクツシ","town":"上西郷","town_kana":"カミサイゴウ","prefecture_code":40},"3223":{"zip_code":"8113223","prefecture":"福岡県","prefecture_kana":"フクオカケン","city":"福津市","city_kana":"フクツシ","town":"光陽台","town_kana":"コウヨウダイ","prefecture_code":40},"3228":{"zip_code":"8113228","prefecture":"福岡県","prefecture_kana":"フクオカケン","city":"福津市","city_kana":"フクツシ","town":"光陽台南","town_kana":"コウヨウダイミナミ","prefecture_code":40},"3229":{"zip_code":"8113229","prefecture":"福岡県","prefecture_kana":"フクオカケン","city":"福津市","city_kana":"フクツシ","town":"桜川","town_kana":"サクラガワ","prefecture_code":40},"3204":{"zip_code":"8113204","prefecture":"福岡県","prefecture_kana":"フクオカケン","city":"福津市","city_kana":"フクツシ","town":"舎利蔵","town_kana":"シャリクラ","prefecture_code":40},"3303":{"zip_code":"8113303","prefecture":"福岡県","prefecture_kana":"フクオカケン","city":"福津市","city_kana":"フクツシ","town":"須多田","town_kana":"スダタ","prefecture_code":40},"3227":{"zip_code":"8113227","prefecture":"福岡県","prefecture_kana":"フクオカケン","city":"福津市","city_kana":"フクツシ","town":"高平","town_kana":"タカヒラ","prefecture_code":40},"3217":{"zip_code":"8113217","prefecture":"福岡県","prefecture_kana":"フクオカケン","city":"福津市","city_kana":"フクツシ","town":"中央","town_kana":"チュウオウ","prefecture_code":40},"3222":{"zip_code":"8113222","prefecture":"福岡県","prefecture_kana":"フクオカケン","city":"福津市","city_kana":"フクツシ","town":"津丸","town_kana":"ツマル","prefecture_code":40},"3304":{"zip_code":"8113304","prefecture":"福岡県","prefecture_kana":"フクオカケン","city":"福津市","city_kana":"フクツシ","town":"津屋崎","town_kana":"ツヤザキ","prefecture_code":40},"3224":{"zip_code":"8113224","prefecture":"福岡県","prefecture_kana":"フクオカケン","city":"福津市","city_kana":"フクツシ","town":"手光","town_kana":"テビカ","prefecture_code":40},"3218":{"zip_code":"8113218","prefecture":"福岡県","prefecture_kana":"フクオカケン","city":"福津市","city_kana":"フクツシ","town":"手光南","town_kana":"テビカミナミ","prefecture_code":40},"3219":{"zip_code":"8113219","prefecture":"福岡県","prefecture_kana":"フクオカケン","city":"福津市","city_kana":"フクツシ","town":"西福間","town_kana":"ニシフクマ","prefecture_code":40},"3522":{"zip_code":"8113522","prefecture":"福岡県","prefecture_kana":"フクオカケン","city":"福津市","city_kana":"フクツシ","town":"奴山","town_kana":"ヌヤマ","prefecture_code":40},"3214":{"zip_code":"8113214","prefecture":"福岡県","prefecture_kana":"フクオカケン","city":"福津市","city_kana":"フクツシ","town":"花見が丘","town_kana":"ハナミガオカ","prefecture_code":40},"3216":{"zip_code":"8113216","prefecture":"福岡県","prefecture_kana":"フクオカケン","city":"福津市","city_kana":"フクツシ","town":"花見が浜","town_kana":"ハナミガハマ","prefecture_code":40},"3215":{"zip_code":"8113215","prefecture":"福岡県","prefecture_kana":"フクオカケン","city":"福津市","city_kana":"フクツシ","town":"花見の里","town_kana":"ハナミノサト","prefecture_code":40},"3225":{"zip_code":"8113225","prefecture":"福岡県","prefecture_kana":"フクオカケン","city":"福津市","city_kana":"フクツシ","town":"東福間","town_kana":"ヒガシフクマ","prefecture_code":40},"3206":{"zip_code":"8113206","prefecture":"福岡県","prefecture_kana":"フクオカケン","city":"福津市","city_kana":"フクツシ","town":"久末","town_kana":"ヒサスエ","prefecture_code":40},"3209":{"zip_code":"8113209","prefecture":"福岡県","prefecture_kana":"フクオカケン","city":"福津市","city_kana":"フクツシ","town":"日蒔野","town_kana":"ヒマキノ","prefecture_code":40},"3208":{"zip_code":"8113208","prefecture":"福岡県","prefecture_kana":"フクオカケン","city":"福津市","city_kana":"フクツシ","town":"福間駅東","town_kana":"フクマエキヒガシ","prefecture_code":40},"3212":{"zip_code":"8113212","prefecture":"福岡県","prefecture_kana":"フクオカケン","city":"福津市","city_kana":"フクツシ","town":"福間南","town_kana":"フクマミナミ","prefecture_code":40},"3308":{"zip_code":"8113308","prefecture":"福岡県","prefecture_kana":"フクオカケン","city":"福津市","city_kana":"フクツシ","town":"星ケ丘","town_kana":"ホシガオカ","prefecture_code":40},"3305":{"zip_code":"8113305","prefecture":"福岡県","prefecture_kana":"フクオカケン","city":"福津市","city_kana":"フクツシ","town":"宮司","town_kana":"ミヤジ","prefecture_code":40},"3312":{"zip_code":"8113312","prefecture":"福岡県","prefecture_kana":"フクオカケン","city":"福津市","city_kana":"フクツシ","town":"宮司ヶ丘","town_kana":"ミヤジガオカ","prefecture_code":40},"3311":{"zip_code":"8113311","prefecture":"福岡県","prefecture_kana":"フクオカケン","city":"福津市","city_kana":"フクツシ","town":"宮司浜","town_kana":"ミヤジハマ","prefecture_code":40},"3309":{"zip_code":"8113309","prefecture":"福岡県","prefecture_kana":"フクオカケン","city":"福津市","city_kana":"フクツシ","town":"宮司元町","town_kana":"ミヤジモトマチ","prefecture_code":40},"3203":{"zip_code":"8113203","prefecture":"福岡県","prefecture_kana":"フクオカケン","city":"福津市","city_kana":"フクツシ","town":"本木","town_kana":"モトギ","prefecture_code":40},"3201":{"zip_code":"8113201","prefecture":"福岡県","prefecture_kana":"フクオカケン","city":"福津市","city_kana":"フクツシ","town":"八並","town_kana":"ヤツナミ","prefecture_code":40},"3306":{"zip_code":"8113306","prefecture":"福岡県","prefecture_kana":"フクオカケン","city":"福津市","city_kana":"フクツシ","town":"生家","town_kana":"ユクエ","prefecture_code":40},"3211":{"zip_code":"8113211","prefecture":"福岡県","prefecture_kana":"フクオカケン","city":"福津市","city_kana":"フクツシ","town":"有弥の里","town_kana":"ユミノサト","prefecture_code":40},"3221":{"zip_code":"8113221","prefecture":"福岡県","prefecture_kana":"フクオカケン","city":"福津市","city_kana":"フクツシ","town":"若木台","town_kana":"ワカギダイ","prefecture_code":40},"3307":{"zip_code":"8113307","prefecture":"福岡県","prefecture_kana":"フクオカケン","city":"福津市","city_kana":"フクツシ","town":"渡","town_kana":"ワタリ","prefecture_code":40},"1200":{"zip_code":"8111200","prefecture":"福岡県","prefecture_kana":"フクオカケン","city":"筑紫郡那珂川町","city_kana":"チクシグンナカガワマチ","town":"以下に掲載がない場合","town_kana":"イカニケイサイガナイバアイ","prefecture_code":40},"1224":{"zip_code":"8111224","prefecture":"福岡県","prefecture_kana":"フクオカケン","city":"筑紫郡那珂川町","city_kana":"チクシグンナカガワマチ","town":"安徳","town_kana":"アントク","prefecture_code":40},"1233":{"zip_code":"8111233","prefecture":"福岡県","prefecture_kana":"フクオカケン","city":"筑紫郡那珂川町","city_kana":"チクシグンナカガワマチ","town":"市ノ瀬","town_kana":"イチノセ","prefecture_code":40},"1211":{"zip_code":"8111211","prefecture":"福岡県","prefecture_kana":"フクオカケン","city":"筑紫郡那珂川町","city_kana":"チクシグンナカガワマチ","town":"今光","town_kana":"イマミツ","prefecture_code":40},"1241":{"zip_code":"8111241","prefecture":"福岡県","prefecture_kana":"フクオカケン","city":"筑紫郡那珂川町","city_kana":"チクシグンナカガワマチ","town":"後野","town_kana":"ウシロノ","prefecture_code":40},"1232":{"zip_code":"8111232","prefecture":"福岡県","prefecture_kana":"フクオカケン","city":"筑紫郡那珂川町","city_kana":"チクシグンナカガワマチ","town":"埋金","town_kana":"ウメガネ","prefecture_code":40},"1255":{"zip_code":"8111255","prefecture":"福岡県","prefecture_kana":"フクオカケン","city":"筑紫郡那珂川町","city_kana":"チクシグンナカガワマチ","town":"恵子","town_kana":"エコ","prefecture_code":40},"1221":{"zip_code":"8111221","prefecture":"福岡県","prefecture_kana":"フクオカケン","city":"筑紫郡那珂川町","city_kana":"チクシグンナカガワマチ","town":"王塚台","town_kana":"オウツカダイ","prefecture_code":40},"1201":{"zip_code":"8111201","prefecture":"福岡県","prefecture_kana":"フクオカケン","city":"筑紫郡那珂川町","city_kana":"チクシグンナカガワマチ","town":"片縄","town_kana":"カタナワ","prefecture_code":40},"1203":{"zip_code":"8111203","prefecture":"福岡県","prefecture_kana":"フクオカケン","city":"筑紫郡那珂川町","city_kana":"チクシグンナカガワマチ","town":"片縄北","town_kana":"カタナワキタ","prefecture_code":40},"1202":{"zip_code":"8111202","prefecture":"福岡県","prefecture_kana":"フクオカケン","city":"筑紫郡那珂川町","city_kana":"チクシグンナカガワマチ","town":"片縄西","town_kana":"カタナワニシ","prefecture_code":40},"1204":{"zip_code":"8111204","prefecture":"福岡県","prefecture_kana":"フクオカケン","city":"筑紫郡那珂川町","city_kana":"チクシグンナカガワマチ","town":"片縄東","town_kana":"カタナワヒガシ","prefecture_code":40},"1223":{"zip_code":"8111223","prefecture":"福岡県","prefecture_kana":"フクオカケン","city":"筑紫郡那珂川町","city_kana":"チクシグンナカガワマチ","town":"上梶原","town_kana":"カミカジワラ","prefecture_code":40},"1234":{"zip_code":"8111234","prefecture":"福岡県","prefecture_kana":"フクオカケン","city":"筑紫郡那珂川町","city_kana":"チクシグンナカガワマチ","town":"五ケ山","town_kana":"ゴカヤマ","prefecture_code":40},"1252":{"zip_code":"8111252","prefecture":"福岡県","prefecture_kana":"フクオカケン","city":"筑紫郡那珂川町","city_kana":"チクシグンナカガワマチ","town":"五郎丸","town_kana":"ゴロウマル","prefecture_code":40},"1222":{"zip_code":"8111222","prefecture":"福岡県","prefecture_kana":"フクオカケン","city":"筑紫郡那珂川町","city_kana":"チクシグンナカガワマチ","town":"下梶原","town_kana":"シモカジワラ","prefecture_code":40},"1253":{"zip_code":"8111253","prefecture":"福岡県","prefecture_kana":"フクオカケン","city":"筑紫郡那珂川町","city_kana":"チクシグンナカガワマチ","town":"仲","town_kana":"チュウ","prefecture_code":40},"1256":{"zip_code":"8111256","prefecture":"福岡県","prefecture_kana":"フクオカケン","city":"筑紫郡那珂川町","city_kana":"チクシグンナカガワマチ","town":"仲丸","town_kana":"チュウマル","prefecture_code":40},"1254":{"zip_code":"8111254","prefecture":"福岡県","prefecture_kana":"フクオカケン","city":"筑紫郡那珂川町","city_kana":"チクシグンナカガワマチ","town":"道善","town_kana":"ドウゼン","prefecture_code":40},"1213":{"zip_code":"8111213","prefecture":"福岡県","prefecture_kana":"フクオカケン","city":"筑紫郡那珂川町","city_kana":"チクシグンナカガワマチ","town":"中原","town_kana":"ナカバル","prefecture_code":40},"1214":{"zip_code":"8111214","prefecture":"福岡県","prefecture_kana":"フクオカケン","city":"筑紫郡那珂川町","city_kana":"チクシグンナカガワマチ","town":"中原東","town_kana":"ナカバルヒガシ","prefecture_code":40},"1212":{"zip_code":"8111212","prefecture":"福岡県","prefecture_kana":"フクオカケン","city":"筑紫郡那珂川町","city_kana":"チクシグンナカガワマチ","town":"中原観晴が丘","town_kana":"ナカバルミハルガオカ","prefecture_code":40},"1236":{"zip_code":"8111236","prefecture":"福岡県","prefecture_kana":"フクオカケン","city":"筑紫郡那珂川町","city_kana":"チクシグンナカガワマチ","town":"南面里","town_kana":"ナメリ","prefecture_code":40},"1235":{"zip_code":"8111235","prefecture":"福岡県","prefecture_kana":"フクオカケン","city":"筑紫郡那珂川町","city_kana":"チクシグンナカガワマチ","town":"成竹","town_kana":"ナルタケ","prefecture_code":40},"1242":{"zip_code":"8111242","prefecture":"福岡県","prefecture_kana":"フクオカケン","city":"筑紫郡那珂川町","city_kana":"チクシグンナカガワマチ","town":"西隈","town_kana":"ニシグマ","prefecture_code":40},"1246":{"zip_code":"8111246","prefecture":"福岡県","prefecture_kana":"フクオカケン","city":"筑紫郡那珂川町","city_kana":"チクシグンナカガワマチ","town":"西畑","town_kana":"ニシハタ","prefecture_code":40},"1243":{"zip_code":"8111243","prefecture":"福岡県","prefecture_kana":"フクオカケン","city":"筑紫郡那珂川町","city_kana":"チクシグンナカガワマチ","town":"東隈","town_kana":"ヒガシグマ","prefecture_code":40},"1231":{"zip_code":"8111231","prefecture":"福岡県","prefecture_kana":"フクオカケン","city":"筑紫郡那珂川町","city_kana":"チクシグンナカガワマチ","town":"不入道","town_kana":"フニュウドウ","prefecture_code":40},"1245":{"zip_code":"8111245","prefecture":"福岡県","prefecture_kana":"フクオカケン","city":"筑紫郡那珂川町","city_kana":"チクシグンナカガワマチ","town":"別所","town_kana":"ベッショ","prefecture_code":40},"1251":{"zip_code":"8111251","prefecture":"福岡県","prefecture_kana":"フクオカケン","city":"筑紫郡那珂川町","city_kana":"チクシグンナカガワマチ","town":"松木","town_kana":"マツノキ","prefecture_code":40},"1215":{"zip_code":"8111215","prefecture":"福岡県","prefecture_kana":"フクオカケン","city":"筑紫郡那珂川町","city_kana":"チクシグンナカガワマチ","town":"松原","town_kana":"マツバラ","prefecture_code":40},"1216":{"zip_code":"8111216","prefecture":"福岡県","prefecture_kana":"フクオカケン","city":"筑紫郡那珂川町","city_kana":"チクシグンナカガワマチ","town":"観晴が丘","town_kana":"ミハルガオカ","prefecture_code":40},"1244":{"zip_code":"8111244","prefecture":"福岡県","prefecture_kana":"フクオカケン","city":"筑紫郡那珂川町","city_kana":"チクシグンナカガワマチ","town":"山田","town_kana":"ヤマダ","prefecture_code":40},"2100":[{"zip_code":"8112100","prefecture":"福岡県","prefecture_kana":"フクオカケン","city":"糟屋郡宇美町","city_kana":"カスヤグンウミマチ","town":"以下に掲載がない場合","town_kana":"イカニケイサイガナイバアイ","prefecture_code":40},{"zip_code":"8112100","prefecture":"福岡県","prefecture_kana":"フクオカケン","city":"糟屋郡須惠町","city_kana":"カスヤグンスエマチ","town":"以下に掲載がない場合","town_kana":"イカニケイサイガナイバアイ","prefecture_code":40}],"2104":{"zip_code":"8112104","prefecture":"福岡県","prefecture_kana":"フクオカケン","city":"糟屋郡宇美町","city_kana":"カスヤグンウミマチ","town":"井野","town_kana":"イノ","prefecture_code":40},"2101":{"zip_code":"8112101","prefecture":"福岡県","prefecture_kana":"フクオカケン","city":"糟屋郡宇美町","city_kana":"カスヤグンウミマチ","town":"宇美","town_kana":"ウミ","prefecture_code":40},"2128":{"zip_code":"8112128","prefecture":"福岡県","prefecture_kana":"フクオカケン","city":"糟屋郡宇美町","city_kana":"カスヤグンウミマチ","town":"宇美中央","town_kana":"ウミチュウオウ","prefecture_code":40},"2125":{"zip_code":"8112125","prefecture":"福岡県","prefecture_kana":"フクオカケン","city":"糟屋郡宇美町","city_kana":"カスヤグンウミマチ","town":"宇美東","town_kana":"ウミヒガシ","prefecture_code":40},"2131":{"zip_code":"8112131","prefecture":"福岡県","prefecture_kana":"フクオカケン","city":"糟屋郡宇美町","city_kana":"カスヤグンウミマチ","town":"貴船","town_kana":"キフネ","prefecture_code":40},"2123":{"zip_code":"8112123","prefecture":"福岡県","prefecture_kana":"フクオカケン","city":"糟屋郡宇美町","city_kana":"カスヤグンウミマチ","town":"光正寺","town_kana":"コウショウジ","prefecture_code":40},"2109":{"zip_code":"8112109","prefecture":"福岡県","prefecture_kana":"フクオカケン","city":"糟屋郡宇美町","city_kana":"カスヤグンウミマチ","town":"桜原","town_kana":"サクラバル","prefecture_code":40},"2105":{"zip_code":"8112105","prefecture":"福岡県","prefecture_kana":"フクオカケン","city":"糟屋郡宇美町","city_kana":"カスヤグンウミマチ","town":"四王寺","town_kana":"シオウジ","prefecture_code":40},"2103":{"zip_code":"8112103","prefecture":"福岡県","prefecture_kana":"フクオカケン","city":"糟屋郡宇美町","city_kana":"カスヤグンウミマチ","town":"四王寺坂","town_kana":"シオウジザカ","prefecture_code":40},"2127":{"zip_code":"8112127","prefecture":"福岡県","prefecture_kana":"フクオカケン","city":"糟屋郡宇美町","city_kana":"カスヤグンウミマチ","town":"障子岳","town_kana":"ショウジダケ","prefecture_code":40},"2126":{"zip_code":"8112126","prefecture":"福岡県","prefecture_kana":"フクオカケン","city":"糟屋郡宇美町","city_kana":"カスヤグンウミマチ","town":"障子岳南","town_kana":"ショウジダケミナミ","prefecture_code":40},"2102":{"zip_code":"8112102","prefecture":"福岡県","prefecture_kana":"フクオカケン","city":"糟屋郡宇美町","city_kana":"カスヤグンウミマチ","town":"炭焼","town_kana":"スミヤキ","prefecture_code":40},"2107":{"zip_code":"8112107","prefecture":"福岡県","prefecture_kana":"フクオカケン","city":"糟屋郡宇美町","city_kana":"カスヤグンウミマチ","town":"とびたけ","town_kana":"トビタケ","prefecture_code":40},"2132":{"zip_code":"8112132","prefecture":"福岡県","prefecture_kana":"フクオカケン","city":"糟屋郡宇美町","city_kana":"カスヤグンウミマチ","town":"原田","town_kana":"ハルダ","prefecture_code":40},"2106":{"zip_code":"8112106","prefecture":"福岡県","prefecture_kana":"フクオカケン","city":"糟屋郡宇美町","city_kana":"カスヤグンウミマチ","town":"ひばりが丘","town_kana":"ヒバリガオカ","prefecture_code":40},"2121":{"zip_code":"8112121","prefecture":"福岡県","prefecture_kana":"フクオカケン","city":"糟屋郡宇美町","city_kana":"カスヤグンウミマチ","town":"平和","town_kana":"ヘイワ","prefecture_code":40},"2122":{"zip_code":"8112122","prefecture":"福岡県","prefecture_kana":"フクオカケン","city":"糟屋郡宇美町","city_kana":"カスヤグンウミマチ","town":"明神坂","town_kana":"ミョウジンザカ","prefecture_code":40},"2108":{"zip_code":"8112108","prefecture":"福岡県","prefecture_kana":"フクオカケン","city":"糟屋郡宇美町","city_kana":"カスヤグンウミマチ","town":"ゆりが丘","town_kana":"ユリガオカ","prefecture_code":40},"2124":{"zip_code":"8112124","prefecture":"福岡県","prefecture_kana":"フクオカケン","city":"糟屋郡宇美町","city_kana":"カスヤグンウミマチ","town":"若草","town_kana":"ワカクサ","prefecture_code":40},"2400":{"zip_code":"8112400","prefecture":"福岡県","prefecture_kana":"フクオカケン","city":"糟屋郡篠栗町","city_kana":"カスヤグンササグリマチ","town":"以下に掲載がない場合","town_kana":"イカニケイサイガナイバアイ","prefecture_code":40},"2412":{"zip_code":"8112412","prefecture":"福岡県","prefecture_kana":"フクオカケン","city":"糟屋郡篠栗町","city_kana":"カスヤグンササグリマチ","town":"乙犬","town_kana":"オトイヌ","prefecture_code":40},"2413":{"zip_code":"8112413","prefecture":"福岡県","prefecture_kana":"フクオカケン","city":"糟屋郡篠栗町","city_kana":"カスヤグンササグリマチ","town":"尾仲","town_kana":"オナカ","prefecture_code":40},"2402":{"zip_code":"8112402","prefecture":"福岡県","prefecture_kana":"フクオカケン","city":"糟屋郡篠栗町","city_kana":"カスヤグンササグリマチ","town":"金出","town_kana":"カナイデ","prefecture_code":40},"2405":{"zip_code":"8112405","prefecture":"福岡県","prefecture_kana":"フクオカケン","city":"糟屋郡篠栗町","city_kana":"カスヤグンササグリマチ","town":"篠栗","town_kana":"ササグリ","prefecture_code":40},"2401":{"zip_code":"8112401","prefecture":"福岡県","prefecture_kana":"フクオカケン","city":"糟屋郡篠栗町","city_kana":"カスヤグンササグリマチ","town":"高田","town_kana":"タカタ","prefecture_code":40},"2416":{"zip_code":"8112416","prefecture":"福岡県","prefecture_kana":"フクオカケン","city":"糟屋郡篠栗町","city_kana":"カスヤグンササグリマチ","town":"田中","town_kana":"タナカ","prefecture_code":40},"2415":{"zip_code":"8112415","prefecture":"福岡県","prefecture_kana":"フクオカケン","city":"糟屋郡篠栗町","city_kana":"カスヤグンササグリマチ","town":"津波黒","town_kana":"ツバクロ","prefecture_code":40},"2404":{"zip_code":"8112404","prefecture":"福岡県","prefecture_kana":"フクオカケン","city":"糟屋郡篠栗町","city_kana":"カスヤグンササグリマチ","town":"内住","town_kana":"ナイジュウ","prefecture_code":40},"2403":{"zip_code":"8112403","prefecture":"福岡県","prefecture_kana":"フクオカケン","city":"糟屋郡篠栗町","city_kana":"カスヤグンササグリマチ","town":"萩尾","town_kana":"ハギノウ","prefecture_code":40},"2411":{"zip_code":"8112411","prefecture":"福岡県","prefecture_kana":"フクオカケン","city":"糟屋郡篠栗町","city_kana":"カスヤグンササグリマチ","town":"若杉","town_kana":"ワカスギ","prefecture_code":40},"2414":{"zip_code":"8112414","prefecture":"福岡県","prefecture_kana":"フクオカケン","city":"糟屋郡篠栗町","city_kana":"カスヤグンササグリマチ","town":"和田","town_kana":"ワダ","prefecture_code":40},"2200":{"zip_code":"8112200","prefecture":"福岡県","prefecture_kana":"フクオカケン","city":"糟屋郡志免町","city_kana":"カスヤグンシメマチ","town":"以下に掲載がない場合","town_kana":"イカニケイサイガナイバアイ","prefecture_code":40},"2203":{"zip_code":"8112203","prefecture":"福岡県","prefecture_kana":"フクオカケン","city":"糟屋郡志免町","city_kana":"カスヤグンシメマチ","town":"石橋台","town_kana":"イシバシダイ","prefecture_code":40},"2209":{"zip_code":"8112209","prefecture":"福岡県","prefecture_kana":"フクオカケン","city":"糟屋郡志免町","city_kana":"カスヤグンシメマチ","town":"王子","town_kana":"オウジ","prefecture_code":40},"2245":{"zip_code":"8112245","prefecture":"福岡県","prefecture_kana":"フクオカケン","city":"糟屋郡志免町","city_kana":"カスヤグンシメマチ","town":"片峰","town_kana":"カタミネ","prefecture_code":40},"2246":{"zip_code":"8112246","prefecture":"福岡県","prefecture_kana":"フクオカケン","city":"糟屋郡志免町","city_kana":"カスヤグンシメマチ","town":"片峰中央","town_kana":"カタミネチュウオウ","prefecture_code":40},"2248":{"zip_code":"8112248","prefecture":"福岡県","prefecture_kana":"フクオカケン","city":"糟屋郡志免町","city_kana":"カスヤグンシメマチ","town":"坂瀬","town_kana":"サカセ","prefecture_code":40},"2201":{"zip_code":"8112201","prefecture":"福岡県","prefecture_kana":"フクオカケン","city":"糟屋郡志免町","city_kana":"カスヤグンシメマチ","town":"桜丘","town_kana":"サクラガオカ","prefecture_code":40},"2202":{"zip_code":"8112202","prefecture":"福岡県","prefecture_kana":"フクオカケン","city":"糟屋郡志免町","city_kana":"カスヤグンシメマチ","town":"志免","town_kana":"シメ","prefecture_code":40},"2244":{"zip_code":"8112244","prefecture":"福岡県","prefecture_kana":"フクオカケン","city":"糟屋郡志免町","city_kana":"カスヤグンシメマチ","town":"志免中央","town_kana":"シメチュウオウ","prefecture_code":40},"2243":{"zip_code":"8112243","prefecture":"福岡県","prefecture_kana":"フクオカケン","city":"糟屋郡志免町","city_kana":"カスヤグンシメマチ","town":"志免東","town_kana":"シメヒガシ","prefecture_code":40},"2204":{"zip_code":"8112204","prefecture":"福岡県","prefecture_kana":"フクオカケン","city":"糟屋郡志免町","city_kana":"カスヤグンシメマチ","town":"田富","town_kana":"タドミ","prefecture_code":40},"2241":{"zip_code":"8112241","prefecture":"福岡県","prefecture_kana":"フクオカケン","city":"糟屋郡志免町","city_kana":"カスヤグンシメマチ","town":"東公園台","town_kana":"ヒガシコウエンダイ","prefecture_code":40},"2205":{"zip_code":"8112205","prefecture":"福岡県","prefecture_kana":"フクオカケン","city":"糟屋郡志免町","city_kana":"カスヤグンシメマチ","town":"別府","town_kana":"ベフ","prefecture_code":40},"2233":{"zip_code":"8112233","prefecture":"福岡県","prefecture_kana":"フクオカケン","city":"糟屋郡志免町","city_kana":"カスヤグンシメマチ","town":"別府北","town_kana":"ベフキタ","prefecture_code":40},"2232":{"zip_code":"8112232","prefecture":"福岡県","prefecture_kana":"フクオカケン","city":"糟屋郡志免町","city_kana":"カスヤグンシメマチ","town":"別府西","town_kana":"ベフニシ","prefecture_code":40},"2231":{"zip_code":"8112231","prefecture":"福岡県","prefecture_kana":"フクオカケン","city":"糟屋郡志免町","city_kana":"カスヤグンシメマチ","town":"別府東","town_kana":"ベフヒガシ","prefecture_code":40},"2242":{"zip_code":"8112242","prefecture":"福岡県","prefecture_kana":"フクオカケン","city":"糟屋郡志免町","city_kana":"カスヤグンシメマチ","town":"松ケ丘","town_kana":"マツガオカ","prefecture_code":40},"2206":{"zip_code":"8112206","prefecture":"福岡県","prefecture_kana":"フクオカケン","city":"糟屋郡志免町","city_kana":"カスヤグンシメマチ","town":"御手洗","town_kana":"ミタライ","prefecture_code":40},"2207":{"zip_code":"8112207","prefecture":"福岡県","prefecture_kana":"フクオカケン","city":"糟屋郡志免町","city_kana":"カスヤグンシメマチ","town":"南里","town_kana":"ミナミザト","prefecture_code":40},"2247":{"zip_code":"8112247","prefecture":"福岡県","prefecture_kana":"フクオカケン","city":"糟屋郡志免町","city_kana":"カスヤグンシメマチ","town":"向ケ丘","town_kana":"ムカイガオカ","prefecture_code":40},"2208":{"zip_code":"8112208","prefecture":"福岡県","prefecture_kana":"フクオカケン","city":"糟屋郡志免町","city_kana":"カスヤグンシメマチ","town":"吉原","town_kana":"ヨシハラ","prefecture_code":40},"2112":{"zip_code":"8112112","prefecture":"福岡県","prefecture_kana":"フクオカケン","city":"糟屋郡須惠町","city_kana":"カスヤグンスエマチ","town":"植木","town_kana":"ウエキ","prefecture_code":40},"2114":{"zip_code":"8112114","prefecture":"福岡県","prefecture_kana":"フクオカケン","city":"糟屋郡須惠町","city_kana":"カスヤグンスエマチ","town":"上須惠","town_kana":"カミスエ","prefecture_code":40},"2115":{"zip_code":"8112115","prefecture":"福岡県","prefecture_kana":"フクオカケン","city":"糟屋郡須惠町","city_kana":"カスヤグンスエマチ","town":"佐谷","town_kana":"サタニ","prefecture_code":40},"2111":{"zip_code":"8112111","prefecture":"福岡県","prefecture_kana":"フクオカケン","city":"糟屋郡須惠町","city_kana":"カスヤグンスエマチ","town":"新原","town_kana":"シンバル","prefecture_code":40},"2113":{"zip_code":"8112113","prefecture":"福岡県","prefecture_kana":"フクオカケン","city":"糟屋郡須惠町","city_kana":"カスヤグンスエマチ","town":"須惠","town_kana":"スエ","prefecture_code":40},"2221":{"zip_code":"8112221","prefecture":"福岡県","prefecture_kana":"フクオカケン","city":"糟屋郡須惠町","city_kana":"カスヤグンスエマチ","town":"旅石","town_kana":"タビイシ","prefecture_code":40},"0100":{"zip_code":"8110100","prefecture":"福岡県","prefecture_kana":"フクオカケン","city":"糟屋郡新宮町","city_kana":"カスヤグンシングウマチ","town":"以下に掲載がない場合","town_kana":"イカニケイサイガナイバアイ","prefecture_code":40},"0118":{"zip_code":"8110118","prefecture":"福岡県","prefecture_kana":"フクオカケン","city":"糟屋郡新宮町","city_kana":"カスヤグンシングウマチ","town":"相島","town_kana":"アイノシマ","prefecture_code":40},"0117":{"zip_code":"8110117","prefecture":"福岡県","prefecture_kana":"フクオカケン","city":"糟屋郡新宮町","city_kana":"カスヤグンシングウマチ","town":"上府","town_kana":"カミノフ","prefecture_code":40},"0113":{"zip_code":"8110113","prefecture":"福岡県","prefecture_kana":"フクオカケン","city":"糟屋郡新宮町","city_kana":"カスヤグンシングウマチ","town":"桜山手","town_kana":"サクラヤマテ","prefecture_code":40},"0112":{"zip_code":"8110112","prefecture":"福岡県","prefecture_kana":"フクオカケン","city":"糟屋郡新宮町","city_kana":"カスヤグンシングウマチ","town":"下府","town_kana":"シモノフ","prefecture_code":40},"0115":{"zip_code":"8110115","prefecture":"福岡県","prefecture_kana":"フクオカケン","city":"糟屋郡新宮町","city_kana":"カスヤグンシングウマチ","town":"新宮","town_kana":"シングウ","prefecture_code":40},"0102":{"zip_code":"8110102","prefecture":"福岡県","prefecture_kana":"フクオカケン","city":"糟屋郡新宮町","city_kana":"カスヤグンシングウマチ","town":"立花口","town_kana":"タチバナグチ","prefecture_code":40},"0120":{"zip_code":"8110120","prefecture":"福岡県","prefecture_kana":"フクオカケン","city":"糟屋郡新宮町","city_kana":"カスヤグンシングウマチ","town":"中央駅前","town_kana":"チュウオウエキマエ","prefecture_code":40},"0103":{"zip_code":"8110103","prefecture":"福岡県","prefecture_kana":"フクオカケン","city":"糟屋郡新宮町","city_kana":"カスヤグンシングウマチ","town":"花立花","town_kana":"ハナタチバナ","prefecture_code":40},"0101":{"zip_code":"8110101","prefecture":"福岡県","prefecture_kana":"フクオカケン","city":"糟屋郡新宮町","city_kana":"カスヤグンシングウマチ","town":"原上","town_kana":"ハルガミ","prefecture_code":40},"0104":{"zip_code":"8110104","prefecture":"福岡県","prefecture_kana":"フクオカケン","city":"糟屋郡新宮町","city_kana":"カスヤグンシングウマチ","town":"的野","town_kana":"マトノ","prefecture_code":40},"0121":{"zip_code":"8110121","prefecture":"福岡県","prefecture_kana":"フクオカケン","city":"糟屋郡新宮町","city_kana":"カスヤグンシングウマチ","town":"美咲","town_kana":"ミサキ","prefecture_code":40},"0111":{"zip_code":"8110111","prefecture":"福岡県","prefecture_kana":"フクオカケン","city":"糟屋郡新宮町","city_kana":"カスヤグンシングウマチ","town":"三代","town_kana":"ミシロ","prefecture_code":40},"0119":{"zip_code":"8110119","prefecture":"福岡県","prefecture_kana":"フクオカケン","city":"糟屋郡新宮町","city_kana":"カスヤグンシングウマチ","town":"緑ケ浜","town_kana":"ミドリガハマ","prefecture_code":40},"0116":{"zip_code":"8110116","prefecture":"福岡県","prefecture_kana":"フクオカケン","city":"糟屋郡新宮町","city_kana":"カスヤグンシングウマチ","town":"湊","town_kana":"ミナト","prefecture_code":40},"0114":{"zip_code":"8110114","prefecture":"福岡県","prefecture_kana":"フクオカケン","city":"糟屋郡新宮町","city_kana":"カスヤグンシングウマチ","town":"湊坂","town_kana":"ミナトザカ","prefecture_code":40},"0122":{"zip_code":"8110122","prefecture":"福岡県","prefecture_kana":"フクオカケン","city":"糟屋郡新宮町","city_kana":"カスヤグンシングウマチ","town":"杜の宮","town_kana":"モリノミヤ","prefecture_code":40},"0110":{"zip_code":"8110110","prefecture":"福岡県","prefecture_kana":"フクオカケン","city":"糟屋郡新宮町","city_kana":"カスヤグンシングウマチ","town":"夜臼","town_kana":"ユウス","prefecture_code":40},"2500":{"zip_code":"8112500","prefecture":"福岡県","prefecture_kana":"フクオカケン","city":"糟屋郡久山町","city_kana":"カスヤグンヒサヤママチ","town":"以下に掲載がない場合","town_kana":"イカニケイサイガナイバアイ","prefecture_code":40},"2503":{"zip_code":"8112503","prefecture":"福岡県","prefecture_kana":"フクオカケン","city":"糟屋郡久山町","city_kana":"カスヤグンヒサヤママチ","town":"猪野","town_kana":"イノ","prefecture_code":40},"2501":{"zip_code":"8112501","prefecture":"福岡県","prefecture_kana":"フクオカケン","city":"糟屋郡久山町","city_kana":"カスヤグンヒサヤママチ","town":"久原","town_kana":"クバラ","prefecture_code":40},"2502":{"zip_code":"8112502","prefecture":"福岡県","prefecture_kana":"フクオカケン","city":"糟屋郡久山町","city_kana":"カスヤグンヒサヤママチ","town":"山田","town_kana":"ヤマダ","prefecture_code":40},"2300":{"zip_code":"8112300","prefecture":"福岡県","prefecture_kana":"フクオカケン","city":"糟屋郡粕屋町","city_kana":"カスヤグンカスヤマチ","town":"以下に掲載がない場合","town_kana":"イカニケイサイガナイバアイ","prefecture_code":40},"2306":{"zip_code":"8112306","prefecture":"福岡県","prefecture_kana":"フクオカケン","city":"糟屋郡粕屋町","city_kana":"カスヤグンカスヤマチ","town":"阿恵","town_kana":"アエ","prefecture_code":40},"2308":{"zip_code":"8112308","prefecture":"福岡県","prefecture_kana":"フクオカケン","city":"糟屋郡粕屋町","city_kana":"カスヤグンカスヤマチ","town":"内橋（その他）","town_kana":"ウチハシ(ソノタ)","prefecture_code":40},"2313":{"zip_code":"8112313","prefecture":"福岡県","prefecture_kana":"フクオカケン","city":"糟屋郡粕屋町","city_kana":"カスヤグンカスヤマチ","town":"江辻","town_kana":"エツジ","prefecture_code":40},"2302":{"zip_code":"8112302","prefecture":"福岡県","prefecture_kana":"フクオカケン","city":"糟屋郡粕屋町","city_kana":"カスヤグンカスヤマチ","town":"大隈","town_kana":"オオクマ","prefecture_code":40},"2301":{"zip_code":"8112301","prefecture":"福岡県","prefecture_kana":"フクオカケン","city":"糟屋郡粕屋町","city_kana":"カスヤグンカスヤマチ","town":"上大隈","town_kana":"カミオオクマ","prefecture_code":40},"2309":{"zip_code":"8112309","prefecture":"福岡県","prefecture_kana":"フクオカケン","city":"糟屋郡粕屋町","city_kana":"カスヤグンカスヤマチ","town":"駕与丁","town_kana":"カヨイチョウ","prefecture_code":40},"2315":{"zip_code":"8112315","prefecture":"福岡県","prefecture_kana":"フクオカケン","city":"糟屋郡粕屋町","city_kana":"カスヤグンカスヤマチ","town":"甲仲原","town_kana":"コウナカバル","prefecture_code":40},"2303":{"zip_code":"8112303","prefecture":"福岡県","prefecture_kana":"フクオカケン","city":"糟屋郡粕屋町","city_kana":"カスヤグンカスヤマチ","town":"酒殿","town_kana":"サカド","prefecture_code":40},"2311":{"zip_code":"8112311","prefecture":"福岡県","prefecture_kana":"フクオカケン","city":"糟屋郡粕屋町","city_kana":"カスヤグンカスヤマチ","town":"長者原","town_kana":"チョウジャバル","prefecture_code":40},"2316":{"zip_code":"8112316","prefecture":"福岡県","prefecture_kana":"フクオカケン","city":"糟屋郡粕屋町","city_kana":"カスヤグンカスヤマチ","town":"長者原西","town_kana":"チョウジャバルニシ","prefecture_code":40},"2317":{"zip_code":"8112317","prefecture":"福岡県","prefecture_kana":"フクオカケン","city":"糟屋郡粕屋町","city_kana":"カスヤグンカスヤマチ","town":"長者原東","town_kana":"チョウジャバルヒガシ","prefecture_code":40},"2312":{"zip_code":"8112312","prefecture":"福岡県","prefecture_kana":"フクオカケン","city":"糟屋郡粕屋町","city_kana":"カスヤグンカスヤマチ","town":"戸原","town_kana":"トバラ","prefecture_code":40},"2304":{"zip_code":"8112304","prefecture":"福岡県","prefecture_kana":"フクオカケン","city":"糟屋郡粕屋町","city_kana":"カスヤグンカスヤマチ","town":"仲原","town_kana":"ナカバル","prefecture_code":40},"2310":{"zip_code":"8112310","prefecture":"福岡県","prefecture_kana":"フクオカケン","city":"糟屋郡粕屋町","city_kana":"カスヤグンカスヤマチ","town":"花ヶ浦","town_kana":"ハナガウラ","prefecture_code":40},"2307":{"zip_code":"8112307","prefecture":"福岡県","prefecture_kana":"フクオカケン","city":"糟屋郡粕屋町","city_kana":"カスヤグンカスヤマチ","town":"原町","town_kana":"ハルマチ","prefecture_code":40},"2305":{"zip_code":"8112305","prefecture":"福岡県","prefecture_kana":"フクオカケン","city":"糟屋郡粕屋町","city_kana":"カスヤグンカスヤマチ","town":"柚須","town_kana":"ユス","prefecture_code":40},"2314":{"zip_code":"8112314","prefecture":"福岡県","prefecture_kana":"フクオカケン","city":"糟屋郡粕屋町","city_kana":"カスヤグンカスヤマチ","town":"若宮","town_kana":"ワカミヤ","prefecture_code":40},"4200":{"zip_code":"8114200","prefecture":"福岡県","prefecture_kana":"フクオカケン","city":"遠賀郡岡垣町","city_kana":"オンガグンオカガキマチ","town":"以下に掲載がない場合","town_kana":"イカニケイサイガナイバアイ","prefecture_code":40},"4215":{"zip_code":"8114215","prefecture":"福岡県","prefecture_kana":"フクオカケン","city":"遠賀郡岡垣町","city_kana":"オンガグンオカガキマチ","town":"旭台","town_kana":"アサヒダイ","prefecture_code":40},"4216":{"zip_code":"8114216","prefecture":"福岡県","prefecture_kana":"フクオカケン","city":"遠賀郡岡垣町","city_kana":"オンガグンオカガキマチ","town":"旭南","town_kana":"アサヒミナミ","prefecture_code":40},"4203":{"zip_code":"8114203","prefecture":"福岡県","prefecture_kana":"フクオカケン","city":"遠賀郡岡垣町","city_kana":"オンガグンオカガキマチ","town":"内浦","town_kana":"ウツラ","prefecture_code":40},"4231":{"zip_code":"8114231","prefecture":"福岡県","prefecture_kana":"フクオカケン","city":"遠賀郡岡垣町","city_kana":"オンガグンオカガキマチ","town":"海老津","town_kana":"エビツ","prefecture_code":40},"4236":{"zip_code":"8114236","prefecture":"福岡県","prefecture_kana":"フクオカケン","city":"遠賀郡岡垣町","city_kana":"オンガグンオカガキマチ","town":"海老津駅前","town_kana":"エビツエキマエ","prefecture_code":40},"4238":{"zip_code":"8114238","prefecture":"福岡県","prefecture_kana":"フクオカケン","city":"遠賀郡岡垣町","city_kana":"オンガグンオカガキマチ","town":"海老津駅南","town_kana":"エビツエキミナミ","prefecture_code":40},"4212":{"zip_code":"8114212","prefecture":"福岡県","prefecture_kana":"フクオカケン","city":"遠賀郡岡垣町","city_kana":"オンガグンオカガキマチ","town":"黒山","town_kana":"クロヤマ","prefecture_code":40},"4235":{"zip_code":"8114235","prefecture":"福岡県","prefecture_kana":"フクオカケン","city":"遠賀郡岡垣町","city_kana":"オンガグンオカガキマチ","town":"公園通り","town_kana":"コウエンドオリ","prefecture_code":40},"4227":{"zip_code":"8114227","prefecture":"福岡県","prefecture_kana":"フクオカケン","city":"遠賀郡岡垣町","city_kana":"オンガグンオカガキマチ","town":"高陽台","town_kana":"コウヨウダイ","prefecture_code":40},"4217":{"zip_code":"8114217","prefecture":"福岡県","prefecture_kana":"フクオカケン","city":"遠賀郡岡垣町","city_kana":"オンガグンオカガキマチ","town":"桜台","town_kana":"サクラダイ","prefecture_code":40},"4232":{"zip_code":"8114232","prefecture":"福岡県","prefecture_kana":"フクオカケン","city":"遠賀郡岡垣町","city_kana":"オンガグンオカガキマチ","town":"上畑","town_kana":"ジョウハタ","prefecture_code":40},"4234":{"zip_code":"8114234","prefecture":"福岡県","prefecture_kana":"フクオカケン","city":"遠賀郡岡垣町","city_kana":"オンガグンオカガキマチ","town":"高倉","town_kana":"タカクラ","prefecture_code":40},"4218":{"zip_code":"8114218","prefecture":"福岡県","prefecture_kana":"フクオカケン","city":"遠賀郡岡垣町","city_kana":"オンガグンオカガキマチ","town":"中央台","town_kana":"チュウオウダイ","prefecture_code":40},"4204":{"zip_code":"8114204","prefecture":"福岡県","prefecture_kana":"フクオカケン","city":"遠賀郡岡垣町","city_kana":"オンガグンオカガキマチ","town":"手野","town_kana":"テノ","prefecture_code":40},"4222":{"zip_code":"8114222","prefecture":"福岡県","prefecture_kana":"フクオカケン","city":"遠賀郡岡垣町","city_kana":"オンガグンオカガキマチ","town":"戸切","town_kana":"トギリ","prefecture_code":40},"4224":{"zip_code":"8114224","prefecture":"福岡県","prefecture_kana":"フクオカケン","city":"遠賀郡岡垣町","city_kana":"オンガグンオカガキマチ","town":"鍋田","town_kana":"ナベタ","prefecture_code":40},"4213":{"zip_code":"8114213","prefecture":"福岡県","prefecture_kana":"フクオカケン","city":"遠賀郡岡垣町","city_kana":"オンガグンオカガキマチ","town":"糠塚","town_kana":"ヌカヅカ","prefecture_code":40},"4233":{"zip_code":"8114233","prefecture":"福岡県","prefecture_kana":"フクオカケン","city":"遠賀郡岡垣町","city_kana":"オンガグンオカガキマチ","town":"野間","town_kana":"ノマ","prefecture_code":40},"4239":{"zip_code":"8114239","prefecture":"福岡県","prefecture_kana":"フクオカケン","city":"遠賀郡岡垣町","city_kana":"オンガグンオカガキマチ","town":"野間南","town_kana":"ノマミナミ","prefecture_code":40},"4201":{"zip_code":"8114201","prefecture":"福岡県","prefecture_kana":"フクオカケン","city":"遠賀郡岡垣町","city_kana":"オンガグンオカガキマチ","town":"波津","town_kana":"ハツ","prefecture_code":40},"4202":{"zip_code":"8114202","prefecture":"福岡県","prefecture_kana":"フクオカケン","city":"遠賀郡岡垣町","city_kana":"オンガグンオカガキマチ","town":"原","town_kana":"ハラ","prefecture_code":40},"4225":{"zip_code":"8114225","prefecture":"福岡県","prefecture_kana":"フクオカケン","city":"遠賀郡岡垣町","city_kana":"オンガグンオカガキマチ","town":"東高陽","town_kana":"ヒガシコウヨウ","prefecture_code":40},"4237":{"zip_code":"8114237","prefecture":"福岡県","prefecture_kana":"フクオカケン","city":"遠賀郡岡垣町","city_kana":"オンガグンオカガキマチ","town":"東高倉","town_kana":"ヒガシタカクラ","prefecture_code":40},"4228":{"zip_code":"8114228","prefecture":"福岡県","prefecture_kana":"フクオカケン","city":"遠賀郡岡垣町","city_kana":"オンガグンオカガキマチ","town":"東松原","town_kana":"ヒガシマツバラ","prefecture_code":40},"4220":{"zip_code":"8114220","prefecture":"福岡県","prefecture_kana":"フクオカケン","city":"遠賀郡岡垣町","city_kana":"オンガグンオカガキマチ","town":"東山田","town_kana":"ヒガシヤマダ","prefecture_code":40},"4214":{"zip_code":"8114214","prefecture":"福岡県","prefecture_kana":"フクオカケン","city":"遠賀郡岡垣町","city_kana":"オンガグンオカガキマチ","town":"松ケ台","town_kana":"マツガダイ","prefecture_code":40},"4226":{"zip_code":"8114226","prefecture":"福岡県","prefecture_kana":"フクオカケン","city":"遠賀郡岡垣町","city_kana":"オンガグンオカガキマチ","town":"南高陽","town_kana":"ミナミコウヨウ","prefecture_code":40},"4205":{"zip_code":"8114205","prefecture":"福岡県","prefecture_kana":"フクオカケン","city":"遠賀郡岡垣町","city_kana":"オンガグンオカガキマチ","town":"三吉","town_kana":"ミヨシ","prefecture_code":40},"4221":{"zip_code":"8114221","prefecture":"福岡県","prefecture_kana":"フクオカケン","city":"遠賀郡岡垣町","city_kana":"オンガグンオカガキマチ","town":"山田","town_kana":"ヤマダ","prefecture_code":40},"4223":{"zip_code":"8114223","prefecture":"福岡県","prefecture_kana":"フクオカケン","city":"遠賀郡岡垣町","city_kana":"オンガグンオカガキマチ","town":"山田峠","town_kana":"ヤマダトウゲ","prefecture_code":40},"4229":{"zip_code":"8114229","prefecture":"福岡県","prefecture_kana":"フクオカケン","city":"遠賀郡岡垣町","city_kana":"オンガグンオカガキマチ","town":"百合ケ丘","town_kana":"ユリガオカ","prefecture_code":40},"4211":{"zip_code":"8114211","prefecture":"福岡県","prefecture_kana":"フクオカケン","city":"遠賀郡岡垣町","city_kana":"オンガグンオカガキマチ","town":"吉木","town_kana":"ヨシキ","prefecture_code":40},"4242":{"zip_code":"8114242","prefecture":"福岡県","prefecture_kana":"フクオカケン","city":"遠賀郡岡垣町","city_kana":"オンガグンオカガキマチ","town":"吉木西","town_kana":"ヨシキニシ","prefecture_code":40},"4241":{"zip_code":"8114241","prefecture":"福岡県","prefecture_kana":"フクオカケン","city":"遠賀郡岡垣町","city_kana":"オンガグンオカガキマチ","town":"吉木東","town_kana":"ヨシキヒガシ","prefecture_code":40},"4300":{"zip_code":"8114300","prefecture":"福岡県","prefecture_kana":"フクオカケン","city":"遠賀郡遠賀町","city_kana":"オンガグンオンガチョウ","town":"以下に掲載がない場合","town_kana":"イカニケイサイガナイバアイ","prefecture_code":40},"4312":{"zip_code":"8114312","prefecture":"福岡県","prefecture_kana":"フクオカケン","city":"遠賀郡遠賀町","city_kana":"オンガグンオンガチョウ","town":"浅木","town_kana":"アサギ","prefecture_code":40},"4303":{"zip_code":"8114303","prefecture":"福岡県","prefecture_kana":"フクオカケン","city":"遠賀郡遠賀町","city_kana":"オンガグンオンガチョウ","town":"今古賀","town_kana":"イマコガ","prefecture_code":40},"4311":{"zip_code":"8114311","prefecture":"福岡県","prefecture_kana":"フクオカケン","city":"遠賀郡遠賀町","city_kana":"オンガグンオンガチョウ","town":"老良","town_kana":"オイラ","prefecture_code":40},"4342":{"zip_code":"8114342","prefecture":"福岡県","prefecture_kana":"フクオカケン","city":"遠賀郡遠賀町","city_kana":"オンガグンオンガチョウ","town":"尾崎","town_kana":"オザキ","prefecture_code":40},"4341":{"zip_code":"8114341","prefecture":"福岡県","prefecture_kana":"フクオカケン","city":"遠賀郡遠賀町","city_kana":"オンガグンオンガチョウ","town":"鬼津","town_kana":"オニヅ","prefecture_code":40},"4307":{"zip_code":"8114307","prefecture":"福岡県","prefecture_kana":"フクオカケン","city":"遠賀郡遠賀町","city_kana":"オンガグンオンガチョウ","town":"遠賀川","town_kana":"オンガガワ","prefecture_code":40},"4332":{"zip_code":"8114332","prefecture":"福岡県","prefecture_kana":"フクオカケン","city":"遠賀郡遠賀町","city_kana":"オンガグンオンガチョウ","town":"上別府","town_kana":"カミベフ","prefecture_code":40},"4313":{"zip_code":"8114313","prefecture":"福岡県","prefecture_kana":"フクオカケン","city":"遠賀郡遠賀町","city_kana":"オンガグンオンガチョウ","town":"木守","town_kana":"キモリ","prefecture_code":40},"4306":{"zip_code":"8114306","prefecture":"福岡県","prefecture_kana":"フクオカケン","city":"遠賀郡遠賀町","city_kana":"オンガグンオンガチョウ","town":"旧停","town_kana":"キュウテイ","prefecture_code":40},"4301":{"zip_code":"8114301","prefecture":"福岡県","prefecture_kana":"フクオカケン","city":"遠賀郡遠賀町","city_kana":"オンガグンオンガチョウ","town":"島津","town_kana":"シマヅ","prefecture_code":40},"4333":{"zip_code":"8114333","prefecture":"福岡県","prefecture_kana":"フクオカケン","city":"遠賀郡遠賀町","city_kana":"オンガグンオンガチョウ","town":"島門","town_kana":"シマド","prefecture_code":40},"4343":{"zip_code":"8114343","prefecture":"福岡県","prefecture_kana":"フクオカケン","city":"遠賀郡遠賀町","city_kana":"オンガグンオンガチョウ","town":"田園","town_kana":"デンエン","prefecture_code":40},"4302":{"zip_code":"8114302","prefecture":"福岡県","prefecture_kana":"フクオカケン","city":"遠賀郡遠賀町","city_kana":"オンガグンオンガチョウ","town":"広渡","town_kana":"ヒロワタリ","prefecture_code":40},"4322":{"zip_code":"8114322","prefecture":"福岡県","prefecture_kana":"フクオカケン","city":"遠賀郡遠賀町","city_kana":"オンガグンオンガチョウ","town":"芙蓉","town_kana":"フヨウ","prefecture_code":40},"4331":{"zip_code":"8114331","prefecture":"福岡県","prefecture_kana":"フクオカケン","city":"遠賀郡遠賀町","city_kana":"オンガグンオンガチョウ","town":"別府","town_kana":"ベフ","prefecture_code":40},"4305":{"zip_code":"8114305","prefecture":"福岡県","prefecture_kana":"フクオカケン","city":"遠賀郡遠賀町","city_kana":"オンガグンオンガチョウ","town":"松の本","town_kana":"マツノモト","prefecture_code":40},"4321":{"zip_code":"8114321","prefecture":"福岡県","prefecture_kana":"フクオカケン","city":"遠賀郡遠賀町","city_kana":"オンガグンオンガチョウ","town":"虫生津","town_kana":"ムショウヅ","prefecture_code":40},"4324":{"zip_code":"8114324","prefecture":"福岡県","prefecture_kana":"フクオカケン","city":"遠賀郡遠賀町","city_kana":"オンガグンオンガチョウ","town":"虫生津南","town_kana":"ムショウヅミナミ","prefecture_code":40},"4334":{"zip_code":"8114334","prefecture":"福岡県","prefecture_kana":"フクオカケン","city":"遠賀郡遠賀町","city_kana":"オンガグンオンガチョウ","town":"蓮角","town_kana":"レンガク","prefecture_code":40},"4323":{"zip_code":"8114323","prefecture":"福岡県","prefecture_kana":"フクオカケン","city":"遠賀郡遠賀町","city_kana":"オンガグンオンガチョウ","town":"若葉台","town_kana":"ワカバダイ","prefecture_code":40},"4304":{"zip_code":"8114304","prefecture":"福岡県","prefecture_kana":"フクオカケン","city":"遠賀郡遠賀町","city_kana":"オンガグンオンガチョウ","town":"若松","town_kana":"ワカマツ","prefecture_code":40},"5100":{"zip_code":"8115100","prefecture":"長崎県","prefecture_kana":"ナガサキケン","city":"壱岐市","city_kana":"イキシ","town":"以下に掲載がない場合","town_kana":"イカニケイサイガナイバアイ","prefecture_code":42},"5301":{"zip_code":"8115301","prefecture":"長崎県","prefecture_kana":"ナガサキケン","city":"壱岐市","city_kana":"イキシ","town":"芦辺町芦辺浦","town_kana":"アシベチョウアシベウラ","prefecture_code":42},"5733":{"zip_code":"8115733","prefecture":"長崎県","prefecture_kana":"ナガサキケン","city":"壱岐市","city_kana":"イキシ","town":"芦辺町国分川迎触","town_kana":"アシベチョウコクブカワムカエフレ","prefecture_code":42},"5731":{"zip_code":"8115731","prefecture":"長崎県","prefecture_kana":"ナガサキケン","city":"壱岐市","city_kana":"イキシ","town":"芦辺町国分当田触","town_kana":"アシベチョウコクブトウダフレ","prefecture_code":42},"5732":{"zip_code":"8115732","prefecture":"長崎県","prefecture_kana":"ナガサキケン","city":"壱岐市","city_kana":"イキシ","town":"芦辺町国分東触","town_kana":"アシベチョウコクブヒガシフレ","prefecture_code":42},"5734":{"zip_code":"8115734","prefecture":"長崎県","prefecture_kana":"ナガサキケン","city":"壱岐市","city_kana":"イキシ","town":"芦辺町国分本村触","town_kana":"アシベチョウコクブホンムラフレ","prefecture_code":42},"5744":{"zip_code":"8115744","prefecture":"長崎県","prefecture_kana":"ナガサキケン","city":"壱岐市","city_kana":"イキシ","town":"芦辺町住吉後触","town_kana":"アシベチョウスミヨシウシロフレ","prefecture_code":42},"5742":{"zip_code":"8115742","prefecture":"長崎県","prefecture_kana":"ナガサキケン","city":"壱岐市","city_kana":"イキシ","town":"芦辺町住吉東触","town_kana":"アシベチョウスミヨシヒガシフレ","prefecture_code":42},"5743":{"zip_code":"8115743","prefecture":"長崎県","prefecture_kana":"ナガサキケン","city":"壱岐市","city_kana":"イキシ","town":"芦辺町住吉前触","town_kana":"アシベチョウスミヨシマエフレ","prefecture_code":42},"5741":{"zip_code":"8115741","prefecture":"長崎県","prefecture_kana":"ナガサキケン","city":"壱岐市","city_kana":"イキシ","town":"芦辺町住吉山信触","town_kana":"アシベチョウスミヨシヤマノブフレ","prefecture_code":42},"5461":{"zip_code":"8115461","prefecture":"長崎県","prefecture_kana":"ナガサキケン","city":"壱岐市","city_kana":"イキシ","town":"芦辺町瀬戸浦","town_kana":"アシベチョウセトウラ","prefecture_code":42},"5751":{"zip_code":"8115751","prefecture":"長崎県","prefecture_kana":"ナガサキケン","city":"壱岐市","city_kana":"イキシ","town":"芦辺町中野郷仲触","town_kana":"アシベチョウナカノゴウナカフレ","prefecture_code":42},"5757":{"zip_code":"8115757","prefecture":"長崎県","prefecture_kana":"ナガサキケン","city":"壱岐市","city_kana":"イキシ","town":"芦辺町中野郷西触","town_kana":"アシベチョウナカノゴウニシフレ","prefecture_code":42},"5752":{"zip_code":"8115752","prefecture":"長崎県","prefecture_kana":"ナガサキケン","city":"壱岐市","city_kana":"イキシ","town":"芦辺町中野郷東触","town_kana":"アシベチョウナカノゴウヒガシフレ","prefecture_code":42},"5756":{"zip_code":"8115756","prefecture":"長崎県","prefecture_kana":"ナガサキケン","city":"壱岐市","city_kana":"イキシ","town":"芦辺町中野郷本村触","town_kana":"アシベチョウナカノゴウホンムラフレ","prefecture_code":42},"5467":{"zip_code":"8115467","prefecture":"長崎県","prefecture_kana":"ナガサキケン","city":"壱岐市","city_kana":"イキシ","town":"芦辺町箱崎江角触","town_kana":"アシベチョウハコザキエスミフレ","prefecture_code":42},"5465":{"zip_code":"8115465","prefecture":"長崎県","prefecture_kana":"ナガサキケン","city":"壱岐市","city_kana":"イキシ","town":"芦辺町箱崎釘ノ尾触","town_kana":"アシベチョウハコザキクギノオフレ","prefecture_code":42},"5462":{"zip_code":"8115462","prefecture":"長崎県","prefecture_kana":"ナガサキケン","city":"壱岐市","city_kana":"イキシ","town":"芦辺町箱崎大左右触","town_kana":"アシベチョウハコザキタイソウフレ","prefecture_code":42},"5464":{"zip_code":"8115464","prefecture":"長崎県","prefecture_kana":"ナガサキケン","city":"壱岐市","city_kana":"イキシ","town":"芦辺町箱崎谷江触","town_kana":"アシベチョウハコザキタニエフレ","prefecture_code":42},"5463":{"zip_code":"8115463","prefecture":"長崎県","prefecture_kana":"ナガサキケン","city":"壱岐市","city_kana":"イキシ","town":"芦辺町箱崎中山触","town_kana":"アシベチョウハコザキナカヤマフレ","prefecture_code":42},"5466":{"zip_code":"8115466","prefecture":"長崎県","prefecture_kana":"ナガサキケン","city":"壱岐市","city_kana":"イキシ","town":"芦辺町箱崎本村触","town_kana":"アシベチョウハコザキホンムラフレ","prefecture_code":42},"5468":{"zip_code":"8115468","prefecture":"長崎県","prefecture_kana":"ナガサキケン","city":"壱岐市","city_kana":"イキシ","town":"芦辺町箱崎諸津触","town_kana":"アシベチョウハコザキモロツフレ","prefecture_code":42},"5321":{"zip_code":"8115321","prefecture":"長崎県","prefecture_kana":"ナガサキケン","city":"壱岐市","city_kana":"イキシ","town":"芦辺町深江栄触","town_kana":"アシベチョウフカエサカエフレ","prefecture_code":42},"5322":{"zip_code":"8115322","prefecture":"長崎県","prefecture_kana":"ナガサキケン","city":"壱岐市","city_kana":"イキシ","town":"芦辺町深江鶴亀触","town_kana":"アシベチョウフカエツルキフレ","prefecture_code":42},"5324":{"zip_code":"8115324","prefecture":"長崎県","prefecture_kana":"ナガサキケン","city":"壱岐市","city_kana":"イキシ","town":"芦辺町深江東触","town_kana":"アシベチョウフカエヒガシフレ","prefecture_code":42},"5323":{"zip_code":"8115323","prefecture":"長崎県","prefecture_kana":"ナガサキケン","city":"壱岐市","city_kana":"イキシ","town":"芦辺町深江平触","town_kana":"アシベチョウフカエヒラフレ","prefecture_code":42},"5326":{"zip_code":"8115326","prefecture":"長崎県","prefecture_kana":"ナガサキケン","city":"壱岐市","city_kana":"イキシ","town":"芦辺町深江本村触","town_kana":"アシベチョウフカエホンムラフレ","prefecture_code":42},"5325":{"zip_code":"8115325","prefecture":"長崎県","prefecture_kana":"ナガサキケン","city":"壱岐市","city_kana":"イキシ","town":"芦辺町深江南触","town_kana":"アシベチョウフカエミナミフレ","prefecture_code":42},"5316":{"zip_code":"8115316","prefecture":"長崎県","prefecture_kana":"ナガサキケン","city":"壱岐市","city_kana":"イキシ","town":"芦辺町諸吉大石触","town_kana":"アシベチョウモロヨシオオイシフレ","prefecture_code":42},"5313":{"zip_code":"8115313","prefecture":"長崎県","prefecture_kana":"ナガサキケン","city":"壱岐市","city_kana":"イキシ","town":"芦辺町諸吉仲触","town_kana":"アシベチョウモロヨシナカフレ","prefecture_code":42},"5314":{"zip_code":"8115314","prefecture":"長崎県","prefecture_kana":"ナガサキケン","city":"壱岐市","city_kana":"イキシ","town":"芦辺町諸吉東触","town_kana":"アシベチョウモロヨシヒガシフレ","prefecture_code":42},"5315":{"zip_code":"8115315","prefecture":"長崎県","prefecture_kana":"ナガサキケン","city":"壱岐市","city_kana":"イキシ","town":"芦辺町諸吉二亦触","town_kana":"アシベチョウモロヨシフタマタフレ","prefecture_code":42},"5311":{"zip_code":"8115311","prefecture":"長崎県","prefecture_kana":"ナガサキケン","city":"壱岐市","city_kana":"イキシ","town":"芦辺町諸吉本村触","town_kana":"アシベチョウモロヨシホンムラフレ","prefecture_code":42},"5312":{"zip_code":"8115312","prefecture":"長崎県","prefecture_kana":"ナガサキケン","city":"壱岐市","city_kana":"イキシ","town":"芦辺町諸吉南触","town_kana":"アシベチョウモロヨシミナミフレ","prefecture_code":42},"5755":{"zip_code":"8115755","prefecture":"長崎県","prefecture_kana":"ナガサキケン","city":"壱岐市","city_kana":"イキシ","town":"芦辺町湯岳興触","town_kana":"アシベチョウユタケコウフレ","prefecture_code":42},"5754":{"zip_code":"8115754","prefecture":"長崎県","prefecture_kana":"ナガサキケン","city":"壱岐市","city_kana":"イキシ","town":"芦辺町湯岳今坂触","town_kana":"アシベチョウユタケコンザカフレ","prefecture_code":42},"5753":{"zip_code":"8115753","prefecture":"長崎県","prefecture_kana":"ナガサキケン","city":"壱岐市","city_kana":"イキシ","town":"芦辺町湯岳本村触","town_kana":"アシベチョウユタケホンムラフレ","prefecture_code":42},"5222":{"zip_code":"8115222","prefecture":"長崎県","prefecture_kana":"ナガサキケン","city":"壱岐市","city_kana":"イキシ","town":"石田町池田仲触","town_kana":"イシダチョウイケダナカフレ","prefecture_code":42},"5224":{"zip_code":"8115224","prefecture":"長崎県","prefecture_kana":"ナガサキケン","city":"壱岐市","city_kana":"イキシ","town":"石田町池田西触","town_kana":"イシダチョウイケダニシフレ","prefecture_code":42},"5221":{"zip_code":"8115221","prefecture":"長崎県","prefecture_kana":"ナガサキケン","city":"壱岐市","city_kana":"イキシ","town":"石田町池田東触","town_kana":"イシダチョウイケダヒガシフレ","prefecture_code":42},"5215":{"zip_code":"8115215","prefecture":"長崎県","prefecture_kana":"ナガサキケン","city":"壱岐市","city_kana":"イキシ","town":"石田町石田西触","town_kana":"イシダチョウイシダニシフレ","prefecture_code":42},"5211":{"zip_code":"8115211","prefecture":"長崎県","prefecture_kana":"ナガサキケン","city":"壱岐市","city_kana":"イキシ","town":"石田町石田東触","town_kana":"イシダチョウイシダヒガシフレ","prefecture_code":42},"5214":{"zip_code":"8115214","prefecture":"長崎県","prefecture_kana":"ナガサキケン","city":"壱岐市","city_kana":"イキシ","town":"石田町印通寺浦","town_kana":"イシダチョウインドオジウラ","prefecture_code":42},"5223":{"zip_code":"8115223","prefecture":"長崎県","prefecture_kana":"ナガサキケン","city":"壱岐市","city_kana":"イキシ","town":"石田町久喜触","town_kana":"イシダチョウクキフレ","prefecture_code":42},"5202":{"zip_code":"8115202","prefecture":"長崎県","prefecture_kana":"ナガサキケン","city":"壱岐市","city_kana":"イキシ","town":"石田町筒城仲触","town_kana":"イシダチョウツツキナカフレ","prefecture_code":42},"5204":{"zip_code":"8115204","prefecture":"長崎県","prefecture_kana":"ナガサキケン","city":"壱岐市","city_kana":"イキシ","town":"石田町筒城西触","town_kana":"イシダチョウツツキニシフレ","prefecture_code":42},"5203":{"zip_code":"8115203","prefecture":"長崎県","prefecture_kana":"ナガサキケン","city":"壱岐市","city_kana":"イキシ","town":"石田町筒城東触","town_kana":"イシダチョウツツキヒガシフレ","prefecture_code":42},"5212":{"zip_code":"8115212","prefecture":"長崎県","prefecture_kana":"ナガサキケン","city":"壱岐市","city_kana":"イキシ","town":"石田町本村触","town_kana":"イシダチョウホンムラフレ","prefecture_code":42},"5213":{"zip_code":"8115213","prefecture":"長崎県","prefecture_kana":"ナガサキケン","city":"壱岐市","city_kana":"イキシ","town":"石田町南触","town_kana":"イシダチョウミナミフレ","prefecture_code":42},"5201":{"zip_code":"8115201","prefecture":"長崎県","prefecture_kana":"ナガサキケン","city":"壱岐市","city_kana":"イキシ","town":"石田町山崎触","town_kana":"イシダチョウヤマサキフレ","prefecture_code":42},"5226":{"zip_code":"8115226","prefecture":"長崎県","prefecture_kana":"ナガサキケン","city":"壱岐市","city_kana":"イキシ","town":"石田町湯岳射手吉触","town_kana":"イシダチョウユタケイテヨシフレ","prefecture_code":42},"5225":{"zip_code":"8115225","prefecture":"長崎県","prefecture_kana":"ナガサキケン","city":"壱岐市","city_kana":"イキシ","town":"石田町湯岳興触","town_kana":"イシダチョウユタケコウフレ","prefecture_code":42},"5543":{"zip_code":"8115543","prefecture":"長崎県","prefecture_kana":"ナガサキケン","city":"壱岐市","city_kana":"イキシ","town":"勝本町上場触","town_kana":"カツモトチョウウワバフレ","prefecture_code":42},"5532":{"zip_code":"8115532","prefecture":"長崎県","prefecture_kana":"ナガサキケン","city":"壱岐市","city_kana":"イキシ","town":"勝本町大久保触","town_kana":"カツモトチョウオオクボフレ","prefecture_code":42},"5523":{"zip_code":"8115523","prefecture":"長崎県","prefecture_kana":"ナガサキケン","city":"壱岐市","city_kana":"イキシ","town":"勝本町片山触","town_kana":"カツモトチョウカタヤマフレ","prefecture_code":42},"5501":{"zip_code":"8115501","prefecture":"長崎県","prefecture_kana":"ナガサキケン","city":"壱岐市","city_kana":"イキシ","town":"勝本町勝本浦","town_kana":"カツモトチョウカツモトウラ","prefecture_code":42},"5513":{"zip_code":"8115513","prefecture":"長崎県","prefecture_kana":"ナガサキケン","city":"壱岐市","city_kana":"イキシ","town":"勝本町北触","town_kana":"カツモトチョウキタフレ","prefecture_code":42},"5521":{"zip_code":"8115521","prefecture":"長崎県","prefecture_kana":"ナガサキケン","city":"壱岐市","city_kana":"イキシ","town":"勝本町西戸触","town_kana":"カツモトチョウサイドフレ","prefecture_code":42},"5531":{"zip_code":"8115531","prefecture":"長崎県","prefecture_kana":"ナガサキケン","city":"壱岐市","city_kana":"イキシ","town":"勝本町坂本触","town_kana":"カツモトチョウサカモトフレ","prefecture_code":42},"5533":{"zip_code":"8115533","prefecture":"長崎県","prefecture_kana":"ナガサキケン","city":"壱岐市","city_kana":"イキシ","town":"勝本町新城西触","town_kana":"カツモトチョウシンジョウニシフレ","prefecture_code":42},"5522":{"zip_code":"8115522","prefecture":"長崎県","prefecture_kana":"ナガサキケン","city":"壱岐市","city_kana":"イキシ","town":"勝本町新城東触","town_kana":"カツモトチョウシンジョウヒガシフレ","prefecture_code":42},"5554":{"zip_code":"8115554","prefecture":"長崎県","prefecture_kana":"ナガサキケン","city":"壱岐市","city_kana":"イキシ","town":"勝本町立石仲触","town_kana":"カツモトチョウタテイシナカフレ","prefecture_code":42},"5556":{"zip_code":"8115556","prefecture":"長崎県","prefecture_kana":"ナガサキケン","city":"壱岐市","city_kana":"イキシ","town":"勝本町立石西触","town_kana":"カツモトチョウタテイシニシフレ","prefecture_code":42},"5553":{"zip_code":"8115553","prefecture":"長崎県","prefecture_kana":"ナガサキケン","city":"壱岐市","city_kana":"イキシ","town":"勝本町立石東触","town_kana":"カツモトチョウタテイシヒガシフレ","prefecture_code":42},"5555":{"zip_code":"8115555","prefecture":"長崎県","prefecture_kana":"ナガサキケン","city":"壱岐市","city_kana":"イキシ","town":"勝本町立石南触","town_kana":"カツモトチョウタテイシミナミフレ","prefecture_code":42},"5511":{"zip_code":"8115511","prefecture":"長崎県","prefecture_kana":"ナガサキケン","city":"壱岐市","city_kana":"イキシ","town":"勝本町仲触","town_kana":"カツモトチョウナカフレ","prefecture_code":42},"5512":{"zip_code":"8115512","prefecture":"長崎県","prefecture_kana":"ナガサキケン","city":"壱岐市","city_kana":"イキシ","town":"勝本町東触","town_kana":"カツモトチョウヒガシフレ","prefecture_code":42},"5544":{"zip_code":"8115544","prefecture":"長崎県","prefecture_kana":"ナガサキケン","city":"壱岐市","city_kana":"イキシ","town":"勝本町布気触","town_kana":"カツモトチョウフケフレ","prefecture_code":42},"5546":{"zip_code":"8115546","prefecture":"長崎県","prefecture_kana":"ナガサキケン","city":"壱岐市","city_kana":"イキシ","town":"勝本町本宮仲触","town_kana":"カツモトチョウホングウナカフレ","prefecture_code":42},"5541":{"zip_code":"8115541","prefecture":"長崎県","prefecture_kana":"ナガサキケン","city":"壱岐市","city_kana":"イキシ","town":"勝本町本宮西触","town_kana":"カツモトチョウホングウニシフレ","prefecture_code":42},"5542":{"zip_code":"8115542","prefecture":"長崎県","prefecture_kana":"ナガサキケン","city":"壱岐市","city_kana":"イキシ","town":"勝本町本宮東触","town_kana":"カツモトチョウホングウヒガシフレ","prefecture_code":42},"5545":{"zip_code":"8115545","prefecture":"長崎県","prefecture_kana":"ナガサキケン","city":"壱岐市","city_kana":"イキシ","town":"勝本町本宮南触","town_kana":"カツモトチョウホングウミナミフレ","prefecture_code":42},"5551":{"zip_code":"8115551","prefecture":"長崎県","prefecture_kana":"ナガサキケン","city":"壱岐市","city_kana":"イキシ","town":"勝本町湯本浦","town_kana":"カツモトチョウユノモトウラ","prefecture_code":42},"5552":{"zip_code":"8115552","prefecture":"長崎県","prefecture_kana":"ナガサキケン","city":"壱岐市","city_kana":"イキシ","town":"勝本町百合畑触","town_kana":"カツモトチョウユリハタフレ","prefecture_code":42},"5107":{"zip_code":"8115107","prefecture":"長崎県","prefecture_kana":"ナガサキケン","city":"壱岐市","city_kana":"イキシ","town":"郷ノ浦町有安触","town_kana":"ゴウノウラチョウアリヤスフレ","prefecture_code":42},"5113":{"zip_code":"8115113","prefecture":"長崎県","prefecture_kana":"ナガサキケン","city":"壱岐市","city_kana":"イキシ","town":"郷ノ浦町牛方触","town_kana":"ゴウノウラチョウウシカタフレ","prefecture_code":42},"5112":{"zip_code":"8115112","prefecture":"長崎県","prefecture_kana":"ナガサキケン","city":"壱岐市","city_kana":"イキシ","town":"郷ノ浦町大浦触","town_kana":"ゴウノウラチョウオオウラフレ","prefecture_code":42},"5161":{"zip_code":"8115161","prefecture":"長崎県","prefecture_kana":"ナガサキケン","city":"壱岐市","city_kana":"イキシ","town":"郷ノ浦町大島","town_kana":"ゴウノウラチョウオオシマ","prefecture_code":42},"5136":{"zip_code":"8115136","prefecture":"長崎県","prefecture_kana":"ナガサキケン","city":"壱岐市","city_kana":"イキシ","town":"郷ノ浦町片原触","town_kana":"ゴウノウラチョウカタバルフレ","prefecture_code":42},"5115":{"zip_code":"8115115","prefecture":"長崎県","prefecture_kana":"ナガサキケン","city":"壱岐市","city_kana":"イキシ","town":"郷ノ浦町木田触","town_kana":"ゴウノウラチョウキダフレ","prefecture_code":42},"5123":{"zip_code":"8115123","prefecture":"長崎県","prefecture_kana":"ナガサキケン","city":"壱岐市","city_kana":"イキシ","town":"郷ノ浦町釘山触","town_kana":"ゴウノウラチョウクギヤマフレ","prefecture_code":42},"5135":{"zip_code":"8115135","prefecture":"長崎県","prefecture_kana":"ナガサキケン","city":"壱岐市","city_kana":"イキシ","town":"郷ノ浦町郷ノ浦","town_kana":"ゴウノウラチョウゴウノウラ","prefecture_code":42},"5105":{"zip_code":"8115105","prefecture":"長崎県","prefecture_kana":"ナガサキケン","city":"壱岐市","city_kana":"イキシ","town":"郷ノ浦町小牧西触","town_kana":"ゴウノウラチョウコマキニシフレ","prefecture_code":42},"5106":{"zip_code":"8115106","prefecture":"長崎県","prefecture_kana":"ナガサキケン","city":"壱岐市","city_kana":"イキシ","town":"郷ノ浦町小牧東触","town_kana":"ゴウノウラチョウコマキヒガシフレ","prefecture_code":42},"5104":{"zip_code":"8115104","prefecture":"長崎県","prefecture_kana":"ナガサキケン","city":"壱岐市","city_kana":"イキシ","town":"郷ノ浦町里触","town_kana":"ゴウノウラチョウサトフレ","prefecture_code":42},"5125":{"zip_code":"8115125","prefecture":"長崎県","prefecture_kana":"ナガサキケン","city":"壱岐市","city_kana":"イキシ","town":"郷ノ浦町志原西触","town_kana":"ゴウノウラチョウシハラニシフレ","prefecture_code":42},"5124":{"zip_code":"8115124","prefecture":"長崎県","prefecture_kana":"ナガサキケン","city":"壱岐市","city_kana":"イキシ","town":"郷ノ浦町志原南触","town_kana":"ゴウノウラチョウシハラミナミフレ","prefecture_code":42},"5134":{"zip_code":"8115134","prefecture":"長崎県","prefecture_kana":"ナガサキケン","city":"壱岐市","city_kana":"イキシ","town":"郷ノ浦町庄触","town_kana":"ゴウノウラチョウショウフレ","prefecture_code":42},"5103":{"zip_code":"8115103","prefecture":"長崎県","prefecture_kana":"ナガサキケン","city":"壱岐市","city_kana":"イキシ","town":"郷ノ浦町新田触","town_kana":"ゴウノウラチョウシンデンフレ","prefecture_code":42},"5122":{"zip_code":"8115122","prefecture":"長崎県","prefecture_kana":"ナガサキケン","city":"壱岐市","city_kana":"イキシ","town":"郷ノ浦町大原触","town_kana":"ゴウノウラチョウタイバルフレ","prefecture_code":42},"5117":{"zip_code":"8115117","prefecture":"長崎県","prefecture_kana":"ナガサキケン","city":"壱岐市","city_kana":"イキシ","town":"郷ノ浦町田中触","town_kana":"ゴウノウラチョウタナカフレ","prefecture_code":42},"5142":{"zip_code":"8115142","prefecture":"長崎県","prefecture_kana":"ナガサキケン","city":"壱岐市","city_kana":"イキシ","town":"郷ノ浦町坪触","town_kana":"ゴウノウラチョウツボフレ","prefecture_code":42},"5162":{"zip_code":"8115162","prefecture":"長崎県","prefecture_kana":"ナガサキケン","city":"壱岐市","city_kana":"イキシ","town":"郷ノ浦町長島","town_kana":"ゴウノウラチョウナガシマ","prefecture_code":42},"5131":{"zip_code":"8115131","prefecture":"長崎県","prefecture_kana":"ナガサキケン","city":"壱岐市","city_kana":"イキシ","town":"郷ノ浦町永田触","town_kana":"ゴウノウラチョウナガタフレ","prefecture_code":42},"5102":{"zip_code":"8115102","prefecture":"長崎県","prefecture_kana":"ナガサキケン","city":"壱岐市","city_kana":"イキシ","town":"郷ノ浦町長峰東触","town_kana":"ゴウノウラチョウナガミネヒガシフレ","prefecture_code":42},"5101":{"zip_code":"8115101","prefecture":"長崎県","prefecture_kana":"ナガサキケン","city":"壱岐市","city_kana":"イキシ","town":"郷ノ浦町長峰本村触","town_kana":"ゴウノウラチョウナガミネホンムラフレ","prefecture_code":42},"5143":{"zip_code":"8115143","prefecture":"長崎県","prefecture_kana":"ナガサキケン","city":"壱岐市","city_kana":"イキシ","town":"郷ノ浦町初山西触","town_kana":"ゴウノウラチョウハツヤマニシフレ","prefecture_code":42},"5144":{"zip_code":"8115144","prefecture":"長崎県","prefecture_kana":"ナガサキケン","city":"壱岐市","city_kana":"イキシ","town":"郷ノ浦町初山東触","town_kana":"ゴウノウラチョウハツヤマヒガシフレ","prefecture_code":42},"5163":{"zip_code":"8115163","prefecture":"長崎県","prefecture_kana":"ナガサキケン","city":"壱岐市","city_kana":"イキシ","town":"郷ノ浦町原島","town_kana":"ゴウノウラチョウハルシマ","prefecture_code":42},"5111":{"zip_code":"8115111","prefecture":"長崎県","prefecture_kana":"ナガサキケン","city":"壱岐市","city_kana":"イキシ","town":"郷ノ浦町半城本村触","town_kana":"ゴウノウラチョウハンセイホンムラフレ","prefecture_code":42},"5132":{"zip_code":"8115132","prefecture":"長崎県","prefecture_kana":"ナガサキケン","city":"壱岐市","city_kana":"イキシ","town":"郷ノ浦町東触","town_kana":"ゴウノウラチョウヒガシフレ","prefecture_code":42},"5121":{"zip_code":"8115121","prefecture":"長崎県","prefecture_kana":"ナガサキケン","city":"壱岐市","city_kana":"イキシ","town":"郷ノ浦町平人触","town_kana":"ゴウノウラチョウヒロウトフレ","prefecture_code":42},"5133":{"zip_code":"8115133","prefecture":"長崎県","prefecture_kana":"ナガサキケン","city":"壱岐市","city_kana":"イキシ","town":"郷ノ浦町本村触","town_kana":"ゴウノウラチョウホンムラフレ","prefecture_code":42},"5155":{"zip_code":"8115155","prefecture":"長崎県","prefecture_kana":"ナガサキケン","city":"壱岐市","city_kana":"イキシ","town":"郷ノ浦町麦谷触","town_kana":"ゴウノウラチョウムギヤフレ","prefecture_code":42},"5116":{"zip_code":"8115116","prefecture":"長崎県","prefecture_kana":"ナガサキケン","city":"壱岐市","city_kana":"イキシ","town":"郷ノ浦町物部本村触","town_kana":"ゴウノウラチョウモノベホンムラフレ","prefecture_code":42},"5114":{"zip_code":"8115114","prefecture":"長崎県","prefecture_kana":"ナガサキケン","city":"壱岐市","city_kana":"イキシ","town":"郷ノ浦町柳田触","town_kana":"ゴウノウラチョウヤナギダフレ","prefecture_code":42},"5141":{"zip_code":"8115141","prefecture":"長崎県","prefecture_kana":"ナガサキケン","city":"壱岐市","city_kana":"イキシ","town":"郷ノ浦町若松触","town_kana":"ゴウノウラチョウワカマツフレ","prefecture_code":42},"5151":{"zip_code":"8115151","prefecture":"長崎県","prefecture_kana":"ナガサキケン","city":"壱岐市","city_kana":"イキシ","town":"郷ノ浦町渡良浦","town_kana":"ゴウノウラチョウワタラウラ","prefecture_code":42},"5153":{"zip_code":"8115153","prefecture":"長崎県","prefecture_kana":"ナガサキケン","city":"壱岐市","city_kana":"イキシ","town":"郷ノ浦町渡良西触","town_kana":"ゴウノウラチョウワタラニシフレ","prefecture_code":42},"5154":{"zip_code":"8115154","prefecture":"長崎県","prefecture_kana":"ナガサキケン","city":"壱岐市","city_kana":"イキシ","town":"郷ノ浦町渡良東触","town_kana":"ゴウノウラチョウワタラヒガシフレ","prefecture_code":42},"5152":{"zip_code":"8115152","prefecture":"長崎県","prefecture_kana":"ナガサキケン","city":"壱岐市","city_kana":"イキシ","town":"郷ノ浦町渡良南触","town_kana":"ゴウノウラチョウワタラミナミフレ","prefecture_code":42}}