{"0052":{"zip_code":"8120052","prefecture":"福岡県","prefecture_kana":"フクオカケン","city":"福岡市東区","city_kana":"フクオカシヒガシク","town":"貝塚団地","town_kana":"カイヅカダンチ","prefecture_code":40},"0069":{"zip_code":"8120069","prefecture":"福岡県","prefecture_kana":"フクオカケン","city":"福岡市東区","city_kana":"フクオカシヒガシク","town":"郷口町","town_kana":"ゴウグチマチ","prefecture_code":40},"0068":{"zip_code":"8120068","prefecture":"福岡県","prefecture_kana":"フクオカケン","city":"福岡市東区","city_kana":"フクオカシヒガシク","town":"社領","town_kana":"シャリョウ","prefecture_code":40},"0053":{"zip_code":"8120053","prefecture":"福岡県","prefecture_kana":"フクオカケン","city":"福岡市東区","city_kana":"フクオカシヒガシク","town":"箱崎","town_kana":"ハコザキ","prefecture_code":40},"0051":{"zip_code":"8120051","prefecture":"福岡県","prefecture_kana":"フクオカケン","city":"福岡市東区","city_kana":"フクオカシヒガシク","town":"箱崎ふ頭","town_kana":"ハコザキフトウ","prefecture_code":40},"0061":{"zip_code":"8120061","prefecture":"福岡県","prefecture_kana":"フクオカケン","city":"福岡市東区","city_kana":"フクオカシヒガシク","town":"筥松","town_kana":"ハコマツ","prefecture_code":40},"0067":{"zip_code":"8120067","prefecture":"福岡県","prefecture_kana":"フクオカケン","city":"福岡市東区","city_kana":"フクオカシヒガシク","town":"筥松新町","town_kana":"ハコマツシンマチ","prefecture_code":40},"0063":{"zip_code":"8120063","prefecture":"福岡県","prefecture_kana":"フクオカケン","city":"福岡市東区","city_kana":"フクオカシヒガシク","town":"原田","town_kana":"ハラダ","prefecture_code":40},"0055":{"zip_code":"8120055","prefecture":"福岡県","prefecture_kana":"フクオカケン","city":"福岡市東区","city_kana":"フクオカシヒガシク","town":"東浜","town_kana":"ヒガシハマ","prefecture_code":40},"0066":{"zip_code":"8120066","prefecture":"福岡県","prefecture_kana":"フクオカケン","city":"福岡市東区","city_kana":"フクオカシヒガシク","town":"二又瀬","town_kana":"フタマタセ","prefecture_code":40},"0065":{"zip_code":"8120065","prefecture":"福岡県","prefecture_kana":"フクオカケン","city":"福岡市東区","city_kana":"フクオカシヒガシク","town":"二又瀬新町","town_kana":"フタマタセシンマチ","prefecture_code":40},"0054":{"zip_code":"8120054","prefecture":"福岡県","prefecture_kana":"フクオカケン","city":"福岡市東区","city_kana":"フクオカシヒガシク","town":"馬出","town_kana":"マイダシ","prefecture_code":40},"0062":{"zip_code":"8120062","prefecture":"福岡県","prefecture_kana":"フクオカケン","city":"福岡市東区","city_kana":"フクオカシヒガシク","town":"松島","town_kana":"マツシマ","prefecture_code":40},"0064":{"zip_code":"8120064","prefecture":"福岡県","prefecture_kana":"フクオカケン","city":"福岡市東区","city_kana":"フクオカシヒガシク","town":"松田","town_kana":"マツダ","prefecture_code":40},"0000":{"zip_code":"8120000","prefecture":"福岡県","prefecture_kana":"フクオカケン","city":"福岡市博多区","city_kana":"フクオカシハカタク","town":"","town_kana":"","prefecture_code":40},"0885":{"zip_code":"8120885","prefecture":"福岡県","prefecture_kana":"フクオカケン","city":"福岡市博多区","city_kana":"フクオカシハカタク","town":"相生町","town_kana":"アイオイマチ","prefecture_code":40},"0851":{"zip_code":"8120851","prefecture":"福岡県","prefecture_kana":"フクオカケン","city":"福岡市博多区","city_kana":"フクオカシハカタク","town":"青木","town_kana":"アオキ","prefecture_code":40},"0881":{"zip_code":"8120881","prefecture":"福岡県","prefecture_kana":"フクオカケン","city":"福岡市博多区","city_kana":"フクオカシハカタク","town":"井相田","town_kana":"イソウダ","prefecture_code":40},"0888":{"zip_code":"8120888","prefecture":"福岡県","prefecture_kana":"フクオカケン","city":"福岡市博多区","city_kana":"フクオカシハカタク","town":"板付","town_kana":"イタヅケ","prefecture_code":40},"0861":{"zip_code":"8120861","prefecture":"福岡県","prefecture_kana":"フクオカケン","city":"福岡市博多区","city_kana":"フクオカシハカタク","town":"浦田","town_kana":"ウラタ","prefecture_code":40},"0004":{"zip_code":"8120004","prefecture":"福岡県","prefecture_kana":"フクオカケン","city":"福岡市博多区","city_kana":"フクオカシハカタク","town":"榎田","town_kana":"エノキダ","prefecture_code":40},"0001":{"zip_code":"8120001","prefecture":"福岡県","prefecture_kana":"フクオカケン","city":"福岡市博多区","city_kana":"フクオカシハカタク","town":"大井","town_kana":"オオイ","prefecture_code":40},"0031":{"zip_code":"8120031","prefecture":"福岡県","prefecture_kana":"フクオカケン","city":"福岡市博多区","city_kana":"フクオカシハカタク","town":"沖浜町","town_kana":"オキハママチ","prefecture_code":40},"0043":{"zip_code":"8120043","prefecture":"福岡県","prefecture_kana":"フクオカケン","city":"福岡市博多区","city_kana":"フクオカシハカタク","town":"堅粕","town_kana":"カタカス","prefecture_code":40},"0863":{"zip_code":"8120863","prefecture":"福岡県","prefecture_kana":"フクオカケン","city":"福岡市博多区","city_kana":"フクオカシハカタク","town":"金の隈","town_kana":"カネノクマ","prefecture_code":40},"0005":{"zip_code":"8120005","prefecture":"福岡県","prefecture_kana":"フクオカケン","city":"福岡市博多区","city_kana":"フクオカシハカタク","town":"上臼井","town_kana":"カミウスイ","prefecture_code":40},"0026":{"zip_code":"8120026","prefecture":"福岡県","prefecture_kana":"フクオカケン","city":"福岡市博多区","city_kana":"フクオカシハカタク","town":"上川端町","town_kana":"カミカワバタマチ","prefecture_code":40},"0036":{"zip_code":"8120036","prefecture":"福岡県","prefecture_kana":"フクオカケン","city":"福岡市博多区","city_kana":"フクオカシハカタク","town":"上呉服町","town_kana":"カミゴフクマチ","prefecture_code":40},"0006":{"zip_code":"8120006","prefecture":"福岡県","prefecture_kana":"フクオカケン","city":"福岡市博多区","city_kana":"フクオカシハカタク","town":"上牟田","town_kana":"カミムタ","prefecture_code":40},"0022":{"zip_code":"8120022","prefecture":"福岡県","prefecture_kana":"フクオカケン","city":"福岡市博多区","city_kana":"フクオカシハカタク","town":"神屋町","town_kana":"カミヤマチ","prefecture_code":40},"0038":{"zip_code":"8120038","prefecture":"福岡県","prefecture_kana":"フクオカケン","city":"福岡市博多区","city_kana":"フクオカシハカタク","town":"祇園町","town_kana":"ギオンマチ","prefecture_code":40},"0879":{"zip_code":"8120879","prefecture":"福岡県","prefecture_kana":"フクオカケン","city":"福岡市博多区","city_kana":"フクオカシハカタク","town":"銀天町","town_kana":"ギンテンチョウ","prefecture_code":40},"0002":{"zip_code":"8120002","prefecture":"福岡県","prefecture_kana":"フクオカケン","city":"福岡市博多区","city_kana":"フクオカシハカタク","town":"空港前","town_kana":"クウコウマエ","prefecture_code":40},"0037":{"zip_code":"8120037","prefecture":"福岡県","prefecture_kana":"フクオカケン","city":"福岡市博多区","city_kana":"フクオカシハカタク","town":"御供所町","town_kana":"ゴクショマチ","prefecture_code":40},"0884":{"zip_code":"8120884","prefecture":"福岡県","prefecture_kana":"フクオカケン","city":"福岡市博多区","city_kana":"フクオカシハカタク","town":"寿町","town_kana":"コトブキチョウ","prefecture_code":40},"0029":{"zip_code":"8120029","prefecture":"福岡県","prefecture_kana":"フクオカケン","city":"福岡市博多区","city_kana":"フクオカシハカタク","town":"古門戸町","town_kana":"コモンドマチ","prefecture_code":40},"0891":{"zip_code":"8120891","prefecture":"福岡県","prefecture_kana":"フクオカケン","city":"福岡市博多区","city_kana":"フクオカシハカタク","town":"雀居","town_kana":"ササイ","prefecture_code":40},"0887":{"zip_code":"8120887","prefecture":"福岡県","prefecture_kana":"フクオカケン","city":"福岡市博多区","city_kana":"フクオカシハカタク","town":"三筑","town_kana":"サンチク","prefecture_code":40},"0015":{"zip_code":"8120015","prefecture":"福岡県","prefecture_kana":"フクオカケン","city":"福岡市博多区","city_kana":"フクオカシハカタク","town":"山王","town_kana":"サンノウ","prefecture_code":40},"0871":{"zip_code":"8120871","prefecture":"福岡県","prefecture_kana":"フクオカケン","city":"福岡市博多区","city_kana":"フクオカシハカタク","town":"東雲町","town_kana":"シノノメマチ","prefecture_code":40},"0003":{"zip_code":"8120003","prefecture":"福岡県","prefecture_kana":"フクオカケン","city":"福岡市博多区","city_kana":"フクオカシハカタク","town":"下臼井","town_kana":"シモウスイ","prefecture_code":40},"0027":{"zip_code":"8120027","prefecture":"福岡県","prefecture_kana":"フクオカケン","city":"福岡市博多区","city_kana":"フクオカシハカタク","town":"下川端町","town_kana":"シモカワバタマチ","prefecture_code":40},"0034":{"zip_code":"8120034","prefecture":"福岡県","prefecture_kana":"フクオカケン","city":"福岡市博多区","city_kana":"フクオカシハカタク","town":"下呉服町","town_kana":"シモゴフクマチ","prefecture_code":40},"0855":{"zip_code":"8120855","prefecture":"福岡県","prefecture_kana":"フクオカケン","city":"福岡市博多区","city_kana":"フクオカシハカタク","town":"下月隈","town_kana":"シモツキグマ","prefecture_code":40},"0876":{"zip_code":"8120876","prefecture":"福岡県","prefecture_kana":"フクオカケン","city":"福岡市博多区","city_kana":"フクオカシハカタク","town":"昭南町","town_kana":"ショウナンマチ","prefecture_code":40},"0875":{"zip_code":"8120875","prefecture":"福岡県","prefecture_kana":"フクオカケン","city":"福岡市博多区","city_kana":"フクオカシハカタク","town":"新和町","town_kana":"シンワマチ","prefecture_code":40},"0028":{"zip_code":"8120028","prefecture":"福岡県","prefecture_kana":"フクオカケン","city":"福岡市博多区","city_kana":"フクオカシハカタク","town":"須崎町","town_kana":"スサキマチ","prefecture_code":40},"0018":{"zip_code":"8120018","prefecture":"福岡県","prefecture_kana":"フクオカケン","city":"福岡市博多区","city_kana":"フクオカシハカタク","town":"住吉","town_kana":"スミヨシ","prefecture_code":40},"0032":{"zip_code":"8120032","prefecture":"福岡県","prefecture_kana":"フクオカケン","city":"福岡市博多区","city_kana":"フクオカシハカタク","town":"石城町","town_kana":"セキジョウマチ","prefecture_code":40},"0033":{"zip_code":"8120033","prefecture":"福岡県","prefecture_kana":"フクオカケン","city":"福岡市博多区","city_kana":"フクオカシハカタク","town":"大博町","town_kana":"タイハクマチ","prefecture_code":40},"0878":{"zip_code":"8120878","prefecture":"福岡県","prefecture_kana":"フクオカケン","city":"福岡市博多区","city_kana":"フクオカシハカタク","town":"竹丘町","town_kana":"タケオカマチ","prefecture_code":40},"0895":{"zip_code":"8120895","prefecture":"福岡県","prefecture_kana":"フクオカケン","city":"福岡市博多区","city_kana":"フクオカシハカタク","town":"竹下","town_kana":"タケシタ","prefecture_code":40},"0021":{"zip_code":"8120021","prefecture":"福岡県","prefecture_kana":"フクオカケン","city":"福岡市博多区","city_kana":"フクオカシハカタク","town":"築港本町","town_kana":"チッコウホンマチ","prefecture_code":40},"0044":{"zip_code":"8120044","prefecture":"福岡県","prefecture_kana":"フクオカケン","city":"福岡市博多区","city_kana":"フクオカシハカタク","town":"千代","town_kana":"チヨ","prefecture_code":40},"0858":{"zip_code":"8120858","prefecture":"福岡県","prefecture_kana":"フクオカケン","city":"福岡市博多区","city_kana":"フクオカシハカタク","town":"月隈","town_kana":"ツキグマ","prefecture_code":40},"0024":{"zip_code":"8120024","prefecture":"福岡県","prefecture_kana":"フクオカケン","city":"福岡市博多区","city_kana":"フクオカシハカタク","town":"綱場町","town_kana":"ツナバマチ","prefecture_code":40},"0020":{"zip_code":"8120020","prefecture":"福岡県","prefecture_kana":"フクオカケン","city":"福岡市博多区","city_kana":"フクオカシハカタク","town":"対馬小路","town_kana":"ツマショウジ","prefecture_code":40},"0025":{"zip_code":"8120025","prefecture":"福岡県","prefecture_kana":"フクオカケン","city":"福岡市博多区","city_kana":"フクオカシハカタク","town":"店屋町","town_kana":"テンヤマチ","prefecture_code":40},"0008":{"zip_code":"8120008","prefecture":"福岡県","prefecture_kana":"フクオカケン","city":"福岡市博多区","city_kana":"フクオカシハカタク","town":"東光","town_kana":"トウコウ","prefecture_code":40},"0896":{"zip_code":"8120896","prefecture":"福岡県","prefecture_kana":"フクオカケン","city":"福岡市博多区","city_kana":"フクオカシハカタク","town":"東光寺町","town_kana":"トウコウジマチ","prefecture_code":40},"0893":{"zip_code":"8120893","prefecture":"福岡県","prefecture_kana":"フクオカケン","city":"福岡市博多区","city_kana":"フクオカシハカタク","town":"那珂","town_kana":"ナカ","prefecture_code":40},"0035":{"zip_code":"8120035","prefecture":"福岡県","prefecture_kana":"フクオカケン","city":"福岡市博多区","city_kana":"フクオカシハカタク","town":"中呉服町","town_kana":"ナカゴフクマチ","prefecture_code":40},"0023":{"zip_code":"8120023","prefecture":"福岡県","prefecture_kana":"フクオカケン","city":"福岡市博多区","city_kana":"フクオカシハカタク","town":"奈良屋町","town_kana":"ナラヤマチ","prefecture_code":40},"0857":{"zip_code":"8120857","prefecture":"福岡県","prefecture_kana":"フクオカケン","city":"福岡市博多区","city_kana":"フクオカシハカタク","town":"西月隈","town_kana":"ニシツキグマ","prefecture_code":40},"0873":{"zip_code":"8120873","prefecture":"福岡県","prefecture_kana":"フクオカケン","city":"福岡市博多区","city_kana":"フクオカシハカタク","town":"西春町","town_kana":"ニシハルマチ","prefecture_code":40},"0012":{"zip_code":"8120012","prefecture":"福岡県","prefecture_kana":"フクオカケン","city":"福岡市博多区","city_kana":"フクオカシハカタク","town":"博多駅中央街","town_kana":"ハカタエキチュウオウガイ","prefecture_code":40},"0011":{"zip_code":"8120011","prefecture":"福岡県","prefecture_kana":"フクオカケン","city":"福岡市博多区","city_kana":"フクオカシハカタク","town":"博多駅前","town_kana":"ハカタエキマエ","prefecture_code":40},"0013":{"zip_code":"8120013","prefecture":"福岡県","prefecture_kana":"フクオカケン","city":"福岡市博多区","city_kana":"フクオカシハカタク","town":"博多駅東","town_kana":"ハカタエキヒガシ","prefecture_code":40},"0016":{"zip_code":"8120016","prefecture":"福岡県","prefecture_kana":"フクオカケン","city":"福岡市博多区","city_kana":"フクオカシハカタク","town":"博多駅南","town_kana":"ハカタエキミナミ","prefecture_code":40},"0872":{"zip_code":"8120872","prefecture":"福岡県","prefecture_kana":"フクオカケン","city":"福岡市博多区","city_kana":"フクオカシハカタク","town":"春町","town_kana":"ハルマチ","prefecture_code":40},"0897":{"zip_code":"8120897","prefecture":"福岡県","prefecture_kana":"フクオカケン","city":"福岡市博多区","city_kana":"フクオカシハカタク","town":"半道橋","town_kana":"ハンミチバシ","prefecture_code":40},"0014":{"zip_code":"8120014","prefecture":"福岡県","prefecture_kana":"フクオカケン","city":"福岡市博多区","city_kana":"フクオカシハカタク","town":"比恵町","town_kana":"ヒエマチ","prefecture_code":40},"0874":{"zip_code":"8120874","prefecture":"福岡県","prefecture_kana":"フクオカケン","city":"福岡市博多区","city_kana":"フクオカシハカタク","town":"光丘町","town_kana":"ヒカリガオカマチ","prefecture_code":40},"0045":{"zip_code":"8120045","prefecture":"福岡県","prefecture_kana":"フクオカケン","city":"福岡市博多区","city_kana":"フクオカシハカタク","town":"東公園","town_kana":"ヒガシコウエン","prefecture_code":40},"0854":{"zip_code":"8120854","prefecture":"福岡県","prefecture_kana":"フクオカケン","city":"福岡市博多区","city_kana":"フクオカシハカタク","town":"東月隈","town_kana":"ヒガシツキグマ","prefecture_code":40},"0892":{"zip_code":"8120892","prefecture":"福岡県","prefecture_kana":"フクオカケン","city":"福岡市博多区","city_kana":"フクオカシハカタク","town":"東那珂","town_kana":"ヒガシナカ","prefecture_code":40},"0007":{"zip_code":"8120007","prefecture":"福岡県","prefecture_kana":"フクオカケン","city":"福岡市博多区","city_kana":"フクオカシハカタク","town":"東比恵","town_kana":"ヒガシヒエ","prefecture_code":40},"0853":{"zip_code":"8120853","prefecture":"福岡県","prefecture_kana":"フクオカケン","city":"福岡市博多区","city_kana":"フクオカシハカタク","town":"東平尾","town_kana":"ヒガシヒラオ","prefecture_code":40},"0852":{"zip_code":"8120852","prefecture":"福岡県","prefecture_kana":"フクオカケン","city":"福岡市博多区","city_kana":"フクオカシハカタク","town":"東平尾公園","town_kana":"ヒガシヒラオコウエン","prefecture_code":40},"0886":{"zip_code":"8120886","prefecture":"福岡県","prefecture_kana":"フクオカケン","city":"福岡市博多区","city_kana":"フクオカシハカタク","town":"南八幡町","town_kana":"ミナミハチマンマチ","prefecture_code":40},"0883":{"zip_code":"8120883","prefecture":"福岡県","prefecture_kana":"フクオカケン","city":"福岡市博多区","city_kana":"フクオカシハカタク","town":"南本町","town_kana":"ミナミホンマチ","prefecture_code":40},"0017":{"zip_code":"8120017","prefecture":"福岡県","prefecture_kana":"フクオカケン","city":"福岡市博多区","city_kana":"フクオカシハカタク","town":"美野島","town_kana":"ミノシマ","prefecture_code":40},"0882":{"zip_code":"8120882","prefecture":"福岡県","prefecture_kana":"フクオカケン","city":"福岡市博多区","city_kana":"フクオカシハカタク","town":"麦野","town_kana":"ムギノ","prefecture_code":40},"0877":{"zip_code":"8120877","prefecture":"福岡県","prefecture_kana":"フクオカケン","city":"福岡市博多区","city_kana":"フクオカシハカタク","town":"元町","town_kana":"モトマチ","prefecture_code":40},"0894":{"zip_code":"8120894","prefecture":"福岡県","prefecture_kana":"フクオカケン","city":"福岡市博多区","city_kana":"フクオカシハカタク","town":"諸岡","town_kana":"モロオカ","prefecture_code":40},"0042":{"zip_code":"8120042","prefecture":"福岡県","prefecture_kana":"フクオカケン","city":"福岡市博多区","city_kana":"フクオカシハカタク","town":"豊","town_kana":"ユタカ","prefecture_code":40},"0041":{"zip_code":"8120041","prefecture":"福岡県","prefecture_kana":"フクオカケン","city":"福岡市博多区","city_kana":"フクオカシハカタク","town":"吉塚","town_kana":"ヨシヅカ","prefecture_code":40},"0046":{"zip_code":"8120046","prefecture":"福岡県","prefecture_kana":"フクオカケン","city":"福岡市博多区","city_kana":"フクオカシハカタク","town":"吉塚本町","town_kana":"ヨシヅカホンマチ","prefecture_code":40},"0862":{"zip_code":"8120862","prefecture":"福岡県","prefecture_kana":"フクオカケン","city":"福岡市博多区","city_kana":"フクオカシハカタク","town":"立花寺","town_kana":"リュウゲジ","prefecture_code":40},"0039":{"zip_code":"8120039","prefecture":"福岡県","prefecture_kana":"フクオカケン","city":"福岡市博多区","city_kana":"フクオカシハカタク","town":"冷泉町","town_kana":"レイセンマチ","prefecture_code":40}}