{"0100":{"zip_code":"8140100","prefecture":"福岡県","prefecture_kana":"フクオカケン","city":"福岡市城南区","city_kana":"フクオカシジョウナンク","town":"","town_kana":"","prefecture_code":40},"0101":{"zip_code":"8140101","prefecture":"福岡県","prefecture_kana":"フクオカケン","city":"福岡市城南区","city_kana":"フクオカシジョウナンク","town":"荒江","town_kana":"アラエ","prefecture_code":40},"0102":{"zip_code":"8140102","prefecture":"福岡県","prefecture_kana":"フクオカケン","city":"福岡市城南区","city_kana":"フクオカシジョウナンク","town":"荒江団地","town_kana":"アラエダンチ","prefecture_code":40},"0134":{"zip_code":"8140134","prefecture":"福岡県","prefecture_kana":"フクオカケン","city":"福岡市城南区","city_kana":"フクオカシジョウナンク","town":"飯倉","town_kana":"イイクラ","prefecture_code":40},"0144":{"zip_code":"8140144","prefecture":"福岡県","prefecture_kana":"フクオカケン","city":"福岡市城南区","city_kana":"フクオカシジョウナンク","town":"梅林","town_kana":"ウメバヤシ","prefecture_code":40},"0142":{"zip_code":"8140142","prefecture":"福岡県","prefecture_kana":"フクオカケン","city":"福岡市城南区","city_kana":"フクオカシジョウナンク","town":"片江","town_kana":"カタエ","prefecture_code":40},"0114":{"zip_code":"8140114","prefecture":"福岡県","prefecture_kana":"フクオカケン","city":"福岡市城南区","city_kana":"フクオカシジョウナンク","town":"金山団地","town_kana":"カナヤマダンチ","prefecture_code":40},"0105":{"zip_code":"8140105","prefecture":"福岡県","prefecture_kana":"フクオカケン","city":"福岡市城南区","city_kana":"フクオカシジョウナンク","town":"城西団地","town_kana":"ジョウセイダンチ","prefecture_code":40},"0121":{"zip_code":"8140121","prefecture":"福岡県","prefecture_kana":"フクオカケン","city":"福岡市城南区","city_kana":"フクオカシジョウナンク","town":"神松寺","town_kana":"シンショウジ","prefecture_code":40},"0154":{"zip_code":"8140154","prefecture":"福岡県","prefecture_kana":"フクオカケン","city":"福岡市城南区","city_kana":"フクオカシジョウナンク","town":"宝台団地","town_kana":"タカラダイダンチ","prefecture_code":40},"0113":{"zip_code":"8140113","prefecture":"福岡県","prefecture_kana":"フクオカケン","city":"福岡市城南区","city_kana":"フクオカシジョウナンク","town":"田島","town_kana":"タシマ","prefecture_code":40},"0111":{"zip_code":"8140111","prefecture":"福岡県","prefecture_kana":"フクオカケン","city":"福岡市城南区","city_kana":"フクオカシジョウナンク","town":"茶山","town_kana":"チャヤマ","prefecture_code":40},"0151":{"zip_code":"8140151","prefecture":"福岡県","prefecture_kana":"フクオカケン","city":"福岡市城南区","city_kana":"フクオカシジョウナンク","town":"堤","town_kana":"ツツミ","prefecture_code":40},"0152":{"zip_code":"8140152","prefecture":"福岡県","prefecture_kana":"フクオカケン","city":"福岡市城南区","city_kana":"フクオカシジョウナンク","town":"堤団地","town_kana":"ツツミダンチ","prefecture_code":40},"0112":{"zip_code":"8140112","prefecture":"福岡県","prefecture_kana":"フクオカケン","city":"福岡市城南区","city_kana":"フクオカシジョウナンク","town":"友丘","town_kana":"トモオカ","prefecture_code":40},"0103":{"zip_code":"8140103","prefecture":"福岡県","prefecture_kana":"フクオカケン","city":"福岡市城南区","city_kana":"フクオカシジョウナンク","town":"鳥飼","town_kana":"トリカイ","prefecture_code":40},"0123":{"zip_code":"8140123","prefecture":"福岡県","prefecture_kana":"フクオカケン","city":"福岡市城南区","city_kana":"フクオカシジョウナンク","town":"長尾","town_kana":"ナガオ","prefecture_code":40},"0133":{"zip_code":"8140133","prefecture":"福岡県","prefecture_kana":"フクオカケン","city":"福岡市城南区","city_kana":"フクオカシジョウナンク","town":"七隈","town_kana":"ナナクマ","prefecture_code":40},"0141":{"zip_code":"8140141","prefecture":"福岡県","prefecture_kana":"フクオカケン","city":"福岡市城南区","city_kana":"フクオカシジョウナンク","town":"西片江","town_kana":"ニシカタエ","prefecture_code":40},"0153":{"zip_code":"8140153","prefecture":"福岡県","prefecture_kana":"フクオカケン","city":"福岡市城南区","city_kana":"フクオカシジョウナンク","town":"樋井川","town_kana":"ヒイカワ","prefecture_code":40},"0155":{"zip_code":"8140155","prefecture":"福岡県","prefecture_kana":"フクオカケン","city":"福岡市城南区","city_kana":"フクオカシジョウナンク","town":"東油山","town_kana":"ヒガシアブラヤマ","prefecture_code":40},"0104":{"zip_code":"8140104","prefecture":"福岡県","prefecture_kana":"フクオカケン","city":"福岡市城南区","city_kana":"フクオカシジョウナンク","town":"別府","town_kana":"ベフ","prefecture_code":40},"0106":{"zip_code":"8140106","prefecture":"福岡県","prefecture_kana":"フクオカケン","city":"福岡市城南区","city_kana":"フクオカシジョウナンク","town":"別府団地","town_kana":"ベフダンチ","prefecture_code":40},"0132":{"zip_code":"8140132","prefecture":"福岡県","prefecture_kana":"フクオカケン","city":"福岡市城南区","city_kana":"フクオカシジョウナンク","town":"干隈","town_kana":"ホシクマ","prefecture_code":40},"0131":{"zip_code":"8140131","prefecture":"福岡県","prefecture_kana":"フクオカケン","city":"福岡市城南区","city_kana":"フクオカシジョウナンク","town":"松山","town_kana":"マツヤマ","prefecture_code":40},"0143":{"zip_code":"8140143","prefecture":"福岡県","prefecture_kana":"フクオカケン","city":"福岡市城南区","city_kana":"フクオカシジョウナンク","town":"南片江","town_kana":"ミナミカタエ","prefecture_code":40},"0122":{"zip_code":"8140122","prefecture":"福岡県","prefecture_kana":"フクオカケン","city":"福岡市城南区","city_kana":"フクオカシジョウナンク","town":"友泉亭","town_kana":"ユウセンテイ","prefecture_code":40},"0000":{"zip_code":"8140000","prefecture":"福岡県","prefecture_kana":"フクオカケン","city":"福岡市早良区","city_kana":"フクオカシサワラク","town":"","town_kana":"","prefecture_code":40},"0004":{"zip_code":"8140004","prefecture":"福岡県","prefecture_kana":"フクオカケン","city":"福岡市早良区","city_kana":"フクオカシサワラク","town":"曙","town_kana":"アケボノ","prefecture_code":40},"0021":{"zip_code":"8140021","prefecture":"福岡県","prefecture_kana":"フクオカケン","city":"福岡市早良区","city_kana":"フクオカシサワラク","town":"荒江","town_kana":"アラエ","prefecture_code":40},"0033":{"zip_code":"8140033","prefecture":"福岡県","prefecture_kana":"フクオカケン","city":"福岡市早良区","city_kana":"フクオカシサワラク","town":"有田","town_kana":"アリタ","prefecture_code":40},"0034":{"zip_code":"8140034","prefecture":"福岡県","prefecture_kana":"フクオカケン","city":"福岡市早良区","city_kana":"フクオカシサワラク","town":"有田団地","town_kana":"アリタダンチ","prefecture_code":40},"0161":{"zip_code":"8140161","prefecture":"福岡県","prefecture_kana":"フクオカケン","city":"福岡市早良区","city_kana":"フクオカシサワラク","town":"飯倉","town_kana":"イイクラ","prefecture_code":40},"0172":{"zip_code":"8140172","prefecture":"福岡県","prefecture_kana":"フクオカケン","city":"福岡市早良区","city_kana":"フクオカシサワラク","town":"梅林","town_kana":"ウメバヤシ","prefecture_code":40},"0164":{"zip_code":"8140164","prefecture":"福岡県","prefecture_kana":"フクオカケン","city":"福岡市早良区","city_kana":"フクオカシサワラク","town":"賀茂","town_kana":"カモ","prefecture_code":40},"0032":{"zip_code":"8140032","prefecture":"福岡県","prefecture_kana":"フクオカケン","city":"福岡市早良区","city_kana":"フクオカシサワラク","town":"小田部","town_kana":"コタベ","prefecture_code":40},"0176":{"zip_code":"8140176","prefecture":"福岡県","prefecture_kana":"フクオカケン","city":"福岡市早良区","city_kana":"フクオカシサワラク","town":"四箇田団地","town_kana":"シカタダンチ","prefecture_code":40},"0003":{"zip_code":"8140003","prefecture":"福岡県","prefecture_kana":"フクオカケン","city":"福岡市早良区","city_kana":"フクオカシサワラク","town":"城西","town_kana":"ジョウセイ","prefecture_code":40},"0012":{"zip_code":"8140012","prefecture":"福岡県","prefecture_kana":"フクオカケン","city":"福岡市早良区","city_kana":"フクオカシサワラク","town":"昭代","town_kana":"ショウダイ","prefecture_code":40},"0165":{"zip_code":"8140165","prefecture":"福岡県","prefecture_kana":"フクオカケン","city":"福岡市早良区","city_kana":"フクオカシサワラク","town":"次郎丸","town_kana":"ジロウマル","prefecture_code":40},"0005":{"zip_code":"8140005","prefecture":"福岡県","prefecture_kana":"フクオカケン","city":"福岡市早良区","city_kana":"フクオカシサワラク","town":"祖原","town_kana":"ソハラ","prefecture_code":40},"0177":{"zip_code":"8140177","prefecture":"福岡県","prefecture_kana":"フクオカケン","city":"福岡市早良区","city_kana":"フクオカシサワラク","town":"田","town_kana":"タ","prefecture_code":40},"0011":{"zip_code":"8140011","prefecture":"福岡県","prefecture_kana":"フクオカケン","city":"福岡市早良区","city_kana":"フクオカシサワラク","town":"高取","town_kana":"タカトリ","prefecture_code":40},"0174":{"zip_code":"8140174","prefecture":"福岡県","prefecture_kana":"フクオカケン","city":"福岡市早良区","city_kana":"フクオカシサワラク","town":"田隈","town_kana":"タグマ","prefecture_code":40},"0175":{"zip_code":"8140175","prefecture":"福岡県","prefecture_kana":"フクオカケン","city":"福岡市早良区","city_kana":"フクオカシサワラク","town":"田村","town_kana":"タムラ","prefecture_code":40},"0173":{"zip_code":"8140173","prefecture":"福岡県","prefecture_kana":"フクオカケン","city":"福岡市早良区","city_kana":"フクオカシサワラク","town":"西油山","town_kana":"ニシアブラヤマ","prefecture_code":40},"0002":{"zip_code":"8140002","prefecture":"福岡県","prefecture_kana":"フクオカケン","city":"福岡市早良区","city_kana":"フクオカシサワラク","town":"西新","town_kana":"ニシジン","prefecture_code":40},"0171":{"zip_code":"8140171","prefecture":"福岡県","prefecture_kana":"フクオカケン","city":"福岡市早良区","city_kana":"フクオカシサワラク","town":"野芥","town_kana":"ノケ","prefecture_code":40},"0022":{"zip_code":"8140022","prefecture":"福岡県","prefecture_kana":"フクオカケン","city":"福岡市早良区","city_kana":"フクオカシサワラク","town":"原","town_kana":"ハラ","prefecture_code":40},"0023":{"zip_code":"8140023","prefecture":"福岡県","prefecture_kana":"フクオカケン","city":"福岡市早良区","city_kana":"フクオカシサワラク","town":"原団地","town_kana":"ハラダンチ","prefecture_code":40},"0013":{"zip_code":"8140013","prefecture":"福岡県","prefecture_kana":"フクオカケン","city":"福岡市早良区","city_kana":"フクオカシサワラク","town":"藤崎","town_kana":"フジサキ","prefecture_code":40},"0163":{"zip_code":"8140163","prefecture":"福岡県","prefecture_kana":"フクオカケン","city":"福岡市早良区","city_kana":"フクオカシサワラク","town":"干隈","town_kana":"ホシクマ","prefecture_code":40},"0162":{"zip_code":"8140162","prefecture":"福岡県","prefecture_kana":"フクオカケン","city":"福岡市早良区","city_kana":"フクオカシサワラク","town":"星の原団地","town_kana":"ホシノハラダンチ","prefecture_code":40},"0031":{"zip_code":"8140031","prefecture":"福岡県","prefecture_kana":"フクオカケン","city":"福岡市早良区","city_kana":"フクオカシサワラク","town":"南庄","town_kana":"ミナミショウ","prefecture_code":40},"0035":{"zip_code":"8140035","prefecture":"福岡県","prefecture_kana":"フクオカケン","city":"福岡市早良区","city_kana":"フクオカシサワラク","town":"室住団地","town_kana":"ムロズミダンチ","prefecture_code":40},"0015":{"zip_code":"8140015","prefecture":"福岡県","prefecture_kana":"フクオカケン","city":"福岡市早良区","city_kana":"フクオカシサワラク","town":"室見","town_kana":"ムロミ","prefecture_code":40},"0006":{"zip_code":"8140006","prefecture":"福岡県","prefecture_kana":"フクオカケン","city":"福岡市早良区","city_kana":"フクオカシサワラク","town":"百道","town_kana":"モモチ","prefecture_code":40},"0001":{"zip_code":"8140001","prefecture":"福岡県","prefecture_kana":"フクオカケン","city":"福岡市早良区","city_kana":"フクオカシサワラク","town":"百道浜","town_kana":"モモチハマ","prefecture_code":40},"0014":{"zip_code":"8140014","prefecture":"福岡県","prefecture_kana":"フクオカケン","city":"福岡市早良区","city_kana":"フクオカシサワラク","town":"弥生","town_kana":"ヤヨイ","prefecture_code":40}}