{"0000":{"zip_code":"8150000","prefecture":"福岡県","prefecture_kana":"フクオカケン","city":"福岡市南区","city_kana":"フクオカシミナミク","town":"","town_kana":"","prefecture_code":40},"0084":{"zip_code":"8150084","prefecture":"福岡県","prefecture_kana":"フクオカケン","city":"福岡市南区","city_kana":"フクオカシミナミク","town":"市崎","town_kana":"イチザキ","prefecture_code":40},"0073":{"zip_code":"8150073","prefecture":"福岡県","prefecture_kana":"フクオカケン","city":"福岡市南区","city_kana":"フクオカシミナミク","town":"大池","town_kana":"オオイケ","prefecture_code":40},"0082":{"zip_code":"8150082","prefecture":"福岡県","prefecture_kana":"フクオカケン","city":"福岡市南区","city_kana":"フクオカシミナミク","town":"大楠","town_kana":"オオグス","prefecture_code":40},"0033":{"zip_code":"8150033","prefecture":"福岡県","prefecture_kana":"フクオカケン","city":"福岡市南区","city_kana":"フクオカシミナミク","town":"大橋","town_kana":"オオハシ","prefecture_code":40},"0038":{"zip_code":"8150038","prefecture":"福岡県","prefecture_kana":"フクオカケン","city":"福岡市南区","city_kana":"フクオカシミナミク","town":"大橋団地","town_kana":"オオハシダンチ","prefecture_code":40},"0001":{"zip_code":"8150001","prefecture":"福岡県","prefecture_kana":"フクオカケン","city":"福岡市南区","city_kana":"フクオカシミナミク","town":"五十川","town_kana":"ゴジッカワ","prefecture_code":40},"0032":{"zip_code":"8150032","prefecture":"福岡県","prefecture_kana":"フクオカケン","city":"福岡市南区","city_kana":"フクオカシミナミク","town":"塩原","town_kana":"シオバル","prefecture_code":40},"0031":{"zip_code":"8150031","prefecture":"福岡県","prefecture_kana":"フクオカケン","city":"福岡市南区","city_kana":"フクオカシミナミク","town":"清水","town_kana":"シミズ","prefecture_code":40},"0004":{"zip_code":"8150004","prefecture":"福岡県","prefecture_kana":"フクオカケン","city":"福岡市南区","city_kana":"フクオカシミナミク","town":"高木","town_kana":"タカキ","prefecture_code":40},"0083":{"zip_code":"8150083","prefecture":"福岡県","prefecture_kana":"フクオカケン","city":"福岡市南区","city_kana":"フクオカシミナミク","town":"高宮","town_kana":"タカミヤ","prefecture_code":40},"0072":{"zip_code":"8150072","prefecture":"福岡県","prefecture_kana":"フクオカケン","city":"福岡市南区","city_kana":"フクオカシミナミク","town":"多賀","town_kana":"タガ","prefecture_code":40},"0037":{"zip_code":"8150037","prefecture":"福岡県","prefecture_kana":"フクオカケン","city":"福岡市南区","city_kana":"フクオカシミナミク","town":"玉川町","town_kana":"タマガワマチ","prefecture_code":40},"0036":{"zip_code":"8150036","prefecture":"福岡県","prefecture_kana":"フクオカケン","city":"福岡市南区","city_kana":"フクオカシミナミク","town":"筑紫丘","town_kana":"チクシガオカ","prefecture_code":40},"0074":{"zip_code":"8150074","prefecture":"福岡県","prefecture_kana":"フクオカケン","city":"福岡市南区","city_kana":"フクオカシミナミク","town":"寺塚","town_kana":"テラヅカ","prefecture_code":40},"0075":{"zip_code":"8150075","prefecture":"福岡県","prefecture_kana":"フクオカケン","city":"福岡市南区","city_kana":"フクオカシミナミク","town":"長丘","town_kana":"ナガオカ","prefecture_code":40},"0081":{"zip_code":"8150081","prefecture":"福岡県","prefecture_kana":"フクオカケン","city":"福岡市南区","city_kana":"フクオカシミナミク","town":"那の川","town_kana":"ナノカワ","prefecture_code":40},"0041":{"zip_code":"8150041","prefecture":"福岡県","prefecture_kana":"フクオカケン","city":"福岡市南区","city_kana":"フクオカシミナミク","town":"野間","town_kana":"ノマ","prefecture_code":40},"0071":{"zip_code":"8150071","prefecture":"福岡県","prefecture_kana":"フクオカケン","city":"福岡市南区","city_kana":"フクオカシミナミク","town":"平和","town_kana":"ヘイワ","prefecture_code":40},"0034":{"zip_code":"8150034","prefecture":"福岡県","prefecture_kana":"フクオカケン","city":"福岡市南区","city_kana":"フクオカシミナミク","town":"南大橋","town_kana":"ミナミオオハシ","prefecture_code":40},"0035":{"zip_code":"8150035","prefecture":"福岡県","prefecture_kana":"フクオカケン","city":"福岡市南区","city_kana":"フクオカシミナミク","town":"向野","town_kana":"ムカイノ","prefecture_code":40},"0063":{"zip_code":"8150063","prefecture":"福岡県","prefecture_kana":"フクオカケン","city":"福岡市南区","city_kana":"フクオカシミナミク","town":"柳河内","town_kana":"ヤナゴウチ","prefecture_code":40},"0042":{"zip_code":"8150042","prefecture":"福岡県","prefecture_kana":"フクオカケン","city":"福岡市南区","city_kana":"フクオカシミナミク","town":"若久","town_kana":"ワカヒサ","prefecture_code":40},"0048":{"zip_code":"8150048","prefecture":"福岡県","prefecture_kana":"フクオカケン","city":"福岡市南区","city_kana":"フクオカシミナミク","town":"若久団地","town_kana":"ワカヒサダンチ","prefecture_code":40}}