{"0000":{"zip_code":"8180000","prefecture":"福岡県","prefecture_kana":"フクオカケン","city":"筑紫野市","city_kana":"チクシノシ","town":"","town_kana":"","prefecture_code":40},"0011":{"zip_code":"8180011","prefecture":"福岡県","prefecture_kana":"フクオカケン","city":"筑紫野市","city_kana":"チクシノシ","town":"阿志岐","town_kana":"アシキ","prefecture_code":40},"0012":{"zip_code":"8180012","prefecture":"福岡県","prefecture_kana":"フクオカケン","city":"筑紫野市","city_kana":"チクシノシ","town":"天山","town_kana":"アマヤマ","prefecture_code":40},"0068":{"zip_code":"8180068","prefecture":"福岡県","prefecture_kana":"フクオカケン","city":"筑紫野市","city_kana":"チクシノシ","town":"石崎","town_kana":"イシザキ","prefecture_code":40},"0014":{"zip_code":"8180014","prefecture":"福岡県","prefecture_kana":"フクオカケン","city":"筑紫野市","city_kana":"チクシノシ","town":"牛島","town_kana":"ウシジマ","prefecture_code":40},"0034":{"zip_code":"8180034","prefecture":"福岡県","prefecture_kana":"フクオカケン","city":"筑紫野市","city_kana":"チクシノシ","town":"美しが丘南","town_kana":"ウツクシガオカミナミ","prefecture_code":40},"0035":{"zip_code":"8180035","prefecture":"福岡県","prefecture_kana":"フクオカケン","city":"筑紫野市","city_kana":"チクシノシ","town":"美しが丘北","town_kana":"ウツクシガオカキタ","prefecture_code":40},"0033":{"zip_code":"8180033","prefecture":"福岡県","prefecture_kana":"フクオカケン","city":"筑紫野市","city_kana":"チクシノシ","town":"馬市","town_kana":"ウマイチ","prefecture_code":40},"0006":{"zip_code":"8180006","prefecture":"福岡県","prefecture_kana":"フクオカケン","city":"筑紫野市","city_kana":"チクシノシ","town":"大石","town_kana":"オオイシ","prefecture_code":40},"0013":{"zip_code":"8180013","prefecture":"福岡県","prefecture_kana":"フクオカケン","city":"筑紫野市","city_kana":"チクシノシ","town":"岡田","town_kana":"オカダ","prefecture_code":40},"0041":{"zip_code":"8180041","prefecture":"福岡県","prefecture_kana":"フクオカケン","city":"筑紫野市","city_kana":"チクシノシ","town":"上古賀","town_kana":"カミコガ","prefecture_code":40},"0031":{"zip_code":"8180031","prefecture":"福岡県","prefecture_kana":"フクオカケン","city":"筑紫野市","city_kana":"チクシノシ","town":"隈","town_kana":"クマ","prefecture_code":40},"0002":{"zip_code":"8180002","prefecture":"福岡県","prefecture_kana":"フクオカケン","city":"筑紫野市","city_kana":"チクシノシ","town":"香園","town_kana":"コウゾノ","prefecture_code":40},"0047":{"zip_code":"8180047","prefecture":"福岡県","prefecture_kana":"フクオカケン","city":"筑紫野市","city_kana":"チクシノシ","town":"古賀","town_kana":"コガ","prefecture_code":40},"0063":{"zip_code":"8180063","prefecture":"福岡県","prefecture_kana":"フクオカケン","city":"筑紫野市","city_kana":"チクシノシ","town":"桜台","town_kana":"サクラダイ","prefecture_code":40},"0021":{"zip_code":"8180021","prefecture":"福岡県","prefecture_kana":"フクオカケン","city":"筑紫野市","city_kana":"チクシノシ","town":"下見","town_kana":"シタミ","prefecture_code":40},"0054":{"zip_code":"8180054","prefecture":"福岡県","prefecture_kana":"フクオカケン","city":"筑紫野市","city_kana":"チクシノシ","town":"杉塚","town_kana":"スギヅカ","prefecture_code":40},"0067":{"zip_code":"8180067","prefecture":"福岡県","prefecture_kana":"フクオカケン","city":"筑紫野市","city_kana":"チクシノシ","town":"俗明院","town_kana":"ゾクミョウイン","prefecture_code":40},"0025":{"zip_code":"8180025","prefecture":"福岡県","prefecture_kana":"フクオカケン","city":"筑紫野市","city_kana":"チクシノシ","town":"筑紫","town_kana":"チクシ","prefecture_code":40},"0022":{"zip_code":"8180022","prefecture":"福岡県","prefecture_kana":"フクオカケン","city":"筑紫野市","city_kana":"チクシノシ","town":"筑紫駅前通","town_kana":"チクシエキマエドオリ","prefecture_code":40},"0064":{"zip_code":"8180064","prefecture":"福岡県","prefecture_kana":"フクオカケン","city":"筑紫野市","city_kana":"チクシノシ","town":"常松","town_kana":"ツネマツ","prefecture_code":40},"0053":{"zip_code":"8180053","prefecture":"福岡県","prefecture_kana":"フクオカケン","city":"筑紫野市","city_kana":"チクシノシ","town":"天拝坂","town_kana":"テンパイザカ","prefecture_code":40},"0055":{"zip_code":"8180055","prefecture":"福岡県","prefecture_kana":"フクオカケン","city":"筑紫野市","city_kana":"チクシノシ","town":"塔原","town_kana":"トウノハル","prefecture_code":40},"0059":{"zip_code":"8180059","prefecture":"福岡県","prefecture_kana":"フクオカケン","city":"筑紫野市","city_kana":"チクシノシ","town":"塔原東","town_kana":"トウノハルヒガシ","prefecture_code":40},"0073":{"zip_code":"8180073","prefecture":"福岡県","prefecture_kana":"フクオカケン","city":"筑紫野市","city_kana":"チクシノシ","town":"塔原西","town_kana":"トウノハルニシ","prefecture_code":40},"0074":{"zip_code":"8180074","prefecture":"福岡県","prefecture_kana":"フクオカケン","city":"筑紫野市","city_kana":"チクシノシ","town":"塔原南","town_kana":"トウノハルミナミ","prefecture_code":40},"0066":{"zip_code":"8180066","prefecture":"福岡県","prefecture_kana":"フクオカケン","city":"筑紫野市","city_kana":"チクシノシ","town":"永岡","town_kana":"ナガオカ","prefecture_code":40},"0032":{"zip_code":"8180032","prefecture":"福岡県","prefecture_kana":"フクオカケン","city":"筑紫野市","city_kana":"チクシノシ","town":"西小田","town_kana":"ニシオダ","prefecture_code":40},"0044":{"zip_code":"8180044","prefecture":"福岡県","prefecture_kana":"フクオカケン","city":"筑紫野市","city_kana":"チクシノシ","town":"萩原","town_kana":"ハギワラ","prefecture_code":40},"0062":{"zip_code":"8180062","prefecture":"福岡県","prefecture_kana":"フクオカケン","city":"筑紫野市","city_kana":"チクシノシ","town":"針摺","town_kana":"ハリスリ","prefecture_code":40},"0085":{"zip_code":"8180085","prefecture":"福岡県","prefecture_kana":"フクオカケン","city":"筑紫野市","city_kana":"チクシノシ","town":"針摺北","town_kana":"ハリスリキタ","prefecture_code":40},"0083":{"zip_code":"8180083","prefecture":"福岡県","prefecture_kana":"フクオカケン","city":"筑紫野市","city_kana":"チクシノシ","town":"針摺中央","town_kana":"ハリスリチュウオウ","prefecture_code":40},"0084":{"zip_code":"8180084","prefecture":"福岡県","prefecture_kana":"フクオカケン","city":"筑紫野市","city_kana":"チクシノシ","town":"針摺西","town_kana":"ハリスリニシ","prefecture_code":40},"0081":{"zip_code":"8180081","prefecture":"福岡県","prefecture_kana":"フクオカケン","city":"筑紫野市","city_kana":"チクシノシ","town":"針摺東","town_kana":"ハリスリヒガシ","prefecture_code":40},"0082":{"zip_code":"8180082","prefecture":"福岡県","prefecture_kana":"フクオカケン","city":"筑紫野市","city_kana":"チクシノシ","town":"針摺南","town_kana":"ハリスリミナミ","prefecture_code":40},"0005":{"zip_code":"8180005","prefecture":"福岡県","prefecture_kana":"フクオカケン","city":"筑紫野市","city_kana":"チクシノシ","town":"原","town_kana":"ハル","prefecture_code":40},"0024":{"zip_code":"8180024","prefecture":"福岡県","prefecture_kana":"フクオカケン","city":"筑紫野市","city_kana":"チクシノシ","town":"原田","town_kana":"ハルダ","prefecture_code":40},"0036":{"zip_code":"8180036","prefecture":"福岡県","prefecture_kana":"フクオカケン","city":"筑紫野市","city_kana":"チクシノシ","town":"光が丘","town_kana":"ヒカリガオカ","prefecture_code":40},"0045":{"zip_code":"8180045","prefecture":"福岡県","prefecture_kana":"フクオカケン","city":"筑紫野市","city_kana":"チクシノシ","town":"平等寺","town_kana":"ビョウドウジ","prefecture_code":40},"0051":{"zip_code":"8180051","prefecture":"福岡県","prefecture_kana":"フクオカケン","city":"筑紫野市","city_kana":"チクシノシ","town":"二日市","town_kana":"フツカイチ","prefecture_code":40},"0056":{"zip_code":"8180056","prefecture":"福岡県","prefecture_kana":"フクオカケン","city":"筑紫野市","city_kana":"チクシノシ","town":"二日市北","town_kana":"フツカイチキタ","prefecture_code":40},"0072":{"zip_code":"8180072","prefecture":"福岡県","prefecture_kana":"フクオカケン","city":"筑紫野市","city_kana":"チクシノシ","town":"二日市中央","town_kana":"フツカイチチュウオウ","prefecture_code":40},"0071":{"zip_code":"8180071","prefecture":"福岡県","prefecture_kana":"フクオカケン","city":"筑紫野市","city_kana":"チクシノシ","town":"二日市西","town_kana":"フツカイチニシ","prefecture_code":40},"0057":{"zip_code":"8180057","prefecture":"福岡県","prefecture_kana":"フクオカケン","city":"筑紫野市","city_kana":"チクシノシ","town":"二日市南","town_kana":"フツカイチミナミ","prefecture_code":40},"0007":{"zip_code":"8180007","prefecture":"福岡県","prefecture_kana":"フクオカケン","city":"筑紫野市","city_kana":"チクシノシ","town":"本道寺","town_kana":"ホンドウジ","prefecture_code":40},"0026":{"zip_code":"8180026","prefecture":"福岡県","prefecture_kana":"フクオカケン","city":"筑紫野市","city_kana":"チクシノシ","town":"美咲","town_kana":"ミサキ","prefecture_code":40},"0052":{"zip_code":"8180052","prefecture":"福岡県","prefecture_kana":"フクオカケン","city":"筑紫野市","city_kana":"チクシノシ","town":"武藏","town_kana":"ムサシ","prefecture_code":40},"0043":{"zip_code":"8180043","prefecture":"福岡県","prefecture_kana":"フクオカケン","city":"筑紫野市","city_kana":"チクシノシ","town":"むさしケ丘","town_kana":"ムサシガオカ","prefecture_code":40},"0061":{"zip_code":"8180061","prefecture":"福岡県","prefecture_kana":"フクオカケン","city":"筑紫野市","city_kana":"チクシノシ","town":"紫","town_kana":"ムラサキ","prefecture_code":40},"0065":{"zip_code":"8180065","prefecture":"福岡県","prefecture_kana":"フクオカケン","city":"筑紫野市","city_kana":"チクシノシ","town":"諸田","town_kana":"モロタ","prefecture_code":40},"0003":{"zip_code":"8180003","prefecture":"福岡県","prefecture_kana":"フクオカケン","city":"筑紫野市","city_kana":"チクシノシ","town":"山家","town_kana":"ヤマエ","prefecture_code":40},"0046":{"zip_code":"8180046","prefecture":"福岡県","prefecture_kana":"フクオカケン","city":"筑紫野市","city_kana":"チクシノシ","town":"山口","town_kana":"ヤマグチ","prefecture_code":40},"0001":{"zip_code":"8180001","prefecture":"福岡県","prefecture_kana":"フクオカケン","city":"筑紫野市","city_kana":"チクシノシ","town":"柚須原","town_kana":"ユスバル","prefecture_code":40},"0058":{"zip_code":"8180058","prefecture":"福岡県","prefecture_kana":"フクオカケン","city":"筑紫野市","city_kana":"チクシノシ","town":"湯町","town_kana":"ユマチ","prefecture_code":40},"0004":{"zip_code":"8180004","prefecture":"福岡県","prefecture_kana":"フクオカケン","city":"筑紫野市","city_kana":"チクシノシ","town":"吉木","town_kana":"ヨシキ","prefecture_code":40},"0042":{"zip_code":"8180042","prefecture":"福岡県","prefecture_kana":"フクオカケン","city":"筑紫野市","city_kana":"チクシノシ","town":"立明寺","town_kana":"リュウミョウジ","prefecture_code":40},"0023":{"zip_code":"8180023","prefecture":"福岡県","prefecture_kana":"フクオカケン","city":"筑紫野市","city_kana":"チクシノシ","town":"若江","town_kana":"ワカエ","prefecture_code":40},"0100":{"zip_code":"8180100","prefecture":"福岡県","prefecture_kana":"フクオカケン","city":"太宰府市","city_kana":"ダザイフシ","town":"","town_kana":"","prefecture_code":40},"0137":{"zip_code":"8180137","prefecture":"福岡県","prefecture_kana":"フクオカケン","city":"太宰府市","city_kana":"ダザイフシ","town":"青葉台","town_kana":"アオバダイ","prefecture_code":40},"0121":{"zip_code":"8180121","prefecture":"福岡県","prefecture_kana":"フクオカケン","city":"太宰府市","city_kana":"ダザイフシ","town":"青山","town_kana":"アオヤマ","prefecture_code":40},"0118":{"zip_code":"8180118","prefecture":"福岡県","prefecture_kana":"フクオカケン","city":"太宰府市","city_kana":"ダザイフシ","town":"石坂","town_kana":"イシザカ","prefecture_code":40},"0115":{"zip_code":"8180115","prefecture":"福岡県","prefecture_kana":"フクオカケン","city":"太宰府市","city_kana":"ダザイフシ","town":"内山","town_kana":"ウチヤマ","prefecture_code":40},"0123":{"zip_code":"8180123","prefecture":"福岡県","prefecture_kana":"フクオカケン","city":"太宰府市","city_kana":"ダザイフシ","town":"梅ケ丘","town_kana":"ウメガオカ","prefecture_code":40},"0134":{"zip_code":"8180134","prefecture":"福岡県","prefecture_kana":"フクオカケン","city":"太宰府市","city_kana":"ダザイフシ","town":"大佐野","town_kana":"オオザノ","prefecture_code":40},"0101":{"zip_code":"8180101","prefecture":"福岡県","prefecture_kana":"フクオカケン","city":"太宰府市","city_kana":"ダザイフシ","town":"観世音寺","town_kana":"カンゼオンジ","prefecture_code":40},"0114":{"zip_code":"8180114","prefecture":"福岡県","prefecture_kana":"フクオカケン","city":"太宰府市","city_kana":"ダザイフシ","town":"北谷","town_kana":"キタダニ","prefecture_code":40},"0132":{"zip_code":"8180132","prefecture":"福岡県","prefecture_kana":"フクオカケン","city":"太宰府市","city_kana":"ダザイフシ","town":"国分","town_kana":"コクブ","prefecture_code":40},"0125":{"zip_code":"8180125","prefecture":"福岡県","prefecture_kana":"フクオカケン","city":"太宰府市","city_kana":"ダザイフシ","town":"五条","town_kana":"ゴジョウ","prefecture_code":40},"0139":{"zip_code":"8180139","prefecture":"福岡県","prefecture_kana":"フクオカケン","city":"太宰府市","city_kana":"ダザイフシ","town":"宰都","town_kana":"サイト","prefecture_code":40},"0117":{"zip_code":"8180117","prefecture":"福岡県","prefecture_kana":"フクオカケン","city":"太宰府市","city_kana":"ダザイフシ","town":"宰府","town_kana":"サイフ","prefecture_code":40},"0133":{"zip_code":"8180133","prefecture":"福岡県","prefecture_kana":"フクオカケン","city":"太宰府市","city_kana":"ダザイフシ","town":"坂本","town_kana":"サカモト","prefecture_code":40},"0111":{"zip_code":"8180111","prefecture":"福岡県","prefecture_kana":"フクオカケン","city":"太宰府市","city_kana":"ダザイフシ","town":"三条","town_kana":"サンジョウ","prefecture_code":40},"0102":{"zip_code":"8180102","prefecture":"福岡県","prefecture_kana":"フクオカケン","city":"太宰府市","city_kana":"ダザイフシ","town":"白川","town_kana":"シラカワ","prefecture_code":40},"0103":{"zip_code":"8180103","prefecture":"福岡県","prefecture_kana":"フクオカケン","city":"太宰府市","city_kana":"ダザイフシ","town":"朱雀","town_kana":"スザク","prefecture_code":40},"0122":{"zip_code":"8180122","prefecture":"福岡県","prefecture_kana":"フクオカケン","city":"太宰府市","city_kana":"ダザイフシ","town":"高雄","town_kana":"タカオ","prefecture_code":40},"0104":{"zip_code":"8180104","prefecture":"福岡県","prefecture_kana":"フクオカケン","city":"太宰府市","city_kana":"ダザイフシ","town":"通古賀","town_kana":"トオノコガ","prefecture_code":40},"0105":{"zip_code":"8180105","prefecture":"福岡県","prefecture_kana":"フクオカケン","city":"太宰府市","city_kana":"ダザイフシ","town":"都府楼南","town_kana":"トフロウミナミ","prefecture_code":40},"0136":{"zip_code":"8180136","prefecture":"福岡県","prefecture_kana":"フクオカケン","city":"太宰府市","city_kana":"ダザイフシ","town":"長浦台","town_kana":"ナガウラダイ","prefecture_code":40},"0124":{"zip_code":"8180124","prefecture":"福岡県","prefecture_kana":"フクオカケン","city":"太宰府市","city_kana":"ダザイフシ","town":"梅香苑","town_kana":"バイコウエン","prefecture_code":40},"0110":{"zip_code":"8180110","prefecture":"福岡県","prefecture_kana":"フクオカケン","city":"太宰府市","city_kana":"ダザイフシ","town":"御笠","town_kana":"ミカサ","prefecture_code":40},"0131":{"zip_code":"8180131","prefecture":"福岡県","prefecture_kana":"フクオカケン","city":"太宰府市","city_kana":"ダザイフシ","town":"水城","town_kana":"ミズキ","prefecture_code":40},"0135":{"zip_code":"8180135","prefecture":"福岡県","prefecture_kana":"フクオカケン","city":"太宰府市","city_kana":"ダザイフシ","town":"向佐野","town_kana":"ムカイザノ","prefecture_code":40},"0138":{"zip_code":"8180138","prefecture":"福岡県","prefecture_kana":"フクオカケン","city":"太宰府市","city_kana":"ダザイフシ","town":"吉松","town_kana":"ヨシマツ","prefecture_code":40},"0119":{"zip_code":"8180119","prefecture":"福岡県","prefecture_kana":"フクオカケン","city":"太宰府市","city_kana":"ダザイフシ","town":"連歌屋","town_kana":"レンガヤ","prefecture_code":40}}