{"0000":{"zip_code":"8190000","prefecture":"福岡県","prefecture_kana":"フクオカケン","city":"福岡市西区","city_kana":"フクオカシニシク","town":"","town_kana":"","prefecture_code":40},"0015":{"zip_code":"8190015","prefecture":"福岡県","prefecture_kana":"フクオカケン","city":"福岡市西区","city_kana":"フクオカシニシク","town":"愛宕","town_kana":"アタゴ","prefecture_code":40},"0013":{"zip_code":"8190013","prefecture":"福岡県","prefecture_kana":"フクオカケン","city":"福岡市西区","city_kana":"フクオカシニシク","town":"愛宕浜","town_kana":"アタゴハマ","prefecture_code":40},"0007":{"zip_code":"8190007","prefecture":"福岡県","prefecture_kana":"フクオカケン","city":"福岡市西区","city_kana":"フクオカシニシク","town":"愛宕南","town_kana":"アタゴミナミ","prefecture_code":40},"0371":{"zip_code":"8190371","prefecture":"福岡県","prefecture_kana":"フクオカケン","city":"福岡市西区","city_kana":"フクオカシニシク","town":"飯氏","town_kana":"イイジ","prefecture_code":40},"0037":{"zip_code":"8190037","prefecture":"福岡県","prefecture_kana":"フクオカケン","city":"福岡市西区","city_kana":"フクオカシニシク","town":"飯盛","town_kana":"イイモリ","prefecture_code":40},"0042":{"zip_code":"8190042","prefecture":"福岡県","prefecture_kana":"フクオカケン","city":"福岡市西区","city_kana":"フクオカシニシク","town":"壱岐団地","town_kana":"イキダンチ","prefecture_code":40},"0055":{"zip_code":"8190055","prefecture":"福岡県","prefecture_kana":"フクオカケン","city":"福岡市西区","city_kana":"フクオカシニシク","town":"生の松原","town_kana":"イキノマツバラ","prefecture_code":40},"0044":{"zip_code":"8190044","prefecture":"福岡県","prefecture_kana":"フクオカケン","city":"福岡市西区","city_kana":"フクオカシニシク","town":"生松台","town_kana":"イキマツダイ","prefecture_code":40},"0025":{"zip_code":"8190025","prefecture":"福岡県","prefecture_kana":"フクオカケン","city":"福岡市西区","city_kana":"フクオカシニシク","town":"石丸","town_kana":"イシマル","prefecture_code":40},"0381":{"zip_code":"8190381","prefecture":"福岡県","prefecture_kana":"フクオカケン","city":"福岡市西区","city_kana":"フクオカシニシク","town":"泉","town_kana":"イズミ","prefecture_code":40},"0167":{"zip_code":"8190167","prefecture":"福岡県","prefecture_kana":"フクオカケン","city":"福岡市西区","city_kana":"フクオカシニシク","town":"今宿","town_kana":"イマジュク","prefecture_code":40},"0162":{"zip_code":"8190162","prefecture":"福岡県","prefecture_kana":"フクオカケン","city":"福岡市西区","city_kana":"フクオカシニシク","town":"今宿青木","town_kana":"イマジュクアオキ","prefecture_code":40},"0168":{"zip_code":"8190168","prefecture":"福岡県","prefecture_kana":"フクオカケン","city":"福岡市西区","city_kana":"フクオカシニシク","town":"今宿駅前","town_kana":"イマジュクエキマエ","prefecture_code":40},"0163":{"zip_code":"8190163","prefecture":"福岡県","prefecture_kana":"フクオカケン","city":"福岡市西区","city_kana":"フクオカシニシク","town":"今宿上ノ原","town_kana":"イマジュクカミノハル","prefecture_code":40},"0164":{"zip_code":"8190164","prefecture":"福岡県","prefecture_kana":"フクオカケン","city":"福岡市西区","city_kana":"フクオカシニシク","town":"今宿町","town_kana":"イマジュクマチ","prefecture_code":40},"0161":{"zip_code":"8190161","prefecture":"福岡県","prefecture_kana":"フクオカケン","city":"福岡市西区","city_kana":"フクオカシニシク","town":"今宿東","town_kana":"イマジュクヒガシ","prefecture_code":40},"0165":{"zip_code":"8190165","prefecture":"福岡県","prefecture_kana":"フクオカケン","city":"福岡市西区","city_kana":"フクオカシニシク","town":"今津","town_kana":"イマヅ","prefecture_code":40},"0372":{"zip_code":"8190372","prefecture":"福岡県","prefecture_kana":"フクオカケン","city":"福岡市西区","city_kana":"フクオカシニシク","town":"宇田川原","town_kana":"ウダガワラ","prefecture_code":40},"0005":{"zip_code":"8190005","prefecture":"福岡県","prefecture_kana":"フクオカケン","city":"福岡市西区","city_kana":"フクオカシニシク","town":"内浜","town_kana":"ウチハマ","prefecture_code":40},"0021":{"zip_code":"8190021","prefecture":"福岡県","prefecture_kana":"フクオカケン","city":"福岡市西区","city_kana":"フクオカシニシク","town":"大町団地","town_kana":"オオマチダンチ","prefecture_code":40},"0001":{"zip_code":"8190001","prefecture":"福岡県","prefecture_kana":"フクオカケン","city":"福岡市西区","city_kana":"フクオカシニシク","town":"小戸","town_kana":"オド","prefecture_code":40},"0011":{"zip_code":"8190011","prefecture":"福岡県","prefecture_kana":"フクオカケン","city":"福岡市西区","city_kana":"フクオカシニシク","town":"小呂島","town_kana":"オロノシマ","prefecture_code":40},"0035":{"zip_code":"8190035","prefecture":"福岡県","prefecture_kana":"フクオカケン","city":"福岡市西区","city_kana":"フクオカシニシク","town":"金武","town_kana":"カナタケ","prefecture_code":40},"0054":{"zip_code":"8190054","prefecture":"福岡県","prefecture_kana":"フクオカケン","city":"福岡市西区","city_kana":"フクオカシニシク","town":"上山門","town_kana":"カミヤマト","prefecture_code":40},"0388":{"zip_code":"8190388","prefecture":"福岡県","prefecture_kana":"フクオカケン","city":"福岡市西区","city_kana":"フクオカシニシク","town":"九大新町","town_kana":"キュウダイシンマチ","prefecture_code":40},"0204":{"zip_code":"8190204","prefecture":"福岡県","prefecture_kana":"フクオカケン","city":"福岡市西区","city_kana":"フクオカシニシク","town":"草場","town_kana":"クサバ","prefecture_code":40},"0382":{"zip_code":"8190382","prefecture":"福岡県","prefecture_kana":"フクオカケン","city":"福岡市西区","city_kana":"フクオカシニシク","town":"桑原","town_kana":"クワバラ","prefecture_code":40},"0205":{"zip_code":"8190205","prefecture":"福岡県","prefecture_kana":"フクオカケン","city":"福岡市西区","city_kana":"フクオカシニシク","town":"玄界島","town_kana":"ゲンカイシマ","prefecture_code":40},"0203":{"zip_code":"8190203","prefecture":"福岡県","prefecture_kana":"フクオカケン","city":"福岡市西区","city_kana":"フクオカシニシク","town":"小田","town_kana":"コタ","prefecture_code":40},"0052":{"zip_code":"8190052","prefecture":"福岡県","prefecture_kana":"フクオカケン","city":"福岡市西区","city_kana":"フクオカシニシク","town":"下山門","town_kana":"シモヤマト","prefecture_code":40},"0051":{"zip_code":"8190051","prefecture":"福岡県","prefecture_kana":"フクオカケン","city":"福岡市西区","city_kana":"フクオカシニシク","town":"下山門団地","town_kana":"シモヤマトダンチ","prefecture_code":40},"0024":{"zip_code":"8190024","prefecture":"福岡県","prefecture_kana":"フクオカケン","city":"福岡市西区","city_kana":"フクオカシニシク","town":"十郎川団地","town_kana":"ジュウロウガワダンチ","prefecture_code":40},"0041":{"zip_code":"8190041","prefecture":"福岡県","prefecture_kana":"フクオカケン","city":"福岡市西区","city_kana":"フクオカシニシク","town":"拾六町","town_kana":"ジュウロクチョウ","prefecture_code":40},"0045":{"zip_code":"8190045","prefecture":"福岡県","prefecture_kana":"フクオカケン","city":"福岡市西区","city_kana":"フクオカシニシク","town":"拾六町団地","town_kana":"ジュウロクチョウダンチ","prefecture_code":40},"0053":{"zip_code":"8190053","prefecture":"福岡県","prefecture_kana":"フクオカケン","city":"福岡市西区","city_kana":"フクオカシニシク","town":"城の原団地","town_kana":"ジョウノハルダンチ","prefecture_code":40},"0373":{"zip_code":"8190373","prefecture":"福岡県","prefecture_kana":"フクオカケン","city":"福岡市西区","city_kana":"フクオカシニシク","town":"周船寺","town_kana":"スセンジ","prefecture_code":40},"0374":{"zip_code":"8190374","prefecture":"福岡県","prefecture_kana":"フクオカケン","city":"福岡市西区","city_kana":"フクオカシニシク","town":"千里","town_kana":"センリ","prefecture_code":40},"0034":{"zip_code":"8190034","prefecture":"福岡県","prefecture_kana":"フクオカケン","city":"福岡市西区","city_kana":"フクオカシニシク","town":"田","town_kana":"タ","prefecture_code":40},"0383":{"zip_code":"8190383","prefecture":"福岡県","prefecture_kana":"フクオカケン","city":"福岡市西区","city_kana":"フクオカシニシク","town":"田尻","town_kana":"タジリ","prefecture_code":40},"0384":{"zip_code":"8190384","prefecture":"福岡県","prefecture_kana":"フクオカケン","city":"福岡市西区","city_kana":"フクオカシニシク","town":"太郎丸","town_kana":"タロウマル","prefecture_code":40},"0032":{"zip_code":"8190032","prefecture":"福岡県","prefecture_kana":"フクオカケン","city":"福岡市西区","city_kana":"フクオカシニシク","town":"戸切","town_kana":"トギレ","prefecture_code":40},"0375":{"zip_code":"8190375","prefecture":"福岡県","prefecture_kana":"フクオカケン","city":"福岡市西区","city_kana":"フクオカシニシク","town":"徳永","town_kana":"トクナガ","prefecture_code":40},"0014":{"zip_code":"8190014","prefecture":"福岡県","prefecture_kana":"フクオカケン","city":"福岡市西区","city_kana":"フクオカシニシク","town":"豊浜","town_kana":"トヨハマ","prefecture_code":40},"0039":{"zip_code":"8190039","prefecture":"福岡県","prefecture_kana":"フクオカケン","city":"福岡市西区","city_kana":"フクオカシニシク","town":"西入部","town_kana":"ニシイリベ","prefecture_code":40},"0202":{"zip_code":"8190202","prefecture":"福岡県","prefecture_kana":"フクオカケン","city":"福岡市西区","city_kana":"フクオカシニシク","town":"西浦","town_kana":"ニシノウラ","prefecture_code":40},"0046":{"zip_code":"8190046","prefecture":"福岡県","prefecture_kana":"フクオカケン","city":"福岡市西区","city_kana":"フクオカシニシク","town":"西の丘","town_kana":"ニシノオカ","prefecture_code":40},"0043":{"zip_code":"8190043","prefecture":"福岡県","prefecture_kana":"フクオカケン","city":"福岡市西区","city_kana":"フクオカシニシク","town":"野方","town_kana":"ノカタ","prefecture_code":40},"0012":{"zip_code":"8190012","prefecture":"福岡県","prefecture_kana":"フクオカケン","city":"福岡市西区","city_kana":"フクオカシニシク","town":"能古","town_kana":"ノコ","prefecture_code":40},"0033":{"zip_code":"8190033","prefecture":"福岡県","prefecture_kana":"フクオカケン","city":"福岡市西区","city_kana":"フクオカシニシク","town":"橋本大字","town_kana":"ハシモトオオアザ","prefecture_code":40},"0031":{"zip_code":"8190031","prefecture":"福岡県","prefecture_kana":"フクオカケン","city":"福岡市西区","city_kana":"フクオカシニシク","town":"橋本","town_kana":"ハシモト","prefecture_code":40},"0038":{"zip_code":"8190038","prefecture":"福岡県","prefecture_kana":"フクオカケン","city":"福岡市西区","city_kana":"フクオカシニシク","town":"羽根戸","town_kana":"ハネド","prefecture_code":40},"0022":{"zip_code":"8190022","prefecture":"福岡県","prefecture_kana":"フクオカケン","city":"福岡市西区","city_kana":"フクオカシニシク","town":"福重","town_kana":"フクシゲ","prefecture_code":40},"0023":{"zip_code":"8190023","prefecture":"福岡県","prefecture_kana":"フクオカケン","city":"福岡市西区","city_kana":"フクオカシニシク","town":"福重団地","town_kana":"フクシゲダンチ","prefecture_code":40},"0387":{"zip_code":"8190387","prefecture":"福岡県","prefecture_kana":"フクオカケン","city":"福岡市西区","city_kana":"フクオカシニシク","town":"富士見","town_kana":"フジミ","prefecture_code":40},"0201":{"zip_code":"8190201","prefecture":"福岡県","prefecture_kana":"フクオカケン","city":"福岡市西区","city_kana":"フクオカシニシク","town":"宮浦","town_kana":"ミヤノウラ","prefecture_code":40},"0376":{"zip_code":"8190376","prefecture":"福岡県","prefecture_kana":"フクオカケン","city":"福岡市西区","city_kana":"フクオカシニシク","town":"女原","town_kana":"ミョウバル","prefecture_code":40},"0030":{"zip_code":"8190030","prefecture":"福岡県","prefecture_kana":"フクオカケン","city":"福岡市西区","city_kana":"フクオカシニシク","town":"室見が丘","town_kana":"ムロミガオカ","prefecture_code":40},"0002":{"zip_code":"8190002","prefecture":"福岡県","prefecture_kana":"フクオカケン","city":"福岡市西区","city_kana":"フクオカシニシク","town":"姪の浜","town_kana":"メイノハマ","prefecture_code":40},"0006":{"zip_code":"8190006","prefecture":"福岡県","prefecture_kana":"フクオカケン","city":"福岡市西区","city_kana":"フクオカシニシク","town":"姪浜駅南","town_kana":"メイノハマエキミナミ","prefecture_code":40},"0385":{"zip_code":"8190385","prefecture":"福岡県","prefecture_kana":"フクオカケン","city":"福岡市西区","city_kana":"フクオカシニシク","town":"元岡","town_kana":"モトオカ","prefecture_code":40},"0386":{"zip_code":"8190386","prefecture":"福岡県","prefecture_kana":"フクオカケン","city":"福岡市西区","city_kana":"フクオカシニシク","town":"元浜","town_kana":"モトハマ","prefecture_code":40},"0166":{"zip_code":"8190166","prefecture":"福岡県","prefecture_kana":"フクオカケン","city":"福岡市西区","city_kana":"フクオカシニシク","town":"横浜","town_kana":"ヨコハマ","prefecture_code":40},"0366":{"zip_code":"8190366","prefecture":"福岡県","prefecture_kana":"フクオカケン","city":"福岡市西区","city_kana":"フクオカシニシク","town":"横浜","town_kana":"ヨコハマ","prefecture_code":40},"0036":{"zip_code":"8190036","prefecture":"福岡県","prefecture_kana":"フクオカケン","city":"福岡市西区","city_kana":"フクオカシニシク","town":"吉武","town_kana":"ヨシタケ","prefecture_code":40},"1100":{"zip_code":"8191100","prefecture":"福岡県","prefecture_kana":"フクオカケン","city":"糸島市","city_kana":"イトシマシ","town":"","town_kana":"","prefecture_code":40},"1132":{"zip_code":"8191132","prefecture":"福岡県","prefecture_kana":"フクオカケン","city":"糸島市","city_kana":"イトシマシ","town":"有田","town_kana":"アリタ","prefecture_code":40},"1127":{"zip_code":"8191127","prefecture":"福岡県","prefecture_kana":"フクオカケン","city":"糸島市","city_kana":"イトシマシ","town":"有田中央","town_kana":"アリタチュウオウ","prefecture_code":40},"1152":{"zip_code":"8191152","prefecture":"福岡県","prefecture_kana":"フクオカケン","city":"糸島市","city_kana":"イトシマシ","town":"飯原","town_kana":"イイバル","prefecture_code":40},"1103":{"zip_code":"8191103","prefecture":"福岡県","prefecture_kana":"フクオカケン","city":"糸島市","city_kana":"イトシマシ","town":"池田","town_kana":"イケダ","prefecture_code":40},"1562":{"zip_code":"8191562","prefecture":"福岡県","prefecture_kana":"フクオカケン","city":"糸島市","city_kana":"イトシマシ","town":"井田","town_kana":"イタ","prefecture_code":40},"1101":{"zip_code":"8191101","prefecture":"福岡県","prefecture_kana":"フクオカケン","city":"糸島市","city_kana":"イトシマシ","town":"板持","town_kana":"イタモチ","prefecture_code":40},"1126":{"zip_code":"8191126","prefecture":"福岡県","prefecture_kana":"フクオカケン","city":"糸島市","city_kana":"イトシマシ","town":"岩本","town_kana":"イワモト","prefecture_code":40},"1582":{"zip_code":"8191582","prefecture":"福岡県","prefecture_kana":"フクオカケン","city":"糸島市","city_kana":"イトシマシ","town":"井原","town_kana":"イワラ","prefecture_code":40},"1112":{"zip_code":"8191112","prefecture":"福岡県","prefecture_kana":"フクオカケン","city":"糸島市","city_kana":"イトシマシ","town":"浦志","town_kana":"ウラシ","prefecture_code":40},"1105":{"zip_code":"8191105","prefecture":"福岡県","prefecture_kana":"フクオカケン","city":"糸島市","city_kana":"イトシマシ","town":"潤","town_kana":"ウルウ","prefecture_code":40},"1573":{"zip_code":"8191573","prefecture":"福岡県","prefecture_kana":"フクオカケン","city":"糸島市","city_kana":"イトシマシ","town":"王丸","town_kana":"オウマル","prefecture_code":40},"1135":{"zip_code":"8191135","prefecture":"福岡県","prefecture_kana":"フクオカケン","city":"糸島市","city_kana":"イトシマシ","town":"大浦","town_kana":"オオウラ","prefecture_code":40},"1121":{"zip_code":"8191121","prefecture":"福岡県","prefecture_kana":"フクオカケン","city":"糸島市","city_kana":"イトシマシ","town":"荻浦","town_kana":"オギノウラ","prefecture_code":40},"1124":{"zip_code":"8191124","prefecture":"福岡県","prefecture_kana":"フクオカケン","city":"糸島市","city_kana":"イトシマシ","town":"加布里","town_kana":"カフリ","prefecture_code":40},"1123":{"zip_code":"8191123","prefecture":"福岡県","prefecture_kana":"フクオカケン","city":"糸島市","city_kana":"イトシマシ","town":"神在","town_kana":"カミアリ","prefecture_code":40},"1155":{"zip_code":"8191155","prefecture":"福岡県","prefecture_kana":"フクオカケン","city":"糸島市","city_kana":"イトシマシ","town":"川付","town_kana":"カワツキ","prefecture_code":40},"1574":{"zip_code":"8191574","prefecture":"福岡県","prefecture_kana":"フクオカケン","city":"糸島市","city_kana":"イトシマシ","town":"川原","town_kana":"カワバル","prefecture_code":40},"1141":{"zip_code":"8191141","prefecture":"福岡県","prefecture_kana":"フクオカケン","city":"糸島市","city_kana":"イトシマシ","town":"蔵持","town_kana":"クラモチ","prefecture_code":40},"1563":{"zip_code":"8191563","prefecture":"福岡県","prefecture_kana":"フクオカケン","city":"糸島市","city_kana":"イトシマシ","town":"高来寺","town_kana":"コウライジ","prefecture_code":40},"1147":{"zip_code":"8191147","prefecture":"福岡県","prefecture_kana":"フクオカケン","city":"糸島市","city_kana":"イトシマシ","town":"香力","town_kana":"コウリキ","prefecture_code":40},"1106":{"zip_code":"8191106","prefecture":"福岡県","prefecture_kana":"フクオカケン","city":"糸島市","city_kana":"イトシマシ","town":"志登","town_kana":"シト","prefecture_code":40},"1131":{"zip_code":"8191131","prefecture":"福岡県","prefecture_kana":"フクオカケン","city":"糸島市","city_kana":"イトシマシ","town":"篠原","town_kana":"シノワラ","prefecture_code":40},"1129":{"zip_code":"8191129","prefecture":"福岡県","prefecture_kana":"フクオカケン","city":"糸島市","city_kana":"イトシマシ","town":"篠原西","town_kana":"シノワラニシ","prefecture_code":40},"1128":{"zip_code":"8191128","prefecture":"福岡県","prefecture_kana":"フクオカケン","city":"糸島市","city_kana":"イトシマシ","town":"篠原東","town_kana":"シノワラヒガシ","prefecture_code":40},"1301":{"zip_code":"8191301","prefecture":"福岡県","prefecture_kana":"フクオカケン","city":"糸島市","city_kana":"イトシマシ","town":"志摩井田原","town_kana":"シマイダハラ","prefecture_code":40},"1313":{"zip_code":"8191313","prefecture":"福岡県","prefecture_kana":"フクオカケン","city":"糸島市","city_kana":"イトシマシ","town":"志摩稲留","town_kana":"シマイナドメ","prefecture_code":40},"1315":{"zip_code":"8191315","prefecture":"福岡県","prefecture_kana":"フクオカケン","city":"糸島市","city_kana":"イトシマシ","town":"志摩稲葉","town_kana":"シマイナバ","prefecture_code":40},"1334":{"zip_code":"8191334","prefecture":"福岡県","prefecture_kana":"フクオカケン","city":"糸島市","city_kana":"イトシマシ","town":"志摩岐志","town_kana":"シマキシ","prefecture_code":40},"1331":{"zip_code":"8191331","prefecture":"福岡県","prefecture_kana":"フクオカケン","city":"糸島市","city_kana":"イトシマシ","town":"志摩久家","town_kana":"シマクガ","prefecture_code":40},"1335":{"zip_code":"8191335","prefecture":"福岡県","prefecture_kana":"フクオカケン","city":"糸島市","city_kana":"イトシマシ","town":"志摩芥屋","town_kana":"シマケヤ","prefecture_code":40},"1323":{"zip_code":"8191323","prefecture":"福岡県","prefecture_kana":"フクオカケン","city":"糸島市","city_kana":"イトシマシ","town":"志摩小金丸","town_kana":"シマコガネマル","prefecture_code":40},"1321":{"zip_code":"8191321","prefecture":"福岡県","prefecture_kana":"フクオカケン","city":"糸島市","city_kana":"イトシマシ","town":"志摩小富士","town_kana":"シマコフジ","prefecture_code":40},"1304":{"zip_code":"8191304","prefecture":"福岡県","prefecture_kana":"フクオカケン","city":"糸島市","city_kana":"イトシマシ","town":"志摩桜井","town_kana":"シマサクライ","prefecture_code":40},"1333":{"zip_code":"8191333","prefecture":"福岡県","prefecture_kana":"フクオカケン","city":"糸島市","city_kana":"イトシマシ","town":"志摩新町","town_kana":"シマシンマチ","prefecture_code":40},"1311":{"zip_code":"8191311","prefecture":"福岡県","prefecture_kana":"フクオカケン","city":"糸島市","city_kana":"イトシマシ","town":"志摩津和崎","town_kana":"シマツワザキ","prefecture_code":40},"1325":{"zip_code":"8191325","prefecture":"福岡県","prefecture_kana":"フクオカケン","city":"糸島市","city_kana":"イトシマシ","town":"志摩西貝塚","town_kana":"シマニシカイヅカ","prefecture_code":40},"1303":{"zip_code":"8191303","prefecture":"福岡県","prefecture_kana":"フクオカケン","city":"糸島市","city_kana":"イトシマシ","town":"志摩野北","town_kana":"シマノギタ","prefecture_code":40},"1312":{"zip_code":"8191312","prefecture":"福岡県","prefecture_kana":"フクオカケン","city":"糸島市","city_kana":"イトシマシ","town":"志摩初","town_kana":"シマハツ","prefecture_code":40},"1305":{"zip_code":"8191305","prefecture":"福岡県","prefecture_kana":"フクオカケン","city":"糸島市","city_kana":"イトシマシ","town":"志摩馬場","town_kana":"シマババ","prefecture_code":40},"1324":{"zip_code":"8191324","prefecture":"福岡県","prefecture_kana":"フクオカケン","city":"糸島市","city_kana":"イトシマシ","town":"志摩東貝塚","town_kana":"シマヒガシカイヅカ","prefecture_code":40},"1336":{"zip_code":"8191336","prefecture":"福岡県","prefecture_kana":"フクオカケン","city":"糸島市","city_kana":"イトシマシ","town":"志摩姫島","town_kana":"シマヒメシマ","prefecture_code":40},"1332":{"zip_code":"8191332","prefecture":"福岡県","prefecture_kana":"フクオカケン","city":"糸島市","city_kana":"イトシマシ","town":"志摩船越","town_kana":"シマフナコシ","prefecture_code":40},"1306":{"zip_code":"8191306","prefecture":"福岡県","prefecture_kana":"フクオカケン","city":"糸島市","city_kana":"イトシマシ","town":"志摩松隈","town_kana":"シママツグマ","prefecture_code":40},"1322":{"zip_code":"8191322","prefecture":"福岡県","prefecture_kana":"フクオカケン","city":"糸島市","city_kana":"イトシマシ","town":"志摩御床","town_kana":"シマミトコ","prefecture_code":40},"1314":{"zip_code":"8191314","prefecture":"福岡県","prefecture_kana":"フクオカケン","city":"糸島市","city_kana":"イトシマシ","town":"志摩師吉","town_kana":"シマモロヨシ","prefecture_code":40},"1302":{"zip_code":"8191302","prefecture":"福岡県","prefecture_kana":"フクオカケン","city":"糸島市","city_kana":"イトシマシ","town":"志摩吉田","town_kana":"シマヨシダ","prefecture_code":40},"1154":{"zip_code":"8191154","prefecture":"福岡県","prefecture_kana":"フクオカケン","city":"糸島市","city_kana":"イトシマシ","town":"白糸","town_kana":"シライト","prefecture_code":40},"1114":{"zip_code":"8191114","prefecture":"福岡県","prefecture_kana":"フクオカケン","city":"糸島市","city_kana":"イトシマシ","town":"新田","town_kana":"シンデン","prefecture_code":40},"1581":{"zip_code":"8191581","prefecture":"福岡県","prefecture_kana":"フクオカケン","city":"糸島市","city_kana":"イトシマシ","town":"瑞梅寺","town_kana":"ズイバイジ","prefecture_code":40},"1572":{"zip_code":"8191572","prefecture":"福岡県","prefecture_kana":"フクオカケン","city":"糸島市","city_kana":"イトシマシ","town":"末永","town_kana":"スエナガ","prefecture_code":40},"1156":{"zip_code":"8191156","prefecture":"福岡県","prefecture_kana":"フクオカケン","city":"糸島市","city_kana":"イトシマシ","town":"瀬戸","town_kana":"セト","prefecture_code":40},"1561":{"zip_code":"8191561","prefecture":"福岡県","prefecture_kana":"フクオカケン","city":"糸島市","city_kana":"イトシマシ","town":"曽根","town_kana":"ソネ","prefecture_code":40},"1564":{"zip_code":"8191564","prefecture":"福岡県","prefecture_kana":"フクオカケン","city":"糸島市","city_kana":"イトシマシ","town":"大門","town_kana":"ダイモン","prefecture_code":40},"1143":{"zip_code":"8191143","prefecture":"福岡県","prefecture_kana":"フクオカケン","city":"糸島市","city_kana":"イトシマシ","town":"高上","town_kana":"タカウエ","prefecture_code":40},"1571":{"zip_code":"8191571","prefecture":"福岡県","prefecture_kana":"フクオカケン","city":"糸島市","city_kana":"イトシマシ","town":"高祖","town_kana":"タカス","prefecture_code":40},"1102":{"zip_code":"8191102","prefecture":"福岡県","prefecture_kana":"フクオカケン","city":"糸島市","city_kana":"イトシマシ","town":"高田","town_kana":"タカタ","prefecture_code":40},"1134":{"zip_code":"8191134","prefecture":"福岡県","prefecture_kana":"フクオカケン","city":"糸島市","city_kana":"イトシマシ","town":"多久","town_kana":"タク","prefecture_code":40},"1125":{"zip_code":"8191125","prefecture":"福岡県","prefecture_kana":"フクオカケン","city":"糸島市","city_kana":"イトシマシ","town":"千早新田","town_kana":"チハヤシンデン","prefecture_code":40},"1111":{"zip_code":"8191111","prefecture":"福岡県","prefecture_kana":"フクオカケン","city":"糸島市","city_kana":"イトシマシ","town":"泊","town_kana":"トマリ","prefecture_code":40},"1133":{"zip_code":"8191133","prefecture":"福岡県","prefecture_kana":"フクオカケン","city":"糸島市","city_kana":"イトシマシ","town":"富","town_kana":"トミ","prefecture_code":40},"1153":{"zip_code":"8191153","prefecture":"福岡県","prefecture_kana":"フクオカケン","city":"糸島市","city_kana":"イトシマシ","town":"長野","town_kana":"ナガノ","prefecture_code":40},"1575":{"zip_code":"8191575","prefecture":"福岡県","prefecture_kana":"フクオカケン","city":"糸島市","city_kana":"イトシマシ","town":"西堂","town_kana":"ニシノドウ","prefecture_code":40},"1622":{"zip_code":"8191622","prefecture":"福岡県","prefecture_kana":"フクオカケン","city":"糸島市","city_kana":"イトシマシ","town":"二丈一貴山","town_kana":"ニジョウイキサン","prefecture_code":40},"1623":{"zip_code":"8191623","prefecture":"福岡県","prefecture_kana":"フクオカケン","city":"糸島市","city_kana":"イトシマシ","town":"二丈石崎","town_kana":"ニジョウイシザキ","prefecture_code":40},"1611":{"zip_code":"8191611","prefecture":"福岡県","prefecture_kana":"フクオカケン","city":"糸島市","city_kana":"イトシマシ","town":"二丈片山","town_kana":"ニジョウカタヤマ","prefecture_code":40},"1621":{"zip_code":"8191621","prefecture":"福岡県","prefecture_kana":"フクオカケン","city":"糸島市","city_kana":"イトシマシ","town":"二丈上深江","town_kana":"ニジョウカミフカエ","prefecture_code":40},"1642":{"zip_code":"8191642","prefecture":"福岡県","prefecture_kana":"フクオカケン","city":"糸島市","city_kana":"イトシマシ","town":"二丈鹿家","town_kana":"ニジョウシカカ","prefecture_code":40},"1616":{"zip_code":"8191616","prefecture":"福岡県","prefecture_kana":"フクオカケン","city":"糸島市","city_kana":"イトシマシ","town":"二丈武","town_kana":"ニジョウタケ","prefecture_code":40},"1615":{"zip_code":"8191615","prefecture":"福岡県","prefecture_kana":"フクオカケン","city":"糸島市","city_kana":"イトシマシ","town":"二丈田中","town_kana":"ニジョウタナカ","prefecture_code":40},"1625":{"zip_code":"8191625","prefecture":"福岡県","prefecture_kana":"フクオカケン","city":"糸島市","city_kana":"イトシマシ","town":"二丈長石","town_kana":"ニジョウナガイシ","prefecture_code":40},"1614":{"zip_code":"8191614","prefecture":"福岡県","prefecture_kana":"フクオカケン","city":"糸島市","city_kana":"イトシマシ","town":"二丈浜窪","town_kana":"ニジョウハマクボ","prefecture_code":40},"1626":{"zip_code":"8191626","prefecture":"福岡県","prefecture_kana":"フクオカケン","city":"糸島市","city_kana":"イトシマシ","town":"二丈波呂","town_kana":"ニジョウハロ","prefecture_code":40},"1601":{"zip_code":"8191601","prefecture":"福岡県","prefecture_kana":"フクオカケン","city":"糸島市","city_kana":"イトシマシ","town":"二丈深江","town_kana":"ニジョウフカエ","prefecture_code":40},"1631":{"zip_code":"8191631","prefecture":"福岡県","prefecture_kana":"フクオカケン","city":"糸島市","city_kana":"イトシマシ","town":"二丈福井","town_kana":"ニジョウフクイ","prefecture_code":40},"1612":{"zip_code":"8191612","prefecture":"福岡県","prefecture_kana":"フクオカケン","city":"糸島市","city_kana":"イトシマシ","town":"二丈松末下松末","town_kana":"ニジョウマスエシモマスエ","prefecture_code":40},"1613":{"zip_code":"8191613","prefecture":"福岡県","prefecture_kana":"フクオカケン","city":"糸島市","city_kana":"イトシマシ","town":"二丈松末","town_kana":"ニジョウマスエ","prefecture_code":40},"1627":{"zip_code":"8191627","prefecture":"福岡県","prefecture_kana":"フクオカケン","city":"糸島市","city_kana":"イトシマシ","town":"二丈松国","town_kana":"ニジョウマツクニ","prefecture_code":40},"1624":{"zip_code":"8191624","prefecture":"福岡県","prefecture_kana":"フクオカケン","city":"糸島市","city_kana":"イトシマシ","town":"二丈満吉","town_kana":"ニジョウミツヨシ","prefecture_code":40},"1641":{"zip_code":"8191641","prefecture":"福岡県","prefecture_kana":"フクオカケン","city":"糸島市","city_kana":"イトシマシ","town":"二丈吉井","town_kana":"ニジョウヨシイ","prefecture_code":40},"1104":{"zip_code":"8191104","prefecture":"福岡県","prefecture_kana":"フクオカケン","city":"糸島市","city_kana":"イトシマシ","town":"波多江","town_kana":"ハタエ","prefecture_code":40},"1107":{"zip_code":"8191107","prefecture":"福岡県","prefecture_kana":"フクオカケン","city":"糸島市","city_kana":"イトシマシ","town":"波多江駅北","town_kana":"ハタエエキキタ","prefecture_code":40},"1108":{"zip_code":"8191108","prefecture":"福岡県","prefecture_kana":"フクオカケン","city":"糸島市","city_kana":"イトシマシ","town":"波多江駅南","town_kana":"ハタエエキミナミ","prefecture_code":40},"1122":{"zip_code":"8191122","prefecture":"福岡県","prefecture_kana":"フクオカケン","city":"糸島市","city_kana":"イトシマシ","town":"東","town_kana":"ヒガシ","prefecture_code":40},"1151":{"zip_code":"8191151","prefecture":"福岡県","prefecture_kana":"フクオカケン","city":"糸島市","city_kana":"イトシマシ","town":"本","town_kana":"ホン","prefecture_code":40},"1113":{"zip_code":"8191113","prefecture":"福岡県","prefecture_kana":"フクオカケン","city":"糸島市","city_kana":"イトシマシ","town":"前原","town_kana":"マエバル","prefecture_code":40},"1138":{"zip_code":"8191138","prefecture":"福岡県","prefecture_kana":"フクオカケン","city":"糸島市","city_kana":"イトシマシ","town":"前原駅南","town_kana":"マエバルエキミナミ","prefecture_code":40},"1118":{"zip_code":"8191118","prefecture":"福岡県","prefecture_kana":"フクオカケン","city":"糸島市","city_kana":"イトシマシ","town":"前原北","town_kana":"マエバルキタ","prefecture_code":40},"1116":{"zip_code":"8191116","prefecture":"福岡県","prefecture_kana":"フクオカケン","city":"糸島市","city_kana":"イトシマシ","town":"前原中央","town_kana":"マエバルチュウオウ","prefecture_code":40},"1117":{"zip_code":"8191117","prefecture":"福岡県","prefecture_kana":"フクオカケン","city":"糸島市","city_kana":"イトシマシ","town":"前原西","town_kana":"マエバルニシ","prefecture_code":40},"1119":{"zip_code":"8191119","prefecture":"福岡県","prefecture_kana":"フクオカケン","city":"糸島市","city_kana":"イトシマシ","town":"前原東","town_kana":"マエバルヒガシ","prefecture_code":40},"1139":{"zip_code":"8191139","prefecture":"福岡県","prefecture_kana":"フクオカケン","city":"糸島市","city_kana":"イトシマシ","town":"前原南","town_kana":"マエバルミナミ","prefecture_code":40},"1583":{"zip_code":"8191583","prefecture":"福岡県","prefecture_kana":"フクオカケン","city":"糸島市","city_kana":"イトシマシ","town":"三雲","town_kana":"ミクモ","prefecture_code":40},"1146":{"zip_code":"8191146","prefecture":"福岡県","prefecture_kana":"フクオカケン","city":"糸島市","city_kana":"イトシマシ","town":"三坂","town_kana":"ミサカ","prefecture_code":40},"1136":{"zip_code":"8191136","prefecture":"福岡県","prefecture_kana":"フクオカケン","city":"糸島市","city_kana":"イトシマシ","town":"美咲が丘","town_kana":"ミサキガオカ","prefecture_code":40},"1137":{"zip_code":"8191137","prefecture":"福岡県","prefecture_kana":"フクオカケン","city":"糸島市","city_kana":"イトシマシ","town":"南風台","town_kana":"ミナカゼダイ","prefecture_code":40},"1142":{"zip_code":"8191142","prefecture":"福岡県","prefecture_kana":"フクオカケン","city":"糸島市","city_kana":"イトシマシ","town":"八島","town_kana":"ヤシマ","prefecture_code":40},"1144":{"zip_code":"8191144","prefecture":"福岡県","prefecture_kana":"フクオカケン","city":"糸島市","city_kana":"イトシマシ","town":"山北","town_kana":"ヤマギタ","prefecture_code":40},"1115":{"zip_code":"8191115","prefecture":"福岡県","prefecture_kana":"フクオカケン","city":"糸島市","city_kana":"イトシマシ","town":"油比","town_kana":"ユビ","prefecture_code":40},"1145":{"zip_code":"8191145","prefecture":"福岡県","prefecture_kana":"フクオカケン","city":"糸島市","city_kana":"イトシマシ","town":"雷山","town_kana":"ライザン","prefecture_code":40}}