{"0000":{"zip_code":"8200000","prefecture":"福岡県","prefecture_kana":"フクオカケン","city":"飯塚市","city_kana":"イイヅカシ","town":"","town_kana":"","prefecture_code":40},"0052":{"zip_code":"8200052","prefecture":"福岡県","prefecture_kana":"フクオカケン","city":"飯塚市","city_kana":"イイヅカシ","town":"相田","town_kana":"アイダ","prefecture_code":40},"0704":{"zip_code":"8200704","prefecture":"福岡県","prefecture_kana":"フクオカケン","city":"飯塚市","city_kana":"イイヅカシ","town":"阿恵","town_kana":"アエ","prefecture_code":40},"0106":{"zip_code":"8200106","prefecture":"福岡県","prefecture_kana":"フクオカケン","city":"飯塚市","city_kana":"イイヅカシ","town":"赤坂","town_kana":"アカサカ","prefecture_code":40},"0083":{"zip_code":"8200083","prefecture":"福岡県","prefecture_kana":"フクオカケン","city":"飯塚市","city_kana":"イイヅカシ","town":"秋松","town_kana":"アキマツ","prefecture_code":40},"0112":{"zip_code":"8200112","prefecture":"福岡県","prefecture_kana":"フクオカケン","city":"飯塚市","city_kana":"イイヅカシ","town":"有井","town_kana":"アリイ","prefecture_code":40},"0111":{"zip_code":"8200111","prefecture":"福岡県","prefecture_kana":"フクオカケン","city":"飯塚市","city_kana":"イイヅカシ","town":"有安","town_kana":"アリヤス","prefecture_code":40},"0041":{"zip_code":"8200041","prefecture":"福岡県","prefecture_kana":"フクオカケン","city":"飯塚市","city_kana":"イイヅカシ","town":"飯塚","town_kana":"イイヅカ","prefecture_code":40},"0054":{"zip_code":"8200054","prefecture":"福岡県","prefecture_kana":"フクオカケン","city":"飯塚市","city_kana":"イイヅカシ","town":"伊川","town_kana":"イカワ","prefecture_code":40},"0053":{"zip_code":"8200053","prefecture":"福岡県","prefecture_kana":"フクオカケン","city":"飯塚市","city_kana":"イイヅカシ","town":"伊岐須","town_kana":"イギス","prefecture_code":40},"0103":{"zip_code":"8200103","prefecture":"福岡県","prefecture_kana":"フクオカケン","city":"飯塚市","city_kana":"イイヅカシ","town":"入水","town_kana":"イリミズ","prefecture_code":40},"0706":{"zip_code":"8200706","prefecture":"福岡県","prefecture_kana":"フクオカケン","city":"飯塚市","city_kana":"イイヅカシ","town":"内野","town_kana":"ウチノ","prefecture_code":40},"0021":{"zip_code":"8200021","prefecture":"福岡県","prefecture_kana":"フクオカケン","city":"飯塚市","city_kana":"イイヅカシ","town":"潤野","town_kana":"ウルノ","prefecture_code":40},"0081":{"zip_code":"8200081","prefecture":"福岡県","prefecture_kana":"フクオカケン","city":"飯塚市","city_kana":"イイヅカシ","town":"枝国","town_kana":"エダクニ","prefecture_code":40},"0114":{"zip_code":"8200114","prefecture":"福岡県","prefecture_kana":"フクオカケン","city":"飯塚市","city_kana":"イイヅカシ","town":"大門","town_kana":"オオカド","prefecture_code":40},"0089":{"zip_code":"8200089","prefecture":"福岡県","prefecture_kana":"フクオカケン","city":"飯塚市","city_kana":"イイヅカシ","town":"小正","town_kana":"オバサ","prefecture_code":40},"1112":{"zip_code":"8201112","prefecture":"福岡県","prefecture_kana":"フクオカケン","city":"飯塚市","city_kana":"イイヅカシ","town":"鹿毛馬","town_kana":"カケノウマ","prefecture_code":40},"0068":{"zip_code":"8200068","prefecture":"福岡県","prefecture_kana":"フクオカケン","city":"飯塚市","city_kana":"イイヅカシ","town":"片島","town_kana":"カタシマ","prefecture_code":40},"0013":{"zip_code":"8200013","prefecture":"福岡県","prefecture_kana":"フクオカケン","city":"飯塚市","city_kana":"イイヅカシ","town":"上三緒","town_kana":"カミミオ","prefecture_code":40},"0011":{"zip_code":"8200011","prefecture":"福岡県","prefecture_kana":"フクオカケン","city":"飯塚市","city_kana":"イイヅカシ","town":"柏の森","town_kana":"カヤノモリ","prefecture_code":40},"0002":{"zip_code":"8200002","prefecture":"福岡県","prefecture_kana":"フクオカケン","city":"飯塚市","city_kana":"イイヅカシ","town":"川島","town_kana":"カワシマ","prefecture_code":40},"0067":{"zip_code":"8200067","prefecture":"福岡県","prefecture_kana":"フクオカケン","city":"飯塚市","city_kana":"イイヅカシ","town":"川津","town_kana":"カワヅ","prefecture_code":40},"0703":{"zip_code":"8200703","prefecture":"福岡県","prefecture_kana":"フクオカケン","city":"飯塚市","city_kana":"イイヅカシ","town":"北古賀","town_kana":"キタコガ","prefecture_code":40},"1114":{"zip_code":"8201114","prefecture":"福岡県","prefecture_kana":"フクオカケン","city":"飯塚市","city_kana":"イイヅカシ","town":"口原","town_kana":"クチノハラ","prefecture_code":40},"0078":{"zip_code":"8200078","prefecture":"福岡県","prefecture_kana":"フクオカケン","city":"飯塚市","city_kana":"イイヅカシ","town":"久保白","town_kana":"クボシロ","prefecture_code":40},"0707":{"zip_code":"8200707","prefecture":"福岡県","prefecture_kana":"フクオカケン","city":"飯塚市","city_kana":"イイヅカシ","town":"桑曲","town_kana":"クワマガリ","prefecture_code":40},"0049":{"zip_code":"8200049","prefecture":"福岡県","prefecture_kana":"フクオカケン","city":"飯塚市","city_kana":"イイヅカシ","town":"建花寺","town_kana":"ケンゲイジ","prefecture_code":40},"0066":{"zip_code":"8200066","prefecture":"福岡県","prefecture_kana":"フクオカケン","city":"飯塚市","city_kana":"イイヅカシ","town":"幸袋","town_kana":"コウブクロ","prefecture_code":40},"0015":{"zip_code":"8200015","prefecture":"福岡県","prefecture_kana":"フクオカケン","city":"飯塚市","city_kana":"イイヅカシ","town":"菰田","town_kana":"コモダ","prefecture_code":40},"0016":{"zip_code":"8200016","prefecture":"福岡県","prefecture_kana":"フクオカケン","city":"飯塚市","city_kana":"イイヅカシ","town":"菰田東","town_kana":"コモダヒガシ","prefecture_code":40},"0017":{"zip_code":"8200017","prefecture":"福岡県","prefecture_kana":"フクオカケン","city":"飯塚市","city_kana":"イイヅカシ","town":"菰田西","town_kana":"コモダニシ","prefecture_code":40},"1113":{"zip_code":"8201113","prefecture":"福岡県","prefecture_kana":"フクオカケン","city":"飯塚市","city_kana":"イイヅカシ","town":"佐與","town_kana":"サヨ","prefecture_code":40},"0012":{"zip_code":"8200012","prefecture":"福岡県","prefecture_kana":"フクオカケン","city":"飯塚市","city_kana":"イイヅカシ","town":"下三緒","town_kana":"シモミオ","prefecture_code":40},"0062":{"zip_code":"8200062","prefecture":"福岡県","prefecture_kana":"フクオカケン","city":"飯塚市","city_kana":"イイヅカシ","town":"目尾","town_kana":"シャカノオ","prefecture_code":40},"0087":{"zip_code":"8200087","prefecture":"福岡県","prefecture_kana":"フクオカケン","city":"飯塚市","city_kana":"イイヅカシ","town":"舎利蔵","town_kana":"シャリクラ","prefecture_code":40},"0051":{"zip_code":"8200051","prefecture":"福岡県","prefecture_kana":"フクオカケン","city":"飯塚市","city_kana":"イイヅカシ","town":"庄司","town_kana":"ショウシ","prefecture_code":40},"0113":{"zip_code":"8200113","prefecture":"福岡県","prefecture_kana":"フクオカケン","city":"飯塚市","city_kana":"イイヅカシ","town":"庄内元吉","town_kana":"ショウナイモトヨシ","prefecture_code":40},"0005":{"zip_code":"8200005","prefecture":"福岡県","prefecture_kana":"フクオカケン","city":"飯塚市","city_kana":"イイヅカシ","town":"新飯塚","town_kana":"シンイイヅカ","prefecture_code":40},"0004":{"zip_code":"8200004","prefecture":"福岡県","prefecture_kana":"フクオカケン","city":"飯塚市","city_kana":"イイヅカシ","town":"新立岩","town_kana":"シンタテイワ","prefecture_code":40},"1111":{"zip_code":"8201111","prefecture":"福岡県","prefecture_kana":"フクオカケン","city":"飯塚市","city_kana":"イイヅカシ","town":"勢田","town_kana":"セイタ","prefecture_code":40},"0046":{"zip_code":"8200046","prefecture":"福岡県","prefecture_kana":"フクオカケン","city":"飯塚市","city_kana":"イイヅカシ","town":"大日寺","town_kana":"ダイニチジ","prefecture_code":40},"0712":{"zip_code":"8200712","prefecture":"福岡県","prefecture_kana":"フクオカケン","city":"飯塚市","city_kana":"イイヅカシ","town":"大分","town_kana":"ダイブ","prefecture_code":40},"0104":{"zip_code":"8200104","prefecture":"福岡県","prefecture_kana":"フクオカケン","city":"飯塚市","city_kana":"イイヅカシ","town":"高倉","town_kana":"タカクラ","prefecture_code":40},"0079":{"zip_code":"8200079","prefecture":"福岡県","prefecture_kana":"フクオカケン","city":"飯塚市","city_kana":"イイヅカシ","town":"高田","town_kana":"タカタ","prefecture_code":40},"0116":{"zip_code":"8200116","prefecture":"福岡県","prefecture_kana":"フクオカケン","city":"飯塚市","city_kana":"イイヅカシ","town":"多田","town_kana":"タダ","prefecture_code":40},"0071":{"zip_code":"8200071","prefecture":"福岡県","prefecture_kana":"フクオカケン","city":"飯塚市","city_kana":"イイヅカシ","town":"忠隈","town_kana":"タダクマ","prefecture_code":40},"0003":{"zip_code":"8200003","prefecture":"福岡県","prefecture_kana":"フクオカケン","city":"飯塚市","city_kana":"イイヅカシ","town":"立岩","town_kana":"タテイワ","prefecture_code":40},"0076":{"zip_code":"8200076","prefecture":"福岡県","prefecture_kana":"フクオカケン","city":"飯塚市","city_kana":"イイヅカシ","town":"太郎丸","town_kana":"タロウマル","prefecture_code":40},"0705":{"zip_code":"8200705","prefecture":"福岡県","prefecture_kana":"フクオカケン","city":"飯塚市","city_kana":"イイヅカシ","town":"筑穂元吉","town_kana":"チクホモトヨシ","prefecture_code":40},"0064":{"zip_code":"8200064","prefecture":"福岡県","prefecture_kana":"フクオカケン","city":"飯塚市","city_kana":"イイヅカシ","town":"津島","town_kana":"ツシマ","prefecture_code":40},"0105":{"zip_code":"8200105","prefecture":"福岡県","prefecture_kana":"フクオカケン","city":"飯塚市","city_kana":"イイヅカシ","town":"筒野","town_kana":"ツツノ","prefecture_code":40},"0101":{"zip_code":"8200101","prefecture":"福岡県","prefecture_kana":"フクオカケン","city":"飯塚市","city_kana":"イイヅカシ","town":"綱分","town_kana":"ツナワキ","prefecture_code":40},"0084":{"zip_code":"8200084","prefecture":"福岡県","prefecture_kana":"フクオカケン","city":"飯塚市","city_kana":"イイヅカシ","town":"椿","town_kana":"ツバキ","prefecture_code":40},"0014":{"zip_code":"8200014","prefecture":"福岡県","prefecture_kana":"フクオカケン","city":"飯塚市","city_kana":"イイヅカシ","town":"鶴三緒","town_kana":"ツルミオ","prefecture_code":40},"0086":{"zip_code":"8200086","prefecture":"福岡県","prefecture_kana":"フクオカケン","city":"飯塚市","city_kana":"イイヅカシ","town":"津原","town_kana":"ツワラ","prefecture_code":40},"0075":{"zip_code":"8200075","prefecture":"福岡県","prefecture_kana":"フクオカケン","city":"飯塚市","city_kana":"イイヅカシ","town":"天道","town_kana":"テントウ","prefecture_code":40},"0033":{"zip_code":"8200033","prefecture":"福岡県","prefecture_kana":"フクオカケン","city":"飯塚市","city_kana":"イイヅカシ","town":"徳前","town_kana":"トクゼン","prefecture_code":40},"0713":{"zip_code":"8200713","prefecture":"福岡県","prefecture_kana":"フクオカケン","city":"飯塚市","city_kana":"イイヅカシ","town":"内住","town_kana":"ナイジュウ","prefecture_code":40},"0065":{"zip_code":"8200065","prefecture":"福岡県","prefecture_kana":"フクオカケン","city":"飯塚市","city_kana":"イイヅカシ","town":"中","town_kana":"ナカ","prefecture_code":40},"0701":{"zip_code":"8200701","prefecture":"福岡県","prefecture_kana":"フクオカケン","city":"飯塚市","city_kana":"イイヅカシ","town":"長尾","town_kana":"ナガオ","prefecture_code":40},"0001":{"zip_code":"8200001","prefecture":"福岡県","prefecture_kana":"フクオカケン","city":"飯塚市","city_kana":"イイヅカシ","town":"鯰田","town_kana":"ナマズタ","prefecture_code":40},"0031":{"zip_code":"8200031","prefecture":"福岡県","prefecture_kana":"フクオカケン","city":"飯塚市","city_kana":"イイヅカシ","town":"西徳前","town_kana":"ニシトクゼン","prefecture_code":40},"0043":{"zip_code":"8200043","prefecture":"福岡県","prefecture_kana":"フクオカケン","city":"飯塚市","city_kana":"イイヅカシ","town":"西町","town_kana":"ニシマチ","prefecture_code":40},"0115":{"zip_code":"8200115","prefecture":"福岡県","prefecture_kana":"フクオカケン","city":"飯塚市","city_kana":"イイヅカシ","town":"仁保","town_kana":"ニホ","prefecture_code":40},"0045":{"zip_code":"8200045","prefecture":"福岡県","prefecture_kana":"フクオカケン","city":"飯塚市","city_kana":"イイヅカシ","town":"花瀬","town_kana":"ハナセ","prefecture_code":40},"0032":{"zip_code":"8200032","prefecture":"福岡県","prefecture_kana":"フクオカケン","city":"飯塚市","city_kana":"イイヅカシ","town":"東徳前","town_kana":"ヒガシトクゼン","prefecture_code":40},"0702":{"zip_code":"8200702","prefecture":"福岡県","prefecture_kana":"フクオカケン","city":"飯塚市","city_kana":"イイヅカシ","town":"平塚","town_kana":"ヒラツカ","prefecture_code":40},"0073":{"zip_code":"8200073","prefecture":"福岡県","prefecture_kana":"フクオカケン","city":"飯塚市","city_kana":"イイヅカシ","town":"平恒","town_kana":"ヒラツネ","prefecture_code":40},"0088":{"zip_code":"8200088","prefecture":"福岡県","prefecture_kana":"フクオカケン","city":"飯塚市","city_kana":"イイヅカシ","town":"弁分","town_kana":"ベンブン","prefecture_code":40},"0070":{"zip_code":"8200070","prefecture":"福岡県","prefecture_kana":"フクオカケン","city":"飯塚市","city_kana":"イイヅカシ","town":"堀池","town_kana":"ホリイケ","prefecture_code":40},"0042":{"zip_code":"8200042","prefecture":"福岡県","prefecture_kana":"フクオカケン","city":"飯塚市","city_kana":"イイヅカシ","town":"本町","town_kana":"ホンマチ","prefecture_code":40},"0709":{"zip_code":"8200709","prefecture":"福岡県","prefecture_kana":"フクオカケン","city":"飯塚市","city_kana":"イイヅカシ","town":"馬敷","town_kana":"マシキ","prefecture_code":40},"0072":{"zip_code":"8200072","prefecture":"福岡県","prefecture_kana":"フクオカケン","city":"飯塚市","city_kana":"イイヅカシ","town":"南尾","town_kana":"ミナミオ","prefecture_code":40},"0069":{"zip_code":"8200069","prefecture":"福岡県","prefecture_kana":"フクオカケン","city":"飯塚市","city_kana":"イイヅカシ","town":"宮町","town_kana":"ミヤマチ","prefecture_code":40},"0022":{"zip_code":"8200022","prefecture":"福岡県","prefecture_kana":"フクオカケン","city":"飯塚市","city_kana":"イイヅカシ","town":"明星寺","town_kana":"ミョウジョウジ","prefecture_code":40},"0077":{"zip_code":"8200077","prefecture":"福岡県","prefecture_kana":"フクオカケン","city":"飯塚市","city_kana":"イイヅカシ","town":"椋本","town_kana":"ムクモト","prefecture_code":40},"0047":{"zip_code":"8200047","prefecture":"福岡県","prefecture_kana":"フクオカケン","city":"飯塚市","city_kana":"イイヅカシ","town":"八木山","town_kana":"ヤキヤマ","prefecture_code":40},"0085":{"zip_code":"8200085","prefecture":"福岡県","prefecture_kana":"フクオカケン","city":"飯塚市","city_kana":"イイヅカシ","town":"安恒","town_kana":"ヤスツネ","prefecture_code":40},"0063":{"zip_code":"8200063","prefecture":"福岡県","prefecture_kana":"フクオカケン","city":"飯塚市","city_kana":"イイヅカシ","town":"柳橋","town_kana":"ヤナギバシ","prefecture_code":40},"0711":{"zip_code":"8200711","prefecture":"福岡県","prefecture_kana":"フクオカケン","city":"飯塚市","city_kana":"イイヅカシ","town":"山口","town_kana":"ヤマグチ","prefecture_code":40},"0102":{"zip_code":"8200102","prefecture":"福岡県","prefecture_kana":"フクオカケン","city":"飯塚市","city_kana":"イイヅカシ","town":"山倉","town_kana":"ヤマクラ","prefecture_code":40},"0708":{"zip_code":"8200708","prefecture":"福岡県","prefecture_kana":"フクオカケン","city":"飯塚市","city_kana":"イイヅカシ","town":"弥山","town_kana":"ヤヤマ","prefecture_code":40},"0044":{"zip_code":"8200044","prefecture":"福岡県","prefecture_kana":"フクオカケン","city":"飯塚市","city_kana":"イイヅカシ","town":"横田","town_kana":"ヨコタ","prefecture_code":40},"0018":{"zip_code":"8200018","prefecture":"福岡県","prefecture_kana":"フクオカケン","city":"飯塚市","city_kana":"イイヅカシ","town":"芳雄町","town_kana":"ヨシオマチ","prefecture_code":40},"0040":{"zip_code":"8200040","prefecture":"福岡県","prefecture_kana":"フクオカケン","city":"飯塚市","city_kana":"イイヅカシ","town":"吉原町","town_kana":"ヨシハラマチ","prefecture_code":40},"0061":{"zip_code":"8200061","prefecture":"福岡県","prefecture_kana":"フクオカケン","city":"飯塚市","city_kana":"イイヅカシ","town":"吉北","town_kana":"ヨシキタ","prefecture_code":40},"0074":{"zip_code":"8200074","prefecture":"福岡県","prefecture_kana":"フクオカケン","city":"飯塚市","city_kana":"イイヅカシ","town":"楽市","town_kana":"ラクイチ","prefecture_code":40},"0048":{"zip_code":"8200048","prefecture":"福岡県","prefecture_kana":"フクオカケン","city":"飯塚市","city_kana":"イイヅカシ","town":"蓮台寺","town_kana":"レンダイジ","prefecture_code":40},"0082":{"zip_code":"8200082","prefecture":"福岡県","prefecture_kana":"フクオカケン","city":"飯塚市","city_kana":"イイヅカシ","town":"若菜","town_kana":"ワカナ","prefecture_code":40},"0200":{"zip_code":"8200200","prefecture":"福岡県","prefecture_kana":"フクオカケン","city":"嘉麻市","city_kana":"カマシ","town":"","town_kana":"","prefecture_code":40},"0331":{"zip_code":"8200331","prefecture":"福岡県","prefecture_kana":"フクオカケン","city":"嘉麻市","city_kana":"カマシ","town":"芥田","town_kana":"アクタダ","prefecture_code":40},"0501":{"zip_code":"8200501","prefecture":"福岡県","prefecture_kana":"フクオカケン","city":"嘉麻市","city_kana":"カマシ","town":"飯田","town_kana":"イイダ","prefecture_code":40},"0334":{"zip_code":"8200334","prefecture":"福岡県","prefecture_kana":"フクオカケン","city":"嘉麻市","city_kana":"カマシ","town":"泉河内","town_kana":"イズミコウチ","prefecture_code":40},"0204":{"zip_code":"8200204","prefecture":"福岡県","prefecture_kana":"フクオカケン","city":"嘉麻市","city_kana":"カマシ","town":"稲築才田","town_kana":"イナツキサイダ","prefecture_code":40},"0205":{"zip_code":"8200205","prefecture":"福岡県","prefecture_kana":"フクオカケン","city":"嘉麻市","city_kana":"カマシ","town":"岩崎","town_kana":"イワサキ","prefecture_code":40},"0301":{"zip_code":"8200301","prefecture":"福岡県","prefecture_kana":"フクオカケン","city":"嘉麻市","city_kana":"カマシ","town":"牛隈","town_kana":"ウシクマ","prefecture_code":40},"0321":{"zip_code":"8200321","prefecture":"福岡県","prefecture_kana":"フクオカケン","city":"嘉麻市","city_kana":"カマシ","town":"馬見","town_kana":"ウマミ","prefecture_code":40},"0201":{"zip_code":"8200201","prefecture":"福岡県","prefecture_kana":"フクオカケン","city":"嘉麻市","city_kana":"カマシ","town":"漆生","town_kana":"ウルシオ","prefecture_code":40},"0304":{"zip_code":"8200304","prefecture":"福岡県","prefecture_kana":"フクオカケン","city":"嘉麻市","city_kana":"カマシ","town":"大隈","town_kana":"オオクマ","prefecture_code":40},"0302":{"zip_code":"8200302","prefecture":"福岡県","prefecture_kana":"フクオカケン","city":"嘉麻市","city_kana":"カマシ","town":"大隈町","town_kana":"オオクママチ","prefecture_code":40},"0314":{"zip_code":"8200314","prefecture":"福岡県","prefecture_kana":"フクオカケン","city":"嘉麻市","city_kana":"カマシ","town":"小野谷","town_kana":"オノダニ","prefecture_code":40},"0336":{"zip_code":"8200336","prefecture":"福岡県","prefecture_kana":"フクオカケン","city":"嘉麻市","city_kana":"カマシ","town":"嘉穂才田","town_kana":"カホサイタ","prefecture_code":40},"0311":{"zip_code":"8200311","prefecture":"福岡県","prefecture_kana":"フクオカケン","city":"嘉麻市","city_kana":"カマシ","town":"上","town_kana":"カミ","prefecture_code":40},"0502":{"zip_code":"8200502","prefecture":"福岡県","prefecture_kana":"フクオカケン","city":"嘉麻市","city_kana":"カマシ","town":"上臼井","town_kana":"カミウスイ","prefecture_code":40},"0306":{"zip_code":"8200306","prefecture":"福岡県","prefecture_kana":"フクオカケン","city":"嘉麻市","city_kana":"カマシ","town":"上西郷","town_kana":"カミサイゴウ","prefecture_code":40},"0206":{"zip_code":"8200206","prefecture":"福岡県","prefecture_kana":"フクオカケン","city":"嘉麻市","city_kana":"カマシ","town":"鴨生","town_kana":"カモオ","prefecture_code":40},"0207":{"zip_code":"8200207","prefecture":"福岡県","prefecture_kana":"フクオカケン","city":"嘉麻市","city_kana":"カマシ","town":"口春","town_kana":"クチノハル","prefecture_code":40},"0337":{"zip_code":"8200337","prefecture":"福岡県","prefecture_kana":"フクオカケン","city":"嘉麻市","city_kana":"カマシ","town":"九郎原","town_kana":"クロウバル","prefecture_code":40},"0313":{"zip_code":"8200313","prefecture":"福岡県","prefecture_kana":"フクオカケン","city":"嘉麻市","city_kana":"カマシ","town":"桑野","town_kana":"クワノ","prefecture_code":40},"0503":{"zip_code":"8200503","prefecture":"福岡県","prefecture_kana":"フクオカケン","city":"嘉麻市","city_kana":"カマシ","town":"光代","town_kana":"コウダイ","prefecture_code":40},"0305":{"zip_code":"8200305","prefecture":"福岡県","prefecture_kana":"フクオカケン","city":"嘉麻市","city_kana":"カマシ","town":"貞月","town_kana":"サダツキ","prefecture_code":40},"0323":{"zip_code":"8200323","prefecture":"福岡県","prefecture_kana":"フクオカケン","city":"嘉麻市","city_kana":"カマシ","town":"椎木","town_kana":"シイノキ","prefecture_code":40},"0504":{"zip_code":"8200504","prefecture":"福岡県","prefecture_kana":"フクオカケン","city":"嘉麻市","city_kana":"カマシ","town":"下臼井","town_kana":"シモウスイ","prefecture_code":40},"0332":{"zip_code":"8200332","prefecture":"福岡県","prefecture_kana":"フクオカケン","city":"嘉麻市","city_kana":"カマシ","town":"千手","town_kana":"センズ","prefecture_code":40},"0333":{"zip_code":"8200333","prefecture":"福岡県","prefecture_kana":"フクオカケン","city":"嘉麻市","city_kana":"カマシ","town":"大力","town_kana":"ダイリキ","prefecture_code":40},"0303":{"zip_code":"8200303","prefecture":"福岡県","prefecture_kana":"フクオカケン","city":"嘉麻市","city_kana":"カマシ","town":"中益","town_kana":"ナカマス","prefecture_code":40},"0505":{"zip_code":"8200505","prefecture":"福岡県","prefecture_kana":"フクオカケン","city":"嘉麻市","city_kana":"カマシ","town":"西郷","town_kana":"ニシノゴウ","prefecture_code":40},"0335":{"zip_code":"8200335","prefecture":"福岡県","prefecture_kana":"フクオカケン","city":"嘉麻市","city_kana":"カマシ","town":"東畑","town_kana":"ヒガシハタ","prefecture_code":40},"0203":{"zip_code":"8200203","prefecture":"福岡県","prefecture_kana":"フクオカケン","city":"嘉麻市","city_kana":"カマシ","town":"平","town_kana":"ヒラ","prefecture_code":40},"0506":{"zip_code":"8200506","prefecture":"福岡県","prefecture_kana":"フクオカケン","city":"嘉麻市","city_kana":"カマシ","town":"平山","town_kana":"ヒラヤマ","prefecture_code":40},"0322":{"zip_code":"8200322","prefecture":"福岡県","prefecture_kana":"フクオカケン","city":"嘉麻市","city_kana":"カマシ","town":"屏","town_kana":"ヘイ","prefecture_code":40},"0312":{"zip_code":"8200312","prefecture":"福岡県","prefecture_kana":"フクオカケン","city":"嘉麻市","city_kana":"カマシ","town":"宮吉","town_kana":"ミヤヨシ","prefecture_code":40},"0202":{"zip_code":"8200202","prefecture":"福岡県","prefecture_kana":"フクオカケン","city":"嘉麻市","city_kana":"カマシ","town":"山野","town_kana":"ヤマノ","prefecture_code":40},"1100":{"zip_code":"8201100","prefecture":"福岡県","prefecture_kana":"フクオカケン","city":"鞍手郡小竹町","city_kana":"クラテグンコタケマチ","town":"","town_kana":"","prefecture_code":40},"1102":{"zip_code":"8201102","prefecture":"福岡県","prefecture_kana":"フクオカケン","city":"鞍手郡小竹町","city_kana":"クラテグンコタケマチ","town":"赤地","town_kana":"アカジ","prefecture_code":40},"1103":{"zip_code":"8201103","prefecture":"福岡県","prefecture_kana":"フクオカケン","city":"鞍手郡小竹町","city_kana":"クラテグンコタケマチ","town":"勝野","town_kana":"カツノ","prefecture_code":40},"1101":{"zip_code":"8201101","prefecture":"福岡県","prefecture_kana":"フクオカケン","city":"鞍手郡小竹町","city_kana":"クラテグンコタケマチ","town":"御徳","town_kana":"ゴトク","prefecture_code":40},"1105":{"zip_code":"8201105","prefecture":"福岡県","prefecture_kana":"フクオカケン","city":"鞍手郡小竹町","city_kana":"クラテグンコタケマチ","town":"新山崎","town_kana":"シンヤマザキ","prefecture_code":40},"1106":{"zip_code":"8201106","prefecture":"福岡県","prefecture_kana":"フクオカケン","city":"鞍手郡小竹町","city_kana":"クラテグンコタケマチ","town":"南良津","town_kana":"ナラヅ","prefecture_code":40},"1104":{"zip_code":"8201104","prefecture":"福岡県","prefecture_kana":"フクオカケン","city":"鞍手郡小竹町","city_kana":"クラテグンコタケマチ","town":"新多","town_kana":"ニイダ","prefecture_code":40},"0600":{"zip_code":"8200600","prefecture":"福岡県","prefecture_kana":"フクオカケン","city":"嘉穂郡桂川町","city_kana":"カホグンケイセンマチ","town":"","town_kana":"","prefecture_code":40},"0601":{"zip_code":"8200601","prefecture":"福岡県","prefecture_kana":"フクオカケン","city":"嘉穂郡桂川町","city_kana":"カホグンケイセンマチ","town":"内山田","town_kana":"ウチヤマダ","prefecture_code":40},"0602":{"zip_code":"8200602","prefecture":"福岡県","prefecture_kana":"フクオカケン","city":"嘉穂郡桂川町","city_kana":"カホグンケイセンマチ","town":"九郎丸","town_kana":"クロウマル","prefecture_code":40},"0603":{"zip_code":"8200603","prefecture":"福岡県","prefecture_kana":"フクオカケン","city":"嘉穂郡桂川町","city_kana":"カホグンケイセンマチ","town":"寿命","town_kana":"ジュメイ","prefecture_code":40},"0604":{"zip_code":"8200604","prefecture":"福岡県","prefecture_kana":"フクオカケン","city":"嘉穂郡桂川町","city_kana":"カホグンケイセンマチ","town":"瀬戸","town_kana":"セト","prefecture_code":40},"0605":{"zip_code":"8200605","prefecture":"福岡県","prefecture_kana":"フクオカケン","city":"嘉穂郡桂川町","city_kana":"カホグンケイセンマチ","town":"中屋","town_kana":"チュウヤ","prefecture_code":40},"0606":{"zip_code":"8200606","prefecture":"福岡県","prefecture_kana":"フクオカケン","city":"嘉穂郡桂川町","city_kana":"カホグンケイセンマチ","town":"土居","town_kana":"トイ","prefecture_code":40},"0607":{"zip_code":"8200607","prefecture":"福岡県","prefecture_kana":"フクオカケン","city":"嘉穂郡桂川町","city_kana":"カホグンケイセンマチ","town":"土師","town_kana":"ハジ","prefecture_code":40},"0608":{"zip_code":"8200608","prefecture":"福岡県","prefecture_kana":"フクオカケン","city":"嘉穂郡桂川町","city_kana":"カホグンケイセンマチ","town":"豆田","town_kana":"マメダ","prefecture_code":40},"0609":{"zip_code":"8200609","prefecture":"福岡県","prefecture_kana":"フクオカケン","city":"嘉穂郡桂川町","city_kana":"カホグンケイセンマチ","town":"吉隈","town_kana":"ヨシクマ","prefecture_code":40}}