{"0000":{"zip_code":"8220000","prefecture":"福岡県","prefecture_kana":"フクオカケン","city":"直方市","city_kana":"ノオガタシ","town":"","town_kana":"","prefecture_code":40},"0012":{"zip_code":"8220012","prefecture":"福岡県","prefecture_kana":"フクオカケン","city":"直方市","city_kana":"ノオガタシ","town":"赤地","town_kana":"アカジ","prefecture_code":40},"0031":{"zip_code":"8220031","prefecture":"福岡県","prefecture_kana":"フクオカケン","city":"直方市","city_kana":"ノオガタシ","town":"植木","town_kana":"ウエキ","prefecture_code":40},"0005":{"zip_code":"8220005","prefecture":"福岡県","prefecture_kana":"フクオカケン","city":"直方市","city_kana":"ノオガタシ","town":"永満寺","town_kana":"エイマンジ","prefecture_code":40},"0006":{"zip_code":"8220006","prefecture":"福岡県","prefecture_kana":"フクオカケン","city":"直方市","city_kana":"ノオガタシ","town":"上境","town_kana":"カミザカイ","prefecture_code":40},"0033":{"zip_code":"8220033","prefecture":"福岡県","prefecture_kana":"フクオカケン","city":"直方市","city_kana":"ノオガタシ","town":"上新入","town_kana":"カミシンニュウ","prefecture_code":40},"0003":{"zip_code":"8220003","prefecture":"福岡県","prefecture_kana":"フクオカケン","city":"直方市","city_kana":"ノオガタシ","town":"上頓野","town_kana":"カミトンノ","prefecture_code":40},"0001":{"zip_code":"8220001","prefecture":"福岡県","prefecture_kana":"フクオカケン","city":"直方市","city_kana":"ノオガタシ","town":"感田","town_kana":"ガンダ","prefecture_code":40},"0007":{"zip_code":"8220007","prefecture":"福岡県","prefecture_kana":"フクオカケン","city":"直方市","city_kana":"ノオガタシ","town":"下境","town_kana":"シモザカイ","prefecture_code":40},"0032":{"zip_code":"8220032","prefecture":"福岡県","prefecture_kana":"フクオカケン","city":"直方市","city_kana":"ノオガタシ","town":"下新入","town_kana":"シモシンニュウ","prefecture_code":40},"0023":{"zip_code":"8220023","prefecture":"福岡県","prefecture_kana":"フクオカケン","city":"直方市","city_kana":"ノオガタシ","town":"神正町","town_kana":"シンセイマチ","prefecture_code":40},"0021":{"zip_code":"8220021","prefecture":"福岡県","prefecture_kana":"フクオカケン","city":"直方市","city_kana":"ノオガタシ","town":"新知町","town_kana":"シンチマチ","prefecture_code":40},"0015":{"zip_code":"8220015","prefecture":"福岡県","prefecture_kana":"フクオカケン","city":"直方市","city_kana":"ノオガタシ","town":"新町","town_kana":"シンマチ","prefecture_code":40},"0024":{"zip_code":"8220024","prefecture":"福岡県","prefecture_kana":"フクオカケン","city":"直方市","city_kana":"ノオガタシ","town":"須崎町","town_kana":"スサキマチ","prefecture_code":40},"0022":{"zip_code":"8220022","prefecture":"福岡県","prefecture_kana":"フクオカケン","city":"直方市","city_kana":"ノオガタシ","town":"知古","town_kana":"チコ","prefecture_code":40},"0026":{"zip_code":"8220026","prefecture":"福岡県","prefecture_kana":"フクオカケン","city":"直方市","city_kana":"ノオガタシ","town":"津田町","town_kana":"ツダマチ","prefecture_code":40},"0017":{"zip_code":"8220017","prefecture":"福岡県","prefecture_kana":"フクオカケン","city":"直方市","city_kana":"ノオガタシ","town":"殿町","town_kana":"トノマチ","prefecture_code":40},"0002":{"zip_code":"8220002","prefecture":"福岡県","prefecture_kana":"フクオカケン","city":"直方市","city_kana":"ノオガタシ","town":"頓野","town_kana":"トンノ","prefecture_code":40},"0011":{"zip_code":"8220011","prefecture":"福岡県","prefecture_kana":"フクオカケン","city":"直方市","city_kana":"ノオガタシ","town":"中泉","town_kana":"ナカイズミ","prefecture_code":40},"0016":{"zip_code":"8220016","prefecture":"福岡県","prefecture_kana":"フクオカケン","city":"直方市","city_kana":"ノオガタシ","town":"直方","town_kana":"ノオガタ","prefecture_code":40},"0004":{"zip_code":"8220004","prefecture":"福岡県","prefecture_kana":"フクオカケン","city":"直方市","city_kana":"ノオガタシ","town":"畑","town_kana":"ハタ","prefecture_code":40},"0025":{"zip_code":"8220025","prefecture":"福岡県","prefecture_kana":"フクオカケン","city":"直方市","city_kana":"ノオガタシ","town":"日吉町","town_kana":"ヒヨシマチ","prefecture_code":40},"0027":{"zip_code":"8220027","prefecture":"福岡県","prefecture_kana":"フクオカケン","city":"直方市","city_kana":"ノオガタシ","town":"古町","town_kana":"フルマチ","prefecture_code":40},"0014":{"zip_code":"8220014","prefecture":"福岡県","prefecture_kana":"フクオカケン","city":"直方市","city_kana":"ノオガタシ","town":"丸山町","town_kana":"マルヤママチ","prefecture_code":40},"0013":{"zip_code":"8220013","prefecture":"福岡県","prefecture_kana":"フクオカケン","city":"直方市","city_kana":"ノオガタシ","town":"溝堀","town_kana":"ミゾホリ","prefecture_code":40},"0034":{"zip_code":"8220034","prefecture":"福岡県","prefecture_kana":"フクオカケン","city":"直方市","city_kana":"ノオガタシ","town":"山部","town_kana":"ヤマベ","prefecture_code":40},"0008":{"zip_code":"8220008","prefecture":"福岡県","prefecture_kana":"フクオカケン","city":"直方市","city_kana":"ノオガタシ","town":"湯野原","town_kana":"ユノハラ","prefecture_code":40},"0144":{"zip_code":"8220144","prefecture":"福岡県","prefecture_kana":"フクオカケン","city":"宮若市","city_kana":"ミヤワカシ","town":"稲光","town_kana":"イナミツ","prefecture_code":40},"0134":{"zip_code":"8220134","prefecture":"福岡県","prefecture_kana":"フクオカケン","city":"宮若市","city_kana":"ミヤワカシ","town":"犬鳴","town_kana":"イヌナキ","prefecture_code":40},"0131":{"zip_code":"8220131","prefecture":"福岡県","prefecture_kana":"フクオカケン","city":"宮若市","city_kana":"ミヤワカシ","town":"乙野","town_kana":"オトノ","prefecture_code":40},"0111":{"zip_code":"8220111","prefecture":"福岡県","prefecture_kana":"フクオカケン","city":"宮若市","city_kana":"ミヤワカシ","town":"金丸","town_kana":"カナマル","prefecture_code":40},"0113":{"zip_code":"8220113","prefecture":"福岡県","prefecture_kana":"フクオカケン","city":"宮若市","city_kana":"ミヤワカシ","town":"金生","town_kana":"カノウ","prefecture_code":40},"0146":{"zip_code":"8220146","prefecture":"福岡県","prefecture_kana":"フクオカケン","city":"宮若市","city_kana":"ミヤワカシ","town":"黒丸","town_kana":"クロマル","prefecture_code":40},"0132":{"zip_code":"8220132","prefecture":"福岡県","prefecture_kana":"フクオカケン","city":"宮若市","city_kana":"ミヤワカシ","town":"小伏","town_kana":"コブシ","prefecture_code":40},"0123":{"zip_code":"8220123","prefecture":"福岡県","prefecture_kana":"フクオカケン","city":"宮若市","city_kana":"ミヤワカシ","town":"三ケ畑","town_kana":"サンガハタ","prefecture_code":40},"0122":{"zip_code":"8220122","prefecture":"福岡県","prefecture_kana":"フクオカケン","city":"宮若市","city_kana":"ミヤワカシ","town":"下","town_kana":"シモ","prefecture_code":40},"0141":{"zip_code":"8220141","prefecture":"福岡県","prefecture_kana":"フクオカケン","city":"宮若市","city_kana":"ミヤワカシ","town":"平","town_kana":"タイラ","prefecture_code":40},"0143":{"zip_code":"8220143","prefecture":"福岡県","prefecture_kana":"フクオカケン","city":"宮若市","city_kana":"ミヤワカシ","town":"高野","town_kana":"タカノ","prefecture_code":40},"0142":{"zip_code":"8220142","prefecture":"福岡県","prefecture_kana":"フクオカケン","city":"宮若市","city_kana":"ミヤワカシ","town":"竹原","town_kana":"タケハラ","prefecture_code":40},"0152":{"zip_code":"8220152","prefecture":"福岡県","prefecture_kana":"フクオカケン","city":"宮若市","city_kana":"ミヤワカシ","town":"沼口","town_kana":"ヌマグチ","prefecture_code":40},"0112":{"zip_code":"8220112","prefecture":"福岡県","prefecture_kana":"フクオカケン","city":"宮若市","city_kana":"ミヤワカシ","town":"原田","town_kana":"ハラダ","prefecture_code":40},"0101":{"zip_code":"8220101","prefecture":"福岡県","prefecture_kana":"フクオカケン","city":"宮若市","city_kana":"ミヤワカシ","town":"福丸","town_kana":"フクマル","prefecture_code":40},"0124":{"zip_code":"8220124","prefecture":"福岡県","prefecture_kana":"フクオカケン","city":"宮若市","city_kana":"ミヤワカシ","town":"縁山畑","town_kana":"ヘリヤマハタ","prefecture_code":40},"0151":{"zip_code":"8220151","prefecture":"福岡県","prefecture_kana":"フクオカケン","city":"宮若市","city_kana":"ミヤワカシ","town":"水原","town_kana":"ミズハラ","prefecture_code":40},"0145":{"zip_code":"8220145","prefecture":"福岡県","prefecture_kana":"フクオカケン","city":"宮若市","city_kana":"ミヤワカシ","town":"宮永","town_kana":"ミヤナガ","prefecture_code":40},"0153":{"zip_code":"8220153","prefecture":"福岡県","prefecture_kana":"フクオカケン","city":"宮若市","city_kana":"ミヤワカシ","town":"山口","town_kana":"ヤマグチ","prefecture_code":40},"0121":{"zip_code":"8220121","prefecture":"福岡県","prefecture_kana":"フクオカケン","city":"宮若市","city_kana":"ミヤワカシ","town":"湯原","town_kana":"ユバル","prefecture_code":40},"0133":{"zip_code":"8220133","prefecture":"福岡県","prefecture_kana":"フクオカケン","city":"宮若市","city_kana":"ミヤワカシ","town":"脇田","town_kana":"ワキタ","prefecture_code":40},"1400":{"zip_code":"8221400","prefecture":"福岡県","prefecture_kana":"フクオカケン","city":"田川郡香春町","city_kana":"タガワグンカワラマチ","town":"","town_kana":"","prefecture_code":40},"1402":{"zip_code":"8221402","prefecture":"福岡県","prefecture_kana":"フクオカケン","city":"田川郡香春町","city_kana":"タガワグンカワラマチ","town":"鏡山","town_kana":"カガミヤマ","prefecture_code":40},"1404":{"zip_code":"8221404","prefecture":"福岡県","prefecture_kana":"フクオカケン","city":"田川郡香春町","city_kana":"タガワグンカワラマチ","town":"柿下","town_kana":"カキシタ","prefecture_code":40},"1406":{"zip_code":"8221406","prefecture":"福岡県","prefecture_kana":"フクオカケン","city":"田川郡香春町","city_kana":"タガワグンカワラマチ","town":"香春","town_kana":"カワラ","prefecture_code":40},"1401":{"zip_code":"8221401","prefecture":"福岡県","prefecture_kana":"フクオカケン","city":"田川郡香春町","city_kana":"タガワグンカワラマチ","town":"採銅所","town_kana":"サイドウショ","prefecture_code":40},"1403":{"zip_code":"8221403","prefecture":"福岡県","prefecture_kana":"フクオカケン","city":"田川郡香春町","city_kana":"タガワグンカワラマチ","town":"高野","town_kana":"タカノ","prefecture_code":40},"1405":{"zip_code":"8221405","prefecture":"福岡県","prefecture_kana":"フクオカケン","city":"田川郡香春町","city_kana":"タガワグンカワラマチ","town":"中津原","town_kana":"ナカツバル","prefecture_code":40},"1300":{"zip_code":"8221300","prefecture":"福岡県","prefecture_kana":"フクオカケン","city":"田川郡糸田町","city_kana":"タガワグンイトダマチ","town":"","town_kana":"","prefecture_code":40},"1324":{"zip_code":"8221324","prefecture":"福岡県","prefecture_kana":"フクオカケン","city":"田川郡糸田町","city_kana":"タガワグンイトダマチ","town":"旭ケ丘","town_kana":"アサヒガオカ","prefecture_code":40},"1313":{"zip_code":"8221313","prefecture":"福岡県","prefecture_kana":"フクオカケン","city":"田川郡糸田町","city_kana":"タガワグンイトダマチ","town":"打越","town_kana":"ウチコシ","prefecture_code":40},"1302":{"zip_code":"8221302","prefecture":"福岡県","prefecture_kana":"フクオカケン","city":"田川郡糸田町","city_kana":"タガワグンイトダマチ","town":"大熊","town_kana":"オオクマ","prefecture_code":40},"1316":{"zip_code":"8221316","prefecture":"福岡県","prefecture_kana":"フクオカケン","city":"田川郡糸田町","city_kana":"タガワグンイトダマチ","town":"上糸田","town_kana":"カミイトダ","prefecture_code":40},"1311":{"zip_code":"8221311","prefecture":"福岡県","prefecture_kana":"フクオカケン","city":"田川郡糸田町","city_kana":"タガワグンイトダマチ","town":"北区","town_kana":"キタク","prefecture_code":40},"1306":{"zip_code":"8221306","prefecture":"福岡県","prefecture_kana":"フクオカケン","city":"田川郡糸田町","city_kana":"タガワグンイトダマチ","town":"貴船","town_kana":"キフネ","prefecture_code":40},"1322":{"zip_code":"8221322","prefecture":"福岡県","prefecture_kana":"フクオカケン","city":"田川郡糸田町","city_kana":"タガワグンイトダマチ","town":"西部","town_kana":"サイブ","prefecture_code":40},"1312":{"zip_code":"8221312","prefecture":"福岡県","prefecture_kana":"フクオカケン","city":"田川郡糸田町","city_kana":"タガワグンイトダマチ","town":"下糸田","town_kana":"シモイトダ","prefecture_code":40},"1304":{"zip_code":"8221304","prefecture":"福岡県","prefecture_kana":"フクオカケン","city":"田川郡糸田町","city_kana":"タガワグンイトダマチ","town":"自由ケ丘","town_kana":"ジユウガオカ","prefecture_code":40},"1323":{"zip_code":"8221323","prefecture":"福岡県","prefecture_kana":"フクオカケン","city":"田川郡糸田町","city_kana":"タガワグンイトダマチ","town":"真岡","town_kana":"シンオカ","prefecture_code":40},"1314":{"zip_code":"8221314","prefecture":"福岡県","prefecture_kana":"フクオカケン","city":"田川郡糸田町","city_kana":"タガワグンイトダマチ","town":"中糸田","town_kana":"ナカイトダ","prefecture_code":40},"1326":{"zip_code":"8221326","prefecture":"福岡県","prefecture_kana":"フクオカケン","city":"田川郡糸田町","city_kana":"タガワグンイトダマチ","town":"鼡ケ池","town_kana":"ネズガイケ","prefecture_code":40},"1318":{"zip_code":"8221318","prefecture":"福岡県","prefecture_kana":"フクオカケン","city":"田川郡糸田町","city_kana":"タガワグンイトダマチ","town":"原","town_kana":"ハル","prefecture_code":40},"1301":{"zip_code":"8221301","prefecture":"福岡県","prefecture_kana":"フクオカケン","city":"田川郡糸田町","city_kana":"タガワグンイトダマチ","town":"堀川","town_kana":"ホリカワ","prefecture_code":40},"1325":{"zip_code":"8221325","prefecture":"福岡県","prefecture_kana":"フクオカケン","city":"田川郡糸田町","city_kana":"タガワグンイトダマチ","town":"南糸田","town_kana":"ミナミイトダ","prefecture_code":40},"1317":{"zip_code":"8221317","prefecture":"福岡県","prefecture_kana":"フクオカケン","city":"田川郡糸田町","city_kana":"タガワグンイトダマチ","town":"宮川一","town_kana":"ミヤガワ1","prefecture_code":40},"1315":{"zip_code":"8221315","prefecture":"福岡県","prefecture_kana":"フクオカケン","city":"田川郡糸田町","city_kana":"タガワグンイトダマチ","town":"宮川二","town_kana":"ミヤガワ2","prefecture_code":40},"1321":{"zip_code":"8221321","prefecture":"福岡県","prefecture_kana":"フクオカケン","city":"田川郡糸田町","city_kana":"タガワグンイトダマチ","town":"宮谷","town_kana":"ミヤタニ","prefecture_code":40},"1307":{"zip_code":"8221307","prefecture":"福岡県","prefecture_kana":"フクオカケン","city":"田川郡糸田町","city_kana":"タガワグンイトダマチ","town":"宮床","town_kana":"ミヤトコ","prefecture_code":40},"1305":{"zip_code":"8221305","prefecture":"福岡県","prefecture_kana":"フクオカケン","city":"田川郡糸田町","city_kana":"タガワグンイトダマチ","town":"宮床団地","town_kana":"ミヤトコダンチ","prefecture_code":40},"1303":{"zip_code":"8221303","prefecture":"福岡県","prefecture_kana":"フクオカケン","city":"田川郡糸田町","city_kana":"タガワグンイトダマチ","town":"桃山","town_kana":"モモヤマ","prefecture_code":40},"1200":{"zip_code":"8221200","prefecture":"福岡県","prefecture_kana":"フクオカケン","city":"田川郡福智町","city_kana":"タガワグンフクチマチ","town":"","town_kana":"","prefecture_code":40},"1101":{"zip_code":"8221101","prefecture":"福岡県","prefecture_kana":"フクオカケン","city":"田川郡福智町","city_kana":"タガワグンフクチマチ","town":"赤池","town_kana":"アカイケ","prefecture_code":40},"1102":{"zip_code":"8221102","prefecture":"福岡県","prefecture_kana":"フクオカケン","city":"田川郡福智町","city_kana":"タガワグンフクチマチ","town":"上野","town_kana":"アガノ","prefecture_code":40},"1211":{"zip_code":"8221211","prefecture":"福岡県","prefecture_kana":"フクオカケン","city":"田川郡福智町","city_kana":"タガワグンフクチマチ","town":"伊方","town_kana":"イカタ","prefecture_code":40},"1103":{"zip_code":"8221103","prefecture":"福岡県","prefecture_kana":"フクオカケン","city":"田川郡福智町","city_kana":"タガワグンフクチマチ","town":"市場","town_kana":"イチバ","prefecture_code":40},"1201":{"zip_code":"8221201","prefecture":"福岡県","prefecture_kana":"フクオカケン","city":"田川郡福智町","city_kana":"タガワグンフクチマチ","town":"金田","town_kana":"カナダ","prefecture_code":40},"1202":{"zip_code":"8221202","prefecture":"福岡県","prefecture_kana":"フクオカケン","city":"田川郡福智町","city_kana":"タガワグンフクチマチ","town":"神崎","town_kana":"コウザキ","prefecture_code":40},"1212":{"zip_code":"8221212","prefecture":"福岡県","prefecture_kana":"フクオカケン","city":"田川郡福智町","city_kana":"タガワグンフクチマチ","town":"弁城","town_kana":"ベンジョウ","prefecture_code":40}}