{"0000":{"zip_code":"8240000","prefecture":"福岡県","prefecture_kana":"フクオカケン","city":"行橋市","city_kana":"ユクハシシ","town":"以下に掲載がない場合","town_kana":"イカニケイサイガナイバアイ","prefecture_code":40},"0044":{"zip_code":"8240044","prefecture":"福岡県","prefecture_kana":"フクオカケン","city":"行橋市","city_kana":"ユクハシシ","town":"天生田","town_kana":"アモウダ","prefecture_code":40},"0034":{"zip_code":"8240034","prefecture":"福岡県","prefecture_kana":"フクオカケン","city":"行橋市","city_kana":"ユクハシシ","town":"泉中央","town_kana":"イズミチュウオウ","prefecture_code":40},"0022":{"zip_code":"8240022","prefecture":"福岡県","prefecture_kana":"フクオカケン","city":"行橋市","city_kana":"ユクハシシ","town":"稲童","town_kana":"イナドウ","prefecture_code":40},"0018":{"zip_code":"8240018","prefecture":"福岡県","prefecture_kana":"フクオカケン","city":"行橋市","city_kana":"ユクハシシ","town":"今井","town_kana":"イマイ","prefecture_code":40},"0045":{"zip_code":"8240045","prefecture":"福岡県","prefecture_kana":"フクオカケン","city":"行橋市","city_kana":"ユクハシシ","town":"大谷","town_kana":"オオタニ","prefecture_code":40},"0041":{"zip_code":"8240041","prefecture":"福岡県","prefecture_kana":"フクオカケン","city":"行橋市","city_kana":"ユクハシシ","town":"大野井","town_kana":"オオノイ","prefecture_code":40},"0003":{"zip_code":"8240003","prefecture":"福岡県","prefecture_kana":"フクオカケン","city":"行橋市","city_kana":"ユクハシシ","town":"大橋","town_kana":"オオハシ","prefecture_code":40},"0058":{"zip_code":"8240058","prefecture":"福岡県","prefecture_kana":"フクオカケン","city":"行橋市","city_kana":"ユクハシシ","town":"長木","town_kana":"オサギ","prefecture_code":40},"0004":{"zip_code":"8240004","prefecture":"福岡県","prefecture_kana":"フクオカケン","city":"行橋市","city_kana":"ユクハシシ","town":"金屋","town_kana":"カナヤ","prefecture_code":40},"0052":{"zip_code":"8240052","prefecture":"福岡県","prefecture_kana":"フクオカケン","city":"行橋市","city_kana":"ユクハシシ","town":"上検地","town_kana":"カミケンジ","prefecture_code":40},"0064":{"zip_code":"8240064","prefecture":"福岡県","prefecture_kana":"フクオカケン","city":"行橋市","city_kana":"ユクハシシ","town":"上津熊","town_kana":"カミヅクマ","prefecture_code":40},"0055":{"zip_code":"8240055","prefecture":"福岡県","prefecture_kana":"フクオカケン","city":"行橋市","city_kana":"ユクハシシ","town":"上稗田","town_kana":"カミヒエダ","prefecture_code":40},"0033":{"zip_code":"8240033","prefecture":"福岡県","prefecture_kana":"フクオカケン","city":"行橋市","city_kana":"ユクハシシ","town":"北泉","town_kana":"キタイズミ","prefecture_code":40},"0001":{"zip_code":"8240001","prefecture":"福岡県","prefecture_kana":"フクオカケン","city":"行橋市","city_kana":"ユクハシシ","town":"行事","town_kana":"ギョウジ","prefecture_code":40},"0061":{"zip_code":"8240061","prefecture":"福岡県","prefecture_kana":"フクオカケン","city":"行橋市","city_kana":"ユクハシシ","town":"草野","town_kana":"クサノ","prefecture_code":40},"0013":{"zip_code":"8240013","prefecture":"福岡県","prefecture_kana":"フクオカケン","city":"行橋市","city_kana":"ユクハシシ","town":"沓尾","town_kana":"クツオ","prefecture_code":40},"0051":{"zip_code":"8240051","prefecture":"福岡県","prefecture_kana":"フクオカケン","city":"行橋市","city_kana":"ユクハシシ","town":"下検地","town_kana":"シモケンジ","prefecture_code":40},"0076":{"zip_code":"8240076","prefecture":"福岡県","prefecture_kana":"フクオカケン","city":"行橋市","city_kana":"ユクハシシ","town":"下崎","town_kana":"シモサキ","prefecture_code":40},"0062":{"zip_code":"8240062","prefecture":"福岡県","prefecture_kana":"フクオカケン","city":"行橋市","city_kana":"ユクハシシ","town":"下津熊","town_kana":"シモヅクマ","prefecture_code":40},"0054":{"zip_code":"8240054","prefecture":"福岡県","prefecture_kana":"フクオカケン","city":"行橋市","city_kana":"ユクハシシ","town":"下稗田","town_kana":"シモヒエダ","prefecture_code":40},"0007":{"zip_code":"8240007","prefecture":"福岡県","prefecture_kana":"フクオカケン","city":"行橋市","city_kana":"ユクハシシ","town":"神田町","town_kana":"ジンデンマチ","prefecture_code":40},"0072":{"zip_code":"8240072","prefecture":"福岡県","prefecture_kana":"フクオカケン","city":"行橋市","city_kana":"ユクハシシ","town":"須磨園","town_kana":"スマゾノ","prefecture_code":40},"0078":{"zip_code":"8240078","prefecture":"福岡県","prefecture_kana":"フクオカケン","city":"行橋市","city_kana":"ユクハシシ","town":"高来","town_kana":"タカク","prefecture_code":40},"0027":{"zip_code":"8240027","prefecture":"福岡県","prefecture_kana":"フクオカケン","city":"行橋市","city_kana":"ユクハシシ","town":"高瀬","town_kana":"タカセ","prefecture_code":40},"0048":{"zip_code":"8240048","prefecture":"福岡県","prefecture_kana":"フクオカケン","city":"行橋市","city_kana":"ユクハシシ","town":"宝山","town_kana":"タカラヤマ","prefecture_code":40},"0005":{"zip_code":"8240005","prefecture":"福岡県","prefecture_kana":"フクオカケン","city":"行橋市","city_kana":"ユクハシシ","town":"中央","town_kana":"チュウオウ","prefecture_code":40},"0065":{"zip_code":"8240065","prefecture":"福岡県","prefecture_kana":"フクオカケン","city":"行橋市","city_kana":"ユクハシシ","town":"長音寺","town_kana":"チョウオンジ","prefecture_code":40},"0028":{"zip_code":"8240028","prefecture":"福岡県","prefecture_kana":"フクオカケン","city":"行橋市","city_kana":"ユクハシシ","town":"辻垣","town_kana":"ツジカキ","prefecture_code":40},"0047":{"zip_code":"8240047","prefecture":"福岡県","prefecture_kana":"フクオカケン","city":"行橋市","city_kana":"ユクハシシ","town":"津積","town_kana":"ツツミ","prefecture_code":40},"0074":{"zip_code":"8240074","prefecture":"福岡県","prefecture_kana":"フクオカケン","city":"行橋市","city_kana":"ユクハシシ","town":"常松","town_kana":"ツネマツ","prefecture_code":40},"0016":{"zip_code":"8240016","prefecture":"福岡県","prefecture_kana":"フクオカケン","city":"行橋市","city_kana":"ユクハシシ","town":"津留","town_kana":"ツル","prefecture_code":40},"0042":{"zip_code":"8240042","prefecture":"福岡県","prefecture_kana":"フクオカケン","city":"行橋市","city_kana":"ユクハシシ","town":"寺畔","town_kana":"テラナワテ","prefecture_code":40},"0026":{"zip_code":"8240026","prefecture":"福岡県","prefecture_kana":"フクオカケン","city":"行橋市","city_kana":"ユクハシシ","town":"道場寺","town_kana":"ドウジョウジ","prefecture_code":40},"0071":{"zip_code":"8240071","prefecture":"福岡県","prefecture_kana":"フクオカケン","city":"行橋市","city_kana":"ユクハシシ","town":"徳永","town_kana":"トクナガ","prefecture_code":40},"0053":{"zip_code":"8240053","prefecture":"福岡県","prefecture_kana":"フクオカケン","city":"行橋市","city_kana":"ユクハシシ","town":"中川","town_kana":"ナカガワ","prefecture_code":40},"0063":{"zip_code":"8240063","prefecture":"福岡県","prefecture_kana":"フクオカケン","city":"行橋市","city_kana":"ユクハシシ","town":"中津熊","town_kana":"ナカヅクマ","prefecture_code":40},"0014":{"zip_code":"8240014","prefecture":"福岡県","prefecture_kana":"フクオカケン","city":"行橋市","city_kana":"ユクハシシ","town":"長井","town_kana":"ナガイ","prefecture_code":40},"0075":{"zip_code":"8240075","prefecture":"福岡県","prefecture_kana":"フクオカケン","city":"行橋市","city_kana":"ユクハシシ","town":"長尾","town_kana":"ナガオ","prefecture_code":40},"0038":{"zip_code":"8240038","prefecture":"福岡県","prefecture_kana":"フクオカケン","city":"行橋市","city_kana":"ユクハシシ","town":"西泉","town_kana":"ニシイズミ","prefecture_code":40},"0046":{"zip_code":"8240046","prefecture":"福岡県","prefecture_kana":"フクオカケン","city":"行橋市","city_kana":"ユクハシシ","town":"西谷","town_kana":"ニシタニ","prefecture_code":40},"0031":{"zip_code":"8240031","prefecture":"福岡県","prefecture_kana":"フクオカケン","city":"行橋市","city_kana":"ユクハシシ","town":"西宮市","town_kana":"ニシミヤイチ","prefecture_code":40},"0077":{"zip_code":"8240077","prefecture":"福岡県","prefecture_kana":"フクオカケン","city":"行橋市","city_kana":"ユクハシシ","town":"入覚","town_kana":"ニュウガク","prefecture_code":40},"0068":{"zip_code":"8240068","prefecture":"福岡県","prefecture_kana":"フクオカケン","city":"行橋市","city_kana":"ユクハシシ","town":"延永","town_kana":"ノブナガ","prefecture_code":40},"0021":{"zip_code":"8240021","prefecture":"福岡県","prefecture_kana":"フクオカケン","city":"行橋市","city_kana":"ユクハシシ","town":"馬場","town_kana":"ババ","prefecture_code":40},"0035":{"zip_code":"8240035","prefecture":"福岡県","prefecture_kana":"フクオカケン","city":"行橋市","city_kana":"ユクハシシ","town":"東泉","town_kana":"ヒガシイズミ","prefecture_code":40},"0002":{"zip_code":"8240002","prefecture":"福岡県","prefecture_kana":"フクオカケン","city":"行橋市","city_kana":"ユクハシシ","town":"東大橋","town_kana":"ヒガシオオハシ","prefecture_code":40},"0025":{"zip_code":"8240025","prefecture":"福岡県","prefecture_kana":"フクオカケン","city":"行橋市","city_kana":"ユクハシシ","town":"東徳永","town_kana":"ヒガシトクナガ","prefecture_code":40},"0049":{"zip_code":"8240049","prefecture":"福岡県","prefecture_kana":"フクオカケン","city":"行橋市","city_kana":"ユクハシシ","town":"福原","town_kana":"フクバル","prefecture_code":40},"0073":{"zip_code":"8240073","prefecture":"福岡県","prefecture_kana":"フクオカケン","city":"行橋市","city_kana":"ユクハシシ","town":"福丸","town_kana":"フクマル","prefecture_code":40},"0024":{"zip_code":"8240024","prefecture":"福岡県","prefecture_kana":"フクオカケン","city":"行橋市","city_kana":"ユクハシシ","town":"袋迫","town_kana":"フクロサコ","prefecture_code":40},"0067":{"zip_code":"8240067","prefecture":"福岡県","prefecture_kana":"フクオカケン","city":"行橋市","city_kana":"ユクハシシ","town":"二塚","town_kana":"フタヅカ","prefecture_code":40},"0012":{"zip_code":"8240012","prefecture":"福岡県","prefecture_kana":"フクオカケン","city":"行橋市","city_kana":"ユクハシシ","town":"文久","town_kana":"ブンキュウ","prefecture_code":40},"0056":{"zip_code":"8240056","prefecture":"福岡県","prefecture_kana":"フクオカケン","city":"行橋市","city_kana":"ユクハシシ","town":"前田","town_kana":"マエダ","prefecture_code":40},"0017":{"zip_code":"8240017","prefecture":"福岡県","prefecture_kana":"フクオカケン","city":"行橋市","city_kana":"ユクハシシ","town":"真菰","town_kana":"マコモ","prefecture_code":40},"0023":{"zip_code":"8240023","prefecture":"福岡県","prefecture_kana":"フクオカケン","city":"行橋市","city_kana":"ユクハシシ","town":"松原","town_kana":"マツバラ","prefecture_code":40},"0036":{"zip_code":"8240036","prefecture":"福岡県","prefecture_kana":"フクオカケン","city":"行橋市","city_kana":"ユクハシシ","town":"南泉","town_kana":"ミナミイズミ","prefecture_code":40},"0032":{"zip_code":"8240032","prefecture":"福岡県","prefecture_kana":"フクオカケン","city":"行橋市","city_kana":"ユクハシシ","town":"南大橋","town_kana":"ミナミオオハシ","prefecture_code":40},"0011":{"zip_code":"8240011","prefecture":"福岡県","prefecture_kana":"フクオカケン","city":"行橋市","city_kana":"ユクハシシ","town":"蓑島","town_kana":"ミノシマ","prefecture_code":40},"0008":{"zip_code":"8240008","prefecture":"福岡県","prefecture_kana":"フクオカケン","city":"行橋市","city_kana":"ユクハシシ","town":"宮市町","town_kana":"ミヤイチマチ","prefecture_code":40},"0057":{"zip_code":"8240057","prefecture":"福岡県","prefecture_kana":"フクオカケン","city":"行橋市","city_kana":"ユクハシシ","town":"宮の杜","town_kana":"ミヤノモリ","prefecture_code":40},"0015":{"zip_code":"8240015","prefecture":"福岡県","prefecture_kana":"フクオカケン","city":"行橋市","city_kana":"ユクハシシ","town":"元永","town_kana":"モトナガ","prefecture_code":40},"0006":{"zip_code":"8240006","prefecture":"福岡県","prefecture_kana":"フクオカケン","city":"行橋市","city_kana":"ユクハシシ","town":"門樋町","town_kana":"モンピマチ","prefecture_code":40},"0037":{"zip_code":"8240037","prefecture":"福岡県","prefecture_kana":"フクオカケン","city":"行橋市","city_kana":"ユクハシシ","town":"矢留","town_kana":"ヤドミ","prefecture_code":40},"0079":{"zip_code":"8240079","prefecture":"福岡県","prefecture_kana":"フクオカケン","city":"行橋市","city_kana":"ユクハシシ","town":"矢山","town_kana":"ヤヤマ","prefecture_code":40},"0066":{"zip_code":"8240066","prefecture":"福岡県","prefecture_kana":"フクオカケン","city":"行橋市","city_kana":"ユクハシシ","town":"吉国","town_kana":"ヨシクニ","prefecture_code":40},"0043":{"zip_code":"8240043","prefecture":"福岡県","prefecture_kana":"フクオカケン","city":"行橋市","city_kana":"ユクハシシ","town":"流末","town_kana":"リュウマツ","prefecture_code":40},"0600":{"zip_code":"8240600","prefecture":"福岡県","prefecture_kana":"フクオカケン","city":"田川郡添田町","city_kana":"タガワグンソエダマチ","town":"以下に掲載がない場合","town_kana":"イカニケイサイガナイバアイ","prefecture_code":40},"0722":{"zip_code":"8240722","prefecture":"福岡県","prefecture_kana":"フクオカケン","city":"田川郡添田町","city_kana":"タガワグンソエダマチ","town":"落合","town_kana":"オチアイ","prefecture_code":40},"0601":{"zip_code":"8240601","prefecture":"福岡県","prefecture_kana":"フクオカケン","city":"田川郡添田町","city_kana":"タガワグンソエダマチ","town":"庄","town_kana":"ショウ","prefecture_code":40},"0602":{"zip_code":"8240602","prefecture":"福岡県","prefecture_kana":"フクオカケン","city":"田川郡添田町","city_kana":"タガワグンソエダマチ","town":"添田","town_kana":"ソエダ","prefecture_code":40},"0603":{"zip_code":"8240603","prefecture":"福岡県","prefecture_kana":"フクオカケン","city":"田川郡添田町","city_kana":"タガワグンソエダマチ","town":"中元寺","town_kana":"チュウガンジ","prefecture_code":40},"0411":{"zip_code":"8240411","prefecture":"福岡県","prefecture_kana":"フクオカケン","city":"田川郡添田町","city_kana":"タガワグンソエダマチ","town":"津野","town_kana":"ツノ","prefecture_code":40},"0604":{"zip_code":"8240604","prefecture":"福岡県","prefecture_kana":"フクオカケン","city":"田川郡添田町","city_kana":"タガワグンソエダマチ","town":"野田","town_kana":"ノダ","prefecture_code":40},"0721":{"zip_code":"8240721","prefecture":"福岡県","prefecture_kana":"フクオカケン","city":"田川郡添田町","city_kana":"タガワグンソエダマチ","town":"英彦山","town_kana":"ヒコサン","prefecture_code":40},"0723":{"zip_code":"8240723","prefecture":"福岡県","prefecture_kana":"フクオカケン","city":"田川郡添田町","city_kana":"タガワグンソエダマチ","town":"桝田","town_kana":"マスダ","prefecture_code":40},"0500":{"zip_code":"8240500","prefecture":"福岡県","prefecture_kana":"フクオカケン","city":"田川郡大任町","city_kana":"タガワグンオオトウマチ","town":"以下に掲載がない場合","town_kana":"イカニケイサイガナイバアイ","prefecture_code":40},"0511":{"zip_code":"8240511","prefecture":"福岡県","prefecture_kana":"フクオカケン","city":"田川郡大任町","city_kana":"タガワグンオオトウマチ","town":"今任原","town_kana":"イマトウバル","prefecture_code":40},"0512":{"zip_code":"8240512","prefecture":"福岡県","prefecture_kana":"フクオカケン","city":"田川郡大任町","city_kana":"タガワグンオオトウマチ","town":"大行事","town_kana":"ダイギョウジ","prefecture_code":40},"0400":{"zip_code":"8240400","prefecture":"福岡県","prefecture_kana":"フクオカケン","city":"田川郡赤村","city_kana":"タガワグンアカムラ","town":"以下に掲載がない場合","town_kana":"イカニケイサイガナイバアイ","prefecture_code":40},"0431":{"zip_code":"8240431","prefecture":"福岡県","prefecture_kana":"フクオカケン","city":"田川郡赤村","city_kana":"タガワグンアカムラ","town":"赤","town_kana":"アカ","prefecture_code":40},"0432":{"zip_code":"8240432","prefecture":"福岡県","prefecture_kana":"フクオカケン","city":"田川郡赤村","city_kana":"タガワグンアカムラ","town":"内田","town_kana":"ウチダ","prefecture_code":40},"0800":{"zip_code":"8240800","prefecture":"福岡県","prefecture_kana":"フクオカケン","city":"京都郡みやこ町","city_kana":"ミヤコグンミヤコマチ","town":"以下に掲載がない場合","town_kana":"イカニケイサイガナイバアイ","prefecture_code":40},"0102":{"zip_code":"8240102","prefecture":"福岡県","prefecture_kana":"フクオカケン","city":"京都郡みやこ町","city_kana":"ミヤコグンミヤコマチ","town":"呰見","town_kana":"アザミ","prefecture_code":40},"0104":{"zip_code":"8240104","prefecture":"福岡県","prefecture_kana":"フクオカケン","city":"京都郡みやこ町","city_kana":"ミヤコグンミヤコマチ","town":"綾野","town_kana":"アヤノ","prefecture_code":40},"0106":{"zip_code":"8240106","prefecture":"福岡県","prefecture_kana":"フクオカケン","city":"京都郡みやこ町","city_kana":"ミヤコグンミヤコマチ","town":"有久","town_kana":"アリヒサ","prefecture_code":40},"0211":{"zip_code":"8240211","prefecture":"福岡県","prefecture_kana":"フクオカケン","city":"京都郡みやこ町","city_kana":"ミヤコグンミヤコマチ","town":"今里","town_kana":"イマサト","prefecture_code":40},"0818":{"zip_code":"8240818","prefecture":"福岡県","prefecture_kana":"フクオカケン","city":"京都郡みやこ町","city_kana":"ミヤコグンミヤコマチ","town":"勝山池田","town_kana":"カツヤマイケダ","prefecture_code":40},"0817":{"zip_code":"8240817","prefecture":"福岡県","prefecture_kana":"フクオカケン","city":"京都郡みやこ町","city_kana":"ミヤコグンミヤコマチ","town":"勝山岩熊","town_kana":"カツヤマイワグマ","prefecture_code":40},"0821":{"zip_code":"8240821","prefecture":"福岡県","prefecture_kana":"フクオカケン","city":"京都郡みやこ町","city_kana":"ミヤコグンミヤコマチ","town":"勝山上田","town_kana":"カツヤマウエダ","prefecture_code":40},"0814":{"zip_code":"8240814","prefecture":"福岡県","prefecture_kana":"フクオカケン","city":"京都郡みやこ町","city_kana":"ミヤコグンミヤコマチ","town":"勝山浦河内","town_kana":"カツヤマウラガワチ","prefecture_code":40},"0801":{"zip_code":"8240801","prefecture":"福岡県","prefecture_kana":"フクオカケン","city":"京都郡みやこ町","city_kana":"ミヤコグンミヤコマチ","town":"勝山大久保","town_kana":"カツヤマオオクボ","prefecture_code":40},"0815":{"zip_code":"8240815","prefecture":"福岡県","prefecture_kana":"フクオカケン","city":"京都郡みやこ町","city_kana":"ミヤコグンミヤコマチ","town":"勝山上矢山","town_kana":"カツヤマカミヤヤマ","prefecture_code":40},"0822":{"zip_code":"8240822","prefecture":"福岡県","prefecture_kana":"フクオカケン","city":"京都郡みやこ町","city_kana":"ミヤコグンミヤコマチ","town":"勝山黒田","town_kana":"カツヤマクロダ","prefecture_code":40},"0812":{"zip_code":"8240812","prefecture":"福岡県","prefecture_kana":"フクオカケン","city":"京都郡みやこ町","city_kana":"ミヤコグンミヤコマチ","town":"勝山長川","town_kana":"カツヤマナガワ","prefecture_code":40},"0802":{"zip_code":"8240802","prefecture":"福岡県","prefecture_kana":"フクオカケン","city":"京都郡みやこ町","city_kana":"ミヤコグンミヤコマチ","town":"勝山松田","town_kana":"カツヤママツダ","prefecture_code":40},"0811":{"zip_code":"8240811","prefecture":"福岡県","prefecture_kana":"フクオカケン","city":"京都郡みやこ町","city_kana":"ミヤコグンミヤコマチ","town":"勝山箕田","town_kana":"カツヤマミダ","prefecture_code":40},"0813":{"zip_code":"8240813","prefecture":"福岡県","prefecture_kana":"フクオカケン","city":"京都郡みやこ町","city_kana":"ミヤコグンミヤコマチ","town":"勝山宮原","town_kana":"カツヤマミヤバル","prefecture_code":40},"0816":{"zip_code":"8240816","prefecture":"福岡県","prefecture_kana":"フクオカケン","city":"京都郡みやこ町","city_kana":"ミヤコグンミヤコマチ","town":"勝山矢山","town_kana":"カツヤマヤヤマ","prefecture_code":40},"0111":{"zip_code":"8240111","prefecture":"福岡県","prefecture_kana":"フクオカケン","city":"京都郡みやこ町","city_kana":"ミヤコグンミヤコマチ","town":"上坂","town_kana":"カミサカ","prefecture_code":40},"0112":{"zip_code":"8240112","prefecture":"福岡県","prefecture_kana":"フクオカケン","city":"京都郡みやこ町","city_kana":"ミヤコグンミヤコマチ","town":"上原","town_kana":"カンバル","prefecture_code":40},"0207":{"zip_code":"8240207","prefecture":"福岡県","prefecture_kana":"フクオカケン","city":"京都郡みやこ町","city_kana":"ミヤコグンミヤコマチ","town":"蔵持","town_kana":"クラモチ","prefecture_code":40},"0122":{"zip_code":"8240122","prefecture":"福岡県","prefecture_kana":"フクオカケン","city":"京都郡みやこ町","city_kana":"ミヤコグンミヤコマチ","town":"彦徳","town_kana":"ケンドク","prefecture_code":40},"0125":{"zip_code":"8240125","prefecture":"福岡県","prefecture_kana":"フクオカケン","city":"京都郡みやこ町","city_kana":"ミヤコグンミヤコマチ","town":"国作","town_kana":"コクサク","prefecture_code":40},"0123":{"zip_code":"8240123","prefecture":"福岡県","prefecture_kana":"フクオカケン","city":"京都郡みやこ町","city_kana":"ミヤコグンミヤコマチ","town":"国分","town_kana":"コクブ","prefecture_code":40},"0214":{"zip_code":"8240214","prefecture":"福岡県","prefecture_kana":"フクオカケン","city":"京都郡みやこ町","city_kana":"ミヤコグンミヤコマチ","town":"犀川鐙畑","town_kana":"サイガワアブミハタ","prefecture_code":40},"0242":{"zip_code":"8240242","prefecture":"福岡県","prefecture_kana":"フクオカケン","city":"京都郡みやこ町","city_kana":"ミヤコグンミヤコマチ","town":"犀川犬丸","town_kana":"サイガワイヌマル","prefecture_code":40},"0241":{"zip_code":"8240241","prefecture":"福岡県","prefecture_kana":"フクオカケン","city":"京都郡みやこ町","city_kana":"ミヤコグンミヤコマチ","town":"犀川内垣","town_kana":"サイガワウチガキ","prefecture_code":40},"0215":{"zip_code":"8240215","prefecture":"福岡県","prefecture_kana":"フクオカケン","city":"京都郡みやこ町","city_kana":"ミヤコグンミヤコマチ","town":"犀川生立","town_kana":"サイガワオイタツ","prefecture_code":40},"0254":{"zip_code":"8240254","prefecture":"福岡県","prefecture_kana":"フクオカケン","city":"京都郡みやこ町","city_kana":"ミヤコグンミヤコマチ","town":"犀川扇谷","town_kana":"サイガワオウギダニ","prefecture_code":40},"0212":{"zip_code":"8240212","prefecture":"福岡県","prefecture_kana":"フクオカケン","city":"京都郡みやこ町","city_kana":"ミヤコグンミヤコマチ","town":"犀川大熊","town_kana":"サイガワオオクマ","prefecture_code":40},"0225":{"zip_code":"8240225","prefecture":"福岡県","prefecture_kana":"フクオカケン","city":"京都郡みやこ町","city_kana":"ミヤコグンミヤコマチ","town":"犀川大坂","town_kana":"サイガワオオサカ","prefecture_code":40},"0222":{"zip_code":"8240222","prefecture":"福岡県","prefecture_kana":"フクオカケン","city":"京都郡みやこ町","city_kana":"ミヤコグンミヤコマチ","town":"犀川大村","town_kana":"サイガワオオムラ","prefecture_code":40},"0252":{"zip_code":"8240252","prefecture":"福岡県","prefecture_kana":"フクオカケン","city":"京都郡みやこ町","city_kana":"ミヤコグンミヤコマチ","town":"犀川上伊良原","town_kana":"サイガワカミイラハラ","prefecture_code":40},"0202":{"zip_code":"8240202","prefecture":"福岡県","prefecture_kana":"フクオカケン","city":"京都郡みやこ町","city_kana":"ミヤコグンミヤコマチ","town":"犀川上高屋","town_kana":"サイガワカミタカヤ","prefecture_code":40},"0243":{"zip_code":"8240243","prefecture":"福岡県","prefecture_kana":"フクオカケン","city":"京都郡みやこ町","city_kana":"ミヤコグンミヤコマチ","town":"犀川木井馬場","town_kana":"サイガワキイババ","prefecture_code":40},"0213":{"zip_code":"8240213","prefecture":"福岡県","prefecture_kana":"フクオカケン","city":"京都郡みやこ町","city_kana":"ミヤコグンミヤコマチ","town":"犀川喜多良","town_kana":"サイガワキタラ","prefecture_code":40},"0235":{"zip_code":"8240235","prefecture":"福岡県","prefecture_kana":"フクオカケン","city":"京都郡みやこ町","city_kana":"ミヤコグンミヤコマチ","town":"犀川木山","town_kana":"サイガワキヤマ","prefecture_code":40},"0224":{"zip_code":"8240224","prefecture":"福岡県","prefecture_kana":"フクオカケン","city":"京都郡みやこ町","city_kana":"ミヤコグンミヤコマチ","town":"犀川崎山","town_kana":"サイガワサキヤマ","prefecture_code":40},"0251":{"zip_code":"8240251","prefecture":"福岡県","prefecture_kana":"フクオカケン","city":"京都郡みやこ町","city_kana":"ミヤコグンミヤコマチ","town":"犀川下伊良原","town_kana":"サイガワシモイラハラ","prefecture_code":40},"0201":{"zip_code":"8240201","prefecture":"福岡県","prefecture_kana":"フクオカケン","city":"京都郡みやこ町","city_kana":"ミヤコグンミヤコマチ","town":"犀川下高屋","town_kana":"サイガワシモタカヤ","prefecture_code":40},"0204":{"zip_code":"8240204","prefecture":"福岡県","prefecture_kana":"フクオカケン","city":"京都郡みやこ町","city_kana":"ミヤコグンミヤコマチ","town":"犀川末江","town_kana":"サイガワスエ","prefecture_code":40},"0203":{"zip_code":"8240203","prefecture":"福岡県","prefecture_kana":"フクオカケン","city":"京都郡みやこ町","city_kana":"ミヤコグンミヤコマチ","town":"犀川続命院","town_kana":"サイガワゾクミョウイン","prefecture_code":40},"0216":{"zip_code":"8240216","prefecture":"福岡県","prefecture_kana":"フクオカケン","city":"京都郡みやこ町","city_kana":"ミヤコグンミヤコマチ","town":"犀川谷口","town_kana":"サイガワタニグチ","prefecture_code":40},"0233":{"zip_code":"8240233","prefecture":"福岡県","prefecture_kana":"フクオカケン","city":"京都郡みやこ町","city_kana":"ミヤコグンミヤコマチ","town":"犀川花熊","town_kana":"サイガワハナグマ","prefecture_code":40},"0205":{"zip_code":"8240205","prefecture":"福岡県","prefecture_kana":"フクオカケン","city":"京都郡みやこ町","city_kana":"ミヤコグンミヤコマチ","town":"犀川久富","town_kana":"サイガワヒサドミ","prefecture_code":40},"0217":{"zip_code":"8240217","prefecture":"福岡県","prefecture_kana":"フクオカケン","city":"京都郡みやこ町","city_kana":"ミヤコグンミヤコマチ","town":"犀川古川","town_kana":"サイガワフルカワ","prefecture_code":40},"0253":{"zip_code":"8240253","prefecture":"福岡県","prefecture_kana":"フクオカケン","city":"京都郡みやこ町","city_kana":"ミヤコグンミヤコマチ","town":"犀川帆柱","town_kana":"サイガワホバシラ","prefecture_code":40},"0231":{"zip_code":"8240231","prefecture":"福岡県","prefecture_kana":"フクオカケン","city":"京都郡みやこ町","city_kana":"ミヤコグンミヤコマチ","town":"犀川本庄","town_kana":"サイガワホンジョウ","prefecture_code":40},"0206":{"zip_code":"8240206","prefecture":"福岡県","prefecture_kana":"フクオカケン","city":"京都郡みやこ町","city_kana":"ミヤコグンミヤコマチ","town":"犀川八ツ溝","town_kana":"サイガワヤツミゾ","prefecture_code":40},"0223":{"zip_code":"8240223","prefecture":"福岡県","prefecture_kana":"フクオカケン","city":"京都郡みやこ町","city_kana":"ミヤコグンミヤコマチ","town":"犀川柳瀬","town_kana":"サイガワヤナセ","prefecture_code":40},"0221":{"zip_code":"8240221","prefecture":"福岡県","prefecture_kana":"フクオカケン","city":"京都郡みやこ町","city_kana":"ミヤコグンミヤコマチ","town":"犀川山鹿","town_kana":"サイガワヤマガ","prefecture_code":40},"0244":{"zip_code":"8240244","prefecture":"福岡県","prefecture_kana":"フクオカケン","city":"京都郡みやこ町","city_kana":"ミヤコグンミヤコマチ","town":"犀川横瀬","town_kana":"サイガワヨコセ","prefecture_code":40},"0232":{"zip_code":"8240232","prefecture":"福岡県","prefecture_kana":"フクオカケン","city":"京都郡みやこ町","city_kana":"ミヤコグンミヤコマチ","town":"桜台","town_kana":"サクラダイ","prefecture_code":40},"0234":{"zip_code":"8240234","prefecture":"福岡県","prefecture_kana":"フクオカケン","city":"京都郡みやこ町","city_kana":"ミヤコグンミヤコマチ","town":"下高屋団地","town_kana":"シモタカヤダンチ","prefecture_code":40},"0103":{"zip_code":"8240103","prefecture":"福岡県","prefecture_kana":"フクオカケン","city":"京都郡みやこ町","city_kana":"ミヤコグンミヤコマチ","town":"下原","town_kana":"シモバル","prefecture_code":40},"0114":{"zip_code":"8240114","prefecture":"福岡県","prefecture_kana":"フクオカケン","city":"京都郡みやこ町","city_kana":"ミヤコグンミヤコマチ","town":"節丸","town_kana":"セツマル","prefecture_code":40},"0124":{"zip_code":"8240124","prefecture":"福岡県","prefecture_kana":"フクオカケン","city":"京都郡みやこ町","city_kana":"ミヤコグンミヤコマチ","town":"惣社","town_kana":"ソウシャ","prefecture_code":40},"0107":{"zip_code":"8240107","prefecture":"福岡県","prefecture_kana":"フクオカケン","city":"京都郡みやこ町","city_kana":"ミヤコグンミヤコマチ","town":"田中","town_kana":"タナカ","prefecture_code":40},"0105":{"zip_code":"8240105","prefecture":"福岡県","prefecture_kana":"フクオカケン","city":"京都郡みやこ町","city_kana":"ミヤコグンミヤコマチ","town":"徳政","town_kana":"トクセイ","prefecture_code":40},"0101":{"zip_code":"8240101","prefecture":"福岡県","prefecture_kana":"フクオカケン","city":"京都郡みやこ町","city_kana":"ミヤコグンミヤコマチ","town":"徳永","town_kana":"トクナガ","prefecture_code":40},"0121":{"zip_code":"8240121","prefecture":"福岡県","prefecture_kana":"フクオカケン","city":"京都郡みやこ町","city_kana":"ミヤコグンミヤコマチ","town":"豊津","town_kana":"トヨツ","prefecture_code":40},"0226":{"zip_code":"8240226","prefecture":"福岡県","prefecture_kana":"フクオカケン","city":"京都郡みやこ町","city_kana":"ミヤコグンミヤコマチ","town":"松坂","town_kana":"マツサカ","prefecture_code":40},"0115":{"zip_code":"8240115","prefecture":"福岡県","prefecture_kana":"フクオカケン","city":"京都郡みやこ町","city_kana":"ミヤコグンミヤコマチ","town":"光冨","town_kana":"ミツドミ","prefecture_code":40},"0113":{"zip_code":"8240113","prefecture":"福岡県","prefecture_kana":"フクオカケン","city":"京都郡みやこ町","city_kana":"ミヤコグンミヤコマチ","town":"吉岡","town_kana":"ヨシオカ","prefecture_code":40}}