{"0000":{"zip_code":"8250000","prefecture":"福岡県","prefecture_kana":"フクオカケン","city":"田川市","city_kana":"タガワシ","town":"","town_kana":"","prefecture_code":40},"0001":{"zip_code":"8250001","prefecture":"福岡県","prefecture_kana":"フクオカケン","city":"田川市","city_kana":"タガワシ","town":"伊加利","town_kana":"イカリ","prefecture_code":40},"0002":{"zip_code":"8250002","prefecture":"福岡県","prefecture_kana":"フクオカケン","city":"田川市","city_kana":"タガワシ","town":"伊田","town_kana":"イタ","prefecture_code":40},"0015":{"zip_code":"8250015","prefecture":"福岡県","prefecture_kana":"フクオカケン","city":"田川市","city_kana":"タガワシ","town":"伊田町","town_kana":"イタマチ","prefecture_code":40},"0014":{"zip_code":"8250014","prefecture":"福岡県","prefecture_kana":"フクオカケン","city":"田川市","city_kana":"タガワシ","town":"魚町","town_kana":"ウオマチ","prefecture_code":40},"0017":{"zip_code":"8250017","prefecture":"福岡県","prefecture_kana":"フクオカケン","city":"田川市","city_kana":"タガワシ","town":"寿町","town_kana":"コトブキマチ","prefecture_code":40},"0011":{"zip_code":"8250011","prefecture":"福岡県","prefecture_kana":"フクオカケン","city":"田川市","city_kana":"タガワシ","town":"栄町","town_kana":"サカエマチ","prefecture_code":40},"0003":{"zip_code":"8250003","prefecture":"福岡県","prefecture_kana":"フクオカケン","city":"田川市","city_kana":"タガワシ","town":"白鳥町","town_kana":"シラトリマチ","prefecture_code":40},"0016":{"zip_code":"8250016","prefecture":"福岡県","prefecture_kana":"フクオカケン","city":"田川市","city_kana":"タガワシ","town":"新町","town_kana":"シンマチ","prefecture_code":40},"0013":{"zip_code":"8250013","prefecture":"福岡県","prefecture_kana":"フクオカケン","city":"田川市","city_kana":"タガワシ","town":"中央町","town_kana":"チュウオウマチ","prefecture_code":40},"0004":{"zip_code":"8250004","prefecture":"福岡県","prefecture_kana":"フクオカケン","city":"田川市","city_kana":"タガワシ","town":"夏吉","town_kana":"ナツヨシ","prefecture_code":40},"0018":{"zip_code":"8250018","prefecture":"福岡県","prefecture_kana":"フクオカケン","city":"田川市","city_kana":"タガワシ","town":"番田町","town_kana":"バンダマチ","prefecture_code":40},"0012":{"zip_code":"8250012","prefecture":"福岡県","prefecture_kana":"フクオカケン","city":"田川市","city_kana":"タガワシ","town":"日の出町","town_kana":"ヒノデマチ","prefecture_code":40},"0005":{"zip_code":"8250005","prefecture":"福岡県","prefecture_kana":"フクオカケン","city":"田川市","city_kana":"タガワシ","town":"糒","town_kana":"ホシイ","prefecture_code":40}}