{"0044":{"zip_code":"8260044","prefecture":"福岡県","prefecture_kana":"フクオカケン","city":"田川市","city_kana":"タガワシ","town":"位登（猪位金４〜７区、清美町）","town_kana":"イトウ(イイカネ4-7ク、キヨミチョウ)","prefecture_code":40},"0045":{"zip_code":"8260045","prefecture":"福岡県","prefecture_kana":"フクオカケン","city":"田川市","city_kana":"タガワシ","town":"猪国（猪位金１〜３区）","town_kana":"イノクニ(イイカネ1-3ク)","prefecture_code":40},"0026":{"zip_code":"8260026","prefecture":"福岡県","prefecture_kana":"フクオカケン","city":"田川市","city_kana":"タガワシ","town":"春日町","town_kana":"カスガマチ","prefecture_code":40},"0023":{"zip_code":"8260023","prefecture":"福岡県","prefecture_kana":"フクオカケン","city":"田川市","city_kana":"タガワシ","town":"上本町","town_kana":"カミホンマチ","prefecture_code":40},"0042":{"zip_code":"8260042","prefecture":"福岡県","prefecture_kana":"フクオカケン","city":"田川市","city_kana":"タガワシ","town":"川宮（大藪、新生町、高住町、平岡）","town_kana":"カワミヤ(オオヤブ、シンセイチョウ、タカスミチョウ、ヒラオカ)","prefecture_code":40},"0021":{"zip_code":"8260021","prefecture":"福岡県","prefecture_kana":"フクオカケン","city":"田川市","city_kana":"タガワシ","town":"桜町","town_kana":"サクラマチ","prefecture_code":40},"0025":{"zip_code":"8260025","prefecture":"福岡県","prefecture_kana":"フクオカケン","city":"田川市","city_kana":"タガワシ","town":"大黒町","town_kana":"ダイコクマチ","prefecture_code":40},"0031":{"zip_code":"8260031","prefecture":"福岡県","prefecture_kana":"フクオカケン","city":"田川市","city_kana":"タガワシ","town":"千代町","town_kana":"チヨマチ","prefecture_code":40},"0043":[{"zip_code":"8260043","prefecture":"福岡県","prefecture_kana":"フクオカケン","city":"田川市","city_kana":"タガワシ","town":"奈良（青葉町、大浦、会社町、霞ケ丘、後藤寺西団地、後藤寺東団地、希望ケ丘、","town_kana":"ナラ(アオバチョウ、オオウラ、カイシャマチ、カスミガオカ、ゴトウジニシダンチ、ゴトウジヒガシダンチ、ノゾミガオカ、","prefecture_code":40},{"zip_code":"8260043","prefecture":"福岡県","prefecture_kana":"フクオカケン","city":"田川市","city_kana":"タガワシ","town":"松の木、三井後藤寺、緑町、月見ケ丘）","town_kana":"マツノキ、ミツイゴトウジ、ミドリマチ、ツキミガオカ)","prefecture_code":40}],"0024":{"zip_code":"8260024","prefecture":"福岡県","prefecture_kana":"フクオカケン","city":"田川市","city_kana":"タガワシ","town":"西本町","town_kana":"ニシホンマチ","prefecture_code":40},"0032":{"zip_code":"8260032","prefecture":"福岡県","prefecture_kana":"フクオカケン","city":"田川市","city_kana":"タガワシ","town":"平松町","town_kana":"ヒラマツマチ","prefecture_code":40},"0022":{"zip_code":"8260022","prefecture":"福岡県","prefecture_kana":"フクオカケン","city":"田川市","city_kana":"タガワシ","town":"本町","town_kana":"ホンマチ","prefecture_code":40},"0033":{"zip_code":"8260033","prefecture":"福岡県","prefecture_kana":"フクオカケン","city":"田川市","city_kana":"タガワシ","town":"丸山町","town_kana":"マルヤママチ","prefecture_code":40},"0027":{"zip_code":"8260027","prefecture":"福岡県","prefecture_kana":"フクオカケン","city":"田川市","city_kana":"タガワシ","town":"宮尾町","town_kana":"ミヤオマチ","prefecture_code":40},"0041":{"zip_code":"8260041","prefecture":"福岡県","prefecture_kana":"フクオカケン","city":"田川市","city_kana":"タガワシ","town":"弓削田（角銅原、野上、船尾、見立、文字山）","town_kana":"ユゲタ(カクドウバル、ノガミ、フナオ、ミタテ、モジヤマ)","prefecture_code":40},"0002":{"zip_code":"8260002","prefecture":"福岡県","prefecture_kana":"フクオカケン","city":"田川郡川崎町","city_kana":"タガワグンカワサキマチ","town":"池尻（上原、小倉畔）","town_kana":"イケジリ(カンバル、コクラノテ)","prefecture_code":40}}