{"0000":{"zip_code":"8280000","prefecture":"福岡県","prefecture_kana":"フクオカケン","city":"豊前市","city_kana":"ブゼンシ","town":"以下に掲載がない場合","town_kana":"イカニケイサイガナイバアイ","prefecture_code":40},"0065":{"zip_code":"8280065","prefecture":"福岡県","prefecture_kana":"フクオカケン","city":"豊前市","city_kana":"ブゼンシ","town":"青畑","town_kana":"アオハタ","prefecture_code":40},"0027":{"zip_code":"8280027","prefecture":"福岡県","prefecture_kana":"フクオカケン","city":"豊前市","city_kana":"ブゼンシ","town":"赤熊","town_kana":"アカグマ","prefecture_code":40},"0061":{"zip_code":"8280061","prefecture":"福岡県","prefecture_kana":"フクオカケン","city":"豊前市","city_kana":"ブゼンシ","town":"荒堀","town_kana":"アラホリ","prefecture_code":40},"0035":{"zip_code":"8280035","prefecture":"福岡県","prefecture_kana":"フクオカケン","city":"豊前市","city_kana":"ブゼンシ","town":"市丸","town_kana":"イチマル","prefecture_code":40},"0062":{"zip_code":"8280062","prefecture":"福岡県","prefecture_kana":"フクオカケン","city":"豊前市","city_kana":"ブゼンシ","town":"今市","town_kana":"イマイチ","prefecture_code":40},"0083":{"zip_code":"8280083","prefecture":"福岡県","prefecture_kana":"フクオカケン","city":"豊前市","city_kana":"ブゼンシ","town":"岩屋","town_kana":"イワヤ","prefecture_code":40},"0022":{"zip_code":"8280022","prefecture":"福岡県","prefecture_kana":"フクオカケン","city":"豊前市","city_kana":"ブゼンシ","town":"宇島","town_kana":"ウノシマ","prefecture_code":40},"0082":{"zip_code":"8280082","prefecture":"福岡県","prefecture_kana":"フクオカケン","city":"豊前市","city_kana":"ブゼンシ","town":"大河内","town_kana":"オオカワチ","prefecture_code":40},"0066":{"zip_code":"8280066","prefecture":"福岡県","prefecture_kana":"フクオカケン","city":"豊前市","city_kana":"ブゼンシ","town":"大村","town_kana":"オオムラ","prefecture_code":40},"0064":{"zip_code":"8280064","prefecture":"福岡県","prefecture_kana":"フクオカケン","city":"豊前市","city_kana":"ブゼンシ","town":"大西","town_kana":"オオニシ","prefecture_code":40},"0049":{"zip_code":"8280049","prefecture":"福岡県","prefecture_kana":"フクオカケン","city":"豊前市","city_kana":"ブゼンシ","town":"鬼木","town_kana":"オニノキ","prefecture_code":40},"0045":{"zip_code":"8280045","prefecture":"福岡県","prefecture_kana":"フクオカケン","city":"豊前市","city_kana":"ブゼンシ","town":"皆毛","town_kana":"カイモ","prefecture_code":40},"0041":{"zip_code":"8280041","prefecture":"福岡県","prefecture_kana":"フクオカケン","city":"豊前市","city_kana":"ブゼンシ","town":"梶屋","town_kana":"カジヤ","prefecture_code":40},"0077":{"zip_code":"8280077","prefecture":"福岡県","prefecture_kana":"フクオカケン","city":"豊前市","city_kana":"ブゼンシ","town":"上川底","town_kana":"カミカワソコ","prefecture_code":40},"0013":{"zip_code":"8280013","prefecture":"福岡県","prefecture_kana":"フクオカケン","city":"豊前市","city_kana":"ブゼンシ","town":"川内","town_kana":"カワチ","prefecture_code":40},"0055":{"zip_code":"8280055","prefecture":"福岡県","prefecture_kana":"フクオカケン","city":"豊前市","city_kana":"ブゼンシ","town":"河原田","town_kana":"カワハラダ","prefecture_code":40},"0043":{"zip_code":"8280043","prefecture":"福岡県","prefecture_kana":"フクオカケン","city":"豊前市","city_kana":"ブゼンシ","town":"岸井","town_kana":"キシイ","prefecture_code":40},"0048":{"zip_code":"8280048","prefecture":"福岡県","prefecture_kana":"フクオカケン","city":"豊前市","city_kana":"ブゼンシ","town":"久路土","town_kana":"キュウロツチ","prefecture_code":40},"0023":{"zip_code":"8280023","prefecture":"福岡県","prefecture_kana":"フクオカケン","city":"豊前市","city_kana":"ブゼンシ","town":"沓川","town_kana":"クツガワ","prefecture_code":40},"0086":{"zip_code":"8280086","prefecture":"福岡県","prefecture_kana":"フクオカケン","city":"豊前市","city_kana":"ブゼンシ","town":"求菩提","town_kana":"クボテ","prefecture_code":40},"0044":{"zip_code":"8280044","prefecture":"福岡県","prefecture_kana":"フクオカケン","city":"豊前市","city_kana":"ブゼンシ","town":"小石原","town_kana":"コイシハラ","prefecture_code":40},"0036":{"zip_code":"8280036","prefecture":"福岡県","prefecture_kana":"フクオカケン","city":"豊前市","city_kana":"ブゼンシ","town":"小犬丸","town_kana":"コイヌマル","prefecture_code":40},"0072":{"zip_code":"8280072","prefecture":"福岡県","prefecture_kana":"フクオカケン","city":"豊前市","city_kana":"ブゼンシ","town":"才尾","town_kana":"サイオ","prefecture_code":40},"0032":{"zip_code":"8280032","prefecture":"福岡県","prefecture_kana":"フクオカケン","city":"豊前市","city_kana":"ブゼンシ","town":"三楽","town_kana":"サンラク","prefecture_code":40},"0084":{"zip_code":"8280084","prefecture":"福岡県","prefecture_kana":"フクオカケン","city":"豊前市","city_kana":"ブゼンシ","town":"篠瀬","town_kana":"シノセ","prefecture_code":40},"0075":{"zip_code":"8280075","prefecture":"福岡県","prefecture_kana":"フクオカケン","city":"豊前市","city_kana":"ブゼンシ","town":"下川底","town_kana":"シモカワソコ","prefecture_code":40},"0074":{"zip_code":"8280074","prefecture":"福岡県","prefecture_kana":"フクオカケン","city":"豊前市","city_kana":"ブゼンシ","town":"下河内","town_kana":"シモカワチ","prefecture_code":40},"0002":{"zip_code":"8280002","prefecture":"福岡県","prefecture_kana":"フクオカケン","city":"豊前市","city_kana":"ブゼンシ","town":"松江","town_kana":"ショウエ","prefecture_code":40},"0026":{"zip_code":"8280026","prefecture":"福岡県","prefecture_kana":"フクオカケン","city":"豊前市","city_kana":"ブゼンシ","town":"清水町","town_kana":"ショウズ","prefecture_code":40},"0011":{"zip_code":"8280011","prefecture":"福岡県","prefecture_kana":"フクオカケン","city":"豊前市","city_kana":"ブゼンシ","town":"四郎丸","town_kana":"シロウマル","prefecture_code":40},"0028":{"zip_code":"8280028","prefecture":"福岡県","prefecture_kana":"フクオカケン","city":"豊前市","city_kana":"ブゼンシ","town":"青豊","town_kana":"セイホウ","prefecture_code":40},"0046":{"zip_code":"8280046","prefecture":"福岡県","prefecture_kana":"フクオカケン","city":"豊前市","city_kana":"ブゼンシ","town":"高田","town_kana":"タカタ","prefecture_code":40},"0053":{"zip_code":"8280053","prefecture":"福岡県","prefecture_kana":"フクオカケン","city":"豊前市","city_kana":"ブゼンシ","town":"千束","town_kana":"チヅカ","prefecture_code":40},"0025":{"zip_code":"8280025","prefecture":"福岡県","prefecture_kana":"フクオカケン","city":"豊前市","city_kana":"ブゼンシ","town":"恒富","town_kana":"ツネドミ","prefecture_code":40},"0081":{"zip_code":"8280081","prefecture":"福岡県","prefecture_kana":"フクオカケン","city":"豊前市","city_kana":"ブゼンシ","town":"天和","town_kana":"テンワ","prefecture_code":40},"0052":{"zip_code":"8280052","prefecture":"福岡県","prefecture_kana":"フクオカケン","city":"豊前市","city_kana":"ブゼンシ","town":"塔田","town_kana":"トウダ","prefecture_code":40},"0085":{"zip_code":"8280085","prefecture":"福岡県","prefecture_kana":"フクオカケン","city":"豊前市","city_kana":"ブゼンシ","town":"鳥井畑","town_kana":"トリイハタ","prefecture_code":40},"0012":{"zip_code":"8280012","prefecture":"福岡県","prefecture_kana":"フクオカケン","city":"豊前市","city_kana":"ブゼンシ","town":"鳥越","town_kana":"トリゴエ","prefecture_code":40},"0076":{"zip_code":"8280076","prefecture":"福岡県","prefecture_kana":"フクオカケン","city":"豊前市","city_kana":"ブゼンシ","town":"中川底","town_kana":"ナカガワソコ","prefecture_code":40},"0003":{"zip_code":"8280003","prefecture":"福岡県","prefecture_kana":"フクオカケン","city":"豊前市","city_kana":"ブゼンシ","town":"中村","town_kana":"ナカムラ","prefecture_code":40},"0054":{"zip_code":"8280054","prefecture":"福岡県","prefecture_kana":"フクオカケン","city":"豊前市","city_kana":"ブゼンシ","town":"永久","town_kana":"ナガヒサ","prefecture_code":40},"0063":{"zip_code":"8280063","prefecture":"福岡県","prefecture_kana":"フクオカケン","city":"豊前市","city_kana":"ブゼンシ","town":"野田","town_kana":"ノダ","prefecture_code":40},"0073":{"zip_code":"8280073","prefecture":"福岡県","prefecture_kana":"フクオカケン","city":"豊前市","city_kana":"ブゼンシ","town":"挾間","town_kana":"ハサマ","prefecture_code":40},"0005":{"zip_code":"8280005","prefecture":"福岡県","prefecture_kana":"フクオカケン","city":"豊前市","city_kana":"ブゼンシ","town":"畑","town_kana":"ハタ","prefecture_code":40},"0001":{"zip_code":"8280001","prefecture":"福岡県","prefecture_kana":"フクオカケン","city":"豊前市","city_kana":"ブゼンシ","town":"畠中","town_kana":"ハタケナカ","prefecture_code":40},"0021":{"zip_code":"8280021","prefecture":"福岡県","prefecture_kana":"フクオカケン","city":"豊前市","city_kana":"ブゼンシ","town":"八屋","town_kana":"ハチヤ","prefecture_code":40},"0004":{"zip_code":"8280004","prefecture":"福岡県","prefecture_kana":"フクオカケン","city":"豊前市","city_kana":"ブゼンシ","town":"馬場","town_kana":"ババ","prefecture_code":40},"0024":{"zip_code":"8280024","prefecture":"福岡県","prefecture_kana":"フクオカケン","city":"豊前市","city_kana":"ブゼンシ","town":"久松","town_kana":"ヒサマツ","prefecture_code":40},"0047":{"zip_code":"8280047","prefecture":"福岡県","prefecture_kana":"フクオカケン","city":"豊前市","city_kana":"ブゼンシ","town":"広瀬","town_kana":"ヒロセ","prefecture_code":40},"0042":{"zip_code":"8280042","prefecture":"福岡県","prefecture_kana":"フクオカケン","city":"豊前市","city_kana":"ブゼンシ","town":"堀立","town_kana":"ホリタテ","prefecture_code":40},"0031":{"zip_code":"8280031","prefecture":"福岡県","prefecture_kana":"フクオカケン","city":"豊前市","city_kana":"ブゼンシ","town":"三毛門","town_kana":"ミケカド","prefecture_code":40},"0034":{"zip_code":"8280034","prefecture":"福岡県","prefecture_kana":"フクオカケン","city":"豊前市","city_kana":"ブゼンシ","town":"森久","town_kana":"モリヒサ","prefecture_code":40},"0056":{"zip_code":"8280056","prefecture":"福岡県","prefecture_kana":"フクオカケン","city":"豊前市","city_kana":"ブゼンシ","town":"薬師寺","town_kana":"ヤクシジ","prefecture_code":40},"0071":{"zip_code":"8280071","prefecture":"福岡県","prefecture_kana":"フクオカケン","city":"豊前市","city_kana":"ブゼンシ","town":"山内","town_kana":"ヤマウチ","prefecture_code":40},"0051":{"zip_code":"8280051","prefecture":"福岡県","prefecture_kana":"フクオカケン","city":"豊前市","city_kana":"ブゼンシ","town":"吉木","town_kana":"ヨシキ","prefecture_code":40},"0033":{"zip_code":"8280033","prefecture":"福岡県","prefecture_kana":"フクオカケン","city":"豊前市","city_kana":"ブゼンシ","town":"六郎","town_kana":"ロクロウ","prefecture_code":40}}