{"0011":{"zip_code":"8300011","prefecture":"福岡県","prefecture_kana":"フクオカケン","city":"久留米市","city_kana":"クルメシ","town":"旭町","town_kana":"アサヒマチ","prefecture_code":40},"0029":{"zip_code":"8300029","prefecture":"福岡県","prefecture_kana":"フクオカケン","city":"久留米市","city_kana":"クルメシ","town":"洗町","town_kana":"アライマチ","prefecture_code":40},"0063":{"zip_code":"8300063","prefecture":"福岡県","prefecture_kana":"フクオカケン","city":"久留米市","city_kana":"クルメシ","town":"荒木町荒木","town_kana":"アラキマチアラキ","prefecture_code":40},"0065":{"zip_code":"8300065","prefecture":"福岡県","prefecture_kana":"フクオカケン","city":"久留米市","city_kana":"クルメシ","town":"荒木町今","town_kana":"アラキマチイマ","prefecture_code":40},"0066":{"zip_code":"8300066","prefecture":"福岡県","prefecture_kana":"フクオカケン","city":"久留米市","city_kana":"クルメシ","town":"荒木町下荒木","town_kana":"アラキマチシモアラキ","prefecture_code":40},"0062":{"zip_code":"8300062","prefecture":"福岡県","prefecture_kana":"フクオカケン","city":"久留米市","city_kana":"クルメシ","town":"荒木町白口","town_kana":"アラキマチシラクチ","prefecture_code":40},"0064":{"zip_code":"8300064","prefecture":"福岡県","prefecture_kana":"フクオカケン","city":"久留米市","city_kana":"クルメシ","town":"荒木町藤田","town_kana":"アラキマチフジタ","prefecture_code":40},"0048":{"zip_code":"8300048","prefecture":"福岡県","prefecture_kana":"フクオカケン","city":"久留米市","city_kana":"クルメシ","town":"梅満町","town_kana":"ウメミツマチ","prefecture_code":40},"0059":{"zip_code":"8300059","prefecture":"福岡県","prefecture_kana":"フクオカケン","city":"久留米市","city_kana":"クルメシ","town":"江戸屋敷","town_kana":"エドヤシキ","prefecture_code":40},"0049":{"zip_code":"8300049","prefecture":"福岡県","prefecture_kana":"フクオカケン","city":"久留米市","city_kana":"クルメシ","town":"大石町","town_kana":"オオイシマチ","prefecture_code":40},"0034":{"zip_code":"8300034","prefecture":"福岡県","prefecture_kana":"フクオカケン","city":"久留米市","city_kana":"クルメシ","town":"大手町","town_kana":"オオテマチ","prefecture_code":40},"0055":{"zip_code":"8300055","prefecture":"福岡県","prefecture_kana":"フクオカケン","city":"久留米市","city_kana":"クルメシ","town":"上津","town_kana":"カミツ","prefecture_code":40},"0052":{"zip_code":"8300052","prefecture":"福岡県","prefecture_kana":"フクオカケン","city":"久留米市","city_kana":"クルメシ","town":"上津町","town_kana":"カミツマチ","prefecture_code":40},"1127":{"zip_code":"8301127","prefecture":"福岡県","prefecture_kana":"フクオカケン","city":"久留米市","city_kana":"クルメシ","town":"北野町赤司","town_kana":"キタノマチアカシ","prefecture_code":40},"1116":{"zip_code":"8301116","prefecture":"福岡県","prefecture_kana":"フクオカケン","city":"久留米市","city_kana":"クルメシ","town":"北野町石崎","town_kana":"キタノマチイシザキ","prefecture_code":40},"1126":{"zip_code":"8301126","prefecture":"福岡県","prefecture_kana":"フクオカケン","city":"久留米市","city_kana":"クルメシ","town":"北野町稲数","town_kana":"キタノマチイナカズ","prefecture_code":40},"1122":{"zip_code":"8301122","prefecture":"福岡県","prefecture_kana":"フクオカケン","city":"久留米市","city_kana":"クルメシ","town":"北野町今山","town_kana":"キタノマチイマヤマ","prefecture_code":40},"1104":{"zip_code":"8301104","prefecture":"福岡県","prefecture_kana":"フクオカケン","city":"久留米市","city_kana":"クルメシ","town":"北野町大城","town_kana":"キタノマチオオキ","prefecture_code":40},"1125":{"zip_code":"8301125","prefecture":"福岡県","prefecture_kana":"フクオカケン","city":"久留米市","city_kana":"クルメシ","town":"北野町乙丸","town_kana":"キタノマチオトマル","prefecture_code":40},"1124":{"zip_code":"8301124","prefecture":"福岡県","prefecture_kana":"フクオカケン","city":"久留米市","city_kana":"クルメシ","town":"北野町乙吉","town_kana":"キタノマチオトヨシ","prefecture_code":40},"1103":{"zip_code":"8301103","prefecture":"福岡県","prefecture_kana":"フクオカケン","city":"久留米市","city_kana":"クルメシ","town":"北野町金島","town_kana":"キタノマチカネシマ","prefecture_code":40},"1117":{"zip_code":"8301117","prefecture":"福岡県","prefecture_kana":"フクオカケン","city":"久留米市","city_kana":"クルメシ","town":"北野町上弓削","town_kana":"キタノマチカミユゲ","prefecture_code":40},"1114":{"zip_code":"8301114","prefecture":"福岡県","prefecture_kana":"フクオカケン","city":"久留米市","city_kana":"クルメシ","town":"北野町高良","town_kana":"キタノマチコウラ","prefecture_code":40},"1121":{"zip_code":"8301121","prefecture":"福岡県","prefecture_kana":"フクオカケン","city":"久留米市","city_kana":"クルメシ","town":"北野町十郎丸","town_kana":"キタノマチジュウロウマル","prefecture_code":40},"1112":{"zip_code":"8301112","prefecture":"福岡県","prefecture_kana":"フクオカケン","city":"久留米市","city_kana":"クルメシ","town":"北野町陣屋","town_kana":"キタノマチジンヤ","prefecture_code":40},"1111":{"zip_code":"8301111","prefecture":"福岡県","prefecture_kana":"フクオカケン","city":"久留米市","city_kana":"クルメシ","town":"北野町千代島","town_kana":"キタノマチチヨジマ","prefecture_code":40},"1107":{"zip_code":"8301107","prefecture":"福岡県","prefecture_kana":"フクオカケン","city":"久留米市","city_kana":"クルメシ","town":"北野町塚島","town_kana":"キタノマチツカジマ","prefecture_code":40},"1123":{"zip_code":"8301123","prefecture":"福岡県","prefecture_kana":"フクオカケン","city":"久留米市","city_kana":"クルメシ","town":"北野町冨多","town_kana":"キタノマチトミタ","prefecture_code":40},"1115":{"zip_code":"8301115","prefecture":"福岡県","prefecture_kana":"フクオカケン","city":"久留米市","city_kana":"クルメシ","town":"北野町鳥巣","town_kana":"キタノマチトリス","prefecture_code":40},"1113":{"zip_code":"8301113","prefecture":"福岡県","prefecture_kana":"フクオカケン","city":"久留米市","city_kana":"クルメシ","town":"北野町中","town_kana":"キタノマチナカ","prefecture_code":40},"1101":{"zip_code":"8301101","prefecture":"福岡県","prefecture_kana":"フクオカケン","city":"久留米市","city_kana":"クルメシ","town":"北野町中川","town_kana":"キタノマチナカガワ","prefecture_code":40},"1105":{"zip_code":"8301105","prefecture":"福岡県","prefecture_kana":"フクオカケン","city":"久留米市","city_kana":"クルメシ","town":"北野町中島","town_kana":"キタノマチナカシマ","prefecture_code":40},"1106":{"zip_code":"8301106","prefecture":"福岡県","prefecture_kana":"フクオカケン","city":"久留米市","city_kana":"クルメシ","town":"北野町仁王丸","town_kana":"キタノマチニオウマル","prefecture_code":40},"1102":{"zip_code":"8301102","prefecture":"福岡県","prefecture_kana":"フクオカケン","city":"久留米市","city_kana":"クルメシ","town":"北野町八重亀","town_kana":"キタノマチヤエガメ","prefecture_code":40},"0028":{"zip_code":"8300028","prefecture":"福岡県","prefecture_kana":"フクオカケン","city":"久留米市","city_kana":"クルメシ","town":"京町","town_kana":"キョウマチ","prefecture_code":40},"0013":{"zip_code":"8300013","prefecture":"福岡県","prefecture_kana":"フクオカケン","city":"久留米市","city_kana":"クルメシ","town":"櫛原町","town_kana":"クシハラマチ","prefecture_code":40},"0045":{"zip_code":"8300045","prefecture":"福岡県","prefecture_kana":"フクオカケン","city":"久留米市","city_kana":"クルメシ","town":"小頭町","town_kana":"コガシラマチ","prefecture_code":40},"0001":{"zip_code":"8300001","prefecture":"福岡県","prefecture_kana":"フクオカケン","city":"久留米市","city_kana":"クルメシ","town":"小森野","town_kana":"コモリノ","prefecture_code":40},"0021":{"zip_code":"8300021","prefecture":"福岡県","prefecture_kana":"フクオカケン","city":"久留米市","city_kana":"クルメシ","town":"篠山町","town_kana":"ササヤママチ","prefecture_code":40},"0036":{"zip_code":"8300036","prefecture":"福岡県","prefecture_kana":"フクオカケン","city":"久留米市","city_kana":"クルメシ","town":"篠原町","town_kana":"シノハラマチ","prefecture_code":40},"0042":{"zip_code":"8300042","prefecture":"福岡県","prefecture_kana":"フクオカケン","city":"久留米市","city_kana":"クルメシ","town":"荘島町","town_kana":"ショウジママチ","prefecture_code":40},"0222":{"zip_code":"8300222","prefecture":"福岡県","prefecture_kana":"フクオカケン","city":"久留米市","city_kana":"クルメシ","town":"城島町青木島","town_kana":"ジョウジママチアオキシマ","prefecture_code":40},"0201":{"zip_code":"8300201","prefecture":"福岡県","prefecture_kana":"フクオカケン","city":"久留米市","city_kana":"クルメシ","town":"城島町芦塚","town_kana":"ジョウジママチアシヅカ","prefecture_code":40},"0221":{"zip_code":"8300221","prefecture":"福岡県","prefecture_kana":"フクオカケン","city":"久留米市","city_kana":"クルメシ","town":"城島町浮島","town_kana":"ジョウジママチウキシマ","prefecture_code":40},"0204":{"zip_code":"8300204","prefecture":"福岡県","prefecture_kana":"フクオカケン","city":"久留米市","city_kana":"クルメシ","town":"城島町内野","town_kana":"ジョウジママチウチノ","prefecture_code":40},"0213":{"zip_code":"8300213","prefecture":"福岡県","prefecture_kana":"フクオカケン","city":"久留米市","city_kana":"クルメシ","town":"城島町江上","town_kana":"ジョウジママチエガミ","prefecture_code":40},"0212":{"zip_code":"8300212","prefecture":"福岡県","prefecture_kana":"フクオカケン","city":"久留米市","city_kana":"クルメシ","town":"城島町江上上","town_kana":"ジョウジママチエガミカミ","prefecture_code":40},"0214":{"zip_code":"8300214","prefecture":"福岡県","prefecture_kana":"フクオカケン","city":"久留米市","city_kana":"クルメシ","town":"城島町江上本","town_kana":"ジョウジママチエガミホン","prefecture_code":40},"0216":{"zip_code":"8300216","prefecture":"福岡県","prefecture_kana":"フクオカケン","city":"久留米市","city_kana":"クルメシ","town":"城島町江島","town_kana":"ジョウジママチエシマ","prefecture_code":40},"0205":{"zip_code":"8300205","prefecture":"福岡県","prefecture_kana":"フクオカケン","city":"久留米市","city_kana":"クルメシ","town":"城島町大依","town_kana":"ジョウジママチオオヨリ","prefecture_code":40},"0224":{"zip_code":"8300224","prefecture":"福岡県","prefecture_kana":"フクオカケン","city":"久留米市","city_kana":"クルメシ","town":"城島町上青木","town_kana":"ジョウジママチカミアオキ","prefecture_code":40},"0225":{"zip_code":"8300225","prefecture":"福岡県","prefecture_kana":"フクオカケン","city":"久留米市","city_kana":"クルメシ","town":"城島町下青木","town_kana":"ジョウジママチシモアオキ","prefecture_code":40},"0202":{"zip_code":"8300202","prefecture":"福岡県","prefecture_kana":"フクオカケン","city":"久留米市","city_kana":"クルメシ","town":"城島町下田","town_kana":"ジョウジママチシモダ","prefecture_code":40},"0207":{"zip_code":"8300207","prefecture":"福岡県","prefecture_kana":"フクオカケン","city":"久留米市","city_kana":"クルメシ","town":"城島町城島","town_kana":"ジョウジママチジョウジマ","prefecture_code":40},"0223":{"zip_code":"8300223","prefecture":"福岡県","prefecture_kana":"フクオカケン","city":"久留米市","city_kana":"クルメシ","town":"城島町四郎丸","town_kana":"ジョウジママチシロウマル","prefecture_code":40},"0211":{"zip_code":"8300211","prefecture":"福岡県","prefecture_kana":"フクオカケン","city":"久留米市","city_kana":"クルメシ","town":"城島町楢津","town_kana":"ジョウジママチナラツ","prefecture_code":40},"0226":{"zip_code":"8300226","prefecture":"福岡県","prefecture_kana":"フクオカケン","city":"久留米市","city_kana":"クルメシ","town":"城島町西青木","town_kana":"ジョウジママチニシアオキ","prefecture_code":40},"0203":{"zip_code":"8300203","prefecture":"福岡県","prefecture_kana":"フクオカケン","city":"久留米市","city_kana":"クルメシ","town":"城島町浜","town_kana":"ジョウジママチハマ","prefecture_code":40},"0215":{"zip_code":"8300215","prefecture":"福岡県","prefecture_kana":"フクオカケン","city":"久留米市","city_kana":"クルメシ","town":"城島町原中牟田","town_kana":"ジョウジママチハラナカムタ","prefecture_code":40},"0206":{"zip_code":"8300206","prefecture":"福岡県","prefecture_kana":"フクオカケン","city":"久留米市","city_kana":"クルメシ","town":"城島町六町原","town_kana":"ジョウジママチロクチョウバル","prefecture_code":40},"0022":{"zip_code":"8300022","prefecture":"福岡県","prefecture_kana":"フクオカケン","city":"久留米市","city_kana":"クルメシ","town":"城南町","town_kana":"ジョウナンマチ","prefecture_code":40},"0041":{"zip_code":"8300041","prefecture":"福岡県","prefecture_kana":"フクオカケン","city":"久留米市","city_kana":"クルメシ","town":"白山町","town_kana":"シラヤママチ","prefecture_code":40},"0037":{"zip_code":"8300037","prefecture":"福岡県","prefecture_kana":"フクオカケン","city":"久留米市","city_kana":"クルメシ","town":"諏訪野町","town_kana":"スワノマチ","prefecture_code":40},"0025":{"zip_code":"8300025","prefecture":"福岡県","prefecture_kana":"フクオカケン","city":"久留米市","city_kana":"クルメシ","town":"瀬下町","town_kana":"セノシタマチ","prefecture_code":40},"0079":{"zip_code":"8300079","prefecture":"福岡県","prefecture_kana":"フクオカケン","city":"久留米市","city_kana":"クルメシ","town":"大善寺大橋","town_kana":"ダイゼンジオオハシ","prefecture_code":40},"0075":{"zip_code":"8300075","prefecture":"福岡県","prefecture_kana":"フクオカケン","city":"久留米市","city_kana":"クルメシ","town":"大善寺町黒田","town_kana":"ダイゼンジマチクロダ","prefecture_code":40},"0077":{"zip_code":"8300077","prefecture":"福岡県","prefecture_kana":"フクオカケン","city":"久留米市","city_kana":"クルメシ","town":"大善寺町中津","town_kana":"ダイゼンジマチナカツ","prefecture_code":40},"0076":{"zip_code":"8300076","prefecture":"福岡県","prefecture_kana":"フクオカケン","city":"久留米市","city_kana":"クルメシ","town":"大善寺町藤吉","town_kana":"ダイゼンジマチフジヨシ","prefecture_code":40},"0073":{"zip_code":"8300073","prefecture":"福岡県","prefecture_kana":"フクオカケン","city":"久留米市","city_kana":"クルメシ","town":"大善寺町宮本","town_kana":"ダイゼンジマチミヤモト","prefecture_code":40},"0074":{"zip_code":"8300074","prefecture":"福岡県","prefecture_kana":"フクオカケン","city":"久留米市","city_kana":"クルメシ","town":"大善寺町夜明","town_kana":"ダイゼンジマチヨアケ","prefecture_code":40},"0070":{"zip_code":"8300070","prefecture":"福岡県","prefecture_kana":"フクオカケン","city":"久留米市","city_kana":"クルメシ","town":"大善寺南","town_kana":"ダイゼンジミナミ","prefecture_code":40},"0002":{"zip_code":"8300002","prefecture":"福岡県","prefecture_kana":"フクオカケン","city":"久留米市","city_kana":"クルメシ","town":"高野","town_kana":"タカノ","prefecture_code":40},"0023":{"zip_code":"8300023","prefecture":"福岡県","prefecture_kana":"フクオカケン","city":"久留米市","city_kana":"クルメシ","town":"中央町","town_kana":"チュウオウマチ","prefecture_code":40},"0061":{"zip_code":"8300061","prefecture":"福岡県","prefecture_kana":"フクオカケン","city":"久留米市","city_kana":"クルメシ","town":"津福今町","town_kana":"ツブクイママチ","prefecture_code":40},"0047":{"zip_code":"8300047","prefecture":"福岡県","prefecture_kana":"フクオカケン","city":"久留米市","city_kana":"クルメシ","town":"津福本町","town_kana":"ツブクホンマチ","prefecture_code":40},"0014":{"zip_code":"8300014","prefecture":"福岡県","prefecture_kana":"フクオカケン","city":"久留米市","city_kana":"クルメシ","town":"寺町","town_kana":"テラマチ","prefecture_code":40},"0033":{"zip_code":"8300033","prefecture":"福岡県","prefecture_kana":"フクオカケン","city":"久留米市","city_kana":"クルメシ","town":"天神町","town_kana":"テンジンマチ","prefecture_code":40},"0035":{"zip_code":"8300035","prefecture":"福岡県","prefecture_kana":"フクオカケン","city":"久留米市","city_kana":"クルメシ","town":"東和町","town_kana":"トウワマチ","prefecture_code":40},"0016":{"zip_code":"8300016","prefecture":"福岡県","prefecture_kana":"フクオカケン","city":"久留米市","city_kana":"クルメシ","town":"通東町","town_kana":"トオリヒガシマチ","prefecture_code":40},"0005":{"zip_code":"8300005","prefecture":"福岡県","prefecture_kana":"フクオカケン","city":"久留米市","city_kana":"クルメシ","town":"通外町","town_kana":"トオリホカマチ","prefecture_code":40},"0018":{"zip_code":"8300018","prefecture":"福岡県","prefecture_kana":"フクオカケン","city":"久留米市","city_kana":"クルメシ","town":"通町","town_kana":"トオリマチ","prefecture_code":40},"0027":{"zip_code":"8300027","prefecture":"福岡県","prefecture_kana":"フクオカケン","city":"久留米市","city_kana":"クルメシ","town":"長門石","town_kana":"ナガトイシ","prefecture_code":40},"0026":{"zip_code":"8300026","prefecture":"福岡県","prefecture_kana":"フクオカケン","city":"久留米市","city_kana":"クルメシ","town":"長門石町","town_kana":"ナガトイシマチ","prefecture_code":40},"0024":{"zip_code":"8300024","prefecture":"福岡県","prefecture_kana":"フクオカケン","city":"久留米市","city_kana":"クルメシ","town":"縄手町","town_kana":"ナワテマチ","prefecture_code":40},"0006":{"zip_code":"8300006","prefecture":"福岡県","prefecture_kana":"フクオカケン","city":"久留米市","city_kana":"クルメシ","town":"南薫西町","town_kana":"ナンクンニシマチ","prefecture_code":40},"0004":{"zip_code":"8300004","prefecture":"福岡県","prefecture_kana":"フクオカケン","city":"久留米市","city_kana":"クルメシ","town":"南薫町","town_kana":"ナンクンマチ","prefecture_code":40},"0038":{"zip_code":"8300038","prefecture":"福岡県","prefecture_kana":"フクオカケン","city":"久留米市","city_kana":"クルメシ","town":"西町","town_kana":"ニシマチ","prefecture_code":40},"0058":{"zip_code":"8300058","prefecture":"福岡県","prefecture_kana":"フクオカケン","city":"久留米市","city_kana":"クルメシ","town":"野伏間","town_kana":"ノブスマ","prefecture_code":40},"0039":{"zip_code":"8300039","prefecture":"福岡県","prefecture_kana":"フクオカケン","city":"久留米市","city_kana":"クルメシ","town":"花畑","town_kana":"ハナバタケ","prefecture_code":40},"0046":{"zip_code":"8300046","prefecture":"福岡県","prefecture_kana":"フクオカケン","city":"久留米市","city_kana":"クルメシ","town":"原古賀町","town_kana":"ハランコガマチ","prefecture_code":40},"0003":{"zip_code":"8300003","prefecture":"福岡県","prefecture_kana":"フクオカケン","city":"久留米市","city_kana":"クルメシ","town":"東櫛原町","town_kana":"ヒガシクシハラマチ","prefecture_code":40},"0032":{"zip_code":"8300032","prefecture":"福岡県","prefecture_kana":"フクオカケン","city":"久留米市","city_kana":"クルメシ","town":"東町","town_kana":"ヒガシマチ","prefecture_code":40},"0012":{"zip_code":"8300012","prefecture":"福岡県","prefecture_kana":"フクオカケン","city":"久留米市","city_kana":"クルメシ","town":"日ノ出町","town_kana":"ヒノデマチ","prefecture_code":40},"0017":{"zip_code":"8300017","prefecture":"福岡県","prefecture_kana":"フクオカケン","city":"久留米市","city_kana":"クルメシ","town":"日吉町","town_kana":"ヒヨシマチ","prefecture_code":40},"0057":{"zip_code":"8300057","prefecture":"福岡県","prefecture_kana":"フクオカケン","city":"久留米市","city_kana":"クルメシ","town":"藤光","town_kana":"フジミツ","prefecture_code":40},"0054":{"zip_code":"8300054","prefecture":"福岡県","prefecture_kana":"フクオカケン","city":"久留米市","city_kana":"クルメシ","town":"藤光町","town_kana":"フジミツマチ","prefecture_code":40},"0053":{"zip_code":"8300053","prefecture":"福岡県","prefecture_kana":"フクオカケン","city":"久留米市","city_kana":"クルメシ","town":"藤山町","town_kana":"フジヤママチ","prefecture_code":40},"0015":{"zip_code":"8300015","prefecture":"福岡県","prefecture_kana":"フクオカケン","city":"久留米市","city_kana":"クルメシ","town":"螢川町","town_kana":"ホタルガワマチ","prefecture_code":40},"0044":{"zip_code":"8300044","prefecture":"福岡県","prefecture_kana":"フクオカケン","city":"久留米市","city_kana":"クルメシ","town":"本町","town_kana":"ホンマチ","prefecture_code":40},"0043":{"zip_code":"8300043","prefecture":"福岡県","prefecture_kana":"フクオカケン","city":"久留米市","city_kana":"クルメシ","town":"松ケ枝町","town_kana":"マツガエマチ","prefecture_code":40},"0113":{"zip_code":"8300113","prefecture":"福岡県","prefecture_kana":"フクオカケン","city":"久留米市","city_kana":"クルメシ","town":"三潴町生岩","town_kana":"ミヅママチイキイワ","prefecture_code":40},"0115":{"zip_code":"8300115","prefecture":"福岡県","prefecture_kana":"フクオカケン","city":"久留米市","city_kana":"クルメシ","town":"三潴町壱町原","town_kana":"ミヅママチイッチョウバル","prefecture_code":40},"0116":{"zip_code":"8300116","prefecture":"福岡県","prefecture_kana":"フクオカケン","city":"久留米市","city_kana":"クルメシ","town":"三潴町清松","town_kana":"ミヅママチキヨマツ","prefecture_code":40},"0105":{"zip_code":"8300105","prefecture":"福岡県","prefecture_kana":"フクオカケン","city":"久留米市","city_kana":"クルメシ","town":"三潴町草場","town_kana":"ミヅママチクサバ","prefecture_code":40},"0103":{"zip_code":"8300103","prefecture":"福岡県","prefecture_kana":"フクオカケン","city":"久留米市","city_kana":"クルメシ","town":"三潴町高三潴","town_kana":"ミヅママチタカミズマ","prefecture_code":40},"0102":{"zip_code":"8300102","prefecture":"福岡県","prefecture_kana":"フクオカケン","city":"久留米市","city_kana":"クルメシ","town":"三潴町田川","town_kana":"ミヅママチタガワ","prefecture_code":40},"0112":{"zip_code":"8300112","prefecture":"福岡県","prefecture_kana":"フクオカケン","city":"久留米市","city_kana":"クルメシ","town":"三潴町玉満","town_kana":"ミヅママチタマミツ","prefecture_code":40},"0111":{"zip_code":"8300111","prefecture":"福岡県","prefecture_kana":"フクオカケン","city":"久留米市","city_kana":"クルメシ","town":"三潴町西牟田","town_kana":"ミヅママチニシムタ","prefecture_code":40},"0101":{"zip_code":"8300101","prefecture":"福岡県","prefecture_kana":"フクオカケン","city":"久留米市","city_kana":"クルメシ","town":"三潴町早津崎","town_kana":"ミヅママチハヤツザキ","prefecture_code":40},"0104":{"zip_code":"8300104","prefecture":"福岡県","prefecture_kana":"フクオカケン","city":"久留米市","city_kana":"クルメシ","town":"三潴町原田","town_kana":"ミヅママチハルダ","prefecture_code":40},"0114":{"zip_code":"8300114","prefecture":"福岡県","prefecture_kana":"フクオカケン","city":"久留米市","city_kana":"クルメシ","town":"三潴町福光","town_kana":"ミヅママチフクミツ","prefecture_code":40},"0051":{"zip_code":"8300051","prefecture":"福岡県","prefecture_kana":"フクオカケン","city":"久留米市","city_kana":"クルメシ","town":"南","town_kana":"ミナミ","prefecture_code":40},"0031":{"zip_code":"8300031","prefecture":"福岡県","prefecture_kana":"フクオカケン","city":"久留米市","city_kana":"クルメシ","town":"六ツ門町","town_kana":"ムツモンマチ","prefecture_code":40},"0056":{"zip_code":"8300056","prefecture":"福岡県","prefecture_kana":"フクオカケン","city":"久留米市","city_kana":"クルメシ","town":"本山","town_kana":"モトヤマ","prefecture_code":40},"0078":{"zip_code":"8300078","prefecture":"福岡県","prefecture_kana":"フクオカケン","city":"久留米市","city_kana":"クルメシ","town":"安武町住吉","town_kana":"ヤスタケマチスミヨシ","prefecture_code":40},"0071":{"zip_code":"8300071","prefecture":"福岡県","prefecture_kana":"フクオカケン","city":"久留米市","city_kana":"クルメシ","town":"安武町武島","town_kana":"ヤスタケマチタケシマ","prefecture_code":40},"0072":{"zip_code":"8300072","prefecture":"福岡県","prefecture_kana":"フクオカケン","city":"久留米市","city_kana":"クルメシ","town":"安武町安武本","town_kana":"ヤスタケマチヤスタケホン","prefecture_code":40},"1200":{"zip_code":"8301200","prefecture":"福岡県","prefecture_kana":"フクオカケン","city":"三井郡大刀洗町","city_kana":"ミイグンタチアライマチ","town":"","town_kana":"","prefecture_code":40},"1223":{"zip_code":"8301223","prefecture":"福岡県","prefecture_kana":"フクオカケン","city":"三井郡大刀洗町","city_kana":"ミイグンタチアライマチ","town":"今","town_kana":"イマ","prefecture_code":40},"1224":{"zip_code":"8301224","prefecture":"福岡県","prefecture_kana":"フクオカケン","city":"三井郡大刀洗町","city_kana":"ミイグンタチアライマチ","town":"鵜木","town_kana":"ウノキ","prefecture_code":40},"1213":{"zip_code":"8301213","prefecture":"福岡県","prefecture_kana":"フクオカケン","city":"三井郡大刀洗町","city_kana":"ミイグンタチアライマチ","town":"春日","town_kana":"カスガ","prefecture_code":40},"1222":{"zip_code":"8301222","prefecture":"福岡県","prefecture_kana":"フクオカケン","city":"三井郡大刀洗町","city_kana":"ミイグンタチアライマチ","town":"上高橋","town_kana":"カミタカハシ","prefecture_code":40},"1212":{"zip_code":"8301212","prefecture":"福岡県","prefecture_kana":"フクオカケン","city":"三井郡大刀洗町","city_kana":"ミイグンタチアライマチ","town":"甲条","town_kana":"コウチョウ","prefecture_code":40},"1214":{"zip_code":"8301214","prefecture":"福岡県","prefecture_kana":"フクオカケン","city":"三井郡大刀洗町","city_kana":"ミイグンタチアライマチ","town":"栄田","town_kana":"サカエダ","prefecture_code":40},"1225":{"zip_code":"8301225","prefecture":"福岡県","prefecture_kana":"フクオカケン","city":"三井郡大刀洗町","city_kana":"ミイグンタチアライマチ","town":"下高橋","town_kana":"シモタカハシ","prefecture_code":40},"1202":{"zip_code":"8301202","prefecture":"福岡県","prefecture_kana":"フクオカケン","city":"三井郡大刀洗町","city_kana":"ミイグンタチアライマチ","town":"菅野","town_kana":"スガノ","prefecture_code":40},"1221":{"zip_code":"8301221","prefecture":"福岡県","prefecture_kana":"フクオカケン","city":"三井郡大刀洗町","city_kana":"ミイグンタチアライマチ","town":"高樋","town_kana":"タカエ","prefecture_code":40},"1201":{"zip_code":"8301201","prefecture":"福岡県","prefecture_kana":"フクオカケン","city":"三井郡大刀洗町","city_kana":"ミイグンタチアライマチ","town":"冨多","town_kana":"トミタ","prefecture_code":40},"1206":{"zip_code":"8301206","prefecture":"福岡県","prefecture_kana":"フクオカケン","city":"三井郡大刀洗町","city_kana":"ミイグンタチアライマチ","town":"中川","town_kana":"ナカガワ","prefecture_code":40},"1204":{"zip_code":"8301204","prefecture":"福岡県","prefecture_kana":"フクオカケン","city":"三井郡大刀洗町","city_kana":"ミイグンタチアライマチ","town":"西原","town_kana":"ニシバル","prefecture_code":40},"1211":{"zip_code":"8301211","prefecture":"福岡県","prefecture_kana":"フクオカケン","city":"三井郡大刀洗町","city_kana":"ミイグンタチアライマチ","town":"本郷","town_kana":"ホンゴウ","prefecture_code":40},"1203":{"zip_code":"8301203","prefecture":"福岡県","prefecture_kana":"フクオカケン","city":"三井郡大刀洗町","city_kana":"ミイグンタチアライマチ","town":"三川","town_kana":"ミカワ","prefecture_code":40},"1205":{"zip_code":"8301205","prefecture":"福岡県","prefecture_kana":"フクオカケン","city":"三井郡大刀洗町","city_kana":"ミイグンタチアライマチ","town":"守部","town_kana":"モルベ","prefecture_code":40},"1226":{"zip_code":"8301226","prefecture":"福岡県","prefecture_kana":"フクオカケン","city":"三井郡大刀洗町","city_kana":"ミイグンタチアライマチ","town":"山隈","town_kana":"ヤマグマ","prefecture_code":40},"0400":{"zip_code":"8300400","prefecture":"福岡県","prefecture_kana":"フクオカケン","city":"三潴郡大木町","city_kana":"ミズマグンオオキマチ","town":"","town_kana":"","prefecture_code":40},"0425":{"zip_code":"8300425","prefecture":"福岡県","prefecture_kana":"フクオカケン","city":"三潴郡大木町","city_kana":"ミズマグンオオキマチ","town":"筏溝","town_kana":"イカダミゾ","prefecture_code":40},"0415":{"zip_code":"8300415","prefecture":"福岡県","prefecture_kana":"フクオカケン","city":"三潴郡大木町","city_kana":"ミズマグンオオキマチ","town":"絵下古賀","town_kana":"エゲコガ","prefecture_code":40},"0403":{"zip_code":"8300403","prefecture":"福岡県","prefecture_kana":"フクオカケン","city":"三潴郡大木町","city_kana":"ミズマグンオオキマチ","town":"大角","town_kana":"オオズミ","prefecture_code":40},"0423":{"zip_code":"8300423","prefecture":"福岡県","prefecture_kana":"フクオカケン","city":"三潴郡大木町","city_kana":"ミズマグンオオキマチ","town":"大藪","town_kana":"オオヤブ","prefecture_code":40},"0421":{"zip_code":"8300421","prefecture":"福岡県","prefecture_kana":"フクオカケン","city":"三潴郡大木町","city_kana":"ミズマグンオオキマチ","town":"奥牟田","town_kana":"オクムタ","prefecture_code":40},"0414":{"zip_code":"8300414","prefecture":"福岡県","prefecture_kana":"フクオカケン","city":"三潴郡大木町","city_kana":"ミズマグンオオキマチ","town":"上木佐木","town_kana":"カミキサキ","prefecture_code":40},"0404":{"zip_code":"8300404","prefecture":"福岡県","prefecture_kana":"フクオカケン","city":"三潴郡大木町","city_kana":"ミズマグンオオキマチ","town":"上白垣","town_kana":"カミシラカキ","prefecture_code":40},"0417":{"zip_code":"8300417","prefecture":"福岡県","prefecture_kana":"フクオカケン","city":"三潴郡大木町","city_kana":"ミズマグンオオキマチ","town":"上八院","town_kana":"カミハチイン","prefecture_code":40},"0413":{"zip_code":"8300413","prefecture":"福岡県","prefecture_kana":"フクオカケン","city":"三潴郡大木町","city_kana":"ミズマグンオオキマチ","town":"上牟田口","town_kana":"カミムタグチ","prefecture_code":40},"0401":{"zip_code":"8300401","prefecture":"福岡県","prefecture_kana":"フクオカケン","city":"三潴郡大木町","city_kana":"ミズマグンオオキマチ","town":"笹渕","town_kana":"ササブチ","prefecture_code":40},"0412":{"zip_code":"8300412","prefecture":"福岡県","prefecture_kana":"フクオカケン","city":"三潴郡大木町","city_kana":"ミズマグンオオキマチ","town":"侍島","town_kana":"サムライジマ","prefecture_code":40},"0422":{"zip_code":"8300422","prefecture":"福岡県","prefecture_kana":"フクオカケン","city":"三潴郡大木町","city_kana":"ミズマグンオオキマチ","town":"高橋","town_kana":"タカハシ","prefecture_code":40},"0416":{"zip_code":"8300416","prefecture":"福岡県","prefecture_kana":"フクオカケン","city":"三潴郡大木町","city_kana":"ミズマグンオオキマチ","town":"八町牟田","town_kana":"ハッチョウムタ","prefecture_code":40},"0411":{"zip_code":"8300411","prefecture":"福岡県","prefecture_kana":"フクオカケン","city":"三潴郡大木町","city_kana":"ミズマグンオオキマチ","town":"蛭池","town_kana":"ヒルイケ","prefecture_code":40},"0402":{"zip_code":"8300402","prefecture":"福岡県","prefecture_kana":"フクオカケン","city":"三潴郡大木町","city_kana":"ミズマグンオオキマチ","town":"福土","town_kana":"フクド","prefecture_code":40},"0406":{"zip_code":"8300406","prefecture":"福岡県","prefecture_kana":"フクオカケン","city":"三潴郡大木町","city_kana":"ミズマグンオオキマチ","town":"前牟田","town_kana":"マエムタ","prefecture_code":40},"0424":{"zip_code":"8300424","prefecture":"福岡県","prefecture_kana":"フクオカケン","city":"三潴郡大木町","city_kana":"ミズマグンオオキマチ","town":"三八松","town_kana":"ミヤマツ","prefecture_code":40},"0405":{"zip_code":"8300405","prefecture":"福岡県","prefecture_kana":"フクオカケン","city":"三潴郡大木町","city_kana":"ミズマグンオオキマチ","town":"横溝","town_kana":"ヨコミゾ","prefecture_code":40}}