{"0000":{"zip_code":"8310000","prefecture":"福岡県","prefecture_kana":"フクオカケン","city":"大川市","city_kana":"オオカワシ","town":"以下に掲載がない場合","town_kana":"イカニケイサイガナイバアイ","prefecture_code":40},"0031":{"zip_code":"8310031","prefecture":"福岡県","prefecture_kana":"フクオカケン","city":"大川市","city_kana":"オオカワシ","town":"上巻","town_kana":"アゲマキ","prefecture_code":40},"0004":{"zip_code":"8310004","prefecture":"福岡県","prefecture_kana":"フクオカケン","city":"大川市","city_kana":"オオカワシ","town":"榎津","town_kana":"エノキヅ","prefecture_code":40},"0045":{"zip_code":"8310045","prefecture":"福岡県","prefecture_kana":"フクオカケン","city":"大川市","city_kana":"オオカワシ","town":"大野島","town_kana":"オオノシマ","prefecture_code":40},"0021":{"zip_code":"8310021","prefecture":"福岡県","prefecture_kana":"フクオカケン","city":"大川市","city_kana":"オオカワシ","town":"大橋","town_kana":"オオハシ","prefecture_code":40},"0027":{"zip_code":"8310027","prefecture":"福岡県","prefecture_kana":"フクオカケン","city":"大川市","city_kana":"オオカワシ","town":"荻島","town_kana":"オギシマ","prefecture_code":40},"0024":{"zip_code":"8310024","prefecture":"福岡県","prefecture_kana":"フクオカケン","city":"大川市","city_kana":"オオカワシ","town":"鬼古賀","town_kana":"オニコガ","prefecture_code":40},"0008":{"zip_code":"8310008","prefecture":"福岡県","prefecture_kana":"フクオカケン","city":"大川市","city_kana":"オオカワシ","town":"鐘ケ江","town_kana":"カネガエ","prefecture_code":40},"0012":{"zip_code":"8310012","prefecture":"福岡県","prefecture_kana":"フクオカケン","city":"大川市","city_kana":"オオカワシ","town":"上白垣","town_kana":"カミシラカキ","prefecture_code":40},"0032":{"zip_code":"8310032","prefecture":"福岡県","prefecture_kana":"フクオカケン","city":"大川市","city_kana":"オオカワシ","town":"北古賀","town_kana":"キタコガ","prefecture_code":40},"0042":{"zip_code":"8310042","prefecture":"福岡県","prefecture_kana":"フクオカケン","city":"大川市","city_kana":"オオカワシ","town":"九網","town_kana":"クアミ","prefecture_code":40},"0002":{"zip_code":"8310002","prefecture":"福岡県","prefecture_kana":"フクオカケン","city":"大川市","city_kana":"オオカワシ","town":"下林","town_kana":"ゲバヤシ","prefecture_code":40},"0028":{"zip_code":"8310028","prefecture":"福岡県","prefecture_kana":"フクオカケン","city":"大川市","city_kana":"オオカワシ","town":"郷原","town_kana":"ゴウバル","prefecture_code":40},"0041":{"zip_code":"8310041","prefecture":"福岡県","prefecture_kana":"フクオカケン","city":"大川市","city_kana":"オオカワシ","town":"小保","town_kana":"コボ","prefecture_code":40},"0025":{"zip_code":"8310025","prefecture":"福岡県","prefecture_kana":"フクオカケン","city":"大川市","city_kana":"オオカワシ","town":"坂井","town_kana":"サカイ","prefecture_code":40},"0016":{"zip_code":"8310016","prefecture":"福岡県","prefecture_kana":"フクオカケン","city":"大川市","city_kana":"オオカワシ","town":"酒見","town_kana":"サケミ","prefecture_code":40},"0001":{"zip_code":"8310001","prefecture":"福岡県","prefecture_kana":"フクオカケン","city":"大川市","city_kana":"オオカワシ","town":"下青木","town_kana":"シモアオキ","prefecture_code":40},"0022":{"zip_code":"8310022","prefecture":"福岡県","prefecture_kana":"フクオカケン","city":"大川市","city_kana":"オオカワシ","town":"下木佐木","town_kana":"シモキサキ","prefecture_code":40},"0011":{"zip_code":"8310011","prefecture":"福岡県","prefecture_kana":"フクオカケン","city":"大川市","city_kana":"オオカワシ","town":"下白垣","town_kana":"シモシラカキ","prefecture_code":40},"0017":{"zip_code":"8310017","prefecture":"福岡県","prefecture_kana":"フクオカケン","city":"大川市","city_kana":"オオカワシ","town":"下八院","town_kana":"シモハチイン","prefecture_code":40},"0023":{"zip_code":"8310023","prefecture":"福岡県","prefecture_kana":"フクオカケン","city":"大川市","city_kana":"オオカワシ","town":"下牟田口","town_kana":"シモムタグチ","prefecture_code":40},"0043":{"zip_code":"8310043","prefecture":"福岡県","prefecture_kana":"フクオカケン","city":"大川市","city_kana":"オオカワシ","town":"新田","town_kana":"シンデン","prefecture_code":40},"0035":{"zip_code":"8310035","prefecture":"福岡県","prefecture_kana":"フクオカケン","city":"大川市","city_kana":"オオカワシ","town":"津","town_kana":"ツ","prefecture_code":40},"0007":{"zip_code":"8310007","prefecture":"福岡県","prefecture_kana":"フクオカケン","city":"大川市","city_kana":"オオカワシ","town":"道海島","town_kana":"ドウカイジマ","prefecture_code":40},"0014":{"zip_code":"8310014","prefecture":"福岡県","prefecture_kana":"フクオカケン","city":"大川市","city_kana":"オオカワシ","town":"中木室","town_kana":"ナカキムロ","prefecture_code":40},"0006":{"zip_code":"8310006","prefecture":"福岡県","prefecture_kana":"フクオカケン","city":"大川市","city_kana":"オオカワシ","town":"中古賀","town_kana":"ナカコガ","prefecture_code":40},"0013":{"zip_code":"8310013","prefecture":"福岡県","prefecture_kana":"フクオカケン","city":"大川市","city_kana":"オオカワシ","town":"中八院","town_kana":"ナカハチイン","prefecture_code":40},"0033":{"zip_code":"8310033","prefecture":"福岡県","prefecture_kana":"フクオカケン","city":"大川市","city_kana":"オオカワシ","town":"幡保","town_kana":"ハタホ","prefecture_code":40},"0034":{"zip_code":"8310034","prefecture":"福岡県","prefecture_kana":"フクオカケン","city":"大川市","city_kana":"オオカワシ","town":"一木","town_kana":"ヒトツキ","prefecture_code":40},"0044":{"zip_code":"8310044","prefecture":"福岡県","prefecture_kana":"フクオカケン","city":"大川市","city_kana":"オオカワシ","town":"紅粉屋","town_kana":"ベニヤ","prefecture_code":40},"0015":{"zip_code":"8310015","prefecture":"福岡県","prefecture_kana":"フクオカケン","city":"大川市","city_kana":"オオカワシ","town":"本木室","town_kana":"ホンギムロ","prefecture_code":40},"0026":{"zip_code":"8310026","prefecture":"福岡県","prefecture_kana":"フクオカケン","city":"大川市","city_kana":"オオカワシ","town":"三丸","town_kana":"ミツマル","prefecture_code":40},"0005":{"zip_code":"8310005","prefecture":"福岡県","prefecture_kana":"フクオカケン","city":"大川市","city_kana":"オオカワシ","town":"向島","town_kana":"ムカイジマ","prefecture_code":40},"0003":{"zip_code":"8310003","prefecture":"福岡県","prefecture_kana":"フクオカケン","city":"大川市","city_kana":"オオカワシ","town":"諸富","town_kana":"モロドミ","prefecture_code":40}}