{"0000":{"zip_code":"8340000","prefecture":"福岡県","prefecture_kana":"フクオカケン","city":"八女市","city_kana":"ヤメシ","town":"","town_kana":"","prefecture_code":40},"0047":{"zip_code":"8340047","prefecture":"福岡県","prefecture_kana":"フクオカケン","city":"八女市","city_kana":"ヤメシ","town":"稲富","town_kana":"イナドミ","prefecture_code":40},"0026":{"zip_code":"8340026","prefecture":"福岡県","prefecture_kana":"フクオカケン","city":"八女市","city_kana":"ヤメシ","town":"井延","town_kana":"イノブ","prefecture_code":40},"0061":{"zip_code":"8340061","prefecture":"福岡県","prefecture_kana":"フクオカケン","city":"八女市","city_kana":"ヤメシ","town":"今福","town_kana":"イマブク","prefecture_code":40},"0062":{"zip_code":"8340062","prefecture":"福岡県","prefecture_kana":"フクオカケン","city":"八女市","city_kana":"ヤメシ","town":"岩崎","town_kana":"イワサキ","prefecture_code":40},"0055":{"zip_code":"8340055","prefecture":"福岡県","prefecture_kana":"フクオカケン","city":"八女市","city_kana":"ヤメシ","town":"鵜池","town_kana":"ウノイケ","prefecture_code":40},"0013":{"zip_code":"8340013","prefecture":"福岡県","prefecture_kana":"フクオカケン","city":"八女市","city_kana":"ヤメシ","town":"大籠","town_kana":"オオゴモリ","prefecture_code":40},"0005":{"zip_code":"8340005","prefecture":"福岡県","prefecture_kana":"フクオカケン","city":"八女市","city_kana":"ヤメシ","town":"大島","town_kana":"オオジマ","prefecture_code":40},"0041":{"zip_code":"8340041","prefecture":"福岡県","prefecture_kana":"フクオカケン","city":"八女市","city_kana":"ヤメシ","town":"緒玉","town_kana":"オダマ","prefecture_code":40},"0064":{"zip_code":"8340064","prefecture":"福岡県","prefecture_kana":"フクオカケン","city":"八女市","city_kana":"ヤメシ","town":"蒲原","town_kana":"カマハラ","prefecture_code":40},"0065":{"zip_code":"8340065","prefecture":"福岡県","prefecture_kana":"フクオカケン","city":"八女市","city_kana":"ヤメシ","town":"亀甲","town_kana":"カメノコウ","prefecture_code":40},"0053":{"zip_code":"8340053","prefecture":"福岡県","prefecture_kana":"フクオカケン","city":"八女市","city_kana":"ヤメシ","town":"川犬","town_kana":"カワイヌ","prefecture_code":40},"0021":{"zip_code":"8340021","prefecture":"福岡県","prefecture_kana":"フクオカケン","city":"八女市","city_kana":"ヤメシ","town":"北田形","town_kana":"キタタガタ","prefecture_code":40},"0025":{"zip_code":"8340025","prefecture":"福岡県","prefecture_kana":"フクオカケン","city":"八女市","city_kana":"ヤメシ","town":"祈祷院","town_kana":"キトウイン","prefecture_code":40},"0046":{"zip_code":"8340046","prefecture":"福岡県","prefecture_kana":"フクオカケン","city":"八女市","city_kana":"ヤメシ","town":"国武","town_kana":"クニタケ","prefecture_code":40},"1221":{"zip_code":"8341221","prefecture":"福岡県","prefecture_kana":"フクオカケン","city":"八女市","city_kana":"ヤメシ","town":"黒木町今","town_kana":"クロギマチイマ","prefecture_code":40},"1202":{"zip_code":"8341202","prefecture":"福岡県","prefecture_kana":"フクオカケン","city":"八女市","city_kana":"ヤメシ","town":"黒木町大淵","town_kana":"クロギマチオオブチ","prefecture_code":40},"1212":{"zip_code":"8341212","prefecture":"福岡県","prefecture_kana":"フクオカケン","city":"八女市","city_kana":"ヤメシ","town":"黒木町鹿子生","town_kana":"クロギマチカコオ","prefecture_code":40},"1222":{"zip_code":"8341222","prefecture":"福岡県","prefecture_kana":"フクオカケン","city":"八女市","city_kana":"ヤメシ","town":"黒木町笠原","town_kana":"クロギマチカサハラ","prefecture_code":40},"1201":{"zip_code":"8341201","prefecture":"福岡県","prefecture_kana":"フクオカケン","city":"八女市","city_kana":"ヤメシ","town":"黒木町北大淵","town_kana":"クロギマチキタオオブチ","prefecture_code":40},"1203":{"zip_code":"8341203","prefecture":"福岡県","prefecture_kana":"フクオカケン","city":"八女市","city_kana":"ヤメシ","town":"黒木町北木屋","town_kana":"クロギマチキタゴヤ","prefecture_code":40},"1217":{"zip_code":"8341217","prefecture":"福岡県","prefecture_kana":"フクオカケン","city":"八女市","city_kana":"ヤメシ","town":"黒木町黒木","town_kana":"クロギマチクロギ","prefecture_code":40},"1216":{"zip_code":"8341216","prefecture":"福岡県","prefecture_kana":"フクオカケン","city":"八女市","city_kana":"ヤメシ","town":"黒木町桑原","town_kana":"クロギマチクワハラ","prefecture_code":40},"1204":{"zip_code":"8341204","prefecture":"福岡県","prefecture_kana":"フクオカケン","city":"八女市","city_kana":"ヤメシ","town":"黒木町木屋","town_kana":"クロギマチコヤ","prefecture_code":40},"1205":{"zip_code":"8341205","prefecture":"福岡県","prefecture_kana":"フクオカケン","city":"八女市","city_kana":"ヤメシ","town":"黒木町田代","town_kana":"クロギマチタシロ","prefecture_code":40},"1214":{"zip_code":"8341214","prefecture":"福岡県","prefecture_kana":"フクオカケン","city":"八女市","city_kana":"ヤメシ","town":"黒木町田本","town_kana":"クロギマチタモト","prefecture_code":40},"1211":{"zip_code":"8341211","prefecture":"福岡県","prefecture_kana":"フクオカケン","city":"八女市","city_kana":"ヤメシ","town":"黒木町土窪","town_kana":"クロギマチツチクボ","prefecture_code":40},"1213":{"zip_code":"8341213","prefecture":"福岡県","prefecture_kana":"フクオカケン","city":"八女市","city_kana":"ヤメシ","town":"黒木町本分","town_kana":"クロギマチホンブン","prefecture_code":40},"1215":{"zip_code":"8341215","prefecture":"福岡県","prefecture_kana":"フクオカケン","city":"八女市","city_kana":"ヤメシ","town":"黒木町湯辺田","town_kana":"クロギマチユベタ","prefecture_code":40},"0002":{"zip_code":"8340002","prefecture":"福岡県","prefecture_kana":"フクオカケン","city":"八女市","city_kana":"ヤメシ","town":"黒土","town_kana":"クロツチ","prefecture_code":40},"0042":{"zip_code":"8340042","prefecture":"福岡県","prefecture_kana":"フクオカケン","city":"八女市","city_kana":"ヤメシ","town":"酒井田","town_kana":"サカイダ","prefecture_code":40},"1101":{"zip_code":"8341101","prefecture":"福岡県","prefecture_kana":"フクオカケン","city":"八女市","city_kana":"ヤメシ","town":"上陽町上横山","town_kana":"ジョウヨウマチカミヨコヤマ","prefecture_code":40},"1102":{"zip_code":"8341102","prefecture":"福岡県","prefecture_kana":"フクオカケン","city":"八女市","city_kana":"ヤメシ","town":"上陽町北川内","town_kana":"ジョウヨウマチキタカワウチ","prefecture_code":40},"1103":{"zip_code":"8341103","prefecture":"福岡県","prefecture_kana":"フクオカケン","city":"八女市","city_kana":"ヤメシ","town":"上陽町久木原","town_kana":"ジョウヨウマチクキハラ","prefecture_code":40},"1104":{"zip_code":"8341104","prefecture":"福岡県","prefecture_kana":"フクオカケン","city":"八女市","city_kana":"ヤメシ","town":"上陽町下横山","town_kana":"ジョウヨウマチシモヨコヤマ","prefecture_code":40},"0052":{"zip_code":"8340052","prefecture":"福岡県","prefecture_kana":"フクオカケン","city":"八女市","city_kana":"ヤメシ","town":"新庄","town_kana":"シンジョウ","prefecture_code":40},"0045":{"zip_code":"8340045","prefecture":"福岡県","prefecture_kana":"フクオカケン","city":"八女市","city_kana":"ヤメシ","town":"平","town_kana":"タイラ","prefecture_code":40},"0034":{"zip_code":"8340034","prefecture":"福岡県","prefecture_kana":"フクオカケン","city":"八女市","city_kana":"ヤメシ","town":"高塚","town_kana":"タカツカ","prefecture_code":40},"0001":{"zip_code":"8340001","prefecture":"福岡県","prefecture_kana":"フクオカケン","city":"八女市","city_kana":"ヤメシ","town":"宅間田","town_kana":"タクマダ","prefecture_code":40},"0014":{"zip_code":"8340014","prefecture":"福岡県","prefecture_kana":"フクオカケン","city":"八女市","city_kana":"ヤメシ","town":"忠見","town_kana":"タダミ","prefecture_code":40},"0082":{"zip_code":"8340082","prefecture":"福岡県","prefecture_kana":"フクオカケン","city":"八女市","city_kana":"ヤメシ","town":"立花町兼松","town_kana":"タチバナマチカネマツ","prefecture_code":40},"0083":{"zip_code":"8340083","prefecture":"福岡県","prefecture_kana":"フクオカケン","city":"八女市","city_kana":"ヤメシ","town":"立花町上辺春","town_kana":"タチバナマチカミヘバル","prefecture_code":40},"0085":{"zip_code":"8340085","prefecture":"福岡県","prefecture_kana":"フクオカケン","city":"八女市","city_kana":"ヤメシ","town":"立花町北山","town_kana":"タチバナマチキタヤマ","prefecture_code":40},"0073":{"zip_code":"8340073","prefecture":"福岡県","prefecture_kana":"フクオカケン","city":"八女市","city_kana":"ヤメシ","town":"立花町下辺春","town_kana":"タチバナマチシモヘバル","prefecture_code":40},"0084":{"zip_code":"8340084","prefecture":"福岡県","prefecture_kana":"フクオカケン","city":"八女市","city_kana":"ヤメシ","town":"立花町白木","town_kana":"タチバナマチシラキ","prefecture_code":40},"0071":{"zip_code":"8340071","prefecture":"福岡県","prefecture_kana":"フクオカケン","city":"八女市","city_kana":"ヤメシ","town":"立花町田形","town_kana":"タチバナマチタガタ","prefecture_code":40},"0074":{"zip_code":"8340074","prefecture":"福岡県","prefecture_kana":"フクオカケン","city":"八女市","city_kana":"ヤメシ","town":"立花町谷川","town_kana":"タチバナマチタニガワ","prefecture_code":40},"0072":{"zip_code":"8340072","prefecture":"福岡県","prefecture_kana":"フクオカケン","city":"八女市","city_kana":"ヤメシ","town":"立花町遠久谷","town_kana":"タチバナマチトオクダニ","prefecture_code":40},"0075":{"zip_code":"8340075","prefecture":"福岡県","prefecture_kana":"フクオカケン","city":"八女市","city_kana":"ヤメシ","town":"立花町原島","town_kana":"タチバナマチハルジマ","prefecture_code":40},"0081":{"zip_code":"8340081","prefecture":"福岡県","prefecture_kana":"フクオカケン","city":"八女市","city_kana":"ヤメシ","town":"立花町山崎","town_kana":"タチバナマチヤマサキ","prefecture_code":40},"0067":{"zip_code":"8340067","prefecture":"福岡県","prefecture_kana":"フクオカケン","city":"八女市","city_kana":"ヤメシ","town":"龍ケ原","town_kana":"タツガハラ","prefecture_code":40},"0051":{"zip_code":"8340051","prefecture":"福岡県","prefecture_kana":"フクオカケン","city":"八女市","city_kana":"ヤメシ","town":"立野","town_kana":"タテノ","prefecture_code":40},"0024":{"zip_code":"8340024","prefecture":"福岡県","prefecture_kana":"フクオカケン","city":"八女市","city_kana":"ヤメシ","town":"津江","town_kana":"ツノエ","prefecture_code":40},"0016":{"zip_code":"8340016","prefecture":"福岡県","prefecture_kana":"フクオカケン","city":"八女市","city_kana":"ヤメシ","town":"豊福","town_kana":"トヨブク","prefecture_code":40},"0011":{"zip_code":"8340011","prefecture":"福岡県","prefecture_kana":"フクオカケン","city":"八女市","city_kana":"ヤメシ","town":"長野","town_kana":"ナガノ","prefecture_code":40},"0004":{"zip_code":"8340004","prefecture":"福岡県","prefecture_kana":"フクオカケン","city":"八女市","city_kana":"ヤメシ","town":"納楚","town_kana":"ノウソ","prefecture_code":40},"0023":{"zip_code":"8340023","prefecture":"福岡県","prefecture_kana":"フクオカケン","city":"八女市","city_kana":"ヤメシ","town":"馬場","town_kana":"ババ","prefecture_code":40},"0043":{"zip_code":"8340043","prefecture":"福岡県","prefecture_kana":"フクオカケン","city":"八女市","city_kana":"ヤメシ","town":"光","town_kana":"ヒカリ","prefecture_code":40},"0003":{"zip_code":"8340003","prefecture":"福岡県","prefecture_kana":"フクオカケン","city":"八女市","city_kana":"ヤメシ","town":"平田","town_kana":"ヒラタ","prefecture_code":40},"0201":{"zip_code":"8340201","prefecture":"福岡県","prefecture_kana":"フクオカケン","city":"八女市","city_kana":"ヤメシ","town":"星野村","town_kana":"ホシノムラ","prefecture_code":40},"0015":{"zip_code":"8340015","prefecture":"福岡県","prefecture_kana":"フクオカケン","city":"八女市","city_kana":"ヤメシ","town":"本","town_kana":"ホン","prefecture_code":40},"0054":{"zip_code":"8340054","prefecture":"福岡県","prefecture_kana":"フクオカケン","city":"八女市","city_kana":"ヤメシ","town":"前古賀","town_kana":"マエコガ","prefecture_code":40},"0032":{"zip_code":"8340032","prefecture":"福岡県","prefecture_kana":"フクオカケン","city":"八女市","city_kana":"ヤメシ","town":"宮野","town_kana":"ミヤノ","prefecture_code":40},"0066":{"zip_code":"8340066","prefecture":"福岡県","prefecture_kana":"フクオカケン","city":"八女市","city_kana":"ヤメシ","town":"室岡","town_kana":"ムロオカ","prefecture_code":40},"0031":{"zip_code":"8340031","prefecture":"福岡県","prefecture_kana":"フクオカケン","city":"八女市","city_kana":"ヤメシ","town":"本町","town_kana":"モトマチ","prefecture_code":40},"0063":{"zip_code":"8340063","prefecture":"福岡県","prefecture_kana":"フクオカケン","city":"八女市","city_kana":"ヤメシ","town":"本村","town_kana":"モトムラ","prefecture_code":40},"0022":{"zip_code":"8340022","prefecture":"福岡県","prefecture_kana":"フクオカケン","city":"八女市","city_kana":"ヤメシ","town":"柳島","town_kana":"ヤナジマ","prefecture_code":40},"0033":{"zip_code":"8340033","prefecture":"福岡県","prefecture_kana":"フクオカケン","city":"八女市","city_kana":"ヤメシ","town":"柳瀬","town_kana":"ヤナゼ","prefecture_code":40},"0044":{"zip_code":"8340044","prefecture":"福岡県","prefecture_kana":"フクオカケン","city":"八女市","city_kana":"ヤメシ","town":"矢原","town_kana":"ヤバラ","prefecture_code":40},"1401":{"zip_code":"8341401","prefecture":"福岡県","prefecture_kana":"フクオカケン","city":"八女市","city_kana":"ヤメシ","town":"矢部村北矢部","town_kana":"ヤベムラキタヤベ","prefecture_code":40},"1402":{"zip_code":"8341402","prefecture":"福岡県","prefecture_kana":"フクオカケン","city":"八女市","city_kana":"ヤメシ","town":"矢部村矢部","town_kana":"ヤベムラヤベ","prefecture_code":40},"0012":{"zip_code":"8340012","prefecture":"福岡県","prefecture_kana":"フクオカケン","city":"八女市","city_kana":"ヤメシ","town":"山内","town_kana":"ヤマウチ","prefecture_code":40},"0006":{"zip_code":"8340006","prefecture":"福岡県","prefecture_kana":"フクオカケン","city":"八女市","city_kana":"ヤメシ","town":"吉田","town_kana":"ヨシダ","prefecture_code":40},"0100":{"zip_code":"8340100","prefecture":"福岡県","prefecture_kana":"フクオカケン","city":"八女郡広川町","city_kana":"ヤメグンヒロカワマチ","town":"","town_kana":"","prefecture_code":40},"0122":{"zip_code":"8340122","prefecture":"福岡県","prefecture_kana":"フクオカケン","city":"八女郡広川町","city_kana":"ヤメグンヒロカワマチ","town":"一條","town_kana":"イチジョウ","prefecture_code":40},"0114":{"zip_code":"8340114","prefecture":"福岡県","prefecture_kana":"フクオカケン","city":"八女郡広川町","city_kana":"ヤメグンヒロカワマチ","town":"太田","town_kana":"オオタ","prefecture_code":40},"0113":{"zip_code":"8340113","prefecture":"福岡県","prefecture_kana":"フクオカケン","city":"八女郡広川町","city_kana":"ヤメグンヒロカワマチ","town":"川上","town_kana":"カワカミ","prefecture_code":40},"0101":{"zip_code":"8340101","prefecture":"福岡県","prefecture_kana":"フクオカケン","city":"八女郡広川町","city_kana":"ヤメグンヒロカワマチ","town":"小椎尾","town_kana":"コジオ","prefecture_code":40},"0105":{"zip_code":"8340105","prefecture":"福岡県","prefecture_kana":"フクオカケン","city":"八女郡広川町","city_kana":"ヤメグンヒロカワマチ","town":"長延","town_kana":"ナガノブ","prefecture_code":40},"0115":{"zip_code":"8340115","prefecture":"福岡県","prefecture_kana":"フクオカケン","city":"八女郡広川町","city_kana":"ヤメグンヒロカワマチ","town":"新代","town_kana":"ニイシロ","prefecture_code":40},"0112":{"zip_code":"8340112","prefecture":"福岡県","prefecture_kana":"フクオカケン","city":"八女郡広川町","city_kana":"ヤメグンヒロカワマチ","town":"久泉","town_kana":"ヒサイズミ","prefecture_code":40},"0111":{"zip_code":"8340111","prefecture":"福岡県","prefecture_kana":"フクオカケン","city":"八女郡広川町","city_kana":"ヤメグンヒロカワマチ","town":"日吉","town_kana":"ヒヨシ","prefecture_code":40},"0121":{"zip_code":"8340121","prefecture":"福岡県","prefecture_kana":"フクオカケン","city":"八女郡広川町","city_kana":"ヤメグンヒロカワマチ","town":"広川","town_kana":"ヒロカワ","prefecture_code":40},"0123":{"zip_code":"8340123","prefecture":"福岡県","prefecture_kana":"フクオカケン","city":"八女郡広川町","city_kana":"ヤメグンヒロカワマチ","town":"藤田","town_kana":"フジタ","prefecture_code":40},"0102":{"zip_code":"8340102","prefecture":"福岡県","prefecture_kana":"フクオカケン","city":"八女郡広川町","city_kana":"ヤメグンヒロカワマチ","town":"水原","town_kana":"ミズハラ","prefecture_code":40},"0104":{"zip_code":"8340104","prefecture":"福岡県","prefecture_kana":"フクオカケン","city":"八女郡広川町","city_kana":"ヤメグンヒロカワマチ","town":"吉常","town_kana":"ヨシツネ","prefecture_code":40},"0103":{"zip_code":"8340103","prefecture":"福岡県","prefecture_kana":"フクオカケン","city":"八女郡広川町","city_kana":"ヤメグンヒロカワマチ","town":"六田","town_kana":"ロクタ","prefecture_code":40}}