{"0000":{"zip_code":"8360000","prefecture":"福岡県","prefecture_kana":"フクオカケン","city":"大牟田市","city_kana":"オオムタシ","town":"","town_kana":"","prefecture_code":40},"0897":{"zip_code":"8360897","prefecture":"福岡県","prefecture_kana":"フクオカケン","city":"大牟田市","city_kana":"オオムタシ","town":"青葉町","town_kana":"アオバマチ","prefecture_code":40},"0852":{"zip_code":"8360852","prefecture":"福岡県","prefecture_kana":"フクオカケン","city":"大牟田市","city_kana":"オオムタシ","town":"曙町","town_kana":"アケボノマチ","prefecture_code":40},"0807":{"zip_code":"8360807","prefecture":"福岡県","prefecture_kana":"フクオカケン","city":"大牟田市","city_kana":"オオムタシ","town":"旭町","town_kana":"アサヒマチ","prefecture_code":40},"0817":{"zip_code":"8360817","prefecture":"福岡県","prefecture_kana":"フクオカケン","city":"大牟田市","city_kana":"オオムタシ","town":"浅牟田町","town_kana":"アサムタマチ","prefecture_code":40},"0087":{"zip_code":"8360087","prefecture":"福岡県","prefecture_kana":"フクオカケン","city":"大牟田市","city_kana":"オオムタシ","town":"飯田町","town_kana":"イイダマチ","prefecture_code":40},"0831":{"zip_code":"8360831","prefecture":"福岡県","prefecture_kana":"フクオカケン","city":"大牟田市","city_kana":"オオムタシ","town":"泉町","town_kana":"イズミマチ","prefecture_code":40},"0854":{"zip_code":"8360854","prefecture":"福岡県","prefecture_kana":"フクオカケン","city":"大牟田市","city_kana":"オオムタシ","town":"出雲町","town_kana":"イズモマチ","prefecture_code":40},"0893":{"zip_code":"8360893","prefecture":"福岡県","prefecture_kana":"フクオカケン","city":"大牟田市","city_kana":"オオムタシ","town":"櫟野","town_kana":"イチノ","prefecture_code":40},"0863":{"zip_code":"8360863","prefecture":"福岡県","prefecture_kana":"フクオカケン","city":"大牟田市","city_kana":"オオムタシ","town":"一浦町","town_kana":"イチノウラマチ","prefecture_code":40},"0085":{"zip_code":"8360085","prefecture":"福岡県","prefecture_kana":"フクオカケン","city":"大牟田市","city_kana":"オオムタシ","town":"一部町","town_kana":"イチブマチ","prefecture_code":40},"0834":{"zip_code":"8360834","prefecture":"福岡県","prefecture_kana":"フクオカケン","city":"大牟田市","city_kana":"オオムタシ","town":"一本町","town_kana":"イッポンマチ","prefecture_code":40},"0063":{"zip_code":"8360063","prefecture":"福岡県","prefecture_kana":"フクオカケン","city":"大牟田市","city_kana":"オオムタシ","town":"入船町","town_kana":"イリフネマチ","prefecture_code":40},"0846":{"zip_code":"8360846","prefecture":"福岡県","prefecture_kana":"フクオカケン","city":"大牟田市","city_kana":"オオムタシ","town":"右京町","town_kana":"ウキョウマチ","prefecture_code":40},"0882":{"zip_code":"8360882","prefecture":"福岡県","prefecture_kana":"フクオカケン","city":"大牟田市","city_kana":"オオムタシ","town":"臼井新町","town_kana":"ウスイシンマチ","prefecture_code":40},"0094":{"zip_code":"8360094","prefecture":"福岡県","prefecture_kana":"フクオカケン","city":"大牟田市","city_kana":"オオムタシ","town":"臼井町","town_kana":"ウスイマチ","prefecture_code":40},"0014":{"zip_code":"8360014","prefecture":"福岡県","prefecture_kana":"フクオカケン","city":"大牟田市","city_kana":"オオムタシ","town":"恵比須町","town_kana":"エビスマチ","prefecture_code":40},"0877":{"zip_code":"8360877","prefecture":"福岡県","prefecture_kana":"フクオカケン","city":"大牟田市","city_kana":"オオムタシ","town":"延命寺町","town_kana":"エンメイジマチ","prefecture_code":40},"0824":{"zip_code":"8360824","prefecture":"福岡県","prefecture_kana":"フクオカケン","city":"大牟田市","city_kana":"オオムタシ","town":"大浦町","town_kana":"オオウラマチ","prefecture_code":40},"0036":{"zip_code":"8360036","prefecture":"福岡県","prefecture_kana":"フクオカケン","city":"大牟田市","city_kana":"オオムタシ","town":"小川町","town_kana":"オガワマチ","prefecture_code":40},"0091":{"zip_code":"8360091","prefecture":"福岡県","prefecture_kana":"フクオカケン","city":"大牟田市","city_kana":"オオムタシ","town":"沖田町","town_kana":"オキタマチ","prefecture_code":40},"0801":{"zip_code":"8360801","prefecture":"福岡県","prefecture_kana":"フクオカケン","city":"大牟田市","city_kana":"オオムタシ","town":"柿園町","town_kana":"カキゾノマチ","prefecture_code":40},"0082":{"zip_code":"8360082","prefecture":"福岡県","prefecture_kana":"フクオカケン","city":"大牟田市","city_kana":"オオムタシ","town":"片平町","town_kana":"カタヒラマチ","prefecture_code":40},"0886":{"zip_code":"8360886","prefecture":"福岡県","prefecture_kana":"フクオカケン","city":"大牟田市","city_kana":"オオムタシ","town":"勝立","town_kana":"カツダチ","prefecture_code":40},"0071":{"zip_code":"8360071","prefecture":"福岡県","prefecture_kana":"フクオカケン","city":"大牟田市","city_kana":"オオムタシ","town":"加納町","town_kana":"カノウマチ","prefecture_code":40},"0853":{"zip_code":"8360853","prefecture":"福岡県","prefecture_kana":"フクオカケン","city":"大牟田市","city_kana":"オオムタシ","town":"上町","town_kana":"カミマチ","prefecture_code":40},"0072":{"zip_code":"8360072","prefecture":"福岡県","prefecture_kana":"フクオカケン","city":"大牟田市","city_kana":"オオムタシ","town":"上屋敷町","town_kana":"カミヤシキマチ","prefecture_code":40},"0823":{"zip_code":"8360823","prefecture":"福岡県","prefecture_kana":"フクオカケン","city":"大牟田市","city_kana":"オオムタシ","town":"亀谷町","town_kana":"カメタニマチ","prefecture_code":40},"0812":{"zip_code":"8360812","prefecture":"福岡県","prefecture_kana":"フクオカケン","city":"大牟田市","city_kana":"オオムタシ","town":"亀甲町","town_kana":"カメノコマチ","prefecture_code":40},"0815":{"zip_code":"8360815","prefecture":"福岡県","prefecture_kana":"フクオカケン","city":"大牟田市","city_kana":"オオムタシ","town":"瓦町","town_kana":"カワラマチ","prefecture_code":40},"0093":{"zip_code":"8360093","prefecture":"福岡県","prefecture_kana":"フクオカケン","city":"大牟田市","city_kana":"オオムタシ","town":"神田町","town_kana":"カンダマチ","prefecture_code":40},"0016":{"zip_code":"8360016","prefecture":"福岡県","prefecture_kana":"フクオカケン","city":"大牟田市","city_kana":"オオムタシ","town":"北磯町","town_kana":"キタイソマチ","prefecture_code":40},"0894":{"zip_code":"8360894","prefecture":"福岡県","prefecture_kana":"フクオカケン","city":"大牟田市","city_kana":"オオムタシ","town":"教楽来","town_kana":"キョウラギ","prefecture_code":40},"0045":{"zip_code":"8360045","prefecture":"福岡県","prefecture_kana":"フクオカケン","city":"大牟田市","city_kana":"オオムタシ","town":"久保田町","town_kana":"クボタマチ","prefecture_code":40},"0011":{"zip_code":"8360011","prefecture":"福岡県","prefecture_kana":"フクオカケン","city":"大牟田市","city_kana":"オオムタシ","town":"健老町","town_kana":"ケンロウマチ","prefecture_code":40},"0891":{"zip_code":"8360891","prefecture":"福岡県","prefecture_kana":"フクオカケン","city":"大牟田市","city_kana":"オオムタシ","town":"合成町","town_kana":"ゴウセイマチ","prefecture_code":40},"0872":{"zip_code":"8360872","prefecture":"福岡県","prefecture_kana":"フクオカケン","city":"大牟田市","city_kana":"オオムタシ","town":"黄金町","town_kana":"コガネマチ","prefecture_code":40},"0034":{"zip_code":"8360034","prefecture":"福岡県","prefecture_kana":"フクオカケン","city":"大牟田市","city_kana":"オオムタシ","town":"小浜町","town_kana":"コハママチ","prefecture_code":40},"0042":{"zip_code":"8360042","prefecture":"福岡県","prefecture_kana":"フクオカケン","city":"大牟田市","city_kana":"オオムタシ","town":"栄町","town_kana":"サカエマチ","prefecture_code":40},"0092":{"zip_code":"8360092","prefecture":"福岡県","prefecture_kana":"フクオカケン","city":"大牟田市","city_kana":"オオムタシ","town":"桜町","town_kana":"サクラマチ","prefecture_code":40},"0836":{"zip_code":"8360836","prefecture":"福岡県","prefecture_kana":"フクオカケン","city":"大牟田市","city_kana":"オオムタシ","town":"左古町","town_kana":"サコマチ","prefecture_code":40},"0884":{"zip_code":"8360884","prefecture":"福岡県","prefecture_kana":"フクオカケン","city":"大牟田市","city_kana":"オオムタシ","town":"笹原町","town_kana":"ササハラマチ","prefecture_code":40},"0851":{"zip_code":"8360851","prefecture":"福岡県","prefecture_kana":"フクオカケン","city":"大牟田市","city_kana":"オオムタシ","town":"笹林町","town_kana":"ササバヤシマチ","prefecture_code":40},"0825":{"zip_code":"8360825","prefecture":"福岡県","prefecture_kana":"フクオカケン","city":"大牟田市","city_kana":"オオムタシ","town":"三坑町","town_kana":"サンコウマチ","prefecture_code":40},"0057":{"zip_code":"8360057","prefecture":"福岡県","prefecture_kana":"フクオカケン","city":"大牟田市","city_kana":"オオムタシ","town":"汐屋町","town_kana":"シオヤマチ","prefecture_code":40},"0885":{"zip_code":"8360885","prefecture":"福岡県","prefecture_kana":"フクオカケン","city":"大牟田市","city_kana":"オオムタシ","town":"下池町","town_kana":"シモイケマチ","prefecture_code":40},"0866":{"zip_code":"8360866","prefecture":"福岡県","prefecture_kana":"フクオカケン","city":"大牟田市","city_kana":"オオムタシ","town":"上官町","town_kana":"ジョウカンマチ","prefecture_code":40},"0845":{"zip_code":"8360845","prefecture":"福岡県","prefecture_kana":"フクオカケン","city":"大牟田市","city_kana":"オオムタシ","town":"正山町","town_kana":"ショウザンマチ","prefecture_code":40},"0844":{"zip_code":"8360844","prefecture":"福岡県","prefecture_kana":"フクオカケン","city":"大牟田市","city_kana":"オオムタシ","town":"浄真町","town_kana":"ジョウシンマチ","prefecture_code":40},"0001":{"zip_code":"8360001","prefecture":"福岡県","prefecture_kana":"フクオカケン","city":"大牟田市","city_kana":"オオムタシ","town":"昭和開","town_kana":"ショウワビラキ","prefecture_code":40},"0871":{"zip_code":"8360871","prefecture":"福岡県","prefecture_kana":"フクオカケン","city":"大牟田市","city_kana":"オオムタシ","town":"昭和町","town_kana":"ショウワマチ","prefecture_code":40},"0052":{"zip_code":"8360052","prefecture":"福岡県","prefecture_kana":"フクオカケン","city":"大牟田市","city_kana":"オオムタシ","town":"白金町","town_kana":"シラガネマチ","prefecture_code":40},"0843":{"zip_code":"8360843","prefecture":"福岡県","prefecture_kana":"フクオカケン","city":"大牟田市","city_kana":"オオムタシ","town":"不知火町","town_kana":"シラヌヒマチ","prefecture_code":40},"0007":{"zip_code":"8360007","prefecture":"福岡県","prefecture_kana":"フクオカケン","city":"大牟田市","city_kana":"オオムタシ","town":"城町","town_kana":"シロマチ","prefecture_code":40},"0017":{"zip_code":"8360017","prefecture":"福岡県","prefecture_kana":"フクオカケン","city":"大牟田市","city_kana":"オオムタシ","town":"新開町","town_kana":"シンカイマチ","prefecture_code":40},"0895":{"zip_code":"8360895","prefecture":"福岡県","prefecture_kana":"フクオカケン","city":"大牟田市","city_kana":"オオムタシ","town":"新勝立町","town_kana":"シンカツダチマチ","prefecture_code":40},"0061":{"zip_code":"8360061","prefecture":"福岡県","prefecture_kana":"フクオカケン","city":"大牟田市","city_kana":"オオムタシ","town":"新港町","town_kana":"シンコウマチ","prefecture_code":40},"0041":{"zip_code":"8360041","prefecture":"福岡県","prefecture_kana":"フクオカケン","city":"大牟田市","city_kana":"オオムタシ","town":"新栄町","town_kana":"シンサカエマチ","prefecture_code":40},"0032":{"zip_code":"8360032","prefecture":"福岡県","prefecture_kana":"フクオカケン","city":"大牟田市","city_kana":"オオムタシ","town":"新地町","town_kana":"シンチマチ","prefecture_code":40},"0864":{"zip_code":"8360864","prefecture":"福岡県","prefecture_kana":"フクオカケン","city":"大牟田市","city_kana":"オオムタシ","town":"真道寺町","town_kana":"シンドウジマチ","prefecture_code":40},"0874":{"zip_code":"8360874","prefecture":"福岡県","prefecture_kana":"フクオカケン","city":"大牟田市","city_kana":"オオムタシ","town":"末広町","town_kana":"スエヒロマチ","prefecture_code":40},"0024":{"zip_code":"8360024","prefecture":"福岡県","prefecture_kana":"フクオカケン","city":"大牟田市","city_kana":"オオムタシ","town":"住吉町","town_kana":"スミヨシマチ","prefecture_code":40},"0051":{"zip_code":"8360051","prefecture":"福岡県","prefecture_kana":"フクオカケン","city":"大牟田市","city_kana":"オオムタシ","town":"諏訪町","town_kana":"スワマチ","prefecture_code":40},"0077":{"zip_code":"8360077","prefecture":"福岡県","prefecture_kana":"フクオカケン","city":"大牟田市","city_kana":"オオムタシ","town":"早米来町","town_kana":"ゾウメキマチ","prefecture_code":40},"0006":{"zip_code":"8360006","prefecture":"福岡県","prefecture_kana":"フクオカケン","city":"大牟田市","city_kana":"オオムタシ","town":"大黒町","town_kana":"ダイコクマチ","prefecture_code":40},"0047":{"zip_code":"8360047","prefecture":"福岡県","prefecture_kana":"フクオカケン","city":"大牟田市","city_kana":"オオムタシ","town":"大正町","town_kana":"タイショウマチ","prefecture_code":40},"0064":{"zip_code":"8360064","prefecture":"福岡県","prefecture_kana":"フクオカケン","city":"大牟田市","city_kana":"オオムタシ","town":"高砂町","town_kana":"タカサゴマチ","prefecture_code":40},"0861":{"zip_code":"8360861","prefecture":"福岡県","prefecture_kana":"フクオカケン","city":"大牟田市","city_kana":"オオムタシ","town":"宝坂町","town_kana":"タカラザカマチ","prefecture_code":40},"0837":{"zip_code":"8360837","prefecture":"福岡県","prefecture_kana":"フクオカケン","city":"大牟田市","city_kana":"オオムタシ","town":"谷町","town_kana":"タニマチ","prefecture_code":40},"0081":{"zip_code":"8360081","prefecture":"福岡県","prefecture_kana":"フクオカケン","city":"大牟田市","city_kana":"オオムタシ","town":"田端町","town_kana":"タバタマチ","prefecture_code":40},"0841":{"zip_code":"8360841","prefecture":"福岡県","prefecture_kana":"フクオカケン","city":"大牟田市","city_kana":"オオムタシ","town":"築町","town_kana":"チクマチ","prefecture_code":40},"0035":{"zip_code":"8360035","prefecture":"福岡県","prefecture_kana":"フクオカケン","city":"大牟田市","city_kana":"オオムタシ","town":"千代町","town_kana":"チヨマチ","prefecture_code":40},"0005":{"zip_code":"8360005","prefecture":"福岡県","prefecture_kana":"フクオカケン","city":"大牟田市","city_kana":"オオムタシ","town":"椿黒町","town_kana":"ツバクロマチ","prefecture_code":40},"0004":{"zip_code":"8360004","prefecture":"福岡県","prefecture_kana":"フクオカケン","city":"大牟田市","city_kana":"オオムタシ","town":"手鎌","town_kana":"テガマ","prefecture_code":40},"0015":{"zip_code":"8360015","prefecture":"福岡県","prefecture_kana":"フクオカケン","city":"大牟田市","city_kana":"オオムタシ","town":"天神町","town_kana":"テンジンマチ","prefecture_code":40},"0896":{"zip_code":"8360896","prefecture":"福岡県","prefecture_kana":"フクオカケン","city":"大牟田市","city_kana":"オオムタシ","town":"天道町","town_kana":"テンドウマチ","prefecture_code":40},"0054":{"zip_code":"8360054","prefecture":"福岡県","prefecture_kana":"フクオカケン","city":"大牟田市","city_kana":"オオムタシ","town":"天領町","town_kana":"テンリョウマチ","prefecture_code":40},"0822":{"zip_code":"8360822","prefecture":"福岡県","prefecture_kana":"フクオカケン","city":"大牟田市","city_kana":"オオムタシ","town":"稲荷町","town_kana":"トウカマチ","prefecture_code":40},"0003":{"zip_code":"8360003","prefecture":"福岡県","prefecture_kana":"フクオカケン","city":"大牟田市","city_kana":"オオムタシ","town":"唐船","town_kana":"トウセン","prefecture_code":40},"0805":{"zip_code":"8360805","prefecture":"福岡県","prefecture_kana":"フクオカケン","city":"大牟田市","city_kana":"オオムタシ","town":"通町","town_kana":"トオリチョウ","prefecture_code":40},"0832":{"zip_code":"8360832","prefecture":"福岡県","prefecture_kana":"フクオカケン","city":"大牟田市","city_kana":"オオムタシ","town":"常盤町","town_kana":"トキワマチ","prefecture_code":40},"0803":{"zip_code":"8360803","prefecture":"福岡県","prefecture_kana":"フクオカケン","city":"大牟田市","city_kana":"オオムタシ","town":"鳥塚町","town_kana":"トリツカマチ","prefecture_code":40},"0023":{"zip_code":"8360023","prefecture":"福岡県","prefecture_kana":"フクオカケン","city":"大牟田市","city_kana":"オオムタシ","town":"中島町","town_kana":"ナカシママチ","prefecture_code":40},"0025":{"zip_code":"8360025","prefecture":"福岡県","prefecture_kana":"フクオカケン","city":"大牟田市","city_kana":"オオムタシ","town":"中友町","town_kana":"ナカトモマチ","prefecture_code":40},"0013":{"zip_code":"8360013","prefecture":"福岡県","prefecture_kana":"フクオカケン","city":"大牟田市","city_kana":"オオムタシ","town":"中町","town_kana":"ナカマチ","prefecture_code":40},"0083":{"zip_code":"8360083","prefecture":"福岡県","prefecture_kana":"フクオカケン","city":"大牟田市","city_kana":"オオムタシ","town":"長田町","town_kana":"ナガタマチ","prefecture_code":40},"0804":{"zip_code":"8360804","prefecture":"福岡県","prefecture_kana":"フクオカケン","city":"大牟田市","city_kana":"オオムタシ","town":"長溝町","town_kana":"ナガミゾマチ","prefecture_code":40},"0865":{"zip_code":"8360865","prefecture":"福岡県","prefecture_kana":"フクオカケン","city":"大牟田市","city_kana":"オオムタシ","town":"七浦町","town_kana":"ナナウラマチ","prefecture_code":40},"0066":{"zip_code":"8360066","prefecture":"福岡県","prefecture_kana":"フクオカケン","city":"大牟田市","city_kana":"オオムタシ","town":"浪花町","town_kana":"ナニワマチ","prefecture_code":40},"0031":{"zip_code":"8360031","prefecture":"福岡県","prefecture_kana":"フクオカケン","city":"大牟田市","city_kana":"オオムタシ","town":"西新町","town_kana":"ニシシンマチ","prefecture_code":40},"0027":{"zip_code":"8360027","prefecture":"福岡県","prefecture_kana":"フクオカケン","city":"大牟田市","city_kana":"オオムタシ","town":"西浜田町","town_kana":"ニシハマダマチ","prefecture_code":40},"0062":{"zip_code":"8360062","prefecture":"福岡県","prefecture_kana":"フクオカケン","city":"大牟田市","city_kana":"オオムタシ","town":"西港町","town_kana":"ニシミナトマチ","prefecture_code":40},"0835":{"zip_code":"8360835","prefecture":"福岡県","prefecture_kana":"フクオカケン","city":"大牟田市","city_kana":"オオムタシ","town":"西宮浦町","town_kana":"ニシミヤウラマチ","prefecture_code":40},"0095":{"zip_code":"8360095","prefecture":"福岡県","prefecture_kana":"フクオカケン","city":"大牟田市","city_kana":"オオムタシ","town":"野添町","town_kana":"ノゾエマチ","prefecture_code":40},"0096":{"zip_code":"8360096","prefecture":"福岡県","prefecture_kana":"フクオカケン","city":"大牟田市","city_kana":"オオムタシ","town":"萩尾町","town_kana":"ハギオマチ","prefecture_code":40},"0043":{"zip_code":"8360043","prefecture":"福岡県","prefecture_kana":"フクオカケン","city":"大牟田市","city_kana":"オオムタシ","town":"橋口町","town_kana":"ハシグチマチ","prefecture_code":40},"0811":{"zip_code":"8360811","prefecture":"福岡県","prefecture_kana":"フクオカケン","city":"大牟田市","city_kana":"オオムタシ","town":"八尻町","town_kana":"ハチジリマチ","prefecture_code":40},"0816":{"zip_code":"8360816","prefecture":"福岡県","prefecture_kana":"フクオカケン","city":"大牟田市","city_kana":"オオムタシ","town":"八本町","town_kana":"ハチホンマチ","prefecture_code":40},"0867":{"zip_code":"8360867","prefecture":"福岡県","prefecture_kana":"フクオカケン","city":"大牟田市","city_kana":"オオムタシ","town":"花園町","town_kana":"ハナゾノマチ","prefecture_code":40},"0084":{"zip_code":"8360084","prefecture":"福岡県","prefecture_kana":"フクオカケン","city":"大牟田市","city_kana":"オオムタシ","town":"馬場町","town_kana":"ババマチ","prefecture_code":40},"0026":{"zip_code":"8360026","prefecture":"福岡県","prefecture_kana":"フクオカケン","city":"大牟田市","city_kana":"オオムタシ","town":"浜田町","town_kana":"ハマダマチ","prefecture_code":40},"0021":{"zip_code":"8360021","prefecture":"福岡県","prefecture_kana":"フクオカケン","city":"大牟田市","city_kana":"オオムタシ","town":"浜町","town_kana":"ハママチ","prefecture_code":40},"0892":{"zip_code":"8360892","prefecture":"福岡県","prefecture_kana":"フクオカケン","city":"大牟田市","city_kana":"オオムタシ","town":"早鐘町","town_kana":"ハヤガネマチ","prefecture_code":40},"0873":{"zip_code":"8360873","prefecture":"福岡県","prefecture_kana":"フクオカケン","city":"大牟田市","city_kana":"オオムタシ","town":"駛馬町","town_kana":"ハヤメマチ","prefecture_code":40},"0862":{"zip_code":"8360862","prefecture":"福岡県","prefecture_kana":"フクオカケン","city":"大牟田市","city_kana":"オオムタシ","town":"原山町","town_kana":"ハラヤママチ","prefecture_code":40},"0821":{"zip_code":"8360821","prefecture":"福岡県","prefecture_kana":"フクオカケン","city":"大牟田市","city_kana":"オオムタシ","town":"東泉町","town_kana":"ヒガシイズミマチ","prefecture_code":40},"0806":{"zip_code":"8360806","prefecture":"福岡県","prefecture_kana":"フクオカケン","city":"大牟田市","city_kana":"オオムタシ","town":"東新町","town_kana":"ヒガシシンマチ","prefecture_code":40},"0097":{"zip_code":"8360097","prefecture":"福岡県","prefecture_kana":"フクオカケン","city":"大牟田市","city_kana":"オオムタシ","town":"東萩尾町","town_kana":"ヒガシハギオマチ","prefecture_code":40},"0827":{"zip_code":"8360827","prefecture":"福岡県","prefecture_kana":"フクオカケン","city":"大牟田市","city_kana":"オオムタシ","town":"東宮浦町","town_kana":"ヒガシミヤウラマチ","prefecture_code":40},"0055":{"zip_code":"8360055","prefecture":"福岡県","prefecture_kana":"フクオカケン","city":"大牟田市","city_kana":"オオムタシ","town":"樋口町","town_kana":"ヒグチマチ","prefecture_code":40},"0802":{"zip_code":"8360802","prefecture":"福岡県","prefecture_kana":"フクオカケン","city":"大牟田市","city_kana":"オオムタシ","town":"日出町","town_kana":"ヒノデマチ","prefecture_code":40},"0056":{"zip_code":"8360056","prefecture":"福岡県","prefecture_kana":"フクオカケン","city":"大牟田市","city_kana":"オオムタシ","town":"姫島町","town_kana":"ヒメシママチ","prefecture_code":40},"0813":{"zip_code":"8360813","prefecture":"福岡県","prefecture_kana":"フクオカケン","city":"大牟田市","city_kana":"オオムタシ","town":"平原町","town_kana":"ヒラバルマチ","prefecture_code":40},"0074":{"zip_code":"8360074","prefecture":"福岡県","prefecture_kana":"フクオカケン","city":"大牟田市","city_kana":"オオムタシ","town":"藤田町","town_kana":"フジタマチ","prefecture_code":40},"0073":{"zip_code":"8360073","prefecture":"福岡県","prefecture_kana":"フクオカケン","city":"大牟田市","city_kana":"オオムタシ","town":"船津町","town_kana":"フナツマチ","prefecture_code":40},"0044":{"zip_code":"8360044","prefecture":"福岡県","prefecture_kana":"フクオカケン","city":"大牟田市","city_kana":"オオムタシ","town":"古町","town_kana":"フルマチ","prefecture_code":40},"0046":{"zip_code":"8360046","prefecture":"福岡県","prefecture_kana":"フクオカケン","city":"大牟田市","city_kana":"オオムタシ","town":"本町","town_kana":"ホンマチ","prefecture_code":40},"0086":{"zip_code":"8360086","prefecture":"福岡県","prefecture_kana":"フクオカケン","city":"大牟田市","city_kana":"オオムタシ","town":"馬込町","town_kana":"マゴメマチ","prefecture_code":40},"0855":{"zip_code":"8360855","prefecture":"福岡県","prefecture_kana":"フクオカケン","city":"大牟田市","city_kana":"オオムタシ","town":"松浦町","town_kana":"マツウラマチ","prefecture_code":40},"0033":{"zip_code":"8360033","prefecture":"福岡県","prefecture_kana":"フクオカケン","city":"大牟田市","city_kana":"オオムタシ","town":"松原町","town_kana":"マツバラマチ","prefecture_code":40},"0883":{"zip_code":"8360883","prefecture":"福岡県","prefecture_kana":"フクオカケン","city":"大牟田市","city_kana":"オオムタシ","town":"馬渡町","town_kana":"マワタリマチ","prefecture_code":40},"0065":{"zip_code":"8360065","prefecture":"福岡県","prefecture_kana":"フクオカケン","city":"大牟田市","city_kana":"オオムタシ","town":"三川町","town_kana":"ミカワマチ","prefecture_code":40},"0002":{"zip_code":"8360002","prefecture":"福岡県","prefecture_kana":"フクオカケン","city":"大牟田市","city_kana":"オオムタシ","town":"岬","town_kana":"ミサキ","prefecture_code":40},"0037":{"zip_code":"8360037","prefecture":"福岡県","prefecture_kana":"フクオカケン","city":"大牟田市","city_kana":"オオムタシ","town":"岬町","town_kana":"ミサキマチ","prefecture_code":40},"0076":{"zip_code":"8360076","prefecture":"福岡県","prefecture_kana":"フクオカケン","city":"大牟田市","city_kana":"オオムタシ","town":"三里町","town_kana":"ミサトマチ","prefecture_code":40},"0022":{"zip_code":"8360022","prefecture":"福岡県","prefecture_kana":"フクオカケン","city":"大牟田市","city_kana":"オオムタシ","town":"港町","town_kana":"ミナトマチ","prefecture_code":40},"0075":{"zip_code":"8360075","prefecture":"福岡県","prefecture_kana":"フクオカケン","city":"大牟田市","city_kana":"オオムタシ","town":"南船津町","town_kana":"ミナミフナツマチ","prefecture_code":40},"0856":{"zip_code":"8360856","prefecture":"福岡県","prefecture_kana":"フクオカケン","city":"大牟田市","city_kana":"オオムタシ","town":"宮坂町","town_kana":"ミヤサカマチ","prefecture_code":40},"0875":{"zip_code":"8360875","prefecture":"福岡県","prefecture_kana":"フクオカケン","city":"大牟田市","city_kana":"オオムタシ","town":"宮原町","town_kana":"ミヤハラマチ","prefecture_code":40},"0857":{"zip_code":"8360857","prefecture":"福岡県","prefecture_kana":"フクオカケン","city":"大牟田市","city_kana":"オオムタシ","town":"宮山町","town_kana":"ミヤヤママチ","prefecture_code":40},"0012":{"zip_code":"8360012","prefecture":"福岡県","prefecture_kana":"フクオカケン","city":"大牟田市","city_kana":"オオムタシ","town":"明治町","town_kana":"メイジマチ","prefecture_code":40},"0826":{"zip_code":"8360826","prefecture":"福岡県","prefecture_kana":"フクオカケン","city":"大牟田市","city_kana":"オオムタシ","town":"焼石町","town_kana":"ヤケイシマチ","prefecture_code":40},"0847":{"zip_code":"8360847","prefecture":"福岡県","prefecture_kana":"フクオカケン","city":"大牟田市","city_kana":"オオムタシ","town":"八江町","town_kana":"ヤツエマチ","prefecture_code":40},"0053":{"zip_code":"8360053","prefecture":"福岡県","prefecture_kana":"フクオカケン","city":"大牟田市","city_kana":"オオムタシ","town":"山下町","town_kana":"ヤマシタマチ","prefecture_code":40},"0833":{"zip_code":"8360833","prefecture":"福岡県","prefecture_kana":"フクオカケン","city":"大牟田市","city_kana":"オオムタシ","town":"山上町","town_kana":"ヤマノウエマチ","prefecture_code":40},"0842":{"zip_code":"8360842","prefecture":"福岡県","prefecture_kana":"フクオカケン","city":"大牟田市","city_kana":"オオムタシ","town":"有明町","town_kana":"ユウメイマチ","prefecture_code":40},"0067":{"zip_code":"8360067","prefecture":"福岡県","prefecture_kana":"フクオカケン","city":"大牟田市","city_kana":"オオムタシ","town":"四山町","town_kana":"ヨツヤママチ","prefecture_code":40},"0881":{"zip_code":"8360881","prefecture":"福岡県","prefecture_kana":"フクオカケン","city":"大牟田市","city_kana":"オオムタシ","town":"米生町","town_kana":"ヨネオマチ","prefecture_code":40},"0814":{"zip_code":"8360814","prefecture":"福岡県","prefecture_kana":"フクオカケン","city":"大牟田市","city_kana":"オオムタシ","town":"龍湖瀬町","town_kana":"リュウゴゼマチ","prefecture_code":40},"0876":{"zip_code":"8360876","prefecture":"福岡県","prefecture_kana":"フクオカケン","city":"大牟田市","city_kana":"オオムタシ","town":"若宮町","town_kana":"ワカミヤマチ","prefecture_code":40}}