{"0100":{"zip_code":"8380100","prefecture":"福岡県","prefecture_kana":"フクオカケン","city":"小郡市","city_kana":"オゴオリシ","town":"","town_kana":"","prefecture_code":40},"0135":{"zip_code":"8380135","prefecture":"福岡県","prefecture_kana":"フクオカケン","city":"小郡市","city_kana":"オゴオリシ","town":"赤川","town_kana":"アカガワ","prefecture_code":40},"0109":{"zip_code":"8380109","prefecture":"福岡県","prefecture_kana":"フクオカケン","city":"小郡市","city_kana":"オゴオリシ","town":"あすみ","town_kana":"アスミ","prefecture_code":40},"0128":{"zip_code":"8380128","prefecture":"福岡県","prefecture_kana":"フクオカケン","city":"小郡市","city_kana":"オゴオリシ","town":"稲吉","town_kana":"イナヨシ","prefecture_code":40},"0114":{"zip_code":"8380114","prefecture":"福岡県","prefecture_kana":"フクオカケン","city":"小郡市","city_kana":"オゴオリシ","town":"井上","town_kana":"イノウエ","prefecture_code":40},"0142":{"zip_code":"8380142","prefecture":"福岡県","prefecture_kana":"フクオカケン","city":"小郡市","city_kana":"オゴオリシ","town":"大板井","town_kana":"オオイタイ","prefecture_code":40},"0127":{"zip_code":"8380127","prefecture":"福岡県","prefecture_kana":"フクオカケン","city":"小郡市","city_kana":"オゴオリシ","town":"大崎","town_kana":"オオザキ","prefecture_code":40},"0115":{"zip_code":"8380115","prefecture":"福岡県","prefecture_kana":"フクオカケン","city":"小郡市","city_kana":"オゴオリシ","town":"大保","town_kana":"オオホ","prefecture_code":40},"0141":{"zip_code":"8380141","prefecture":"福岡県","prefecture_kana":"フクオカケン","city":"小郡市","city_kana":"オゴオリシ","town":"小郡","town_kana":"オゴオリ","prefecture_code":40},"0104":{"zip_code":"8380104","prefecture":"福岡県","prefecture_kana":"フクオカケン","city":"小郡市","city_kana":"オゴオリシ","town":"乙隈","town_kana":"オトグマ","prefecture_code":40},"0121":{"zip_code":"8380121","prefecture":"福岡県","prefecture_kana":"フクオカケン","city":"小郡市","city_kana":"オゴオリシ","town":"上岩田","town_kana":"カミイワタ","prefecture_code":40},"0136":{"zip_code":"8380136","prefecture":"福岡県","prefecture_kana":"フクオカケン","city":"小郡市","city_kana":"オゴオリシ","town":"上西鰺坂","town_kana":"カミニシアジサカ","prefecture_code":40},"0144":{"zip_code":"8380144","prefecture":"福岡県","prefecture_kana":"フクオカケン","city":"小郡市","city_kana":"オゴオリシ","town":"祇園","town_kana":"ギオン","prefecture_code":40},"0143":{"zip_code":"8380143","prefecture":"福岡県","prefecture_kana":"フクオカケン","city":"小郡市","city_kana":"オゴオリシ","town":"小板井","town_kana":"コイタイ","prefecture_code":40},"0123":{"zip_code":"8380123","prefecture":"福岡県","prefecture_kana":"フクオカケン","city":"小郡市","city_kana":"オゴオリシ","town":"下岩田","town_kana":"シモイワタ","prefecture_code":40},"0134":{"zip_code":"8380134","prefecture":"福岡県","prefecture_kana":"フクオカケン","city":"小郡市","city_kana":"オゴオリシ","town":"下西鰺坂","town_kana":"シモニシアジサカ","prefecture_code":40},"0102":{"zip_code":"8380102","prefecture":"福岡県","prefecture_kana":"フクオカケン","city":"小郡市","city_kana":"オゴオリシ","town":"津古","town_kana":"ツコ","prefecture_code":40},"0138":{"zip_code":"8380138","prefecture":"福岡県","prefecture_kana":"フクオカケン","city":"小郡市","city_kana":"オゴオリシ","town":"寺福童","town_kana":"テラフクドウ","prefecture_code":40},"0107":{"zip_code":"8380107","prefecture":"福岡県","prefecture_kana":"フクオカケン","city":"小郡市","city_kana":"オゴオリシ","town":"希みが丘","town_kana":"ノゾミガオカ","prefecture_code":40},"0112":{"zip_code":"8380112","prefecture":"福岡県","prefecture_kana":"フクオカケン","city":"小郡市","city_kana":"オゴオリシ","town":"干潟","town_kana":"ヒカタ","prefecture_code":40},"0131":{"zip_code":"8380131","prefecture":"福岡県","prefecture_kana":"フクオカケン","city":"小郡市","city_kana":"オゴオリシ","town":"平方","town_kana":"ヒラカタ","prefecture_code":40},"0111":{"zip_code":"8380111","prefecture":"福岡県","prefecture_kana":"フクオカケン","city":"小郡市","city_kana":"オゴオリシ","town":"吹上","town_kana":"フキアゲ","prefecture_code":40},"0137":{"zip_code":"8380137","prefecture":"福岡県","prefecture_kana":"フクオカケン","city":"小郡市","city_kana":"オゴオリシ","town":"福童","town_kana":"フクドウ","prefecture_code":40},"0125":{"zip_code":"8380125","prefecture":"福岡県","prefecture_kana":"フクオカケン","city":"小郡市","city_kana":"オゴオリシ","town":"二タ","town_kana":"フタ","prefecture_code":40},"0126":{"zip_code":"8380126","prefecture":"福岡県","prefecture_kana":"フクオカケン","city":"小郡市","city_kana":"オゴオリシ","town":"二森","town_kana":"フタモリ","prefecture_code":40},"0124":{"zip_code":"8380124","prefecture":"福岡県","prefecture_kana":"フクオカケン","city":"小郡市","city_kana":"オゴオリシ","town":"古飯","town_kana":"フルエ","prefecture_code":40},"0122":{"zip_code":"8380122","prefecture":"福岡県","prefecture_kana":"フクオカケン","city":"小郡市","city_kana":"オゴオリシ","town":"松崎","town_kana":"マツザキ","prefecture_code":40},"0103":{"zip_code":"8380103","prefecture":"福岡県","prefecture_kana":"フクオカケン","city":"小郡市","city_kana":"オゴオリシ","town":"三国が丘","town_kana":"ミクニガオカ","prefecture_code":40},"0101":{"zip_code":"8380101","prefecture":"福岡県","prefecture_kana":"フクオカケン","city":"小郡市","city_kana":"オゴオリシ","town":"美鈴が丘","town_kana":"ミスズガオカ","prefecture_code":40},"0108":{"zip_code":"8380108","prefecture":"福岡県","prefecture_kana":"フクオカケン","city":"小郡市","city_kana":"オゴオリシ","town":"美鈴の杜","town_kana":"ミスズノモリ","prefecture_code":40},"0106":{"zip_code":"8380106","prefecture":"福岡県","prefecture_kana":"フクオカケン","city":"小郡市","city_kana":"オゴオリシ","town":"三沢","town_kana":"ミツサワ","prefecture_code":40},"0132":{"zip_code":"8380132","prefecture":"福岡県","prefecture_kana":"フクオカケン","city":"小郡市","city_kana":"オゴオリシ","town":"光行","town_kana":"ミツユキ","prefecture_code":40},"0133":{"zip_code":"8380133","prefecture":"福岡県","prefecture_kana":"フクオカケン","city":"小郡市","city_kana":"オゴオリシ","town":"八坂","town_kana":"ヤサカ","prefecture_code":40},"0113":{"zip_code":"8380113","prefecture":"福岡県","prefecture_kana":"フクオカケン","city":"小郡市","city_kana":"オゴオリシ","town":"山隈","town_kana":"ヤマグマ","prefecture_code":40},"0105":{"zip_code":"8380105","prefecture":"福岡県","prefecture_kana":"フクオカケン","city":"小郡市","city_kana":"オゴオリシ","town":"横隈","town_kana":"ヨコグマ","prefecture_code":40},"0116":{"zip_code":"8380116","prefecture":"福岡県","prefecture_kana":"フクオカケン","city":"小郡市","city_kana":"オゴオリシ","town":"力武","town_kana":"リキタケ","prefecture_code":40},"0000":[{"zip_code":"8380000","prefecture":"福岡県","prefecture_kana":"フクオカケン","city":"朝倉市","city_kana":"アサクラシ","town":"","town_kana":"","prefecture_code":40},{"zip_code":"8380000","prefecture":"福岡県","prefecture_kana":"フクオカケン","city":"朝倉郡筑前町","city_kana":"アサクラグンチクゼンマチ","town":"","town_kana":"","prefecture_code":40}],"0025":{"zip_code":"8380025","prefecture":"福岡県","prefecture_kana":"フクオカケン","city":"朝倉市","city_kana":"アサクラシ","town":"相窪","town_kana":"アイノクボ","prefecture_code":40},"0001":{"zip_code":"8380001","prefecture":"福岡県","prefecture_kana":"フクオカケン","city":"朝倉市","city_kana":"アサクラシ","town":"秋月","town_kana":"アキヅキ","prefecture_code":40},"0011":{"zip_code":"8380011","prefecture":"福岡県","prefecture_kana":"フクオカケン","city":"朝倉市","city_kana":"アサクラシ","town":"秋月野鳥","town_kana":"アキヅキノトリ","prefecture_code":40},"0068":{"zip_code":"8380068","prefecture":"福岡県","prefecture_kana":"フクオカケン","city":"朝倉市","city_kana":"アサクラシ","town":"甘木","town_kana":"アマギ","prefecture_code":40},"0005":{"zip_code":"8380005","prefecture":"福岡県","prefecture_kana":"フクオカケン","city":"朝倉市","city_kana":"アサクラシ","town":"甘水","town_kana":"アモウズ","prefecture_code":40},"1317":{"zip_code":"8381317","prefecture":"福岡県","prefecture_kana":"フクオカケン","city":"朝倉市","city_kana":"アサクラシ","town":"石成","town_kana":"イシナリ","prefecture_code":40},"0027":{"zip_code":"8380027","prefecture":"福岡県","prefecture_kana":"フクオカケン","city":"朝倉市","city_kana":"アサクラシ","town":"板屋","town_kana":"イタヤ","prefecture_code":40},"0029":{"zip_code":"8380029","prefecture":"福岡県","prefecture_kana":"フクオカケン","city":"朝倉市","city_kana":"アサクラシ","town":"荷原","town_kana":"イナイバル","prefecture_code":40},"1315":{"zip_code":"8381315","prefecture":"福岡県","prefecture_kana":"フクオカケン","city":"朝倉市","city_kana":"アサクラシ","town":"入地","town_kana":"イリジ","prefecture_code":40},"0042":{"zip_code":"8380042","prefecture":"福岡県","prefecture_kana":"フクオカケン","city":"朝倉市","city_kana":"アサクラシ","town":"上畑","town_kana":"ウエハタ","prefecture_code":40},"0067":{"zip_code":"8380067","prefecture":"福岡県","prefecture_kana":"フクオカケン","city":"朝倉市","city_kana":"アサクラシ","town":"牛木","town_kana":"ウシギ","prefecture_code":40},"0024":{"zip_code":"8380024","prefecture":"福岡県","prefecture_kana":"フクオカケン","city":"朝倉市","city_kana":"アサクラシ","town":"牛鶴","town_kana":"ウシヅル","prefecture_code":40},"1301":{"zip_code":"8381301","prefecture":"福岡県","prefecture_kana":"フクオカケン","city":"朝倉市","city_kana":"アサクラシ","town":"烏集院","town_kana":"ウスノイン","prefecture_code":40},"0038":{"zip_code":"8380038","prefecture":"福岡県","prefecture_kana":"フクオカケン","city":"朝倉市","city_kana":"アサクラシ","town":"鵜木","town_kana":"ウノキ","prefecture_code":40},"0012":{"zip_code":"8380012","prefecture":"福岡県","prefecture_kana":"フクオカケン","city":"朝倉市","city_kana":"アサクラシ","town":"江川","town_kana":"エガワ","prefecture_code":40},"1316":{"zip_code":"8381316","prefecture":"福岡県","prefecture_kana":"フクオカケン","city":"朝倉市","city_kana":"アサクラシ","town":"大庭","town_kana":"オオバ","prefecture_code":40},"0052":{"zip_code":"8380052","prefecture":"福岡県","prefecture_kana":"フクオカケン","city":"朝倉市","city_kana":"アサクラシ","town":"小隈","town_kana":"オグマ","prefecture_code":40},"0051":{"zip_code":"8380051","prefecture":"福岡県","prefecture_kana":"フクオカケン","city":"朝倉市","city_kana":"アサクラシ","town":"小田","town_kana":"オタ","prefecture_code":40},"0026":{"zip_code":"8380026","prefecture":"福岡県","prefecture_kana":"フクオカケン","city":"朝倉市","city_kana":"アサクラシ","town":"柿原","town_kana":"カキバル","prefecture_code":40},"0036":{"zip_code":"8380036","prefecture":"福岡県","prefecture_kana":"フクオカケン","city":"朝倉市","city_kana":"アサクラシ","town":"片延","town_kana":"カタノブ","prefecture_code":40},"0048":{"zip_code":"8380048","prefecture":"福岡県","prefecture_kana":"フクオカケン","city":"朝倉市","city_kana":"アサクラシ","town":"金丸","town_kana":"カナマル","prefecture_code":40},"0041":{"zip_code":"8380041","prefecture":"福岡県","prefecture_kana":"フクオカケン","city":"朝倉市","city_kana":"アサクラシ","town":"鎌崎","town_kana":"カマサキ","prefecture_code":40},"0019":{"zip_code":"8380019","prefecture":"福岡県","prefecture_kana":"フクオカケン","city":"朝倉市","city_kana":"アサクラシ","town":"上秋月","town_kana":"カミアキヅキ","prefecture_code":40},"0057":{"zip_code":"8380057","prefecture":"福岡県","prefecture_kana":"フクオカケン","city":"朝倉市","city_kana":"アサクラシ","town":"上浦","town_kana":"カミウラ","prefecture_code":40},"1313":{"zip_code":"8381313","prefecture":"福岡県","prefecture_kana":"フクオカケン","city":"朝倉市","city_kana":"アサクラシ","town":"上寺","town_kana":"カミデラ","prefecture_code":40},"0004":{"zip_code":"8380004","prefecture":"福岡県","prefecture_kana":"フクオカケン","city":"朝倉市","city_kana":"アサクラシ","town":"隈江","town_kana":"クマエ","prefecture_code":40},"0046":{"zip_code":"8380046","prefecture":"福岡県","prefecture_kana":"フクオカケン","city":"朝倉市","city_kana":"アサクラシ","town":"倉吉","town_kana":"クラヨシ","prefecture_code":40},"0072":{"zip_code":"8380072","prefecture":"福岡県","prefecture_kana":"フクオカケン","city":"朝倉市","city_kana":"アサクラシ","town":"黒川","town_kana":"クロガワ","prefecture_code":40},"0039":{"zip_code":"8380039","prefecture":"福岡県","prefecture_kana":"フクオカケン","city":"朝倉市","city_kana":"アサクラシ","town":"桑原","town_kana":"クワバラ","prefecture_code":40},"0063":{"zip_code":"8380063","prefecture":"福岡県","prefecture_kana":"フクオカケン","city":"朝倉市","city_kana":"アサクラシ","town":"古賀","town_kana":"コガ","prefecture_code":40},"1307":{"zip_code":"8381307","prefecture":"福岡県","prefecture_kana":"フクオカケン","city":"朝倉市","city_kana":"アサクラシ","town":"古毛","town_kana":"コモ","prefecture_code":40},"0071":{"zip_code":"8380071","prefecture":"福岡県","prefecture_kana":"フクオカケン","city":"朝倉市","city_kana":"アサクラシ","town":"佐田","town_kana":"サダ","prefecture_code":40},"0016":{"zip_code":"8380016","prefecture":"福岡県","prefecture_kana":"フクオカケン","city":"朝倉市","city_kana":"アサクラシ","town":"下渕","town_kana":"シタフチ","prefecture_code":40},"0055":{"zip_code":"8380055","prefecture":"福岡県","prefecture_kana":"フクオカケン","city":"朝倉市","city_kana":"アサクラシ","town":"下浦","town_kana":"シモウラ","prefecture_code":40},"0045":{"zip_code":"8380045","prefecture":"福岡県","prefecture_kana":"フクオカケン","city":"朝倉市","city_kana":"アサクラシ","town":"白鳥","town_kana":"シラトリ","prefecture_code":40},"0022":{"zip_code":"8380022","prefecture":"福岡県","prefecture_kana":"フクオカケン","city":"朝倉市","city_kana":"アサクラシ","town":"城","town_kana":"シロ","prefecture_code":40},"1304":{"zip_code":"8381304","prefecture":"福岡県","prefecture_kana":"フクオカケン","city":"朝倉市","city_kana":"アサクラシ","town":"須川","town_kana":"スガワ","prefecture_code":40},"0017":{"zip_code":"8380017","prefecture":"福岡県","prefecture_kana":"フクオカケン","city":"朝倉市","city_kana":"アサクラシ","town":"千手","town_kana":"センズ","prefecture_code":40},"0054":{"zip_code":"8380054","prefecture":"福岡県","prefecture_kana":"フクオカケン","city":"朝倉市","city_kana":"アサクラシ","town":"草水","town_kana":"ソウズ","prefecture_code":40},"0033":{"zip_code":"8380033","prefecture":"福岡県","prefecture_kana":"フクオカケン","city":"朝倉市","city_kana":"アサクラシ","town":"田島","town_kana":"タシマ","prefecture_code":40},"0013":{"zip_code":"8380013","prefecture":"福岡県","prefecture_kana":"フクオカケン","city":"朝倉市","city_kana":"アサクラシ","town":"田代","town_kana":"タシロ","prefecture_code":40},"1311":{"zip_code":"8381311","prefecture":"福岡県","prefecture_kana":"フクオカケン","city":"朝倉市","city_kana":"アサクラシ","town":"多々連","town_kana":"タダレ","prefecture_code":40},"1312":{"zip_code":"8381312","prefecture":"福岡県","prefecture_kana":"フクオカケン","city":"朝倉市","city_kana":"アサクラシ","town":"田中","town_kana":"タナカ","prefecture_code":40},"0066":{"zip_code":"8380066","prefecture":"福岡県","prefecture_kana":"フクオカケン","city":"朝倉市","city_kana":"アサクラシ","town":"千代丸","town_kana":"チヨマル","prefecture_code":40},"0062":{"zip_code":"8380062","prefecture":"福岡県","prefecture_kana":"フクオカケン","city":"朝倉市","city_kana":"アサクラシ","town":"堤","town_kana":"ツツミ","prefecture_code":40},"0047":{"zip_code":"8380047","prefecture":"福岡県","prefecture_kana":"フクオカケン","city":"朝倉市","city_kana":"アサクラシ","town":"徳渕","town_kana":"トクノフチ","prefecture_code":40},"0064":{"zip_code":"8380064","prefecture":"福岡県","prefecture_kana":"フクオカケン","city":"朝倉市","city_kana":"アサクラシ","town":"頓田","town_kana":"トンタ","prefecture_code":40},"0035":{"zip_code":"8380035","prefecture":"福岡県","prefecture_kana":"フクオカケン","city":"朝倉市","city_kana":"アサクラシ","town":"中","town_kana":"ナカ","prefecture_code":40},"0032":{"zip_code":"8380032","prefecture":"福岡県","prefecture_kana":"フクオカケン","city":"朝倉市","city_kana":"アサクラシ","town":"中島田","town_kana":"ナカシマダ","prefecture_code":40},"0053":{"zip_code":"8380053","prefecture":"福岡県","prefecture_kana":"フクオカケン","city":"朝倉市","city_kana":"アサクラシ","town":"中寒水","town_kana":"ナカソウズ","prefecture_code":40},"0043":{"zip_code":"8380043","prefecture":"福岡県","prefecture_kana":"フクオカケン","city":"朝倉市","city_kana":"アサクラシ","town":"長田","town_kana":"ナガタ","prefecture_code":40},"0056":{"zip_code":"8380056","prefecture":"福岡県","prefecture_kana":"フクオカケン","city":"朝倉市","city_kana":"アサクラシ","town":"中原","town_kana":"ナカバル","prefecture_code":40},"1314":{"zip_code":"8381314","prefecture":"福岡県","prefecture_kana":"フクオカケン","city":"朝倉市","city_kana":"アサクラシ","town":"長渕","town_kana":"ナガフチ","prefecture_code":40},"0003":{"zip_code":"8380003","prefecture":"福岡県","prefecture_kana":"フクオカケン","city":"朝倉市","city_kana":"アサクラシ","town":"楢原","town_kana":"ナラハラ","prefecture_code":40},"1501":{"zip_code":"8381501","prefecture":"福岡県","prefecture_kana":"フクオカケン","city":"朝倉市","city_kana":"アサクラシ","town":"杷木赤谷","town_kana":"ハキアカダニ","prefecture_code":40},"1511":{"zip_code":"8381511","prefecture":"福岡県","prefecture_kana":"フクオカケン","city":"朝倉市","city_kana":"アサクラシ","town":"杷木池田","town_kana":"ハキイケダ","prefecture_code":40},"1503":{"zip_code":"8381503","prefecture":"福岡県","prefecture_kana":"フクオカケン","city":"朝倉市","city_kana":"アサクラシ","town":"杷木大山","town_kana":"ハキオオヤマ","prefecture_code":40},"1514":{"zip_code":"8381514","prefecture":"福岡県","prefecture_kana":"フクオカケン","city":"朝倉市","city_kana":"アサクラシ","town":"杷木久喜宮","town_kana":"ハキクグミヤ","prefecture_code":40},"1513":{"zip_code":"8381513","prefecture":"福岡県","prefecture_kana":"フクオカケン","city":"朝倉市","city_kana":"アサクラシ","town":"杷木古賀","town_kana":"ハキコガ","prefecture_code":40},"1507":{"zip_code":"8381507","prefecture":"福岡県","prefecture_kana":"フクオカケン","city":"朝倉市","city_kana":"アサクラシ","town":"杷木白木","town_kana":"ハキシラキ","prefecture_code":40},"1521":{"zip_code":"8381521","prefecture":"福岡県","prefecture_kana":"フクオカケン","city":"朝倉市","city_kana":"アサクラシ","town":"杷木志波","town_kana":"ハキシワ","prefecture_code":40},"1512":{"zip_code":"8381512","prefecture":"福岡県","prefecture_kana":"フクオカケン","city":"朝倉市","city_kana":"アサクラシ","town":"杷木寒水","town_kana":"ハキソウズ","prefecture_code":40},"1506":{"zip_code":"8381506","prefecture":"福岡県","prefecture_kana":"フクオカケン","city":"朝倉市","city_kana":"アサクラシ","town":"杷木林田","town_kana":"ハキハヤシダ","prefecture_code":40},"1505":{"zip_code":"8381505","prefecture":"福岡県","prefecture_kana":"フクオカケン","city":"朝倉市","city_kana":"アサクラシ","town":"杷木穂坂","town_kana":"ハキホサカ","prefecture_code":40},"1504":{"zip_code":"8381504","prefecture":"福岡県","prefecture_kana":"フクオカケン","city":"朝倉市","city_kana":"アサクラシ","town":"杷木星丸","town_kana":"ハキホシマル","prefecture_code":40},"1502":{"zip_code":"8381502","prefecture":"福岡県","prefecture_kana":"フクオカケン","city":"朝倉市","city_kana":"アサクラシ","town":"杷木松末","town_kana":"ハキマスエ","prefecture_code":40},"1515":{"zip_code":"8381515","prefecture":"福岡県","prefecture_kana":"フクオカケン","city":"朝倉市","city_kana":"アサクラシ","town":"杷木若市","town_kana":"ハキワカイチ","prefecture_code":40},"0002":{"zip_code":"8380002","prefecture":"福岡県","prefecture_kana":"フクオカケン","city":"朝倉市","city_kana":"アサクラシ","town":"長谷山","town_kana":"ハセヤマ","prefecture_code":40},"0037":{"zip_code":"8380037","prefecture":"福岡県","prefecture_kana":"フクオカケン","city":"朝倉市","city_kana":"アサクラシ","town":"林田","town_kana":"ハヤシダ","prefecture_code":40},"1305":{"zip_code":"8381305","prefecture":"福岡県","prefecture_kana":"フクオカケン","city":"朝倉市","city_kana":"アサクラシ","town":"菱野","town_kana":"ヒシノ","prefecture_code":40},"0065":{"zip_code":"8380065","prefecture":"福岡県","prefecture_kana":"フクオカケン","city":"朝倉市","city_kana":"アサクラシ","town":"一木","town_kana":"ヒトツギ","prefecture_code":40},"0018":{"zip_code":"8380018","prefecture":"福岡県","prefecture_kana":"フクオカケン","city":"朝倉市","city_kana":"アサクラシ","town":"日向石","town_kana":"ヒュウガイシ","prefecture_code":40},"0059":{"zip_code":"8380059","prefecture":"福岡県","prefecture_kana":"フクオカケン","city":"朝倉市","city_kana":"アサクラシ","town":"平塚","town_kana":"ヒラヅカ","prefecture_code":40},"1303":{"zip_code":"8381303","prefecture":"福岡県","prefecture_kana":"フクオカケン","city":"朝倉市","city_kana":"アサクラシ","town":"比良松","town_kana":"ヒラマツ","prefecture_code":40},"0034":{"zip_code":"8380034","prefecture":"福岡県","prefecture_kana":"フクオカケン","city":"朝倉市","city_kana":"アサクラシ","town":"福光","town_kana":"フクミツ","prefecture_code":40},"0061":{"zip_code":"8380061","prefecture":"福岡県","prefecture_kana":"フクオカケン","city":"朝倉市","city_kana":"アサクラシ","town":"菩提寺","town_kana":"ボダイジ","prefecture_code":40},"0058":{"zip_code":"8380058","prefecture":"福岡県","prefecture_kana":"フクオカケン","city":"朝倉市","city_kana":"アサクラシ","town":"馬田","town_kana":"マダ","prefecture_code":40},"0023":{"zip_code":"8380023","prefecture":"福岡県","prefecture_kana":"フクオカケン","city":"朝倉市","city_kana":"アサクラシ","town":"三奈木","town_kana":"ミナギ","prefecture_code":40},"0020":{"zip_code":"8380020","prefecture":"福岡県","prefecture_kana":"フクオカケン","city":"朝倉市","city_kana":"アサクラシ","town":"美奈宜の杜","town_kana":"ミナギノモリ","prefecture_code":40},"1302":{"zip_code":"8381302","prefecture":"福岡県","prefecture_kana":"フクオカケン","city":"朝倉市","city_kana":"アサクラシ","town":"宮野","town_kana":"ミヤノ","prefecture_code":40},"0015":{"zip_code":"8380015","prefecture":"福岡県","prefecture_kana":"フクオカケン","city":"朝倉市","city_kana":"アサクラシ","town":"持丸","town_kana":"モチマル","prefecture_code":40},"0044":{"zip_code":"8380044","prefecture":"福岡県","prefecture_kana":"フクオカケン","city":"朝倉市","city_kana":"アサクラシ","town":"八重津","town_kana":"ヤエヅ","prefecture_code":40},"0028":{"zip_code":"8380028","prefecture":"福岡県","prefecture_kana":"フクオカケン","city":"朝倉市","city_kana":"アサクラシ","town":"屋形原","town_kana":"ヤカタバル","prefecture_code":40},"0031":{"zip_code":"8380031","prefecture":"福岡県","prefecture_kana":"フクオカケン","city":"朝倉市","city_kana":"アサクラシ","town":"屋永","town_kana":"ヤナガ","prefecture_code":40},"0021":{"zip_code":"8380021","prefecture":"福岡県","prefecture_kana":"フクオカケン","city":"朝倉市","city_kana":"アサクラシ","town":"矢野竹","town_kana":"ヤノタケ","prefecture_code":40},"1306":{"zip_code":"8381306","prefecture":"福岡県","prefecture_kana":"フクオカケン","city":"朝倉市","city_kana":"アサクラシ","town":"山田","town_kana":"ヤマダ","prefecture_code":40},"0014":{"zip_code":"8380014","prefecture":"福岡県","prefecture_kana":"フクオカケン","city":"朝倉市","city_kana":"アサクラシ","town":"山見","town_kana":"ヤマミ","prefecture_code":40},"0069":{"zip_code":"8380069","prefecture":"福岡県","prefecture_kana":"フクオカケン","city":"朝倉市","city_kana":"アサクラシ","town":"来春","town_kana":"ライハ","prefecture_code":40},"0222":{"zip_code":"8380222","prefecture":"福岡県","prefecture_kana":"フクオカケン","city":"朝倉郡筑前町","city_kana":"アサクラグンチクゼンマチ","town":"赤坂","town_kana":"アカサカ","prefecture_code":40},"0227":{"zip_code":"8380227","prefecture":"福岡県","prefecture_kana":"フクオカケン","city":"朝倉郡筑前町","city_kana":"アサクラグンチクゼンマチ","town":"朝日","town_kana":"アサヒ","prefecture_code":40},"0817":{"zip_code":"8380817","prefecture":"福岡県","prefecture_kana":"フクオカケン","city":"朝倉郡筑前町","city_kana":"アサクラグンチクゼンマチ","town":"朝園","town_kana":"アサゾノ","prefecture_code":40},"0825":{"zip_code":"8380825","prefecture":"福岡県","prefecture_kana":"フクオカケン","city":"朝倉郡筑前町","city_kana":"アサクラグンチクゼンマチ","town":"大久保","town_kana":"オオクボ","prefecture_code":40},"0225":{"zip_code":"8380225","prefecture":"福岡県","prefecture_kana":"フクオカケン","city":"朝倉郡筑前町","city_kana":"アサクラグンチクゼンマチ","town":"石櫃","town_kana":"イシビツ","prefecture_code":40},"0811":{"zip_code":"8380811","prefecture":"福岡県","prefecture_kana":"フクオカケン","city":"朝倉郡筑前町","city_kana":"アサクラグンチクゼンマチ","town":"弥永","town_kana":"イヤナガ","prefecture_code":40},"0812":{"zip_code":"8380812","prefecture":"福岡県","prefecture_kana":"フクオカケン","city":"朝倉郡筑前町","city_kana":"アサクラグンチクゼンマチ","town":"大塚","town_kana":"オオヅカ","prefecture_code":40},"0821":{"zip_code":"8380821","prefecture":"福岡県","prefecture_kana":"フクオカケン","city":"朝倉郡筑前町","city_kana":"アサクラグンチクゼンマチ","town":"上高場","town_kana":"カミタカバ","prefecture_code":40},"0201":{"zip_code":"8380201","prefecture":"福岡県","prefecture_kana":"フクオカケン","city":"朝倉郡筑前町","city_kana":"アサクラグンチクゼンマチ","town":"櫛木","town_kana":"クシギ","prefecture_code":40},"0801":{"zip_code":"8380801","prefecture":"福岡県","prefecture_kana":"フクオカケン","city":"朝倉郡筑前町","city_kana":"アサクラグンチクゼンマチ","town":"栗田","town_kana":"クリダ","prefecture_code":40},"0202":{"zip_code":"8380202","prefecture":"福岡県","prefecture_kana":"フクオカケン","city":"朝倉郡筑前町","city_kana":"アサクラグンチクゼンマチ","town":"三箇山","town_kana":"サンガヤマ","prefecture_code":40},"0212":{"zip_code":"8380212","prefecture":"福岡県","prefecture_kana":"フクオカケン","city":"朝倉郡筑前町","city_kana":"アサクラグンチクゼンマチ","town":"四三嶋","town_kana":"シソジマ","prefecture_code":40},"0215":{"zip_code":"8380215","prefecture":"福岡県","prefecture_kana":"フクオカケン","city":"朝倉郡筑前町","city_kana":"アサクラグンチクゼンマチ","town":"篠隈","town_kana":"シノクマ","prefecture_code":40},"0211":{"zip_code":"8380211","prefecture":"福岡県","prefecture_kana":"フクオカケン","city":"朝倉郡筑前町","city_kana":"アサクラグンチクゼンマチ","town":"下高場","town_kana":"シモタカバ","prefecture_code":40},"0816":{"zip_code":"8380816","prefecture":"福岡県","prefecture_kana":"フクオカケン","city":"朝倉郡筑前町","city_kana":"アサクラグンチクゼンマチ","town":"新町","town_kana":"シンマチ","prefecture_code":40},"0206":{"zip_code":"8380206","prefecture":"福岡県","prefecture_kana":"フクオカケン","city":"朝倉郡筑前町","city_kana":"アサクラグンチクゼンマチ","town":"曽根田","town_kana":"ソネダ","prefecture_code":40},"0814":{"zip_code":"8380814","prefecture":"福岡県","prefecture_kana":"フクオカケン","city":"朝倉郡筑前町","city_kana":"アサクラグンチクゼンマチ","town":"高田","town_kana":"タカタ","prefecture_code":40},"0822":{"zip_code":"8380822","prefecture":"福岡県","prefecture_kana":"フクオカケン","city":"朝倉郡筑前町","city_kana":"アサクラグンチクゼンマチ","town":"高上","town_kana":"タコエ","prefecture_code":40},"0204":{"zip_code":"8380204","prefecture":"福岡県","prefecture_kana":"フクオカケン","city":"朝倉郡筑前町","city_kana":"アサクラグンチクゼンマチ","town":"長者町","town_kana":"チョウジャマチ","prefecture_code":40},"0803":{"zip_code":"8380803","prefecture":"福岡県","prefecture_kana":"フクオカケン","city":"朝倉郡筑前町","city_kana":"アサクラグンチクゼンマチ","town":"当所","town_kana":"トウショ","prefecture_code":40},"0223":{"zip_code":"8380223","prefecture":"福岡県","prefecture_kana":"フクオカケン","city":"朝倉郡筑前町","city_kana":"アサクラグンチクゼンマチ","town":"砥上","town_kana":"トカミ","prefecture_code":40},"0226":{"zip_code":"8380226","prefecture":"福岡県","prefecture_kana":"フクオカケン","city":"朝倉郡筑前町","city_kana":"アサクラグンチクゼンマチ","town":"中牟田","town_kana":"ナカムタ","prefecture_code":40},"0815":{"zip_code":"8380815","prefecture":"福岡県","prefecture_kana":"フクオカケン","city":"朝倉郡筑前町","city_kana":"アサクラグンチクゼンマチ","town":"野町","town_kana":"ノマチ","prefecture_code":40},"0203":{"zip_code":"8380203","prefecture":"福岡県","prefecture_kana":"フクオカケン","city":"朝倉郡筑前町","city_kana":"アサクラグンチクゼンマチ","town":"畑嶋","town_kana":"ハタジマ","prefecture_code":40},"0824":{"zip_code":"8380824","prefecture":"福岡県","prefecture_kana":"フクオカケン","city":"朝倉郡筑前町","city_kana":"アサクラグンチクゼンマチ","town":"原地蔵","town_kana":"ハラジゾウ","prefecture_code":40},"0214":{"zip_code":"8380214","prefecture":"福岡県","prefecture_kana":"フクオカケン","city":"朝倉郡筑前町","city_kana":"アサクラグンチクゼンマチ","town":"東小田","town_kana":"ヒガシオダ","prefecture_code":40},"0802":{"zip_code":"8380802","prefecture":"福岡県","prefecture_kana":"フクオカケン","city":"朝倉郡筑前町","city_kana":"アサクラグンチクゼンマチ","town":"久光","town_kana":"ヒサミツ","prefecture_code":40},"0221":{"zip_code":"8380221","prefecture":"福岡県","prefecture_kana":"フクオカケン","city":"朝倉郡筑前町","city_kana":"アサクラグンチクゼンマチ","town":"吹田","town_kana":"フキダ","prefecture_code":40},"0228":{"zip_code":"8380228","prefecture":"福岡県","prefecture_kana":"フクオカケン","city":"朝倉郡筑前町","city_kana":"アサクラグンチクゼンマチ","town":"二","town_kana":"フタ","prefecture_code":40},"0224":{"zip_code":"8380224","prefecture":"福岡県","prefecture_kana":"フクオカケン","city":"朝倉郡筑前町","city_kana":"アサクラグンチクゼンマチ","town":"松延","town_kana":"マツノブ","prefecture_code":40},"0205":{"zip_code":"8380205","prefecture":"福岡県","prefecture_kana":"フクオカケン","city":"朝倉郡筑前町","city_kana":"アサクラグンチクゼンマチ","town":"三並","town_kana":"ミナミ","prefecture_code":40},"0207":{"zip_code":"8380207","prefecture":"福岡県","prefecture_kana":"フクオカケン","city":"朝倉郡筑前町","city_kana":"アサクラグンチクゼンマチ","town":"三牟田","town_kana":"ミムタ","prefecture_code":40},"0804":{"zip_code":"8380804","prefecture":"福岡県","prefecture_kana":"フクオカケン","city":"朝倉郡筑前町","city_kana":"アサクラグンチクゼンマチ","town":"森山","town_kana":"モリヤマ","prefecture_code":40},"0213":{"zip_code":"8380213","prefecture":"福岡県","prefecture_kana":"フクオカケン","city":"朝倉郡筑前町","city_kana":"アサクラグンチクゼンマチ","town":"安野","town_kana":"ヤスノ","prefecture_code":40},"0823":{"zip_code":"8380823","prefecture":"福岡県","prefecture_kana":"フクオカケン","city":"朝倉郡筑前町","city_kana":"アサクラグンチクゼンマチ","town":"山隈","town_kana":"ヤマグマ","prefecture_code":40},"0813":{"zip_code":"8380813","prefecture":"福岡県","prefecture_kana":"フクオカケン","city":"朝倉郡筑前町","city_kana":"アサクラグンチクゼンマチ","town":"依井","town_kana":"ヨリイ","prefecture_code":40},"1700":{"zip_code":"8381700","prefecture":"福岡県","prefecture_kana":"フクオカケン","city":"朝倉郡東峰村","city_kana":"アサクラグントウホウムラ","town":"","town_kana":"","prefecture_code":40},"1601":{"zip_code":"8381601","prefecture":"福岡県","prefecture_kana":"フクオカケン","city":"朝倉郡東峰村","city_kana":"アサクラグントウホウムラ","town":"小石原","town_kana":"コイシワラ","prefecture_code":40},"1602":{"zip_code":"8381602","prefecture":"福岡県","prefecture_kana":"フクオカケン","city":"朝倉郡東峰村","city_kana":"アサクラグントウホウムラ","town":"小石原鼓","town_kana":"コイシワラツヅミ","prefecture_code":40},"1702":{"zip_code":"8381702","prefecture":"福岡県","prefecture_kana":"フクオカケン","city":"朝倉郡東峰村","city_kana":"アサクラグントウホウムラ","town":"福井","town_kana":"フクイ","prefecture_code":40},"1701":{"zip_code":"8381701","prefecture":"福岡県","prefecture_kana":"フクオカケン","city":"朝倉郡東峰村","city_kana":"アサクラグントウホウムラ","town":"宝珠山","town_kana":"ホウシュヤマ","prefecture_code":40}}