{"0000":{"zip_code":"8390000","prefecture":"福岡県","prefecture_kana":"フクオカケン","city":"久留米市","city_kana":"クルメシ","town":"","town_kana":"","prefecture_code":40},"0861":{"zip_code":"8390861","prefecture":"福岡県","prefecture_kana":"フクオカケン","city":"久留米市","city_kana":"クルメシ","town":"合川町","town_kana":"アイカワマチ","prefecture_code":40},"0843":{"zip_code":"8390843","prefecture":"福岡県","prefecture_kana":"フクオカケン","city":"久留米市","city_kana":"クルメシ","town":"朝妻町","town_kana":"アサヅママチ","prefecture_code":40},"0832":{"zip_code":"8390832","prefecture":"福岡県","prefecture_kana":"フクオカケン","city":"久留米市","city_kana":"クルメシ","town":"大橋町合楽","town_kana":"オオハシマチアイラク","prefecture_code":40},"0833":{"zip_code":"8390833","prefecture":"福岡県","prefecture_kana":"フクオカケン","city":"久留米市","city_kana":"クルメシ","town":"大橋町常持","town_kana":"オオハシマチツネモチ","prefecture_code":40},"0831":{"zip_code":"8390831","prefecture":"福岡県","prefecture_kana":"フクオカケン","city":"久留米市","city_kana":"クルメシ","town":"大橋町蜷川","town_kana":"オオハシマチニナガワ","prefecture_code":40},"0835":{"zip_code":"8390835","prefecture":"福岡県","prefecture_kana":"フクオカケン","city":"久留米市","city_kana":"クルメシ","town":"草野町草野","town_kana":"クサノマチクサノ","prefecture_code":40},"0834":{"zip_code":"8390834","prefecture":"福岡県","prefecture_kana":"フクオカケン","city":"久留米市","city_kana":"クルメシ","town":"草野町紅桃林","town_kana":"クサノマチコトバヤシ","prefecture_code":40},"0837":{"zip_code":"8390837","prefecture":"福岡県","prefecture_kana":"フクオカケン","city":"久留米市","city_kana":"クルメシ","town":"草野町矢作","town_kana":"クサノマチヤハギ","prefecture_code":40},"0836":{"zip_code":"8390836","prefecture":"福岡県","prefecture_kana":"フクオカケン","city":"久留米市","city_kana":"クルメシ","town":"草野町吉木","town_kana":"クサノマチヨシキ","prefecture_code":40},"0852":{"zip_code":"8390852","prefecture":"福岡県","prefecture_kana":"フクオカケン","city":"久留米市","city_kana":"クルメシ","town":"高良内町","town_kana":"コウラウチマチ","prefecture_code":40},"0863":{"zip_code":"8390863","prefecture":"福岡県","prefecture_kana":"フクオカケン","city":"久留米市","city_kana":"クルメシ","town":"国分町","town_kana":"コクブマチ","prefecture_code":40},"0865":{"zip_code":"8390865","prefecture":"福岡県","prefecture_kana":"フクオカケン","city":"久留米市","city_kana":"クルメシ","town":"新合川","town_kana":"シンアイカワ","prefecture_code":40},"0853":{"zip_code":"8390853","prefecture":"福岡県","prefecture_kana":"フクオカケン","city":"久留米市","city_kana":"クルメシ","town":"青峰","town_kana":"セイホウ","prefecture_code":40},"0824":{"zip_code":"8390824","prefecture":"福岡県","prefecture_kana":"フクオカケン","city":"久留米市","city_kana":"クルメシ","town":"善導寺町飯田","town_kana":"ゼンドウジマチイイダ","prefecture_code":40},"0822":{"zip_code":"8390822","prefecture":"福岡県","prefecture_kana":"フクオカケン","city":"久留米市","city_kana":"クルメシ","town":"善導寺町木塚","town_kana":"ゼンドウジマチキヅカ","prefecture_code":40},"0825":{"zip_code":"8390825","prefecture":"福岡県","prefecture_kana":"フクオカケン","city":"久留米市","city_kana":"クルメシ","town":"善導寺町島","town_kana":"ゼンドウジマチシマ","prefecture_code":40},"0823":{"zip_code":"8390823","prefecture":"福岡県","prefecture_kana":"フクオカケン","city":"久留米市","city_kana":"クルメシ","town":"善導寺町与田","town_kana":"ゼンドウジマチヨダ","prefecture_code":40},"0821":{"zip_code":"8390821","prefecture":"福岡県","prefecture_kana":"フクオカケン","city":"久留米市","city_kana":"クルメシ","town":"太郎原町","town_kana":"ダイロバルマチ","prefecture_code":40},"1203":{"zip_code":"8391203","prefecture":"福岡県","prefecture_kana":"フクオカケン","city":"久留米市","city_kana":"クルメシ","town":"田主丸町秋成","town_kana":"タヌシマルマチアキナリ","prefecture_code":40},"1227":{"zip_code":"8391227","prefecture":"福岡県","prefecture_kana":"フクオカケン","city":"久留米市","city_kana":"クルメシ","town":"田主丸町朝森","town_kana":"タヌシマルマチアサモリ","prefecture_code":40},"1212":{"zip_code":"8391212","prefecture":"福岡県","prefecture_kana":"フクオカケン","city":"久留米市","city_kana":"クルメシ","town":"田主丸町石垣","town_kana":"タヌシマルマチイシカキ","prefecture_code":40},"1223":{"zip_code":"8391223","prefecture":"福岡県","prefecture_kana":"フクオカケン","city":"久留米市","city_kana":"クルメシ","town":"田主丸町以真恵","town_kana":"タヌシマルマチイマエ","prefecture_code":40},"1228":{"zip_code":"8391228","prefecture":"福岡県","prefecture_kana":"フクオカケン","city":"久留米市","city_kana":"クルメシ","town":"田主丸町恵利","town_kana":"タヌシマルマチエリ","prefecture_code":40},"1221":{"zip_code":"8391221","prefecture":"福岡県","prefecture_kana":"フクオカケン","city":"久留米市","city_kana":"クルメシ","town":"田主丸町上原","town_kana":"タヌシマルマチカミハル","prefecture_code":40},"1222":{"zip_code":"8391222","prefecture":"福岡県","prefecture_kana":"フクオカケン","city":"久留米市","city_kana":"クルメシ","town":"田主丸町志塚島","town_kana":"タヌシマルマチシツカシマ","prefecture_code":40},"1225":{"zip_code":"8391225","prefecture":"福岡県","prefecture_kana":"フクオカケン","city":"久留米市","city_kana":"クルメシ","town":"田主丸町菅原","town_kana":"タヌシマルマチスガハラ","prefecture_code":40},"1202":{"zip_code":"8391202","prefecture":"福岡県","prefecture_kana":"フクオカケン","city":"久留米市","city_kana":"クルメシ","town":"田主丸町鷹取","town_kana":"タヌシマルマチタカトリ","prefecture_code":40},"1215":{"zip_code":"8391215","prefecture":"福岡県","prefecture_kana":"フクオカケン","city":"久留米市","city_kana":"クルメシ","town":"田主丸町竹野","town_kana":"タヌシマルマチタケノ","prefecture_code":40},"1233":{"zip_code":"8391233","prefecture":"福岡県","prefecture_kana":"フクオカケン","city":"久留米市","city_kana":"クルメシ","town":"田主丸町田主丸","town_kana":"タヌシマルマチタヌシマル","prefecture_code":40},"1214":{"zip_code":"8391214","prefecture":"福岡県","prefecture_kana":"フクオカケン","city":"久留米市","city_kana":"クルメシ","town":"田主丸町地徳","town_kana":"タヌシマルマチチトク","prefecture_code":40},"1232":{"zip_code":"8391232","prefecture":"福岡県","prefecture_kana":"フクオカケン","city":"久留米市","city_kana":"クルメシ","town":"田主丸町常盤","town_kana":"タヌシマルマチトキワ","prefecture_code":40},"1234":{"zip_code":"8391234","prefecture":"福岡県","prefecture_kana":"フクオカケン","city":"久留米市","city_kana":"クルメシ","town":"田主丸町豊城","town_kana":"タヌシマルマチトヨキ","prefecture_code":40},"1216":{"zip_code":"8391216","prefecture":"福岡県","prefecture_kana":"フクオカケン","city":"久留米市","city_kana":"クルメシ","town":"田主丸町中尾","town_kana":"タヌシマルマチナカオ","prefecture_code":40},"1201":{"zip_code":"8391201","prefecture":"福岡県","prefecture_kana":"フクオカケン","city":"久留米市","city_kana":"クルメシ","town":"田主丸町長栖","town_kana":"タヌシマルマチナガス","prefecture_code":40},"1231":{"zip_code":"8391231","prefecture":"福岡県","prefecture_kana":"フクオカケン","city":"久留米市","city_kana":"クルメシ","town":"田主丸町野田","town_kana":"タヌシマルマチノダ","prefecture_code":40},"1204":{"zip_code":"8391204","prefecture":"福岡県","prefecture_kana":"フクオカケン","city":"久留米市","city_kana":"クルメシ","town":"田主丸町殖木","town_kana":"タヌシマルマチフエキ","prefecture_code":40},"1205":{"zip_code":"8391205","prefecture":"福岡県","prefecture_kana":"フクオカケン","city":"久留米市","city_kana":"クルメシ","town":"田主丸町船越","town_kana":"タヌシマルマチフナゴシ","prefecture_code":40},"1224":{"zip_code":"8391224","prefecture":"福岡県","prefecture_kana":"フクオカケン","city":"久留米市","city_kana":"クルメシ","town":"田主丸町牧","town_kana":"タヌシマルマチマキ","prefecture_code":40},"1213":{"zip_code":"8391213","prefecture":"福岡県","prefecture_kana":"フクオカケン","city":"久留米市","city_kana":"クルメシ","town":"田主丸町益生田","town_kana":"タヌシマルマチマスオダ","prefecture_code":40},"1211":{"zip_code":"8391211","prefecture":"福岡県","prefecture_kana":"フクオカケン","city":"久留米市","city_kana":"クルメシ","town":"田主丸町森部","town_kana":"タヌシマルマチモリベ","prefecture_code":40},"1226":{"zip_code":"8391226","prefecture":"福岡県","prefecture_kana":"フクオカケン","city":"久留米市","city_kana":"クルメシ","town":"田主丸町八幡","town_kana":"タヌシマルマチヤハタ","prefecture_code":40},"1206":{"zip_code":"8391206","prefecture":"福岡県","prefecture_kana":"フクオカケン","city":"久留米市","city_kana":"クルメシ","town":"田主丸町吉本","town_kana":"タヌシマルマチヨシモト","prefecture_code":40},"0862":{"zip_code":"8390862","prefecture":"福岡県","prefecture_kana":"フクオカケン","city":"久留米市","city_kana":"クルメシ","town":"野中町","town_kana":"ノナカマチ","prefecture_code":40},"0809":{"zip_code":"8390809","prefecture":"福岡県","prefecture_kana":"フクオカケン","city":"久留米市","city_kana":"クルメシ","town":"東合川","town_kana":"ヒガシアイカワ","prefecture_code":40},"0808":{"zip_code":"8390808","prefecture":"福岡県","prefecture_kana":"フクオカケン","city":"久留米市","city_kana":"クルメシ","town":"東合川新町","town_kana":"ヒガシアイカワシンマチ","prefecture_code":40},"0806":{"zip_code":"8390806","prefecture":"福岡県","prefecture_kana":"フクオカケン","city":"久留米市","city_kana":"クルメシ","town":"東合川干出町","town_kana":"ヒガシアイカワヒイデマチ","prefecture_code":40},"0807":{"zip_code":"8390807","prefecture":"福岡県","prefecture_kana":"フクオカケン","city":"久留米市","city_kana":"クルメシ","town":"東合川町","town_kana":"ヒガシアイカワマチ","prefecture_code":40},"0864":{"zip_code":"8390864","prefecture":"福岡県","prefecture_kana":"フクオカケン","city":"久留米市","city_kana":"クルメシ","town":"百年公園","town_kana":"ヒャクネンコウエン","prefecture_code":40},"0842":{"zip_code":"8390842","prefecture":"福岡県","prefecture_kana":"フクオカケン","city":"久留米市","city_kana":"クルメシ","town":"御井朝妻","town_kana":"ミイアサヅマ","prefecture_code":40},"0841":{"zip_code":"8390841","prefecture":"福岡県","prefecture_kana":"フクオカケン","city":"久留米市","city_kana":"クルメシ","town":"御井旗崎","town_kana":"ミイハタザキ","prefecture_code":40},"0851":{"zip_code":"8390851","prefecture":"福岡県","prefecture_kana":"フクオカケン","city":"久留米市","city_kana":"クルメシ","town":"御井町","town_kana":"ミイマチ","prefecture_code":40},"0801":{"zip_code":"8390801","prefecture":"福岡県","prefecture_kana":"フクオカケン","city":"久留米市","city_kana":"クルメシ","town":"宮ノ陣","town_kana":"ミヤノジン","prefecture_code":40},"0803":{"zip_code":"8390803","prefecture":"福岡県","prefecture_kana":"フクオカケン","city":"久留米市","city_kana":"クルメシ","town":"宮ノ陣町大杜","town_kana":"ミヤノジンマチオオト","prefecture_code":40},"0802":{"zip_code":"8390802","prefecture":"福岡県","prefecture_kana":"フクオカケン","city":"久留米市","city_kana":"クルメシ","town":"宮ノ陣町五郎丸","town_kana":"ミヤノジンマチゴロウマル","prefecture_code":40},"0805":{"zip_code":"8390805","prefecture":"福岡県","prefecture_kana":"フクオカケン","city":"久留米市","city_kana":"クルメシ","town":"宮ノ陣町八丁島","town_kana":"ミヤノジンマチハッチョウジマ","prefecture_code":40},"0804":{"zip_code":"8390804","prefecture":"福岡県","prefecture_kana":"フクオカケン","city":"久留米市","city_kana":"クルメシ","town":"宮ノ陣町若松","town_kana":"ミヤノジンマチワカマツ","prefecture_code":40},"0812":{"zip_code":"8390812","prefecture":"福岡県","prefecture_kana":"フクオカケン","city":"久留米市","city_kana":"クルメシ","town":"山川安居野","town_kana":"ヤマカワアイノ","prefecture_code":40},"0813":{"zip_code":"8390813","prefecture":"福岡県","prefecture_kana":"フクオカケン","city":"久留米市","city_kana":"クルメシ","town":"山川市ノ上町","town_kana":"ヤマカワイチノウエマチ","prefecture_code":40},"0814":{"zip_code":"8390814","prefecture":"福岡県","prefecture_kana":"フクオカケン","city":"久留米市","city_kana":"クルメシ","town":"山川追分","town_kana":"ヤマカワオイワケ","prefecture_code":40},"0815":{"zip_code":"8390815","prefecture":"福岡県","prefecture_kana":"フクオカケン","city":"久留米市","city_kana":"クルメシ","town":"山川沓形町","town_kana":"ヤマカワクツガタマチ","prefecture_code":40},"0811":{"zip_code":"8390811","prefecture":"福岡県","prefecture_kana":"フクオカケン","city":"久留米市","city_kana":"クルメシ","town":"山川神代","town_kana":"ヤマカワクマシロ","prefecture_code":40},"0816":{"zip_code":"8390816","prefecture":"福岡県","prefecture_kana":"フクオカケン","city":"久留米市","city_kana":"クルメシ","town":"山川野口町","town_kana":"ヤマカワノグチマチ","prefecture_code":40},"0817":{"zip_code":"8390817","prefecture":"福岡県","prefecture_kana":"フクオカケン","city":"久留米市","city_kana":"クルメシ","town":"山川町","town_kana":"ヤマカワマチ","prefecture_code":40},"0827":{"zip_code":"8390827","prefecture":"福岡県","prefecture_kana":"フクオカケン","city":"久留米市","city_kana":"クルメシ","town":"山本町豊田","town_kana":"ヤマモトマチトヨダ","prefecture_code":40},"0826":{"zip_code":"8390826","prefecture":"福岡県","prefecture_kana":"フクオカケン","city":"久留米市","city_kana":"クルメシ","town":"山本町耳納","town_kana":"ヤマモトマチミノウ","prefecture_code":40},"0251":{"zip_code":"8390251","prefecture":"福岡県","prefecture_kana":"フクオカケン","city":"柳川市","city_kana":"ヤナガワシ","town":"大和町明野","town_kana":"ヤマトマチアケノ","prefecture_code":40},"0263":{"zip_code":"8390263","prefecture":"福岡県","prefecture_kana":"フクオカケン","city":"柳川市","city_kana":"ヤナガワシ","town":"大和町大坪","town_kana":"ヤマトマチオオツボ","prefecture_code":40},"0252":{"zip_code":"8390252","prefecture":"福岡県","prefecture_kana":"フクオカケン","city":"柳川市","city_kana":"ヤナガワシ","town":"大和町栄","town_kana":"ヤマトマチサカエ","prefecture_code":40},"0261":{"zip_code":"8390261","prefecture":"福岡県","prefecture_kana":"フクオカケン","city":"柳川市","city_kana":"ヤナガワシ","town":"大和町皿垣開","town_kana":"ヤマトマチサラカキビラキ","prefecture_code":40},"0243":{"zip_code":"8390243","prefecture":"福岡県","prefecture_kana":"フクオカケン","city":"柳川市","city_kana":"ヤナガワシ","town":"大和町塩塚","town_kana":"ヤマトマチシオツカ","prefecture_code":40},"0253":{"zip_code":"8390253","prefecture":"福岡県","prefecture_kana":"フクオカケン","city":"柳川市","city_kana":"ヤナガワシ","town":"大和町鷹ノ尾","town_kana":"ヤマトマチタカノオ","prefecture_code":40},"0264":{"zip_code":"8390264","prefecture":"福岡県","prefecture_kana":"フクオカケン","city":"柳川市","city_kana":"ヤナガワシ","town":"大和町谷垣","town_kana":"ヤマトマチタニガキ","prefecture_code":40},"0241":{"zip_code":"8390241","prefecture":"福岡県","prefecture_kana":"フクオカケン","city":"柳川市","city_kana":"ヤナガワシ","town":"大和町徳益","town_kana":"ヤマトマチトクマス","prefecture_code":40},"0242":{"zip_code":"8390242","prefecture":"福岡県","prefecture_kana":"フクオカケン","city":"柳川市","city_kana":"ヤナガワシ","town":"大和町豊原","town_kana":"ヤマトマチトヨハラ","prefecture_code":40},"0254":{"zip_code":"8390254","prefecture":"福岡県","prefecture_kana":"フクオカケン","city":"柳川市","city_kana":"ヤナガワシ","town":"大和町中島","town_kana":"ヤマトマチナカシマ","prefecture_code":40},"0262":{"zip_code":"8390262","prefecture":"福岡県","prefecture_kana":"フクオカケン","city":"柳川市","city_kana":"ヤナガワシ","town":"大和町永田開","town_kana":"ヤマトマチナガタビラキ","prefecture_code":40},"0244":{"zip_code":"8390244","prefecture":"福岡県","prefecture_kana":"フクオカケン","city":"柳川市","city_kana":"ヤナガワシ","town":"大和町六合","town_kana":"ヤマトマチロクゴウ","prefecture_code":40},"1400":{"zip_code":"8391400","prefecture":"福岡県","prefecture_kana":"フクオカケン","city":"うきは市","city_kana":"ウキハシ","town":"","town_kana":"","prefecture_code":40},"1401":{"zip_code":"8391401","prefecture":"福岡県","prefecture_kana":"フクオカケン","city":"うきは市","city_kana":"ウキハシ","town":"浮羽町朝田","town_kana":"ウキハマチアサダ","prefecture_code":40},"1415":{"zip_code":"8391415","prefecture":"福岡県","prefecture_kana":"フクオカケン","city":"うきは市","city_kana":"ウキハシ","town":"浮羽町妹川","town_kana":"ウキハマチイモガワ","prefecture_code":40},"1402":{"zip_code":"8391402","prefecture":"福岡県","prefecture_kana":"フクオカケン","city":"うきは市","city_kana":"ウキハシ","town":"浮羽町浮羽","town_kana":"ウキハマチウキハ","prefecture_code":40},"1412":{"zip_code":"8391412","prefecture":"福岡県","prefecture_kana":"フクオカケン","city":"うきは市","city_kana":"ウキハシ","town":"浮羽町小塩","town_kana":"ウキハマチコジオ","prefecture_code":40},"1406":{"zip_code":"8391406","prefecture":"福岡県","prefecture_kana":"フクオカケン","city":"うきは市","city_kana":"ウキハシ","town":"浮羽町高見","town_kana":"ウキハマチタカミ","prefecture_code":40},"1414":{"zip_code":"8391414","prefecture":"福岡県","prefecture_kana":"フクオカケン","city":"うきは市","city_kana":"ウキハシ","town":"浮羽町田篭","town_kana":"ウキハマチタゴモリ","prefecture_code":40},"1411":{"zip_code":"8391411","prefecture":"福岡県","prefecture_kana":"フクオカケン","city":"うきは市","city_kana":"ウキハシ","town":"浮羽町流川","town_kana":"ウキハマチナガレカワ","prefecture_code":40},"1413":{"zip_code":"8391413","prefecture":"福岡県","prefecture_kana":"フクオカケン","city":"うきは市","city_kana":"ウキハシ","town":"浮羽町新川","town_kana":"ウキハマチニイカワ","prefecture_code":40},"1404":{"zip_code":"8391404","prefecture":"福岡県","prefecture_kana":"フクオカケン","city":"うきは市","city_kana":"ウキハシ","town":"浮羽町西隈上","town_kana":"ウキハマチニシクマノウエ","prefecture_code":40},"1403":{"zip_code":"8391403","prefecture":"福岡県","prefecture_kana":"フクオカケン","city":"うきは市","city_kana":"ウキハシ","town":"浮羽町東隈上","town_kana":"ウキハマチヒガシクマノウエ","prefecture_code":40},"1405":{"zip_code":"8391405","prefecture":"福岡県","prefecture_kana":"フクオカケン","city":"うきは市","city_kana":"ウキハシ","town":"浮羽町古川","town_kana":"ウキハマチフルカワ","prefecture_code":40},"1407":{"zip_code":"8391407","prefecture":"福岡県","prefecture_kana":"フクオカケン","city":"うきは市","city_kana":"ウキハシ","town":"浮羽町三春","town_kana":"ウキハマチミハル","prefecture_code":40},"1408":{"zip_code":"8391408","prefecture":"福岡県","prefecture_kana":"フクオカケン","city":"うきは市","city_kana":"ウキハシ","town":"浮羽町山北","town_kana":"ウキハマチヤマキタ","prefecture_code":40},"1321":{"zip_code":"8391321","prefecture":"福岡県","prefecture_kana":"フクオカケン","city":"うきは市","city_kana":"ウキハシ","town":"吉井町","town_kana":"ヨシイマチ","prefecture_code":40},"1342":{"zip_code":"8391342","prefecture":"福岡県","prefecture_kana":"フクオカケン","city":"うきは市","city_kana":"ウキハシ","town":"吉井町生葉","town_kana":"ヨシイマチイクハ","prefecture_code":40},"1341":{"zip_code":"8391341","prefecture":"福岡県","prefecture_kana":"フクオカケン","city":"うきは市","city_kana":"ウキハシ","town":"吉井町江南","town_kana":"ヨシイマチエナミ","prefecture_code":40},"1312":{"zip_code":"8391312","prefecture":"福岡県","prefecture_kana":"フクオカケン","city":"うきは市","city_kana":"ウキハシ","town":"吉井町清瀬","town_kana":"ヨシイマチキヨセ","prefecture_code":40},"1301":{"zip_code":"8391301","prefecture":"福岡県","prefecture_kana":"フクオカケン","city":"うきは市","city_kana":"ウキハシ","town":"吉井町桜井","town_kana":"ヨシイマチサクライ","prefecture_code":40},"1343":{"zip_code":"8391343","prefecture":"福岡県","prefecture_kana":"フクオカケン","city":"うきは市","city_kana":"ウキハシ","town":"吉井町鷹取","town_kana":"ヨシイマチタカトリ","prefecture_code":40},"1307":{"zip_code":"8391307","prefecture":"福岡県","prefecture_kana":"フクオカケン","city":"うきは市","city_kana":"ウキハシ","town":"吉井町橘田","town_kana":"ヨシイマチタチバナダ","prefecture_code":40},"1304":{"zip_code":"8391304","prefecture":"福岡県","prefecture_kana":"フクオカケン","city":"うきは市","city_kana":"ウキハシ","town":"吉井町千年","town_kana":"ヨシイマチチトセ","prefecture_code":40},"1302":{"zip_code":"8391302","prefecture":"福岡県","prefecture_kana":"フクオカケン","city":"うきは市","city_kana":"ウキハシ","town":"吉井町徳丸","town_kana":"ヨシイマチトクマル","prefecture_code":40},"1333":{"zip_code":"8391333","prefecture":"福岡県","prefecture_kana":"フクオカケン","city":"うきは市","city_kana":"ウキハシ","town":"吉井町富永","town_kana":"ヨシイマチトミナガ","prefecture_code":40},"1344":{"zip_code":"8391344","prefecture":"福岡県","prefecture_kana":"フクオカケン","city":"うきは市","city_kana":"ウキハシ","town":"吉井町長栖","town_kana":"ヨシイマチナガス","prefecture_code":40},"1306":{"zip_code":"8391306","prefecture":"福岡県","prefecture_kana":"フクオカケン","city":"うきは市","city_kana":"ウキハシ","town":"吉井町新治","town_kana":"ヨシイマチニイハル","prefecture_code":40},"1305":{"zip_code":"8391305","prefecture":"福岡県","prefecture_kana":"フクオカケン","city":"うきは市","city_kana":"ウキハシ","town":"吉井町福永","town_kana":"ヨシイマチフクナガ","prefecture_code":40},"1332":{"zip_code":"8391332","prefecture":"福岡県","prefecture_kana":"フクオカケン","city":"うきは市","city_kana":"ウキハシ","town":"吉井町福益","town_kana":"ヨシイマチフクマス","prefecture_code":40},"1303":{"zip_code":"8391303","prefecture":"福岡県","prefecture_kana":"フクオカケン","city":"うきは市","city_kana":"ウキハシ","town":"吉井町宮田","town_kana":"ヨシイマチミヤダ","prefecture_code":40},"1331":{"zip_code":"8391331","prefecture":"福岡県","prefecture_kana":"フクオカケン","city":"うきは市","city_kana":"ウキハシ","town":"吉井町屋部","town_kana":"ヨシイマチヤベ","prefecture_code":40},"1308":{"zip_code":"8391308","prefecture":"福岡県","prefecture_kana":"フクオカケン","city":"うきは市","city_kana":"ウキハシ","town":"吉井町八和田","town_kana":"ヨシイマチヤワタ","prefecture_code":40},"1311":{"zip_code":"8391311","prefecture":"福岡県","prefecture_kana":"フクオカケン","city":"うきは市","city_kana":"ウキハシ","town":"吉井町若宮","town_kana":"ヨシイマチワカミヤ","prefecture_code":40},"0214":{"zip_code":"8390214","prefecture":"福岡県","prefecture_kana":"フクオカケン","city":"みやま市","city_kana":"ミヤマシ","town":"高田町今福","town_kana":"タカタマチイマブク","prefecture_code":40},"0223":{"zip_code":"8390223","prefecture":"福岡県","prefecture_kana":"フクオカケン","city":"みやま市","city_kana":"ミヤマシ","town":"高田町岩津","town_kana":"タカタマチイワツ","prefecture_code":40},"0202":{"zip_code":"8390202","prefecture":"福岡県","prefecture_kana":"フクオカケン","city":"みやま市","city_kana":"ミヤマシ","town":"高田町永治","town_kana":"タカタマチエイジ","prefecture_code":40},"0213":{"zip_code":"8390213","prefecture":"福岡県","prefecture_kana":"フクオカケン","city":"みやま市","city_kana":"ミヤマシ","town":"高田町江浦","town_kana":"タカタマチエノウラ","prefecture_code":40},"0212":{"zip_code":"8390212","prefecture":"福岡県","prefecture_kana":"フクオカケン","city":"みやま市","city_kana":"ミヤマシ","town":"高田町江浦町","town_kana":"タカタマチエノウラマチ","prefecture_code":40},"0225":{"zip_code":"8390225","prefecture":"福岡県","prefecture_kana":"フクオカケン","city":"みやま市","city_kana":"ミヤマシ","town":"高田町上楠田","town_kana":"タカタマチカミクスダ","prefecture_code":40},"0204":{"zip_code":"8390204","prefecture":"福岡県","prefecture_kana":"フクオカケン","city":"みやま市","city_kana":"ミヤマシ","town":"高田町北新開","town_kana":"タカタマチキタシンガイ","prefecture_code":40},"0203":{"zip_code":"8390203","prefecture":"福岡県","prefecture_kana":"フクオカケン","city":"みやま市","city_kana":"ミヤマシ","town":"高田町黒崎開","town_kana":"タカタマチクロサキビラキ","prefecture_code":40},"0221":{"zip_code":"8390221","prefecture":"福岡県","prefecture_kana":"フクオカケン","city":"みやま市","city_kana":"ミヤマシ","town":"高田町下楠田","town_kana":"タカタマチシモクスダ","prefecture_code":40},"0201":{"zip_code":"8390201","prefecture":"福岡県","prefecture_kana":"フクオカケン","city":"みやま市","city_kana":"ミヤマシ","town":"高田町昭和開","town_kana":"タカタマチショウワビラキ","prefecture_code":40},"0224":{"zip_code":"8390224","prefecture":"福岡県","prefecture_kana":"フクオカケン","city":"みやま市","city_kana":"ミヤマシ","town":"高田町田尻","town_kana":"タカタマチタジリ","prefecture_code":40},"0211":{"zip_code":"8390211","prefecture":"福岡県","prefecture_kana":"フクオカケン","city":"みやま市","city_kana":"ミヤマシ","town":"高田町徳島","town_kana":"タカタマチトクシマ","prefecture_code":40},"0215":{"zip_code":"8390215","prefecture":"福岡県","prefecture_kana":"フクオカケン","city":"みやま市","city_kana":"ミヤマシ","town":"高田町濃施","town_kana":"タカタマチノセ","prefecture_code":40},"0222":{"zip_code":"8390222","prefecture":"福岡県","prefecture_kana":"フクオカケン","city":"みやま市","city_kana":"ミヤマシ","town":"高田町原","town_kana":"タカタマチハル","prefecture_code":40},"0205":{"zip_code":"8390205","prefecture":"福岡県","prefecture_kana":"フクオカケン","city":"みやま市","city_kana":"ミヤマシ","town":"高田町南新開","town_kana":"タカタマチミナミシンガイ","prefecture_code":40},"1421":[{"zip_code":"8391421","prefecture":"大分県","prefecture_kana":"オオイタケン","city":"日田市","city_kana":"ヒタシ","town":"前津江町柚木","town_kana":"マエツエマチユウギ","prefecture_code":44},{"zip_code":"8391421","prefecture":"大分県","prefecture_kana":"オオイタケン","city":"日田市","city_kana":"ヒタシ","town":"前津江町柚木千歳木","town_kana":"マエツエマチユウギチトセギ","prefecture_code":44},{"zip_code":"8391421","prefecture":"大分県","prefecture_kana":"オオイタケン","city":"日田市","city_kana":"ヒタシ","town":"前津江町柚木塔ノ本","town_kana":"マエツエマチユウギトウノモト","prefecture_code":44},{"zip_code":"8391421","prefecture":"大分県","prefecture_kana":"オオイタケン","city":"日田市","city_kana":"ヒタシ","town":"前津江町柚木仁田原","town_kana":"マエツエマチユウギニタバル","prefecture_code":44},{"zip_code":"8391421","prefecture":"大分県","prefecture_kana":"オオイタケン","city":"日田市","city_kana":"ヒタシ","town":"前津江町柚木本村","town_kana":"マエツエマチユウギホンムラ","prefecture_code":44}]}