{"0000":{"zip_code":"8430000","prefecture":"佐賀県","prefecture_kana":"サガケン","city":"武雄市","city_kana":"タケオシ","town":"","town_kana":"","prefecture_code":41},"0003":{"zip_code":"8430003","prefecture":"佐賀県","prefecture_kana":"サガケン","city":"武雄市","city_kana":"タケオシ","town":"朝日町芦原","town_kana":"アサヒチョウアシハラ","prefecture_code":41},"0001":{"zip_code":"8430001","prefecture":"佐賀県","prefecture_kana":"サガケン","city":"武雄市","city_kana":"タケオシ","town":"朝日町甘久","town_kana":"アサヒチョウアマグ","prefecture_code":41},"0002":{"zip_code":"8430002","prefecture":"佐賀県","prefecture_kana":"サガケン","city":"武雄市","city_kana":"タケオシ","town":"朝日町中野","town_kana":"アサヒチョウナカノ","prefecture_code":41},"0023":{"zip_code":"8430023","prefecture":"佐賀県","prefecture_kana":"サガケン","city":"武雄市","city_kana":"タケオシ","town":"武雄町昭和","town_kana":"タケオチョウショウワ","prefecture_code":41},"0022":{"zip_code":"8430022","prefecture":"佐賀県","prefecture_kana":"サガケン","city":"武雄市","city_kana":"タケオシ","town":"武雄町武雄","town_kana":"タケオチョウタケオ","prefecture_code":41},"0024":{"zip_code":"8430024","prefecture":"佐賀県","prefecture_kana":"サガケン","city":"武雄市","city_kana":"タケオシ","town":"武雄町富岡","town_kana":"タケオチョウトミオカ","prefecture_code":41},"0021":{"zip_code":"8430021","prefecture":"佐賀県","prefecture_kana":"サガケン","city":"武雄市","city_kana":"タケオシ","town":"武雄町永島","town_kana":"タケオチョウナガシマ","prefecture_code":41},"0011":{"zip_code":"8430011","prefecture":"佐賀県","prefecture_kana":"サガケン","city":"武雄市","city_kana":"タケオシ","town":"橘町芦原","town_kana":"タチバナチョウアシハラ","prefecture_code":41},"0012":{"zip_code":"8430012","prefecture":"佐賀県","prefecture_kana":"サガケン","city":"武雄市","city_kana":"タケオシ","town":"橘町片白","town_kana":"タチバナチョウカタジロ","prefecture_code":41},"0013":{"zip_code":"8430013","prefecture":"佐賀県","prefecture_kana":"サガケン","city":"武雄市","city_kana":"タケオシ","town":"橘町大日","town_kana":"タチバナチョウダイニチ","prefecture_code":41},"0014":{"zip_code":"8430014","prefecture":"佐賀県","prefecture_kana":"サガケン","city":"武雄市","city_kana":"タケオシ","town":"橘町永島","town_kana":"タチバナチョウナガシマ","prefecture_code":41},"0231":{"zip_code":"8430231","prefecture":"佐賀県","prefecture_kana":"サガケン","city":"武雄市","city_kana":"タケオシ","town":"西川登町小田志","town_kana":"ニシカワノボリチョウコタジ","prefecture_code":41},"0232":{"zip_code":"8430232","prefecture":"佐賀県","prefecture_kana":"サガケン","city":"武雄市","city_kana":"タケオシ","town":"西川登町神六","town_kana":"ニシカワノボリチョウジンロク","prefecture_code":41},"0233":{"zip_code":"8430233","prefecture":"佐賀県","prefecture_kana":"サガケン","city":"武雄市","city_kana":"タケオシ","town":"東川登町永野","town_kana":"ヒガシカワノボリチョウナガノ","prefecture_code":41},"0234":{"zip_code":"8430234","prefecture":"佐賀県","prefecture_kana":"サガケン","city":"武雄市","city_kana":"タケオシ","town":"東川登町袴野","town_kana":"ヒガシカワノボリチョウハカマノ","prefecture_code":41},"0151":{"zip_code":"8430151","prefecture":"佐賀県","prefecture_kana":"サガケン","city":"武雄市","city_kana":"タケオシ","town":"若木町川古","town_kana":"ワカキチョウカワゴ","prefecture_code":41},"0152":{"zip_code":"8430152","prefecture":"佐賀県","prefecture_kana":"サガケン","city":"武雄市","city_kana":"タケオシ","town":"若木町本部","town_kana":"ワカキチョウモトベ","prefecture_code":41},"0153":{"zip_code":"8430153","prefecture":"佐賀県","prefecture_kana":"サガケン","city":"武雄市","city_kana":"タケオシ","town":"若木町桃川","town_kana":"ワカキチョウモモノカワ","prefecture_code":41},"0300":{"zip_code":"8430300","prefecture":"佐賀県","prefecture_kana":"サガケン","city":"嬉野市","city_kana":"ウレシノシ","town":"","town_kana":"","prefecture_code":41},"0304":{"zip_code":"8430304","prefecture":"佐賀県","prefecture_kana":"サガケン","city":"嬉野市","city_kana":"ウレシノシ","town":"嬉野町岩屋川内","town_kana":"ウレシノマチイワヤガワチ","prefecture_code":41},"0301":{"zip_code":"8430301","prefecture":"佐賀県","prefecture_kana":"サガケン","city":"嬉野市","city_kana":"ウレシノシ","town":"嬉野町下宿","town_kana":"ウレシノマチシモジュク","prefecture_code":41},"0302":{"zip_code":"8430302","prefecture":"佐賀県","prefecture_kana":"サガケン","city":"嬉野市","city_kana":"ウレシノシ","town":"嬉野町下野","town_kana":"ウレシノマチシモノ","prefecture_code":41},"0305":{"zip_code":"8430305","prefecture":"佐賀県","prefecture_kana":"サガケン","city":"嬉野市","city_kana":"ウレシノシ","town":"嬉野町不動山","town_kana":"ウレシノマチフドウヤマ","prefecture_code":41},"0303":{"zip_code":"8430303","prefecture":"佐賀県","prefecture_kana":"サガケン","city":"嬉野市","city_kana":"ウレシノシ","town":"嬉野町吉田","town_kana":"ウレシノマチヨシダ","prefecture_code":41}}