{"0000":{"zip_code":"8440000","prefecture":"佐賀県","prefecture_kana":"サガケン","city":"西松浦郡有田町","city_kana":"ニシマツウラグンアリタチョウ","town":"","town_kana":"","prefecture_code":41},"0006":{"zip_code":"8440006","prefecture":"佐賀県","prefecture_kana":"サガケン","city":"西松浦郡有田町","city_kana":"ニシマツウラグンアリタチョウ","town":"赤絵町","town_kana":"アカエマチ","prefecture_code":41},"0024":{"zip_code":"8440024","prefecture":"佐賀県","prefecture_kana":"サガケン","city":"西松浦郡有田町","city_kana":"ニシマツウラグンアリタチョウ","town":"赤坂","town_kana":"アカサカ","prefecture_code":41},"0001":{"zip_code":"8440001","prefecture":"佐賀県","prefecture_kana":"サガケン","city":"西松浦郡有田町","city_kana":"ニシマツウラグンアリタチョウ","town":"泉山","town_kana":"イズミヤマ","prefecture_code":41},"0011":{"zip_code":"8440011","prefecture":"佐賀県","prefecture_kana":"サガケン","city":"西松浦郡有田町","city_kana":"ニシマツウラグンアリタチョウ","town":"岩谷川内","town_kana":"イワタニガワチ","prefecture_code":41},"0021":{"zip_code":"8440021","prefecture":"佐賀県","prefecture_kana":"サガケン","city":"西松浦郡有田町","city_kana":"ニシマツウラグンアリタチョウ","town":"応法","town_kana":"オウボウ","prefecture_code":41},"0004":{"zip_code":"8440004","prefecture":"佐賀県","prefecture_kana":"サガケン","city":"西松浦郡有田町","city_kana":"ニシマツウラグンアリタチョウ","town":"大樽","town_kana":"オオダル","prefecture_code":41},"0013":{"zip_code":"8440013","prefecture":"佐賀県","prefecture_kana":"サガケン","city":"西松浦郡有田町","city_kana":"ニシマツウラグンアリタチョウ","town":"大野","town_kana":"オオノ","prefecture_code":41},"0003":{"zip_code":"8440003","prefecture":"佐賀県","prefecture_kana":"サガケン","city":"西松浦郡有田町","city_kana":"ニシマツウラグンアリタチョウ","town":"上幸平","town_kana":"カミコウヒラ","prefecture_code":41},"0022":{"zip_code":"8440022","prefecture":"佐賀県","prefecture_kana":"サガケン","city":"西松浦郡有田町","city_kana":"ニシマツウラグンアリタチョウ","town":"黒牟田","town_kana":"クロムタ","prefecture_code":41},"0012":{"zip_code":"8440012","prefecture":"佐賀県","prefecture_kana":"サガケン","city":"西松浦郡有田町","city_kana":"ニシマツウラグンアリタチョウ","town":"桑古場","town_kana":"クワコバ","prefecture_code":41},"0005":{"zip_code":"8440005","prefecture":"佐賀県","prefecture_kana":"サガケン","city":"西松浦郡有田町","city_kana":"ニシマツウラグンアリタチョウ","town":"幸平","town_kana":"コウビラ","prefecture_code":41},"0016":{"zip_code":"8440016","prefecture":"佐賀県","prefecture_kana":"サガケン","city":"西松浦郡有田町","city_kana":"ニシマツウラグンアリタチョウ","town":"境野","town_kana":"サカイノ","prefecture_code":41},"0007":{"zip_code":"8440007","prefecture":"佐賀県","prefecture_kana":"サガケン","city":"西松浦郡有田町","city_kana":"ニシマツウラグンアリタチョウ","town":"白川","town_kana":"シラカワ","prefecture_code":41},"0017":{"zip_code":"8440017","prefecture":"佐賀県","prefecture_kana":"サガケン","city":"西松浦郡有田町","city_kana":"ニシマツウラグンアリタチョウ","town":"戸杓","town_kana":"トシャク","prefecture_code":41},"0014":{"zip_code":"8440014","prefecture":"佐賀県","prefecture_kana":"サガケン","city":"西松浦郡有田町","city_kana":"ニシマツウラグンアリタチョウ","town":"戸矢","town_kana":"トヤ","prefecture_code":41},"0002":{"zip_code":"8440002","prefecture":"佐賀県","prefecture_kana":"サガケン","city":"西松浦郡有田町","city_kana":"ニシマツウラグンアリタチョウ","town":"中樽","town_kana":"ナカダル","prefecture_code":41},"0009":{"zip_code":"8440009","prefecture":"佐賀県","prefecture_kana":"サガケン","city":"西松浦郡有田町","city_kana":"ニシマツウラグンアリタチョウ","town":"中の原","town_kana":"ナカノハラ","prefecture_code":41},"0028":{"zip_code":"8440028","prefecture":"佐賀県","prefecture_kana":"サガケン","city":"西松浦郡有田町","city_kana":"ニシマツウラグンアリタチョウ","town":"南山","town_kana":"ナンザン","prefecture_code":41},"0027":{"zip_code":"8440027","prefecture":"佐賀県","prefecture_kana":"サガケン","city":"西松浦郡有田町","city_kana":"ニシマツウラグンアリタチョウ","town":"南原","town_kana":"ナンバル","prefecture_code":41},"0008":{"zip_code":"8440008","prefecture":"佐賀県","prefecture_kana":"サガケン","city":"西松浦郡有田町","city_kana":"ニシマツウラグンアリタチョウ","town":"稗古場","town_kana":"ヒエコバ","prefecture_code":41},"0015":{"zip_code":"8440015","prefecture":"佐賀県","prefecture_kana":"サガケン","city":"西松浦郡有田町","city_kana":"ニシマツウラグンアリタチョウ","town":"古木場","town_kana":"フルコバ","prefecture_code":41},"0026":{"zip_code":"8440026","prefecture":"佐賀県","prefecture_kana":"サガケン","city":"西松浦郡有田町","city_kana":"ニシマツウラグンアリタチョウ","town":"外尾町","town_kana":"ホカオマチ","prefecture_code":41},"0025":{"zip_code":"8440025","prefecture":"佐賀県","prefecture_kana":"サガケン","city":"西松浦郡有田町","city_kana":"ニシマツウラグンアリタチョウ","town":"外尾山","town_kana":"ホカオヤマ","prefecture_code":41},"0018":{"zip_code":"8440018","prefecture":"佐賀県","prefecture_kana":"サガケン","city":"西松浦郡有田町","city_kana":"ニシマツウラグンアリタチョウ","town":"本町","town_kana":"ホンマチ","prefecture_code":41},"0023":{"zip_code":"8440023","prefecture":"佐賀県","prefecture_kana":"サガケン","city":"西松浦郡有田町","city_kana":"ニシマツウラグンアリタチョウ","town":"丸尾","town_kana":"マルオ","prefecture_code":41}}