{"0000":{"zip_code":"8450000","prefecture":"佐賀県","prefecture_kana":"サガケン","city":"小城市","city_kana":"オギシ","town":"","town_kana":"","prefecture_code":41},"0001":{"zip_code":"8450001","prefecture":"佐賀県","prefecture_kana":"サガケン","city":"小城市","city_kana":"オギシ","town":"小城町","town_kana":"オギマチ","prefecture_code":41},"0012":{"zip_code":"8450012","prefecture":"佐賀県","prefecture_kana":"サガケン","city":"小城市","city_kana":"オギシ","town":"小城町池上","town_kana":"オギマチイケノウエ","prefecture_code":41},"0003":{"zip_code":"8450003","prefecture":"佐賀県","prefecture_kana":"サガケン","city":"小城市","city_kana":"オギシ","town":"小城町岩蔵","town_kana":"オギマチイワクラ","prefecture_code":41},"0013":{"zip_code":"8450013","prefecture":"佐賀県","prefecture_kana":"サガケン","city":"小城市","city_kana":"オギシ","town":"小城町栗原","town_kana":"オギマチクリハラ","prefecture_code":41},"0002":{"zip_code":"8450002","prefecture":"佐賀県","prefecture_kana":"サガケン","city":"小城市","city_kana":"オギシ","town":"小城町畑田","town_kana":"オギマチハタケダ","prefecture_code":41},"0014":{"zip_code":"8450014","prefecture":"佐賀県","prefecture_kana":"サガケン","city":"小城市","city_kana":"オギシ","town":"小城町晴気","town_kana":"オギマチハルケ","prefecture_code":41},"0005":{"zip_code":"8450005","prefecture":"佐賀県","prefecture_kana":"サガケン","city":"小城市","city_kana":"オギシ","town":"小城町東新町","town_kana":"オギマチヒガシシンマチ","prefecture_code":41},"0011":{"zip_code":"8450011","prefecture":"佐賀県","prefecture_kana":"サガケン","city":"小城市","city_kana":"オギシ","town":"小城町船田","town_kana":"オギマチフナダ","prefecture_code":41},"0004":{"zip_code":"8450004","prefecture":"佐賀県","prefecture_kana":"サガケン","city":"小城市","city_kana":"オギシ","town":"小城町松尾","town_kana":"オギマチマツオ","prefecture_code":41},"0035":{"zip_code":"8450035","prefecture":"佐賀県","prefecture_kana":"サガケン","city":"小城市","city_kana":"オギシ","town":"三日月町石木","town_kana":"ミカツキチョウイシキ","prefecture_code":41},"0023":{"zip_code":"8450023","prefecture":"佐賀県","prefecture_kana":"サガケン","city":"小城市","city_kana":"オギシ","town":"三日月町織島","town_kana":"ミカツキチョウオリシマ","prefecture_code":41},"0032":{"zip_code":"8450032","prefecture":"佐賀県","prefecture_kana":"サガケン","city":"小城市","city_kana":"オギシ","town":"三日月町金田","town_kana":"ミカツキチョウカナダ","prefecture_code":41},"0022":{"zip_code":"8450022","prefecture":"佐賀県","prefecture_kana":"サガケン","city":"小城市","city_kana":"オギシ","town":"三日月町久米","town_kana":"ミカツキチョウクメ","prefecture_code":41},"0034":{"zip_code":"8450034","prefecture":"佐賀県","prefecture_kana":"サガケン","city":"小城市","city_kana":"オギシ","town":"三日月町甲柳原","town_kana":"ミカツキチョウコウヤナギハラ","prefecture_code":41},"0021":{"zip_code":"8450021","prefecture":"佐賀県","prefecture_kana":"サガケン","city":"小城市","city_kana":"オギシ","town":"三日月町長神田","town_kana":"ミカツキチョウチョウカンダ","prefecture_code":41},"0033":{"zip_code":"8450033","prefecture":"佐賀県","prefecture_kana":"サガケン","city":"小城市","city_kana":"オギシ","town":"三日月町樋口","town_kana":"ミカツキチョウヒグチ","prefecture_code":41},"0031":{"zip_code":"8450031","prefecture":"佐賀県","prefecture_kana":"サガケン","city":"小城市","city_kana":"オギシ","town":"三日月町堀江","town_kana":"ミカツキチョウホリエ","prefecture_code":41},"0025":{"zip_code":"8450025","prefecture":"佐賀県","prefecture_kana":"サガケン","city":"小城市","city_kana":"オギシ","town":"三日月町三ケ島","town_kana":"ミカツキチョウミカシマ","prefecture_code":41},"0024":{"zip_code":"8450024","prefecture":"佐賀県","prefecture_kana":"サガケン","city":"小城市","city_kana":"オギシ","town":"三日月町道辺","town_kana":"ミカツキチョウミチベ","prefecture_code":41}}