{"0000":{"zip_code":"8460000","prefecture":"佐賀県","prefecture_kana":"サガケン","city":"多久市","city_kana":"タクシ","town":"","town_kana":"","prefecture_code":41},"0001":{"zip_code":"8460001","prefecture":"佐賀県","prefecture_kana":"サガケン","city":"多久市","city_kana":"タクシ","town":"北多久町","town_kana":"キタタクマチ","prefecture_code":41},"0006":{"zip_code":"8460006","prefecture":"佐賀県","prefecture_kana":"サガケン","city":"多久市","city_kana":"タクシ","town":"北多久町莇原","town_kana":"キタタクマチアザミバル","prefecture_code":41},"0002":{"zip_code":"8460002","prefecture":"佐賀県","prefecture_kana":"サガケン","city":"多久市","city_kana":"タクシ","town":"北多久町小侍","town_kana":"キタタクマチコサムライ","prefecture_code":41},"0005":{"zip_code":"8460005","prefecture":"佐賀県","prefecture_kana":"サガケン","city":"多久市","city_kana":"タクシ","town":"北多久町砂原","town_kana":"キタタクマチスナハラ","prefecture_code":41},"0003":{"zip_code":"8460003","prefecture":"佐賀県","prefecture_kana":"サガケン","city":"多久市","city_kana":"タクシ","town":"北多久町多久原","town_kana":"キタタクマチタクバル","prefecture_code":41},"0004":{"zip_code":"8460004","prefecture":"佐賀県","prefecture_kana":"サガケン","city":"多久市","city_kana":"タクシ","town":"北多久町中多久","town_kana":"キタタクマチナカタク","prefecture_code":41},"0007":{"zip_code":"8460007","prefecture":"佐賀県","prefecture_kana":"サガケン","city":"多久市","city_kana":"タクシ","town":"北多久町メイプルタウン","town_kana":"キタタクマチメイプルタウン","prefecture_code":41},"0031":{"zip_code":"8460031","prefecture":"佐賀県","prefecture_kana":"サガケン","city":"多久市","city_kana":"タクシ","town":"多久町","town_kana":"タクマチ","prefecture_code":41},"0041":{"zip_code":"8460041","prefecture":"佐賀県","prefecture_kana":"サガケン","city":"多久市","city_kana":"タクシ","town":"西多久町","town_kana":"ニシタクマチ","prefecture_code":41},"0011":{"zip_code":"8460011","prefecture":"佐賀県","prefecture_kana":"サガケン","city":"多久市","city_kana":"タクシ","town":"東多久町","town_kana":"ヒガシタクマチ","prefecture_code":41},"0013":{"zip_code":"8460013","prefecture":"佐賀県","prefecture_kana":"サガケン","city":"多久市","city_kana":"タクシ","town":"東多久町古賀","town_kana":"ヒガシタクマチコガ","prefecture_code":41},"0014":{"zip_code":"8460014","prefecture":"佐賀県","prefecture_kana":"サガケン","city":"多久市","city_kana":"タクシ","town":"東多久町納所","town_kana":"ヒガシタクマチノウソ","prefecture_code":41},"0012":{"zip_code":"8460012","prefecture":"佐賀県","prefecture_kana":"サガケン","city":"多久市","city_kana":"タクシ","town":"東多久町別府","town_kana":"ヒガシタクマチベフ","prefecture_code":41},"0021":{"zip_code":"8460021","prefecture":"佐賀県","prefecture_kana":"サガケン","city":"多久市","city_kana":"タクシ","town":"南多久町","town_kana":"ミナミタクマチ","prefecture_code":41},"0022":{"zip_code":"8460022","prefecture":"佐賀県","prefecture_kana":"サガケン","city":"多久市","city_kana":"タクシ","town":"南多久町泉町","town_kana":"ミナミタクマチイズミマチ","prefecture_code":41},"0024":{"zip_code":"8460024","prefecture":"佐賀県","prefecture_kana":"サガケン","city":"多久市","city_kana":"タクシ","town":"南多久町下多久","town_kana":"ミナミタクマチシモタク","prefecture_code":41},"0023":{"zip_code":"8460023","prefecture":"佐賀県","prefecture_kana":"サガケン","city":"多久市","city_kana":"タクシ","town":"南多久町長尾","town_kana":"ミナミタクマチナガオ","prefecture_code":41},"0025":{"zip_code":"8460025","prefecture":"佐賀県","prefecture_kana":"サガケン","city":"多久市","city_kana":"タクシ","town":"南多久町花祭","town_kana":"ミナミタクマチハナマツリ","prefecture_code":41}}