{"0000":{"zip_code":"8470000","prefecture":"佐賀県","prefecture_kana":"サガケン","city":"唐津市","city_kana":"カラツシ","town":"","town_kana":"","prefecture_code":41},"0823":{"zip_code":"8470823","prefecture":"佐賀県","prefecture_kana":"サガケン","city":"唐津市","city_kana":"カラツシ","town":"旭が丘","town_kana":"アサヒガオカ","prefecture_code":41},"0841":{"zip_code":"8470841","prefecture":"佐賀県","prefecture_kana":"サガケン","city":"唐津市","city_kana":"カラツシ","town":"朝日町","town_kana":"アサヒマチ","prefecture_code":41},"0832":{"zip_code":"8470832","prefecture":"佐賀県","prefecture_kana":"サガケン","city":"唐津市","city_kana":"カラツシ","town":"石志","town_kana":"イシシ","prefecture_code":41},"0042":{"zip_code":"8470042","prefecture":"佐賀県","prefecture_kana":"サガケン","city":"唐津市","city_kana":"カラツシ","town":"魚屋町","town_kana":"ウオヤマチ","prefecture_code":41},"0025":{"zip_code":"8470025","prefecture":"佐賀県","prefecture_kana":"サガケン","city":"唐津市","city_kana":"カラツシ","town":"宇木","town_kana":"ウキ","prefecture_code":41},"0804":{"zip_code":"8470804","prefecture":"佐賀県","prefecture_kana":"サガケン","city":"唐津市","city_kana":"カラツシ","town":"後川内","town_kana":"ウシロガワチ","prefecture_code":41},"0124":{"zip_code":"8470124","prefecture":"佐賀県","prefecture_kana":"サガケン","city":"唐津市","city_kana":"カラツシ","town":"浦","town_kana":"ウラ","prefecture_code":41},"0853":{"zip_code":"8470853","prefecture":"佐賀県","prefecture_kana":"サガケン","city":"唐津市","city_kana":"カラツシ","town":"江川町","town_kana":"エガワマチ","prefecture_code":41},"0123":{"zip_code":"8470123","prefecture":"佐賀県","prefecture_kana":"サガケン","city":"唐津市","city_kana":"カラツシ","town":"枝去木","town_kana":"エザルキ","prefecture_code":41},"0132":{"zip_code":"8470132","prefecture":"佐賀県","prefecture_kana":"サガケン","city":"唐津市","city_kana":"カラツシ","town":"相賀","town_kana":"オウカ","prefecture_code":41},"0066":{"zip_code":"8470066","prefecture":"佐賀県","prefecture_kana":"サガケン","city":"唐津市","city_kana":"カラツシ","town":"大石町","town_kana":"オオイシマチ","prefecture_code":41},"0873":{"zip_code":"8470873","prefecture":"佐賀県","prefecture_kana":"サガケン","city":"唐津市","city_kana":"カラツシ","town":"海岸通","town_kana":"カイガンドオリ","prefecture_code":41},"0022":{"zip_code":"8470022","prefecture":"佐賀県","prefecture_kana":"サガケン","city":"唐津市","city_kana":"カラツシ","town":"鏡","town_kana":"カガミ","prefecture_code":41},"0028":{"zip_code":"8470028","prefecture":"佐賀県","prefecture_kana":"サガケン","city":"唐津市","city_kana":"カラツシ","town":"鏡新開","town_kana":"カガミシンカイ","prefecture_code":41},"0065":{"zip_code":"8470065","prefecture":"佐賀県","prefecture_kana":"サガケン","city":"唐津市","city_kana":"カラツシ","town":"水主町","town_kana":"カコマチ","prefecture_code":41},"0026":{"zip_code":"8470026","prefecture":"佐賀県","prefecture_kana":"サガケン","city":"唐津市","city_kana":"カラツシ","town":"柏崎","town_kana":"カシワザキ","prefecture_code":41},"0131":{"zip_code":"8470131","prefecture":"佐賀県","prefecture_kana":"サガケン","city":"唐津市","city_kana":"カラツシ","town":"神集島","town_kana":"カシワジマ","prefecture_code":41},"0055":{"zip_code":"8470055","prefecture":"佐賀県","prefecture_kana":"サガケン","city":"唐津市","city_kana":"カラツシ","town":"刀町","town_kana":"カタナマチ","prefecture_code":41},"0015":{"zip_code":"8470015","prefecture":"佐賀県","prefecture_kana":"サガケン","city":"唐津市","city_kana":"カラツシ","town":"北城内","town_kana":"キタジョウナイ","prefecture_code":41},"1212":{"zip_code":"8471212","prefecture":"佐賀県","prefecture_kana":"サガケン","city":"唐津市","city_kana":"カラツシ","town":"北波多大杉","town_kana":"キタハタオオスギ","prefecture_code":41},"1221":{"zip_code":"8471221","prefecture":"佐賀県","prefecture_kana":"サガケン","city":"唐津市","city_kana":"カラツシ","town":"北波多上平野","town_kana":"キタハタカミヒラノ","prefecture_code":41},"1211":{"zip_code":"8471211","prefecture":"佐賀県","prefecture_kana":"サガケン","city":"唐津市","city_kana":"カラツシ","town":"北波多岸山","town_kana":"キタハタキシヤマ","prefecture_code":41},"1225":{"zip_code":"8471225","prefecture":"佐賀県","prefecture_kana":"サガケン","city":"唐津市","city_kana":"カラツシ","town":"北波多志気","town_kana":"キタハタシゲ","prefecture_code":41},"1223":{"zip_code":"8471223","prefecture":"佐賀県","prefecture_kana":"サガケン","city":"唐津市","city_kana":"カラツシ","town":"北波多下平野","town_kana":"キタハタシモヒラノ","prefecture_code":41},"1213":{"zip_code":"8471213","prefecture":"佐賀県","prefecture_kana":"サガケン","city":"唐津市","city_kana":"カラツシ","town":"北波多竹有","town_kana":"キタハタタケアリ","prefecture_code":41},"1202":{"zip_code":"8471202","prefecture":"佐賀県","prefecture_kana":"サガケン","city":"唐津市","city_kana":"カラツシ","town":"北波多田中","town_kana":"キタハタタナカ","prefecture_code":41},"1201":{"zip_code":"8471201","prefecture":"佐賀県","prefecture_kana":"サガケン","city":"唐津市","city_kana":"カラツシ","town":"北波多徳須恵","town_kana":"キタハタトクスエ","prefecture_code":41},"1222":{"zip_code":"8471222","prefecture":"佐賀県","prefecture_kana":"サガケン","city":"唐津市","city_kana":"カラツシ","town":"北波多成渕","town_kana":"キタハタナルフチ","prefecture_code":41},"1214":{"zip_code":"8471214","prefecture":"佐賀県","prefecture_kana":"サガケン","city":"唐津市","city_kana":"カラツシ","town":"北波多稗田","town_kana":"キタハタヒエダ","prefecture_code":41},"1203":{"zip_code":"8471203","prefecture":"佐賀県","prefecture_kana":"サガケン","city":"唐津市","city_kana":"カラツシ","town":"北波多山彦","town_kana":"キタハタヤマヒコ","prefecture_code":41},"1224":{"zip_code":"8471224","prefecture":"佐賀県","prefecture_kana":"サガケン","city":"唐津市","city_kana":"カラツシ","town":"北波多行合野","town_kana":"キタハタユキアイノ","prefecture_code":41},"0045":{"zip_code":"8470045","prefecture":"佐賀県","prefecture_kana":"サガケン","city":"唐津市","city_kana":"カラツシ","town":"京町","town_kana":"キョウマチ","prefecture_code":41},"0044":{"zip_code":"8470044","prefecture":"佐賀県","prefecture_kana":"サガケン","city":"唐津市","city_kana":"カラツシ","town":"木綿町","town_kana":"キワタマチ","prefecture_code":41},"0817":{"zip_code":"8470817","prefecture":"佐賀県","prefecture_kana":"サガケン","city":"唐津市","city_kana":"カラツシ","town":"熊原町","town_kana":"クマノハラマチ","prefecture_code":41},"0884":{"zip_code":"8470884","prefecture":"佐賀県","prefecture_kana":"サガケン","city":"唐津市","city_kana":"カラツシ","town":"熊ノ峰","town_kana":"クマノミネ","prefecture_code":41},"0033":{"zip_code":"8470033","prefecture":"佐賀県","prefecture_kana":"サガケン","city":"唐津市","city_kana":"カラツシ","town":"久里","town_kana":"クリ","prefecture_code":41},"0824":{"zip_code":"8470824","prefecture":"佐賀県","prefecture_kana":"サガケン","city":"唐津市","city_kana":"カラツシ","town":"神田","town_kana":"コウダ","prefecture_code":41},"0052":{"zip_code":"8470052","prefecture":"佐賀県","prefecture_kana":"サガケン","city":"唐津市","city_kana":"カラツシ","town":"呉服町","town_kana":"ゴフクマチ","prefecture_code":41},"0054":{"zip_code":"8470054","prefecture":"佐賀県","prefecture_kana":"サガケン","city":"唐津市","city_kana":"カラツシ","town":"米屋町","town_kana":"コメヤマチ","prefecture_code":41},"0053":{"zip_code":"8470053","prefecture":"佐賀県","prefecture_kana":"サガケン","city":"唐津市","city_kana":"カラツシ","town":"紺屋町","town_kana":"コンヤマチ","prefecture_code":41},"0061":{"zip_code":"8470061","prefecture":"佐賀県","prefecture_kana":"サガケン","city":"唐津市","city_kana":"カラツシ","town":"材木町","town_kana":"ザイモクマチ","prefecture_code":41},"0011":{"zip_code":"8470011","prefecture":"佐賀県","prefecture_kana":"サガケン","city":"唐津市","city_kana":"カラツシ","town":"栄町","town_kana":"サカエマチ","prefecture_code":41},"0843":{"zip_code":"8470843","prefecture":"佐賀県","prefecture_kana":"サガケン","city":"唐津市","city_kana":"カラツシ","town":"桜馬場","town_kana":"サクラノババ","prefecture_code":41},"0104":{"zip_code":"8470104","prefecture":"佐賀県","prefecture_kana":"サガケン","city":"唐津市","city_kana":"カラツシ","town":"桜町","town_kana":"サクラマチ","prefecture_code":41},"0111":{"zip_code":"8470111","prefecture":"佐賀県","prefecture_kana":"サガケン","city":"唐津市","city_kana":"カラツシ","town":"佐志","town_kana":"サシ","prefecture_code":41},"0113":{"zip_code":"8470113","prefecture":"佐賀県","prefecture_kana":"サガケン","city":"唐津市","city_kana":"カラツシ","town":"佐志中里","town_kana":"サシナカザト","prefecture_code":41},"0114":{"zip_code":"8470114","prefecture":"佐賀県","prefecture_kana":"サガケン","city":"唐津市","city_kana":"カラツシ","town":"佐志中通","town_kana":"サシナカドオリ","prefecture_code":41},"0115":{"zip_code":"8470115","prefecture":"佐賀県","prefecture_kana":"サガケン","city":"唐津市","city_kana":"カラツシ","town":"佐志浜町","town_kana":"サシハママチ","prefecture_code":41},"0112":{"zip_code":"8470112","prefecture":"佐賀県","prefecture_kana":"サガケン","city":"唐津市","city_kana":"カラツシ","town":"佐志南","town_kana":"サシミナミ","prefecture_code":41},"0883":{"zip_code":"8470883","prefecture":"佐賀県","prefecture_kana":"サガケン","city":"唐津市","city_kana":"カラツシ","town":"重河内","town_kana":"シゲカワチ","prefecture_code":41},"0067":{"zip_code":"8470067","prefecture":"佐賀県","prefecture_kana":"サガケン","city":"唐津市","city_kana":"カラツシ","town":"十人町","town_kana":"ジュウニンマチ","prefecture_code":41},"0021":{"zip_code":"8470021","prefecture":"佐賀県","prefecture_kana":"サガケン","city":"唐津市","city_kana":"カラツシ","town":"松南町","town_kana":"ショウナンチョウ","prefecture_code":41},"0043":{"zip_code":"8470043","prefecture":"佐賀県","prefecture_kana":"サガケン","city":"唐津市","city_kana":"カラツシ","town":"新興町東新興町","town_kana":"シンコウマチヒガシシンコウマチ","prefecture_code":41},"0816":{"zip_code":"8470816","prefecture":"佐賀県","prefecture_kana":"サガケン","city":"唐津市","city_kana":"カラツシ","town":"新興町西新興町","town_kana":"シンコウマチニシシンコウマチ","prefecture_code":41},"0813":{"zip_code":"8470813","prefecture":"佐賀県","prefecture_kana":"サガケン","city":"唐津市","city_kana":"カラツシ","town":"新町","town_kana":"シンマチ","prefecture_code":41},"0882":{"zip_code":"8470882","prefecture":"佐賀県","prefecture_kana":"サガケン","city":"唐津市","city_kana":"カラツシ","town":"菅牟田","town_kana":"スガムタ","prefecture_code":41},"0001":{"zip_code":"8470001","prefecture":"佐賀県","prefecture_kana":"サガケン","city":"唐津市","city_kana":"カラツシ","town":"双水","town_kana":"ソウズイ","prefecture_code":41},"0012":{"zip_code":"8470012","prefecture":"佐賀県","prefecture_kana":"サガケン","city":"唐津市","city_kana":"カラツシ","town":"大名小路","town_kana":"ダイミョウコウジ","prefecture_code":41},"0803":{"zip_code":"8470803","prefecture":"佐賀県","prefecture_kana":"サガケン","city":"唐津市","city_kana":"カラツシ","town":"大良","town_kana":"ダイラ","prefecture_code":41},"0046":{"zip_code":"8470046","prefecture":"佐賀県","prefecture_kana":"サガケン","city":"唐津市","city_kana":"カラツシ","town":"高砂町","town_kana":"タカサゴマチ","prefecture_code":41},"0027":{"zip_code":"8470027","prefecture":"佐賀県","prefecture_kana":"サガケン","city":"唐津市","city_kana":"カラツシ","town":"高島","town_kana":"タカシマ","prefecture_code":41},"0881":{"zip_code":"8470881","prefecture":"佐賀県","prefecture_kana":"サガケン","city":"唐津市","city_kana":"カラツシ","town":"竹木場","town_kana":"タケコバ","prefecture_code":41},"0831":{"zip_code":"8470831","prefecture":"佐賀県","prefecture_kana":"サガケン","city":"唐津市","city_kana":"カラツシ","town":"千々賀","town_kana":"チチカ","prefecture_code":41},"0821":{"zip_code":"8470821","prefecture":"佐賀県","prefecture_kana":"サガケン","city":"唐津市","city_kana":"カラツシ","town":"町田","town_kana":"チョウダ","prefecture_code":41},"0041":{"zip_code":"8470041","prefecture":"佐賀県","prefecture_kana":"サガケン","city":"唐津市","city_kana":"カラツシ","town":"千代田町","town_kana":"チヨダマチ","prefecture_code":41},"0312":{"zip_code":"8470312","prefecture":"佐賀県","prefecture_kana":"サガケン","city":"唐津市","city_kana":"カラツシ","town":"鎮西町赤木","town_kana":"チンゼイマチアカギ","prefecture_code":41},"0327":{"zip_code":"8470327","prefecture":"佐賀県","prefecture_kana":"サガケン","city":"唐津市","city_kana":"カラツシ","town":"鎮西町石室","town_kana":"チンゼイマチイシムロ","prefecture_code":41},"0323":{"zip_code":"8470323","prefecture":"佐賀県","prefecture_kana":"サガケン","city":"唐津市","city_kana":"カラツシ","town":"鎮西町岩野","town_kana":"チンゼイマチイワノ","prefecture_code":41},"0322":{"zip_code":"8470322","prefecture":"佐賀県","prefecture_kana":"サガケン","city":"唐津市","city_kana":"カラツシ","town":"鎮西町打上","town_kana":"チンゼイマチウチアゲ","prefecture_code":41},"0317":{"zip_code":"8470317","prefecture":"佐賀県","prefecture_kana":"サガケン","city":"唐津市","city_kana":"カラツシ","town":"鎮西町加唐島","town_kana":"チンゼイマチカカラシマ","prefecture_code":41},"0325":{"zip_code":"8470325","prefecture":"佐賀県","prefecture_kana":"サガケン","city":"唐津市","city_kana":"カラツシ","town":"鎮西町加倉","town_kana":"チンゼイマチカクラ","prefecture_code":41},"0403":{"zip_code":"8470403","prefecture":"佐賀県","prefecture_kana":"サガケン","city":"唐津市","city_kana":"カラツシ","town":"鎮西町串","town_kana":"チンゼイマチクシ","prefecture_code":41},"0324":{"zip_code":"8470324","prefecture":"佐賀県","prefecture_kana":"サガケン","city":"唐津市","city_kana":"カラツシ","town":"鎮西町高野","town_kana":"チンゼイマチコウノ","prefecture_code":41},"0313":{"zip_code":"8470313","prefecture":"佐賀県","prefecture_kana":"サガケン","city":"唐津市","city_kana":"カラツシ","town":"鎮西町塩鶴","town_kana":"チンゼイマチシオヅル","prefecture_code":41},"0314":{"zip_code":"8470314","prefecture":"佐賀県","prefecture_kana":"サガケン","city":"唐津市","city_kana":"カラツシ","town":"鎮西町菖蒲","town_kana":"チンゼイマチショウブ","prefecture_code":41},"0316":{"zip_code":"8470316","prefecture":"佐賀県","prefecture_kana":"サガケン","city":"唐津市","city_kana":"カラツシ","town":"鎮西町中野","town_kana":"チンゼイマチナカノ","prefecture_code":41},"0401":{"zip_code":"8470401","prefecture":"佐賀県","prefecture_kana":"サガケン","city":"唐津市","city_kana":"カラツシ","town":"鎮西町名護屋","town_kana":"チンゼイマチナゴヤ","prefecture_code":41},"0402":{"zip_code":"8470402","prefecture":"佐賀県","prefecture_kana":"サガケン","city":"唐津市","city_kana":"カラツシ","town":"鎮西町野元","town_kana":"チンゼイマチノモト","prefecture_code":41},"0404":{"zip_code":"8470404","prefecture":"佐賀県","prefecture_kana":"サガケン","city":"唐津市","city_kana":"カラツシ","town":"鎮西町波戸","town_kana":"チンゼイマチハド","prefecture_code":41},"0326":{"zip_code":"8470326","prefecture":"佐賀県","prefecture_kana":"サガケン","city":"唐津市","city_kana":"カラツシ","town":"鎮西町早田","town_kana":"チンゼイマチハヤタ","prefecture_code":41},"0405":{"zip_code":"8470405","prefecture":"佐賀県","prefecture_kana":"サガケン","city":"唐津市","city_kana":"カラツシ","town":"鎮西町馬渡島","town_kana":"チンゼイマチマダラシマ","prefecture_code":41},"0406":{"zip_code":"8470406","prefecture":"佐賀県","prefecture_kana":"サガケン","city":"唐津市","city_kana":"カラツシ","town":"鎮西町松島","town_kana":"チンゼイマチマツシマ","prefecture_code":41},"0311":{"zip_code":"8470311","prefecture":"佐賀県","prefecture_kana":"サガケン","city":"唐津市","city_kana":"カラツシ","town":"鎮西町丸田","town_kana":"チンゼイマチマルダ","prefecture_code":41},"0315":{"zip_code":"8470315","prefecture":"佐賀県","prefecture_kana":"サガケン","city":"唐津市","city_kana":"カラツシ","town":"鎮西町八床","town_kana":"チンゼイマチヤトコ","prefecture_code":41},"0321":{"zip_code":"8470321","prefecture":"佐賀県","prefecture_kana":"サガケン","city":"唐津市","city_kana":"カラツシ","town":"鎮西町横竹","town_kana":"チンゼイマチヨコタケ","prefecture_code":41},"0885":{"zip_code":"8470885","prefecture":"佐賀県","prefecture_kana":"サガケン","city":"唐津市","city_kana":"カラツシ","town":"唐川","town_kana":"トウノカワ","prefecture_code":41},"0122":{"zip_code":"8470122","prefecture":"佐賀県","prefecture_kana":"サガケン","city":"唐津市","city_kana":"カラツシ","town":"唐房","town_kana":"トウボウ","prefecture_code":41},"0134":{"zip_code":"8470134","prefecture":"佐賀県","prefecture_kana":"サガケン","city":"唐津市","city_kana":"カラツシ","town":"中里","town_kana":"ナカザト","prefecture_code":41},"0101":{"zip_code":"8470101","prefecture":"佐賀県","prefecture_kana":"サガケン","city":"唐津市","city_kana":"カラツシ","town":"中瀬通","town_kana":"ナカノセドオリ","prefecture_code":41},"0034":{"zip_code":"8470034","prefecture":"佐賀県","prefecture_kana":"サガケン","city":"唐津市","city_kana":"カラツシ","town":"中原","town_kana":"ナカバル","prefecture_code":41},"0051":{"zip_code":"8470051","prefecture":"佐賀県","prefecture_kana":"サガケン","city":"唐津市","city_kana":"カラツシ","town":"中町","town_kana":"ナカマチ","prefecture_code":41},"0862":{"zip_code":"8470862","prefecture":"佐賀県","prefecture_kana":"サガケン","city":"唐津市","city_kana":"カラツシ","town":"中山町","town_kana":"ナカヤママチ","prefecture_code":41},"0822":{"zip_code":"8470822","prefecture":"佐賀県","prefecture_kana":"サガケン","city":"唐津市","city_kana":"カラツシ","town":"長谷","town_kana":"ナガタニ","prefecture_code":41},"0802":{"zip_code":"8470802","prefecture":"佐賀県","prefecture_kana":"サガケン","city":"唐津市","city_kana":"カラツシ","town":"梨川内","town_kana":"ナシガワチ","prefecture_code":41},"1101":{"zip_code":"8471101","prefecture":"佐賀県","prefecture_kana":"サガケン","city":"唐津市","city_kana":"カラツシ","town":"七山荒川","town_kana":"ナナヤマアラカワ","prefecture_code":41},"1103":{"zip_code":"8471103","prefecture":"佐賀県","prefecture_kana":"サガケン","city":"唐津市","city_kana":"カラツシ","town":"七山池原","town_kana":"ナナヤマイケバル","prefecture_code":41},"1104":{"zip_code":"8471104","prefecture":"佐賀県","prefecture_kana":"サガケン","city":"唐津市","city_kana":"カラツシ","town":"七山木浦","town_kana":"ナナヤマキウラ","prefecture_code":41},"1108":{"zip_code":"8471108","prefecture":"佐賀県","prefecture_kana":"サガケン","city":"唐津市","city_kana":"カラツシ","town":"七山白木","town_kana":"ナナヤマシラキ","prefecture_code":41},"1106":{"zip_code":"8471106","prefecture":"佐賀県","prefecture_kana":"サガケン","city":"唐津市","city_kana":"カラツシ","town":"七山滝川","town_kana":"ナナヤマタキガワ","prefecture_code":41},"1105":{"zip_code":"8471105","prefecture":"佐賀県","prefecture_kana":"サガケン","city":"唐津市","city_kana":"カラツシ","town":"七山仁部","town_kana":"ナナヤマニブ","prefecture_code":41},"1107":{"zip_code":"8471107","prefecture":"佐賀県","prefecture_kana":"サガケン","city":"唐津市","city_kana":"カラツシ","town":"七山藤川","town_kana":"ナナヤマフジカワ","prefecture_code":41},"1102":{"zip_code":"8471102","prefecture":"佐賀県","prefecture_kana":"サガケン","city":"唐津市","city_kana":"カラツシ","town":"七山馬川","town_kana":"ナナヤママノカワ","prefecture_code":41},"0844":{"zip_code":"8470844","prefecture":"佐賀県","prefecture_kana":"サガケン","city":"唐津市","city_kana":"カラツシ","town":"菜畑","town_kana":"ナバタケ","prefecture_code":41},"0872":{"zip_code":"8470872","prefecture":"佐賀県","prefecture_kana":"サガケン","city":"唐津市","city_kana":"カラツシ","town":"西大島町","town_kana":"ニシオオシママチ","prefecture_code":41},"0875":{"zip_code":"8470875","prefecture":"佐賀県","prefecture_kana":"サガケン","city":"唐津市","city_kana":"カラツシ","town":"西唐津","town_kana":"ニシカラツ","prefecture_code":41},"0014":{"zip_code":"8470014","prefecture":"佐賀県","prefecture_kana":"サガケン","city":"唐津市","city_kana":"カラツシ","town":"西城内","town_kana":"ニシジョウナイ","prefecture_code":41},"0815":{"zip_code":"8470815","prefecture":"佐賀県","prefecture_kana":"サガケン","city":"唐津市","city_kana":"カラツシ","town":"西寺町","town_kana":"ニシデラマチ","prefecture_code":41},"0855":{"zip_code":"8470855","prefecture":"佐賀県","prefecture_kana":"サガケン","city":"唐津市","city_kana":"カラツシ","town":"西浜町","town_kana":"ニシノハママチ","prefecture_code":41},"0854":{"zip_code":"8470854","prefecture":"佐賀県","prefecture_kana":"サガケン","city":"唐津市","city_kana":"カラツシ","town":"西旗町","town_kana":"ニシハタマチ","prefecture_code":41},"0003":{"zip_code":"8470003","prefecture":"佐賀県","prefecture_kana":"サガケン","city":"唐津市","city_kana":"カラツシ","town":"橋本","town_kana":"ハシモト","prefecture_code":41},"0103":{"zip_code":"8470103","prefecture":"佐賀県","prefecture_kana":"サガケン","city":"唐津市","city_kana":"カラツシ","town":"橋本町","town_kana":"ハシモトマチ","prefecture_code":41},"0833":{"zip_code":"8470833","prefecture":"佐賀県","prefecture_kana":"サガケン","city":"唐津市","city_kana":"カラツシ","town":"畑島","town_kana":"ハタシマ","prefecture_code":41},"0023":{"zip_code":"8470023","prefecture":"佐賀県","prefecture_kana":"サガケン","city":"唐津市","city_kana":"カラツシ","town":"半田","town_kana":"ハダ","prefecture_code":41},"0121":{"zip_code":"8470121","prefecture":"佐賀県","prefecture_kana":"サガケン","city":"唐津市","city_kana":"カラツシ","town":"鳩川","town_kana":"ハトガワ","prefecture_code":41},"0031":{"zip_code":"8470031","prefecture":"佐賀県","prefecture_kana":"サガケン","city":"唐津市","city_kana":"カラツシ","town":"原","town_kana":"ハル","prefecture_code":41},"0024":{"zip_code":"8470024","prefecture":"佐賀県","prefecture_kana":"サガケン","city":"唐津市","city_kana":"カラツシ","town":"東宇木","town_kana":"ヒガシウキ","prefecture_code":41},"0871":{"zip_code":"8470871","prefecture":"佐賀県","prefecture_kana":"サガケン","city":"唐津市","city_kana":"カラツシ","town":"東大島町","town_kana":"ヒガシオオシママチ","prefecture_code":41},"0017":{"zip_code":"8470017","prefecture":"佐賀県","prefecture_kana":"サガケン","city":"唐津市","city_kana":"カラツシ","town":"東唐津","town_kana":"ヒガシカラツ","prefecture_code":41},"0016":{"zip_code":"8470016","prefecture":"佐賀県","prefecture_kana":"サガケン","city":"唐津市","city_kana":"カラツシ","town":"東城内","town_kana":"ヒガシジョウナイ","prefecture_code":41},"0063":{"zip_code":"8470063","prefecture":"佐賀県","prefecture_kana":"サガケン","city":"唐津市","city_kana":"カラツシ","town":"東町","town_kana":"ヒガシマチ","prefecture_code":41},"0801":{"zip_code":"8470801","prefecture":"佐賀県","prefecture_kana":"サガケン","city":"唐津市","city_kana":"カラツシ","town":"東山","town_kana":"ヒガシヤマ","prefecture_code":41},"1502":{"zip_code":"8471502","prefecture":"佐賀県","prefecture_kana":"サガケン","city":"唐津市","city_kana":"カラツシ","town":"肥前町赤坂","town_kana":"ヒゼンマチアカサカ","prefecture_code":41},"1517":{"zip_code":"8471517","prefecture":"佐賀県","prefecture_kana":"サガケン","city":"唐津市","city_kana":"カラツシ","town":"肥前町上ケ倉","town_kana":"ヒゼンマチアゲクラ","prefecture_code":41},"1522":{"zip_code":"8471522","prefecture":"佐賀県","prefecture_kana":"サガケン","city":"唐津市","city_kana":"カラツシ","town":"肥前町犬頭","town_kana":"ヒゼンマチイヌガシラ","prefecture_code":41},"1526":{"zip_code":"8471526","prefecture":"佐賀県","prefecture_kana":"サガケン","city":"唐津市","city_kana":"カラツシ","town":"肥前町入野","town_kana":"ヒゼンマチイリノ","prefecture_code":41},"1512":{"zip_code":"8471512","prefecture":"佐賀県","prefecture_kana":"サガケン","city":"唐津市","city_kana":"カラツシ","town":"肥前町梅崎","town_kana":"ヒゼンマチウメザキ","prefecture_code":41},"1516":{"zip_code":"8471516","prefecture":"佐賀県","prefecture_kana":"サガケン","city":"唐津市","city_kana":"カラツシ","town":"肥前町瓜ケ坂","town_kana":"ヒゼンマチウリガサカ","prefecture_code":41},"1506":{"zip_code":"8471506","prefecture":"佐賀県","prefecture_kana":"サガケン","city":"唐津市","city_kana":"カラツシ","town":"肥前町大浦","town_kana":"ヒゼンマチオオウラ","prefecture_code":41},"1501":{"zip_code":"8471501","prefecture":"佐賀県","prefecture_kana":"サガケン","city":"唐津市","city_kana":"カラツシ","town":"肥前町切木","town_kana":"ヒゼンマチキリゴ","prefecture_code":41},"1505":{"zip_code":"8471505","prefecture":"佐賀県","prefecture_kana":"サガケン","city":"唐津市","city_kana":"カラツシ","town":"肥前町杉野浦","town_kana":"ヒゼンマチスギノウラ","prefecture_code":41},"1521":{"zip_code":"8471521","prefecture":"佐賀県","prefecture_kana":"サガケン","city":"唐津市","city_kana":"カラツシ","town":"肥前町田野","town_kana":"ヒゼンマチタノ","prefecture_code":41},"1527":{"zip_code":"8471527","prefecture":"佐賀県","prefecture_kana":"サガケン","city":"唐津市","city_kana":"カラツシ","town":"肥前町鶴牧","town_kana":"ヒゼンマチツルマキ","prefecture_code":41},"1513":{"zip_code":"8471513","prefecture":"佐賀県","prefecture_kana":"サガケン","city":"唐津市","city_kana":"カラツシ","town":"肥前町寺浦","town_kana":"ヒゼンマチテラウラ","prefecture_code":41},"1504":{"zip_code":"8471504","prefecture":"佐賀県","prefecture_kana":"サガケン","city":"唐津市","city_kana":"カラツシ","town":"肥前町中浦","town_kana":"ヒゼンマチナカウラ","prefecture_code":41},"1511":{"zip_code":"8471511","prefecture":"佐賀県","prefecture_kana":"サガケン","city":"唐津市","city_kana":"カラツシ","town":"肥前町新木場","town_kana":"ヒゼンマチニイコバ","prefecture_code":41},"1514":{"zip_code":"8471514","prefecture":"佐賀県","prefecture_kana":"サガケン","city":"唐津市","city_kana":"カラツシ","town":"肥前町仁田野尾","town_kana":"ヒゼンマチニタノオ","prefecture_code":41},"1525":{"zip_code":"8471525","prefecture":"佐賀県","prefecture_kana":"サガケン","city":"唐津市","city_kana":"カラツシ","town":"肥前町納所","town_kana":"ヒゼンマチノウサ","prefecture_code":41},"1523":{"zip_code":"8471523","prefecture":"佐賀県","prefecture_kana":"サガケン","city":"唐津市","city_kana":"カラツシ","town":"肥前町星賀","town_kana":"ヒゼンマチホシカ","prefecture_code":41},"1515":{"zip_code":"8471515","prefecture":"佐賀県","prefecture_kana":"サガケン","city":"唐津市","city_kana":"カラツシ","town":"肥前町万賀里川","town_kana":"ヒゼンマチマガリカワ","prefecture_code":41},"1507":{"zip_code":"8471507","prefecture":"佐賀県","prefecture_kana":"サガケン","city":"唐津市","city_kana":"カラツシ","town":"肥前町満越","town_kana":"ヒゼンマチミツコシ","prefecture_code":41},"1524":{"zip_code":"8471524","prefecture":"佐賀県","prefecture_kana":"サガケン","city":"唐津市","city_kana":"カラツシ","town":"肥前町向島","town_kana":"ヒゼンマチムクシマ","prefecture_code":41},"1503":{"zip_code":"8471503","prefecture":"佐賀県","prefecture_kana":"サガケン","city":"唐津市","city_kana":"カラツシ","town":"肥前町湯野浦","town_kana":"ヒゼンマチユノウラ","prefecture_code":41},"0812":{"zip_code":"8470812","prefecture":"佐賀県","prefecture_kana":"サガケン","city":"唐津市","city_kana":"カラツシ","town":"平野町","town_kana":"ヒラノマチ","prefecture_code":41},"0874":{"zip_code":"8470874","prefecture":"佐賀県","prefecture_kana":"サガケン","city":"唐津市","city_kana":"カラツシ","town":"藤崎通","town_kana":"フジサキドオリ","prefecture_code":41},"0851":{"zip_code":"8470851","prefecture":"佐賀県","prefecture_kana":"サガケン","city":"唐津市","city_kana":"カラツシ","town":"富士見町","town_kana":"フジミマチ","prefecture_code":41},"0861":{"zip_code":"8470861","prefecture":"佐賀県","prefecture_kana":"サガケン","city":"唐津市","city_kana":"カラツシ","town":"二タ子","town_kana":"フタゴ","prefecture_code":41},"0062":{"zip_code":"8470062","prefecture":"佐賀県","prefecture_kana":"サガケン","city":"唐津市","city_kana":"カラツシ","town":"船宮町","town_kana":"フナミヤマチ","prefecture_code":41},"0056":{"zip_code":"8470056","prefecture":"佐賀県","prefecture_kana":"サガケン","city":"唐津市","city_kana":"カラツシ","town":"坊主町","town_kana":"ボウズマチ","prefecture_code":41},"0047":{"zip_code":"8470047","prefecture":"佐賀県","prefecture_kana":"サガケン","city":"唐津市","city_kana":"カラツシ","town":"本町","town_kana":"ホンマチ","prefecture_code":41},"0133":{"zip_code":"8470133","prefecture":"佐賀県","prefecture_kana":"サガケン","city":"唐津市","city_kana":"カラツシ","town":"湊町","town_kana":"ミナトマチ","prefecture_code":41},"0013":{"zip_code":"8470013","prefecture":"佐賀県","prefecture_kana":"サガケン","city":"唐津市","city_kana":"カラツシ","town":"南城内","town_kana":"ミナミジョウナイ","prefecture_code":41},"0876":{"zip_code":"8470876","prefecture":"佐賀県","prefecture_kana":"サガケン","city":"唐津市","city_kana":"カラツシ","town":"南富士見町","town_kana":"ミナミフジミチョウ","prefecture_code":41},"0863":{"zip_code":"8470863","prefecture":"佐賀県","prefecture_kana":"サガケン","city":"唐津市","city_kana":"カラツシ","town":"妙見町","town_kana":"ミョウケンマチ","prefecture_code":41},"0825":{"zip_code":"8470825","prefecture":"佐賀県","prefecture_kana":"サガケン","city":"唐津市","city_kana":"カラツシ","town":"見借","town_kana":"ミルカシ","prefecture_code":41},"0064":{"zip_code":"8470064","prefecture":"佐賀県","prefecture_kana":"サガケン","city":"唐津市","city_kana":"カラツシ","town":"元石町","town_kana":"モトイシマチ","prefecture_code":41},"0852":{"zip_code":"8470852","prefecture":"佐賀県","prefecture_kana":"サガケン","city":"唐津市","city_kana":"カラツシ","town":"元旗町","town_kana":"モトハタマチ","prefecture_code":41},"0811":{"zip_code":"8470811","prefecture":"佐賀県","prefecture_kana":"サガケン","city":"唐津市","city_kana":"カラツシ","town":"八百屋町","town_kana":"ヤオヤマチ","prefecture_code":41},"0135":{"zip_code":"8470135","prefecture":"佐賀県","prefecture_kana":"サガケン","city":"唐津市","city_kana":"カラツシ","town":"屋形石","town_kana":"ヤカタイシ","prefecture_code":41},"0102":{"zip_code":"8470102","prefecture":"佐賀県","prefecture_kana":"サガケン","city":"唐津市","city_kana":"カラツシ","town":"八幡町","town_kana":"ヤハタマチ","prefecture_code":41},"0004":{"zip_code":"8470004","prefecture":"佐賀県","prefecture_kana":"サガケン","city":"唐津市","city_kana":"カラツシ","town":"養母田","town_kana":"ヤブタ","prefecture_code":41},"0005":{"zip_code":"8470005","prefecture":"佐賀県","prefecture_kana":"サガケン","city":"唐津市","city_kana":"カラツシ","town":"養母田鬼塚","town_kana":"ヤブタオニヅカ","prefecture_code":41},"0842":{"zip_code":"8470842","prefecture":"佐賀県","prefecture_kana":"サガケン","city":"唐津市","city_kana":"カラツシ","town":"山下町","town_kana":"ヤマシタマチ","prefecture_code":41},"0834":{"zip_code":"8470834","prefecture":"佐賀県","prefecture_kana":"サガケン","city":"唐津市","city_kana":"カラツシ","town":"山田","town_kana":"ヤマダ","prefecture_code":41},"0002":{"zip_code":"8470002","prefecture":"佐賀県","prefecture_kana":"サガケン","city":"唐津市","city_kana":"カラツシ","town":"山本","town_kana":"ヤマモト","prefecture_code":41},"0032":{"zip_code":"8470032","prefecture":"佐賀県","prefecture_kana":"サガケン","city":"唐津市","city_kana":"カラツシ","town":"夕日","town_kana":"ユウヒ","prefecture_code":41},"0814":{"zip_code":"8470814","prefecture":"佐賀県","prefecture_kana":"サガケン","city":"唐津市","city_kana":"カラツシ","town":"弓鷹町","town_kana":"ユミタカマチ","prefecture_code":41},"0136":{"zip_code":"8470136","prefecture":"佐賀県","prefecture_kana":"サガケン","city":"唐津市","city_kana":"カラツシ","town":"横野","town_kana":"ヨコノ","prefecture_code":41},"0301":{"zip_code":"8470301","prefecture":"佐賀県","prefecture_kana":"サガケン","city":"唐津市","city_kana":"カラツシ","town":"呼子町大友","town_kana":"ヨブコチョウオオドモ","prefecture_code":41},"0306":{"zip_code":"8470306","prefecture":"佐賀県","prefecture_kana":"サガケン","city":"唐津市","city_kana":"カラツシ","town":"呼子町小川島","town_kana":"ヨブコチョウオガワシマ","prefecture_code":41},"0305":{"zip_code":"8470305","prefecture":"佐賀県","prefecture_kana":"サガケン","city":"唐津市","city_kana":"カラツシ","town":"呼子町加部島","town_kana":"ヨブコチョウカベシマ","prefecture_code":41},"0302":{"zip_code":"8470302","prefecture":"佐賀県","prefecture_kana":"サガケン","city":"唐津市","city_kana":"カラツシ","town":"呼子町小友","town_kana":"ヨブコチョウコドモ","prefecture_code":41},"0304":{"zip_code":"8470304","prefecture":"佐賀県","prefecture_kana":"サガケン","city":"唐津市","city_kana":"カラツシ","town":"呼子町殿ノ浦","town_kana":"ヨブコチョウトノノウラ","prefecture_code":41},"0303":{"zip_code":"8470303","prefecture":"佐賀県","prefecture_kana":"サガケン","city":"唐津市","city_kana":"カラツシ","town":"呼子町呼子","town_kana":"ヨブコチョウヨブコ","prefecture_code":41},"0071":{"zip_code":"8470071","prefecture":"佐賀県","prefecture_kana":"サガケン","city":"唐津市","city_kana":"カラツシ","town":"和多田海士町","town_kana":"ワタダアママチ","prefecture_code":41},"0083":{"zip_code":"8470083","prefecture":"佐賀県","prefecture_kana":"サガケン","city":"唐津市","city_kana":"カラツシ","town":"和多田大土井","town_kana":"ワタダオオドイ","prefecture_code":41},"0074":{"zip_code":"8470074","prefecture":"佐賀県","prefecture_kana":"サガケン","city":"唐津市","city_kana":"カラツシ","town":"和多田先石","town_kana":"ワタダサキイシ","prefecture_code":41},"0082":{"zip_code":"8470082","prefecture":"佐賀県","prefecture_kana":"サガケン","city":"唐津市","city_kana":"カラツシ","town":"和多田天満町","town_kana":"ワタダテンマンチョウ","prefecture_code":41},"0084":{"zip_code":"8470084","prefecture":"佐賀県","prefecture_kana":"サガケン","city":"唐津市","city_kana":"カラツシ","town":"和多田西山","town_kana":"ワタダニシヤマ","prefecture_code":41},"0073":{"zip_code":"8470073","prefecture":"佐賀県","prefecture_kana":"サガケン","city":"唐津市","city_kana":"カラツシ","town":"和多田東百人町","town_kana":"ワタダヒガシヒャクニンマチ","prefecture_code":41},"0072":{"zip_code":"8470072","prefecture":"佐賀県","prefecture_kana":"サガケン","city":"唐津市","city_kana":"カラツシ","town":"和多田百人町","town_kana":"ワタダヒャクニンマチ","prefecture_code":41},"0085":{"zip_code":"8470085","prefecture":"佐賀県","prefecture_kana":"サガケン","city":"唐津市","city_kana":"カラツシ","town":"和多田本村","town_kana":"ワタダホンムラ","prefecture_code":41},"0081":{"zip_code":"8470081","prefecture":"佐賀県","prefecture_kana":"サガケン","city":"唐津市","city_kana":"カラツシ","town":"和多田南先石","town_kana":"ワタダミナミサキイシ","prefecture_code":41},"0075":{"zip_code":"8470075","prefecture":"佐賀県","prefecture_kana":"サガケン","city":"唐津市","city_kana":"カラツシ","town":"和多田用尺","town_kana":"ワタダヨウジャク","prefecture_code":41},"1400":{"zip_code":"8471400","prefecture":"佐賀県","prefecture_kana":"サガケン","city":"東松浦郡玄海町","city_kana":"ヒガシマツウラグンゲンカイチョウ","town":"","town_kana":"","prefecture_code":41},"1403":{"zip_code":"8471403","prefecture":"佐賀県","prefecture_kana":"サガケン","city":"東松浦郡玄海町","city_kana":"ヒガシマツウラグンゲンカイチョウ","town":"有浦上","town_kana":"アリウラカミ","prefecture_code":41},"1402":{"zip_code":"8471402","prefecture":"佐賀県","prefecture_kana":"サガケン","city":"東松浦郡玄海町","city_kana":"ヒガシマツウラグンゲンカイチョウ","town":"有浦下","town_kana":"アリウラシモ","prefecture_code":41},"1423":{"zip_code":"8471423","prefecture":"佐賀県","prefecture_kana":"サガケン","city":"東松浦郡玄海町","city_kana":"ヒガシマツウラグンゲンカイチョウ","town":"石田","town_kana":"イシダ","prefecture_code":41},"1441":{"zip_code":"8471441","prefecture":"佐賀県","prefecture_kana":"サガケン","city":"東松浦郡玄海町","city_kana":"ヒガシマツウラグンゲンカイチョウ","town":"今村","town_kana":"イマムラ","prefecture_code":41},"1434":{"zip_code":"8471434","prefecture":"佐賀県","prefecture_kana":"サガケン","city":"東松浦郡玄海町","city_kana":"ヒガシマツウラグンゲンカイチョウ","town":"大薗","town_kana":"オオゾノ","prefecture_code":41},"1413":{"zip_code":"8471413","prefecture":"佐賀県","prefecture_kana":"サガケン","city":"東松浦郡玄海町","city_kana":"ヒガシマツウラグンゲンカイチョウ","town":"大鳥","town_kana":"オオトリ","prefecture_code":41},"1443":{"zip_code":"8471443","prefecture":"佐賀県","prefecture_kana":"サガケン","city":"東松浦郡玄海町","city_kana":"ヒガシマツウラグンゲンカイチョウ","town":"仮立","town_kana":"カリダチ","prefecture_code":41},"1435":{"zip_code":"8471435","prefecture":"佐賀県","prefecture_kana":"サガケン","city":"東松浦郡玄海町","city_kana":"ヒガシマツウラグンゲンカイチョウ","town":"仮屋","town_kana":"カリヤ","prefecture_code":41},"1401":{"zip_code":"8471401","prefecture":"佐賀県","prefecture_kana":"サガケン","city":"東松浦郡玄海町","city_kana":"ヒガシマツウラグンゲンカイチョウ","town":"小加倉","town_kana":"コガクラ","prefecture_code":41},"1424":{"zip_code":"8471424","prefecture":"佐賀県","prefecture_kana":"サガケン","city":"東松浦郡玄海町","city_kana":"ヒガシマツウラグンゲンカイチョウ","town":"栄","town_kana":"サカエ","prefecture_code":41},"1445":{"zip_code":"8471445","prefecture":"佐賀県","prefecture_kana":"サガケン","city":"東松浦郡玄海町","city_kana":"ヒガシマツウラグンゲンカイチョウ","town":"下宮","town_kana":"シモミヤ","prefecture_code":41},"1422":{"zip_code":"8471422","prefecture":"佐賀県","prefecture_kana":"サガケン","city":"東松浦郡玄海町","city_kana":"ヒガシマツウラグンゲンカイチョウ","town":"新田","town_kana":"シンデン","prefecture_code":41},"1415":{"zip_code":"8471415","prefecture":"佐賀県","prefecture_kana":"サガケン","city":"東松浦郡玄海町","city_kana":"ヒガシマツウラグンゲンカイチョウ","town":"座川内","town_kana":"ソソロガワチ","prefecture_code":41},"1412":{"zip_code":"8471412","prefecture":"佐賀県","prefecture_kana":"サガケン","city":"東松浦郡玄海町","city_kana":"ヒガシマツウラグンゲンカイチョウ","town":"田代","town_kana":"タシロ","prefecture_code":41},"1442":{"zip_code":"8471442","prefecture":"佐賀県","prefecture_kana":"サガケン","city":"東松浦郡玄海町","city_kana":"ヒガシマツウラグンゲンカイチョウ","town":"値賀川内","town_kana":"チカガワチ","prefecture_code":41},"1411":{"zip_code":"8471411","prefecture":"佐賀県","prefecture_kana":"サガケン","city":"東松浦郡玄海町","city_kana":"ヒガシマツウラグンゲンカイチョウ","town":"轟木","town_kana":"トドロキ","prefecture_code":41},"1444":{"zip_code":"8471444","prefecture":"佐賀県","prefecture_kana":"サガケン","city":"東松浦郡玄海町","city_kana":"ヒガシマツウラグンゲンカイチョウ","town":"中通","town_kana":"ナカドオリ","prefecture_code":41},"1404":{"zip_code":"8471404","prefecture":"佐賀県","prefecture_kana":"サガケン","city":"東松浦郡玄海町","city_kana":"ヒガシマツウラグンゲンカイチョウ","town":"長倉","town_kana":"ナガクラ","prefecture_code":41},"1425":{"zip_code":"8471425","prefecture":"佐賀県","prefecture_kana":"サガケン","city":"東松浦郡玄海町","city_kana":"ヒガシマツウラグンゲンカイチョウ","town":"花の木","town_kana":"ハナノキ","prefecture_code":41},"1433":{"zip_code":"8471433","prefecture":"佐賀県","prefecture_kana":"サガケン","city":"東松浦郡玄海町","city_kana":"ヒガシマツウラグンゲンカイチョウ","town":"浜野浦","town_kana":"ハマノウラ","prefecture_code":41},"1432":{"zip_code":"8471432","prefecture":"佐賀県","prefecture_kana":"サガケン","city":"東松浦郡玄海町","city_kana":"ヒガシマツウラグンゲンカイチョウ","town":"平尾","town_kana":"ヒラオ","prefecture_code":41},"1431":{"zip_code":"8471431","prefecture":"佐賀県","prefecture_kana":"サガケン","city":"東松浦郡玄海町","city_kana":"ヒガシマツウラグンゲンカイチョウ","town":"普恩寺","town_kana":"フオンジ","prefecture_code":41},"1405":{"zip_code":"8471405","prefecture":"佐賀県","prefecture_kana":"サガケン","city":"東松浦郡玄海町","city_kana":"ヒガシマツウラグンゲンカイチョウ","town":"藤平","town_kana":"フジヒラ","prefecture_code":41},"1446":{"zip_code":"8471446","prefecture":"佐賀県","prefecture_kana":"サガケン","city":"東松浦郡玄海町","city_kana":"ヒガシマツウラグンゲンカイチョウ","town":"外津","town_kana":"ホカワヅ","prefecture_code":41},"1416":{"zip_code":"8471416","prefecture":"佐賀県","prefecture_kana":"サガケン","city":"東松浦郡玄海町","city_kana":"ヒガシマツウラグンゲンカイチョウ","town":"牟形","town_kana":"ムカタ","prefecture_code":41},"1421":{"zip_code":"8471421","prefecture":"佐賀県","prefecture_kana":"サガケン","city":"東松浦郡玄海町","city_kana":"ヒガシマツウラグンゲンカイチョウ","town":"諸浦","town_kana":"モロウラ","prefecture_code":41},"1414":{"zip_code":"8471414","prefecture":"佐賀県","prefecture_kana":"サガケン","city":"東松浦郡玄海町","city_kana":"ヒガシマツウラグンゲンカイチョウ","town":"湯野尾","town_kana":"ユノオ","prefecture_code":41}}