{"0000":{"zip_code":"8490000","prefecture":"佐賀県","prefecture_kana":"サガケン","city":"佐賀市","city_kana":"サガシ","town":"","town_kana":"","prefecture_code":41},"0933":{"zip_code":"8490933","prefecture":"佐賀県","prefecture_kana":"サガケン","city":"佐賀市","city_kana":"サガシ","town":"卸本町","town_kana":"オロシホンマチ","prefecture_code":41},"0934":{"zip_code":"8490934","prefecture":"佐賀県","prefecture_kana":"サガケン","city":"佐賀市","city_kana":"サガシ","town":"開成","town_kana":"カイセイ","prefecture_code":41},"0906":{"zip_code":"8490906","prefecture":"佐賀県","prefecture_kana":"サガケン","city":"佐賀市","city_kana":"サガシ","town":"金立町金立","town_kana":"キンリュウマチキンリュウ","prefecture_code":41},"0905":{"zip_code":"8490905","prefecture":"佐賀県","prefecture_kana":"サガケン","city":"佐賀市","city_kana":"サガシ","town":"金立町千布","town_kana":"キンリュウマチチフ","prefecture_code":41},"0904":{"zip_code":"8490904","prefecture":"佐賀県","prefecture_kana":"サガケン","city":"佐賀市","city_kana":"サガシ","town":"金立町薬師丸","town_kana":"キンリュウマチヤクシマル","prefecture_code":41},"0902":{"zip_code":"8490902","prefecture":"佐賀県","prefecture_kana":"サガケン","city":"佐賀市","city_kana":"サガシ","town":"久保泉町上和泉","town_kana":"クボイズミマチカミイズミ","prefecture_code":41},"0901":{"zip_code":"8490901","prefecture":"佐賀県","prefecture_kana":"サガケン","city":"佐賀市","city_kana":"サガシ","town":"久保泉町川久保","town_kana":"クボイズミマチカワクボ","prefecture_code":41},"0903":{"zip_code":"8490903","prefecture":"佐賀県","prefecture_kana":"サガケン","city":"佐賀市","city_kana":"サガシ","town":"久保泉町下和泉","town_kana":"クボイズミマチシモイズミ","prefecture_code":41},"0205":{"zip_code":"8490205","prefecture":"佐賀県","prefecture_kana":"サガケン","city":"佐賀市","city_kana":"サガシ","town":"久保田町江戸","town_kana":"クボタチョウエド","prefecture_code":41},"0204":{"zip_code":"8490204","prefecture":"佐賀県","prefecture_kana":"サガケン","city":"佐賀市","city_kana":"サガシ","town":"久保田町久保田","town_kana":"クボタチョウクボタ","prefecture_code":41},"0203":{"zip_code":"8490203","prefecture":"佐賀県","prefecture_kana":"サガケン","city":"佐賀市","city_kana":"サガシ","town":"久保田町新田","town_kana":"クボタチョウシンデン","prefecture_code":41},"0201":{"zip_code":"8490201","prefecture":"佐賀県","prefecture_kana":"サガケン","city":"佐賀市","city_kana":"サガシ","town":"久保田町徳万","town_kana":"クボタチョウトクマン","prefecture_code":41},"0202":{"zip_code":"8490202","prefecture":"佐賀県","prefecture_kana":"サガケン","city":"佐賀市","city_kana":"サガシ","town":"久保田町久富","town_kana":"クボタチョウヒサドミ","prefecture_code":41},"0924":{"zip_code":"8490924","prefecture":"佐賀県","prefecture_kana":"サガケン","city":"佐賀市","city_kana":"サガシ","town":"新中町","town_kana":"シンナカマチ","prefecture_code":41},"0927":{"zip_code":"8490927","prefecture":"佐賀県","prefecture_kana":"サガケン","city":"佐賀市","city_kana":"サガシ","town":"高木瀬団地","town_kana":"タカキセダンチ","prefecture_code":41},"0922":{"zip_code":"8490922","prefecture":"佐賀県","prefecture_kana":"サガケン","city":"佐賀市","city_kana":"サガシ","town":"高木瀬東","town_kana":"タカキセヒガシ","prefecture_code":41},"0921":{"zip_code":"8490921","prefecture":"佐賀県","prefecture_kana":"サガケン","city":"佐賀市","city_kana":"サガシ","town":"高木瀬西","town_kana":"タカキセニシ","prefecture_code":41},"0917":{"zip_code":"8490917","prefecture":"佐賀県","prefecture_kana":"サガケン","city":"佐賀市","city_kana":"サガシ","town":"高木瀬町長瀬","town_kana":"タカキセマチナガセ","prefecture_code":41},"0916":{"zip_code":"8490916","prefecture":"佐賀県","prefecture_kana":"サガケン","city":"佐賀市","city_kana":"サガシ","town":"高木瀬町東高木","town_kana":"タカキセマチヒガシタカギ","prefecture_code":41},"0937":{"zip_code":"8490937","prefecture":"佐賀県","prefecture_kana":"サガケン","city":"佐賀市","city_kana":"サガシ","town":"鍋島","town_kana":"ナベシマ","prefecture_code":41},"0931":{"zip_code":"8490931","prefecture":"佐賀県","prefecture_kana":"サガケン","city":"佐賀市","city_kana":"サガシ","town":"鍋島町蛎久","town_kana":"ナベシママチカキヒサ","prefecture_code":41},"0938":{"zip_code":"8490938","prefecture":"佐賀県","prefecture_kana":"サガケン","city":"佐賀市","city_kana":"サガシ","town":"鍋島町鍋島","town_kana":"ナベシママチナベシマ","prefecture_code":41},"0936":{"zip_code":"8490936","prefecture":"佐賀県","prefecture_kana":"サガケン","city":"佐賀市","city_kana":"サガシ","town":"鍋島町森田","town_kana":"ナベシママチモリタ","prefecture_code":41},"0932":{"zip_code":"8490932","prefecture":"佐賀県","prefecture_kana":"サガケン","city":"佐賀市","city_kana":"サガシ","town":"鍋島町八戸溝","town_kana":"ナベシママチヤエミゾ","prefecture_code":41},"0925":{"zip_code":"8490925","prefecture":"佐賀県","prefecture_kana":"サガケン","city":"佐賀市","city_kana":"サガシ","town":"八丁畷町","town_kana":"ハッチョウナワテマチ","prefecture_code":41},"0923":{"zip_code":"8490923","prefecture":"佐賀県","prefecture_kana":"サガケン","city":"佐賀市","city_kana":"サガシ","town":"日の出","town_kana":"ヒノデ","prefecture_code":41},"0912":{"zip_code":"8490912","prefecture":"佐賀県","prefecture_kana":"サガケン","city":"佐賀市","city_kana":"サガシ","town":"兵庫町瓦町","town_kana":"ヒョウゴマチカワラマチ","prefecture_code":41},"0915":{"zip_code":"8490915","prefecture":"佐賀県","prefecture_kana":"サガケン","city":"佐賀市","city_kana":"サガシ","town":"兵庫町藤木","town_kana":"ヒョウゴマチフジノキ","prefecture_code":41},"0914":{"zip_code":"8490914","prefecture":"佐賀県","prefecture_kana":"サガケン","city":"佐賀市","city_kana":"サガシ","town":"兵庫町西渕","town_kana":"ヒョウゴマチニシブチ","prefecture_code":41},"0913":{"zip_code":"8490913","prefecture":"佐賀県","prefecture_kana":"サガケン","city":"佐賀市","city_kana":"サガシ","town":"兵庫町渕","town_kana":"ヒョウゴマチフチ","prefecture_code":41},"0911":{"zip_code":"8490911","prefecture":"佐賀県","prefecture_kana":"サガケン","city":"佐賀市","city_kana":"サガシ","town":"兵庫町若宮","town_kana":"ヒョウゴマチワカミヤ","prefecture_code":41},"0919":{"zip_code":"8490919","prefecture":"佐賀県","prefecture_kana":"サガケン","city":"佐賀市","city_kana":"サガシ","town":"兵庫北","town_kana":"ヒョウゴキタ","prefecture_code":41},"0918":{"zip_code":"8490918","prefecture":"佐賀県","prefecture_kana":"サガケン","city":"佐賀市","city_kana":"サガシ","town":"兵庫南","town_kana":"ヒョウゴミナミ","prefecture_code":41},"0935":{"zip_code":"8490935","prefecture":"佐賀県","prefecture_kana":"サガケン","city":"佐賀市","city_kana":"サガシ","town":"八戸溝","town_kana":"ヤエミゾ","prefecture_code":41},"0928":{"zip_code":"8490928","prefecture":"佐賀県","prefecture_kana":"サガケン","city":"佐賀市","city_kana":"サガシ","town":"若楠","town_kana":"ワカクス","prefecture_code":41},"0926":{"zip_code":"8490926","prefecture":"佐賀県","prefecture_kana":"サガケン","city":"佐賀市","city_kana":"サガシ","town":"若宮","town_kana":"ワカミヤ","prefecture_code":41},"3223":{"zip_code":"8493223","prefecture":"佐賀県","prefecture_kana":"サガケン","city":"唐津市","city_kana":"カラツシ","town":"相知町伊岐佐","town_kana":"オウチチョウイキサ","prefecture_code":41},"3201":{"zip_code":"8493201","prefecture":"佐賀県","prefecture_kana":"サガケン","city":"唐津市","city_kana":"カラツシ","town":"相知町相知","town_kana":"オウチチョウオウチ","prefecture_code":41},"3221":{"zip_code":"8493221","prefecture":"佐賀県","prefecture_kana":"サガケン","city":"唐津市","city_kana":"カラツシ","town":"相知町大野","town_kana":"オウチチョウオオノ","prefecture_code":41},"3215":{"zip_code":"8493215","prefecture":"佐賀県","prefecture_kana":"サガケン","city":"唐津市","city_kana":"カラツシ","town":"相知町楠","town_kana":"オウチチョウクス","prefecture_code":41},"3232":{"zip_code":"8493232","prefecture":"佐賀県","prefecture_kana":"サガケン","city":"唐津市","city_kana":"カラツシ","town":"相知町久保","town_kana":"オウチチョウクボ","prefecture_code":41},"3222":{"zip_code":"8493222","prefecture":"佐賀県","prefecture_kana":"サガケン","city":"唐津市","city_kana":"カラツシ","town":"相知町黒岩","town_kana":"オウチチョウクロイワ","prefecture_code":41},"3233":{"zip_code":"8493233","prefecture":"佐賀県","prefecture_kana":"サガケン","city":"唐津市","city_kana":"カラツシ","town":"相知町佐里","town_kana":"オウチチョウサリ","prefecture_code":41},"3211":{"zip_code":"8493211","prefecture":"佐賀県","prefecture_kana":"サガケン","city":"唐津市","city_kana":"カラツシ","town":"相知町千束","town_kana":"オウチチョウセンゾク","prefecture_code":41},"3214":{"zip_code":"8493214","prefecture":"佐賀県","prefecture_kana":"サガケン","city":"唐津市","city_kana":"カラツシ","town":"相知町田頭","town_kana":"オウチチョウタガシラ","prefecture_code":41},"3219":{"zip_code":"8493219","prefecture":"佐賀県","prefecture_kana":"サガケン","city":"唐津市","city_kana":"カラツシ","town":"相知町鷹取","town_kana":"オウチチョウタカトリ","prefecture_code":41},"3216":{"zip_code":"8493216","prefecture":"佐賀県","prefecture_kana":"サガケン","city":"唐津市","city_kana":"カラツシ","town":"相知町町切","town_kana":"オウチチョウチョウギリ","prefecture_code":41},"3217":{"zip_code":"8493217","prefecture":"佐賀県","prefecture_kana":"サガケン","city":"唐津市","city_kana":"カラツシ","town":"相知町長部田","town_kana":"オウチチョウナガヘタ","prefecture_code":41},"3218":{"zip_code":"8493218","prefecture":"佐賀県","prefecture_kana":"サガケン","city":"唐津市","city_kana":"カラツシ","town":"相知町中山","town_kana":"オウチチョウナカヤマ","prefecture_code":41},"3203":{"zip_code":"8493203","prefecture":"佐賀県","prefecture_kana":"サガケン","city":"唐津市","city_kana":"カラツシ","town":"相知町平山上","town_kana":"オウチチョウヒラヤマカミ","prefecture_code":41},"3202":{"zip_code":"8493202","prefecture":"佐賀県","prefecture_kana":"サガケン","city":"唐津市","city_kana":"カラツシ","town":"相知町平山下","town_kana":"オウチチョウヒラヤマシモ","prefecture_code":41},"3231":{"zip_code":"8493231","prefecture":"佐賀県","prefecture_kana":"サガケン","city":"唐津市","city_kana":"カラツシ","town":"相知町牟田部","town_kana":"オウチチョウムタベ","prefecture_code":41},"3224":{"zip_code":"8493224","prefecture":"佐賀県","prefecture_kana":"サガケン","city":"唐津市","city_kana":"カラツシ","town":"相知町山崎","town_kana":"オウチチョウヤマサキ","prefecture_code":41},"3213":{"zip_code":"8493213","prefecture":"佐賀県","prefecture_kana":"サガケン","city":"唐津市","city_kana":"カラツシ","town":"相知町湯屋","town_kana":"オウチチョウユヤ","prefecture_code":41},"3212":{"zip_code":"8493212","prefecture":"佐賀県","prefecture_kana":"サガケン","city":"唐津市","city_kana":"カラツシ","town":"相知町横枕","town_kana":"オウチチョウヨコマクラ","prefecture_code":41},"3101":{"zip_code":"8493101","prefecture":"佐賀県","prefecture_kana":"サガケン","city":"唐津市","city_kana":"カラツシ","town":"厳木町天川","town_kana":"キュウラギマチアマガワ","prefecture_code":41},"3123":{"zip_code":"8493123","prefecture":"佐賀県","prefecture_kana":"サガケン","city":"唐津市","city_kana":"カラツシ","town":"厳木町岩屋","town_kana":"キュウラギマチイワヤ","prefecture_code":41},"3132":{"zip_code":"8493132","prefecture":"佐賀県","prefecture_kana":"サガケン","city":"唐津市","city_kana":"カラツシ","town":"厳木町うつぼ木","town_kana":"キュウラギマチウツボキ","prefecture_code":41},"3114":{"zip_code":"8493114","prefecture":"佐賀県","prefecture_kana":"サガケン","city":"唐津市","city_kana":"カラツシ","town":"厳木町浦川内","town_kana":"キュウラギマチウラガワチ","prefecture_code":41},"3131":{"zip_code":"8493131","prefecture":"佐賀県","prefecture_kana":"サガケン","city":"唐津市","city_kana":"カラツシ","town":"厳木町厳木","town_kana":"キュウラギマチキュウラギ","prefecture_code":41},"3121":{"zip_code":"8493121","prefecture":"佐賀県","prefecture_kana":"サガケン","city":"唐津市","city_kana":"カラツシ","town":"厳木町瀬戸木場","town_kana":"キュウラギマチセトコバ","prefecture_code":41},"3102":{"zip_code":"8493102","prefecture":"佐賀県","prefecture_kana":"サガケン","city":"唐津市","city_kana":"カラツシ","town":"厳木町鳥越","town_kana":"キュウラギマチトリゴエ","prefecture_code":41},"3112":{"zip_code":"8493112","prefecture":"佐賀県","prefecture_kana":"サガケン","city":"唐津市","city_kana":"カラツシ","town":"厳木町中島","town_kana":"キュウラギマチナカシマ","prefecture_code":41},"3122":{"zip_code":"8493122","prefecture":"佐賀県","prefecture_kana":"サガケン","city":"唐津市","city_kana":"カラツシ","town":"厳木町浪瀬","town_kana":"キュウラギマチナミセ","prefecture_code":41},"3115":{"zip_code":"8493115","prefecture":"佐賀県","prefecture_kana":"サガケン","city":"唐津市","city_kana":"カラツシ","town":"厳木町平之","town_kana":"キュウラギマチヒラノ","prefecture_code":41},"3103":{"zip_code":"8493103","prefecture":"佐賀県","prefecture_kana":"サガケン","city":"唐津市","city_kana":"カラツシ","town":"厳木町広川","town_kana":"キュウラギマチヒロカワ","prefecture_code":41},"3111":{"zip_code":"8493111","prefecture":"佐賀県","prefecture_kana":"サガケン","city":"唐津市","city_kana":"カラツシ","town":"厳木町広瀬","town_kana":"キュウラギマチヒロセ","prefecture_code":41},"3104":{"zip_code":"8493104","prefecture":"佐賀県","prefecture_kana":"サガケン","city":"唐津市","city_kana":"カラツシ","town":"厳木町星領","town_kana":"キュウラギマチホシリョウ","prefecture_code":41},"3113":{"zip_code":"8493113","prefecture":"佐賀県","prefecture_kana":"サガケン","city":"唐津市","city_kana":"カラツシ","town":"厳木町牧瀬","town_kana":"キュウラギマチマキセ","prefecture_code":41},"3133":{"zip_code":"8493133","prefecture":"佐賀県","prefecture_kana":"サガケン","city":"唐津市","city_kana":"カラツシ","town":"厳木町本山","town_kana":"キュウラギマチモトヤマ","prefecture_code":41},"5103":{"zip_code":"8495103","prefecture":"佐賀県","prefecture_kana":"サガケン","city":"唐津市","city_kana":"カラツシ","town":"浜玉町大江","town_kana":"ハマタママチオオエ","prefecture_code":41},"5101":{"zip_code":"8495101","prefecture":"佐賀県","prefecture_kana":"サガケン","city":"唐津市","city_kana":"カラツシ","town":"浜玉町岡口","town_kana":"ハマタママチオカグチ","prefecture_code":41},"5102":{"zip_code":"8495102","prefecture":"佐賀県","prefecture_kana":"サガケン","city":"唐津市","city_kana":"カラツシ","town":"浜玉町五反田","town_kana":"ハマタママチゴタンダ","prefecture_code":41},"5105":{"zip_code":"8495105","prefecture":"佐賀県","prefecture_kana":"サガケン","city":"唐津市","city_kana":"カラツシ","town":"浜玉町谷口","town_kana":"ハマタママチタニグチ","prefecture_code":41},"5113":{"zip_code":"8495113","prefecture":"佐賀県","prefecture_kana":"サガケン","city":"唐津市","city_kana":"カラツシ","town":"浜玉町鳥巣","town_kana":"ハマタママチトリス","prefecture_code":41},"5131":{"zip_code":"8495131","prefecture":"佐賀県","prefecture_kana":"サガケン","city":"唐津市","city_kana":"カラツシ","town":"浜玉町浜崎","town_kana":"ハマタママチハマサキ","prefecture_code":41},"5123":{"zip_code":"8495123","prefecture":"佐賀県","prefecture_kana":"サガケン","city":"唐津市","city_kana":"カラツシ","town":"浜玉町東山田","town_kana":"ハマタママチヒガシヤマダ","prefecture_code":41},"5112":{"zip_code":"8495112","prefecture":"佐賀県","prefecture_kana":"サガケン","city":"唐津市","city_kana":"カラツシ","town":"浜玉町平原","town_kana":"ハマタママチヒラバル","prefecture_code":41},"5104":{"zip_code":"8495104","prefecture":"佐賀県","prefecture_kana":"サガケン","city":"唐津市","city_kana":"カラツシ","town":"浜玉町渕上","town_kana":"ハマタママチフチノウエ","prefecture_code":41},"5111":{"zip_code":"8495111","prefecture":"佐賀県","prefecture_kana":"サガケン","city":"唐津市","city_kana":"カラツシ","town":"浜玉町南山","town_kana":"ハマタママチミナミヤマ","prefecture_code":41},"5124":{"zip_code":"8495124","prefecture":"佐賀県","prefecture_kana":"サガケン","city":"唐津市","city_kana":"カラツシ","town":"浜玉町山瀬","town_kana":"ハマタママチヤマセ","prefecture_code":41},"5121":{"zip_code":"8495121","prefecture":"佐賀県","prefecture_kana":"サガケン","city":"唐津市","city_kana":"カラツシ","town":"浜玉町横田上","town_kana":"ハマタママチヨコタカミ","prefecture_code":41},"5122":{"zip_code":"8495122","prefecture":"佐賀県","prefecture_kana":"サガケン","city":"唐津市","city_kana":"カラツシ","town":"浜玉町横田下","town_kana":"ハマタママチヨコタシモ","prefecture_code":41},"5251":{"zip_code":"8495251","prefecture":"佐賀県","prefecture_kana":"サガケン","city":"伊万里市","city_kana":"イマリシ","town":"大川町大川野","town_kana":"オオカワチョウオオカワノ","prefecture_code":41},"5257":{"zip_code":"8495257","prefecture":"佐賀県","prefecture_kana":"サガケン","city":"伊万里市","city_kana":"イマリシ","town":"大川町川原","town_kana":"オオカワチョウカワバル","prefecture_code":41},"5252":{"zip_code":"8495252","prefecture":"佐賀県","prefecture_kana":"サガケン","city":"伊万里市","city_kana":"イマリシ","town":"大川町川西","town_kana":"オオカワチョウカワニシ","prefecture_code":41},"5253":{"zip_code":"8495253","prefecture":"佐賀県","prefecture_kana":"サガケン","city":"伊万里市","city_kana":"イマリシ","town":"大川町駒鳴","town_kana":"オオカワチョウコマナキ","prefecture_code":41},"5254":{"zip_code":"8495254","prefecture":"佐賀県","prefecture_kana":"サガケン","city":"伊万里市","city_kana":"イマリシ","town":"大川町立川","town_kana":"オオカワチョウタツガワ","prefecture_code":41},"5256":{"zip_code":"8495256","prefecture":"佐賀県","prefecture_kana":"サガケン","city":"伊万里市","city_kana":"イマリシ","town":"大川町東田代","town_kana":"オオカワチョウヒガシタシロ","prefecture_code":41},"5255":{"zip_code":"8495255","prefecture":"佐賀県","prefecture_kana":"サガケン","city":"伊万里市","city_kana":"イマリシ","town":"大川町山口","town_kana":"オオカワチョウヤマグチ","prefecture_code":41},"4284":{"zip_code":"8494284","prefecture":"佐賀県","prefecture_kana":"サガケン","city":"伊万里市","city_kana":"イマリシ","town":"東山代町浦川内","town_kana":"ヒガシヤマシロチョウウラガワチ","prefecture_code":41},"4281":{"zip_code":"8494281","prefecture":"佐賀県","prefecture_kana":"サガケン","city":"伊万里市","city_kana":"イマリシ","town":"東山代町大久保","town_kana":"ヒガシヤマシロチョウオオクボ","prefecture_code":41},"4286":{"zip_code":"8494286","prefecture":"佐賀県","prefecture_kana":"サガケン","city":"伊万里市","city_kana":"イマリシ","town":"東山代町川内野","town_kana":"ヒガシヤマシロチョウカワチノ","prefecture_code":41},"4282":{"zip_code":"8494282","prefecture":"佐賀県","prefecture_kana":"サガケン","city":"伊万里市","city_kana":"イマリシ","town":"東山代町里","town_kana":"ヒガシヤマシロチョウサト","prefecture_code":41},"4285":{"zip_code":"8494285","prefecture":"佐賀県","prefecture_kana":"サガケン","city":"伊万里市","city_kana":"イマリシ","town":"東山代町滝川内","town_kana":"ヒガシヤマシロチョウタキガワチ","prefecture_code":41},"4273":{"zip_code":"8494273","prefecture":"佐賀県","prefecture_kana":"サガケン","city":"伊万里市","city_kana":"イマリシ","town":"東山代町天神","town_kana":"ヒガシヤマシロチョウテンジン","prefecture_code":41},"4271":{"zip_code":"8494271","prefecture":"佐賀県","prefecture_kana":"サガケン","city":"伊万里市","city_kana":"イマリシ","town":"東山代町長浜","town_kana":"ヒガシヤマシロチョウナガハマ","prefecture_code":41},"4272":{"zip_code":"8494272","prefecture":"佐賀県","prefecture_kana":"サガケン","city":"伊万里市","city_kana":"イマリシ","town":"東山代町日尾","town_kana":"ヒガシヤマシロチョウヒオ","prefecture_code":41},"4283":{"zip_code":"8494283","prefecture":"佐賀県","prefecture_kana":"サガケン","city":"伊万里市","city_kana":"イマリシ","town":"東山代町東大久保","town_kana":"ヒガシヤマシロチョウヒガシオオクボ","prefecture_code":41},"4274":{"zip_code":"8494274","prefecture":"佐賀県","prefecture_kana":"サガケン","city":"伊万里市","city_kana":"イマリシ","town":"東山代町脇野","town_kana":"ヒガシヤマシロチョウワキノ","prefecture_code":41},"5264":{"zip_code":"8495264","prefecture":"佐賀県","prefecture_kana":"サガケン","city":"伊万里市","city_kana":"イマリシ","town":"松浦町提川","town_kana":"マツウラチョウサゲノカワ","prefecture_code":41},"5262":{"zip_code":"8495262","prefecture":"佐賀県","prefecture_kana":"サガケン","city":"伊万里市","city_kana":"イマリシ","town":"松浦町中野原","town_kana":"マツウラチョウナカノハラ","prefecture_code":41},"5261":{"zip_code":"8495261","prefecture":"佐賀県","prefecture_kana":"サガケン","city":"伊万里市","city_kana":"イマリシ","town":"松浦町桃川","town_kana":"マツウラチョウモモノカワ","prefecture_code":41},"5263":{"zip_code":"8495263","prefecture":"佐賀県","prefecture_kana":"サガケン","city":"伊万里市","city_kana":"イマリシ","town":"松浦町山形","town_kana":"マツウラチョウヤマガタ","prefecture_code":41},"4251":{"zip_code":"8494251","prefecture":"佐賀県","prefecture_kana":"サガケン","city":"伊万里市","city_kana":"イマリシ","town":"山代町楠久","town_kana":"ヤマシロチョウクスク","prefecture_code":41},"4252":{"zip_code":"8494252","prefecture":"佐賀県","prefecture_kana":"サガケン","city":"伊万里市","city_kana":"イマリシ","town":"山代町楠久津","town_kana":"ヤマシロチョウクスクツ","prefecture_code":41},"4256":{"zip_code":"8494256","prefecture":"佐賀県","prefecture_kana":"サガケン","city":"伊万里市","city_kana":"イマリシ","town":"山代町久原","town_kana":"ヤマシロチョウクバラ","prefecture_code":41},"4254":{"zip_code":"8494254","prefecture":"佐賀県","prefecture_kana":"サガケン","city":"伊万里市","city_kana":"イマリシ","town":"山代町城","town_kana":"ヤマシロチョウジョウ","prefecture_code":41},"4261":{"zip_code":"8494261","prefecture":"佐賀県","prefecture_kana":"サガケン","city":"伊万里市","city_kana":"イマリシ","town":"山代町立岩","town_kana":"ヤマシロチョウタチイワ","prefecture_code":41},"4263":{"zip_code":"8494263","prefecture":"佐賀県","prefecture_kana":"サガケン","city":"伊万里市","city_kana":"イマリシ","town":"山代町西大久保","town_kana":"ヤマシロチョウニシオオクボ","prefecture_code":41},"4264":{"zip_code":"8494264","prefecture":"佐賀県","prefecture_kana":"サガケン","city":"伊万里市","city_kana":"イマリシ","town":"山代町東分","town_kana":"ヤマシロチョウヒガシブン","prefecture_code":41},"4262":{"zip_code":"8494262","prefecture":"佐賀県","prefecture_kana":"サガケン","city":"伊万里市","city_kana":"イマリシ","town":"山代町西分","town_kana":"ヤマシロチョウニシブン","prefecture_code":41},"4255":{"zip_code":"8494255","prefecture":"佐賀県","prefecture_kana":"サガケン","city":"伊万里市","city_kana":"イマリシ","town":"山代町福川内","town_kana":"ヤマシロチョウフクガワチ","prefecture_code":41},"4253":{"zip_code":"8494253","prefecture":"佐賀県","prefecture_kana":"サガケン","city":"伊万里市","city_kana":"イマリシ","town":"山代町峰","town_kana":"ヤマシロチョウミネ","prefecture_code":41},"2203":{"zip_code":"8492203","prefecture":"佐賀県","prefecture_kana":"サガケン","city":"武雄市","city_kana":"タケオシ","town":"北方町芦原","town_kana":"キタガタチョウアシハラ","prefecture_code":41},"2204":{"zip_code":"8492204","prefecture":"佐賀県","prefecture_kana":"サガケン","city":"武雄市","city_kana":"タケオシ","town":"北方町大崎","town_kana":"キタガタチョウオオサキ","prefecture_code":41},"2202":{"zip_code":"8492202","prefecture":"佐賀県","prefecture_kana":"サガケン","city":"武雄市","city_kana":"タケオシ","town":"北方町大渡","town_kana":"キタガタチョウオオワタリ","prefecture_code":41},"2201":{"zip_code":"8492201","prefecture":"佐賀県","prefecture_kana":"サガケン","city":"武雄市","city_kana":"タケオシ","town":"北方町志久","town_kana":"キタガタチョウシク","prefecture_code":41},"2341":{"zip_code":"8492341","prefecture":"佐賀県","prefecture_kana":"サガケン","city":"武雄市","city_kana":"タケオシ","town":"武内町梅野","town_kana":"タケウチチョウウメノ","prefecture_code":41},"2342":{"zip_code":"8492342","prefecture":"佐賀県","prefecture_kana":"サガケン","city":"武雄市","city_kana":"タケオシ","town":"武内町真手野","town_kana":"タケウチチョウマテノ","prefecture_code":41},"2301":{"zip_code":"8492301","prefecture":"佐賀県","prefecture_kana":"サガケン","city":"武雄市","city_kana":"タケオシ","town":"山内町犬走","town_kana":"ヤマウチチョウイヌバシリ","prefecture_code":41},"2304":{"zip_code":"8492304","prefecture":"佐賀県","prefecture_kana":"サガケン","city":"武雄市","city_kana":"タケオシ","town":"山内町大野","town_kana":"ヤマウチチョウオオノ","prefecture_code":41},"2302":{"zip_code":"8492302","prefecture":"佐賀県","prefecture_kana":"サガケン","city":"武雄市","city_kana":"タケオシ","town":"山内町鳥海","town_kana":"ヤマウチチョウトノミ","prefecture_code":41},"2303":{"zip_code":"8492303","prefecture":"佐賀県","prefecture_kana":"サガケン","city":"武雄市","city_kana":"タケオシ","town":"山内町三間坂","town_kana":"ヤマウチチョウミマサカ","prefecture_code":41},"2305":{"zip_code":"8492305","prefecture":"佐賀県","prefecture_kana":"サガケン","city":"武雄市","city_kana":"タケオシ","town":"山内町宮野","town_kana":"ヤマウチチョウミヤノ","prefecture_code":41},"1300":{"zip_code":"8491300","prefecture":"佐賀県","prefecture_kana":"サガケン","city":"鹿島市","city_kana":"カシマシ","town":"","town_kana":"","prefecture_code":41},"1324":{"zip_code":"8491324","prefecture":"佐賀県","prefecture_kana":"サガケン","city":"鹿島市","city_kana":"カシマシ","town":"飯田","town_kana":"イイダ","prefecture_code":41},"1302":{"zip_code":"8491302","prefecture":"佐賀県","prefecture_kana":"サガケン","city":"鹿島市","city_kana":"カシマシ","town":"井手","town_kana":"イデ","prefecture_code":41},"1323":{"zip_code":"8491323","prefecture":"佐賀県","prefecture_kana":"サガケン","city":"鹿島市","city_kana":"カシマシ","town":"音成","town_kana":"オトナリ","prefecture_code":41},"1313":{"zip_code":"8491313","prefecture":"佐賀県","prefecture_kana":"サガケン","city":"鹿島市","city_kana":"カシマシ","town":"重ノ木","town_kana":"ジュウノキ","prefecture_code":41},"1311":{"zip_code":"8491311","prefecture":"佐賀県","prefecture_kana":"サガケン","city":"鹿島市","city_kana":"カシマシ","town":"高津原","town_kana":"タカツハラ","prefecture_code":41},"1301":{"zip_code":"8491301","prefecture":"佐賀県","prefecture_kana":"サガケン","city":"鹿島市","city_kana":"カシマシ","town":"常広","town_kana":"ツネヒロ","prefecture_code":41},"1304":{"zip_code":"8491304","prefecture":"佐賀県","prefecture_kana":"サガケン","city":"鹿島市","city_kana":"カシマシ","town":"中村","town_kana":"ナカムラ","prefecture_code":41},"1312":{"zip_code":"8491312","prefecture":"佐賀県","prefecture_kana":"サガケン","city":"鹿島市","city_kana":"カシマシ","town":"納富分","town_kana":"ノウドミブン","prefecture_code":41},"1322":{"zip_code":"8491322","prefecture":"佐賀県","prefecture_kana":"サガケン","city":"鹿島市","city_kana":"カシマシ","town":"浜町","town_kana":"ハママチ","prefecture_code":41},"1321":{"zip_code":"8491321","prefecture":"佐賀県","prefecture_kana":"サガケン","city":"鹿島市","city_kana":"カシマシ","town":"古枝","town_kana":"フルエダ","prefecture_code":41},"1315":{"zip_code":"8491315","prefecture":"佐賀県","prefecture_kana":"サガケン","city":"鹿島市","city_kana":"カシマシ","town":"三河内","town_kana":"ミカワチ","prefecture_code":41},"1303":{"zip_code":"8491303","prefecture":"佐賀県","prefecture_kana":"サガケン","city":"鹿島市","city_kana":"カシマシ","town":"森","town_kana":"モリ","prefecture_code":41},"1314":{"zip_code":"8491314","prefecture":"佐賀県","prefecture_kana":"サガケン","city":"鹿島市","city_kana":"カシマシ","town":"山浦","town_kana":"ヤマウラ","prefecture_code":41},"0311":{"zip_code":"8490311","prefecture":"佐賀県","prefecture_kana":"サガケン","city":"小城市","city_kana":"オギシ","town":"芦刈町芦溝","town_kana":"アシカリチョウアシミゾ","prefecture_code":41},"0312":{"zip_code":"8490312","prefecture":"佐賀県","prefecture_kana":"サガケン","city":"小城市","city_kana":"オギシ","town":"芦刈町下古賀","town_kana":"アシカリチョウシモコガ","prefecture_code":41},"0316":{"zip_code":"8490316","prefecture":"佐賀県","prefecture_kana":"サガケン","city":"小城市","city_kana":"オギシ","town":"芦刈町道免","town_kana":"アシカリチョウドウメ","prefecture_code":41},"0313":{"zip_code":"8490313","prefecture":"佐賀県","prefecture_kana":"サガケン","city":"小城市","city_kana":"オギシ","town":"芦刈町永田","town_kana":"アシカリチョウナガタ","prefecture_code":41},"0315":{"zip_code":"8490315","prefecture":"佐賀県","prefecture_kana":"サガケン","city":"小城市","city_kana":"オギシ","town":"芦刈町浜枝川","town_kana":"アシカリチョウハマエダガワ","prefecture_code":41},"0314":{"zip_code":"8490314","prefecture":"佐賀県","prefecture_kana":"サガケン","city":"小城市","city_kana":"オギシ","town":"芦刈町三王崎","town_kana":"アシカリチョウミオウザキ","prefecture_code":41},"0303":{"zip_code":"8490303","prefecture":"佐賀県","prefecture_kana":"サガケン","city":"小城市","city_kana":"オギシ","town":"牛津町牛津","town_kana":"ウシヅチョウウシヅ","prefecture_code":41},"0301":{"zip_code":"8490301","prefecture":"佐賀県","prefecture_kana":"サガケン","city":"小城市","city_kana":"オギシ","town":"牛津町乙柳","town_kana":"ウシヅチョウオトヤナギ","prefecture_code":41},"0302":{"zip_code":"8490302","prefecture":"佐賀県","prefecture_kana":"サガケン","city":"小城市","city_kana":"オギシ","town":"牛津町柿樋瀬","town_kana":"ウシヅチョウカキヒセ","prefecture_code":41},"0306":{"zip_code":"8490306","prefecture":"佐賀県","prefecture_kana":"サガケン","city":"小城市","city_kana":"オギシ","town":"牛津町勝","town_kana":"ウシヅチョウカツ","prefecture_code":41},"0305":{"zip_code":"8490305","prefecture":"佐賀県","prefecture_kana":"サガケン","city":"小城市","city_kana":"オギシ","town":"牛津町上砥川","town_kana":"ウシヅチョウカミトガワ","prefecture_code":41},"0304":{"zip_code":"8490304","prefecture":"佐賀県","prefecture_kana":"サガケン","city":"小城市","city_kana":"オギシ","town":"牛津町下砥川","town_kana":"ウシヅチョウシモトガワ","prefecture_code":41},"1416":{"zip_code":"8491416","prefecture":"佐賀県","prefecture_kana":"サガケン","city":"嬉野市","city_kana":"ウレシノシ","town":"塩田町大草野乙","town_kana":"シオタチョウオオクサノオツ","prefecture_code":41},"1414":{"zip_code":"8491414","prefecture":"佐賀県","prefecture_kana":"サガケン","city":"嬉野市","city_kana":"ウレシノシ","town":"塩田町大草野甲","town_kana":"シオタチョウオオクサノコウ","prefecture_code":41},"1415":{"zip_code":"8491415","prefecture":"佐賀県","prefecture_kana":"サガケン","city":"嬉野市","city_kana":"ウレシノシ","town":"塩田町大草野丙","town_kana":"シオタチョウオオクサノヘイ","prefecture_code":41},"1402":{"zip_code":"8491402","prefecture":"佐賀県","prefecture_kana":"サガケン","city":"嬉野市","city_kana":"ウレシノシ","town":"塩田町久間乙","town_kana":"シオタチョウクマオツ","prefecture_code":41},"1401":{"zip_code":"8491401","prefecture":"佐賀県","prefecture_kana":"サガケン","city":"嬉野市","city_kana":"ウレシノシ","town":"塩田町久間甲","town_kana":"シオタチョウクマコウ","prefecture_code":41},"1404":{"zip_code":"8491404","prefecture":"佐賀県","prefecture_kana":"サガケン","city":"嬉野市","city_kana":"ウレシノシ","town":"塩田町久間丁","town_kana":"シオタチョウクマテイ","prefecture_code":41},"1403":{"zip_code":"8491403","prefecture":"佐賀県","prefecture_kana":"サガケン","city":"嬉野市","city_kana":"ウレシノシ","town":"塩田町久間丙","town_kana":"シオタチョウクマヘイ","prefecture_code":41},"1426":{"zip_code":"8491426","prefecture":"佐賀県","prefecture_kana":"サガケン","city":"嬉野市","city_kana":"ウレシノシ","town":"塩田町五町田乙","town_kana":"シオタチョウゴチョウダオツ","prefecture_code":41},"1425":{"zip_code":"8491425","prefecture":"佐賀県","prefecture_kana":"サガケン","city":"嬉野市","city_kana":"ウレシノシ","town":"塩田町五町田甲","town_kana":"シオタチョウゴチョウダコウ","prefecture_code":41},"1423":{"zip_code":"8491423","prefecture":"佐賀県","prefecture_kana":"サガケン","city":"嬉野市","city_kana":"ウレシノシ","town":"塩田町谷所乙","town_kana":"シオタチョウタニドコロオツ","prefecture_code":41},"1422":{"zip_code":"8491422","prefecture":"佐賀県","prefecture_kana":"サガケン","city":"嬉野市","city_kana":"ウレシノシ","town":"塩田町谷所甲","town_kana":"シオタチョウタニドコロコウ","prefecture_code":41},"1424":{"zip_code":"8491424","prefecture":"佐賀県","prefecture_kana":"サガケン","city":"嬉野市","city_kana":"ウレシノシ","town":"塩田町谷所丙","town_kana":"シオタチョウタニドコロヘイ","prefecture_code":41},"1412":{"zip_code":"8491412","prefecture":"佐賀県","prefecture_kana":"サガケン","city":"嬉野市","city_kana":"ウレシノシ","town":"塩田町馬場下乙","town_kana":"シオタチョウババシタオツ","prefecture_code":41},"1411":{"zip_code":"8491411","prefecture":"佐賀県","prefecture_kana":"サガケン","city":"嬉野市","city_kana":"ウレシノシ","town":"塩田町馬場下甲","town_kana":"シオタチョウババシタコウ","prefecture_code":41},"1413":{"zip_code":"8491413","prefecture":"佐賀県","prefecture_kana":"サガケン","city":"嬉野市","city_kana":"ウレシノシ","town":"塩田町馬場下丙","town_kana":"シオタチョウババシタヘイ","prefecture_code":41},"1421":{"zip_code":"8491421","prefecture":"佐賀県","prefecture_kana":"サガケン","city":"嬉野市","city_kana":"ウレシノシ","town":"塩田町真崎","town_kana":"シオタチョウマツサキ","prefecture_code":41},"0100":[{"zip_code":"8490100","prefecture":"佐賀県","prefecture_kana":"サガケン","city":"三養基郡上峰町","city_kana":"ミヤキグンカミミネチョウ","town":"","town_kana":"","prefecture_code":41},{"zip_code":"8490100","prefecture":"佐賀県","prefecture_kana":"サガケン","city":"三養基郡みやき町","city_kana":"ミヤキグンミヤキチョウ","town":"","town_kana":"","prefecture_code":41}],"0121":{"zip_code":"8490121","prefecture":"佐賀県","prefecture_kana":"サガケン","city":"三養基郡上峰町","city_kana":"ミヤキグンカミミネチョウ","town":"江迎","town_kana":"エムカイ","prefecture_code":41},"0124":{"zip_code":"8490124","prefecture":"佐賀県","prefecture_kana":"サガケン","city":"三養基郡上峰町","city_kana":"ミヤキグンカミミネチョウ","town":"堤","town_kana":"ツツミ","prefecture_code":41},"0123":{"zip_code":"8490123","prefecture":"佐賀県","prefecture_kana":"サガケン","city":"三養基郡上峰町","city_kana":"ミヤキグンカミミネチョウ","town":"坊所","town_kana":"ボウジョ","prefecture_code":41},"0122":{"zip_code":"8490122","prefecture":"佐賀県","prefecture_kana":"サガケン","city":"三養基郡上峰町","city_kana":"ミヤキグンカミミネチョウ","town":"前牟田","town_kana":"マエムタ","prefecture_code":41},"0112":{"zip_code":"8490112","prefecture":"佐賀県","prefecture_kana":"サガケン","city":"三養基郡みやき町","city_kana":"ミヤキグンミヤキチョウ","town":"江口","town_kana":"エグチ","prefecture_code":41},"0111":{"zip_code":"8490111","prefecture":"佐賀県","prefecture_kana":"サガケン","city":"三養基郡みやき町","city_kana":"ミヤキグンミヤキチョウ","town":"白壁","town_kana":"シラカベ","prefecture_code":41},"0114":{"zip_code":"8490114","prefecture":"佐賀県","prefecture_kana":"サガケン","city":"三養基郡みやき町","city_kana":"ミヤキグンミヤキチョウ","town":"中津隈","town_kana":"ナカツクマ","prefecture_code":41},"0101":{"zip_code":"8490101","prefecture":"佐賀県","prefecture_kana":"サガケン","city":"三養基郡みやき町","city_kana":"ミヤキグンミヤキチョウ","town":"原古賀","town_kana":"ハルコガ","prefecture_code":41},"0113":{"zip_code":"8490113","prefecture":"佐賀県","prefecture_kana":"サガケン","city":"三養基郡みやき町","city_kana":"ミヤキグンミヤキチョウ","town":"東尾","town_kana":"ヒガシオ","prefecture_code":41},"0102":{"zip_code":"8490102","prefecture":"佐賀県","prefecture_kana":"サガケン","city":"三養基郡みやき町","city_kana":"ミヤキグンミヤキチョウ","town":"簑原","town_kana":"ミノバル","prefecture_code":41},"4154":{"zip_code":"8494154","prefecture":"佐賀県","prefecture_kana":"サガケン","city":"西松浦郡有田町","city_kana":"ニシマツウラグンアリタチョウ","town":"大木宿","town_kana":"オオギシュク","prefecture_code":41},"4162":{"zip_code":"8494162","prefecture":"佐賀県","prefecture_kana":"サガケン","city":"西松浦郡有田町","city_kana":"ニシマツウラグンアリタチョウ","town":"上内野","town_kana":"カミウチノ","prefecture_code":41},"4174":{"zip_code":"8494174","prefecture":"佐賀県","prefecture_kana":"サガケン","city":"西松浦郡有田町","city_kana":"ニシマツウラグンアリタチョウ","town":"上本","town_kana":"カミホン","prefecture_code":41},"4144":{"zip_code":"8494144","prefecture":"佐賀県","prefecture_kana":"サガケン","city":"西松浦郡有田町","city_kana":"ニシマツウラグンアリタチョウ","town":"上山谷","town_kana":"カミヤマダニ","prefecture_code":41},"4166":{"zip_code":"8494166","prefecture":"佐賀県","prefecture_kana":"サガケン","city":"西松浦郡有田町","city_kana":"ニシマツウラグンアリタチョウ","town":"北ノ川内","town_kana":"キタノカワチ","prefecture_code":41},"4175":{"zip_code":"8494175","prefecture":"佐賀県","prefecture_kana":"サガケン","city":"西松浦郡有田町","city_kana":"ニシマツウラグンアリタチョウ","town":"楠木原","town_kana":"クスノキバル","prefecture_code":41},"4165":{"zip_code":"8494165","prefecture":"佐賀県","prefecture_kana":"サガケン","city":"西松浦郡有田町","city_kana":"ニシマツウラグンアリタチョウ","town":"黒川","town_kana":"クロゴウ","prefecture_code":41},"4156":{"zip_code":"8494156","prefecture":"佐賀県","prefecture_kana":"サガケン","city":"西松浦郡有田町","city_kana":"ニシマツウラグンアリタチョウ","town":"桑木原","town_kana":"クワノキバル","prefecture_code":41},"4163":{"zip_code":"8494163","prefecture":"佐賀県","prefecture_kana":"サガケン","city":"西松浦郡有田町","city_kana":"ニシマツウラグンアリタチョウ","town":"下内野","town_kana":"シモウチノ","prefecture_code":41},"4172":{"zip_code":"8494172","prefecture":"佐賀県","prefecture_kana":"サガケン","city":"西松浦郡有田町","city_kana":"ニシマツウラグンアリタチョウ","town":"下本","town_kana":"シモホン","prefecture_code":41},"4143":{"zip_code":"8494143","prefecture":"佐賀県","prefecture_kana":"サガケン","city":"西松浦郡有田町","city_kana":"ニシマツウラグンアリタチョウ","town":"下山谷","town_kana":"シモヤマダニ","prefecture_code":41},"4161":{"zip_code":"8494161","prefecture":"佐賀県","prefecture_kana":"サガケン","city":"西松浦郡有田町","city_kana":"ニシマツウラグンアリタチョウ","town":"蔵宿","town_kana":"ゾウシュク","prefecture_code":41},"4146":{"zip_code":"8494146","prefecture":"佐賀県","prefecture_kana":"サガケン","city":"西松浦郡有田町","city_kana":"ニシマツウラグンアリタチョウ","town":"岳","town_kana":"タケ","prefecture_code":41},"4153":{"zip_code":"8494153","prefecture":"佐賀県","prefecture_kana":"サガケン","city":"西松浦郡有田町","city_kana":"ニシマツウラグンアリタチョウ","town":"立部","town_kana":"タチベ","prefecture_code":41},"4141":{"zip_code":"8494141","prefecture":"佐賀県","prefecture_kana":"サガケン","city":"西松浦郡有田町","city_kana":"ニシマツウラグンアリタチョウ","town":"二ノ瀬","town_kana":"ニノセ","prefecture_code":41},"4176":{"zip_code":"8494176","prefecture":"佐賀県","prefecture_kana":"サガケン","city":"西松浦郡有田町","city_kana":"ニシマツウラグンアリタチョウ","town":"原明","town_kana":"ハラアケ","prefecture_code":41},"4152":{"zip_code":"8494152","prefecture":"佐賀県","prefecture_kana":"サガケン","city":"西松浦郡有田町","city_kana":"ニシマツウラグンアリタチョウ","town":"広瀬","town_kana":"ヒロセ","prefecture_code":41},"4151":{"zip_code":"8494151","prefecture":"佐賀県","prefecture_kana":"サガケン","city":"西松浦郡有田町","city_kana":"ニシマツウラグンアリタチョウ","town":"広瀬山","town_kana":"ヒロセヤマ","prefecture_code":41},"4164":{"zip_code":"8494164","prefecture":"佐賀県","prefecture_kana":"サガケン","city":"西松浦郡有田町","city_kana":"ニシマツウラグンアリタチョウ","town":"仏ノ原","town_kana":"ホトケノハラ","prefecture_code":41},"4173":{"zip_code":"8494173","prefecture":"佐賀県","prefecture_kana":"サガケン","city":"西松浦郡有田町","city_kana":"ニシマツウラグンアリタチョウ","town":"舞原","town_kana":"マイバル","prefecture_code":41},"4145":{"zip_code":"8494145","prefecture":"佐賀県","prefecture_kana":"サガケン","city":"西松浦郡有田町","city_kana":"ニシマツウラグンアリタチョウ","town":"山谷切口","town_kana":"ヤマダニキリグチ","prefecture_code":41},"4142":{"zip_code":"8494142","prefecture":"佐賀県","prefecture_kana":"サガケン","city":"西松浦郡有田町","city_kana":"ニシマツウラグンアリタチョウ","town":"山谷牧","town_kana":"ヤマダニマキ","prefecture_code":41},"4155":{"zip_code":"8494155","prefecture":"佐賀県","prefecture_kana":"サガケン","city":"西松浦郡有田町","city_kana":"ニシマツウラグンアリタチョウ","town":"山本","town_kana":"ヤマモト","prefecture_code":41},"4171":{"zip_code":"8494171","prefecture":"佐賀県","prefecture_kana":"サガケン","city":"西松浦郡有田町","city_kana":"ニシマツウラグンアリタチョウ","town":"代々木","town_kana":"ヨヨギ","prefecture_code":41},"2100":{"zip_code":"8492100","prefecture":"佐賀県","prefecture_kana":"サガケン","city":"杵島郡大町町","city_kana":"キシマグンオオマチチョウ","town":"","town_kana":"","prefecture_code":41},"2101":{"zip_code":"8492101","prefecture":"佐賀県","prefecture_kana":"サガケン","city":"杵島郡大町町","city_kana":"キシマグンオオマチチョウ","town":"大町","town_kana":"オオマチ","prefecture_code":41},"2102":{"zip_code":"8492102","prefecture":"佐賀県","prefecture_kana":"サガケン","city":"杵島郡大町町","city_kana":"キシマグンオオマチチョウ","town":"福母","town_kana":"フクモ","prefecture_code":41},"0500":{"zip_code":"8490500","prefecture":"佐賀県","prefecture_kana":"サガケン","city":"杵島郡江北町","city_kana":"キシマグンコウホクマチ","town":"","town_kana":"","prefecture_code":41},"0506":{"zip_code":"8490506","prefecture":"佐賀県","prefecture_kana":"サガケン","city":"杵島郡江北町","city_kana":"キシマグンコウホクマチ","town":"上小田","town_kana":"カミオダ","prefecture_code":41},"0502":{"zip_code":"8490502","prefecture":"佐賀県","prefecture_kana":"サガケン","city":"杵島郡江北町","city_kana":"キシマグンコウホクマチ","town":"佐留志","town_kana":"サルシ","prefecture_code":41},"0505":{"zip_code":"8490505","prefecture":"佐賀県","prefecture_kana":"サガケン","city":"杵島郡江北町","city_kana":"キシマグンコウホクマチ","town":"下小田","town_kana":"シモオダ","prefecture_code":41},"0503":{"zip_code":"8490503","prefecture":"佐賀県","prefecture_kana":"サガケン","city":"杵島郡江北町","city_kana":"キシマグンコウホクマチ","town":"惣領分","town_kana":"ソウリョウブン","prefecture_code":41},"0504":{"zip_code":"8490504","prefecture":"佐賀県","prefecture_kana":"サガケン","city":"杵島郡江北町","city_kana":"キシマグンコウホクマチ","town":"八町","town_kana":"ハッチョウ","prefecture_code":41},"0501":{"zip_code":"8490501","prefecture":"佐賀県","prefecture_kana":"サガケン","city":"杵島郡江北町","city_kana":"キシマグンコウホクマチ","town":"山口","town_kana":"ヤマグチ","prefecture_code":41},"1100":{"zip_code":"8491100","prefecture":"佐賀県","prefecture_kana":"サガケン","city":"杵島郡白石町","city_kana":"キシマグンシロイシチョウ","town":"","town_kana":"","prefecture_code":41},"1101":{"zip_code":"8491101","prefecture":"佐賀県","prefecture_kana":"サガケン","city":"杵島郡白石町","city_kana":"キシマグンシロイシチョウ","town":"今泉","town_kana":"イマイズミ","prefecture_code":41},"1201":{"zip_code":"8491201","prefecture":"佐賀県","prefecture_kana":"サガケン","city":"杵島郡白石町","city_kana":"キシマグンシロイシチョウ","town":"牛屋","town_kana":"ウシヤ","prefecture_code":41},"1102":{"zip_code":"8491102","prefecture":"佐賀県","prefecture_kana":"サガケン","city":"杵島郡白石町","city_kana":"キシマグンシロイシチョウ","town":"大渡","town_kana":"オオワタリ","prefecture_code":41},"1204":{"zip_code":"8491204","prefecture":"佐賀県","prefecture_kana":"サガケン","city":"杵島郡白石町","city_kana":"キシマグンシロイシチョウ","town":"坂田","town_kana":"サカタ","prefecture_code":41},"1208":{"zip_code":"8491208","prefecture":"佐賀県","prefecture_kana":"サガケン","city":"杵島郡白石町","city_kana":"キシマグンシロイシチョウ","town":"新開","town_kana":"シンカイ","prefecture_code":41},"1221":{"zip_code":"8491221","prefecture":"佐賀県","prefecture_kana":"サガケン","city":"杵島郡白石町","city_kana":"キシマグンシロイシチョウ","town":"新拓","town_kana":"シンタク","prefecture_code":41},"1202":{"zip_code":"8491202","prefecture":"佐賀県","prefecture_kana":"サガケン","city":"杵島郡白石町","city_kana":"キシマグンシロイシチョウ","town":"新明","town_kana":"シンメイ","prefecture_code":41},"1205":{"zip_code":"8491205","prefecture":"佐賀県","prefecture_kana":"サガケン","city":"杵島郡白石町","city_kana":"キシマグンシロイシチョウ","town":"田野上","town_kana":"タノウエ","prefecture_code":41},"1103":{"zip_code":"8491103","prefecture":"佐賀県","prefecture_kana":"サガケン","city":"杵島郡白石町","city_kana":"キシマグンシロイシチョウ","town":"築切","town_kana":"ツイキリ","prefecture_code":41},"1104":{"zip_code":"8491104","prefecture":"佐賀県","prefecture_kana":"サガケン","city":"杵島郡白石町","city_kana":"キシマグンシロイシチョウ","town":"堤","town_kana":"ツツミ","prefecture_code":41},"1105":{"zip_code":"8491105","prefecture":"佐賀県","prefecture_kana":"サガケン","city":"杵島郡白石町","city_kana":"キシマグンシロイシチョウ","town":"遠江","town_kana":"トオノエ","prefecture_code":41},"1203":{"zip_code":"8491203","prefecture":"佐賀県","prefecture_kana":"サガケン","city":"杵島郡白石町","city_kana":"キシマグンシロイシチョウ","town":"戸ケ里","town_kana":"トガリ","prefecture_code":41},"1106":{"zip_code":"8491106","prefecture":"佐賀県","prefecture_kana":"サガケン","city":"杵島郡白石町","city_kana":"キシマグンシロイシチョウ","town":"廿治","town_kana":"ハタチ","prefecture_code":41},"0403":{"zip_code":"8490403","prefecture":"佐賀県","prefecture_kana":"サガケン","city":"杵島郡白石町","city_kana":"キシマグンシロイシチョウ","town":"八平","town_kana":"ハチヘイ","prefecture_code":41},"1111":{"zip_code":"8491111","prefecture":"佐賀県","prefecture_kana":"サガケン","city":"杵島郡白石町","city_kana":"キシマグンシロイシチョウ","town":"東郷","town_kana":"ヒガシゴウ","prefecture_code":41},"1207":{"zip_code":"8491207","prefecture":"佐賀県","prefecture_kana":"サガケン","city":"杵島郡白石町","city_kana":"キシマグンシロイシチョウ","town":"深浦","town_kana":"フカウラ","prefecture_code":41},"1112":{"zip_code":"8491112","prefecture":"佐賀県","prefecture_kana":"サガケン","city":"杵島郡白石町","city_kana":"キシマグンシロイシチョウ","town":"福田","town_kana":"フクタ","prefecture_code":41},"0401":{"zip_code":"8490401","prefecture":"佐賀県","prefecture_kana":"サガケン","city":"杵島郡白石町","city_kana":"キシマグンシロイシチョウ","town":"福富","town_kana":"フクドミ","prefecture_code":41},"0402":{"zip_code":"8490402","prefecture":"佐賀県","prefecture_kana":"サガケン","city":"杵島郡白石町","city_kana":"キシマグンシロイシチョウ","town":"福富下分","town_kana":"フクドミシモブン","prefecture_code":41},"1113":{"zip_code":"8491113","prefecture":"佐賀県","prefecture_kana":"サガケン","city":"杵島郡白石町","city_kana":"キシマグンシロイシチョウ","town":"福吉","town_kana":"フクヨシ","prefecture_code":41},"1206":{"zip_code":"8491206","prefecture":"佐賀県","prefecture_kana":"サガケン","city":"杵島郡白石町","city_kana":"キシマグンシロイシチョウ","town":"辺田","town_kana":"ヘタ","prefecture_code":41},"1114":{"zip_code":"8491114","prefecture":"佐賀県","prefecture_kana":"サガケン","city":"杵島郡白石町","city_kana":"キシマグンシロイシチョウ","town":"馬洗","town_kana":"モウライ","prefecture_code":41},"1115":{"zip_code":"8491115","prefecture":"佐賀県","prefecture_kana":"サガケン","city":"杵島郡白石町","city_kana":"キシマグンシロイシチョウ","town":"湯崎","town_kana":"ユザキ","prefecture_code":41},"1116":{"zip_code":"8491116","prefecture":"佐賀県","prefecture_kana":"サガケン","city":"杵島郡白石町","city_kana":"キシマグンシロイシチョウ","town":"横手","town_kana":"ヨコテ","prefecture_code":41},"1600":{"zip_code":"8491600","prefecture":"佐賀県","prefecture_kana":"サガケン","city":"藤津郡太良町","city_kana":"フジツグンタラチョウ","town":"","town_kana":"","prefecture_code":41},"1603":{"zip_code":"8491603","prefecture":"佐賀県","prefecture_kana":"サガケン","city":"藤津郡太良町","city_kana":"フジツグンタラチョウ","town":"糸岐","town_kana":"イトキ","prefecture_code":41},"1601":{"zip_code":"8491601","prefecture":"佐賀県","prefecture_kana":"サガケン","city":"藤津郡太良町","city_kana":"フジツグンタラチョウ","town":"伊福甲","town_kana":"イフクコウ","prefecture_code":41},"1614":{"zip_code":"8491614","prefecture":"佐賀県","prefecture_kana":"サガケン","city":"藤津郡太良町","city_kana":"フジツグンタラチョウ","town":"大浦甲","town_kana":"オオウラコウ","prefecture_code":41},"1615":{"zip_code":"8491615","prefecture":"佐賀県","prefecture_kana":"サガケン","city":"藤津郡太良町","city_kana":"フジツグンタラチョウ","town":"大浦乙","town_kana":"オオウラオツ","prefecture_code":41},"1613":{"zip_code":"8491613","prefecture":"佐賀県","prefecture_kana":"サガケン","city":"藤津郡太良町","city_kana":"フジツグンタラチョウ","town":"大浦丙","town_kana":"オオウラヘイ","prefecture_code":41},"1612":{"zip_code":"8491612","prefecture":"佐賀県","prefecture_kana":"サガケン","city":"藤津郡太良町","city_kana":"フジツグンタラチョウ","town":"大浦丁","town_kana":"オオウラテイ","prefecture_code":41},"1611":{"zip_code":"8491611","prefecture":"佐賀県","prefecture_kana":"サガケン","city":"藤津郡太良町","city_kana":"フジツグンタラチョウ","town":"大浦戊","town_kana":"オオウラボ","prefecture_code":41},"1616":{"zip_code":"8491616","prefecture":"佐賀県","prefecture_kana":"サガケン","city":"藤津郡太良町","city_kana":"フジツグンタラチョウ","town":"大浦己","town_kana":"オオウラキ","prefecture_code":41},"1602":{"zip_code":"8491602","prefecture":"佐賀県","prefecture_kana":"サガケン","city":"藤津郡太良町","city_kana":"フジツグンタラチョウ","town":"多良","town_kana":"タラ","prefecture_code":41}}