{"0918":{"zip_code":"8580918","prefecture":"長崎県","prefecture_kana":"ナガサキケン","city":"佐世保市","city_kana":"サセボシ","town":"相浦町","town_kana":"アイノウラチョウ","prefecture_code":42},"0917":{"zip_code":"8580917","prefecture":"長崎県","prefecture_kana":"ナガサキケン","city":"佐世保市","city_kana":"サセボシ","town":"愛宕町","town_kana":"アタゴチョウ","prefecture_code":42},"0926":{"zip_code":"8580926","prefecture":"長崎県","prefecture_kana":"ナガサキケン","city":"佐世保市","city_kana":"サセボシ","town":"大潟町","town_kana":"オオガタチョウ","prefecture_code":42},"0902":{"zip_code":"8580902","prefecture":"長崎県","prefecture_kana":"ナガサキケン","city":"佐世保市","city_kana":"サセボシ","town":"踊石町","town_kana":"オドリイシチョウ","prefecture_code":42},"0965":{"zip_code":"8580965","prefecture":"長崎県","prefecture_kana":"ナガサキケン","city":"佐世保市","city_kana":"サセボシ","town":"小野町（その他）","town_kana":"オノチョウ(ソノタ)","prefecture_code":42},"0922":{"zip_code":"8580922","prefecture":"長崎県","prefecture_kana":"ナガサキケン","city":"佐世保市","city_kana":"サセボシ","town":"鹿子前町","town_kana":"カシマエチョウ","prefecture_code":42},"0915":{"zip_code":"8580915","prefecture":"長崎県","prefecture_kana":"ナガサキケン","city":"佐世保市","city_kana":"サセボシ","town":"上相浦町","town_kana":"カミアイノウラチョウ","prefecture_code":42},"0903":{"zip_code":"8580903","prefecture":"長崎県","prefecture_kana":"ナガサキケン","city":"佐世保市","city_kana":"サセボシ","town":"上本山町","town_kana":"カミモトヤマチョウ","prefecture_code":42},"0914":{"zip_code":"8580914","prefecture":"長崎県","prefecture_kana":"ナガサキケン","city":"佐世保市","city_kana":"サセボシ","town":"川下町","town_kana":"カワシモチョウ","prefecture_code":42},"0916":{"zip_code":"8580916","prefecture":"長崎県","prefecture_kana":"ナガサキケン","city":"佐世保市","city_kana":"サセボシ","town":"木宮町","town_kana":"キノミヤチョウ","prefecture_code":42},"0925":{"zip_code":"8580925","prefecture":"長崎県","prefecture_kana":"ナガサキケン","city":"佐世保市","city_kana":"サセボシ","town":"椎木町","town_kana":"シイノキチョウ","prefecture_code":42},"0905":{"zip_code":"8580905","prefecture":"長崎県","prefecture_kana":"ナガサキケン","city":"佐世保市","city_kana":"サセボシ","town":"下本山町","town_kana":"シモモトヤマチョウ","prefecture_code":42},"0913":{"zip_code":"8580913","prefecture":"長崎県","prefecture_kana":"ナガサキケン","city":"佐世保市","city_kana":"サセボシ","town":"新田町","town_kana":"シンデンチョウ","prefecture_code":42},"0924":{"zip_code":"8580924","prefecture":"長崎県","prefecture_kana":"ナガサキケン","city":"佐世保市","city_kana":"サセボシ","town":"星和台町","town_kana":"セイワダイマチ","prefecture_code":42},"0931":{"zip_code":"8580931","prefecture":"長崎県","prefecture_kana":"ナガサキケン","city":"佐世保市","city_kana":"サセボシ","town":"高島町","town_kana":"タカシマチョウ","prefecture_code":42},"0901":{"zip_code":"8580901","prefecture":"長崎県","prefecture_kana":"ナガサキケン","city":"佐世保市","city_kana":"サセボシ","town":"岳野町","town_kana":"タケノチョウ","prefecture_code":42},"0911":{"zip_code":"8580911","prefecture":"長崎県","prefecture_kana":"ナガサキケン","city":"佐世保市","city_kana":"サセボシ","town":"竹辺町","town_kana":"タケベチョウ","prefecture_code":42},"0907":{"zip_code":"8580907","prefecture":"長崎県","prefecture_kana":"ナガサキケン","city":"佐世保市","city_kana":"サセボシ","town":"棚方町","town_kana":"タナガタチョウ","prefecture_code":42},"0921":{"zip_code":"8580921","prefecture":"長崎県","prefecture_kana":"ナガサキケン","city":"佐世保市","city_kana":"サセボシ","town":"長坂町","town_kana":"ナガサカチョウ","prefecture_code":42},"0904":{"zip_code":"8580904","prefecture":"長崎県","prefecture_kana":"ナガサキケン","city":"佐世保市","city_kana":"サセボシ","town":"中里町","town_kana":"ナカザトチョウ","prefecture_code":42},"0906":{"zip_code":"8580906","prefecture":"長崎県","prefecture_kana":"ナガサキケン","city":"佐世保市","city_kana":"サセボシ","town":"八の久保町","town_kana":"ハチノクボチョウ","prefecture_code":42},"0908":{"zip_code":"8580908","prefecture":"長崎県","prefecture_kana":"ナガサキケン","city":"佐世保市","city_kana":"サセボシ","town":"光町","town_kana":"ヒカリマチ","prefecture_code":42},"0923":{"zip_code":"8580923","prefecture":"長崎県","prefecture_kana":"ナガサキケン","city":"佐世保市","city_kana":"サセボシ","town":"日野町","town_kana":"ヒノチョウ","prefecture_code":42},"0912":{"zip_code":"8580912","prefecture":"長崎県","prefecture_kana":"ナガサキケン","city":"佐世保市","city_kana":"サセボシ","town":"母ケ浦町","town_kana":"ホウガウラチョウ","prefecture_code":42}}