{"0000":[{"zip_code":"8610000","prefecture":"熊本県","prefecture_kana":"クマモトケン","city":"熊本市中央区","city_kana":"クマモトシチュウオウク","town":"以下に掲載がない場合","town_kana":"イカニケイサイガナイバアイ","prefecture_code":43},{"zip_code":"8610000","prefecture":"熊本県","prefecture_kana":"クマモトケン","city":"熊本市東区","city_kana":"クマモトシヒガシク","town":"以下に掲載がない場合","town_kana":"イカニケイサイガナイバアイ","prefecture_code":43},{"zip_code":"8610000","prefecture":"熊本県","prefecture_kana":"クマモトケン","city":"熊本市西区","city_kana":"クマモトシニシク","town":"以下に掲載がない場合","town_kana":"イカニケイサイガナイバアイ","prefecture_code":43},{"zip_code":"8610000","prefecture":"熊本県","prefecture_kana":"クマモトケン","city":"熊本市南区","city_kana":"クマモトシミナミク","town":"以下に掲載がない場合","town_kana":"イカニケイサイガナイバアイ","prefecture_code":43},{"zip_code":"8610000","prefecture":"熊本県","prefecture_kana":"クマモトケン","city":"熊本市北区","city_kana":"クマモトシキタク","town":"以下に掲載がない場合","town_kana":"イカニケイサイガナイバアイ","prefecture_code":43}],"8072":[{"zip_code":"8618072","prefecture":"熊本県","prefecture_kana":"クマモトケン","city":"熊本市中央区","city_kana":"クマモトシチュウオウク","town":"室園町","town_kana":"ムロゾノマチ","prefecture_code":43},{"zip_code":"8618072","prefecture":"熊本県","prefecture_kana":"クマモトケン","city":"熊本市北区","city_kana":"クマモトシキタク","town":"室園町","town_kana":"ムロゾノマチ","prefecture_code":43}],"2104":{"zip_code":"8612104","prefecture":"熊本県","prefecture_kana":"クマモトケン","city":"熊本市東区","city_kana":"クマモトシヒガシク","town":"秋津","town_kana":"アキツ","prefecture_code":43},"2107":{"zip_code":"8612107","prefecture":"熊本県","prefecture_kana":"クマモトケン","city":"熊本市東区","city_kana":"クマモトシヒガシク","town":"秋津新町","town_kana":"アキツシンマチ","prefecture_code":43},"2105":{"zip_code":"8612105","prefecture":"熊本県","prefecture_kana":"クマモトケン","city":"熊本市東区","city_kana":"クマモトシヒガシク","town":"秋津町秋田","town_kana":"アキツマチアキタ","prefecture_code":43},"8046":{"zip_code":"8618046","prefecture":"熊本県","prefecture_kana":"クマモトケン","city":"熊本市東区","city_kana":"クマモトシヒガシク","town":"石原","town_kana":"イシワラ","prefecture_code":43},"8014":{"zip_code":"8618014","prefecture":"熊本県","prefecture_kana":"クマモトケン","city":"熊本市東区","city_kana":"クマモトシヒガシク","town":"石原町","town_kana":"イシワラマチ","prefecture_code":43},"8045":{"zip_code":"8618045","prefecture":"熊本県","prefecture_kana":"クマモトケン","city":"熊本市東区","city_kana":"クマモトシヒガシク","town":"小山","town_kana":"オヤマ","prefecture_code":43},"8030":{"zip_code":"8618030","prefecture":"熊本県","prefecture_kana":"クマモトケン","city":"熊本市東区","city_kana":"クマモトシヒガシク","town":"小山町","town_kana":"オヤママチ","prefecture_code":43},"8011":{"zip_code":"8618011","prefecture":"熊本県","prefecture_kana":"クマモトケン","city":"熊本市東区","city_kana":"クマモトシヒガシク","town":"鹿帰瀬町","town_kana":"カキゼマチ","prefecture_code":43},"8010":{"zip_code":"8618010","prefecture":"熊本県","prefecture_kana":"クマモトケン","city":"熊本市東区","city_kana":"クマモトシヒガシク","town":"上南部","town_kana":"カミナベ","prefecture_code":43},"8017":{"zip_code":"8618017","prefecture":"熊本県","prefecture_kana":"クマモトケン","city":"熊本市東区","city_kana":"クマモトシヒガシク","town":"上南部町","town_kana":"カミナベマチ","prefecture_code":43},"8044":{"zip_code":"8618044","prefecture":"熊本県","prefecture_kana":"クマモトケン","city":"熊本市東区","city_kana":"クマモトシヒガシク","town":"神園","town_kana":"コウゾノ","prefecture_code":43},"8035":{"zip_code":"8618035","prefecture":"熊本県","prefecture_kana":"クマモトケン","city":"熊本市東区","city_kana":"クマモトシヒガシク","town":"御領","town_kana":"ゴリョウ","prefecture_code":43},"2101":{"zip_code":"8612101","prefecture":"熊本県","prefecture_kana":"クマモトケン","city":"熊本市東区","city_kana":"クマモトシヒガシク","town":"桜木","town_kana":"サクラギ","prefecture_code":43},"8019":{"zip_code":"8618019","prefecture":"熊本県","prefecture_kana":"クマモトケン","city":"熊本市東区","city_kana":"クマモトシヒガシク","town":"下南部","town_kana":"シモナベ","prefecture_code":43},"2108":{"zip_code":"8612108","prefecture":"熊本県","prefecture_kana":"クマモトケン","city":"熊本市東区","city_kana":"クマモトシヒガシク","town":"昭和町","town_kana":"ショウワマチ","prefecture_code":43},"8028":{"zip_code":"8618028","prefecture":"熊本県","prefecture_kana":"クマモトケン","city":"熊本市東区","city_kana":"クマモトシヒガシク","town":"新南部","town_kana":"シンナベ","prefecture_code":43},"8041":{"zip_code":"8618041","prefecture":"熊本県","prefecture_kana":"クマモトケン","city":"熊本市東区","city_kana":"クマモトシヒガシク","town":"戸島","town_kana":"トシマ","prefecture_code":43},"8043":{"zip_code":"8618043","prefecture":"熊本県","prefecture_kana":"クマモトケン","city":"熊本市東区","city_kana":"クマモトシヒガシク","town":"戸島西","town_kana":"トシマニシ","prefecture_code":43},"8042":{"zip_code":"8618042","prefecture":"熊本県","prefecture_kana":"クマモトケン","city":"熊本市東区","city_kana":"クマモトシヒガシク","town":"戸島本町","town_kana":"トシマホンマチ","prefecture_code":43},"8031":{"zip_code":"8618031","prefecture":"熊本県","prefecture_kana":"クマモトケン","city":"熊本市東区","city_kana":"クマモトシヒガシク","town":"戸島町","town_kana":"トシママチ","prefecture_code":43},"8015":{"zip_code":"8618015","prefecture":"熊本県","prefecture_kana":"クマモトケン","city":"熊本市東区","city_kana":"クマモトシヒガシク","town":"中江町","town_kana":"ナカエマチ","prefecture_code":43},"8037":{"zip_code":"8618037","prefecture":"熊本県","prefecture_kana":"クマモトケン","city":"熊本市東区","city_kana":"クマモトシヒガシク","town":"長嶺西","town_kana":"ナガミネニシ","prefecture_code":43},"8038":{"zip_code":"8618038","prefecture":"熊本県","prefecture_kana":"クマモトケン","city":"熊本市東区","city_kana":"クマモトシヒガシク","town":"長嶺東","town_kana":"ナガミネヒガシ","prefecture_code":43},"8039":{"zip_code":"8618039","prefecture":"熊本県","prefecture_kana":"クマモトケン","city":"熊本市東区","city_kana":"クマモトシヒガシク","town":"長嶺南","town_kana":"ナガミネミナミ","prefecture_code":43},"8029":{"zip_code":"8618029","prefecture":"熊本県","prefecture_kana":"クマモトケン","city":"熊本市東区","city_kana":"クマモトシヒガシク","town":"西原","town_kana":"ニシバル","prefecture_code":43},"2102":{"zip_code":"8612102","prefecture":"熊本県","prefecture_kana":"クマモトケン","city":"熊本市東区","city_kana":"クマモトシヒガシク","town":"沼山津","town_kana":"ヌヤマヅ","prefecture_code":43},"8034":{"zip_code":"8618034","prefecture":"熊本県","prefecture_kana":"クマモトケン","city":"熊本市東区","city_kana":"クマモトシヒガシク","town":"八反田","town_kana":"ハッタンダ","prefecture_code":43},"2118":{"zip_code":"8612118","prefecture":"熊本県","prefecture_kana":"クマモトケン","city":"熊本市東区","city_kana":"クマモトシヒガシク","town":"花立（１〜４丁目）","town_kana":"ハナタテ(1-4チョウメ)","prefecture_code":43},"2106":{"zip_code":"8612106","prefecture":"熊本県","prefecture_kana":"クマモトケン","city":"熊本市東区","city_kana":"クマモトシヒガシク","town":"東野","town_kana":"ヒガシノ","prefecture_code":43},"8012":{"zip_code":"8618012","prefecture":"熊本県","prefecture_kana":"クマモトケン","city":"熊本市東区","city_kana":"クマモトシヒガシク","town":"平山町","town_kana":"ヒラヤママチ","prefecture_code":43},"8013":{"zip_code":"8618013","prefecture":"熊本県","prefecture_kana":"クマモトケン","city":"熊本市東区","city_kana":"クマモトシヒガシク","town":"弓削町","town_kana":"ユゲマチ","prefecture_code":43},"8016":{"zip_code":"8618016","prefecture":"熊本県","prefecture_kana":"クマモトケン","city":"熊本市東区","city_kana":"クマモトシヒガシク","town":"吉原町","town_kana":"ヨシワラマチ","prefecture_code":43},"2103":{"zip_code":"8612103","prefecture":"熊本県","prefecture_kana":"クマモトケン","city":"熊本市東区","city_kana":"クマモトシヒガシク","town":"若葉（４〜６丁目）","town_kana":"ワカバ(4-6チョウメ)","prefecture_code":43},"5273":{"zip_code":"8615273","prefecture":"熊本県","prefecture_kana":"クマモトケン","city":"熊本市西区","city_kana":"クマモトシニシク","town":"沖新町","town_kana":"オキシンマチ","prefecture_code":43},"5287":{"zip_code":"8615287","prefecture":"熊本県","prefecture_kana":"クマモトケン","city":"熊本市西区","city_kana":"クマモトシニシク","town":"小島","town_kana":"オシマ","prefecture_code":43},"5285":{"zip_code":"8615285","prefecture":"熊本県","prefecture_kana":"クマモトケン","city":"熊本市西区","city_kana":"クマモトシニシク","town":"小島上町","town_kana":"オシマカミマチ","prefecture_code":43},"5284":{"zip_code":"8615284","prefecture":"熊本県","prefecture_kana":"クマモトケン","city":"熊本市西区","city_kana":"クマモトシニシク","town":"小島下町","town_kana":"オシマシモマチ","prefecture_code":43},"5289":{"zip_code":"8615289","prefecture":"熊本県","prefecture_kana":"クマモトケン","city":"熊本市西区","city_kana":"クマモトシニシク","town":"上松尾町","town_kana":"カミマツオマチ","prefecture_code":43},"5341":{"zip_code":"8615341","prefecture":"熊本県","prefecture_kana":"クマモトケン","city":"熊本市西区","city_kana":"クマモトシニシク","town":"河内町大多尾","town_kana":"カワチマチオオタオ","prefecture_code":43},"5345":{"zip_code":"8615345","prefecture":"熊本県","prefecture_kana":"クマモトケン","city":"熊本市西区","city_kana":"クマモトシニシク","town":"河内町面木","town_kana":"カワチマチオモノギ","prefecture_code":43},"5346":{"zip_code":"8615346","prefecture":"熊本県","prefecture_kana":"クマモトケン","city":"熊本市西区","city_kana":"クマモトシニシク","town":"河内町河内","town_kana":"カワチマチカワチ","prefecture_code":43},"5348":{"zip_code":"8615348","prefecture":"熊本県","prefecture_kana":"クマモトケン","city":"熊本市西区","city_kana":"クマモトシニシク","town":"河内町白浜","town_kana":"カワチマチシラハマ","prefecture_code":43},"5344":{"zip_code":"8615344","prefecture":"熊本県","prefecture_kana":"クマモトケン","city":"熊本市西区","city_kana":"クマモトシニシク","town":"河内町岳","town_kana":"カワチマチタケ","prefecture_code":43},"5342":{"zip_code":"8615342","prefecture":"熊本県","prefecture_kana":"クマモトケン","city":"熊本市西区","city_kana":"クマモトシニシク","town":"河内町東門寺","town_kana":"カワチマチトウモンジ","prefecture_code":43},"5343":{"zip_code":"8615343","prefecture":"熊本県","prefecture_kana":"クマモトケン","city":"熊本市西区","city_kana":"クマモトシニシク","town":"河内町野出","town_kana":"カワチマチノイデ","prefecture_code":43},"5347":{"zip_code":"8615347","prefecture":"熊本県","prefecture_kana":"クマモトケン","city":"熊本市西区","city_kana":"クマモトシニシク","town":"河内町船津","town_kana":"カワチマチフナツ","prefecture_code":43},"5274":{"zip_code":"8615274","prefecture":"熊本県","prefecture_kana":"クマモトケン","city":"熊本市西区","city_kana":"クマモトシニシク","town":"新港","town_kana":"シンミナト","prefecture_code":43},"5272":{"zip_code":"8615272","prefecture":"熊本県","prefecture_kana":"クマモトケン","city":"熊本市西区","city_kana":"クマモトシニシク","town":"中島町","town_kana":"ナカシママチ","prefecture_code":43},"5271":{"zip_code":"8615271","prefecture":"熊本県","prefecture_kana":"クマモトケン","city":"熊本市西区","city_kana":"クマモトシニシク","town":"中原町","town_kana":"ナカハラマチ","prefecture_code":43},"5286":{"zip_code":"8615286","prefecture":"熊本県","prefecture_kana":"クマモトケン","city":"熊本市西区","city_kana":"クマモトシニシク","town":"中松尾町","town_kana":"ナカマツオマチ","prefecture_code":43},"5288":{"zip_code":"8615288","prefecture":"熊本県","prefecture_kana":"クマモトケン","city":"熊本市西区","city_kana":"クマモトシニシク","town":"西松尾町","town_kana":"ニシマツオマチ","prefecture_code":43},"5280":{"zip_code":"8615280","prefecture":"熊本県","prefecture_kana":"クマモトケン","city":"熊本市西区","city_kana":"クマモトシニシク","town":"松尾","town_kana":"マツオ","prefecture_code":43},"5281":{"zip_code":"8615281","prefecture":"熊本県","prefecture_kana":"クマモトケン","city":"熊本市西区","city_kana":"クマモトシニシク","town":"松尾町近津","town_kana":"マツオマチチコウヅ","prefecture_code":43},"5282":{"zip_code":"8615282","prefecture":"熊本県","prefecture_kana":"クマモトケン","city":"熊本市西区","city_kana":"クマモトシニシク","town":"松尾町平山","town_kana":"マツオマチヒラヤマ","prefecture_code":43},"4121":{"zip_code":"8614121","prefecture":"熊本県","prefecture_kana":"クマモトケン","city":"熊本市南区","city_kana":"クマモトシミナミク","town":"会富町","town_kana":"アイドミマチ","prefecture_code":43},"4136":[{"zip_code":"8614136","prefecture":"熊本県","prefecture_kana":"クマモトケン","city":"熊本市南区","city_kana":"クマモトシミナミク","town":"荒尾","town_kana":"アラオ","prefecture_code":43},{"zip_code":"8614136","prefecture":"熊本県","prefecture_kana":"クマモトケン","city":"熊本市南区","city_kana":"クマモトシミナミク","town":"荒尾町","town_kana":"アラオマチ","prefecture_code":43}],"5251":{"zip_code":"8615251","prefecture":"熊本県","prefecture_kana":"クマモトケン","city":"熊本市南区","city_kana":"クマモトシミナミク","town":"今町","town_kana":"イママチ","prefecture_code":43},"4124":{"zip_code":"8614124","prefecture":"熊本県","prefecture_kana":"クマモトケン","city":"熊本市南区","city_kana":"クマモトシミナミク","town":"海路口町","town_kana":"ウジグチマチ","prefecture_code":43},"4131":[{"zip_code":"8614131","prefecture":"熊本県","prefecture_kana":"クマモトケン","city":"熊本市南区","city_kana":"クマモトシミナミク","town":"薄場","town_kana":"ウスバ","prefecture_code":43},{"zip_code":"8614131","prefecture":"熊本県","prefecture_kana":"クマモトケン","city":"熊本市南区","city_kana":"クマモトシミナミク","town":"薄場町","town_kana":"ウスバマチ","prefecture_code":43}],"4127":{"zip_code":"8614127","prefecture":"熊本県","prefecture_kana":"クマモトケン","city":"熊本市南区","city_kana":"クマモトシミナミク","town":"内田町","town_kana":"ウチダマチ","prefecture_code":43},"4125":{"zip_code":"8614125","prefecture":"熊本県","prefecture_kana":"クマモトケン","city":"熊本市南区","city_kana":"クマモトシミナミク","town":"奥古閑町","town_kana":"オクコガマチ","prefecture_code":43},"4132":{"zip_code":"8614132","prefecture":"熊本県","prefecture_kana":"クマモトケン","city":"熊本市南区","city_kana":"クマモトシミナミク","town":"上ノ郷","town_kana":"カミノゴウ","prefecture_code":43},"4134":{"zip_code":"8614134","prefecture":"熊本県","prefecture_kana":"クマモトケン","city":"熊本市南区","city_kana":"クマモトシミナミク","town":"刈草","town_kana":"カリクサ","prefecture_code":43},"4123":{"zip_code":"8614123","prefecture":"熊本県","prefecture_kana":"クマモトケン","city":"熊本市南区","city_kana":"クマモトシミナミク","town":"川口町","town_kana":"カワグチマチ","prefecture_code":43},"4115":{"zip_code":"8614115","prefecture":"熊本県","prefecture_kana":"クマモトケン","city":"熊本市南区","city_kana":"クマモトシミナミク","town":"川尻","town_kana":"カワシリ","prefecture_code":43},"4111":{"zip_code":"8614111","prefecture":"熊本県","prefecture_kana":"クマモトケン","city":"熊本市南区","city_kana":"クマモトシミナミク","town":"合志","town_kana":"ゴウシ","prefecture_code":43},"4108":{"zip_code":"8614108","prefecture":"熊本県","prefecture_kana":"クマモトケン","city":"熊本市南区","city_kana":"クマモトシミナミク","town":"幸田","town_kana":"コウダ","prefecture_code":43},"4117":{"zip_code":"8614117","prefecture":"熊本県","prefecture_kana":"クマモトケン","city":"熊本市南区","city_kana":"クマモトシミナミク","town":"護藤町","town_kana":"ゴンドウマチ","prefecture_code":43},"4133":{"zip_code":"8614133","prefecture":"熊本県","prefecture_kana":"クマモトケン","city":"熊本市南区","city_kana":"クマモトシミナミク","town":"島町","town_kana":"シママチ","prefecture_code":43},"4231":{"zip_code":"8614231","prefecture":"熊本県","prefecture_kana":"クマモトケン","city":"熊本市南区","city_kana":"クマモトシミナミク","town":"城南町赤見","town_kana":"ジョウナンマチアカミ","prefecture_code":43},"4224":{"zip_code":"8614224","prefecture":"熊本県","prefecture_kana":"クマモトケン","city":"熊本市南区","city_kana":"クマモトシミナミク","town":"城南町阿高","town_kana":"ジョウナンマチアダカ","prefecture_code":43},"4205":{"zip_code":"8614205","prefecture":"熊本県","prefecture_kana":"クマモトケン","city":"熊本市南区","city_kana":"クマモトシミナミク","town":"城南町碇","town_kana":"ジョウナンマチイカリ","prefecture_code":43},"4213":{"zip_code":"8614213","prefecture":"熊本県","prefecture_kana":"クマモトケン","city":"熊本市南区","city_kana":"クマモトシミナミク","town":"城南町出水","town_kana":"ジョウナンマチイズミ","prefecture_code":43},"4211":{"zip_code":"8614211","prefecture":"熊本県","prefecture_kana":"クマモトケン","city":"熊本市南区","city_kana":"クマモトシミナミク","town":"城南町今吉野","town_kana":"ジョウナンマチイマヨシノ","prefecture_code":43},"4203":{"zip_code":"8614203","prefecture":"熊本県","prefecture_kana":"クマモトケン","city":"熊本市南区","city_kana":"クマモトシミナミク","town":"城南町隈庄","town_kana":"ジョウナンマチクマノショウ","prefecture_code":43},"4201":{"zip_code":"8614201","prefecture":"熊本県","prefecture_kana":"クマモトケン","city":"熊本市南区","city_kana":"クマモトシミナミク","town":"城南町坂野","town_kana":"ジョウナンマチサカノ","prefecture_code":43},"4206":{"zip_code":"8614206","prefecture":"熊本県","prefecture_kana":"クマモトケン","city":"熊本市南区","city_kana":"クマモトシミナミク","town":"城南町さんさん","town_kana":"ジョウナンマチサンサン","prefecture_code":43},"4215":{"zip_code":"8614215","prefecture":"熊本県","prefecture_kana":"クマモトケン","city":"熊本市南区","city_kana":"クマモトシミナミク","town":"城南町沈目","town_kana":"ジョウナンマチシズメ","prefecture_code":43},"4236":{"zip_code":"8614236","prefecture":"熊本県","prefecture_kana":"クマモトケン","city":"熊本市南区","city_kana":"クマモトシミナミク","town":"城南町島田","town_kana":"ジョウナンマチシマダ","prefecture_code":43},"4204":{"zip_code":"8614204","prefecture":"熊本県","prefecture_kana":"クマモトケン","city":"熊本市南区","city_kana":"クマモトシミナミク","town":"城南町下宮地","town_kana":"ジョウナンマチシモミヤジ","prefecture_code":43},"4221":{"zip_code":"8614221","prefecture":"熊本県","prefecture_kana":"クマモトケン","city":"熊本市南区","city_kana":"クマモトシミナミク","town":"城南町陳内","town_kana":"ジョウナンマチジンナイ","prefecture_code":43},"4232":{"zip_code":"8614232","prefecture":"熊本県","prefecture_kana":"クマモトケン","city":"熊本市南区","city_kana":"クマモトシミナミク","town":"城南町高","town_kana":"ジョウナンマチタカ","prefecture_code":43},"4235":{"zip_code":"8614235","prefecture":"熊本県","prefecture_kana":"クマモトケン","city":"熊本市南区","city_kana":"クマモトシミナミク","town":"城南町千町","town_kana":"ジョウナンマチチマチ","prefecture_code":43},"4212":{"zip_code":"8614212","prefecture":"熊本県","prefecture_kana":"クマモトケン","city":"熊本市南区","city_kana":"クマモトシミナミク","town":"城南町築地","town_kana":"ジョウナンマチツイジ","prefecture_code":43},"4226":{"zip_code":"8614226","prefecture":"熊本県","prefecture_kana":"クマモトケン","city":"熊本市南区","city_kana":"クマモトシミナミク","town":"城南町塚原","town_kana":"ジョウナンマチツカワラ","prefecture_code":43},"4234":{"zip_code":"8614234","prefecture":"熊本県","prefecture_kana":"クマモトケン","city":"熊本市南区","city_kana":"クマモトシミナミク","town":"城南町永","town_kana":"ジョウナンマチナガ","prefecture_code":43},"4233":{"zip_code":"8614233","prefecture":"熊本県","prefecture_kana":"クマモトケン","city":"熊本市南区","city_kana":"クマモトシミナミク","town":"城南町丹生宮","town_kana":"ジョウナンマチニウノミヤ","prefecture_code":43},"4225":{"zip_code":"8614225","prefecture":"熊本県","prefecture_kana":"クマモトケン","city":"熊本市南区","city_kana":"クマモトシミナミク","town":"城南町東阿高","town_kana":"ジョウナンマチヒガシアダカ","prefecture_code":43},"4223":{"zip_code":"8614223","prefecture":"熊本県","prefecture_kana":"クマモトケン","city":"熊本市南区","city_kana":"クマモトシミナミク","town":"城南町藤山","town_kana":"ジョウナンマチフジヤマ","prefecture_code":43},"4214":{"zip_code":"8614214","prefecture":"熊本県","prefecture_kana":"クマモトケン","city":"熊本市南区","city_kana":"クマモトシミナミク","town":"城南町舞原","town_kana":"ジョウナンマチマイノハラ","prefecture_code":43},"4202":{"zip_code":"8614202","prefecture":"熊本県","prefecture_kana":"クマモトケン","city":"熊本市南区","city_kana":"クマモトシミナミク","town":"城南町宮地","town_kana":"ジョウナンマチミヤジ","prefecture_code":43},"4237":{"zip_code":"8614237","prefecture":"熊本県","prefecture_kana":"クマモトケン","city":"熊本市南区","city_kana":"クマモトシミナミク","town":"城南町六田","town_kana":"ジョウナンマチロクタ","prefecture_code":43},"4222":{"zip_code":"8614222","prefecture":"熊本県","prefecture_kana":"クマモトケン","city":"熊本市南区","city_kana":"クマモトシミナミク","town":"城南町鰐瀬","town_kana":"ジョウナンマチワニゼ","prefecture_code":43},"4112":{"zip_code":"8614112","prefecture":"熊本県","prefecture_kana":"クマモトケン","city":"熊本市南区","city_kana":"クマモトシミナミク","town":"白藤","town_kana":"シラフジ","prefecture_code":43},"5264":{"zip_code":"8615264","prefecture":"熊本県","prefecture_kana":"クマモトケン","city":"熊本市南区","city_kana":"クマモトシミナミク","town":"白石町","town_kana":"シロイシマチ","prefecture_code":43},"5255":{"zip_code":"8615255","prefecture":"熊本県","prefecture_kana":"クマモトケン","city":"熊本市南区","city_kana":"クマモトシミナミク","town":"砂原町","town_kana":"スナハラマチ","prefecture_code":43},"4126":{"zip_code":"8614126","prefecture":"熊本県","prefecture_kana":"クマモトケン","city":"熊本市南区","city_kana":"クマモトシミナミク","town":"銭塘町","town_kana":"ゼンドモマチ","prefecture_code":43},"4101":{"zip_code":"8614101","prefecture":"熊本県","prefecture_kana":"クマモトケン","city":"熊本市南区","city_kana":"クマモトシミナミク","town":"近見","town_kana":"チカミ","prefecture_code":43},"5252":{"zip_code":"8615252","prefecture":"熊本県","prefecture_kana":"クマモトケン","city":"熊本市南区","city_kana":"クマモトシミナミク","town":"土河原町","town_kana":"トガワラマチ","prefecture_code":43},"4135":{"zip_code":"8614135","prefecture":"熊本県","prefecture_kana":"クマモトケン","city":"熊本市南区","city_kana":"クマモトシミナミク","town":"鳶町","town_kana":"トビマチ","prefecture_code":43},"4146":{"zip_code":"8614146","prefecture":"熊本県","prefecture_kana":"クマモトケン","city":"熊本市南区","city_kana":"クマモトシミナミク","town":"富合町榎津","town_kana":"トミアイマチエノキヅ","prefecture_code":43},"4145":{"zip_code":"8614145","prefecture":"熊本県","prefecture_kana":"クマモトケン","city":"熊本市南区","city_kana":"クマモトシミナミク","town":"富合町大町","town_kana":"トミアイマチオオマチ","prefecture_code":43},"4141":{"zip_code":"8614141","prefecture":"熊本県","prefecture_kana":"クマモトケン","city":"熊本市南区","city_kana":"クマモトシミナミク","town":"富合町御船手","town_kana":"トミアイマチオフナテ","prefecture_code":43},"4165":{"zip_code":"8614165","prefecture":"熊本県","prefecture_kana":"クマモトケン","city":"熊本市南区","city_kana":"クマモトシミナミク","town":"富合町硴江","town_kana":"トミアイマチカキノエ","prefecture_code":43},"4143":{"zip_code":"8614143","prefecture":"熊本県","prefecture_kana":"クマモトケン","city":"熊本市南区","city_kana":"クマモトシミナミク","town":"富合町上杉","town_kana":"トミアイマチカミスギ","prefecture_code":43},"4151":{"zip_code":"8614151","prefecture":"熊本県","prefecture_kana":"クマモトケン","city":"熊本市南区","city_kana":"クマモトシミナミク","town":"富合町清藤","town_kana":"トミアイマチキヨフジ","prefecture_code":43},"4153":{"zip_code":"8614153","prefecture":"熊本県","prefecture_kana":"クマモトケン","city":"熊本市南区","city_kana":"クマモトシミナミク","town":"富合町木原","town_kana":"トミアイマチキワラ","prefecture_code":43},"4161":{"zip_code":"8614161","prefecture":"熊本県","prefecture_kana":"クマモトケン","city":"熊本市南区","city_kana":"クマモトシミナミク","town":"富合町小岩瀬","town_kana":"トミアイマチコイワセ","prefecture_code":43},"4166":{"zip_code":"8614166","prefecture":"熊本県","prefecture_kana":"クマモトケン","city":"熊本市南区","city_kana":"クマモトシミナミク","town":"富合町莎崎","town_kana":"トミアイマチコウザキ","prefecture_code":43},"4157":{"zip_code":"8614157","prefecture":"熊本県","prefecture_kana":"クマモトケン","city":"熊本市南区","city_kana":"クマモトシミナミク","town":"富合町古閑","town_kana":"トミアイマチコガ","prefecture_code":43},"4162":{"zip_code":"8614162","prefecture":"熊本県","prefecture_kana":"クマモトケン","city":"熊本市南区","city_kana":"クマモトシミナミク","town":"富合町国町","town_kana":"トミアイマチコクチョウ","prefecture_code":43},"4167":{"zip_code":"8614167","prefecture":"熊本県","prefecture_kana":"クマモトケン","city":"熊本市南区","city_kana":"クマモトシミナミク","town":"富合町菰江","town_kana":"トミアイマチコモノエ","prefecture_code":43},"4163":{"zip_code":"8614163","prefecture":"熊本県","prefecture_kana":"クマモトケン","city":"熊本市南区","city_kana":"クマモトシミナミク","town":"富合町志々水","town_kana":"トミアイマチシジミズ","prefecture_code":43},"4144":{"zip_code":"8614144","prefecture":"熊本県","prefecture_kana":"クマモトケン","city":"熊本市南区","city_kana":"クマモトシミナミク","town":"富合町釈迦堂","town_kana":"トミアイマチシャカドウ","prefecture_code":43},"4152":{"zip_code":"8614152","prefecture":"熊本県","prefecture_kana":"クマモトケン","city":"熊本市南区","city_kana":"クマモトシミナミク","town":"富合町新","town_kana":"トミアイマチシン","prefecture_code":43},"4142":{"zip_code":"8614142","prefecture":"熊本県","prefecture_kana":"クマモトケン","city":"熊本市南区","city_kana":"クマモトシミナミク","town":"富合町杉島","town_kana":"トミアイマチスギジマ","prefecture_code":43},"4156":{"zip_code":"8614156","prefecture":"熊本県","prefecture_kana":"クマモトケン","city":"熊本市南区","city_kana":"クマモトシミナミク","town":"富合町田尻","town_kana":"トミアイマチタノシリ","prefecture_code":43},"4164":{"zip_code":"8614164","prefecture":"熊本県","prefecture_kana":"クマモトケン","city":"熊本市南区","city_kana":"クマモトシミナミク","town":"富合町西田尻","town_kana":"トミアイマチニシタノシリ","prefecture_code":43},"4154":{"zip_code":"8614154","prefecture":"熊本県","prefecture_kana":"クマモトケン","city":"熊本市南区","city_kana":"クマモトシミナミク","town":"富合町平原","town_kana":"トミアイマチヒラバル","prefecture_code":43},"4147":{"zip_code":"8614147","prefecture":"熊本県","prefecture_kana":"クマモトケン","city":"熊本市南区","city_kana":"クマモトシミナミク","town":"富合町廻江","town_kana":"トミアイマチマイノエ","prefecture_code":43},"4155":{"zip_code":"8614155","prefecture":"熊本県","prefecture_kana":"クマモトケン","city":"熊本市南区","city_kana":"クマモトシミナミク","town":"富合町南田尻","town_kana":"トミアイマチミナミタノシリ","prefecture_code":43},"4116":{"zip_code":"8614116","prefecture":"熊本県","prefecture_kana":"クマモトケン","city":"熊本市南区","city_kana":"クマモトシミナミク","town":"中無田町","town_kana":"ナカムタマチ","prefecture_code":43},"5263":{"zip_code":"8615263","prefecture":"熊本県","prefecture_kana":"クマモトケン","city":"熊本市南区","city_kana":"クマモトシミナミク","town":"並建町","town_kana":"ナミタテマチ","prefecture_code":43},"4137":[{"zip_code":"8614137","prefecture":"熊本県","prefecture_kana":"クマモトケン","city":"熊本市南区","city_kana":"クマモトシミナミク","town":"野口","town_kana":"ノグチ","prefecture_code":43},{"zip_code":"8614137","prefecture":"熊本県","prefecture_kana":"クマモトケン","city":"熊本市南区","city_kana":"クマモトシミナミク","town":"野口町","town_kana":"ノグチマチ","prefecture_code":43}],"4114":{"zip_code":"8614114","prefecture":"熊本県","prefecture_kana":"クマモトケン","city":"熊本市南区","city_kana":"クマモトシミナミク","town":"野田","town_kana":"ノダ","prefecture_code":43},"5265":{"zip_code":"8615265","prefecture":"熊本県","prefecture_kana":"クマモトケン","city":"熊本市南区","city_kana":"クマモトシミナミク","town":"畠口町","town_kana":"ハタグチマチ","prefecture_code":43},"5253":{"zip_code":"8615253","prefecture":"熊本県","prefecture_kana":"クマモトケン","city":"熊本市南区","city_kana":"クマモトシミナミク","town":"八分字町","town_kana":"ハフジマチ","prefecture_code":43},"5262":{"zip_code":"8615262","prefecture":"熊本県","prefecture_kana":"クマモトケン","city":"熊本市南区","city_kana":"クマモトシミナミク","town":"浜口町","town_kana":"ハマグチマチ","prefecture_code":43},"4109":{"zip_code":"8614109","prefecture":"熊本県","prefecture_kana":"クマモトケン","city":"熊本市南区","city_kana":"クマモトシミナミク","town":"日吉","town_kana":"ヒヨシ","prefecture_code":43},"5254":{"zip_code":"8615254","prefecture":"熊本県","prefecture_kana":"クマモトケン","city":"熊本市南区","city_kana":"クマモトシミナミク","town":"孫代町","town_kana":"マゴダイマチ","prefecture_code":43},"4122":{"zip_code":"8614122","prefecture":"熊本県","prefecture_kana":"クマモトケン","city":"熊本市南区","city_kana":"クマモトシミナミク","town":"美登里町","town_kana":"ミドリマチ","prefecture_code":43},"4106":{"zip_code":"8614106","prefecture":"熊本県","prefecture_kana":"クマモトケン","city":"熊本市南区","city_kana":"クマモトシミナミク","town":"南高江","town_kana":"ミナミタカエ","prefecture_code":43},"4104":{"zip_code":"8614104","prefecture":"熊本県","prefecture_kana":"クマモトケン","city":"熊本市南区","city_kana":"クマモトシミナミク","town":"御幸木部町","town_kana":"ミユキキベマチ","prefecture_code":43},"4102":{"zip_code":"8614102","prefecture":"熊本県","prefecture_kana":"クマモトケン","city":"熊本市南区","city_kana":"クマモトシミナミク","town":"御幸西無田町","town_kana":"ミユキニシムタマチ","prefecture_code":43},"4103":{"zip_code":"8614103","prefecture":"熊本県","prefecture_kana":"クマモトケン","city":"熊本市南区","city_kana":"クマモトシミナミク","town":"御幸笛田町","town_kana":"ミユキフエダマチ","prefecture_code":43},"4173":{"zip_code":"8614173","prefecture":"熊本県","prefecture_kana":"クマモトケン","city":"熊本市南区","city_kana":"クマモトシミナミク","town":"御幸木部","town_kana":"ミユキキベ","prefecture_code":43},"4171":{"zip_code":"8614171","prefecture":"熊本県","prefecture_kana":"クマモトケン","city":"熊本市南区","city_kana":"クマモトシミナミク","town":"御幸西","town_kana":"ミユキニシ","prefecture_code":43},"4172":{"zip_code":"8614172","prefecture":"熊本県","prefecture_kana":"クマモトケン","city":"熊本市南区","city_kana":"クマモトシミナミク","town":"御幸笛田","town_kana":"ミユキフエダ","prefecture_code":43},"5261":{"zip_code":"8615261","prefecture":"熊本県","prefecture_kana":"クマモトケン","city":"熊本市南区","city_kana":"クマモトシミナミク","town":"無田口町","town_kana":"ムタグチマチ","prefecture_code":43},"4105":{"zip_code":"8614105","prefecture":"熊本県","prefecture_kana":"クマモトケン","city":"熊本市南区","city_kana":"クマモトシミナミク","town":"元三町","town_kana":"モトミマチ","prefecture_code":43},"4113":{"zip_code":"8614113","prefecture":"熊本県","prefecture_kana":"クマモトケン","city":"熊本市南区","city_kana":"クマモトシミナミク","town":"八幡","town_kana":"ヤハタ","prefecture_code":43},"8081":{"zip_code":"8618081","prefecture":"熊本県","prefecture_kana":"クマモトケン","city":"熊本市北区","city_kana":"クマモトシキタク","town":"麻生田","town_kana":"アソウダ","prefecture_code":43},"5501":{"zip_code":"8615501","prefecture":"熊本県","prefecture_kana":"クマモトケン","city":"熊本市北区","city_kana":"クマモトシキタク","town":"改寄町","town_kana":"アラキマチ","prefecture_code":43},"5533":{"zip_code":"8615533","prefecture":"熊本県","prefecture_kana":"クマモトケン","city":"熊本市北区","city_kana":"クマモトシキタク","town":"和泉町","town_kana":"イズミマチ","prefecture_code":43},"0142":{"zip_code":"8610142","prefecture":"熊本県","prefecture_kana":"クマモトケン","city":"熊本市北区","city_kana":"クマモトシキタク","town":"植木町鐙田","town_kana":"ウエキマチアブミダ","prefecture_code":43},"0123":{"zip_code":"8610123","prefecture":"熊本県","prefecture_kana":"クマモトケン","city":"熊本市北区","city_kana":"クマモトシキタク","town":"植木町有泉","town_kana":"ウエキマチアリズミ","prefecture_code":43},"0124":{"zip_code":"8610124","prefecture":"熊本県","prefecture_kana":"クマモトケン","city":"熊本市北区","city_kana":"クマモトシキタク","town":"植木町石川","town_kana":"ウエキマチイシカワ","prefecture_code":43},"0113":{"zip_code":"8610113","prefecture":"熊本県","prefecture_kana":"クマモトケン","city":"熊本市北区","city_kana":"クマモトシキタク","town":"植木町伊知坊","town_kana":"ウエキマチイチボウ","prefecture_code":43},"0104":{"zip_code":"8610104","prefecture":"熊本県","prefecture_kana":"クマモトケン","city":"熊本市北区","city_kana":"クマモトシキタク","town":"植木町今藤","town_kana":"ウエキマチイマフジ","prefecture_code":43},"0136":{"zip_code":"8610136","prefecture":"熊本県","prefecture_kana":"クマモトケン","city":"熊本市北区","city_kana":"クマモトシキタク","town":"植木町岩野","town_kana":"ウエキマチイワノ","prefecture_code":43},"0132":{"zip_code":"8610132","prefecture":"熊本県","prefecture_kana":"クマモトケン","city":"熊本市北区","city_kana":"クマモトシキタク","town":"植木町植木","town_kana":"ウエキマチウエキ","prefecture_code":43},"0152":{"zip_code":"8610152","prefecture":"熊本県","prefecture_kana":"クマモトケン","city":"熊本市北区","city_kana":"クマモトシキタク","town":"植木町上古閑","town_kana":"ウエキマチウエコガ","prefecture_code":43},"0156":{"zip_code":"8610156","prefecture":"熊本県","prefecture_kana":"クマモトケン","city":"熊本市北区","city_kana":"クマモトシキタク","town":"植木町後古閑","town_kana":"ウエキマチウシロコガ","prefecture_code":43},"0102":{"zip_code":"8610102","prefecture":"熊本県","prefecture_kana":"クマモトケン","city":"熊本市北区","city_kana":"クマモトシキタク","town":"植木町内","town_kana":"ウエキマチウチ","prefecture_code":43},"0153":{"zip_code":"8610153","prefecture":"熊本県","prefecture_kana":"クマモトケン","city":"熊本市北区","city_kana":"クマモトシキタク","town":"植木町円台寺","town_kana":"ウエキマチエンダイジ","prefecture_code":43},"0126":{"zip_code":"8610126","prefecture":"熊本県","prefecture_kana":"クマモトケン","city":"熊本市北区","city_kana":"クマモトシキタク","town":"植木町大井","town_kana":"ウエキマチオオイ","prefecture_code":43},"0145":{"zip_code":"8610145","prefecture":"熊本県","prefecture_kana":"クマモトケン","city":"熊本市北区","city_kana":"クマモトシキタク","town":"植木町荻迫","town_kana":"ウエキマチオギサコ","prefecture_code":43},"0125":{"zip_code":"8610125","prefecture":"熊本県","prefecture_kana":"クマモトケン","city":"熊本市北区","city_kana":"クマモトシキタク","town":"植木町小野","town_kana":"ウエキマチオノ","prefecture_code":43},"0127":{"zip_code":"8610127","prefecture":"熊本県","prefecture_kana":"クマモトケン","city":"熊本市北区","city_kana":"クマモトシキタク","town":"植木町亀甲","town_kana":"ウエキマチカメコウ","prefecture_code":43},"0151":{"zip_code":"8610151","prefecture":"熊本県","prefecture_kana":"クマモトケン","city":"熊本市北区","city_kana":"クマモトシキタク","town":"植木町木留","town_kana":"ウエキマチキトメ","prefecture_code":43},"0103":{"zip_code":"8610103","prefecture":"熊本県","prefecture_kana":"クマモトケン","city":"熊本市北区","city_kana":"クマモトシキタク","town":"植木町清水","town_kana":"ウエキマチキヨミズ","prefecture_code":43},"0161":{"zip_code":"8610161","prefecture":"熊本県","prefecture_kana":"クマモトケン","city":"熊本市北区","city_kana":"クマモトシキタク","town":"植木町鞍掛","town_kana":"ウエキマチクラカケ","prefecture_code":43},"0122":{"zip_code":"8610122","prefecture":"熊本県","prefecture_kana":"クマモトケン","city":"熊本市北区","city_kana":"クマモトシキタク","town":"植木町古閑","town_kana":"ウエキマチコガ","prefecture_code":43},"0116":{"zip_code":"8610116","prefecture":"熊本県","prefecture_kana":"クマモトケン","city":"熊本市北区","city_kana":"クマモトシキタク","town":"植木町色出","town_kana":"ウエキマチシキデ","prefecture_code":43},"0117":{"zip_code":"8610117","prefecture":"熊本県","prefecture_kana":"クマモトケン","city":"熊本市北区","city_kana":"クマモトシキタク","town":"植木町正清","town_kana":"ウエキマチショウセイ","prefecture_code":43},"0164":{"zip_code":"8610164","prefecture":"熊本県","prefecture_kana":"クマモトケン","city":"熊本市北区","city_kana":"クマモトシキタク","town":"植木町鈴麦","town_kana":"ウエキマチスズムギ","prefecture_code":43},"0143":{"zip_code":"8610143","prefecture":"熊本県","prefecture_kana":"クマモトケン","city":"熊本市北区","city_kana":"クマモトシキタク","town":"植木町大和","town_kana":"ウエキマチダイワ","prefecture_code":43},"0112":{"zip_code":"8610112","prefecture":"熊本県","prefecture_kana":"クマモトケン","city":"熊本市北区","city_kana":"クマモトシキタク","town":"植木町田底","town_kana":"ウエキマチタソコ","prefecture_code":43},"0133":{"zip_code":"8610133","prefecture":"熊本県","prefecture_kana":"クマモトケン","city":"熊本市北区","city_kana":"クマモトシキタク","town":"植木町滴水","town_kana":"ウエキマチタルミズ","prefecture_code":43},"0155":{"zip_code":"8610155","prefecture":"熊本県","prefecture_kana":"クマモトケン","city":"熊本市北区","city_kana":"クマモトシキタク","town":"植木町轟","town_kana":"ウエキマチトドロキ","prefecture_code":43},"0162":{"zip_code":"8610162","prefecture":"熊本県","prefecture_kana":"クマモトケン","city":"熊本市北区","city_kana":"クマモトシキタク","town":"植木町富応","town_kana":"ウエキマチトミオウ","prefecture_code":43},"0163":{"zip_code":"8610163","prefecture":"熊本県","prefecture_kana":"クマモトケン","city":"熊本市北区","city_kana":"クマモトシキタク","town":"植木町豊岡","town_kana":"ウエキマチトヨオカ","prefecture_code":43},"0106":{"zip_code":"8610106","prefecture":"熊本県","prefecture_kana":"クマモトケン","city":"熊本市北区","city_kana":"クマモトシキタク","town":"植木町豊田","town_kana":"ウエキマチトヨダ","prefecture_code":43},"0141":{"zip_code":"8610141","prefecture":"熊本県","prefecture_kana":"クマモトケン","city":"熊本市北区","city_kana":"クマモトシキタク","town":"植木町投刀塚","town_kana":"ウエキマチナタツカ","prefecture_code":43},"0154":{"zip_code":"8610154","prefecture":"熊本県","prefecture_kana":"クマモトケン","city":"熊本市北区","city_kana":"クマモトシキタク","town":"植木町那知","town_kana":"ウエキマチナチ","prefecture_code":43},"0135":{"zip_code":"8610135","prefecture":"熊本県","prefecture_kana":"クマモトケン","city":"熊本市北区","city_kana":"クマモトシキタク","town":"植木町一木","town_kana":"ウエキマチヒトツギ","prefecture_code":43},"0121":{"zip_code":"8610121","prefecture":"熊本県","prefecture_kana":"クマモトケン","city":"熊本市北区","city_kana":"クマモトシキタク","town":"植木町平井","town_kana":"ウエキマチヒライ","prefecture_code":43},"0144":{"zip_code":"8610144","prefecture":"熊本県","prefecture_kana":"クマモトケン","city":"熊本市北区","city_kana":"クマモトシキタク","town":"植木町平野","town_kana":"ウエキマチヒラノ","prefecture_code":43},"0165":{"zip_code":"8610165","prefecture":"熊本県","prefecture_kana":"クマモトケン","city":"熊本市北区","city_kana":"クマモトシキタク","town":"植木町平原","town_kana":"ウエキマチヒラバル","prefecture_code":43},"0131":{"zip_code":"8610131","prefecture":"熊本県","prefecture_kana":"クマモトケン","city":"熊本市北区","city_kana":"クマモトシキタク","town":"植木町広住","town_kana":"ウエキマチヒロズミ","prefecture_code":43},"0114":{"zip_code":"8610114","prefecture":"熊本県","prefecture_kana":"クマモトケン","city":"熊本市北区","city_kana":"クマモトシキタク","town":"植木町舟島","town_kana":"ウエキマチフナジマ","prefecture_code":43},"0146":{"zip_code":"8610146","prefecture":"熊本県","prefecture_kana":"クマモトケン","city":"熊本市北区","city_kana":"クマモトシキタク","town":"植木町辺田野","town_kana":"ウエキマチヘタノ","prefecture_code":43},"0105":{"zip_code":"8610105","prefecture":"熊本県","prefecture_kana":"クマモトケン","city":"熊本市北区","city_kana":"クマモトシキタク","town":"植木町味取","town_kana":"ウエキマチミトリ","prefecture_code":43},"0111":{"zip_code":"8610111","prefecture":"熊本県","prefecture_kana":"クマモトケン","city":"熊本市北区","city_kana":"クマモトシキタク","town":"植木町宮原","town_kana":"ウエキマチミヤバル","prefecture_code":43},"0134":{"zip_code":"8610134","prefecture":"熊本県","prefecture_kana":"クマモトケン","city":"熊本市北区","city_kana":"クマモトシキタク","town":"植木町舞尾","town_kana":"ウエキマチモウノ","prefecture_code":43},"0101":{"zip_code":"8610101","prefecture":"熊本県","prefecture_kana":"クマモトケン","city":"熊本市北区","city_kana":"クマモトシキタク","town":"植木町山本","town_kana":"ウエキマチヤマモト","prefecture_code":43},"0115":{"zip_code":"8610115","prefecture":"熊本県","prefecture_kana":"クマモトケン","city":"熊本市北区","city_kana":"クマモトシキタク","town":"植木町米塚","town_kana":"ウエキマチヨネツカ","prefecture_code":43},"8082":{"zip_code":"8618082","prefecture":"熊本県","prefecture_kana":"クマモトケン","city":"熊本市北区","city_kana":"クマモトシキタク","town":"兎谷","town_kana":"ウサギダニ","prefecture_code":43},"5502":{"zip_code":"8615502","prefecture":"熊本県","prefecture_kana":"クマモトケン","city":"熊本市北区","city_kana":"クマモトシキタク","town":"大鳥居町","town_kana":"オオトリイマチ","prefecture_code":43},"5512":{"zip_code":"8615512","prefecture":"熊本県","prefecture_kana":"クマモトケン","city":"熊本市北区","city_kana":"クマモトシキタク","town":"梶尾町","town_kana":"カジオマチ","prefecture_code":43},"5521":{"zip_code":"8615521","prefecture":"熊本県","prefecture_kana":"クマモトケン","city":"熊本市北区","city_kana":"クマモトシキタク","town":"鹿子木町","town_kana":"カノコギマチ","prefecture_code":43},"5534":{"zip_code":"8615534","prefecture":"熊本県","prefecture_kana":"クマモトケン","city":"熊本市北区","city_kana":"クマモトシキタク","town":"釜尾町","town_kana":"カマオマチ","prefecture_code":43},"5531":{"zip_code":"8615531","prefecture":"熊本県","prefecture_kana":"クマモトケン","city":"熊本市北区","city_kana":"クマモトシキタク","town":"北迫町","town_kana":"キタザコマチ","prefecture_code":43},"8003":{"zip_code":"8618003","prefecture":"熊本県","prefecture_kana":"クマモトケン","city":"熊本市北区","city_kana":"クマモトシキタク","town":"楠","town_kana":"クスノキ","prefecture_code":43},"5511":{"zip_code":"8615511","prefecture":"熊本県","prefecture_kana":"クマモトケン","city":"熊本市北区","city_kana":"クマモトシキタク","town":"楠野町","town_kana":"クスノマチ","prefecture_code":43},"5504":{"zip_code":"8615504","prefecture":"熊本県","prefecture_kana":"クマモトケン","city":"熊本市北区","city_kana":"クマモトシキタク","town":"小糸山町","town_kana":"コイトヤママチ","prefecture_code":43},"8084":{"zip_code":"8618084","prefecture":"熊本県","prefecture_kana":"クマモトケン","city":"熊本市北区","city_kana":"クマモトシキタク","town":"清水岩倉","town_kana":"シミズイワクラ","prefecture_code":43},"8066":{"zip_code":"8618066","prefecture":"熊本県","prefecture_kana":"クマモトケン","city":"熊本市北区","city_kana":"クマモトシキタク","town":"清水亀井町","town_kana":"シミズカメイマチ","prefecture_code":43},"8075":{"zip_code":"8618075","prefecture":"熊本県","prefecture_kana":"クマモトケン","city":"熊本市北区","city_kana":"クマモトシキタク","town":"清水新地","town_kana":"シミズシンチ","prefecture_code":43},"8065":{"zip_code":"8618065","prefecture":"熊本県","prefecture_kana":"クマモトケン","city":"熊本市北区","city_kana":"クマモトシキタク","town":"清水東町","town_kana":"シミズヒガシマチ","prefecture_code":43},"8074":{"zip_code":"8618074","prefecture":"熊本県","prefecture_kana":"クマモトケン","city":"熊本市北区","city_kana":"クマモトシキタク","town":"清水本町","town_kana":"シミズホンマチ","prefecture_code":43},"8068":{"zip_code":"8618068","prefecture":"熊本県","prefecture_kana":"クマモトケン","city":"熊本市北区","city_kana":"クマモトシキタク","town":"清水万石","town_kana":"シミズマンゴク","prefecture_code":43},"8073":{"zip_code":"8618073","prefecture":"熊本県","prefecture_kana":"クマモトケン","city":"熊本市北区","city_kana":"クマモトシキタク","town":"清水町松崎","town_kana":"シミズマチマツザキ","prefecture_code":43},"8071":{"zip_code":"8618071","prefecture":"熊本県","prefecture_kana":"クマモトケン","city":"熊本市北区","city_kana":"クマモトシキタク","town":"清水町室園","town_kana":"シミズマチムロゾノ","prefecture_code":43},"5526":{"zip_code":"8615526","prefecture":"熊本県","prefecture_kana":"クマモトケン","city":"熊本市北区","city_kana":"クマモトシキタク","town":"下硯川","town_kana":"シモスズリカワ","prefecture_code":43},"5522":{"zip_code":"8615522","prefecture":"熊本県","prefecture_kana":"クマモトケン","city":"熊本市北区","city_kana":"クマモトシキタク","town":"下硯川町","town_kana":"シモスズリカワマチ","prefecture_code":43},"5524":{"zip_code":"8615524","prefecture":"熊本県","prefecture_kana":"クマモトケン","city":"熊本市北区","city_kana":"クマモトシキタク","town":"硯川町","town_kana":"スズリカワマチ","prefecture_code":43},"8006":{"zip_code":"8618006","prefecture":"熊本県","prefecture_kana":"クマモトケン","city":"熊本市北区","city_kana":"クマモトシキタク","town":"龍田","town_kana":"タツダ","prefecture_code":43},"8005":{"zip_code":"8618005","prefecture":"熊本県","prefecture_kana":"クマモトケン","city":"熊本市北区","city_kana":"クマモトシキタク","town":"龍田陳内","town_kana":"タツダジンナイ","prefecture_code":43},"8002":{"zip_code":"8618002","prefecture":"熊本県","prefecture_kana":"クマモトケン","city":"熊本市北区","city_kana":"クマモトシキタク","town":"龍田町弓削","town_kana":"タツダマチユゲ","prefecture_code":43},"8007":{"zip_code":"8618007","prefecture":"熊本県","prefecture_kana":"クマモトケン","city":"熊本市北区","city_kana":"クマモトシキタク","town":"龍田弓削","town_kana":"タツダユゲ","prefecture_code":43},"5532":{"zip_code":"8615532","prefecture":"熊本県","prefecture_kana":"クマモトケン","city":"熊本市北区","city_kana":"クマモトシキタク","town":"太郎迫町","town_kana":"タロウザコマチ","prefecture_code":43},"5517":{"zip_code":"8615517","prefecture":"熊本県","prefecture_kana":"クマモトケン","city":"熊本市北区","city_kana":"クマモトシキタク","town":"鶴羽田","town_kana":"ツルハダ","prefecture_code":43},"5513":{"zip_code":"8615513","prefecture":"熊本県","prefecture_kana":"クマモトケン","city":"熊本市北区","city_kana":"クマモトシキタク","town":"鶴羽田町","town_kana":"ツルハダマチ","prefecture_code":43},"5525":{"zip_code":"8615525","prefecture":"熊本県","prefecture_kana":"クマモトケン","city":"熊本市北区","city_kana":"クマモトシキタク","town":"徳王","town_kana":"トクオウ","prefecture_code":43},"5523":{"zip_code":"8615523","prefecture":"熊本県","prefecture_kana":"クマモトケン","city":"熊本市北区","city_kana":"クマモトシキタク","town":"徳王町","town_kana":"トクオウマチ","prefecture_code":43},"5516":{"zip_code":"8615516","prefecture":"熊本県","prefecture_kana":"クマモトケン","city":"熊本市北区","city_kana":"クマモトシキタク","town":"西梶尾町","town_kana":"ニシカジオマチ","prefecture_code":43},"8083":{"zip_code":"8618083","prefecture":"熊本県","prefecture_kana":"クマモトケン","city":"熊本市北区","city_kana":"クマモトシキタク","town":"楡木","town_kana":"ニレノキ","prefecture_code":43},"8064":{"zip_code":"8618064","prefecture":"熊本県","prefecture_kana":"クマモトケン","city":"熊本市北区","city_kana":"クマモトシキタク","town":"八景水谷","town_kana":"ハケノミヤ","prefecture_code":43},"5514":{"zip_code":"8615514","prefecture":"熊本県","prefecture_kana":"クマモトケン","city":"熊本市北区","city_kana":"クマモトシキタク","town":"飛田","town_kana":"ヒダ","prefecture_code":43},"5537":{"zip_code":"8615537","prefecture":"熊本県","prefecture_kana":"クマモトケン","city":"熊本市北区","city_kana":"クマモトシキタク","town":"万楽寺町","town_kana":"マンラクジマチ","prefecture_code":43},"5535":{"zip_code":"8615535","prefecture":"熊本県","prefecture_kana":"クマモトケン","city":"熊本市北区","city_kana":"クマモトシキタク","town":"貢町","town_kana":"ミツグマチ","prefecture_code":43},"8001":{"zip_code":"8618001","prefecture":"熊本県","prefecture_kana":"クマモトケン","city":"熊本市北区","city_kana":"クマモトシキタク","town":"武蔵ケ丘","town_kana":"ムサシガオカ","prefecture_code":43},"5503":{"zip_code":"8615503","prefecture":"熊本県","prefecture_kana":"クマモトケン","city":"熊本市北区","city_kana":"クマモトシキタク","town":"明徳町","town_kana":"メイトクマチ","prefecture_code":43},"5515":{"zip_code":"8615515","prefecture":"熊本県","prefecture_kana":"クマモトケン","city":"熊本市北区","city_kana":"クマモトシキタク","town":"四方寄町","town_kana":"ヨモギマチ","prefecture_code":43},"5536":{"zip_code":"8615536","prefecture":"熊本県","prefecture_kana":"クマモトケン","city":"熊本市北区","city_kana":"クマモトシキタク","town":"立福寺町","town_kana":"リュウフクジマチ","prefecture_code":43},"5401":{"zip_code":"8615401","prefecture":"熊本県","prefecture_kana":"クマモトケン","city":"玉名市","city_kana":"タマナシ","town":"天水町小天","town_kana":"テンスイマチオアマ","prefecture_code":43},"5406":{"zip_code":"8615406","prefecture":"熊本県","prefecture_kana":"クマモトケン","city":"玉名市","city_kana":"タマナシ","town":"天水町尾田","town_kana":"テンスイマチオタ","prefecture_code":43},"5404":{"zip_code":"8615404","prefecture":"熊本県","prefecture_kana":"クマモトケン","city":"玉名市","city_kana":"タマナシ","town":"天水町竹崎","town_kana":"テンスイマチタケザキ","prefecture_code":43},"5402":{"zip_code":"8615402","prefecture":"熊本県","prefecture_kana":"クマモトケン","city":"玉名市","city_kana":"タマナシ","town":"天水町立花","town_kana":"テンスイマチタチバナ","prefecture_code":43},"5405":{"zip_code":"8615405","prefecture":"熊本県","prefecture_kana":"クマモトケン","city":"玉名市","city_kana":"タマナシ","town":"天水町野部田","town_kana":"テンスイマチノベタ","prefecture_code":43},"5403":{"zip_code":"8615403","prefecture":"熊本県","prefecture_kana":"クマモトケン","city":"玉名市","city_kana":"タマナシ","town":"天水町部田見","town_kana":"テンスイマチヘタミ","prefecture_code":43},"0500":{"zip_code":"8610500","prefecture":"熊本県","prefecture_kana":"クマモトケン","city":"山鹿市","city_kana":"ヤマガシ","town":"以下に掲載がない場合","town_kana":"イカニケイサイガナイバアイ","prefecture_code":43},"0547":{"zip_code":"8610547","prefecture":"熊本県","prefecture_kana":"クマモトケン","city":"山鹿市","city_kana":"ヤマガシ","town":"麻生野","town_kana":"アゾノ","prefecture_code":43},"0553":{"zip_code":"8610553","prefecture":"熊本県","prefecture_kana":"クマモトケン","city":"山鹿市","city_kana":"ヤマガシ","town":"石","town_kana":"イシ","prefecture_code":43},"0512":{"zip_code":"8610512","prefecture":"熊本県","prefecture_kana":"クマモトケン","city":"山鹿市","city_kana":"ヤマガシ","town":"泉町","town_kana":"イズミマチ","prefecture_code":43},"0517":{"zip_code":"8610517","prefecture":"熊本県","prefecture_kana":"クマモトケン","city":"山鹿市","city_kana":"ヤマガシ","town":"大橋通","town_kana":"オオハシドオリ","prefecture_code":43},"0521":{"zip_code":"8610521","prefecture":"熊本県","prefecture_kana":"クマモトケン","city":"山鹿市","city_kana":"ヤマガシ","town":"小坂","town_kana":"オサカ","prefecture_code":43},"0543":{"zip_code":"8610543","prefecture":"熊本県","prefecture_kana":"クマモトケン","city":"山鹿市","city_kana":"ヤマガシ","town":"小原","town_kana":"オバル","prefecture_code":43},"0555":{"zip_code":"8610555","prefecture":"熊本県","prefecture_kana":"クマモトケン","city":"山鹿市","city_kana":"ヤマガシ","town":"小群","town_kana":"オムレ","prefecture_code":43},"0565":{"zip_code":"8610565","prefecture":"熊本県","prefecture_kana":"クマモトケン","city":"山鹿市","city_kana":"ヤマガシ","town":"鹿央町合里","town_kana":"カオウマチアイザト","prefecture_code":43},"0561":{"zip_code":"8610561","prefecture":"熊本県","prefecture_kana":"クマモトケン","city":"山鹿市","city_kana":"ヤマガシ","town":"鹿央町岩原","town_kana":"カオウマチイワバル","prefecture_code":43},"0574":{"zip_code":"8610574","prefecture":"熊本県","prefecture_kana":"クマモトケン","city":"山鹿市","city_kana":"ヤマガシ","town":"鹿央町梅木谷","town_kana":"カオウマチウメノキダニ","prefecture_code":43},"0576":{"zip_code":"8610576","prefecture":"熊本県","prefecture_kana":"クマモトケン","city":"山鹿市","city_kana":"ヤマガシ","town":"鹿央町大浦","town_kana":"カオウマチオオウラ","prefecture_code":43},"0571":{"zip_code":"8610571","prefecture":"熊本県","prefecture_kana":"クマモトケン","city":"山鹿市","city_kana":"ヤマガシ","town":"鹿央町北谷","town_kana":"カオウマチキタダニ","prefecture_code":43},"0573":{"zip_code":"8610573","prefecture":"熊本県","prefecture_kana":"クマモトケン","city":"山鹿市","city_kana":"ヤマガシ","town":"鹿央町霜野","town_kana":"カオウマチシモノ","prefecture_code":43},"0563":{"zip_code":"8610563","prefecture":"熊本県","prefecture_kana":"クマモトケン","city":"山鹿市","city_kana":"ヤマガシ","town":"鹿央町千田","town_kana":"カオウマチチダ","prefecture_code":43},"0575":{"zip_code":"8610575","prefecture":"熊本県","prefecture_kana":"クマモトケン","city":"山鹿市","city_kana":"ヤマガシ","town":"鹿央町中浦","town_kana":"カオウマチチュウノウラ","prefecture_code":43},"0572":{"zip_code":"8610572","prefecture":"熊本県","prefecture_kana":"クマモトケン","city":"山鹿市","city_kana":"ヤマガシ","town":"鹿央町仁王堂","town_kana":"カオウマチニオウドウ","prefecture_code":43},"0564":{"zip_code":"8610564","prefecture":"熊本県","prefecture_kana":"クマモトケン","city":"山鹿市","city_kana":"ヤマガシ","town":"鹿央町広","town_kana":"カオウマチヒロ","prefecture_code":43},"0562":{"zip_code":"8610562","prefecture":"熊本県","prefecture_kana":"クマモトケン","city":"山鹿市","city_kana":"ヤマガシ","town":"鹿央町持松","town_kana":"カオウマチモチマツ","prefecture_code":43},"0532":{"zip_code":"8610532","prefecture":"熊本県","prefecture_kana":"クマモトケン","city":"山鹿市","city_kana":"ヤマガシ","town":"鹿校通","town_kana":"カコウトオリ","prefecture_code":43},"0382":{"zip_code":"8610382","prefecture":"熊本県","prefecture_kana":"クマモトケン","city":"山鹿市","city_kana":"ヤマガシ","town":"方保田","town_kana":"カトウダ","prefecture_code":43},"0602":{"zip_code":"8610602","prefecture":"熊本県","prefecture_kana":"クマモトケン","city":"山鹿市","city_kana":"ヤマガシ","town":"鹿北町芋生","town_kana":"カホクマチイモウ","prefecture_code":43},"0603":{"zip_code":"8610603","prefecture":"熊本県","prefecture_kana":"クマモトケン","city":"山鹿市","city_kana":"ヤマガシ","town":"鹿北町岩野","town_kana":"カホクマチイワノ","prefecture_code":43},"0604":{"zip_code":"8610604","prefecture":"熊本県","prefecture_kana":"クマモトケン","city":"山鹿市","city_kana":"ヤマガシ","town":"鹿北町椎持","town_kana":"カホクマチシイモチ","prefecture_code":43},"0601":{"zip_code":"8610601","prefecture":"熊本県","prefecture_kana":"クマモトケン","city":"山鹿市","city_kana":"ヤマガシ","town":"鹿北町四丁","town_kana":"カホクマチシチョウ","prefecture_code":43},"0605":{"zip_code":"8610605","prefecture":"熊本県","prefecture_kana":"クマモトケン","city":"山鹿市","city_kana":"ヤマガシ","town":"鹿北町多久","town_kana":"カホクマチタク","prefecture_code":43},"0524":{"zip_code":"8610524","prefecture":"熊本県","prefecture_kana":"クマモトケン","city":"山鹿市","city_kana":"ヤマガシ","town":"上吉田","town_kana":"カミヨシダ","prefecture_code":43},"0523":{"zip_code":"8610523","prefecture":"熊本県","prefecture_kana":"クマモトケン","city":"山鹿市","city_kana":"ヤマガシ","town":"蒲生","town_kana":"カモウ","prefecture_code":43},"0311":{"zip_code":"8610311","prefecture":"熊本県","prefecture_kana":"クマモトケン","city":"山鹿市","city_kana":"ヤマガシ","town":"鹿本町石渕","town_kana":"カモトマチイシブチ","prefecture_code":43},"0315":{"zip_code":"8610315","prefecture":"熊本県","prefecture_kana":"クマモトケン","city":"山鹿市","city_kana":"ヤマガシ","town":"鹿本町小嶋","town_kana":"カモトマチオシマ","prefecture_code":43},"0312":{"zip_code":"8610312","prefecture":"熊本県","prefecture_kana":"クマモトケン","city":"山鹿市","city_kana":"ヤマガシ","town":"鹿本町梶屋","town_kana":"カモトマチカジヤ","prefecture_code":43},"0331":{"zip_code":"8610331","prefecture":"熊本県","prefecture_kana":"クマモトケン","city":"山鹿市","city_kana":"ヤマガシ","town":"鹿本町来民","town_kana":"カモトマチクタミ","prefecture_code":43},"0324":{"zip_code":"8610324","prefecture":"熊本県","prefecture_kana":"クマモトケン","city":"山鹿市","city_kana":"ヤマガシ","town":"鹿本町小柳","town_kana":"カモトマチコヤナギ","prefecture_code":43},"0316":{"zip_code":"8610316","prefecture":"熊本県","prefecture_kana":"クマモトケン","city":"山鹿市","city_kana":"ヤマガシ","town":"鹿本町下高橋","town_kana":"カモトマチシモタカハシ","prefecture_code":43},"0323":{"zip_code":"8610323","prefecture":"熊本県","prefecture_kana":"クマモトケン","city":"山鹿市","city_kana":"ヤマガシ","town":"鹿本町下分田","town_kana":"カモトマチシモブンダ","prefecture_code":43},"0301":{"zip_code":"8610301","prefecture":"熊本県","prefecture_kana":"クマモトケン","city":"山鹿市","city_kana":"ヤマガシ","town":"鹿本町庄","town_kana":"カモトマチショウ","prefecture_code":43},"0303":{"zip_code":"8610303","prefecture":"熊本県","prefecture_kana":"クマモトケン","city":"山鹿市","city_kana":"ヤマガシ","town":"鹿本町高橋","town_kana":"カモトマチタカハシ","prefecture_code":43},"0302":{"zip_code":"8610302","prefecture":"熊本県","prefecture_kana":"クマモトケン","city":"山鹿市","city_kana":"ヤマガシ","town":"鹿本町津袋","town_kana":"カモトマチツブクロ","prefecture_code":43},"0314":{"zip_code":"8610314","prefecture":"熊本県","prefecture_kana":"クマモトケン","city":"山鹿市","city_kana":"ヤマガシ","town":"鹿本町中川","town_kana":"カモトマチナカガワ","prefecture_code":43},"0313":{"zip_code":"8610313","prefecture":"熊本県","prefecture_kana":"クマモトケン","city":"山鹿市","city_kana":"ヤマガシ","town":"鹿本町中富","town_kana":"カモトマチナカドミ","prefecture_code":43},"0322":{"zip_code":"8610322","prefecture":"熊本県","prefecture_kana":"クマモトケン","city":"山鹿市","city_kana":"ヤマガシ","town":"鹿本町中分田","town_kana":"カモトマチナカブンダ","prefecture_code":43},"0321":{"zip_code":"8610321","prefecture":"熊本県","prefecture_kana":"クマモトケン","city":"山鹿市","city_kana":"ヤマガシ","town":"鹿本町分田","town_kana":"カモトマチブンダ","prefecture_code":43},"0304":{"zip_code":"8610304","prefecture":"熊本県","prefecture_kana":"クマモトケン","city":"山鹿市","city_kana":"ヤマガシ","town":"鹿本町御宇田","town_kana":"カモトマチミウタ","prefecture_code":43},"0519":{"zip_code":"8610519","prefecture":"熊本県","prefecture_kana":"クマモトケン","city":"山鹿市","city_kana":"ヤマガシ","town":"川端町","town_kana":"カワバタマチ","prefecture_code":43},"0412":{"zip_code":"8610412","prefecture":"熊本県","prefecture_kana":"クマモトケン","city":"山鹿市","city_kana":"ヤマガシ","town":"菊鹿町相良","town_kana":"キクカマチアイラ","prefecture_code":43},"0421":{"zip_code":"8610421","prefecture":"熊本県","prefecture_kana":"クマモトケン","city":"山鹿市","city_kana":"ヤマガシ","town":"菊鹿町阿佐古","town_kana":"キクカマチアサゴ","prefecture_code":43},"0423":{"zip_code":"8610423","prefecture":"熊本県","prefecture_kana":"クマモトケン","city":"山鹿市","city_kana":"ヤマガシ","town":"菊鹿町池永","town_kana":"キクカマチイケナガ","prefecture_code":43},"0402":{"zip_code":"8610402","prefecture":"熊本県","prefecture_kana":"クマモトケン","city":"山鹿市","city_kana":"ヤマガシ","town":"菊鹿町太田","town_kana":"キクカマチオオダ","prefecture_code":43},"0414":{"zip_code":"8610414","prefecture":"熊本県","prefecture_kana":"クマモトケン","city":"山鹿市","city_kana":"ヤマガシ","town":"菊鹿町上内田","town_kana":"キクカマチカミウチダ","prefecture_code":43},"0404":{"zip_code":"8610404","prefecture":"熊本県","prefecture_kana":"クマモトケン","city":"山鹿市","city_kana":"ヤマガシ","town":"菊鹿町上永野","town_kana":"キクカマチカミナガノ","prefecture_code":43},"0426":{"zip_code":"8610426","prefecture":"熊本県","prefecture_kana":"クマモトケン","city":"山鹿市","city_kana":"ヤマガシ","town":"菊鹿町木野","town_kana":"キクカマチキノ","prefecture_code":43},"0403":{"zip_code":"8610403","prefecture":"熊本県","prefecture_kana":"クマモトケン","city":"山鹿市","city_kana":"ヤマガシ","town":"菊鹿町五郎丸","town_kana":"キクカマチゴロウマル","prefecture_code":43},"0406":{"zip_code":"8610406","prefecture":"熊本県","prefecture_kana":"クマモトケン","city":"山鹿市","city_kana":"ヤマガシ","town":"菊鹿町下内田","town_kana":"キクカマチシモウチダ","prefecture_code":43},"0405":{"zip_code":"8610405","prefecture":"熊本県","prefecture_kana":"クマモトケン","city":"山鹿市","city_kana":"ヤマガシ","town":"菊鹿町下永野","town_kana":"キクカマチシモナガノ","prefecture_code":43},"0401":{"zip_code":"8610401","prefecture":"熊本県","prefecture_kana":"クマモトケン","city":"山鹿市","city_kana":"ヤマガシ","town":"菊鹿町長","town_kana":"キクカマチナガ","prefecture_code":43},"0424":{"zip_code":"8610424","prefecture":"熊本県","prefecture_kana":"クマモトケン","city":"山鹿市","city_kana":"ヤマガシ","town":"菊鹿町松尾","town_kana":"キクカマチマツオ","prefecture_code":43},"0422":{"zip_code":"8610422","prefecture":"熊本県","prefecture_kana":"クマモトケン","city":"山鹿市","city_kana":"ヤマガシ","town":"菊鹿町宮原","town_kana":"キクカマチミヤノハル","prefecture_code":43},"0413":{"zip_code":"8610413","prefecture":"熊本県","prefecture_kana":"クマモトケン","city":"山鹿市","city_kana":"ヤマガシ","town":"菊鹿町矢谷","town_kana":"キクカマチヤタニ","prefecture_code":43},"0411":{"zip_code":"8610411","prefecture":"熊本県","prefecture_kana":"クマモトケン","city":"山鹿市","city_kana":"ヤマガシ","town":"菊鹿町山内","town_kana":"キクカマチヤマウチ","prefecture_code":43},"0425":{"zip_code":"8610425","prefecture":"熊本県","prefecture_kana":"クマモトケン","city":"山鹿市","city_kana":"ヤマガシ","town":"菊鹿町米原","town_kana":"キクカマチヨナバル","prefecture_code":43},"0522":{"zip_code":"8610522","prefecture":"熊本県","prefecture_kana":"クマモトケン","city":"山鹿市","city_kana":"ヤマガシ","town":"久原","town_kana":"クバル","prefecture_code":43},"0511":{"zip_code":"8610511","prefecture":"熊本県","prefecture_kana":"クマモトケン","city":"山鹿市","city_kana":"ヤマガシ","town":"熊入町","town_kana":"クマイリマチ","prefecture_code":43},"0533":{"zip_code":"8610533","prefecture":"熊本県","prefecture_kana":"クマモトケン","city":"山鹿市","city_kana":"ヤマガシ","town":"古閑","town_kana":"コガ","prefecture_code":43},"0546":{"zip_code":"8610546","prefecture":"熊本県","prefecture_kana":"クマモトケン","city":"山鹿市","city_kana":"ヤマガシ","town":"坂田","town_kana":"サカダ","prefecture_code":43},"0542":{"zip_code":"8610542","prefecture":"熊本県","prefecture_kana":"クマモトケン","city":"山鹿市","city_kana":"ヤマガシ","town":"志々岐","town_kana":"シジキ","prefecture_code":43},"0526":{"zip_code":"8610526","prefecture":"熊本県","prefecture_kana":"クマモトケン","city":"山鹿市","city_kana":"ヤマガシ","town":"下吉田","town_kana":"シモヨシダ","prefecture_code":43},"0554":{"zip_code":"8610554","prefecture":"熊本県","prefecture_kana":"クマモトケン","city":"山鹿市","city_kana":"ヤマガシ","town":"城","town_kana":"ジョウ","prefecture_code":43},"0515":{"zip_code":"8610515","prefecture":"熊本県","prefecture_kana":"クマモトケン","city":"山鹿市","city_kana":"ヤマガシ","town":"昭和町","town_kana":"ショウワマチ","prefecture_code":43},"0514":{"zip_code":"8610514","prefecture":"熊本県","prefecture_kana":"クマモトケン","city":"山鹿市","city_kana":"ヤマガシ","town":"新町","town_kana":"シンマチ","prefecture_code":43},"0552":{"zip_code":"8610552","prefecture":"熊本県","prefecture_kana":"クマモトケン","city":"山鹿市","city_kana":"ヤマガシ","town":"杉","town_kana":"スギ","prefecture_code":43},"0516":{"zip_code":"8610516","prefecture":"熊本県","prefecture_kana":"クマモトケン","city":"山鹿市","city_kana":"ヤマガシ","town":"中央通","town_kana":"チュウオウドオリ","prefecture_code":43},"0548":{"zip_code":"8610548","prefecture":"熊本県","prefecture_kana":"クマモトケン","city":"山鹿市","city_kana":"ヤマガシ","town":"椿井","town_kana":"ツバイ","prefecture_code":43},"0551":{"zip_code":"8610551","prefecture":"熊本県","prefecture_kana":"クマモトケン","city":"山鹿市","city_kana":"ヤマガシ","town":"津留","town_kana":"ツル","prefecture_code":43},"0527":{"zip_code":"8610527","prefecture":"熊本県","prefecture_kana":"クマモトケン","city":"山鹿市","city_kana":"ヤマガシ","town":"寺島","town_kana":"テラジマ","prefecture_code":43},"0531":{"zip_code":"8610531","prefecture":"熊本県","prefecture_kana":"クマモトケン","city":"山鹿市","city_kana":"ヤマガシ","town":"中","town_kana":"ナカ","prefecture_code":43},"0534":{"zip_code":"8610534","prefecture":"熊本県","prefecture_kana":"クマモトケン","city":"山鹿市","city_kana":"ヤマガシ","town":"長坂","town_kana":"ナガサカ","prefecture_code":43},"0525":{"zip_code":"8610525","prefecture":"熊本県","prefecture_kana":"クマモトケン","city":"山鹿市","city_kana":"ヤマガシ","town":"名塚","town_kana":"ナヅカ","prefecture_code":43},"0541":{"zip_code":"8610541","prefecture":"熊本県","prefecture_kana":"クマモトケン","city":"山鹿市","city_kana":"ヤマガシ","town":"鍋田","town_kana":"ナベタ","prefecture_code":43},"0545":{"zip_code":"8610545","prefecture":"熊本県","prefecture_kana":"クマモトケン","city":"山鹿市","city_kana":"ヤマガシ","town":"西牧","town_kana":"ニシマキ","prefecture_code":43},"0556":{"zip_code":"8610556","prefecture":"熊本県","prefecture_kana":"クマモトケン","city":"山鹿市","city_kana":"ヤマガシ","town":"平山","town_kana":"ヒラヤマ","prefecture_code":43},"0381":{"zip_code":"8610381","prefecture":"熊本県","prefecture_kana":"クマモトケン","city":"山鹿市","city_kana":"ヤマガシ","town":"藤井","town_kana":"フジイ","prefecture_code":43},"0544":{"zip_code":"8610544","prefecture":"熊本県","prefecture_kana":"クマモトケン","city":"山鹿市","city_kana":"ヤマガシ","town":"保多田","town_kana":"ホダタ","prefecture_code":43},"0535":{"zip_code":"8610535","prefecture":"熊本県","prefecture_kana":"クマモトケン","city":"山鹿市","city_kana":"ヤマガシ","town":"南島","town_kana":"ミナミジマ","prefecture_code":43},"0513":{"zip_code":"8610513","prefecture":"熊本県","prefecture_kana":"クマモトケン","city":"山鹿市","city_kana":"ヤマガシ","town":"宗方","town_kana":"ムナカタ","prefecture_code":43},"0518":{"zip_code":"8610518","prefecture":"熊本県","prefecture_kana":"クマモトケン","city":"山鹿市","city_kana":"ヤマガシ","town":"宗方通","town_kana":"ムナカタドオリ","prefecture_code":43},"0501":{"zip_code":"8610501","prefecture":"熊本県","prefecture_kana":"クマモトケン","city":"山鹿市","city_kana":"ヤマガシ","town":"山鹿","town_kana":"ヤマガ","prefecture_code":43},"1300":{"zip_code":"8611300","prefecture":"熊本県","prefecture_kana":"クマモトケン","city":"菊池市","city_kana":"キクチシ","town":"以下に掲載がない場合","town_kana":"イカニケイサイガナイバアイ","prefecture_code":43},"1311":{"zip_code":"8611311","prefecture":"熊本県","prefecture_kana":"クマモトケン","city":"菊池市","city_kana":"キクチシ","town":"赤星","town_kana":"アカホシ","prefecture_code":43},"1686":{"zip_code":"8611686","prefecture":"熊本県","prefecture_kana":"クマモトケン","city":"菊池市","city_kana":"キクチシ","town":"市野瀬","town_kana":"イチノセ","prefecture_code":43},"1313":{"zip_code":"8611313","prefecture":"熊本県","prefecture_kana":"クマモトケン","city":"菊池市","city_kana":"キクチシ","town":"出田","town_kana":"イデタ","prefecture_code":43},"1303":{"zip_code":"8611303","prefecture":"熊本県","prefecture_kana":"クマモトケン","city":"菊池市","city_kana":"キクチシ","town":"今","town_kana":"イマ","prefecture_code":43},"1683":{"zip_code":"8611683","prefecture":"熊本県","prefecture_kana":"クマモトケン","city":"菊池市","city_kana":"キクチシ","town":"大平","town_kana":"オオヒラ","prefecture_code":43},"1673":{"zip_code":"8611673","prefecture":"熊本県","prefecture_kana":"クマモトケン","city":"菊池市","city_kana":"キクチシ","town":"小木","town_kana":"オギ","prefecture_code":43},"1307":{"zip_code":"8611307","prefecture":"熊本県","prefecture_kana":"クマモトケン","city":"菊池市","city_kana":"キクチシ","town":"片角","town_kana":"カタカク","prefecture_code":43},"1315":{"zip_code":"8611315","prefecture":"熊本県","prefecture_kana":"クマモトケン","city":"菊池市","city_kana":"キクチシ","town":"木柑子","town_kana":"キコウジ","prefecture_code":43},"1305":{"zip_code":"8611305","prefecture":"熊本県","prefecture_kana":"クマモトケン","city":"菊池市","city_kana":"キクチシ","town":"北宮","town_kana":"キタミヤ","prefecture_code":43},"1326":{"zip_code":"8611326","prefecture":"熊本県","prefecture_kana":"クマモトケン","city":"菊池市","city_kana":"キクチシ","town":"木野","town_kana":"キノ","prefecture_code":43},"1322":{"zip_code":"8611322","prefecture":"熊本県","prefecture_kana":"クマモトケン","city":"菊池市","city_kana":"キクチシ","town":"玉祥寺","town_kana":"ギョクショウジ","prefecture_code":43},"1325":{"zip_code":"8611325","prefecture":"熊本県","prefecture_kana":"クマモトケン","city":"菊池市","city_kana":"キクチシ","town":"袈裟尾","town_kana":"ケサオ","prefecture_code":43},"1301":{"zip_code":"8611301","prefecture":"熊本県","prefecture_kana":"クマモトケン","city":"菊池市","city_kana":"キクチシ","town":"木庭","town_kana":"コバ","prefecture_code":43},"1682":{"zip_code":"8611682","prefecture":"熊本県","prefecture_kana":"クマモトケン","city":"菊池市","city_kana":"キクチシ","town":"重味","town_kana":"シゲミ","prefecture_code":43},"1211":{"zip_code":"8611211","prefecture":"熊本県","prefecture_kana":"クマモトケン","city":"菊池市","city_kana":"キクチシ","town":"泗水町亀尾","town_kana":"シスイマチカメオ","prefecture_code":43},"1203":{"zip_code":"8611203","prefecture":"熊本県","prefecture_kana":"クマモトケン","city":"菊池市","city_kana":"キクチシ","town":"泗水町住吉","town_kana":"シスイマチスミヨシ","prefecture_code":43},"1214":{"zip_code":"8611214","prefecture":"熊本県","prefecture_kana":"クマモトケン","city":"菊池市","city_kana":"キクチシ","town":"泗水町田島","town_kana":"シスイマチタシマ","prefecture_code":43},"1202":{"zip_code":"8611202","prefecture":"熊本県","prefecture_kana":"クマモトケン","city":"菊池市","city_kana":"キクチシ","town":"泗水町富納","town_kana":"シスイマチトミノウ","prefecture_code":43},"1212":{"zip_code":"8611212","prefecture":"熊本県","prefecture_kana":"クマモトケン","city":"菊池市","city_kana":"キクチシ","town":"泗水町豊水","town_kana":"シスイマチトヨミズ","prefecture_code":43},"1204":{"zip_code":"8611204","prefecture":"熊本県","prefecture_kana":"クマモトケン","city":"菊池市","city_kana":"キクチシ","town":"泗水町永","town_kana":"シスイマチナガ","prefecture_code":43},"1205":{"zip_code":"8611205","prefecture":"熊本県","prefecture_kana":"クマモトケン","city":"菊池市","city_kana":"キクチシ","town":"泗水町福本","town_kana":"シスイマチフクモト","prefecture_code":43},"1213":{"zip_code":"8611213","prefecture":"熊本県","prefecture_kana":"クマモトケン","city":"菊池市","city_kana":"キクチシ","town":"泗水町南田島","town_kana":"シスイマチミナミタシマ","prefecture_code":43},"1201":{"zip_code":"8611201","prefecture":"熊本県","prefecture_kana":"クマモトケン","city":"菊池市","city_kana":"キクチシ","town":"泗水町吉富","town_kana":"シスイマチヨシトミ","prefecture_code":43},"1363":{"zip_code":"8611363","prefecture":"熊本県","prefecture_kana":"クマモトケン","city":"菊池市","city_kana":"キクチシ","town":"七城町荒牧","town_kana":"シチジョウマチアラマキ","prefecture_code":43},"1365":{"zip_code":"8611365","prefecture":"熊本県","prefecture_kana":"クマモトケン","city":"菊池市","city_kana":"キクチシ","town":"七城町台","town_kana":"シチジョウマチウテナ","prefecture_code":43},"1368":{"zip_code":"8611368","prefecture":"熊本県","prefecture_kana":"クマモトケン","city":"菊池市","city_kana":"キクチシ","town":"七城町岡田","town_kana":"シチジョウマチオカダ","prefecture_code":43},"1345":{"zip_code":"8611345","prefecture":"熊本県","prefecture_kana":"クマモトケン","city":"菊池市","city_kana":"キクチシ","town":"七城町小野崎","town_kana":"シチジョウマチオノザキ","prefecture_code":43},"1356":{"zip_code":"8611356","prefecture":"熊本県","prefecture_kana":"クマモトケン","city":"菊池市","city_kana":"キクチシ","town":"七城町加恵","town_kana":"シチジョウマチカエ","prefecture_code":43},"1342":{"zip_code":"8611342","prefecture":"熊本県","prefecture_kana":"クマモトケン","city":"菊池市","city_kana":"キクチシ","town":"七城町亀尾","town_kana":"シチジョウマチカメオ","prefecture_code":43},"1341":{"zip_code":"8611341","prefecture":"熊本県","prefecture_kana":"クマモトケン","city":"菊池市","city_kana":"キクチシ","town":"七城町清水","town_kana":"シチジョウマチキヨミズ","prefecture_code":43},"1353":{"zip_code":"8611353","prefecture":"熊本県","prefecture_kana":"クマモトケン","city":"菊池市","city_kana":"キクチシ","town":"七城町甲佐町","town_kana":"シチジョウマチコウサマチ","prefecture_code":43},"1354":{"zip_code":"8611354","prefecture":"熊本県","prefecture_kana":"クマモトケン","city":"菊池市","city_kana":"キクチシ","town":"七城町菰入","town_kana":"シチジョウマチコモイリ","prefecture_code":43},"1352":{"zip_code":"8611352","prefecture":"熊本県","prefecture_kana":"クマモトケン","city":"菊池市","city_kana":"キクチシ","town":"七城町新古閑","town_kana":"シチジョウマチシンコガ","prefecture_code":43},"1351":{"zip_code":"8611351","prefecture":"熊本県","prefecture_kana":"クマモトケン","city":"菊池市","city_kana":"キクチシ","town":"七城町砂田","town_kana":"シチジョウマチスナダ","prefecture_code":43},"1366":{"zip_code":"8611366","prefecture":"熊本県","prefecture_kana":"クマモトケン","city":"菊池市","city_kana":"キクチシ","town":"七城町瀬戸口","town_kana":"シチジョウマチセトグチ","prefecture_code":43},"1344":{"zip_code":"8611344","prefecture":"熊本県","prefecture_kana":"クマモトケン","city":"菊池市","city_kana":"キクチシ","town":"七城町蘇崎","town_kana":"シチジョウマチソサキ","prefecture_code":43},"1355":{"zip_code":"8611355","prefecture":"熊本県","prefecture_kana":"クマモトケン","city":"菊池市","city_kana":"キクチシ","town":"七城町高島","town_kana":"シチジョウマチタカジマ","prefecture_code":43},"1357":{"zip_code":"8611357","prefecture":"熊本県","prefecture_kana":"クマモトケン","city":"菊池市","city_kana":"キクチシ","town":"七城町高田","town_kana":"シチジョウマチタカタ","prefecture_code":43},"1367":{"zip_code":"8611367","prefecture":"熊本県","prefecture_kana":"クマモトケン","city":"菊池市","city_kana":"キクチシ","town":"七城町流川","town_kana":"シチジョウマチナガレカワ","prefecture_code":43},"1346":{"zip_code":"8611346","prefecture":"熊本県","prefecture_kana":"クマモトケン","city":"菊池市","city_kana":"キクチシ","town":"七城町橋田","town_kana":"シチジョウマチハシタ","prefecture_code":43},"1343":{"zip_code":"8611343","prefecture":"熊本県","prefecture_kana":"クマモトケン","city":"菊池市","city_kana":"キクチシ","town":"七城町林原","town_kana":"シチジョウマチハヤシバル","prefecture_code":43},"1364":{"zip_code":"8611364","prefecture":"熊本県","prefecture_kana":"クマモトケン","city":"菊池市","city_kana":"キクチシ","town":"七城町辺田","town_kana":"シチジョウマチヘタ","prefecture_code":43},"1361":{"zip_code":"8611361","prefecture":"熊本県","prefecture_kana":"クマモトケン","city":"菊池市","city_kana":"キクチシ","town":"七城町水次","town_kana":"シチジョウマチミツギ","prefecture_code":43},"1362":{"zip_code":"8611362","prefecture":"熊本県","prefecture_kana":"クマモトケン","city":"菊池市","city_kana":"キクチシ","town":"七城町山崎","town_kana":"シチジョウマチヤマサキ","prefecture_code":43},"1442":{"zip_code":"8611442","prefecture":"熊本県","prefecture_kana":"クマモトケン","city":"菊池市","city_kana":"キクチシ","town":"四町分","town_kana":"シチョウブン","prefecture_code":43},"1302":{"zip_code":"8611302","prefecture":"熊本県","prefecture_kana":"クマモトケン","city":"菊池市","city_kana":"キクチシ","town":"下河原","town_kana":"シモカワハル","prefecture_code":43},"1306":{"zip_code":"8611306","prefecture":"熊本県","prefecture_kana":"クマモトケン","city":"菊池市","city_kana":"キクチシ","town":"大琳寺","town_kana":"ダイリンジ","prefecture_code":43},"1684":{"zip_code":"8611684","prefecture":"熊本県","prefecture_kana":"クマモトケン","city":"菊池市","city_kana":"キクチシ","town":"豊間","town_kana":"トヨマ","prefecture_code":43},"1316":{"zip_code":"8611316","prefecture":"熊本県","prefecture_kana":"クマモトケン","city":"菊池市","city_kana":"キクチシ","town":"長田","town_kana":"ナガタ","prefecture_code":43},"1323":{"zip_code":"8611323","prefecture":"熊本県","prefecture_kana":"クマモトケン","city":"菊池市","city_kana":"キクチシ","town":"西寺","town_kana":"ニシデラ","prefecture_code":43},"1685":{"zip_code":"8611685","prefecture":"熊本県","prefecture_kana":"クマモトケン","city":"菊池市","city_kana":"キクチシ","town":"西迫間","town_kana":"ニシハザマ","prefecture_code":43},"1324":{"zip_code":"8611324","prefecture":"熊本県","prefecture_kana":"クマモトケン","city":"菊池市","city_kana":"キクチシ","town":"野間口","town_kana":"ノマグチ","prefecture_code":43},"1441":{"zip_code":"8611441","prefecture":"熊本県","prefecture_kana":"クマモトケン","city":"菊池市","city_kana":"キクチシ","town":"原","town_kana":"ハル","prefecture_code":43},"1671":{"zip_code":"8611671","prefecture":"熊本県","prefecture_kana":"クマモトケン","city":"菊池市","city_kana":"キクチシ","town":"班蛇口","town_kana":"ハンジャク","prefecture_code":43},"1321":{"zip_code":"8611321","prefecture":"熊本県","prefecture_kana":"クマモトケン","city":"菊池市","city_kana":"キクチシ","town":"稗方","town_kana":"ヒエガタ","prefecture_code":43},"1314":{"zip_code":"8611314","prefecture":"熊本県","prefecture_kana":"クマモトケン","city":"菊池市","city_kana":"キクチシ","town":"広瀬","town_kana":"ヒロセ","prefecture_code":43},"1304":{"zip_code":"8611304","prefecture":"熊本県","prefecture_kana":"クマモトケン","city":"菊池市","city_kana":"キクチシ","town":"深川","town_kana":"フカガワ","prefecture_code":43},"1309":{"zip_code":"8611309","prefecture":"熊本県","prefecture_kana":"クマモトケン","city":"菊池市","city_kana":"キクチシ","town":"藤田","town_kana":"フジタ","prefecture_code":43},"1317":{"zip_code":"8611317","prefecture":"熊本県","prefecture_kana":"クマモトケン","city":"菊池市","city_kana":"キクチシ","town":"村田","town_kana":"ムラダ","prefecture_code":43},"1312":{"zip_code":"8611312","prefecture":"熊本県","prefecture_kana":"クマモトケン","city":"菊池市","city_kana":"キクチシ","town":"森北","town_kana":"モリキタ","prefecture_code":43},"1681":{"zip_code":"8611681","prefecture":"熊本県","prefecture_kana":"クマモトケン","city":"菊池市","city_kana":"キクチシ","town":"雪野","town_kana":"ユキノ","prefecture_code":43},"1672":{"zip_code":"8611672","prefecture":"熊本県","prefecture_kana":"クマモトケン","city":"菊池市","city_kana":"キクチシ","town":"龍門","town_kana":"リュウモン","prefecture_code":43},"1331":{"zip_code":"8611331","prefecture":"熊本県","prefecture_kana":"クマモトケン","city":"菊池市","city_kana":"キクチシ","town":"隈府","town_kana":"ワイフ","prefecture_code":43},"1308":{"zip_code":"8611308","prefecture":"熊本県","prefecture_kana":"クマモトケン","city":"菊池市","city_kana":"キクチシ","town":"亘","town_kana":"ワタル","prefecture_code":43},"6102":{"zip_code":"8616102","prefecture":"熊本県","prefecture_kana":"クマモトケン","city":"上天草市","city_kana":"カミアマクサシ","town":"松島町合津","town_kana":"マツシママチアイツ","prefecture_code":43},"6101":{"zip_code":"8616101","prefecture":"熊本県","prefecture_kana":"クマモトケン","city":"上天草市","city_kana":"カミアマクサシ","town":"松島町阿村","town_kana":"マツシママチアムラ","prefecture_code":43},"6103":{"zip_code":"8616103","prefecture":"熊本県","prefecture_kana":"クマモトケン","city":"上天草市","city_kana":"カミアマクサシ","town":"松島町今泉","town_kana":"マツシママチイマイズミ","prefecture_code":43},"6104":{"zip_code":"8616104","prefecture":"熊本県","prefecture_kana":"クマモトケン","city":"上天草市","city_kana":"カミアマクサシ","town":"松島町内野河内","town_kana":"マツシママチウチノカワウチ","prefecture_code":43},"6105":{"zip_code":"8616105","prefecture":"熊本県","prefecture_kana":"クマモトケン","city":"上天草市","city_kana":"カミアマクサシ","town":"松島町教良木","town_kana":"マツシママチキョウラギ","prefecture_code":43},"4301":{"zip_code":"8614301","prefecture":"熊本県","prefecture_kana":"クマモトケン","city":"宇城市","city_kana":"ウキシ","town":"豊野町糸石","town_kana":"トヨノマチイトイシ","prefecture_code":43},"4303":{"zip_code":"8614303","prefecture":"熊本県","prefecture_kana":"クマモトケン","city":"宇城市","city_kana":"ウキシ","town":"豊野町上郷","town_kana":"トヨノマチカミゴウ","prefecture_code":43},"4304":{"zip_code":"8614304","prefecture":"熊本県","prefecture_kana":"クマモトケン","city":"宇城市","city_kana":"ウキシ","town":"豊野町下郷","town_kana":"トヨノマチシモゴウ","prefecture_code":43},"4307":{"zip_code":"8614307","prefecture":"熊本県","prefecture_kana":"クマモトケン","city":"宇城市","city_kana":"ウキシ","town":"豊野町巣林","town_kana":"トヨノマチスバヤシ","prefecture_code":43},"4302":{"zip_code":"8614302","prefecture":"熊本県","prefecture_kana":"クマモトケン","city":"宇城市","city_kana":"ウキシ","town":"豊野町中間","town_kana":"トヨノマチナカマ","prefecture_code":43},"4306":{"zip_code":"8614306","prefecture":"熊本県","prefecture_kana":"クマモトケン","city":"宇城市","city_kana":"ウキシ","town":"豊野町安見","town_kana":"トヨノマチヤスミ","prefecture_code":43},"4305":{"zip_code":"8614305","prefecture":"熊本県","prefecture_kana":"クマモトケン","city":"宇城市","city_kana":"ウキシ","town":"豊野町山崎","town_kana":"トヨノマチヤマサキ","prefecture_code":43},"7201":{"zip_code":"8617201","prefecture":"熊本県","prefecture_kana":"クマモトケン","city":"天草市","city_kana":"アマクサシ","town":"有明町赤崎","town_kana":"アリアケマチアカサキ","prefecture_code":43},"7203":{"zip_code":"8617203","prefecture":"熊本県","prefecture_kana":"クマモトケン","city":"天草市","city_kana":"アマクサシ","town":"有明町大浦","town_kana":"アリアケマチオオウラ","prefecture_code":43},"7314":{"zip_code":"8617314","prefecture":"熊本県","prefecture_kana":"クマモトケン","city":"天草市","city_kana":"アマクサシ","town":"有明町大島子","town_kana":"アリアケマチオオシマゴ","prefecture_code":43},"7204":{"zip_code":"8617204","prefecture":"熊本県","prefecture_kana":"クマモトケン","city":"天草市","city_kana":"アマクサシ","town":"有明町楠甫","town_kana":"アリアケマチクスボ","prefecture_code":43},"7311":{"zip_code":"8617311","prefecture":"熊本県","prefecture_kana":"クマモトケン","city":"天草市","city_kana":"アマクサシ","town":"有明町上津浦","town_kana":"アリアケマチコウツウラ","prefecture_code":43},"7313":{"zip_code":"8617313","prefecture":"熊本県","prefecture_kana":"クマモトケン","city":"天草市","city_kana":"アマクサシ","town":"有明町小島子","town_kana":"アリアケマチコシマゴ","prefecture_code":43},"7312":{"zip_code":"8617312","prefecture":"熊本県","prefecture_kana":"クマモトケン","city":"天草市","city_kana":"アマクサシ","town":"有明町下津浦","town_kana":"アリアケマチシモツウラ","prefecture_code":43},"7202":{"zip_code":"8617202","prefecture":"熊本県","prefecture_kana":"クマモトケン","city":"天草市","city_kana":"アマクサシ","town":"有明町須子","town_kana":"アリアケマチスジ","prefecture_code":43},"6401":{"zip_code":"8616401","prefecture":"熊本県","prefecture_kana":"クマモトケン","city":"天草市","city_kana":"アマクサシ","town":"倉岳町浦","town_kana":"クラタケマチウラ","prefecture_code":43},"6402":{"zip_code":"8616402","prefecture":"熊本県","prefecture_kana":"クマモトケン","city":"天草市","city_kana":"アマクサシ","town":"倉岳町棚底","town_kana":"クラタケマチタナソコ","prefecture_code":43},"6403":{"zip_code":"8616403","prefecture":"熊本県","prefecture_kana":"クマモトケン","city":"天草市","city_kana":"アマクサシ","town":"倉岳町宮田","town_kana":"クラタケマチミヤダ","prefecture_code":43},"6551":{"zip_code":"8616551","prefecture":"熊本県","prefecture_kana":"クマモトケン","city":"天草市","city_kana":"アマクサシ","town":"下浦町","town_kana":"シモウラマチ","prefecture_code":43},"6301":{"zip_code":"8616301","prefecture":"熊本県","prefecture_kana":"クマモトケン","city":"天草市","city_kana":"アマクサシ","town":"栖本町打田","town_kana":"スモトマチウチダ","prefecture_code":43},"6302":{"zip_code":"8616302","prefecture":"熊本県","prefecture_kana":"クマモトケン","city":"天草市","city_kana":"アマクサシ","town":"栖本町河内","town_kana":"スモトマチカワチ","prefecture_code":43},"6303":{"zip_code":"8616303","prefecture":"熊本県","prefecture_kana":"クマモトケン","city":"天草市","city_kana":"アマクサシ","town":"栖本町馬場","town_kana":"スモトマチババ","prefecture_code":43},"6304":{"zip_code":"8616304","prefecture":"熊本県","prefecture_kana":"クマモトケン","city":"天草市","city_kana":"アマクサシ","town":"栖本町古江","town_kana":"スモトマチフルエ","prefecture_code":43},"6305":{"zip_code":"8616305","prefecture":"熊本県","prefecture_kana":"クマモトケン","city":"天草市","city_kana":"アマクサシ","town":"栖本町湯船原","town_kana":"スモトマチユフネハラ","prefecture_code":43},"1100":{"zip_code":"8611100","prefecture":"熊本県","prefecture_kana":"クマモトケン","city":"合志市","city_kana":"コウシシ","town":"以下に掲載がない場合","town_kana":"イカニケイサイガナイバアイ","prefecture_code":43},"1101":{"zip_code":"8611101","prefecture":"熊本県","prefecture_kana":"クマモトケン","city":"合志市","city_kana":"コウシシ","town":"合生","town_kana":"アイオイ","prefecture_code":43},"1111":{"zip_code":"8611111","prefecture":"熊本県","prefecture_kana":"クマモトケン","city":"合志市","city_kana":"コウシシ","town":"上庄","town_kana":"カミノショウ","prefecture_code":43},"1112":{"zip_code":"8611112","prefecture":"熊本県","prefecture_kana":"クマモトケン","city":"合志市","city_kana":"コウシシ","town":"幾久富","town_kana":"キクドミ","prefecture_code":43},"1113":{"zip_code":"8611113","prefecture":"熊本県","prefecture_kana":"クマモトケン","city":"合志市","city_kana":"コウシシ","town":"栄","town_kana":"サカエ","prefecture_code":43},"1102":{"zip_code":"8611102","prefecture":"熊本県","prefecture_kana":"クマモトケン","city":"合志市","city_kana":"コウシシ","town":"須屋","town_kana":"スヤ","prefecture_code":43},"1114":{"zip_code":"8611114","prefecture":"熊本県","prefecture_kana":"クマモトケン","city":"合志市","city_kana":"コウシシ","town":"竹迫","town_kana":"タカバ","prefecture_code":43},"1115":{"zip_code":"8611115","prefecture":"熊本県","prefecture_kana":"クマモトケン","city":"合志市","city_kana":"コウシシ","town":"豊岡","town_kana":"トヨオカ","prefecture_code":43},"1103":{"zip_code":"8611103","prefecture":"熊本県","prefecture_kana":"クマモトケン","city":"合志市","city_kana":"コウシシ","town":"野々島","town_kana":"ノノシマ","prefecture_code":43},"1116":{"zip_code":"8611116","prefecture":"熊本県","prefecture_kana":"クマモトケン","city":"合志市","city_kana":"コウシシ","town":"福原","town_kana":"フクハラ","prefecture_code":43},"1104":{"zip_code":"8611104","prefecture":"熊本県","prefecture_kana":"クマモトケン","city":"合志市","city_kana":"コウシシ","town":"御代志","town_kana":"ミヨシ","prefecture_code":43},"1105":{"zip_code":"8611105","prefecture":"熊本県","prefecture_kana":"クマモトケン","city":"合志市","city_kana":"コウシシ","town":"上生","town_kana":"ワブ","prefecture_code":43},"4700":{"zip_code":"8614700","prefecture":"熊本県","prefecture_kana":"クマモトケン","city":"下益城郡美里町","city_kana":"シモマシキグンミサトマチ","town":"以下に掲載がない場合","town_kana":"イカニケイサイガナイバアイ","prefecture_code":43},"4714":{"zip_code":"8614714","prefecture":"熊本県","prefecture_kana":"クマモトケン","city":"下益城郡美里町","city_kana":"シモマシキグンミサトマチ","town":"安部","town_kana":"アベ","prefecture_code":43},"4716":{"zip_code":"8614716","prefecture":"熊本県","prefecture_kana":"クマモトケン","city":"下益城郡美里町","city_kana":"シモマシキグンミサトマチ","town":"石野","town_kana":"イシノ","prefecture_code":43},"4734":{"zip_code":"8614734","prefecture":"熊本県","prefecture_kana":"クマモトケン","city":"下益城郡美里町","city_kana":"シモマシキグンミサトマチ","town":"今","town_kana":"イマ","prefecture_code":43},"4404":{"zip_code":"8614404","prefecture":"熊本県","prefecture_kana":"クマモトケン","city":"下益城郡美里町","city_kana":"シモマシキグンミサトマチ","town":"岩下","town_kana":"イワシタ","prefecture_code":43},"4413":{"zip_code":"8614413","prefecture":"熊本県","prefecture_kana":"クマモトケン","city":"下益城郡美里町","city_kana":"シモマシキグンミサトマチ","town":"岩野","town_kana":"イワノ","prefecture_code":43},"4703":{"zip_code":"8614703","prefecture":"熊本県","prefecture_kana":"クマモトケン","city":"下益城郡美里町","city_kana":"シモマシキグンミサトマチ","town":"畝野","town_kana":"ウネノ","prefecture_code":43},"4701":{"zip_code":"8614701","prefecture":"熊本県","prefecture_kana":"クマモトケン","city":"下益城郡美里町","city_kana":"シモマシキグンミサトマチ","town":"大井早","town_kana":"オオイソウ","prefecture_code":43},"4726":{"zip_code":"8614726","prefecture":"熊本県","prefecture_kana":"クマモトケン","city":"下益城郡美里町","city_kana":"シモマシキグンミサトマチ","town":"大窪","town_kana":"オオクボ","prefecture_code":43},"4401":{"zip_code":"8614401","prefecture":"熊本県","prefecture_kana":"クマモトケン","city":"下益城郡美里町","city_kana":"シモマシキグンミサトマチ","town":"大沢水","town_kana":"オオソウズ","prefecture_code":43},"4712":{"zip_code":"8614712","prefecture":"熊本県","prefecture_kana":"クマモトケン","city":"下益城郡美里町","city_kana":"シモマシキグンミサトマチ","town":"柏川","town_kana":"カシワガワ","prefecture_code":43},"4402":{"zip_code":"8614402","prefecture":"熊本県","prefecture_kana":"クマモトケン","city":"下益城郡美里町","city_kana":"シモマシキグンミサトマチ","town":"堅志田","town_kana":"カタシダ","prefecture_code":43},"4405":{"zip_code":"8614405","prefecture":"熊本県","prefecture_kana":"クマモトケン","city":"下益城郡美里町","city_kana":"シモマシキグンミサトマチ","town":"萱野","town_kana":"カヤノ","prefecture_code":43},"4707":{"zip_code":"8614707","prefecture":"熊本県","prefecture_kana":"クマモトケン","city":"下益城郡美里町","city_kana":"シモマシキグンミサトマチ","town":"川越","town_kana":"カワゴシ","prefecture_code":43},"4425":{"zip_code":"8614425","prefecture":"熊本県","prefecture_kana":"クマモトケン","city":"下益城郡美里町","city_kana":"シモマシキグンミサトマチ","town":"木早川内","town_kana":"キソガワチ","prefecture_code":43},"4715":{"zip_code":"8614715","prefecture":"熊本県","prefecture_kana":"クマモトケン","city":"下益城郡美里町","city_kana":"シモマシキグンミサトマチ","town":"清水","town_kana":"キヨミズ","prefecture_code":43},"4731":{"zip_code":"8614731","prefecture":"熊本県","prefecture_kana":"クマモトケン","city":"下益城郡美里町","city_kana":"シモマシキグンミサトマチ","town":"栗崎","town_kana":"クリザキ","prefecture_code":43},"4424":{"zip_code":"8614424","prefecture":"熊本県","prefecture_kana":"クマモトケン","city":"下益城郡美里町","city_kana":"シモマシキグンミサトマチ","town":"小市野","town_kana":"コイチノ","prefecture_code":43},"4706":{"zip_code":"8614706","prefecture":"熊本県","prefecture_kana":"クマモトケン","city":"下益城郡美里町","city_kana":"シモマシキグンミサトマチ","town":"甲佐平","town_kana":"コウサビラ","prefecture_code":43},"4737":{"zip_code":"8614737","prefecture":"熊本県","prefecture_kana":"クマモトケン","city":"下益城郡美里町","city_kana":"シモマシキグンミサトマチ","town":"古閑","town_kana":"コガ","prefecture_code":43},"4411":{"zip_code":"8614411","prefecture":"熊本県","prefecture_kana":"クマモトケン","city":"下益城郡美里町","city_kana":"シモマシキグンミサトマチ","town":"小筵","town_kana":"コムシロ","prefecture_code":43},"4723":{"zip_code":"8614723","prefecture":"熊本県","prefecture_kana":"クマモトケン","city":"下益城郡美里町","city_kana":"シモマシキグンミサトマチ","town":"境","town_kana":"サカイ","prefecture_code":43},"4725":{"zip_code":"8614725","prefecture":"熊本県","prefecture_kana":"クマモトケン","city":"下益城郡美里町","city_kana":"シモマシキグンミサトマチ","town":"坂貫","town_kana":"サカヌキ","prefecture_code":43},"4415":{"zip_code":"8614415","prefecture":"熊本県","prefecture_kana":"クマモトケン","city":"下益城郡美里町","city_kana":"シモマシキグンミサトマチ","town":"坂本","town_kana":"サカモト","prefecture_code":43},"4412":{"zip_code":"8614412","prefecture":"熊本県","prefecture_kana":"クマモトケン","city":"下益城郡美里町","city_kana":"シモマシキグンミサトマチ","town":"佐俣","town_kana":"サマタ","prefecture_code":43},"4735":{"zip_code":"8614735","prefecture":"熊本県","prefecture_kana":"クマモトケン","city":"下益城郡美里町","city_kana":"シモマシキグンミサトマチ","town":"三加","town_kana":"サンガ","prefecture_code":43},"4426":{"zip_code":"8614426","prefecture":"熊本県","prefecture_kana":"クマモトケン","city":"下益城郡美里町","city_kana":"シモマシキグンミサトマチ","town":"白石野","town_kana":"シライシノ","prefecture_code":43},"4721":{"zip_code":"8614721","prefecture":"熊本県","prefecture_kana":"クマモトケン","city":"下益城郡美里町","city_kana":"シモマシキグンミサトマチ","town":"土喰","town_kana":"ツチバミ","prefecture_code":43},"4414":{"zip_code":"8614414","prefecture":"熊本県","prefecture_kana":"クマモトケン","city":"下益城郡美里町","city_kana":"シモマシキグンミサトマチ","town":"椿","town_kana":"ツバキ","prefecture_code":43},"4427":{"zip_code":"8614427","prefecture":"熊本県","prefecture_kana":"クマモトケン","city":"下益城郡美里町","city_kana":"シモマシキグンミサトマチ","town":"津留","town_kana":"ツル","prefecture_code":43},"4702":{"zip_code":"8614702","prefecture":"熊本県","prefecture_kana":"クマモトケン","city":"下益城郡美里町","city_kana":"シモマシキグンミサトマチ","town":"遠野","town_kana":"トオノ","prefecture_code":43},"4705":{"zip_code":"8614705","prefecture":"熊本県","prefecture_kana":"クマモトケン","city":"下益城郡美里町","city_kana":"シモマシキグンミサトマチ","town":"豊富","town_kana":"トヨトミ","prefecture_code":43},"4417":{"zip_code":"8614417","prefecture":"熊本県","prefecture_kana":"クマモトケン","city":"下益城郡美里町","city_kana":"シモマシキグンミサトマチ","town":"中","town_kana":"ナカ","prefecture_code":43},"4422":{"zip_code":"8614422","prefecture":"熊本県","prefecture_kana":"クマモトケン","city":"下益城郡美里町","city_kana":"シモマシキグンミサトマチ","town":"長尾野","town_kana":"ナガオノ","prefecture_code":43},"4403":{"zip_code":"8614403","prefecture":"熊本県","prefecture_kana":"クマモトケン","city":"下益城郡美里町","city_kana":"シモマシキグンミサトマチ","town":"中郡","town_kana":"ナカゴオリ","prefecture_code":43},"4407":{"zip_code":"8614407","prefecture":"熊本県","prefecture_kana":"クマモトケン","city":"下益城郡美里町","city_kana":"シモマシキグンミサトマチ","town":"中小路","town_kana":"ナカショウジ","prefecture_code":43},"4722":{"zip_code":"8614722","prefecture":"熊本県","prefecture_kana":"クマモトケン","city":"下益城郡美里町","city_kana":"シモマシキグンミサトマチ","town":"永富","town_kana":"ナガトミ","prefecture_code":43},"4736":{"zip_code":"8614736","prefecture":"熊本県","prefecture_kana":"クマモトケン","city":"下益城郡美里町","city_kana":"シモマシキグンミサトマチ","town":"名越谷","town_kana":"ナゴシダニ","prefecture_code":43},"4733":{"zip_code":"8614733","prefecture":"熊本県","prefecture_kana":"クマモトケン","city":"下益城郡美里町","city_kana":"シモマシキグンミサトマチ","town":"二和田","town_kana":"ニワダ","prefecture_code":43},"4406":{"zip_code":"8614406","prefecture":"熊本県","prefecture_kana":"クマモトケン","city":"下益城郡美里町","city_kana":"シモマシキグンミサトマチ","town":"馬場","town_kana":"ババ","prefecture_code":43},"4713":{"zip_code":"8614713","prefecture":"熊本県","prefecture_kana":"クマモトケン","city":"下益城郡美里町","city_kana":"シモマシキグンミサトマチ","town":"早楠","town_kana":"ハヤクス","prefecture_code":43},"4416":{"zip_code":"8614416","prefecture":"熊本県","prefecture_kana":"クマモトケン","city":"下益城郡美里町","city_kana":"シモマシキグンミサトマチ","town":"払川","town_kana":"ハライガワ","prefecture_code":43},"4421":{"zip_code":"8614421","prefecture":"熊本県","prefecture_kana":"クマモトケン","city":"下益城郡美里町","city_kana":"シモマシキグンミサトマチ","town":"原田","town_kana":"ハラダ","prefecture_code":43},"4727":{"zip_code":"8614727","prefecture":"熊本県","prefecture_kana":"クマモトケン","city":"下益城郡美里町","city_kana":"シモマシキグンミサトマチ","town":"原町","town_kana":"ハラマチ","prefecture_code":43},"4711":{"zip_code":"8614711","prefecture":"熊本県","prefecture_kana":"クマモトケン","city":"下益城郡美里町","city_kana":"シモマシキグンミサトマチ","town":"洞岳","town_kana":"ホラオカ","prefecture_code":43},"4423":{"zip_code":"8614423","prefecture":"熊本県","prefecture_kana":"クマモトケン","city":"下益城郡美里町","city_kana":"シモマシキグンミサトマチ","town":"松野原","town_kana":"マツノハラ","prefecture_code":43},"4732":{"zip_code":"8614732","prefecture":"熊本県","prefecture_kana":"クマモトケン","city":"下益城郡美里町","city_kana":"シモマシキグンミサトマチ","town":"三和","town_kana":"ミツワ","prefecture_code":43},"4704":{"zip_code":"8614704","prefecture":"熊本県","prefecture_kana":"クマモトケン","city":"下益城郡美里町","city_kana":"シモマシキグンミサトマチ","town":"涌井","town_kana":"ユイ","prefecture_code":43},"0800":{"zip_code":"8610800","prefecture":"熊本県","prefecture_kana":"クマモトケン","city":"玉名郡南関町","city_kana":"タマナグンナンカンマチ","town":"以下に掲載がない場合","town_kana":"イカニケイサイガナイバアイ","prefecture_code":43},"0812":{"zip_code":"8610812","prefecture":"熊本県","prefecture_kana":"クマモトケン","city":"玉名郡南関町","city_kana":"タマナグンナンカンマチ","town":"相谷","town_kana":"アイノタニ","prefecture_code":43},"0832":{"zip_code":"8610832","prefecture":"熊本県","prefecture_kana":"クマモトケン","city":"玉名郡南関町","city_kana":"タマナグンナンカンマチ","town":"今","town_kana":"イマ","prefecture_code":43},"0822":{"zip_code":"8610822","prefecture":"熊本県","prefecture_kana":"クマモトケン","city":"玉名郡南関町","city_kana":"タマナグンナンカンマチ","town":"上坂下","town_kana":"カミサカシタ","prefecture_code":43},"0837":{"zip_code":"8610837","prefecture":"熊本県","prefecture_kana":"クマモトケン","city":"玉名郡南関町","city_kana":"タマナグンナンカンマチ","town":"上長田","town_kana":"カミナガタ","prefecture_code":43},"0836":{"zip_code":"8610836","prefecture":"熊本県","prefecture_kana":"クマモトケン","city":"玉名郡南関町","city_kana":"タマナグンナンカンマチ","town":"久重","town_kana":"クシゲ","prefecture_code":43},"0814":{"zip_code":"8610814","prefecture":"熊本県","prefecture_kana":"クマモトケン","city":"玉名郡南関町","city_kana":"タマナグンナンカンマチ","town":"肥猪","town_kana":"コエイ","prefecture_code":43},"0813":{"zip_code":"8610813","prefecture":"熊本県","prefecture_kana":"クマモトケン","city":"玉名郡南関町","city_kana":"タマナグンナンカンマチ","town":"肥猪町","town_kana":"コエイマチ","prefecture_code":43},"0811":{"zip_code":"8610811","prefecture":"熊本県","prefecture_kana":"クマモトケン","city":"玉名郡南関町","city_kana":"タマナグンナンカンマチ","town":"小原","town_kana":"コバル","prefecture_code":43},"0821":{"zip_code":"8610821","prefecture":"熊本県","prefecture_kana":"クマモトケン","city":"玉名郡南関町","city_kana":"タマナグンナンカンマチ","town":"下坂下","town_kana":"シモサカシタ","prefecture_code":43},"0805":{"zip_code":"8610805","prefecture":"熊本県","prefecture_kana":"クマモトケン","city":"玉名郡南関町","city_kana":"タマナグンナンカンマチ","town":"関下","town_kana":"セキシモ","prefecture_code":43},"0801":{"zip_code":"8610801","prefecture":"熊本県","prefecture_kana":"クマモトケン","city":"玉名郡南関町","city_kana":"タマナグンナンカンマチ","town":"関外目","town_kana":"セキホカメ","prefecture_code":43},"0803":{"zip_code":"8610803","prefecture":"熊本県","prefecture_kana":"クマモトケン","city":"玉名郡南関町","city_kana":"タマナグンナンカンマチ","town":"関町","town_kana":"セキマチ","prefecture_code":43},"0804":{"zip_code":"8610804","prefecture":"熊本県","prefecture_kana":"クマモトケン","city":"玉名郡南関町","city_kana":"タマナグンナンカンマチ","town":"関村","town_kana":"セキムラ","prefecture_code":43},"0802":{"zip_code":"8610802","prefecture":"熊本県","prefecture_kana":"クマモトケン","city":"玉名郡南関町","city_kana":"タマナグンナンカンマチ","town":"関東","town_kana":"セキヒガシ","prefecture_code":43},"0833":{"zip_code":"8610833","prefecture":"熊本県","prefecture_kana":"クマモトケン","city":"玉名郡南関町","city_kana":"タマナグンナンカンマチ","town":"高久野","town_kana":"タカクノ","prefecture_code":43},"0815":{"zip_code":"8610815","prefecture":"熊本県","prefecture_kana":"クマモトケン","city":"玉名郡南関町","city_kana":"タマナグンナンカンマチ","town":"豊永","town_kana":"トヨナガ","prefecture_code":43},"0835":{"zip_code":"8610835","prefecture":"熊本県","prefecture_kana":"クマモトケン","city":"玉名郡南関町","city_kana":"タマナグンナンカンマチ","town":"長山","town_kana":"ナガヤマ","prefecture_code":43},"0831":{"zip_code":"8610831","prefecture":"熊本県","prefecture_kana":"クマモトケン","city":"玉名郡南関町","city_kana":"タマナグンナンカンマチ","town":"細永","town_kana":"ホソナガ","prefecture_code":43},"0834":{"zip_code":"8610834","prefecture":"熊本県","prefecture_kana":"クマモトケン","city":"玉名郡南関町","city_kana":"タマナグンナンカンマチ","town":"宮尾","town_kana":"ミヤオ","prefecture_code":43},"0823":{"zip_code":"8610823","prefecture":"熊本県","prefecture_kana":"クマモトケン","city":"玉名郡南関町","city_kana":"タマナグンナンカンマチ","town":"四ツ原","town_kana":"ヨツハラ","prefecture_code":43},"0913":{"zip_code":"8610913","prefecture":"熊本県","prefecture_kana":"クマモトケン","city":"玉名郡和水町","city_kana":"タマナグンナゴミマチ","town":"板楠","town_kana":"イタクス","prefecture_code":43},"0922":{"zip_code":"8610922","prefecture":"熊本県","prefecture_kana":"クマモトケン","city":"玉名郡和水町","city_kana":"タマナグンナゴミマチ","town":"岩","town_kana":"イワ","prefecture_code":43},"0924":{"zip_code":"8610924","prefecture":"熊本県","prefecture_kana":"クマモトケン","city":"玉名郡和水町","city_kana":"タマナグンナゴミマチ","town":"大田黒","town_kana":"オオタグロ","prefecture_code":43},"0914":{"zip_code":"8610914","prefecture":"熊本県","prefecture_kana":"クマモトケン","city":"玉名郡和水町","city_kana":"タマナグンナゴミマチ","town":"上板楠","town_kana":"カミイタクス","prefecture_code":43},"0911":{"zip_code":"8610911","prefecture":"熊本県","prefecture_kana":"クマモトケン","city":"玉名郡和水町","city_kana":"タマナグンナゴミマチ","town":"上十町","town_kana":"カミジッチョウ","prefecture_code":43},"0901":{"zip_code":"8610901","prefecture":"熊本県","prefecture_kana":"クマモトケン","city":"玉名郡和水町","city_kana":"タマナグンナゴミマチ","town":"上和仁","town_kana":"カミワニ","prefecture_code":43},"0921":{"zip_code":"8610921","prefecture":"熊本県","prefecture_kana":"クマモトケン","city":"玉名郡和水町","city_kana":"タマナグンナゴミマチ","town":"津田","town_kana":"ツダ","prefecture_code":43},"0912":{"zip_code":"8610912","prefecture":"熊本県","prefecture_kana":"クマモトケン","city":"玉名郡和水町","city_kana":"タマナグンナゴミマチ","town":"中十町","town_kana":"ナカジッチョウ","prefecture_code":43},"0905":{"zip_code":"8610905","prefecture":"熊本県","prefecture_kana":"クマモトケン","city":"玉名郡和水町","city_kana":"タマナグンナゴミマチ","town":"中林","town_kana":"ナカバヤシ","prefecture_code":43},"0902":{"zip_code":"8610902","prefecture":"熊本県","prefecture_kana":"クマモトケン","city":"玉名郡和水町","city_kana":"タマナグンナゴミマチ","town":"中和仁","town_kana":"ナカワニ","prefecture_code":43},"0906":{"zip_code":"8610906","prefecture":"熊本県","prefecture_kana":"クマモトケン","city":"玉名郡和水町","city_kana":"タマナグンナゴミマチ","town":"西吉地","town_kana":"ニシヨシジ","prefecture_code":43},"0925":{"zip_code":"8610925","prefecture":"熊本県","prefecture_kana":"クマモトケン","city":"玉名郡和水町","city_kana":"タマナグンナゴミマチ","town":"野田","town_kana":"ノダ","prefecture_code":43},"0904":{"zip_code":"8610904","prefecture":"熊本県","prefecture_kana":"クマモトケン","city":"玉名郡和水町","city_kana":"タマナグンナゴミマチ","town":"東吉地","town_kana":"ヒガシヨシジ","prefecture_code":43},"0923":{"zip_code":"8610923","prefecture":"熊本県","prefecture_kana":"クマモトケン","city":"玉名郡和水町","city_kana":"タマナグンナゴミマチ","town":"平野","town_kana":"ヒラノ","prefecture_code":43},"0915":{"zip_code":"8610915","prefecture":"熊本県","prefecture_kana":"クマモトケン","city":"玉名郡和水町","city_kana":"タマナグンナゴミマチ","town":"山十町","town_kana":"ヤマジッチョウ","prefecture_code":43},"0903":{"zip_code":"8610903","prefecture":"熊本県","prefecture_kana":"クマモトケン","city":"玉名郡和水町","city_kana":"タマナグンナゴミマチ","town":"和仁","town_kana":"ワニ","prefecture_code":43},"2400":{"zip_code":"8612400","prefecture":"熊本県","prefecture_kana":"クマモトケン","city":"阿蘇郡西原村","city_kana":"アソグンニシハラムラ","town":"以下に掲載がない場合","town_kana":"イカニケイサイガナイバアイ","prefecture_code":43},"2404":{"zip_code":"8612404","prefecture":"熊本県","prefecture_kana":"クマモトケン","city":"阿蘇郡西原村","city_kana":"アソグンニシハラムラ","town":"河原","town_kana":"カワハラ","prefecture_code":43},"2402":{"zip_code":"8612402","prefecture":"熊本県","prefecture_kana":"クマモトケン","city":"阿蘇郡西原村","city_kana":"アソグンニシハラムラ","town":"小森","town_kana":"コモリ","prefecture_code":43},"2401":{"zip_code":"8612401","prefecture":"熊本県","prefecture_kana":"クマモトケン","city":"阿蘇郡西原村","city_kana":"アソグンニシハラムラ","town":"鳥子","town_kana":"トリコ","prefecture_code":43},"2403":{"zip_code":"8612403","prefecture":"熊本県","prefecture_kana":"クマモトケン","city":"阿蘇郡西原村","city_kana":"アソグンニシハラムラ","town":"布田","town_kana":"フタ","prefecture_code":43},"2405":{"zip_code":"8612405","prefecture":"熊本県","prefecture_kana":"クマモトケン","city":"阿蘇郡西原村","city_kana":"アソグンニシハラムラ","town":"宮山","town_kana":"ミヤヤマ","prefecture_code":43},"3200":{"zip_code":"8613200","prefecture":"熊本県","prefecture_kana":"クマモトケン","city":"上益城郡御船町","city_kana":"カミマシキグンミフネマチ","town":"以下に掲載がない場合","town_kana":"イカニケイサイガナイバアイ","prefecture_code":43},"3322":{"zip_code":"8613322","prefecture":"熊本県","prefecture_kana":"クマモトケン","city":"上益城郡御船町","city_kana":"カミマシキグンミフネマチ","town":"上野","town_kana":"ウエノ","prefecture_code":43},"3202":{"zip_code":"8613202","prefecture":"熊本県","prefecture_kana":"クマモトケン","city":"上益城郡御船町","city_kana":"カミマシキグンミフネマチ","town":"小坂","town_kana":"オザカ","prefecture_code":43},"3204":{"zip_code":"8613204","prefecture":"熊本県","prefecture_kana":"クマモトケン","city":"上益城郡御船町","city_kana":"カミマシキグンミフネマチ","town":"木倉","town_kana":"キノクラ","prefecture_code":43},"3201":{"zip_code":"8613201","prefecture":"熊本県","prefecture_kana":"クマモトケン","city":"上益城郡御船町","city_kana":"カミマシキグンミフネマチ","town":"陣","town_kana":"ジン","prefecture_code":43},"3203":{"zip_code":"8613203","prefecture":"熊本県","prefecture_kana":"クマモトケン","city":"上益城郡御船町","city_kana":"カミマシキグンミフネマチ","town":"高木","town_kana":"タカキ","prefecture_code":43},"3208":{"zip_code":"8613208","prefecture":"熊本県","prefecture_kana":"クマモトケン","city":"上益城郡御船町","city_kana":"カミマシキグンミフネマチ","town":"滝尾","town_kana":"タキオ","prefecture_code":43},"3205":{"zip_code":"8613205","prefecture":"熊本県","prefecture_kana":"クマモトケン","city":"上益城郡御船町","city_kana":"カミマシキグンミフネマチ","town":"滝川","town_kana":"タキガワ","prefecture_code":43},"3323":{"zip_code":"8613323","prefecture":"熊本県","prefecture_kana":"クマモトケン","city":"上益城郡御船町","city_kana":"カミマシキグンミフネマチ","town":"田代","town_kana":"タシロ","prefecture_code":43},"3131":{"zip_code":"8613131","prefecture":"熊本県","prefecture_kana":"クマモトケン","city":"上益城郡御船町","city_kana":"カミマシキグンミフネマチ","town":"豊秋","town_kana":"トヨアキ","prefecture_code":43},"3421":{"zip_code":"8613421","prefecture":"熊本県","prefecture_kana":"クマモトケン","city":"上益城郡御船町","city_kana":"カミマシキグンミフネマチ","town":"七滝（松ノ生）","town_kana":"ナナタキ(マツノハエ)","prefecture_code":43},"3321":{"zip_code":"8613321","prefecture":"熊本県","prefecture_kana":"クマモトケン","city":"上益城郡御船町","city_kana":"カミマシキグンミフネマチ","town":"七滝（その他）","town_kana":"ナナタキ(ソノタ)","prefecture_code":43},"3206":{"zip_code":"8613206","prefecture":"熊本県","prefecture_kana":"クマモトケン","city":"上益城郡御船町","city_kana":"カミマシキグンミフネマチ","town":"辺田見","town_kana":"ヘタミ","prefecture_code":43},"3211":{"zip_code":"8613211","prefecture":"熊本県","prefecture_kana":"クマモトケン","city":"上益城郡御船町","city_kana":"カミマシキグンミフネマチ","town":"水越","town_kana":"ミズコシ","prefecture_code":43},"3207":{"zip_code":"8613207","prefecture":"熊本県","prefecture_kana":"クマモトケン","city":"上益城郡御船町","city_kana":"カミマシキグンミフネマチ","town":"御船","town_kana":"ミフネ","prefecture_code":43},"3100":{"zip_code":"8613100","prefecture":"熊本県","prefecture_kana":"クマモトケン","city":"上益城郡嘉島町","city_kana":"カミマシキグンカシママチ","town":"以下に掲載がない場合","town_kana":"イカニケイサイガナイバアイ","prefecture_code":43},"3103":{"zip_code":"8613103","prefecture":"熊本県","prefecture_kana":"クマモトケン","city":"上益城郡嘉島町","city_kana":"カミマシキグンカシママチ","town":"井寺","town_kana":"イテラ","prefecture_code":43},"3109":{"zip_code":"8613109","prefecture":"熊本県","prefecture_kana":"クマモトケン","city":"上益城郡嘉島町","city_kana":"カミマシキグンカシママチ","town":"犬渕","town_kana":"イヌブチ","prefecture_code":43},"3106":{"zip_code":"8613106","prefecture":"熊本県","prefecture_kana":"クマモトケン","city":"上益城郡嘉島町","city_kana":"カミマシキグンカシママチ","town":"上島","town_kana":"ウエジマ","prefecture_code":43},"3107":{"zip_code":"8613107","prefecture":"熊本県","prefecture_kana":"クマモトケン","city":"上益城郡嘉島町","city_kana":"カミマシキグンカシママチ","town":"上仲間","town_kana":"カミナカマ","prefecture_code":43},"3105":{"zip_code":"8613105","prefecture":"熊本県","prefecture_kana":"クマモトケン","city":"上益城郡嘉島町","city_kana":"カミマシキグンカシママチ","town":"上六嘉","town_kana":"カミロッカ","prefecture_code":43},"3104":{"zip_code":"8613104","prefecture":"熊本県","prefecture_kana":"クマモトケン","city":"上益城郡嘉島町","city_kana":"カミマシキグンカシママチ","town":"北甘木","town_kana":"キタアマギ","prefecture_code":43},"3108":{"zip_code":"8613108","prefecture":"熊本県","prefecture_kana":"クマモトケン","city":"上益城郡嘉島町","city_kana":"カミマシキグンカシママチ","town":"下仲間","town_kana":"シモナカマ","prefecture_code":43},"3102":{"zip_code":"8613102","prefecture":"熊本県","prefecture_kana":"クマモトケン","city":"上益城郡嘉島町","city_kana":"カミマシキグンカシママチ","town":"下六嘉","town_kana":"シモロッカ","prefecture_code":43},"3101":{"zip_code":"8613101","prefecture":"熊本県","prefecture_kana":"クマモトケン","city":"上益城郡嘉島町","city_kana":"カミマシキグンカシママチ","town":"鯰","town_kana":"ナマズ","prefecture_code":43},"2200":{"zip_code":"8612200","prefecture":"熊本県","prefecture_kana":"クマモトケン","city":"上益城郡益城町","city_kana":"カミマシキグンマシキマチ","town":"以下に掲載がない場合","town_kana":"イカニケイサイガナイバアイ","prefecture_code":43},"2221":{"zip_code":"8612221","prefecture":"熊本県","prefecture_kana":"クマモトケン","city":"上益城郡益城町","city_kana":"カミマシキグンマシキマチ","town":"赤井","town_kana":"アカイ","prefecture_code":43},"2223":{"zip_code":"8612223","prefecture":"熊本県","prefecture_kana":"クマモトケン","city":"上益城郡益城町","city_kana":"カミマシキグンマシキマチ","town":"小池","town_kana":"オイケ","prefecture_code":43},"2204":{"zip_code":"8612204","prefecture":"熊本県","prefecture_kana":"クマモトケン","city":"上益城郡益城町","city_kana":"カミマシキグンマシキマチ","town":"小谷","town_kana":"オヤツ","prefecture_code":43},"2203":{"zip_code":"8612203","prefecture":"熊本県","prefecture_kana":"クマモトケン","city":"上益城郡益城町","city_kana":"カミマシキグンマシキマチ","town":"上陳","town_kana":"カミジン","prefecture_code":43},"2242":{"zip_code":"8612242","prefecture":"熊本県","prefecture_kana":"クマモトケン","city":"上益城郡益城町","city_kana":"カミマシキグンマシキマチ","town":"木山","town_kana":"キヤマ","prefecture_code":43},"2234":{"zip_code":"8612234","prefecture":"熊本県","prefecture_kana":"クマモトケン","city":"上益城郡益城町","city_kana":"カミマシキグンマシキマチ","town":"古閑","town_kana":"コガ","prefecture_code":43},"2201":{"zip_code":"8612201","prefecture":"熊本県","prefecture_kana":"クマモトケン","city":"上益城郡益城町","city_kana":"カミマシキグンマシキマチ","town":"寺中","town_kana":"ジチュウ","prefecture_code":43},"2224":{"zip_code":"8612224","prefecture":"熊本県","prefecture_kana":"クマモトケン","city":"上益城郡益城町","city_kana":"カミマシキグンマシキマチ","town":"島田","town_kana":"シマダ","prefecture_code":43},"2206":{"zip_code":"8612206","prefecture":"熊本県","prefecture_kana":"クマモトケン","city":"上益城郡益城町","city_kana":"カミマシキグンマシキマチ","town":"下陳","town_kana":"シモジン","prefecture_code":43},"2205":{"zip_code":"8612205","prefecture":"熊本県","prefecture_kana":"クマモトケン","city":"上益城郡益城町","city_kana":"カミマシキグンマシキマチ","town":"杉堂","town_kana":"スギドウ","prefecture_code":43},"2233":{"zip_code":"8612233","prefecture":"熊本県","prefecture_kana":"クマモトケン","city":"上益城郡益城町","city_kana":"カミマシキグンマシキマチ","town":"惣領","town_kana":"ソウリョウ","prefecture_code":43},"2202":{"zip_code":"8612202","prefecture":"熊本県","prefecture_kana":"クマモトケン","city":"上益城郡益城町","city_kana":"カミマシキグンマシキマチ","town":"田原","town_kana":"タバル","prefecture_code":43},"2243":{"zip_code":"8612243","prefecture":"熊本県","prefecture_kana":"クマモトケン","city":"上益城郡益城町","city_kana":"カミマシキグンマシキマチ","town":"辻の城","town_kana":"ツジノシロ","prefecture_code":43},"2244":{"zip_code":"8612244","prefecture":"熊本県","prefecture_kana":"クマモトケン","city":"上益城郡益城町","city_kana":"カミマシキグンマシキマチ","town":"寺迫","town_kana":"テラサコ","prefecture_code":43},"2222":{"zip_code":"8612222","prefecture":"熊本県","prefecture_kana":"クマモトケン","city":"上益城郡益城町","city_kana":"カミマシキグンマシキマチ","town":"砥川","town_kana":"トガワ","prefecture_code":43},"2212":{"zip_code":"8612212","prefecture":"熊本県","prefecture_kana":"クマモトケン","city":"上益城郡益城町","city_kana":"カミマシキグンマシキマチ","town":"平田","town_kana":"ヒラタ","prefecture_code":43},"2236":{"zip_code":"8612236","prefecture":"熊本県","prefecture_kana":"クマモトケン","city":"上益城郡益城町","city_kana":"カミマシキグンマシキマチ","town":"広崎","town_kana":"ヒロサキ","prefecture_code":43},"2235":{"zip_code":"8612235","prefecture":"熊本県","prefecture_kana":"クマモトケン","city":"上益城郡益城町","city_kana":"カミマシキグンマシキマチ","town":"福富","town_kana":"フクドミ","prefecture_code":43},"2211":{"zip_code":"8612211","prefecture":"熊本県","prefecture_kana":"クマモトケン","city":"上益城郡益城町","city_kana":"カミマシキグンマシキマチ","town":"福原","town_kana":"フクハラ","prefecture_code":43},"2232":{"zip_code":"8612232","prefecture":"熊本県","prefecture_kana":"クマモトケン","city":"上益城郡益城町","city_kana":"カミマシキグンマシキマチ","town":"馬水","town_kana":"マミズ","prefecture_code":43},"2241":{"zip_code":"8612241","prefecture":"熊本県","prefecture_kana":"クマモトケン","city":"上益城郡益城町","city_kana":"カミマシキグンマシキマチ","town":"宮園","town_kana":"ミヤゾノ","prefecture_code":43},"2231":{"zip_code":"8612231","prefecture":"熊本県","prefecture_kana":"クマモトケン","city":"上益城郡益城町","city_kana":"カミマシキグンマシキマチ","town":"安永","town_kana":"ヤスナガ","prefecture_code":43},"4600":{"zip_code":"8614600","prefecture":"熊本県","prefecture_kana":"クマモトケン","city":"上益城郡甲佐町","city_kana":"カミマシキグンコウサマチ","town":"以下に掲載がない場合","town_kana":"イカニケイサイガナイバアイ","prefecture_code":43},"4618":{"zip_code":"8614618","prefecture":"熊本県","prefecture_kana":"クマモトケン","city":"上益城郡甲佐町","city_kana":"カミマシキグンコウサマチ","town":"麻生原","town_kana":"アソバル","prefecture_code":43},"4605":{"zip_code":"8614605","prefecture":"熊本県","prefecture_kana":"クマモトケン","city":"上益城郡甲佐町","city_kana":"カミマシキグンコウサマチ","town":"有安","town_kana":"アリヤス","prefecture_code":43},"3242":{"zip_code":"8613242","prefecture":"熊本県","prefecture_kana":"クマモトケン","city":"上益城郡甲佐町","city_kana":"カミマシキグンコウサマチ","town":"糸田","town_kana":"イトダ","prefecture_code":43},"4601":{"zip_code":"8614601","prefecture":"熊本県","prefecture_kana":"クマモトケン","city":"上益城郡甲佐町","city_kana":"カミマシキグンコウサマチ","town":"岩下","town_kana":"イワシタ","prefecture_code":43},"4604":{"zip_code":"8614604","prefecture":"熊本県","prefecture_kana":"クマモトケン","city":"上益城郡甲佐町","city_kana":"カミマシキグンコウサマチ","town":"大町","town_kana":"オオマチ","prefecture_code":43},"4634":{"zip_code":"8614634","prefecture":"熊本県","prefecture_kana":"クマモトケン","city":"上益城郡甲佐町","city_kana":"カミマシキグンコウサマチ","town":"小鹿","town_kana":"オガ","prefecture_code":43},"4631":{"zip_code":"8614631","prefecture":"熊本県","prefecture_kana":"クマモトケン","city":"上益城郡甲佐町","city_kana":"カミマシキグンコウサマチ","town":"上揚","town_kana":"カミアゲ","prefecture_code":43},"4622":{"zip_code":"8614622","prefecture":"熊本県","prefecture_kana":"クマモトケン","city":"上益城郡甲佐町","city_kana":"カミマシキグンコウサマチ","town":"上早川","town_kana":"カミソウガワ","prefecture_code":43},"4632":{"zip_code":"8614632","prefecture":"熊本県","prefecture_kana":"クマモトケン","city":"上益城郡甲佐町","city_kana":"カミマシキグンコウサマチ","town":"坂谷","town_kana":"サカダニ","prefecture_code":43},"3244":{"zip_code":"8613244","prefecture":"熊本県","prefecture_kana":"クマモトケン","city":"上益城郡甲佐町","city_kana":"カミマシキグンコウサマチ","town":"芝原","town_kana":"シバワラ","prefecture_code":43},"4621":{"zip_code":"8614621","prefecture":"熊本県","prefecture_kana":"クマモトケン","city":"上益城郡甲佐町","city_kana":"カミマシキグンコウサマチ","town":"下横田","town_kana":"シモヨコタ","prefecture_code":43},"3243":{"zip_code":"8613243","prefecture":"熊本県","prefecture_kana":"クマモトケン","city":"上益城郡甲佐町","city_kana":"カミマシキグンコウサマチ","town":"白旗","town_kana":"シラハタ","prefecture_code":43},"3241":{"zip_code":"8613241","prefecture":"熊本県","prefecture_kana":"クマモトケン","city":"上益城郡甲佐町","city_kana":"カミマシキグンコウサマチ","town":"早川","town_kana":"ソウガワ","prefecture_code":43},"4616":{"zip_code":"8614616","prefecture":"熊本県","prefecture_kana":"クマモトケン","city":"上益城郡甲佐町","city_kana":"カミマシキグンコウサマチ","town":"田口","town_kana":"タグチ","prefecture_code":43},"4617":{"zip_code":"8614617","prefecture":"熊本県","prefecture_kana":"クマモトケン","city":"上益城郡甲佐町","city_kana":"カミマシキグンコウサマチ","town":"津志田","town_kana":"ツシダ","prefecture_code":43},"4607":{"zip_code":"8614607","prefecture":"熊本県","prefecture_kana":"クマモトケン","city":"上益城郡甲佐町","city_kana":"カミマシキグンコウサマチ","town":"豊内","town_kana":"トヨウチ","prefecture_code":43},"4614":{"zip_code":"8614614","prefecture":"熊本県","prefecture_kana":"クマモトケン","city":"上益城郡甲佐町","city_kana":"カミマシキグンコウサマチ","town":"中山","town_kana":"ナカヤマ","prefecture_code":43},"4623":{"zip_code":"8614623","prefecture":"熊本県","prefecture_kana":"クマモトケン","city":"上益城郡甲佐町","city_kana":"カミマシキグンコウサマチ","town":"中横田","town_kana":"ナカヨコタ","prefecture_code":43},"4609":{"zip_code":"8614609","prefecture":"熊本県","prefecture_kana":"クマモトケン","city":"上益城郡甲佐町","city_kana":"カミマシキグンコウサマチ","town":"西寒野","town_kana":"ニシサマノ","prefecture_code":43},"4633":{"zip_code":"8614633","prefecture":"熊本県","prefecture_kana":"クマモトケン","city":"上益城郡甲佐町","city_kana":"カミマシキグンコウサマチ","town":"西原","town_kana":"ニシハル","prefecture_code":43},"4603":{"zip_code":"8614603","prefecture":"熊本県","prefecture_kana":"クマモトケン","city":"上益城郡甲佐町","city_kana":"カミマシキグンコウサマチ","town":"仁田子","town_kana":"ニタゴ","prefecture_code":43},"4608":{"zip_code":"8614608","prefecture":"熊本県","prefecture_kana":"クマモトケン","city":"上益城郡甲佐町","city_kana":"カミマシキグンコウサマチ","town":"東寒野","town_kana":"ヒガシサマノ","prefecture_code":43},"4611":{"zip_code":"8614611","prefecture":"熊本県","prefecture_kana":"クマモトケン","city":"上益城郡甲佐町","city_kana":"カミマシキグンコウサマチ","town":"船津","town_kana":"フナツ","prefecture_code":43},"4615":{"zip_code":"8614615","prefecture":"熊本県","prefecture_kana":"クマモトケン","city":"上益城郡甲佐町","city_kana":"カミマシキグンコウサマチ","town":"府領","town_kana":"フリョウ","prefecture_code":43},"4602":{"zip_code":"8614602","prefecture":"熊本県","prefecture_kana":"クマモトケン","city":"上益城郡甲佐町","city_kana":"カミマシキグンコウサマチ","town":"緑町","town_kana":"ミドリマチ","prefecture_code":43},"4613":{"zip_code":"8614613","prefecture":"熊本県","prefecture_kana":"クマモトケン","city":"上益城郡甲佐町","city_kana":"カミマシキグンコウサマチ","town":"南三箇","town_kana":"ミナミサンガ","prefecture_code":43},"4635":{"zip_code":"8614635","prefecture":"熊本県","prefecture_kana":"クマモトケン","city":"上益城郡甲佐町","city_kana":"カミマシキグンコウサマチ","town":"安平","town_kana":"ヤスヒラ","prefecture_code":43},"4606":{"zip_code":"8614606","prefecture":"熊本県","prefecture_kana":"クマモトケン","city":"上益城郡甲佐町","city_kana":"カミマシキグンコウサマチ","town":"横田","town_kana":"ヨコタ","prefecture_code":43},"3245":{"zip_code":"8613245","prefecture":"熊本県","prefecture_kana":"クマモトケン","city":"上益城郡甲佐町","city_kana":"カミマシキグンコウサマチ","town":"吉田","town_kana":"ヨシダ","prefecture_code":43},"4612":{"zip_code":"8614612","prefecture":"熊本県","prefecture_kana":"クマモトケン","city":"上益城郡甲佐町","city_kana":"カミマシキグンコウサマチ","town":"世持","town_kana":"ヨモチ","prefecture_code":43},"3500":{"zip_code":"8613500","prefecture":"熊本県","prefecture_kana":"クマモトケン","city":"上益城郡山都町","city_kana":"カミマシキグンヤマトチョウ","town":"以下に掲載がない場合","town_kana":"イカニケイサイガナイバアイ","prefecture_code":43},"3781":{"zip_code":"8613781","prefecture":"熊本県","prefecture_kana":"クマモトケン","city":"上益城郡山都町","city_kana":"カミマシキグンヤマトチョウ","town":"麻山","town_kana":"アサヤマ","prefecture_code":43},"3541":{"zip_code":"8613541","prefecture":"熊本県","prefecture_kana":"クマモトケン","city":"上益城郡山都町","city_kana":"カミマシキグンヤマトチョウ","town":"芦屋田","town_kana":"アシヤダ","prefecture_code":43},"3521":{"zip_code":"8613521","prefecture":"熊本県","prefecture_kana":"クマモトケン","city":"上益城郡山都町","city_kana":"カミマシキグンヤマトチョウ","town":"荒谷","town_kana":"アラダニ","prefecture_code":43},"3937":{"zip_code":"8613937","prefecture":"熊本県","prefecture_kana":"クマモトケン","city":"上益城郡山都町","city_kana":"カミマシキグンヤマトチョウ","town":"伊勢","town_kana":"イセ","prefecture_code":43},"3842":{"zip_code":"8613842","prefecture":"熊本県","prefecture_kana":"クマモトケン","city":"上益城郡山都町","city_kana":"カミマシキグンヤマトチョウ","town":"市野原","town_kana":"イチノハル","prefecture_code":43},"3542":{"zip_code":"8613542","prefecture":"熊本県","prefecture_kana":"クマモトケン","city":"上益城郡山都町","city_kana":"カミマシキグンヤマトチョウ","town":"市原","town_kana":"イチバル","prefecture_code":43},"3665":{"zip_code":"8613665","prefecture":"熊本県","prefecture_kana":"クマモトケン","city":"上益城郡山都町","city_kana":"カミマシキグンヤマトチョウ","town":"犬飼","town_kana":"イヌカイ","prefecture_code":43},"3913":{"zip_code":"8613913","prefecture":"熊本県","prefecture_kana":"クマモトケン","city":"上益城郡山都町","city_kana":"カミマシキグンヤマトチョウ","town":"今","town_kana":"イマ","prefecture_code":43},"3832":{"zip_code":"8613832","prefecture":"熊本県","prefecture_kana":"クマモトケン","city":"上益城郡山都町","city_kana":"カミマシキグンヤマトチョウ","town":"井無田","town_kana":"イムタ","prefecture_code":43},"3511":{"zip_code":"8613511","prefecture":"熊本県","prefecture_kana":"クマモトケン","city":"上益城郡山都町","city_kana":"カミマシキグンヤマトチョウ","town":"入佐","town_kana":"イリサ","prefecture_code":43},"3905":{"zip_code":"8613905","prefecture":"熊本県","prefecture_kana":"クマモトケン","city":"上益城郡山都町","city_kana":"カミマシキグンヤマトチョウ","town":"大野","town_kana":"オオノ","prefecture_code":43},"3811":{"zip_code":"8613811","prefecture":"熊本県","prefecture_kana":"クマモトケン","city":"上益城郡山都町","city_kana":"カミマシキグンヤマトチョウ","town":"大平","town_kana":"オオヒラ","prefecture_code":43},"3926":{"zip_code":"8613926","prefecture":"熊本県","prefecture_kana":"クマモトケン","city":"上益城郡山都町","city_kana":"カミマシキグンヤマトチョウ","town":"大見口","town_kana":"オオミクチ","prefecture_code":43},"3788":{"zip_code":"8613788","prefecture":"熊本県","prefecture_kana":"クマモトケン","city":"上益城郡山都町","city_kana":"カミマシキグンヤマトチョウ","town":"小笹","town_kana":"オザサ","prefecture_code":43},"3789":{"zip_code":"8613789","prefecture":"熊本県","prefecture_kana":"クマモトケン","city":"上益城郡山都町","city_kana":"カミマシキグンヤマトチョウ","town":"男成","town_kana":"オトコナリ","prefecture_code":43},"3844":{"zip_code":"8613844","prefecture":"熊本県","prefecture_kana":"クマモトケン","city":"上益城郡山都町","city_kana":"カミマシキグンヤマトチョウ","town":"尾野尻","town_kana":"オノジリ","prefecture_code":43},"3801":{"zip_code":"8613801","prefecture":"熊本県","prefecture_kana":"クマモトケン","city":"上益城郡山都町","city_kana":"カミマシキグンヤマトチョウ","town":"小峰","town_kana":"オミネ","prefecture_code":43},"3923":{"zip_code":"8613923","prefecture":"熊本県","prefecture_kana":"クマモトケン","city":"上益城郡山都町","city_kana":"カミマシキグンヤマトチョウ","town":"柏","town_kana":"カシワ","prefecture_code":43},"3451":{"zip_code":"8613451","prefecture":"熊本県","prefecture_kana":"クマモトケン","city":"上益城郡山都町","city_kana":"カミマシキグンヤマトチョウ","town":"金内","town_kana":"カネウチ","prefecture_code":43},"3843":{"zip_code":"8613843","prefecture":"熊本県","prefecture_kana":"クマモトケン","city":"上益城郡山都町","city_kana":"カミマシキグンヤマトチョウ","town":"鎌野","town_kana":"カマノ","prefecture_code":43},"3782":{"zip_code":"8613782","prefecture":"熊本県","prefecture_kana":"クマモトケン","city":"上益城郡山都町","city_kana":"カミマシキグンヤマトチョウ","town":"上川井野","town_kana":"カミガワイノ","prefecture_code":43},"3925":{"zip_code":"8613925","prefecture":"熊本県","prefecture_kana":"クマモトケン","city":"上益城郡山都町","city_kana":"カミマシキグンヤマトチョウ","town":"上差尾","town_kana":"カミザシオ","prefecture_code":43},"3906":{"zip_code":"8613906","prefecture":"熊本県","prefecture_kana":"クマモトケン","city":"上益城郡山都町","city_kana":"カミマシキグンヤマトチョウ","town":"神ノ前","town_kana":"カミノマエ","prefecture_code":43},"3841":{"zip_code":"8613841","prefecture":"熊本県","prefecture_kana":"クマモトケン","city":"上益城郡山都町","city_kana":"カミマシキグンヤマトチョウ","town":"仮屋","town_kana":"カリヤ","prefecture_code":43},"3813":{"zip_code":"8613813","prefecture":"熊本県","prefecture_kana":"クマモトケン","city":"上益城郡山都町","city_kana":"カミマシキグンヤマトチョウ","town":"川口","town_kana":"カワグチ","prefecture_code":43},"3784":{"zip_code":"8613784","prefecture":"熊本県","prefecture_kana":"クマモトケン","city":"上益城郡山都町","city_kana":"カミマシキグンヤマトチョウ","town":"川野","town_kana":"カワノ","prefecture_code":43},"3455":{"zip_code":"8613455","prefecture":"熊本県","prefecture_kana":"クマモトケン","city":"上益城郡山都町","city_kana":"カミマシキグンヤマトチョウ","town":"北中島","town_kana":"キタナカシマ","prefecture_code":43},"3802":{"zip_code":"8613802","prefecture":"熊本県","prefecture_kana":"クマモトケン","city":"上益城郡山都町","city_kana":"カミマシキグンヤマトチョウ","town":"木原谷","town_kana":"キハラダニ","prefecture_code":43},"3531":{"zip_code":"8613531","prefecture":"熊本県","prefecture_kana":"クマモトケン","city":"上益城郡山都町","city_kana":"カミマシキグンヤマトチョウ","town":"葛原","town_kana":"クズハラ","prefecture_code":43},"3501":{"zip_code":"8613501","prefecture":"熊本県","prefecture_kana":"クマモトケン","city":"上益城郡山都町","city_kana":"カミマシキグンヤマトチョウ","town":"黒川","town_kana":"クロカワ","prefecture_code":43},"3512":{"zip_code":"8613512","prefecture":"熊本県","prefecture_kana":"クマモトケン","city":"上益城郡山都町","city_kana":"カミマシキグンヤマトチョウ","town":"下馬尾","town_kana":"ゲバオ","prefecture_code":43},"3834":{"zip_code":"8613834","prefecture":"熊本県","prefecture_kana":"クマモトケン","city":"上益城郡山都町","city_kana":"カミマシキグンヤマトチョウ","town":"高月","town_kana":"コウヅキ","prefecture_code":43},"3831":{"zip_code":"8613831","prefecture":"熊本県","prefecture_kana":"クマモトケン","city":"上益城郡山都町","city_kana":"カミマシキグンヤマトチョウ","town":"郷野原","town_kana":"ゴウノハル","prefecture_code":43},"3502":{"zip_code":"8613502","prefecture":"熊本県","prefecture_kana":"クマモトケン","city":"上益城郡山都町","city_kana":"カミマシキグンヤマトチョウ","town":"御所","town_kana":"ゴショ","prefecture_code":43},"3803":{"zip_code":"8613803","prefecture":"熊本県","prefecture_kana":"クマモトケン","city":"上益城郡山都町","city_kana":"カミマシキグンヤマトチョウ","town":"小中竹","town_kana":"コナカダケ","prefecture_code":43},"3532":{"zip_code":"8613532","prefecture":"熊本県","prefecture_kana":"クマモトケン","city":"上益城郡山都町","city_kana":"カミマシキグンヤマトチョウ","town":"猿渡","town_kana":"サルワタリ","prefecture_code":43},"3533":{"zip_code":"8613533","prefecture":"熊本県","prefecture_kana":"クマモトケン","city":"上益城郡山都町","city_kana":"カミマシキグンヤマトチョウ","town":"三ケ","town_kana":"サンガ","prefecture_code":43},"3915":{"zip_code":"8613915","prefecture":"熊本県","prefecture_kana":"クマモトケン","city":"上益城郡山都町","city_kana":"カミマシキグンヤマトチョウ","town":"塩出迫","town_kana":"シオイデサコ","prefecture_code":43},"3916":{"zip_code":"8613916","prefecture":"熊本県","prefecture_kana":"クマモトケン","city":"上益城郡山都町","city_kana":"カミマシキグンヤマトチョウ","town":"塩原","town_kana":"シオバル","prefecture_code":43},"3454":{"zip_code":"8613454","prefecture":"熊本県","prefecture_kana":"クマモトケン","city":"上益城郡山都町","city_kana":"カミマシキグンヤマトチョウ","town":"島木","town_kana":"シマキ","prefecture_code":43},"3513":{"zip_code":"8613513","prefecture":"熊本県","prefecture_kana":"クマモトケン","city":"上益城郡山都町","city_kana":"カミマシキグンヤマトチョウ","town":"下市","town_kana":"シモイチ","prefecture_code":43},"3786":{"zip_code":"8613786","prefecture":"熊本県","prefecture_kana":"クマモトケン","city":"上益城郡山都町","city_kana":"カミマシキグンヤマトチョウ","town":"下川井野","town_kana":"シモガワイノ","prefecture_code":43},"3503":{"zip_code":"8613503","prefecture":"熊本県","prefecture_kana":"クマモトケン","city":"上益城郡山都町","city_kana":"カミマシキグンヤマトチョウ","town":"下名連石","town_kana":"シモナレイシ","prefecture_code":43},"3932":{"zip_code":"8613932","prefecture":"熊本県","prefecture_kana":"クマモトケン","city":"上益城郡山都町","city_kana":"カミマシキグンヤマトチョウ","town":"下山","town_kana":"シモヤマ","prefecture_code":43},"3543":{"zip_code":"8613543","prefecture":"熊本県","prefecture_kana":"クマモトケン","city":"上益城郡山都町","city_kana":"カミマシキグンヤマトチョウ","town":"上寺","town_kana":"ジョウテラ","prefecture_code":43},"3514":{"zip_code":"8613514","prefecture":"熊本県","prefecture_kana":"クマモトケン","city":"上益城郡山都町","city_kana":"カミマシキグンヤマトチョウ","town":"城原","town_kana":"ジョウハラ","prefecture_code":43},"3515":{"zip_code":"8613515","prefecture":"熊本県","prefecture_kana":"クマモトケン","city":"上益城郡山都町","city_kana":"カミマシキグンヤマトチョウ","town":"城平","town_kana":"ジョウヒラ","prefecture_code":43},"3907":{"zip_code":"8613907","prefecture":"熊本県","prefecture_kana":"クマモトケン","city":"上益城郡山都町","city_kana":"カミマシキグンヤマトチョウ","town":"白石","town_kana":"シライシ","prefecture_code":43},"3522":{"zip_code":"8613522","prefecture":"熊本県","prefecture_kana":"クマモトケン","city":"上益城郡山都町","city_kana":"カミマシキグンヤマトチョウ","town":"白小野","town_kana":"シラオノ","prefecture_code":43},"3664":{"zip_code":"8613664","prefecture":"熊本県","prefecture_kana":"クマモトケン","city":"上益城郡山都町","city_kana":"カミマシキグンヤマトチョウ","town":"白藤","town_kana":"シラフジ","prefecture_code":43},"3663":{"zip_code":"8613663","prefecture":"熊本県","prefecture_kana":"クマモトケン","city":"上益城郡山都町","city_kana":"カミマシキグンヤマトチョウ","town":"新小","town_kana":"シンコ","prefecture_code":43},"3544":{"zip_code":"8613544","prefecture":"熊本県","prefecture_kana":"クマモトケン","city":"上益城郡山都町","city_kana":"カミマシキグンヤマトチョウ","town":"杉木","town_kana":"スギキ","prefecture_code":43},"3671":{"zip_code":"8613671","prefecture":"熊本県","prefecture_kana":"クマモトケン","city":"上益城郡山都町","city_kana":"カミマシキグンヤマトチョウ","town":"菅","town_kana":"スゲ","prefecture_code":43},"3911":{"zip_code":"8613911","prefecture":"熊本県","prefecture_kana":"クマモトケン","city":"上益城郡山都町","city_kana":"カミマシキグンヤマトチョウ","town":"菅尾","town_kana":"スゲオ","prefecture_code":43},"3805":{"zip_code":"8613805","prefecture":"熊本県","prefecture_kana":"クマモトケン","city":"上益城郡山都町","city_kana":"カミマシキグンヤマトチョウ","town":"須原","town_kana":"スバル","prefecture_code":43},"3523":{"zip_code":"8613523","prefecture":"熊本県","prefecture_kana":"クマモトケン","city":"上益城郡山都町","city_kana":"カミマシキグンヤマトチョウ","town":"勢井","town_kana":"ゼイ","prefecture_code":43},"3516":{"zip_code":"8613516","prefecture":"熊本県","prefecture_kana":"クマモトケン","city":"上益城郡山都町","city_kana":"カミマシキグンヤマトチョウ","town":"千滝","town_kana":"センダキ","prefecture_code":43},"3452":{"zip_code":"8613452","prefecture":"熊本県","prefecture_kana":"クマモトケン","city":"上益城郡山都町","city_kana":"カミマシキグンヤマトチョウ","town":"田小野","town_kana":"タオノ","prefecture_code":43},"3933":{"zip_code":"8613933","prefecture":"熊本県","prefecture_kana":"クマモトケン","city":"上益城郡山都町","city_kana":"カミマシキグンヤマトチョウ","town":"高辻","town_kana":"タカツジ","prefecture_code":43},"3934":{"zip_code":"8613934","prefecture":"熊本県","prefecture_kana":"クマモトケン","city":"上益城郡山都町","city_kana":"カミマシキグンヤマトチョウ","town":"高畑","town_kana":"タカバタ","prefecture_code":43},"3902":{"zip_code":"8613902","prefecture":"熊本県","prefecture_kana":"クマモトケン","city":"上益城郡山都町","city_kana":"カミマシキグンヤマトチョウ","town":"滝上","town_kana":"タキガミ","prefecture_code":43},"3931":{"zip_code":"8613931","prefecture":"熊本県","prefecture_kana":"クマモトケン","city":"上益城郡山都町","city_kana":"カミマシキグンヤマトチョウ","town":"橘","town_kana":"タチバナ","prefecture_code":43},"3785":{"zip_code":"8613785","prefecture":"熊本県","prefecture_kana":"クマモトケン","city":"上益城郡山都町","city_kana":"カミマシキグンヤマトチョウ","town":"田所","town_kana":"タドコロ","prefecture_code":43},"3927":{"zip_code":"8613927","prefecture":"熊本県","prefecture_kana":"クマモトケン","city":"上益城郡山都町","city_kana":"カミマシキグンヤマトチョウ","town":"玉目","town_kana":"タマメ","prefecture_code":43},"3662":{"zip_code":"8613662","prefecture":"熊本県","prefecture_kana":"クマモトケン","city":"上益城郡山都町","city_kana":"カミマシキグンヤマトチョウ","town":"田吉","town_kana":"タヨシ","prefecture_code":43},"3673":{"zip_code":"8613673","prefecture":"熊本県","prefecture_kana":"クマモトケン","city":"上益城郡山都町","city_kana":"カミマシキグンヤマトチョウ","town":"津留","town_kana":"ツル","prefecture_code":43},"3812":{"zip_code":"8613812","prefecture":"熊本県","prefecture_kana":"クマモトケン","city":"上益城郡山都町","city_kana":"カミマシキグンヤマトチョウ","town":"鶴ケ田","town_kana":"ツルケタ","prefecture_code":43},"3908":{"zip_code":"8613908","prefecture":"熊本県","prefecture_kana":"クマモトケン","city":"上益城郡山都町","city_kana":"カミマシキグンヤマトチョウ","town":"長崎","town_kana":"ナガサキ","prefecture_code":43},"3545":{"zip_code":"8613545","prefecture":"熊本県","prefecture_kana":"クマモトケン","city":"上益城郡山都町","city_kana":"カミマシキグンヤマトチョウ","town":"長田","town_kana":"ナガタ","prefecture_code":43},"3928":{"zip_code":"8613928","prefecture":"熊本県","prefecture_kana":"クマモトケン","city":"上益城郡山都町","city_kana":"カミマシキグンヤマトチョウ","town":"長谷","town_kana":"ナガタニ","prefecture_code":43},"3661":{"zip_code":"8613661","prefecture":"熊本県","prefecture_kana":"クマモトケン","city":"上益城郡山都町","city_kana":"カミマシキグンヤマトチョウ","town":"長原","town_kana":"ナガハラ","prefecture_code":43},"3783":{"zip_code":"8613783","prefecture":"熊本県","prefecture_kana":"クマモトケン","city":"上益城郡山都町","city_kana":"カミマシキグンヤマトチョウ","town":"成君","town_kana":"ナリギミ","prefecture_code":43},"3922":{"zip_code":"8613922","prefecture":"熊本県","prefecture_kana":"クマモトケン","city":"上益城郡山都町","city_kana":"カミマシキグンヤマトチョウ","town":"二瀬本","town_kana":"ニセモト","prefecture_code":43},"3804":{"zip_code":"8613804","prefecture":"熊本県","prefecture_kana":"クマモトケン","city":"上益城郡山都町","city_kana":"カミマシキグンヤマトチョウ","town":"貫原","town_kana":"ヌキハル","prefecture_code":43},"3787":{"zip_code":"8613787","prefecture":"熊本県","prefecture_kana":"クマモトケン","city":"上益城郡山都町","city_kana":"カミマシキグンヤマトチョウ","town":"野尻","town_kana":"ノジリ","prefecture_code":43},"3517":{"zip_code":"8613517","prefecture":"熊本県","prefecture_kana":"クマモトケン","city":"上益城郡山都町","city_kana":"カミマシキグンヤマトチョウ","town":"畑","town_kana":"ハタ","prefecture_code":43},"3921":{"zip_code":"8613921","prefecture":"熊本県","prefecture_kana":"クマモトケン","city":"上益城郡山都町","city_kana":"カミマシキグンヤマトチョウ","town":"八木","town_kana":"ハチボク","prefecture_code":43},"3914":{"zip_code":"8613914","prefecture":"熊本県","prefecture_kana":"クマモトケン","city":"上益城郡山都町","city_kana":"カミマシキグンヤマトチョウ","town":"花上","town_kana":"ハナガミ","prefecture_code":43},"3518":{"zip_code":"8613518","prefecture":"熊本県","prefecture_kana":"クマモトケン","city":"上益城郡山都町","city_kana":"カミマシキグンヤマトチョウ","town":"浜町","town_kana":"ハママチ","prefecture_code":43},"3453":{"zip_code":"8613453","prefecture":"熊本県","prefecture_kana":"クマモトケン","city":"上益城郡山都町","city_kana":"カミマシキグンヤマトチョウ","town":"原","town_kana":"ハラ","prefecture_code":43},"3935":{"zip_code":"8613935","prefecture":"熊本県","prefecture_kana":"クマモトケン","city":"上益城郡山都町","city_kana":"カミマシキグンヤマトチョウ","town":"東竹原","town_kana":"ヒガシタケバル","prefecture_code":43},"3524":{"zip_code":"8613524","prefecture":"熊本県","prefecture_kana":"クマモトケン","city":"上益城郡山都町","city_kana":"カミマシキグンヤマトチョウ","town":"藤木","town_kana":"フジキ","prefecture_code":43},"3924":{"zip_code":"8613924","prefecture":"熊本県","prefecture_kana":"クマモトケン","city":"上益城郡山都町","city_kana":"カミマシキグンヤマトチョウ","town":"二津留","town_kana":"フタヅル","prefecture_code":43},"3904":{"zip_code":"8613904","prefecture":"熊本県","prefecture_kana":"クマモトケン","city":"上益城郡山都町","city_kana":"カミマシキグンヤマトチョウ","town":"方ケ野","town_kana":"ホウガノ","prefecture_code":43},"3835":{"zip_code":"8613835","prefecture":"熊本県","prefecture_kana":"クマモトケン","city":"上益城郡山都町","city_kana":"カミマシキグンヤマトチョウ","town":"仏原","town_kana":"ホトケバル","prefecture_code":43},"3525":{"zip_code":"8613525","prefecture":"熊本県","prefecture_kana":"クマモトケン","city":"上益城郡山都町","city_kana":"カミマシキグンヤマトチョウ","town":"牧野","town_kana":"マキノ","prefecture_code":43},"3901":{"zip_code":"8613901","prefecture":"熊本県","prefecture_kana":"クマモトケン","city":"上益城郡山都町","city_kana":"カミマシキグンヤマトチョウ","town":"馬見原","town_kana":"マミハラ","prefecture_code":43},"3526":{"zip_code":"8613526","prefecture":"熊本県","prefecture_kana":"クマモトケン","city":"上益城郡山都町","city_kana":"カミマシキグンヤマトチョウ","town":"万坂","town_kana":"マンザカ","prefecture_code":43},"3845":{"zip_code":"8613845","prefecture":"熊本県","prefecture_kana":"クマモトケン","city":"上益城郡山都町","city_kana":"カミマシキグンヤマトチョウ","town":"緑川","town_kana":"ミドリカワ","prefecture_code":43},"3546":{"zip_code":"8613546","prefecture":"熊本県","prefecture_kana":"クマモトケン","city":"上益城郡山都町","city_kana":"カミマシキグンヤマトチョウ","town":"南田","town_kana":"ミナミダ","prefecture_code":43},"3672":{"zip_code":"8613672","prefecture":"熊本県","prefecture_kana":"クマモトケン","city":"上益城郡山都町","city_kana":"カミマシキグンヤマトチョウ","town":"目丸","town_kana":"メマル","prefecture_code":43},"3833":{"zip_code":"8613833","prefecture":"熊本県","prefecture_kana":"クマモトケン","city":"上益城郡山都町","city_kana":"カミマシキグンヤマトチョウ","town":"安方","town_kana":"ヤスカタ","prefecture_code":43},"3903":{"zip_code":"8613903","prefecture":"熊本県","prefecture_kana":"クマモトケン","city":"上益城郡山都町","city_kana":"カミマシキグンヤマトチョウ","town":"柳井原","town_kana":"ヤナイバル","prefecture_code":43},"3936":{"zip_code":"8613936","prefecture":"熊本県","prefecture_kana":"クマモトケン","city":"上益城郡山都町","city_kana":"カミマシキグンヤマトチョウ","town":"柳","town_kana":"ヤナギ","prefecture_code":43},"3547":{"zip_code":"8613547","prefecture":"熊本県","prefecture_kana":"クマモトケン","city":"上益城郡山都町","city_kana":"カミマシキグンヤマトチョウ","town":"山田","town_kana":"ヤマダ","prefecture_code":43},"3534":{"zip_code":"8613534","prefecture":"熊本県","prefecture_kana":"クマモトケン","city":"上益城郡山都町","city_kana":"カミマシキグンヤマトチョウ","town":"柚木","town_kana":"ユノキ","prefecture_code":43},"3806":{"zip_code":"8613806","prefecture":"熊本県","prefecture_kana":"クマモトケン","city":"上益城郡山都町","city_kana":"カミマシキグンヤマトチョウ","town":"米生","town_kana":"ヨネオ","prefecture_code":43},"3912":{"zip_code":"8613912","prefecture":"熊本県","prefecture_kana":"クマモトケン","city":"上益城郡山都町","city_kana":"カミマシキグンヤマトチョウ","town":"米迫","town_kana":"ヨネサコ","prefecture_code":43}}