{"0000":{"zip_code":"8630000","prefecture":"熊本県","prefecture_kana":"クマモトケン","city":"天草市","city_kana":"アマクサシ","town":"","town_kana":"","prefecture_code":43},"2172":{"zip_code":"8632172","prefecture":"熊本県","prefecture_kana":"クマモトケン","city":"天草市","city_kana":"アマクサシ","town":"旭町","town_kana":"アサヒマチ","prefecture_code":43},"2801":[{"zip_code":"8632801","prefecture":"熊本県","prefecture_kana":"クマモトケン","city":"天草市","city_kana":"アマクサシ","town":"天草町大江","town_kana":"アマクサマチオオエ","prefecture_code":43},{"zip_code":"8632801","prefecture":"熊本県","prefecture_kana":"クマモトケン","city":"天草市","city_kana":"アマクサシ","town":"天草町大江軍浦","town_kana":"アマクサマチオオエイクサガウラ","prefecture_code":43}],"1401":{"zip_code":"8631401","prefecture":"熊本県","prefecture_kana":"クマモトケン","city":"天草市","city_kana":"アマクサシ","town":"天草町大江向","town_kana":"アマクサマチオオエムコウ","prefecture_code":43},"2803":{"zip_code":"8632803","prefecture":"熊本県","prefecture_kana":"クマモトケン","city":"天草市","city_kana":"アマクサシ","town":"天草町下田北","town_kana":"アマクサマチシモダキタ","prefecture_code":43},"2802":{"zip_code":"8632802","prefecture":"熊本県","prefecture_kana":"クマモトケン","city":"天草市","city_kana":"アマクサシ","town":"天草町下田南","town_kana":"アマクサマチシモダミナミ","prefecture_code":43},"1205":{"zip_code":"8631205","prefecture":"熊本県","prefecture_kana":"クマモトケン","city":"天草市","city_kana":"アマクサシ","town":"天草町高浜北","town_kana":"アマクサマチタカハマキタ","prefecture_code":43},"2805":{"zip_code":"8632805","prefecture":"熊本県","prefecture_kana":"クマモトケン","city":"天草市","city_kana":"アマクサシ","town":"天草町高浜北","town_kana":"アマクサマチタカハマキタ","prefecture_code":43},"2804":{"zip_code":"8632804","prefecture":"熊本県","prefecture_kana":"クマモトケン","city":"天草市","city_kana":"アマクサシ","town":"天草町高浜南","town_kana":"アマクサマチタカハマミナミ","prefecture_code":43},"2806":{"zip_code":"8632806","prefecture":"熊本県","prefecture_kana":"クマモトケン","city":"天草市","city_kana":"アマクサシ","town":"天草町福連木","town_kana":"アマクサマチフクレギ","prefecture_code":43},"2331":{"zip_code":"8632331","prefecture":"熊本県","prefecture_kana":"クマモトケン","city":"天草市","city_kana":"アマクサシ","town":"五和町鬼池","town_kana":"イツワマチオニイケ","prefecture_code":43},"2201":{"zip_code":"8632201","prefecture":"熊本県","prefecture_kana":"クマモトケン","city":"天草市","city_kana":"アマクサシ","town":"五和町御領","town_kana":"イツワマチゴリョウ","prefecture_code":43},"2114":{"zip_code":"8632114","prefecture":"熊本県","prefecture_kana":"クマモトケン","city":"天草市","city_kana":"アマクサシ","town":"五和町城河原","town_kana":"イツワマチジョウガワラ","prefecture_code":43},"2424":{"zip_code":"8632424","prefecture":"熊本県","prefecture_kana":"クマモトケン","city":"天草市","city_kana":"アマクサシ","town":"五和町手野","town_kana":"イツワマチテノ","prefecture_code":43},"2421":{"zip_code":"8632421","prefecture":"熊本県","prefecture_kana":"クマモトケン","city":"天草市","city_kana":"アマクサシ","town":"五和町二江","town_kana":"イツワマチフタエ","prefecture_code":43},"0013":{"zip_code":"8630013","prefecture":"熊本県","prefecture_kana":"クマモトケン","city":"天草市","city_kana":"アマクサシ","town":"今釜新町","town_kana":"イマガマシンマチ","prefecture_code":43},"0012":{"zip_code":"8630012","prefecture":"熊本県","prefecture_kana":"クマモトケン","city":"天草市","city_kana":"アマクサシ","town":"今釜町","town_kana":"イマガママチ","prefecture_code":43},"1901":{"zip_code":"8631901","prefecture":"熊本県","prefecture_kana":"クマモトケン","city":"天草市","city_kana":"アマクサシ","town":"牛深町","town_kana":"ウシブカマチ","prefecture_code":43},"0032":{"zip_code":"8630032","prefecture":"熊本県","prefecture_kana":"クマモトケン","city":"天草市","city_kana":"アマクサシ","town":"太田町","town_kana":"オオタマチ","prefecture_code":43},"0015":{"zip_code":"8630015","prefecture":"熊本県","prefecture_kana":"クマモトケン","city":"天草市","city_kana":"アマクサシ","town":"大浜町","town_kana":"オオハママチ","prefecture_code":43},"1721":{"zip_code":"8631721","prefecture":"熊本県","prefecture_kana":"クマモトケン","city":"天草市","city_kana":"アマクサシ","town":"魚貫町","town_kana":"オニキマチ","prefecture_code":43},"0043":{"zip_code":"8630043","prefecture":"熊本県","prefecture_kana":"クマモトケン","city":"天草市","city_kana":"アマクサシ","town":"亀場町亀川","town_kana":"カメバマチカメガワ","prefecture_code":43},"0046":{"zip_code":"8630046","prefecture":"熊本県","prefecture_kana":"クマモトケン","city":"天草市","city_kana":"アマクサシ","town":"亀場町食場","town_kana":"カメバマチジキバ","prefecture_code":43},"1201":{"zip_code":"8631201","prefecture":"熊本県","prefecture_kana":"クマモトケン","city":"天草市","city_kana":"アマクサシ","town":"河浦町今田","town_kana":"カワウラマチイマダ","prefecture_code":43},"1403":{"zip_code":"8631403","prefecture":"熊本県","prefecture_kana":"クマモトケン","city":"天草市","city_kana":"アマクサシ","town":"河浦町今富","town_kana":"カワウラマチイマトミ","prefecture_code":43},"1203":{"zip_code":"8631203","prefecture":"熊本県","prefecture_kana":"クマモトケン","city":"天草市","city_kana":"アマクサシ","town":"河浦町今富","town_kana":"カワウラマチイマトミ","prefecture_code":43},"1202":{"zip_code":"8631202","prefecture":"熊本県","prefecture_kana":"クマモトケン","city":"天草市","city_kana":"アマクサシ","town":"河浦町河浦","town_kana":"カワウラマチカワウラ","prefecture_code":43},"1404":{"zip_code":"8631404","prefecture":"熊本県","prefecture_kana":"クマモトケン","city":"天草市","city_kana":"アマクサシ","town":"河浦町崎津","town_kana":"カワウラマチサキツ","prefecture_code":43},"1204":{"zip_code":"8631204","prefecture":"熊本県","prefecture_kana":"クマモトケン","city":"天草市","city_kana":"アマクサシ","town":"河浦町崎津","town_kana":"カワウラマチサキツ","prefecture_code":43},"1215":{"zip_code":"8631215","prefecture":"熊本県","prefecture_kana":"クマモトケン","city":"天草市","city_kana":"アマクサシ","town":"河浦町白木河内","town_kana":"カワウラマチシラキカワチ","prefecture_code":43},"1216":{"zip_code":"8631216","prefecture":"熊本県","prefecture_kana":"クマモトケン","city":"天草市","city_kana":"アマクサシ","town":"河浦町新合","town_kana":"カワウラマチシンゴウ","prefecture_code":43},"1211":{"zip_code":"8631211","prefecture":"熊本県","prefecture_kana":"クマモトケン","city":"天草市","city_kana":"アマクサシ","town":"河浦町立原","town_kana":"カワウラマチタチハラ","prefecture_code":43},"1214":{"zip_code":"8631214","prefecture":"熊本県","prefecture_kana":"クマモトケン","city":"天草市","city_kana":"アマクサシ","town":"河浦町久留","town_kana":"カワウラマチヒサドメ","prefecture_code":43},"1212":{"zip_code":"8631212","prefecture":"熊本県","prefecture_kana":"クマモトケン","city":"天草市","city_kana":"アマクサシ","town":"河浦町宮野河内","town_kana":"カワウラマチミヤノカワチ","prefecture_code":43},"1213":{"zip_code":"8631213","prefecture":"熊本県","prefecture_kana":"クマモトケン","city":"天草市","city_kana":"アマクサシ","town":"河浦町路木","town_kana":"カワウラマチロギ","prefecture_code":43},"0036":{"zip_code":"8630036","prefecture":"熊本県","prefecture_kana":"クマモトケン","city":"天草市","city_kana":"アマクサシ","town":"川原新町","town_kana":"カワラシンマチ","prefecture_code":43},"0024":{"zip_code":"8630024","prefecture":"熊本県","prefecture_kana":"クマモトケン","city":"天草市","city_kana":"アマクサシ","town":"川原町","town_kana":"カワラマチ","prefecture_code":43},"0011":{"zip_code":"8630011","prefecture":"熊本県","prefecture_kana":"クマモトケン","city":"天草市","city_kana":"アマクサシ","town":"北浜町","town_kana":"キタハママチ","prefecture_code":43},"0049":{"zip_code":"8630049","prefecture":"熊本県","prefecture_kana":"クマモトケン","city":"天草市","city_kana":"アマクサシ","town":"北原町","town_kana":"キタハラマチ","prefecture_code":43},"0044":{"zip_code":"8630044","prefecture":"熊本県","prefecture_kana":"クマモトケン","city":"天草市","city_kana":"アマクサシ","town":"楠浦町","town_kana":"クスウラマチ","prefecture_code":43},"1902":{"zip_code":"8631902","prefecture":"熊本県","prefecture_kana":"クマモトケン","city":"天草市","city_kana":"アマクサシ","town":"久玉町","town_kana":"クタママチ","prefecture_code":43},"0019":{"zip_code":"8630019","prefecture":"熊本県","prefecture_kana":"クマモトケン","city":"天草市","city_kana":"アマクサシ","town":"小松原町","town_kana":"コマツバラマチ","prefecture_code":43},"2171":{"zip_code":"8632171","prefecture":"熊本県","prefecture_kana":"クマモトケン","city":"天草市","city_kana":"アマクサシ","town":"佐伊津町","town_kana":"サイツマチ","prefecture_code":43},"0022":{"zip_code":"8630022","prefecture":"熊本県","prefecture_kana":"クマモトケン","city":"天草市","city_kana":"アマクサシ","town":"栄町","town_kana":"サカエマチ","prefecture_code":43},"0041":{"zip_code":"8630041","prefecture":"熊本県","prefecture_kana":"クマモトケン","city":"天草市","city_kana":"アマクサシ","town":"志柿町","town_kana":"シカキマチ","prefecture_code":43},"0016":{"zip_code":"8630016","prefecture":"熊本県","prefecture_kana":"クマモトケン","city":"天草市","city_kana":"アマクサシ","town":"城下町","town_kana":"ジョウカマチ","prefecture_code":43},"0034":{"zip_code":"8630034","prefecture":"熊本県","prefecture_kana":"クマモトケン","city":"天草市","city_kana":"アマクサシ","town":"浄南町","town_kana":"ジョウナンマチ","prefecture_code":43},"1111":{"zip_code":"8631111","prefecture":"熊本県","prefecture_kana":"クマモトケン","city":"天草市","city_kana":"アマクサシ","town":"新和町碇石","town_kana":"シンワマチイカリイシ","prefecture_code":43},"0102":{"zip_code":"8630102","prefecture":"熊本県","prefecture_kana":"クマモトケン","city":"天草市","city_kana":"アマクサシ","town":"新和町大多尾","town_kana":"シンワマチオオタオ","prefecture_code":43},"0103":{"zip_code":"8630103","prefecture":"熊本県","prefecture_kana":"クマモトケン","city":"天草市","city_kana":"アマクサシ","town":"新和町大宮地","town_kana":"シンワマチオオミヤジ","prefecture_code":43},"0101":{"zip_code":"8630101","prefecture":"熊本県","prefecture_kana":"クマモトケン","city":"天草市","city_kana":"アマクサシ","town":"新和町小宮地","town_kana":"シンワマチコミヤジ","prefecture_code":43},"1112":{"zip_code":"8631112","prefecture":"熊本県","prefecture_kana":"クマモトケン","city":"天草市","city_kana":"アマクサシ","town":"新和町中田","town_kana":"シンワマチナカダ","prefecture_code":43},"0037":{"zip_code":"8630037","prefecture":"熊本県","prefecture_kana":"クマモトケン","city":"天草市","city_kana":"アマクサシ","town":"諏訪町","town_kana":"スワマチ","prefecture_code":43},"0042":{"zip_code":"8630042","prefecture":"熊本県","prefecture_kana":"クマモトケン","city":"天草市","city_kana":"アマクサシ","town":"瀬戸町","town_kana":"セドマチ","prefecture_code":43},"0023":{"zip_code":"8630023","prefecture":"熊本県","prefecture_kana":"クマモトケン","city":"天草市","city_kana":"アマクサシ","town":"中央新町","town_kana":"チュウオウシンマチ","prefecture_code":43},"0048":{"zip_code":"8630048","prefecture":"熊本県","prefecture_kana":"クマモトケン","city":"天草市","city_kana":"アマクサシ","town":"中村町","town_kana":"ナカムラマチ","prefecture_code":43},"0045":{"zip_code":"8630045","prefecture":"熊本県","prefecture_kana":"クマモトケン","city":"天草市","city_kana":"アマクサシ","town":"枦宇土町","town_kana":"ハジウトマチ","prefecture_code":43},"0047":{"zip_code":"8630047","prefecture":"熊本県","prefecture_kana":"クマモトケン","city":"天草市","city_kana":"アマクサシ","town":"八幡町","town_kana":"ハチマンマチ","prefecture_code":43},"0018":{"zip_code":"8630018","prefecture":"熊本県","prefecture_kana":"クマモトケン","city":"天草市","city_kana":"アマクサシ","town":"浜崎町","town_kana":"ハマサキマチ","prefecture_code":43},"0014":{"zip_code":"8630014","prefecture":"熊本県","prefecture_kana":"クマモトケン","city":"天草市","city_kana":"アマクサシ","town":"東浜町","town_kana":"ヒガシハママチ","prefecture_code":43},"0033":{"zip_code":"8630033","prefecture":"熊本県","prefecture_kana":"クマモトケン","city":"天草市","city_kana":"アマクサシ","town":"東町","town_kana":"ヒガシマチ","prefecture_code":43},"1511":{"zip_code":"8631511","prefecture":"熊本県","prefecture_kana":"クマモトケン","city":"天草市","city_kana":"アマクサシ","town":"深海町","town_kana":"フカミマチ","prefecture_code":43},"1432":{"zip_code":"8631432","prefecture":"熊本県","prefecture_kana":"クマモトケン","city":"天草市","city_kana":"アマクサシ","town":"二浦町亀浦","town_kana":"フタウラマチカメウラ","prefecture_code":43},"1431":{"zip_code":"8631431","prefecture":"熊本県","prefecture_kana":"クマモトケン","city":"天草市","city_kana":"アマクサシ","town":"二浦町早浦","town_kana":"フタウラマチハヤウラ","prefecture_code":43},"0017":{"zip_code":"8630017","prefecture":"熊本県","prefecture_kana":"クマモトケン","city":"天草市","city_kana":"アマクサシ","town":"船之尾町","town_kana":"フネノオマチ","prefecture_code":43},"0025":{"zip_code":"8630025","prefecture":"熊本県","prefecture_kana":"クマモトケン","city":"天草市","city_kana":"アマクサシ","town":"古川町","town_kana":"フルカワマチ","prefecture_code":43},"0001":{"zip_code":"8630001","prefecture":"熊本県","prefecture_kana":"クマモトケン","city":"天草市","city_kana":"アマクサシ","town":"本渡町広瀬","town_kana":"ホンドマチヒロセ","prefecture_code":43},"0003":{"zip_code":"8630003","prefecture":"熊本県","prefecture_kana":"クマモトケン","city":"天草市","city_kana":"アマクサシ","town":"本渡町本渡","town_kana":"ホンドマチホンド","prefecture_code":43},"0002":{"zip_code":"8630002","prefecture":"熊本県","prefecture_kana":"クマモトケン","city":"天草市","city_kana":"アマクサシ","town":"本渡町本戸馬場","town_kana":"ホンドマチホントババ","prefecture_code":43},"0004":{"zip_code":"8630004","prefecture":"熊本県","prefecture_kana":"クマモトケン","city":"天草市","city_kana":"アマクサシ","town":"本渡町本泉","town_kana":"ホンドマチモトイズミ","prefecture_code":43},"0006":{"zip_code":"8630006","prefecture":"熊本県","prefecture_kana":"クマモトケン","city":"天草市","city_kana":"アマクサシ","town":"本町下河内","town_kana":"ホンマチシモガワチ","prefecture_code":43},"0005":{"zip_code":"8630005","prefecture":"熊本県","prefecture_kana":"クマモトケン","city":"天草市","city_kana":"アマクサシ","town":"本町新休","town_kana":"ホンマチシンキュウ","prefecture_code":43},"0007":{"zip_code":"8630007","prefecture":"熊本県","prefecture_kana":"クマモトケン","city":"天草市","city_kana":"アマクサシ","town":"本町本","town_kana":"ホンマチホン","prefecture_code":43},"0050":{"zip_code":"8630050","prefecture":"熊本県","prefecture_kana":"クマモトケン","city":"天草市","city_kana":"アマクサシ","town":"丸尾町","town_kana":"マルオマチ","prefecture_code":43},"0021":{"zip_code":"8630021","prefecture":"熊本県","prefecture_kana":"クマモトケン","city":"天草市","city_kana":"アマクサシ","town":"港町","town_kana":"ミナトマチ","prefecture_code":43},"0031":{"zip_code":"8630031","prefecture":"熊本県","prefecture_kana":"クマモトケン","city":"天草市","city_kana":"アマクサシ","town":"南新町","town_kana":"ミナミシンマチ","prefecture_code":43},"0038":{"zip_code":"8630038","prefecture":"熊本県","prefecture_kana":"クマモトケン","city":"天草市","city_kana":"アマクサシ","town":"南町","town_kana":"ミナミマチ","prefecture_code":43},"1161":{"zip_code":"8631161","prefecture":"熊本県","prefecture_kana":"クマモトケン","city":"天草市","city_kana":"アマクサシ","town":"宮地岳町","town_kana":"ミヤジダケマチ","prefecture_code":43},"0035":{"zip_code":"8630035","prefecture":"熊本県","prefecture_kana":"クマモトケン","city":"天草市","city_kana":"アマクサシ","town":"山の手町","town_kana":"ヤマノテマチ","prefecture_code":43},"2500":{"zip_code":"8632500","prefecture":"熊本県","prefecture_kana":"クマモトケン","city":"天草郡苓北町","city_kana":"アマクサグンレイホクマチ","town":"","town_kana":"","prefecture_code":43},"2505":{"zip_code":"8632505","prefecture":"熊本県","prefecture_kana":"クマモトケン","city":"天草郡苓北町","city_kana":"アマクサグンレイホクマチ","town":"内田","town_kana":"ウチダ","prefecture_code":43},"2502":{"zip_code":"8632502","prefecture":"熊本県","prefecture_kana":"クマモトケン","city":"天草郡苓北町","city_kana":"アマクサグンレイホクマチ","town":"上津深江","town_kana":"コウツフカエ","prefecture_code":43},"2501":{"zip_code":"8632501","prefecture":"熊本県","prefecture_kana":"クマモトケン","city":"天草郡苓北町","city_kana":"アマクサグンレイホクマチ","town":"坂瀬川","town_kana":"サカセガワ","prefecture_code":43},"2503":{"zip_code":"8632503","prefecture":"熊本県","prefecture_kana":"クマモトケン","city":"天草郡苓北町","city_kana":"アマクサグンレイホクマチ","town":"志岐","town_kana":"シキ","prefecture_code":43},"2506":{"zip_code":"8632506","prefecture":"熊本県","prefecture_kana":"クマモトケン","city":"天草郡苓北町","city_kana":"アマクサグンレイホクマチ","town":"白木尾","town_kana":"シラキオ","prefecture_code":43},"2504":{"zip_code":"8632504","prefecture":"熊本県","prefecture_kana":"クマモトケン","city":"天草郡苓北町","city_kana":"アマクサグンレイホクマチ","town":"年柄","town_kana":"トシカラ","prefecture_code":43},"2507":{"zip_code":"8632507","prefecture":"熊本県","prefecture_kana":"クマモトケン","city":"天草郡苓北町","city_kana":"アマクサグンレイホクマチ","town":"富岡","town_kana":"トミオカ","prefecture_code":43},"2611":{"zip_code":"8632611","prefecture":"熊本県","prefecture_kana":"クマモトケン","city":"天草郡苓北町","city_kana":"アマクサグンレイホクマチ","town":"都呂々","town_kana":"トロロ","prefecture_code":43}}