{"0000":{"zip_code":"8660000","prefecture":"熊本県","prefecture_kana":"クマモトケン","city":"八代市","city_kana":"ヤツシロシ","town":"","town_kana":"","prefecture_code":43},"0844":{"zip_code":"8660844","prefecture":"熊本県","prefecture_kana":"クマモトケン","city":"八代市","city_kana":"ヤツシロシ","town":"旭中央通","town_kana":"アサヒチュウオウドオリ","prefecture_code":43},"0893":{"zip_code":"8660893","prefecture":"熊本県","prefecture_kana":"クマモトケン","city":"八代市","city_kana":"ヤツシロシ","town":"海士江町","town_kana":"アマガエマチ","prefecture_code":43},"0011":{"zip_code":"8660011","prefecture":"熊本県","prefecture_kana":"クマモトケン","city":"八代市","city_kana":"ヤツシロシ","town":"井揚町","town_kana":"イアゲマチ","prefecture_code":43},"0825":{"zip_code":"8660825","prefecture":"熊本県","prefecture_kana":"クマモトケン","city":"八代市","city_kana":"ヤツシロシ","town":"井上町","town_kana":"イノウエマチ","prefecture_code":43},"0081":{"zip_code":"8660081","prefecture":"熊本県","prefecture_kana":"クマモトケン","city":"八代市","city_kana":"ヤツシロシ","town":"植柳上町","town_kana":"ウヤナギカミマチ","prefecture_code":43},"0083":{"zip_code":"8660083","prefecture":"熊本県","prefecture_kana":"クマモトケン","city":"八代市","city_kana":"ヤツシロシ","town":"植柳下町","town_kana":"ウヤナギシモマチ","prefecture_code":43},"0084":{"zip_code":"8660084","prefecture":"熊本県","prefecture_kana":"クマモトケン","city":"八代市","city_kana":"ヤツシロシ","town":"植柳新町","town_kana":"ウヤナギシンマチ","prefecture_code":43},"0085":{"zip_code":"8660085","prefecture":"熊本県","prefecture_kana":"クマモトケン","city":"八代市","city_kana":"ヤツシロシ","town":"植柳元町","town_kana":"ウヤナギモトマチ","prefecture_code":43},"0035":{"zip_code":"8660035","prefecture":"熊本県","prefecture_kana":"クマモトケン","city":"八代市","city_kana":"ヤツシロシ","town":"大島町","town_kana":"オオシママチ","prefecture_code":43},"0852":{"zip_code":"8660852","prefecture":"熊本県","prefecture_kana":"クマモトケン","city":"八代市","city_kana":"ヤツシロシ","town":"大手町","town_kana":"オオテマチ","prefecture_code":43},"0895":{"zip_code":"8660895","prefecture":"熊本県","prefecture_kana":"クマモトケン","city":"八代市","city_kana":"ヤツシロシ","town":"大村町","town_kana":"オオムラマチ","prefecture_code":43},"0013":{"zip_code":"8660013","prefecture":"熊本県","prefecture_kana":"クマモトケン","city":"八代市","city_kana":"ヤツシロシ","town":"沖町","town_kana":"オキマチ","prefecture_code":43},"0813":{"zip_code":"8660813","prefecture":"熊本県","prefecture_kana":"クマモトケン","city":"八代市","city_kana":"ヤツシロシ","town":"上片町","town_kana":"カミカタマチ","prefecture_code":43},"0824":{"zip_code":"8660824","prefecture":"熊本県","prefecture_kana":"クマモトケン","city":"八代市","city_kana":"ヤツシロシ","town":"上日置町","town_kana":"カミヒオキマチ","prefecture_code":43},"0865":{"zip_code":"8660865","prefecture":"熊本県","prefecture_kana":"クマモトケン","city":"八代市","city_kana":"ヤツシロシ","town":"北の丸町","town_kana":"キタノマルマチ","prefecture_code":43},"0024":{"zip_code":"8660024","prefecture":"熊本県","prefecture_kana":"クマモトケン","city":"八代市","city_kana":"ヤツシロシ","town":"郡築一番町","town_kana":"グンチク1バンチョウ","prefecture_code":43},"0023":{"zip_code":"8660023","prefecture":"熊本県","prefecture_kana":"クマモトケン","city":"八代市","city_kana":"ヤツシロシ","town":"郡築二番町","town_kana":"グンチク2バンチョウ","prefecture_code":43},"0022":{"zip_code":"8660022","prefecture":"熊本県","prefecture_kana":"クマモトケン","city":"八代市","city_kana":"ヤツシロシ","town":"郡築三番町","town_kana":"グンチク3バンチョウ","prefecture_code":43},"0021":{"zip_code":"8660021","prefecture":"熊本県","prefecture_kana":"クマモトケン","city":"八代市","city_kana":"ヤツシロシ","town":"郡築四番町","town_kana":"グンチク4バンチョウ","prefecture_code":43},"0008":{"zip_code":"8660008","prefecture":"熊本県","prefecture_kana":"クマモトケン","city":"八代市","city_kana":"ヤツシロシ","town":"郡築五番町","town_kana":"グンチク5バンチョウ","prefecture_code":43},"0007":{"zip_code":"8660007","prefecture":"熊本県","prefecture_kana":"クマモトケン","city":"八代市","city_kana":"ヤツシロシ","town":"郡築六番町","town_kana":"グンチク6バンチョウ","prefecture_code":43},"0006":{"zip_code":"8660006","prefecture":"熊本県","prefecture_kana":"クマモトケン","city":"八代市","city_kana":"ヤツシロシ","town":"郡築七番町","town_kana":"グンチク7バンチョウ","prefecture_code":43},"0005":{"zip_code":"8660005","prefecture":"熊本県","prefecture_kana":"クマモトケン","city":"八代市","city_kana":"ヤツシロシ","town":"郡築八番町","town_kana":"グンチク8バンチョウ","prefecture_code":43},"0004":{"zip_code":"8660004","prefecture":"熊本県","prefecture_kana":"クマモトケン","city":"八代市","city_kana":"ヤツシロシ","town":"郡築九番町","town_kana":"グンチク9バンチョウ","prefecture_code":43},"0003":{"zip_code":"8660003","prefecture":"熊本県","prefecture_kana":"クマモトケン","city":"八代市","city_kana":"ヤツシロシ","town":"郡築十番町","town_kana":"グンチク10バンチョウ","prefecture_code":43},"0002":{"zip_code":"8660002","prefecture":"熊本県","prefecture_kana":"クマモトケン","city":"八代市","city_kana":"ヤツシロシ","town":"郡築十一番町","town_kana":"グンチク11バンチョウ","prefecture_code":43},"0001":{"zip_code":"8660001","prefecture":"熊本県","prefecture_kana":"クマモトケン","city":"八代市","city_kana":"ヤツシロシ","town":"郡築十二番町","town_kana":"グンチク12バンチョウ","prefecture_code":43},"0071":{"zip_code":"8660071","prefecture":"熊本県","prefecture_kana":"クマモトケン","city":"八代市","city_kana":"ヤツシロシ","town":"高下東町","town_kana":"コウゲヒガシマチ","prefecture_code":43},"0072":{"zip_code":"8660072","prefecture":"熊本県","prefecture_kana":"クマモトケン","city":"八代市","city_kana":"ヤツシロシ","town":"高下西町","town_kana":"コウゲニシマチ","prefecture_code":43},"0881":{"zip_code":"8660881","prefecture":"熊本県","prefecture_kana":"クマモトケン","city":"八代市","city_kana":"ヤツシロシ","town":"興国町","town_kana":"コウコクマチ","prefecture_code":43},"0012":{"zip_code":"8660012","prefecture":"熊本県","prefecture_kana":"クマモトケン","city":"八代市","city_kana":"ヤツシロシ","town":"高小原町","town_kana":"コウゴバラマチ","prefecture_code":43},"0894":{"zip_code":"8660894","prefecture":"熊本県","prefecture_kana":"クマモトケン","city":"八代市","city_kana":"ヤツシロシ","town":"上野町","town_kana":"コウズケマチ","prefecture_code":43},"0897":{"zip_code":"8660897","prefecture":"熊本県","prefecture_kana":"クマモトケン","city":"八代市","city_kana":"ヤツシロシ","town":"古閑上町","town_kana":"コガカミマチ","prefecture_code":43},"0898":{"zip_code":"8660898","prefecture":"熊本県","prefecture_kana":"クマモトケン","city":"八代市","city_kana":"ヤツシロシ","town":"古閑中町","town_kana":"コガナカマチ","prefecture_code":43},"0892":{"zip_code":"8660892","prefecture":"熊本県","prefecture_kana":"クマモトケン","city":"八代市","city_kana":"ヤツシロシ","town":"古閑下町","town_kana":"コガシモマチ","prefecture_code":43},"0891":{"zip_code":"8660891","prefecture":"熊本県","prefecture_kana":"クマモトケン","city":"八代市","city_kana":"ヤツシロシ","town":"古閑浜町","town_kana":"コガハママチ","prefecture_code":43},"0845":{"zip_code":"8660845","prefecture":"熊本県","prefecture_kana":"クマモトケン","city":"八代市","city_kana":"ヤツシロシ","town":"黄金町","town_kana":"コガネチョウ","prefecture_code":43},"0017":{"zip_code":"8660017","prefecture":"熊本県","prefecture_kana":"クマモトケン","city":"八代市","city_kana":"ヤツシロシ","town":"三楽町","town_kana":"サンラクチョウ","prefecture_code":43},"0864":{"zip_code":"8660864","prefecture":"熊本県","prefecture_kana":"クマモトケン","city":"八代市","city_kana":"ヤツシロシ","town":"塩屋町","town_kana":"シオヤマチ","prefecture_code":43},"0827":{"zip_code":"8660827","prefecture":"熊本県","prefecture_kana":"クマモトケン","city":"八代市","city_kana":"ヤツシロシ","town":"島田町","town_kana":"シマダマチ","prefecture_code":43},"0853":{"zip_code":"8660853","prefecture":"熊本県","prefecture_kana":"クマモトケン","city":"八代市","city_kana":"ヤツシロシ","town":"清水町","town_kana":"シミズマチ","prefecture_code":43},"0042":{"zip_code":"8660042","prefecture":"熊本県","prefecture_kana":"クマモトケン","city":"八代市","city_kana":"ヤツシロシ","town":"蛇籠町","town_kana":"ジャカゴマチ","prefecture_code":43},"0823":{"zip_code":"8660823","prefecture":"熊本県","prefecture_kana":"クマモトケン","city":"八代市","city_kana":"ヤツシロシ","town":"十条町","town_kana":"ジュウジョウマチ","prefecture_code":43},"0032":{"zip_code":"8660032","prefecture":"熊本県","prefecture_kana":"クマモトケン","city":"八代市","city_kana":"ヤツシロシ","town":"新開町","town_kana":"シンカイマチ","prefecture_code":43},"0016":{"zip_code":"8660016","prefecture":"熊本県","prefecture_kana":"クマモトケン","city":"八代市","city_kana":"ヤツシロシ","town":"新地町","town_kana":"シンチマチ","prefecture_code":43},"0031":{"zip_code":"8660031","prefecture":"熊本県","prefecture_kana":"クマモトケン","city":"八代市","city_kana":"ヤツシロシ","town":"新浜町","town_kana":"シンハママチ","prefecture_code":43},"0854":{"zip_code":"8660854","prefecture":"熊本県","prefecture_kana":"クマモトケン","city":"八代市","city_kana":"ヤツシロシ","town":"新町","town_kana":"シンマチ","prefecture_code":43},"0034":{"zip_code":"8660034","prefecture":"熊本県","prefecture_kana":"クマモトケン","city":"八代市","city_kana":"ヤツシロシ","town":"新港町","town_kana":"シンミナトマチ","prefecture_code":43},"0832":{"zip_code":"8660832","prefecture":"熊本県","prefecture_kana":"クマモトケン","city":"八代市","city_kana":"ヤツシロシ","town":"末広町","town_kana":"スエヒロチョウ","prefecture_code":43},"0053":{"zip_code":"8660053","prefecture":"熊本県","prefecture_kana":"クマモトケン","city":"八代市","city_kana":"ヤツシロシ","town":"千反町","town_kana":"センダンマチ","prefecture_code":43},"0054":{"zip_code":"8660054","prefecture":"熊本県","prefecture_kana":"クマモトケン","city":"八代市","city_kana":"ヤツシロシ","town":"栴檀町","town_kana":"センダンマチ","prefecture_code":43},"0082":{"zip_code":"8660082","prefecture":"熊本県","prefecture_kana":"クマモトケン","city":"八代市","city_kana":"ヤツシロシ","town":"大福寺町","town_kana":"ダイフクジマチ","prefecture_code":43},"0014":{"zip_code":"8660014","prefecture":"熊本県","prefecture_kana":"クマモトケン","city":"八代市","city_kana":"ヤツシロシ","town":"高島町","town_kana":"タカシママチ","prefecture_code":43},"0866":{"zip_code":"8660866","prefecture":"熊本県","prefecture_kana":"クマモトケン","city":"八代市","city_kana":"ヤツシロシ","town":"鷹辻町","town_kana":"タカツジマチ","prefecture_code":43},"0826":{"zip_code":"8660826","prefecture":"熊本県","prefecture_kana":"クマモトケン","city":"八代市","city_kana":"ヤツシロシ","town":"竹原町","town_kana":"タケハラマチ","prefecture_code":43},"0045":{"zip_code":"8660045","prefecture":"熊本県","prefecture_kana":"クマモトケン","city":"八代市","city_kana":"ヤツシロシ","town":"建馬町","town_kana":"タテウママチ","prefecture_code":43},"0871":{"zip_code":"8660871","prefecture":"熊本県","prefecture_kana":"クマモトケン","city":"八代市","city_kana":"ヤツシロシ","town":"田中東町","town_kana":"タナカヒガシマチ","prefecture_code":43},"0876":{"zip_code":"8660876","prefecture":"熊本県","prefecture_kana":"クマモトケン","city":"八代市","city_kana":"ヤツシロシ","town":"田中西町","town_kana":"タナカニシマチ","prefecture_code":43},"0877":{"zip_code":"8660877","prefecture":"熊本県","prefecture_kana":"クマモトケン","city":"八代市","city_kana":"ヤツシロシ","town":"田中北町","town_kana":"タナカキタマチ","prefecture_code":43},"0872":{"zip_code":"8660872","prefecture":"熊本県","prefecture_kana":"クマモトケン","city":"八代市","city_kana":"ヤツシロシ","town":"田中町","town_kana":"タナカマチ","prefecture_code":43},"0015":{"zip_code":"8660015","prefecture":"熊本県","prefecture_kana":"クマモトケン","city":"八代市","city_kana":"ヤツシロシ","town":"築添町","town_kana":"ツキゾエマチ","prefecture_code":43},"0857":{"zip_code":"8660857","prefecture":"熊本県","prefecture_kana":"クマモトケン","city":"八代市","city_kana":"ヤツシロシ","town":"出町","town_kana":"デマチ","prefecture_code":43},"0856":{"zip_code":"8660856","prefecture":"熊本県","prefecture_kana":"クマモトケン","city":"八代市","city_kana":"ヤツシロシ","town":"通町","town_kana":"トオリチョウ","prefecture_code":43},"0812":{"zip_code":"8660812","prefecture":"熊本県","prefecture_kana":"クマモトケン","city":"八代市","city_kana":"ヤツシロシ","town":"中片町","town_kana":"ナカカタマチ","prefecture_code":43},"0044":{"zip_code":"8660044","prefecture":"熊本県","prefecture_kana":"クマモトケン","city":"八代市","city_kana":"ヤツシロシ","town":"中北町","town_kana":"ナカキタマチ","prefecture_code":43},"0885":{"zip_code":"8660885","prefecture":"熊本県","prefecture_kana":"クマモトケン","city":"八代市","city_kana":"ヤツシロシ","town":"永碇町","town_kana":"ナガイカリマチ","prefecture_code":43},"0815":{"zip_code":"8660815","prefecture":"熊本県","prefecture_kana":"クマモトケン","city":"八代市","city_kana":"ヤツシロシ","town":"長田町","town_kana":"ナガタマチ","prefecture_code":43},"0064":{"zip_code":"8660064","prefecture":"熊本県","prefecture_kana":"クマモトケン","city":"八代市","city_kana":"ヤツシロシ","town":"奈良木町","town_kana":"ナラギマチ","prefecture_code":43},"0811":{"zip_code":"8660811","prefecture":"熊本県","prefecture_kana":"クマモトケン","city":"八代市","city_kana":"ヤツシロシ","town":"西片町","town_kana":"ニシカタマチ","prefecture_code":43},"0834":{"zip_code":"8660834","prefecture":"熊本県","prefecture_kana":"クマモトケン","city":"八代市","city_kana":"ヤツシロシ","town":"錦町","town_kana":"ニシキチョウ","prefecture_code":43},"0863":{"zip_code":"8660863","prefecture":"熊本県","prefecture_kana":"クマモトケン","city":"八代市","city_kana":"ヤツシロシ","town":"西松江城町","town_kana":"ニシマツエジョウマチ","prefecture_code":43},"0804":{"zip_code":"8660804","prefecture":"熊本県","prefecture_kana":"クマモトケン","city":"八代市","city_kana":"ヤツシロシ","town":"西宮町","town_kana":"ニシミヤマチ","prefecture_code":43},"0831":{"zip_code":"8660831","prefecture":"熊本県","prefecture_kana":"クマモトケン","city":"八代市","city_kana":"ヤツシロシ","town":"萩原町","town_kana":"ハギワラマチ","prefecture_code":43},"0041":{"zip_code":"8660041","prefecture":"熊本県","prefecture_kana":"クマモトケン","city":"八代市","city_kana":"ヤツシロシ","town":"八幡町","town_kana":"ハチマンチョウ","prefecture_code":43},"0843":{"zip_code":"8660843","prefecture":"熊本県","prefecture_kana":"クマモトケン","city":"八代市","city_kana":"ヤツシロシ","town":"花園町","town_kana":"ハナゾノチョウ","prefecture_code":43},"0896":{"zip_code":"8660896","prefecture":"熊本県","prefecture_kana":"クマモトケン","city":"八代市","city_kana":"ヤツシロシ","town":"日置町","town_kana":"ヒオキマチ","prefecture_code":43},"0814":{"zip_code":"8660814","prefecture":"熊本県","prefecture_kana":"クマモトケン","city":"八代市","city_kana":"ヤツシロシ","town":"東片町","town_kana":"ヒガシカタマチ","prefecture_code":43},"0801":{"zip_code":"8660801","prefecture":"熊本県","prefecture_kana":"クマモトケン","city":"八代市","city_kana":"ヤツシロシ","town":"東町","town_kana":"ヒガシマチ","prefecture_code":43},"0851":{"zip_code":"8660851","prefecture":"熊本県","prefecture_kana":"クマモトケン","city":"八代市","city_kana":"ヤツシロシ","town":"毘舎丸町","town_kana":"ビシャマルマチ","prefecture_code":43},"0074":{"zip_code":"8660074","prefecture":"熊本県","prefecture_kana":"クマモトケン","city":"八代市","city_kana":"ヤツシロシ","town":"平山新町","town_kana":"ヒラヤマシンマチ","prefecture_code":43},"0063":{"zip_code":"8660063","prefecture":"熊本県","prefecture_kana":"クマモトケン","city":"八代市","city_kana":"ヤツシロシ","town":"豊原上町","town_kana":"ブイワラカミマチ","prefecture_code":43},"0062":{"zip_code":"8660062","prefecture":"熊本県","prefecture_kana":"クマモトケン","city":"八代市","city_kana":"ヤツシロシ","town":"豊原中町","town_kana":"ブイワラナカマチ","prefecture_code":43},"0065":{"zip_code":"8660065","prefecture":"熊本県","prefecture_kana":"クマモトケン","city":"八代市","city_kana":"ヤツシロシ","town":"豊原下町","town_kana":"ブイワラシモマチ","prefecture_code":43},"0821":{"zip_code":"8660821","prefecture":"熊本県","prefecture_kana":"クマモトケン","city":"八代市","city_kana":"ヤツシロシ","town":"福正町","town_kana":"フクショウマチ","prefecture_code":43},"0822":{"zip_code":"8660822","prefecture":"熊本県","prefecture_kana":"クマモトケン","city":"八代市","city_kana":"ヤツシロシ","town":"福正元町","town_kana":"フクショウモトマチ","prefecture_code":43},"0855":{"zip_code":"8660855","prefecture":"熊本県","prefecture_kana":"クマモトケン","city":"八代市","city_kana":"ヤツシロシ","town":"袋町","town_kana":"フクロマチ","prefecture_code":43},"0043":{"zip_code":"8660043","prefecture":"熊本県","prefecture_kana":"クマモトケン","city":"八代市","city_kana":"ヤツシロシ","town":"古城町","town_kana":"フルシロマチ","prefecture_code":43},"0803":{"zip_code":"8660803","prefecture":"熊本県","prefecture_kana":"クマモトケン","city":"八代市","city_kana":"ヤツシロシ","town":"古麓町","town_kana":"フルフモトマチ","prefecture_code":43},"0073":{"zip_code":"8660073","prefecture":"熊本県","prefecture_kana":"クマモトケン","city":"八代市","city_kana":"ヤツシロシ","town":"本野町","town_kana":"ホンノマチ","prefecture_code":43},"0861":{"zip_code":"8660861","prefecture":"熊本県","prefecture_kana":"クマモトケン","city":"八代市","city_kana":"ヤツシロシ","town":"本町","town_kana":"ホンマチ","prefecture_code":43},"0862":{"zip_code":"8660862","prefecture":"熊本県","prefecture_kana":"クマモトケン","city":"八代市","city_kana":"ヤツシロシ","town":"松江城町","town_kana":"マツエジョウマチ","prefecture_code":43},"0882":{"zip_code":"8660882","prefecture":"熊本県","prefecture_kana":"クマモトケン","city":"八代市","city_kana":"ヤツシロシ","town":"松江本町","town_kana":"マツエホンマチ","prefecture_code":43},"0883":{"zip_code":"8660883","prefecture":"熊本県","prefecture_kana":"クマモトケン","city":"八代市","city_kana":"ヤツシロシ","town":"松江町","town_kana":"マツエマチ","prefecture_code":43},"0884":{"zip_code":"8660884","prefecture":"熊本県","prefecture_kana":"クマモトケン","city":"八代市","city_kana":"ヤツシロシ","town":"松崎町","town_kana":"マツザキマチ","prefecture_code":43},"0841":{"zip_code":"8660841","prefecture":"熊本県","prefecture_kana":"クマモトケン","city":"八代市","city_kana":"ヤツシロシ","town":"緑町","town_kana":"ミドリチョウ","prefecture_code":43},"0033":{"zip_code":"8660033","prefecture":"熊本県","prefecture_kana":"クマモトケン","city":"八代市","city_kana":"ヤツシロシ","town":"港町","town_kana":"ミナトマチ","prefecture_code":43},"0805":{"zip_code":"8660805","prefecture":"熊本県","prefecture_kana":"クマモトケン","city":"八代市","city_kana":"ヤツシロシ","town":"宮地町","town_kana":"ミヤジマチ","prefecture_code":43},"0802":{"zip_code":"8660802","prefecture":"熊本県","prefecture_kana":"クマモトケン","city":"八代市","city_kana":"ヤツシロシ","town":"妙見町","town_kana":"ミョウケンマチ","prefecture_code":43},"0055":{"zip_code":"8660055","prefecture":"熊本県","prefecture_kana":"クマモトケン","city":"八代市","city_kana":"ヤツシロシ","town":"迎町","town_kana":"ムカエマチ","prefecture_code":43},"0051":{"zip_code":"8660051","prefecture":"熊本県","prefecture_kana":"クマモトケン","city":"八代市","city_kana":"ヤツシロシ","town":"麦島東町","town_kana":"ムギシマヒガシマチ","prefecture_code":43},"0052":{"zip_code":"8660052","prefecture":"熊本県","prefecture_kana":"クマモトケン","city":"八代市","city_kana":"ヤツシロシ","town":"麦島西町","town_kana":"ムギシマニシマチ","prefecture_code":43},"0846":{"zip_code":"8660846","prefecture":"熊本県","prefecture_kana":"クマモトケン","city":"八代市","city_kana":"ヤツシロシ","town":"弥生町","town_kana":"ヤヨイチョウ","prefecture_code":43},"0833":{"zip_code":"8660833","prefecture":"熊本県","prefecture_kana":"クマモトケン","city":"八代市","city_kana":"ヤツシロシ","town":"夕葉町","town_kana":"ユウバチョウ","prefecture_code":43},"0875":{"zip_code":"8660875","prefecture":"熊本県","prefecture_kana":"クマモトケン","city":"八代市","city_kana":"ヤツシロシ","town":"横手新町","town_kana":"ヨコテシンマチ","prefecture_code":43},"0874":{"zip_code":"8660874","prefecture":"熊本県","prefecture_kana":"クマモトケン","city":"八代市","city_kana":"ヤツシロシ","town":"横手本町","town_kana":"ヨコテホンマチ","prefecture_code":43},"0873":{"zip_code":"8660873","prefecture":"熊本県","prefecture_kana":"クマモトケン","city":"八代市","city_kana":"ヤツシロシ","town":"横手町","town_kana":"ヨコテマチ","prefecture_code":43},"0842":{"zip_code":"8660842","prefecture":"熊本県","prefecture_kana":"クマモトケン","city":"八代市","city_kana":"ヤツシロシ","town":"若草町","town_kana":"ワカクサチョウ","prefecture_code":43},"0061":{"zip_code":"8660061","prefecture":"熊本県","prefecture_kana":"クマモトケン","city":"八代市","city_kana":"ヤツシロシ","town":"渡町","town_kana":"ワタシマチ","prefecture_code":43},"0101":{"zip_code":"8660101","prefecture":"熊本県","prefecture_kana":"クマモトケン","city":"上天草市","city_kana":"カミアマクサシ","town":"姫戸町姫浦","town_kana":"ヒメドマチヒメウラ","prefecture_code":43},"0102":{"zip_code":"8660102","prefecture":"熊本県","prefecture_kana":"クマモトケン","city":"上天草市","city_kana":"カミアマクサシ","town":"姫戸町二間戸","town_kana":"ヒメドマチフタマド","prefecture_code":43},"0201":{"zip_code":"8660201","prefecture":"熊本県","prefecture_kana":"クマモトケン","city":"上天草市","city_kana":"カミアマクサシ","town":"龍ケ岳町大道","town_kana":"リュウガタケマチオオドウ","prefecture_code":43},"0202":{"zip_code":"8660202","prefecture":"熊本県","prefecture_kana":"クマモトケン","city":"上天草市","city_kana":"カミアマクサシ","town":"龍ケ岳町高戸","town_kana":"リュウガタケマチタカド","prefecture_code":43},"0203":{"zip_code":"8660203","prefecture":"熊本県","prefecture_kana":"クマモトケン","city":"上天草市","city_kana":"カミアマクサシ","town":"龍ケ岳町樋島","town_kana":"リュウガタケマチヒノシマ","prefecture_code":43},"0313":{"zip_code":"8660313","prefecture":"熊本県","prefecture_kana":"クマモトケン","city":"天草市","city_kana":"アマクサシ","town":"御所浦町御所浦","town_kana":"ゴショウラマチゴショウラ","prefecture_code":43},"0334":{"zip_code":"8660334","prefecture":"熊本県","prefecture_kana":"クマモトケン","city":"天草市","city_kana":"アマクサシ","town":"御所浦町牧島","town_kana":"ゴショウラマチマキシマ","prefecture_code":43},"0303":{"zip_code":"8660303","prefecture":"熊本県","prefecture_kana":"クマモトケン","city":"天草市","city_kana":"アマクサシ","town":"御所浦町横浦","town_kana":"ゴショウラマチヨコウラ","prefecture_code":43}}