{"0000":[{"zip_code":"8680000","prefecture":"熊本県","prefecture_kana":"クマモトケン","city":"人吉市","city_kana":"ヒトヨシシ","town":"以下に掲載がない場合","town_kana":"イカニケイサイガナイバアイ","prefecture_code":43},{"zip_code":"8680000","prefecture":"熊本県","prefecture_kana":"クマモトケン","city":"球磨郡相良村","city_kana":"クマグンサガラムラ","town":"以下に掲載がない場合","town_kana":"イカニケイサイガナイバアイ","prefecture_code":43},{"zip_code":"8680000","prefecture":"熊本県","prefecture_kana":"クマモトケン","city":"球磨郡山江村","city_kana":"クマグンヤマエムラ","town":"以下に掲載がない場合","town_kana":"イカニケイサイガナイバアイ","prefecture_code":43}],"0825":{"zip_code":"8680825","prefecture":"熊本県","prefecture_kana":"クマモトケン","city":"人吉市","city_kana":"ヒトヨシシ","town":"赤池原町","town_kana":"アカイケハラマチ","prefecture_code":43},"0824":{"zip_code":"8680824","prefecture":"熊本県","prefecture_kana":"クマモトケン","city":"人吉市","city_kana":"ヒトヨシシ","town":"赤池水無町","town_kana":"アカイケミズナシマチ","prefecture_code":43},"0035":{"zip_code":"8680035","prefecture":"熊本県","prefecture_kana":"クマモトケン","city":"人吉市","city_kana":"ヒトヨシシ","town":"五日町","town_kana":"イツカマチ","prefecture_code":43},"0027":{"zip_code":"8680027","prefecture":"熊本県","prefecture_kana":"クマモトケン","city":"人吉市","city_kana":"ヒトヨシシ","town":"井ノ口町","town_kana":"イノクチマチ","prefecture_code":43},"0047":{"zip_code":"8680047","prefecture":"熊本県","prefecture_kana":"クマモトケン","city":"人吉市","city_kana":"ヒトヨシシ","town":"上原町","town_kana":"ウエハラマチ","prefecture_code":43},"0053":{"zip_code":"8680053","prefecture":"熊本県","prefecture_kana":"クマモトケン","city":"人吉市","city_kana":"ヒトヨシシ","town":"老神町","town_kana":"オイカミマチ","prefecture_code":43},"0812":{"zip_code":"8680812","prefecture":"熊本県","prefecture_kana":"クマモトケン","city":"人吉市","city_kana":"ヒトヨシシ","town":"大野町","town_kana":"オオノマチ","prefecture_code":43},"0811":{"zip_code":"8680811","prefecture":"熊本県","prefecture_kana":"クマモトケン","city":"人吉市","city_kana":"ヒトヨシシ","town":"大畑麓町","town_kana":"オコバフモトマチ","prefecture_code":43},"0803":{"zip_code":"8680803","prefecture":"熊本県","prefecture_kana":"クマモトケン","city":"人吉市","city_kana":"ヒトヨシシ","town":"大畑町","town_kana":"オコバマチ","prefecture_code":43},"0021":{"zip_code":"8680021","prefecture":"熊本県","prefecture_kana":"クマモトケン","city":"人吉市","city_kana":"ヒトヨシシ","town":"鬼木町","town_kana":"オニキマチ","prefecture_code":43},"0084":{"zip_code":"8680084","prefecture":"熊本県","prefecture_kana":"クマモトケン","city":"人吉市","city_kana":"ヒトヨシシ","town":"温泉町","town_kana":"オンセンマチ","prefecture_code":43},"0001":{"zip_code":"8680001","prefecture":"熊本県","prefecture_kana":"クマモトケン","city":"人吉市","city_kana":"ヒトヨシシ","town":"鍛冶屋町","town_kana":"カジヤマチ","prefecture_code":43},"0078":{"zip_code":"8680078","prefecture":"熊本県","prefecture_kana":"クマモトケン","city":"人吉市","city_kana":"ヒトヨシシ","town":"鹿目町","town_kana":"カナメマチ","prefecture_code":43},"0005":{"zip_code":"8680005","prefecture":"熊本県","prefecture_kana":"クマモトケン","city":"人吉市","city_kana":"ヒトヨシシ","town":"上青井町","town_kana":"カミアオイマチ","prefecture_code":43},"0821":{"zip_code":"8680821","prefecture":"熊本県","prefecture_kana":"クマモトケン","city":"人吉市","city_kana":"ヒトヨシシ","town":"上漆田町","town_kana":"カミウルシダマチ","prefecture_code":43},"0013":{"zip_code":"8680013","prefecture":"熊本県","prefecture_kana":"クマモトケン","city":"人吉市","city_kana":"ヒトヨシシ","town":"上薩摩瀬町","town_kana":"カミサツマゼマチ","prefecture_code":43},"0032":{"zip_code":"8680032","prefecture":"熊本県","prefecture_kana":"クマモトケン","city":"人吉市","city_kana":"ヒトヨシシ","town":"上新町","town_kana":"カミシンマチ","prefecture_code":43},"0801":{"zip_code":"8680801","prefecture":"熊本県","prefecture_kana":"クマモトケン","city":"人吉市","city_kana":"ヒトヨシシ","town":"上田代町","town_kana":"カミタシロマチ","prefecture_code":43},"0076":{"zip_code":"8680076","prefecture":"熊本県","prefecture_kana":"クマモトケン","city":"人吉市","city_kana":"ヒトヨシシ","town":"上戸越町","town_kana":"カミトゴエマチ","prefecture_code":43},"0073":{"zip_code":"8680073","prefecture":"熊本県","prefecture_kana":"クマモトケン","city":"人吉市","city_kana":"ヒトヨシシ","town":"上永野町","town_kana":"カミナガノマチ","prefecture_code":43},"0081":{"zip_code":"8680081","prefecture":"熊本県","prefecture_kana":"クマモトケン","city":"人吉市","city_kana":"ヒトヨシシ","town":"上林町","town_kana":"カミバヤシマチ","prefecture_code":43},"0087":{"zip_code":"8680087","prefecture":"熊本県","prefecture_kana":"クマモトケン","city":"人吉市","city_kana":"ヒトヨシシ","town":"上原田町","town_kana":"カミハラダマチ","prefecture_code":43},"0025":{"zip_code":"8680025","prefecture":"熊本県","prefecture_kana":"クマモトケン","city":"人吉市","city_kana":"ヒトヨシシ","town":"瓦屋町","town_kana":"カワラヤマチ","prefecture_code":43},"0022":[{"zip_code":"8680022","prefecture":"熊本県","prefecture_kana":"クマモトケン","city":"人吉市","city_kana":"ヒトヨシシ","town":"願成寺町","town_kana":"ガンジョウジマチ","prefecture_code":43},{"zip_code":"8680022","prefecture":"熊本県","prefecture_kana":"クマモトケン","city":"人吉市","city_kana":"ヒトヨシシ","town":"北願成寺町","town_kana":"キタガンジョウジマチ","prefecture_code":43}],"0042":{"zip_code":"8680042","prefecture":"熊本県","prefecture_kana":"クマモトケン","city":"人吉市","city_kana":"ヒトヨシシ","town":"蟹作町","town_kana":"ガンツクリマチ","prefecture_code":43},"0063":{"zip_code":"8680063","prefecture":"熊本県","prefecture_kana":"クマモトケン","city":"人吉市","city_kana":"ヒトヨシシ","town":"木地屋町","town_kana":"キジヤマチ","prefecture_code":43},"0023":{"zip_code":"8680023","prefecture":"熊本県","prefecture_kana":"クマモトケン","city":"人吉市","city_kana":"ヒトヨシシ","town":"北泉田町","town_kana":"キタイズミダマチ","prefecture_code":43},"0026":{"zip_code":"8680026","prefecture":"熊本県","prefecture_kana":"クマモトケン","city":"人吉市","city_kana":"ヒトヨシシ","town":"合ノ原町","town_kana":"ゴウノハルマチ","prefecture_code":43},"0003":{"zip_code":"8680003","prefecture":"熊本県","prefecture_kana":"クマモトケン","city":"人吉市","city_kana":"ヒトヨシシ","town":"紺屋町","town_kana":"コウヤマチ","prefecture_code":43},"0004":{"zip_code":"8680004","prefecture":"熊本県","prefecture_kana":"クマモトケン","city":"人吉市","city_kana":"ヒトヨシシ","town":"九日町","town_kana":"ココノカマチ","prefecture_code":43},"0062":{"zip_code":"8680062","prefecture":"熊本県","prefecture_kana":"クマモトケン","city":"人吉市","city_kana":"ヒトヨシシ","town":"古仏頂町","town_kana":"コブツチョウマチ","prefecture_code":43},"0006":{"zip_code":"8680006","prefecture":"熊本県","prefecture_kana":"クマモトケン","city":"人吉市","city_kana":"ヒトヨシシ","town":"駒井田町","town_kana":"コマイダマチ","prefecture_code":43},"0012":{"zip_code":"8680012","prefecture":"熊本県","prefecture_kana":"クマモトケン","city":"人吉市","city_kana":"ヒトヨシシ","town":"相良町","town_kana":"サガラマチ","prefecture_code":43},"0041":{"zip_code":"8680041","prefecture":"熊本県","prefecture_kana":"クマモトケン","city":"人吉市","city_kana":"ヒトヨシシ","town":"七地町","town_kana":"シチチマチ","prefecture_code":43},"0007":{"zip_code":"8680007","prefecture":"熊本県","prefecture_kana":"クマモトケン","city":"人吉市","city_kana":"ヒトヨシシ","town":"下青井町","town_kana":"シモアオイマチ","prefecture_code":43},"0822":{"zip_code":"8680822","prefecture":"熊本県","prefecture_kana":"クマモトケン","city":"人吉市","city_kana":"ヒトヨシシ","town":"下漆田町","town_kana":"シモウルシダマチ","prefecture_code":43},"0014":{"zip_code":"8680014","prefecture":"熊本県","prefecture_kana":"クマモトケン","city":"人吉市","city_kana":"ヒトヨシシ","town":"下薩摩瀬町","town_kana":"シモサツマゼマチ","prefecture_code":43},"0015":{"zip_code":"8680015","prefecture":"熊本県","prefecture_kana":"クマモトケン","city":"人吉市","city_kana":"ヒトヨシシ","town":"下城本町","town_kana":"シモシロモトマチ","prefecture_code":43},"0033":{"zip_code":"8680033","prefecture":"熊本県","prefecture_kana":"クマモトケン","city":"人吉市","city_kana":"ヒトヨシシ","town":"下新町","town_kana":"シモシンマチ","prefecture_code":43},"0802":{"zip_code":"8680802","prefecture":"熊本県","prefecture_kana":"クマモトケン","city":"人吉市","city_kana":"ヒトヨシシ","town":"下田代町","town_kana":"シモタシロマチ","prefecture_code":43},"0077":{"zip_code":"8680077","prefecture":"熊本県","prefecture_kana":"クマモトケン","city":"人吉市","city_kana":"ヒトヨシシ","town":"下戸越町","town_kana":"シモトゴエマチ","prefecture_code":43},"0074":{"zip_code":"8680074","prefecture":"熊本県","prefecture_kana":"クマモトケン","city":"人吉市","city_kana":"ヒトヨシシ","town":"下永野町","town_kana":"シモナガノマチ","prefecture_code":43},"0086":{"zip_code":"8680086","prefecture":"熊本県","prefecture_kana":"クマモトケン","city":"人吉市","city_kana":"ヒトヨシシ","town":"下原田町","town_kana":"シモハラダマチ","prefecture_code":43},"0083":{"zip_code":"8680083","prefecture":"熊本県","prefecture_kana":"クマモトケン","city":"人吉市","city_kana":"ヒトヨシシ","town":"下林町","town_kana":"シモバヤシマチ","prefecture_code":43},"0016":{"zip_code":"8680016","prefecture":"熊本県","prefecture_kana":"クマモトケン","city":"人吉市","city_kana":"ヒトヨシシ","town":"城本町","town_kana":"シロモトマチ","prefecture_code":43},"0052":{"zip_code":"8680052","prefecture":"熊本県","prefecture_kana":"クマモトケン","city":"人吉市","city_kana":"ヒトヨシシ","town":"新町","town_kana":"シンマチ","prefecture_code":43},"0002":{"zip_code":"8680002","prefecture":"熊本県","prefecture_kana":"クマモトケン","city":"人吉市","city_kana":"ヒトヨシシ","town":"大工町","town_kana":"ダイクマチ","prefecture_code":43},"0066":{"zip_code":"8680066","prefecture":"熊本県","prefecture_kana":"クマモトケン","city":"人吉市","city_kana":"ヒトヨシシ","town":"田野町","town_kana":"タノマチ","prefecture_code":43},"0054":{"zip_code":"8680054","prefecture":"熊本県","prefecture_kana":"クマモトケン","city":"人吉市","city_kana":"ヒトヨシシ","town":"田町","town_kana":"タマチ","prefecture_code":43},"0024":{"zip_code":"8680024","prefecture":"熊本県","prefecture_kana":"クマモトケン","city":"人吉市","city_kana":"ヒトヨシシ","town":"鶴田町","town_kana":"ツルダマチ","prefecture_code":43},"0056":{"zip_code":"8680056","prefecture":"熊本県","prefecture_kana":"クマモトケン","city":"人吉市","city_kana":"ヒトヨシシ","town":"寺町","town_kana":"テラマチ","prefecture_code":43},"0057":{"zip_code":"8680057","prefecture":"熊本県","prefecture_kana":"クマモトケン","city":"人吉市","city_kana":"ヒトヨシシ","town":"土手町","town_kana":"ドテマチ","prefecture_code":43},"0048":{"zip_code":"8680048","prefecture":"熊本県","prefecture_kana":"クマモトケン","city":"人吉市","city_kana":"ヒトヨシシ","town":"富ケ尾町","town_kana":"トミガオマチ","prefecture_code":43},"0008":{"zip_code":"8680008","prefecture":"熊本県","prefecture_kana":"クマモトケン","city":"人吉市","city_kana":"ヒトヨシシ","town":"中青井町","town_kana":"ナカアオイマチ","prefecture_code":43},"0085":{"zip_code":"8680085","prefecture":"熊本県","prefecture_kana":"クマモトケン","city":"人吉市","city_kana":"ヒトヨシシ","town":"中神町","town_kana":"ナカガミチョウ","prefecture_code":43},"0082":{"zip_code":"8680082","prefecture":"熊本県","prefecture_kana":"クマモトケン","city":"人吉市","city_kana":"ヒトヨシシ","town":"中林町","town_kana":"ナカバヤシマチ","prefecture_code":43},"0034":{"zip_code":"8680034","prefecture":"熊本県","prefecture_kana":"クマモトケン","city":"人吉市","city_kana":"ヒトヨシシ","town":"七日町","town_kana":"ナヌカマチ","prefecture_code":43},"0045":{"zip_code":"8680045","prefecture":"熊本県","prefecture_kana":"クマモトケン","city":"人吉市","city_kana":"ヒトヨシシ","town":"浪床町","town_kana":"ナミトコマチ","prefecture_code":43},"0071":{"zip_code":"8680071","prefecture":"熊本県","prefecture_kana":"クマモトケン","city":"人吉市","city_kana":"ヒトヨシシ","town":"西間上町","town_kana":"ニシアイダカミマチ","prefecture_code":43},"0072":{"zip_code":"8680072","prefecture":"熊本県","prefecture_kana":"クマモトケン","city":"人吉市","city_kana":"ヒトヨシシ","town":"西間下町","town_kana":"ニシアイダシモマチ","prefecture_code":43},"0065":{"zip_code":"8680065","prefecture":"熊本県","prefecture_kana":"クマモトケン","city":"人吉市","city_kana":"ヒトヨシシ","town":"西大塚町","town_kana":"ニシオオツカマチ","prefecture_code":43},"0036":{"zip_code":"8680036","prefecture":"熊本県","prefecture_kana":"クマモトケン","city":"人吉市","city_kana":"ヒトヨシシ","town":"二日町","town_kana":"ニノマチ","prefecture_code":43},"0058":{"zip_code":"8680058","prefecture":"熊本県","prefecture_kana":"クマモトケン","city":"人吉市","city_kana":"ヒトヨシシ","town":"灰久保町","town_kana":"ハイクボマチ","prefecture_code":43},"0046":{"zip_code":"8680046","prefecture":"熊本県","prefecture_kana":"クマモトケン","city":"人吉市","city_kana":"ヒトヨシシ","town":"原城町","town_kana":"ハラノジョウマチ","prefecture_code":43},"0043":{"zip_code":"8680043","prefecture":"熊本県","prefecture_kana":"クマモトケン","city":"人吉市","city_kana":"ヒトヨシシ","town":"東間上町","town_kana":"ヒガシアイダカミマチ","prefecture_code":43},"0044":{"zip_code":"8680044","prefecture":"熊本県","prefecture_kana":"クマモトケン","city":"人吉市","city_kana":"ヒトヨシシ","town":"東間下町","town_kana":"ヒガシアイダシモマチ","prefecture_code":43},"0823":{"zip_code":"8680823","prefecture":"熊本県","prefecture_kana":"クマモトケン","city":"人吉市","city_kana":"ヒトヨシシ","town":"東漆田町","town_kana":"ヒガシウルシダマチ","prefecture_code":43},"0064":{"zip_code":"8680064","prefecture":"熊本県","prefecture_kana":"クマモトケン","city":"人吉市","city_kana":"ヒトヨシシ","town":"東大塚町","town_kana":"ヒガシオオツカマチ","prefecture_code":43},"0051":{"zip_code":"8680051","prefecture":"熊本県","prefecture_kana":"クマモトケン","city":"人吉市","city_kana":"ヒトヨシシ","town":"麓町","town_kana":"フモトマチ","prefecture_code":43},"0011":{"zip_code":"8680011","prefecture":"熊本県","prefecture_kana":"クマモトケン","city":"人吉市","city_kana":"ヒトヨシシ","town":"宝来町","town_kana":"ホウライマチ","prefecture_code":43},"0037":{"zip_code":"8680037","prefecture":"熊本県","prefecture_kana":"クマモトケン","city":"人吉市","city_kana":"ヒトヨシシ","town":"南泉田町","town_kana":"ミナミイズミダマチ","prefecture_code":43},"0031":{"zip_code":"8680031","prefecture":"熊本県","prefecture_kana":"クマモトケン","city":"人吉市","city_kana":"ヒトヨシシ","town":"南願成寺町","town_kana":"ミナミガンジョウジチョウ","prefecture_code":43},"0055":{"zip_code":"8680055","prefecture":"熊本県","prefecture_kana":"クマモトケン","city":"人吉市","city_kana":"ヒトヨシシ","town":"南町","town_kana":"ミナミマチ","prefecture_code":43},"0061":{"zip_code":"8680061","prefecture":"熊本県","prefecture_kana":"クマモトケン","city":"人吉市","city_kana":"ヒトヨシシ","town":"蓑野町","town_kana":"ミノノマチ","prefecture_code":43},"0075":{"zip_code":"8680075","prefecture":"熊本県","prefecture_kana":"クマモトケン","city":"人吉市","city_kana":"ヒトヨシシ","town":"矢黒町","town_kana":"ヤグロマチ","prefecture_code":43},"0813":{"zip_code":"8680813","prefecture":"熊本県","prefecture_kana":"クマモトケン","city":"人吉市","city_kana":"ヒトヨシシ","town":"矢岳町","town_kana":"ヤタケマチ","prefecture_code":43},"0300":{"zip_code":"8680300","prefecture":"熊本県","prefecture_kana":"クマモトケン","city":"球磨郡錦町","city_kana":"クマグンニシキマチ","town":"以下に掲載がない場合","town_kana":"イカニケイサイガナイバアイ","prefecture_code":43},"0302":{"zip_code":"8680302","prefecture":"熊本県","prefecture_kana":"クマモトケン","city":"球磨郡錦町","city_kana":"クマグンニシキマチ","town":"一武","town_kana":"イチブ","prefecture_code":43},"0301":{"zip_code":"8680301","prefecture":"熊本県","prefecture_kana":"クマモトケン","city":"球磨郡錦町","city_kana":"クマグンニシキマチ","town":"木上","town_kana":"キノウエ","prefecture_code":43},"0303":{"zip_code":"8680303","prefecture":"熊本県","prefecture_kana":"クマモトケン","city":"球磨郡錦町","city_kana":"クマグンニシキマチ","town":"西","town_kana":"ニシ","prefecture_code":43},"0500":{"zip_code":"8680500","prefecture":"熊本県","prefecture_kana":"クマモトケン","city":"球磨郡多良木町","city_kana":"クマグンタラギマチ","town":"以下に掲載がない場合","town_kana":"イカニケイサイガナイバアイ","prefecture_code":43},"0504":{"zip_code":"8680504","prefecture":"熊本県","prefecture_kana":"クマモトケン","city":"球磨郡多良木町","city_kana":"クマグンタラギマチ","town":"奥野","town_kana":"オクノ","prefecture_code":43},"0503":{"zip_code":"8680503","prefecture":"熊本県","prefecture_kana":"クマモトケン","city":"球磨郡多良木町","city_kana":"クマグンタラギマチ","town":"久米","town_kana":"クメ","prefecture_code":43},"0502":{"zip_code":"8680502","prefecture":"熊本県","prefecture_kana":"クマモトケン","city":"球磨郡多良木町","city_kana":"クマグンタラギマチ","town":"黒肥地","town_kana":"クロヒジ","prefecture_code":43},"0501":{"zip_code":"8680501","prefecture":"熊本県","prefecture_kana":"クマモトケン","city":"球磨郡多良木町","city_kana":"クマグンタラギマチ","town":"多良木","town_kana":"タラギ","prefecture_code":43},"0505":{"zip_code":"8680505","prefecture":"熊本県","prefecture_kana":"クマモトケン","city":"球磨郡多良木町","city_kana":"クマグンタラギマチ","town":"槻木","town_kana":"ツキギ","prefecture_code":43},"0600":{"zip_code":"8680600","prefecture":"熊本県","prefecture_kana":"クマモトケン","city":"球磨郡湯前町","city_kana":"クマグンユノマエマチ","town":"以下に掲載がない場合","town_kana":"イカニケイサイガナイバアイ","prefecture_code":43},"0604":{"zip_code":"8680604","prefecture":"熊本県","prefecture_kana":"クマモトケン","city":"球磨郡湯前町","city_kana":"クマグンユノマエマチ","town":"浅ケ野","town_kana":"アサカノ","prefecture_code":43},"0611":{"zip_code":"8680611","prefecture":"熊本県","prefecture_kana":"クマモトケン","city":"球磨郡湯前町","city_kana":"クマグンユノマエマチ","town":"植木","town_kana":"ウエキ","prefecture_code":43},"0625":{"zip_code":"8680625","prefecture":"熊本県","prefecture_kana":"クマモトケン","city":"球磨郡湯前町","city_kana":"クマグンユノマエマチ","town":"上猪","town_kana":"カミイ","prefecture_code":43},"0621":{"zip_code":"8680621","prefecture":"熊本県","prefecture_kana":"クマモトケン","city":"球磨郡湯前町","city_kana":"クマグンユノマエマチ","town":"上里","town_kana":"カミザト","prefecture_code":43},"0622":{"zip_code":"8680622","prefecture":"熊本県","prefecture_kana":"クマモトケン","city":"球磨郡湯前町","city_kana":"クマグンユノマエマチ","town":"上染田","town_kana":"カミソメダ","prefecture_code":43},"0612":{"zip_code":"8680612","prefecture":"熊本県","prefecture_kana":"クマモトケン","city":"球磨郡湯前町","city_kana":"クマグンユノマエマチ","town":"上村","town_kana":"カミムラ","prefecture_code":43},"0601":{"zip_code":"8680601","prefecture":"熊本県","prefecture_kana":"クマモトケン","city":"球磨郡湯前町","city_kana":"クマグンユノマエマチ","town":"下城","town_kana":"シタジョウ","prefecture_code":43},"0607":{"zip_code":"8680607","prefecture":"熊本県","prefecture_kana":"クマモトケン","city":"球磨郡湯前町","city_kana":"クマグンユノマエマチ","town":"下里","town_kana":"シモザト","prefecture_code":43},"0605":{"zip_code":"8680605","prefecture":"熊本県","prefecture_kana":"クマモトケン","city":"球磨郡湯前町","city_kana":"クマグンユノマエマチ","town":"下染田","town_kana":"シモソメダ","prefecture_code":43},"0616":{"zip_code":"8680616","prefecture":"熊本県","prefecture_kana":"クマモトケン","city":"球磨郡湯前町","city_kana":"クマグンユノマエマチ","town":"下村","town_kana":"シモムラ","prefecture_code":43},"0615":{"zip_code":"8680615","prefecture":"熊本県","prefecture_kana":"クマモトケン","city":"球磨郡湯前町","city_kana":"クマグンユノマエマチ","town":"瀬戸口","town_kana":"セドクチ","prefecture_code":43},"0613":{"zip_code":"8680613","prefecture":"熊本県","prefecture_kana":"クマモトケン","city":"球磨郡湯前町","city_kana":"クマグンユノマエマチ","town":"田上","town_kana":"タノエ","prefecture_code":43},"0624":{"zip_code":"8680624","prefecture":"熊本県","prefecture_kana":"クマモトケン","city":"球磨郡湯前町","city_kana":"クマグンユノマエマチ","town":"中猪","town_kana":"ナカイ","prefecture_code":43},"0606":{"zip_code":"8680606","prefecture":"熊本県","prefecture_kana":"クマモトケン","city":"球磨郡湯前町","city_kana":"クマグンユノマエマチ","town":"中里","town_kana":"ナカザト","prefecture_code":43},"0623":{"zip_code":"8680623","prefecture":"熊本県","prefecture_kana":"クマモトケン","city":"球磨郡湯前町","city_kana":"クマグンユノマエマチ","town":"野中田","town_kana":"ノナカダ","prefecture_code":43},"0614":{"zip_code":"8680614","prefecture":"熊本県","prefecture_kana":"クマモトケン","city":"球磨郡湯前町","city_kana":"クマグンユノマエマチ","town":"馬場","town_kana":"ババ","prefecture_code":43},"0602":{"zip_code":"8680602","prefecture":"熊本県","prefecture_kana":"クマモトケン","city":"球磨郡湯前町","city_kana":"クマグンユノマエマチ","town":"浜川","town_kana":"ハマゴウ","prefecture_code":43},"0603":{"zip_code":"8680603","prefecture":"熊本県","prefecture_kana":"クマモトケン","city":"球磨郡湯前町","city_kana":"クマグンユノマエマチ","town":"古城","town_kana":"フルジョウ","prefecture_code":43},"0700":{"zip_code":"8680700","prefecture":"熊本県","prefecture_kana":"クマモトケン","city":"球磨郡水上村","city_kana":"クマグンミズカミムラ","town":"以下に掲載がない場合","town_kana":"イカニケイサイガナイバアイ","prefecture_code":43},"0701":{"zip_code":"8680701","prefecture":"熊本県","prefecture_kana":"クマモトケン","city":"球磨郡水上村","city_kana":"クマグンミズカミムラ","town":"岩野","town_kana":"イワノ","prefecture_code":43},"0702":{"zip_code":"8680702","prefecture":"熊本県","prefecture_kana":"クマモトケン","city":"球磨郡水上村","city_kana":"クマグンミズカミムラ","town":"江代","town_kana":"エシロ","prefecture_code":43},"0703":{"zip_code":"8680703","prefecture":"熊本県","prefecture_kana":"クマモトケン","city":"球磨郡水上村","city_kana":"クマグンミズカミムラ","town":"湯山","town_kana":"ユヤマ","prefecture_code":43},"0093":{"zip_code":"8680093","prefecture":"熊本県","prefecture_kana":"クマモトケン","city":"球磨郡相良村","city_kana":"クマグンサガラムラ","town":"川辺","town_kana":"カワベ","prefecture_code":43},"0094":{"zip_code":"8680094","prefecture":"熊本県","prefecture_kana":"クマモトケン","city":"球磨郡相良村","city_kana":"クマグンサガラムラ","town":"深水","town_kana":"フカミ","prefecture_code":43},"0095":{"zip_code":"8680095","prefecture":"熊本県","prefecture_kana":"クマモトケン","city":"球磨郡相良村","city_kana":"クマグンサガラムラ","town":"柳瀬","town_kana":"ヤナセ","prefecture_code":43},"0101":{"zip_code":"8680101","prefecture":"熊本県","prefecture_kana":"クマモトケン","city":"球磨郡相良村","city_kana":"クマグンサガラムラ","town":"四浦","town_kana":"ヨウラ","prefecture_code":43},"0200":{"zip_code":"8680200","prefecture":"熊本県","prefecture_kana":"クマモトケン","city":"球磨郡五木村","city_kana":"クマグンイツキムラ","town":"以下に掲載がない場合","town_kana":"イカニケイサイガナイバアイ","prefecture_code":43},"0201":{"zip_code":"8680201","prefecture":"熊本県","prefecture_kana":"クマモトケン","city":"球磨郡五木村","city_kana":"クマグンイツキムラ","town":"甲","town_kana":"コウ","prefecture_code":43},"0202":{"zip_code":"8680202","prefecture":"熊本県","prefecture_kana":"クマモトケン","city":"球磨郡五木村","city_kana":"クマグンイツキムラ","town":"乙","town_kana":"オツ","prefecture_code":43},"0203":{"zip_code":"8680203","prefecture":"熊本県","prefecture_kana":"クマモトケン","city":"球磨郡五木村","city_kana":"クマグンイツキムラ","town":"丙","town_kana":"ヘイ","prefecture_code":43},"0091":{"zip_code":"8680091","prefecture":"熊本県","prefecture_kana":"クマモトケン","city":"球磨郡山江村","city_kana":"クマグンヤマエムラ","town":"万江","town_kana":"マエ","prefecture_code":43},"0092":{"zip_code":"8680092","prefecture":"熊本県","prefecture_kana":"クマモトケン","city":"球磨郡山江村","city_kana":"クマグンヤマエムラ","town":"山田","town_kana":"ヤマダ","prefecture_code":43},"0400":{"zip_code":"8680400","prefecture":"熊本県","prefecture_kana":"クマモトケン","city":"球磨郡あさぎり町","city_kana":"クマグンアサギリチョウ","town":"以下に掲載がない場合","town_kana":"イカニケイサイガナイバアイ","prefecture_code":43},"0421":{"zip_code":"8680421","prefecture":"熊本県","prefecture_kana":"クマモトケン","city":"球磨郡あさぎり町","city_kana":"クマグンアサギリチョウ","town":"上東","town_kana":"ウエヒガシ","prefecture_code":43},"0424":{"zip_code":"8680424","prefecture":"熊本県","prefecture_kana":"クマモトケン","city":"球磨郡あさぎり町","city_kana":"クマグンアサギリチョウ","town":"上西","town_kana":"ウエニシ","prefecture_code":43},"0423":{"zip_code":"8680423","prefecture":"熊本県","prefecture_kana":"クマモトケン","city":"球磨郡あさぎり町","city_kana":"クマグンアサギリチョウ","town":"上南","town_kana":"ウエミナミ","prefecture_code":43},"0422":{"zip_code":"8680422","prefecture":"熊本県","prefecture_kana":"クマモトケン","city":"球磨郡あさぎり町","city_kana":"クマグンアサギリチョウ","town":"上北","town_kana":"ウエキタ","prefecture_code":43},"0432":{"zip_code":"8680432","prefecture":"熊本県","prefecture_kana":"クマモトケン","city":"球磨郡あさぎり町","city_kana":"クマグンアサギリチョウ","town":"岡原南","town_kana":"オカハルミナミ","prefecture_code":43},"0431":{"zip_code":"8680431","prefecture":"熊本県","prefecture_kana":"クマモトケン","city":"球磨郡あさぎり町","city_kana":"クマグンアサギリチョウ","town":"岡原北","town_kana":"オカハルキタ","prefecture_code":43},"0451":{"zip_code":"8680451","prefecture":"熊本県","prefecture_kana":"クマモトケン","city":"球磨郡あさぎり町","city_kana":"クマグンアサギリチョウ","town":"須恵","town_kana":"スエ","prefecture_code":43},"0442":{"zip_code":"8680442","prefecture":"熊本県","prefecture_kana":"クマモトケン","city":"球磨郡あさぎり町","city_kana":"クマグンアサギリチョウ","town":"深田東","town_kana":"フカダヒガシ","prefecture_code":43},"0444":{"zip_code":"8680444","prefecture":"熊本県","prefecture_kana":"クマモトケン","city":"球磨郡あさぎり町","city_kana":"クマグンアサギリチョウ","town":"深田西","town_kana":"フカダニシ","prefecture_code":43},"0443":{"zip_code":"8680443","prefecture":"熊本県","prefecture_kana":"クマモトケン","city":"球磨郡あさぎり町","city_kana":"クマグンアサギリチョウ","town":"深田南","town_kana":"フカダミナミ","prefecture_code":43},"0441":{"zip_code":"8680441","prefecture":"熊本県","prefecture_kana":"クマモトケン","city":"球磨郡あさぎり町","city_kana":"クマグンアサギリチョウ","town":"深田北","town_kana":"フカダキタ","prefecture_code":43},"0425":{"zip_code":"8680425","prefecture":"熊本県","prefecture_kana":"クマモトケン","city":"球磨郡あさぎり町","city_kana":"クマグンアサギリチョウ","town":"皆越","town_kana":"ミナゴエ","prefecture_code":43},"0408":{"zip_code":"8680408","prefecture":"熊本県","prefecture_kana":"クマモトケン","city":"球磨郡あさぎり町","city_kana":"クマグンアサギリチョウ","town":"免田東","town_kana":"メンダヒガシ","prefecture_code":43},"0415":{"zip_code":"8680415","prefecture":"熊本県","prefecture_kana":"クマモトケン","city":"球磨郡あさぎり町","city_kana":"クマグンアサギリチョウ","town":"免田西","town_kana":"メンダニシ","prefecture_code":43}}