{"5152":{"zip_code":"8695152","prefecture":"熊本県","prefecture_kana":"クマモトケン","city":"八代市","city_kana":"ヤツシロシ","town":"揚町","town_kana":"アゲマチ","prefecture_code":43},"4501":{"zip_code":"8694501","prefecture":"熊本県","prefecture_kana":"クマモトケン","city":"八代市","city_kana":"ヤツシロシ","town":"泉町柿迫（８６２８番地）","town_kana":"イズミマチカキザコ(8628バンチ)","prefecture_code":43},"4401":{"zip_code":"8694401","prefecture":"熊本県","prefecture_kana":"クマモトケン","city":"八代市","city_kana":"ヤツシロシ","town":"泉町柿迫（その他）","town_kana":"イズミマチカキザコ(ソノタ)","prefecture_code":43},"4402":{"zip_code":"8694402","prefecture":"熊本県","prefecture_kana":"クマモトケン","city":"八代市","city_kana":"ヤツシロシ","town":"泉町栗木","town_kana":"イズミマチクリギ","prefecture_code":43},"4513":{"zip_code":"8694513","prefecture":"熊本県","prefecture_kana":"クマモトケン","city":"八代市","city_kana":"ヤツシロシ","town":"泉町久連子","town_kana":"イズミマチクレコ","prefecture_code":43},"4514":{"zip_code":"8694514","prefecture":"熊本県","prefecture_kana":"クマモトケン","city":"八代市","city_kana":"ヤツシロシ","town":"泉町椎原","town_kana":"イズミマチシイバル","prefecture_code":43},"4403":{"zip_code":"8694403","prefecture":"熊本県","prefecture_kana":"クマモトケン","city":"八代市","city_kana":"ヤツシロシ","town":"泉町下岳","town_kana":"イズミマチシモダケ","prefecture_code":43},"4515":{"zip_code":"8694515","prefecture":"熊本県","prefecture_kana":"クマモトケン","city":"八代市","city_kana":"ヤツシロシ","town":"泉町仁田尾","town_kana":"イズミマチニタオ","prefecture_code":43},"4511":{"zip_code":"8694511","prefecture":"熊本県","prefecture_kana":"クマモトケン","city":"八代市","city_kana":"ヤツシロシ","town":"泉町葉木","town_kana":"イズミマチハギ","prefecture_code":43},"4512":{"zip_code":"8694512","prefecture":"熊本県","prefecture_kana":"クマモトケン","city":"八代市","city_kana":"ヤツシロシ","town":"泉町樅木","town_kana":"イズミマチモミギ","prefecture_code":43},"4611":{"zip_code":"8694611","prefecture":"熊本県","prefecture_kana":"クマモトケン","city":"八代市","city_kana":"ヤツシロシ","town":"岡町小路","town_kana":"オカマチショウジ","prefecture_code":43},"4613":{"zip_code":"8694613","prefecture":"熊本県","prefecture_kana":"クマモトケン","city":"八代市","city_kana":"ヤツシロシ","town":"岡町谷川","town_kana":"オカマチタニガワ","prefecture_code":43},"4612":{"zip_code":"8694612","prefecture":"熊本県","prefecture_kana":"クマモトケン","city":"八代市","city_kana":"ヤツシロシ","town":"岡町中","town_kana":"オカマチナカ","prefecture_code":43},"4213":{"zip_code":"8694213","prefecture":"熊本県","prefecture_kana":"クマモトケン","city":"八代市","city_kana":"ヤツシロシ","town":"鏡町有佐","town_kana":"カガミマチアリサ","prefecture_code":43},"4202":{"zip_code":"8694202","prefecture":"熊本県","prefecture_kana":"クマモトケン","city":"八代市","city_kana":"ヤツシロシ","town":"鏡町内田","town_kana":"カガミマチウチダ","prefecture_code":43},"4223":{"zip_code":"8694223","prefecture":"熊本県","prefecture_kana":"クマモトケン","city":"八代市","city_kana":"ヤツシロシ","town":"鏡町貝洲","town_kana":"カガミマチカイズ","prefecture_code":43},"4203":{"zip_code":"8694203","prefecture":"熊本県","prefecture_kana":"クマモトケン","city":"八代市","city_kana":"ヤツシロシ","town":"鏡町鏡","town_kana":"カガミマチカガミ","prefecture_code":43},"4201":{"zip_code":"8694201","prefecture":"熊本県","prefecture_kana":"クマモトケン","city":"八代市","city_kana":"ヤツシロシ","town":"鏡町鏡村","town_kana":"カガミマチカガミムラ","prefecture_code":43},"4211":{"zip_code":"8694211","prefecture":"熊本県","prefecture_kana":"クマモトケン","city":"八代市","city_kana":"ヤツシロシ","town":"鏡町上鏡","town_kana":"カガミマチカミカガミ","prefecture_code":43},"4225":{"zip_code":"8694225","prefecture":"熊本県","prefecture_kana":"クマモトケン","city":"八代市","city_kana":"ヤツシロシ","town":"鏡町北新地","town_kana":"カガミマチキタシンチ","prefecture_code":43},"4224":{"zip_code":"8694224","prefecture":"熊本県","prefecture_kana":"クマモトケン","city":"八代市","city_kana":"ヤツシロシ","town":"鏡町塩浜","town_kana":"カガミマチシオハマ","prefecture_code":43},"4204":{"zip_code":"8694204","prefecture":"熊本県","prefecture_kana":"クマモトケン","city":"八代市","city_kana":"ヤツシロシ","town":"鏡町芝口","town_kana":"カガミマチシバクチ","prefecture_code":43},"4212":{"zip_code":"8694212","prefecture":"熊本県","prefecture_kana":"クマモトケン","city":"八代市","city_kana":"ヤツシロシ","town":"鏡町下有佐","town_kana":"カガミマチシモアリサ","prefecture_code":43},"4215":{"zip_code":"8694215","prefecture":"熊本県","prefecture_kana":"クマモトケン","city":"八代市","city_kana":"ヤツシロシ","town":"鏡町下村","town_kana":"カガミマチシモムラ","prefecture_code":43},"4214":{"zip_code":"8694214","prefecture":"熊本県","prefecture_kana":"クマモトケン","city":"八代市","city_kana":"ヤツシロシ","town":"鏡町中島","town_kana":"カガミマチナカシマ","prefecture_code":43},"4205":{"zip_code":"8694205","prefecture":"熊本県","prefecture_kana":"クマモトケン","city":"八代市","city_kana":"ヤツシロシ","town":"鏡町野崎","town_kana":"カガミマチノザキ","prefecture_code":43},"4221":{"zip_code":"8694221","prefecture":"熊本県","prefecture_kana":"クマモトケン","city":"八代市","city_kana":"ヤツシロシ","town":"鏡町宝出","town_kana":"カガミマチホウデ","prefecture_code":43},"4222":{"zip_code":"8694222","prefecture":"熊本県","prefecture_kana":"クマモトケン","city":"八代市","city_kana":"ヤツシロシ","town":"鏡町両出","town_kana":"カガミマチリョウデ","prefecture_code":43},"4615":{"zip_code":"8694615","prefecture":"熊本県","prefecture_kana":"クマモトケン","city":"八代市","city_kana":"ヤツシロシ","town":"川田町東","town_kana":"カワタマチヒガシ","prefecture_code":43},"4616":{"zip_code":"8694616","prefecture":"熊本県","prefecture_kana":"クマモトケン","city":"八代市","city_kana":"ヤツシロシ","town":"川田町西","town_kana":"カワタマチニシ","prefecture_code":43},"5162":{"zip_code":"8695162","prefecture":"熊本県","prefecture_kana":"クマモトケン","city":"八代市","city_kana":"ヤツシロシ","town":"北原町","town_kana":"キタバラマチ","prefecture_code":43},"5166":{"zip_code":"8695166","prefecture":"熊本県","prefecture_kana":"クマモトケン","city":"八代市","city_kana":"ヤツシロシ","town":"北平和町","town_kana":"キタヘイワマチ","prefecture_code":43},"4614":{"zip_code":"8694614","prefecture":"熊本県","prefecture_kana":"クマモトケン","city":"八代市","city_kana":"ヤツシロシ","town":"興善寺町","town_kana":"コウゼンジマチ","prefecture_code":43},"6104":{"zip_code":"8696104","prefecture":"熊本県","prefecture_kana":"クマモトケン","city":"八代市","city_kana":"ヤツシロシ","town":"坂本町鮎帰","town_kana":"サカモトマチアユガエリ","prefecture_code":43},"6115":{"zip_code":"8696115","prefecture":"熊本県","prefecture_kana":"クマモトケン","city":"八代市","city_kana":"ヤツシロシ","town":"坂本町荒瀬","town_kana":"サカモトマチアラセ","prefecture_code":43},"6114":{"zip_code":"8696114","prefecture":"熊本県","prefecture_kana":"クマモトケン","city":"八代市","city_kana":"ヤツシロシ","town":"坂本町市ノ俣","town_kana":"サカモトマチイチノマタ","prefecture_code":43},"6112":{"zip_code":"8696112","prefecture":"熊本県","prefecture_kana":"クマモトケン","city":"八代市","city_kana":"ヤツシロシ","town":"坂本町鎌瀬","town_kana":"サカモトマチカマセ","prefecture_code":43},"5221":{"zip_code":"8695221","prefecture":"熊本県","prefecture_kana":"クマモトケン","city":"八代市","city_kana":"ヤツシロシ","town":"坂本町川嶽","town_kana":"サカモトマチカワタケ","prefecture_code":43},"5225":{"zip_code":"8695225","prefecture":"熊本県","prefecture_kana":"クマモトケン","city":"八代市","city_kana":"ヤツシロシ","town":"坂本町百済来上","town_kana":"サカモトマチクダラギカミ","prefecture_code":43},"5224":{"zip_code":"8695224","prefecture":"熊本県","prefecture_kana":"クマモトケン","city":"八代市","city_kana":"ヤツシロシ","town":"坂本町百済来下","town_kana":"サカモトマチクダラギシモ","prefecture_code":43},"6101":{"zip_code":"8696101","prefecture":"熊本県","prefecture_kana":"クマモトケン","city":"八代市","city_kana":"ヤツシロシ","town":"坂本町西部","town_kana":"サカモトマチサイブ","prefecture_code":43},"6105":{"zip_code":"8696105","prefecture":"熊本県","prefecture_kana":"クマモトケン","city":"八代市","city_kana":"ヤツシロシ","town":"坂本町坂本","town_kana":"サカモトマチサカモト","prefecture_code":43},"5223":{"zip_code":"8695223","prefecture":"熊本県","prefecture_kana":"クマモトケン","city":"八代市","city_kana":"ヤツシロシ","town":"坂本町田上","town_kana":"サカモトマチタガミ","prefecture_code":43},"5222":{"zip_code":"8695222","prefecture":"熊本県","prefecture_kana":"クマモトケン","city":"八代市","city_kana":"ヤツシロシ","town":"坂本町鶴喰","town_kana":"サカモトマチツルバミ","prefecture_code":43},"6103":{"zip_code":"8696103","prefecture":"熊本県","prefecture_kana":"クマモトケン","city":"八代市","city_kana":"ヤツシロシ","town":"坂本町中谷","town_kana":"サカモトマチナカタニ","prefecture_code":43},"6113":{"zip_code":"8696113","prefecture":"熊本県","prefecture_kana":"クマモトケン","city":"八代市","city_kana":"ヤツシロシ","town":"坂本町中津道","town_kana":"サカモトマチナカツミチ","prefecture_code":43},"6111":{"zip_code":"8696111","prefecture":"熊本県","prefecture_kana":"クマモトケン","city":"八代市","city_kana":"ヤツシロシ","town":"坂本町葉木","town_kana":"サカモトマチハギ","prefecture_code":43},"6102":{"zip_code":"8696102","prefecture":"熊本県","prefecture_kana":"クマモトケン","city":"八代市","city_kana":"ヤツシロシ","town":"坂本町深水","town_kana":"サカモトマチフカミ","prefecture_code":43},"5151":{"zip_code":"8695151","prefecture":"熊本県","prefecture_kana":"クマモトケン","city":"八代市","city_kana":"ヤツシロシ","town":"敷川内町","town_kana":"シキガワチマチ","prefecture_code":43},"4723":{"zip_code":"8694723","prefecture":"熊本県","prefecture_kana":"クマモトケン","city":"八代市","city_kana":"ヤツシロシ","town":"昭和同仁町","town_kana":"ショウワドウジンマチ","prefecture_code":43},"4721":{"zip_code":"8694721","prefecture":"熊本県","prefecture_kana":"クマモトケン","city":"八代市","city_kana":"ヤツシロシ","town":"昭和日進町","town_kana":"ショウワニッシンマチ","prefecture_code":43},"4722":{"zip_code":"8694722","prefecture":"熊本県","prefecture_kana":"クマモトケン","city":"八代市","city_kana":"ヤツシロシ","town":"昭和明徴町","town_kana":"ショウワメイチョウマチ","prefecture_code":43},"4701":{"zip_code":"8694701","prefecture":"熊本県","prefecture_kana":"クマモトケン","city":"八代市","city_kana":"ヤツシロシ","town":"千丁町太牟田","town_kana":"センチョウマチオオムタ","prefecture_code":43},"4704":{"zip_code":"8694704","prefecture":"熊本県","prefecture_kana":"クマモトケン","city":"八代市","city_kana":"ヤツシロシ","town":"千丁町古閑出","town_kana":"センチョウマチコガデ","prefecture_code":43},"4703":{"zip_code":"8694703","prefecture":"熊本県","prefecture_kana":"クマモトケン","city":"八代市","city_kana":"ヤツシロシ","town":"千丁町新牟田","town_kana":"センチョウマチシンムタ","prefecture_code":43},"4702":{"zip_code":"8694702","prefecture":"熊本県","prefecture_kana":"クマモトケン","city":"八代市","city_kana":"ヤツシロシ","town":"千丁町吉王丸","town_kana":"センチョウマチヨシオウマル","prefecture_code":43},"5164":{"zip_code":"8695164","prefecture":"熊本県","prefecture_kana":"クマモトケン","city":"八代市","city_kana":"ヤツシロシ","town":"鼠蔵町","town_kana":"ソゾウマチ","prefecture_code":43},"5154":{"zip_code":"8695154","prefecture":"熊本県","prefecture_kana":"クマモトケン","city":"八代市","city_kana":"ヤツシロシ","town":"高植本町","town_kana":"タカウエホンマチ","prefecture_code":43},"4303":{"zip_code":"8694303","prefecture":"熊本県","prefecture_kana":"クマモトケン","city":"八代市","city_kana":"ヤツシロシ","town":"東陽町河俣","town_kana":"トウヨウマチカワマタ","prefecture_code":43},"4302":{"zip_code":"8694302","prefecture":"熊本県","prefecture_kana":"クマモトケン","city":"八代市","city_kana":"ヤツシロシ","town":"東陽町北","town_kana":"トウヨウマチキタ","prefecture_code":43},"4304":{"zip_code":"8694304","prefecture":"熊本県","prefecture_kana":"クマモトケン","city":"八代市","city_kana":"ヤツシロシ","town":"東陽町小浦","town_kana":"トウヨウマチコウラ","prefecture_code":43},"4301":{"zip_code":"8694301","prefecture":"熊本県","prefecture_kana":"クマモトケン","city":"八代市","city_kana":"ヤツシロシ","town":"東陽町南","town_kana":"トウヨウマチミナミ","prefecture_code":43},"5146":{"zip_code":"8695146","prefecture":"熊本県","prefecture_kana":"クマモトケン","city":"八代市","city_kana":"ヤツシロシ","town":"日奈久大坪町","town_kana":"ヒナグオオツボマチ","prefecture_code":43},"5134":{"zip_code":"8695134","prefecture":"熊本県","prefecture_kana":"クマモトケン","city":"八代市","city_kana":"ヤツシロシ","town":"日奈久上西町","town_kana":"ヒナグカミニシマチ","prefecture_code":43},"5133":{"zip_code":"8695133","prefecture":"熊本県","prefecture_kana":"クマモトケン","city":"八代市","city_kana":"ヤツシロシ","town":"日奈久中西町","town_kana":"ヒナグナカニシマチ","prefecture_code":43},"5132":{"zip_code":"8695132","prefecture":"熊本県","prefecture_kana":"クマモトケン","city":"八代市","city_kana":"ヤツシロシ","town":"日奈久下西町","town_kana":"ヒナグシモニシマチ","prefecture_code":43},"5148":{"zip_code":"8695148","prefecture":"熊本県","prefecture_kana":"クマモトケン","city":"八代市","city_kana":"ヤツシロシ","town":"日奈久栄町","town_kana":"ヒナグサカエマチ","prefecture_code":43},"5141":{"zip_code":"8695141","prefecture":"熊本県","prefecture_kana":"クマモトケン","city":"八代市","city_kana":"ヤツシロシ","town":"日奈久塩南町","town_kana":"ヒナグシオミナミマチ","prefecture_code":43},"5142":{"zip_code":"8695142","prefecture":"熊本県","prefecture_kana":"クマモトケン","city":"八代市","city_kana":"ヤツシロシ","town":"日奈久塩北町","town_kana":"ヒナグシオキタマチ","prefecture_code":43},"5147":{"zip_code":"8695147","prefecture":"熊本県","prefecture_kana":"クマモトケン","city":"八代市","city_kana":"ヤツシロシ","town":"日奈久新開町","town_kana":"ヒナグシンカイマチ","prefecture_code":43},"5145":{"zip_code":"8695145","prefecture":"熊本県","prefecture_kana":"クマモトケン","city":"八代市","city_kana":"ヤツシロシ","town":"日奈久新田町","town_kana":"ヒナグシンデンマチ","prefecture_code":43},"5143":{"zip_code":"8695143","prefecture":"熊本県","prefecture_kana":"クマモトケン","city":"八代市","city_kana":"ヤツシロシ","town":"日奈久竹之内町","town_kana":"ヒナグタケノウチマチ","prefecture_code":43},"5135":{"zip_code":"8695135","prefecture":"熊本県","prefecture_kana":"クマモトケン","city":"八代市","city_kana":"ヤツシロシ","town":"日奈久中町","town_kana":"ヒナグナカマチ","prefecture_code":43},"5137":{"zip_code":"8695137","prefecture":"熊本県","prefecture_kana":"クマモトケン","city":"八代市","city_kana":"ヤツシロシ","town":"日奈久浜町","town_kana":"ヒナグハママチ","prefecture_code":43},"5136":{"zip_code":"8695136","prefecture":"熊本県","prefecture_kana":"クマモトケン","city":"八代市","city_kana":"ヤツシロシ","town":"日奈久東町","town_kana":"ヒナグヒガシマチ","prefecture_code":43},"5138":{"zip_code":"8695138","prefecture":"熊本県","prefecture_kana":"クマモトケン","city":"八代市","city_kana":"ヤツシロシ","town":"日奈久平成町","town_kana":"ヒナグヘイセイマチ","prefecture_code":43},"5131":{"zip_code":"8695131","prefecture":"熊本県","prefecture_kana":"クマモトケン","city":"八代市","city_kana":"ヤツシロシ","town":"日奈久馬越町","town_kana":"ヒナグマゴシマチ","prefecture_code":43},"5144":{"zip_code":"8695144","prefecture":"熊本県","prefecture_kana":"クマモトケン","city":"八代市","city_kana":"ヤツシロシ","town":"日奈久山下町","town_kana":"ヒナグヤマシタマチ","prefecture_code":43},"5173":{"zip_code":"8695173","prefecture":"熊本県","prefecture_kana":"クマモトケン","city":"八代市","city_kana":"ヤツシロシ","town":"二見赤松町","town_kana":"フタミアカマツマチ","prefecture_code":43},"5174":{"zip_code":"8695174","prefecture":"熊本県","prefecture_kana":"クマモトケン","city":"八代市","city_kana":"ヤツシロシ","town":"二見下大野町","town_kana":"フタミシモオオノマチ","prefecture_code":43},"5171":{"zip_code":"8695171","prefecture":"熊本県","prefecture_kana":"クマモトケン","city":"八代市","city_kana":"ヤツシロシ","town":"二見洲口町","town_kana":"フタミスグチマチ","prefecture_code":43},"5175":{"zip_code":"8695175","prefecture":"熊本県","prefecture_kana":"クマモトケン","city":"八代市","city_kana":"ヤツシロシ","town":"二見野田崎町","town_kana":"フタミノタザキマチ","prefecture_code":43},"5172":{"zip_code":"8695172","prefecture":"熊本県","prefecture_kana":"クマモトケン","city":"八代市","city_kana":"ヤツシロシ","town":"二見本町","town_kana":"フタミホンマチ","prefecture_code":43},"5155":{"zip_code":"8695155","prefecture":"熊本県","prefecture_kana":"クマモトケン","city":"八代市","city_kana":"ヤツシロシ","town":"水島町","town_kana":"ミズシママチ","prefecture_code":43},"5163":{"zip_code":"8695163","prefecture":"熊本県","prefecture_kana":"クマモトケン","city":"八代市","city_kana":"ヤツシロシ","town":"三江湖町","town_kana":"ミツエゴマチ","prefecture_code":43},"5165":{"zip_code":"8695165","prefecture":"熊本県","prefecture_kana":"クマモトケン","city":"八代市","city_kana":"ヤツシロシ","town":"南平和町","town_kana":"ミナミヘイワマチ","prefecture_code":43},"5153":{"zip_code":"8695153","prefecture":"熊本県","prefecture_kana":"クマモトケン","city":"八代市","city_kana":"ヤツシロシ","town":"催合町","town_kana":"モヤイマチ","prefecture_code":43},"5161":{"zip_code":"8695161","prefecture":"熊本県","prefecture_kana":"クマモトケン","city":"八代市","city_kana":"ヤツシロシ","town":"葭牟田町","town_kana":"ヨシムタマチ","prefecture_code":43},"0213":{"zip_code":"8690213","prefecture":"熊本県","prefecture_kana":"クマモトケン","city":"玉名市","city_kana":"タマナシ","town":"岱明町扇崎","town_kana":"タイメイマチオウギザキ","prefecture_code":43},"0224":{"zip_code":"8690224","prefecture":"熊本県","prefecture_kana":"クマモトケン","city":"玉名市","city_kana":"タマナシ","town":"岱明町大野下","town_kana":"タイメイマチオオノシモ","prefecture_code":43},"0235":[{"zip_code":"8690235","prefecture":"熊本県","prefecture_kana":"クマモトケン","city":"玉名市","city_kana":"タマナシ","town":"岱明町古閑（雲雀丘）","town_kana":"タイメイマチコガ(ヒバリガオカ)","prefecture_code":43},{"zip_code":"8690235","prefecture":"熊本県","prefecture_kana":"クマモトケン","city":"玉名市","city_kana":"タマナシ","town":"岱明町西照寺（雲雀丘）","town_kana":"タイメイマチサイショウジ(ヒバリガオカ)","prefecture_code":43},{"zip_code":"8690235","prefecture":"熊本県","prefecture_kana":"クマモトケン","city":"玉名市","city_kana":"タマナシ","town":"岱明町上（雲雀丘）","town_kana":"タイメイマチジョウ(ヒバリガオカ)","prefecture_code":43}],"0233":{"zip_code":"8690233","prefecture":"熊本県","prefecture_kana":"クマモトケン","city":"玉名市","city_kana":"タマナシ","town":"岱明町古閑（その他）","town_kana":"タイメイマチコガ(ソノタ)","prefecture_code":43},"0236":{"zip_code":"8690236","prefecture":"熊本県","prefecture_kana":"クマモトケン","city":"玉名市","city_kana":"タマナシ","town":"岱明町西照寺（その他）","town_kana":"タイメイマチサイショウジ(ソノタ)","prefecture_code":43},"0212":{"zip_code":"8690212","prefecture":"熊本県","prefecture_kana":"クマモトケン","city":"玉名市","city_kana":"タマナシ","town":"岱明町下沖洲","town_kana":"タイメイマチシモオキノス","prefecture_code":43},"0221":{"zip_code":"8690221","prefecture":"熊本県","prefecture_kana":"クマモトケン","city":"玉名市","city_kana":"タマナシ","town":"岱明町下前原","town_kana":"タイメイマチシモマエハラ","prefecture_code":43},"0232":{"zip_code":"8690232","prefecture":"熊本県","prefecture_kana":"クマモトケン","city":"玉名市","city_kana":"タマナシ","town":"岱明町上（その他）","town_kana":"タイメイマチジョウ(ソノタ)","prefecture_code":43},"0231":{"zip_code":"8690231","prefecture":"熊本県","prefecture_kana":"クマモトケン","city":"玉名市","city_kana":"タマナシ","town":"岱明町庄山","town_kana":"タイメイマチショウヤマ","prefecture_code":43},"0202":{"zip_code":"8690202","prefecture":"熊本県","prefecture_kana":"クマモトケン","city":"玉名市","city_kana":"タマナシ","town":"岱明町高道","town_kana":"タイメイマチタカミチ","prefecture_code":43},"0223":{"zip_code":"8690223","prefecture":"熊本県","prefecture_kana":"クマモトケン","city":"玉名市","city_kana":"タマナシ","town":"岱明町中土","town_kana":"タイメイマチナカド","prefecture_code":43},"0211":{"zip_code":"8690211","prefecture":"熊本県","prefecture_kana":"クマモトケン","city":"玉名市","city_kana":"タマナシ","town":"岱明町鍋","town_kana":"タイメイマチナベ","prefecture_code":43},"0222":{"zip_code":"8690222","prefecture":"熊本県","prefecture_kana":"クマモトケン","city":"玉名市","city_kana":"タマナシ","town":"岱明町野口","town_kana":"タイメイマチノグチ","prefecture_code":43},"0203":{"zip_code":"8690203","prefecture":"熊本県","prefecture_kana":"クマモトケン","city":"玉名市","city_kana":"タマナシ","town":"岱明町浜田","town_kana":"タイメイマチハマダ","prefecture_code":43},"0238":{"zip_code":"8690238","prefecture":"熊本県","prefecture_kana":"クマモトケン","city":"玉名市","city_kana":"タマナシ","town":"岱明町開田","town_kana":"タイメイマチヒラキダ","prefecture_code":43},"0234":{"zip_code":"8690234","prefecture":"熊本県","prefecture_kana":"クマモトケン","city":"玉名市","city_kana":"タマナシ","town":"岱明町三崎","town_kana":"タイメイマチミサキ","prefecture_code":43},"0201":{"zip_code":"8690201","prefecture":"熊本県","prefecture_kana":"クマモトケン","city":"玉名市","city_kana":"タマナシ","town":"岱明町山下","town_kana":"タイメイマチヤマシタ","prefecture_code":43},"1206":{"zip_code":"8691206","prefecture":"熊本県","prefecture_kana":"クマモトケン","city":"菊池市","city_kana":"キクチシ","town":"旭志伊坂","town_kana":"キョクシイサカ","prefecture_code":43},"1208":{"zip_code":"8691208","prefecture":"熊本県","prefecture_kana":"クマモトケン","city":"菊池市","city_kana":"キクチシ","town":"旭志伊萩","town_kana":"キョクシイハギ","prefecture_code":43},"1203":{"zip_code":"8691203","prefecture":"熊本県","prefecture_kana":"クマモトケン","city":"菊池市","city_kana":"キクチシ","town":"旭志尾足","town_kana":"キョクシオタル","prefecture_code":43},"1204":{"zip_code":"8691204","prefecture":"熊本県","prefecture_kana":"クマモトケン","city":"菊池市","city_kana":"キクチシ","town":"旭志小原","town_kana":"キョクシオバル","prefecture_code":43},"1205":{"zip_code":"8691205","prefecture":"熊本県","prefecture_kana":"クマモトケン","city":"菊池市","city_kana":"キクチシ","town":"旭志川辺","town_kana":"キョクシカワベ","prefecture_code":43},"1207":{"zip_code":"8691207","prefecture":"熊本県","prefecture_kana":"クマモトケン","city":"菊池市","city_kana":"キクチシ","town":"旭志新明","town_kana":"キョクシシンメイ","prefecture_code":43},"1202":{"zip_code":"8691202","prefecture":"熊本県","prefecture_kana":"クマモトケン","city":"菊池市","city_kana":"キクチシ","town":"旭志麓","town_kana":"キョクシフモト","prefecture_code":43},"1201":{"zip_code":"8691201","prefecture":"熊本県","prefecture_kana":"クマモトケン","city":"菊池市","city_kana":"キクチシ","town":"旭志弁利","town_kana":"キョクシベンリ","prefecture_code":43},"0400":{"zip_code":"8690400","prefecture":"熊本県","prefecture_kana":"クマモトケン","city":"宇土市","city_kana":"ウトシ","town":"以下に掲載がない場合","town_kana":"イカニケイサイガナイバアイ","prefecture_code":43},"3175":{"zip_code":"8693175","prefecture":"熊本県","prefecture_kana":"クマモトケン","city":"宇土市","city_kana":"ウトシ","town":"赤瀬町","town_kana":"アカセマチ","prefecture_code":43},"0432":{"zip_code":"8690432","prefecture":"熊本県","prefecture_kana":"クマモトケン","city":"宇土市","city_kana":"ウトシ","town":"旭町","town_kana":"アサヒマチ","prefecture_code":43},"0465":{"zip_code":"8690465","prefecture":"熊本県","prefecture_kana":"クマモトケン","city":"宇土市","city_kana":"ウトシ","town":"網引町","town_kana":"アビキマチ","prefecture_code":43},"0461":{"zip_code":"8690461","prefecture":"熊本県","prefecture_kana":"クマモトケン","city":"宇土市","city_kana":"ウトシ","town":"網津町","town_kana":"アミヅマチ","prefecture_code":43},"0441":{"zip_code":"8690441","prefecture":"熊本県","prefecture_kana":"クマモトケン","city":"宇土市","city_kana":"ウトシ","town":"石小路町","town_kana":"イシコウジマチ","prefecture_code":43},"0456":{"zip_code":"8690456","prefecture":"熊本県","prefecture_kana":"クマモトケン","city":"宇土市","city_kana":"ウトシ","town":"石橋町","town_kana":"イシバシマチ","prefecture_code":43},"0435":{"zip_code":"8690435","prefecture":"熊本県","prefecture_kana":"クマモトケン","city":"宇土市","city_kana":"ウトシ","town":"一里木町","town_kana":"イチリギマチ","prefecture_code":43},"0423":{"zip_code":"8690423","prefecture":"熊本県","prefecture_kana":"クマモトケン","city":"宇土市","city_kana":"ウトシ","town":"伊無田町","town_kana":"イムタマチ","prefecture_code":43},"0422":{"zip_code":"8690422","prefecture":"熊本県","prefecture_kana":"クマモトケン","city":"宇土市","city_kana":"ウトシ","town":"入地町","town_kana":"イリチマチ","prefecture_code":43},"0412":{"zip_code":"8690412","prefecture":"熊本県","prefecture_kana":"クマモトケン","city":"宇土市","city_kana":"ウトシ","town":"岩古曽町","town_kana":"イワコソマチ","prefecture_code":43},"0405":{"zip_code":"8690405","prefecture":"熊本県","prefecture_kana":"クマモトケン","city":"宇土市","city_kana":"ウトシ","town":"馬之瀬町","town_kana":"ウマノセマチ","prefecture_code":43},"0445":{"zip_code":"8690445","prefecture":"熊本県","prefecture_kana":"クマモトケン","city":"宇土市","city_kana":"ウトシ","town":"浦田町","town_kana":"ウラタマチ","prefecture_code":43},"0464":{"zip_code":"8690464","prefecture":"熊本県","prefecture_kana":"クマモトケン","city":"宇土市","city_kana":"ウトシ","town":"恵塚町","town_kana":"エヅカマチ","prefecture_code":43},"3172":{"zip_code":"8693172","prefecture":"熊本県","prefecture_kana":"クマモトケン","city":"宇土市","city_kana":"ウトシ","town":"上網田町","town_kana":"カミオウダマチ","prefecture_code":43},"0451":{"zip_code":"8690451","prefecture":"熊本県","prefecture_kana":"クマモトケン","city":"宇土市","city_kana":"ウトシ","town":"北段原町","town_kana":"キタダンバラマチ","prefecture_code":43},"0425":{"zip_code":"8690425","prefecture":"熊本県","prefecture_kana":"クマモトケン","city":"宇土市","city_kana":"ウトシ","town":"栗崎町","town_kana":"クリザキマチ","prefecture_code":43},"0426":{"zip_code":"8690426","prefecture":"熊本県","prefecture_kana":"クマモトケン","city":"宇土市","city_kana":"ウトシ","town":"神合町","town_kana":"コウアイマチ","prefecture_code":43},"0415":{"zip_code":"8690415","prefecture":"熊本県","prefecture_kana":"クマモトケン","city":"宇土市","city_kana":"ウトシ","town":"古保里町","town_kana":"コオザトマチ","prefecture_code":43},"0454":{"zip_code":"8690454","prefecture":"熊本県","prefecture_kana":"クマモトケン","city":"宇土市","city_kana":"ウトシ","town":"古城町","town_kana":"コジョウマチ","prefecture_code":43},"0417":{"zip_code":"8690417","prefecture":"熊本県","prefecture_kana":"クマモトケン","city":"宇土市","city_kana":"ウトシ","town":"境目町","town_kana":"サカイメマチ","prefecture_code":43},"0453":{"zip_code":"8690453","prefecture":"熊本県","prefecture_kana":"クマモトケン","city":"宇土市","city_kana":"ウトシ","town":"栄町","town_kana":"サカエマチ","prefecture_code":43},"0402":{"zip_code":"8690402","prefecture":"熊本県","prefecture_kana":"クマモトケン","city":"宇土市","city_kana":"ウトシ","town":"笹原町","town_kana":"ササワラマチ","prefecture_code":43},"0406":{"zip_code":"8690406","prefecture":"熊本県","prefecture_kana":"クマモトケン","city":"宇土市","city_kana":"ウトシ","town":"三拾町","town_kana":"サジッチョウ","prefecture_code":43},"3173":{"zip_code":"8693173","prefecture":"熊本県","prefecture_kana":"クマモトケン","city":"宇土市","city_kana":"ウトシ","town":"下網田町","town_kana":"シモオウダマチ","prefecture_code":43},"0462":{"zip_code":"8690462","prefecture":"熊本県","prefecture_kana":"クマモトケン","city":"宇土市","city_kana":"ウトシ","town":"城塚町","town_kana":"ジョウツカマチ","prefecture_code":43},"0442":{"zip_code":"8690442","prefecture":"熊本県","prefecture_kana":"クマモトケン","city":"宇土市","city_kana":"ウトシ","town":"城之浦町","town_kana":"ジョウノウラマチ","prefecture_code":43},"0436":{"zip_code":"8690436","prefecture":"熊本県","prefecture_kana":"クマモトケン","city":"宇土市","city_kana":"ウトシ","town":"定府町","town_kana":"ジョウフマチ","prefecture_code":43},"0403":{"zip_code":"8690403","prefecture":"熊本県","prefecture_kana":"クマモトケン","city":"宇土市","city_kana":"ウトシ","town":"新開町","town_kana":"シンガイマチ","prefecture_code":43},"0433":{"zip_code":"8690433","prefecture":"熊本県","prefecture_kana":"クマモトケン","city":"宇土市","city_kana":"ウトシ","town":"新小路町","town_kana":"シンコウジマチ","prefecture_code":43},"0444":{"zip_code":"8690444","prefecture":"熊本県","prefecture_kana":"クマモトケン","city":"宇土市","city_kana":"ウトシ","town":"新町","town_kana":"シンマチ","prefecture_code":43},"0419":{"zip_code":"8690419","prefecture":"熊本県","prefecture_kana":"クマモトケン","city":"宇土市","city_kana":"ウトシ","town":"新松原町","town_kana":"シンマツワラマチ","prefecture_code":43},"0424":{"zip_code":"8690424","prefecture":"熊本県","prefecture_kana":"クマモトケン","city":"宇土市","city_kana":"ウトシ","town":"神馬町","town_kana":"シンメマチ","prefecture_code":43},"0401":{"zip_code":"8690401","prefecture":"熊本県","prefecture_kana":"クマモトケン","city":"宇土市","city_kana":"ウトシ","town":"住吉町","town_kana":"スミヨシマチ","prefecture_code":43},"0418":{"zip_code":"8690418","prefecture":"熊本県","prefecture_kana":"クマモトケン","city":"宇土市","city_kana":"ウトシ","town":"善道寺町","town_kana":"ゼンドウジマチ","prefecture_code":43},"0443":{"zip_code":"8690443","prefecture":"熊本県","prefecture_kana":"クマモトケン","city":"宇土市","city_kana":"ウトシ","town":"船場町","town_kana":"センバマチ","prefecture_code":43},"0452":{"zip_code":"8690452","prefecture":"熊本県","prefecture_kana":"クマモトケン","city":"宇土市","city_kana":"ウトシ","town":"高柳町","town_kana":"タカヤナギマチ","prefecture_code":43},"0414":{"zip_code":"8690414","prefecture":"熊本県","prefecture_kana":"クマモトケン","city":"宇土市","city_kana":"ウトシ","town":"立岡町","town_kana":"タチオカマチ","prefecture_code":43},"0408":{"zip_code":"8690408","prefecture":"熊本県","prefecture_kana":"クマモトケン","city":"宇土市","city_kana":"ウトシ","town":"築籠町","town_kana":"ツイゴメマチ","prefecture_code":43},"0455":{"zip_code":"8690455","prefecture":"熊本県","prefecture_kana":"クマモトケン","city":"宇土市","city_kana":"ウトシ","town":"椿原町","town_kana":"ツバワラマチ","prefecture_code":43},"3174":{"zip_code":"8693174","prefecture":"熊本県","prefecture_kana":"クマモトケン","city":"宇土市","city_kana":"ウトシ","town":"戸口町","town_kana":"トグチマチ","prefecture_code":43},"3171":{"zip_code":"8693171","prefecture":"熊本県","prefecture_kana":"クマモトケン","city":"宇土市","city_kana":"ウトシ","town":"長浜町","town_kana":"ナガハママチ","prefecture_code":43},"0463":{"zip_code":"8690463","prefecture":"熊本県","prefecture_kana":"クマモトケン","city":"宇土市","city_kana":"ウトシ","town":"野鶴町","town_kana":"ノヅルマチ","prefecture_code":43},"0404":{"zip_code":"8690404","prefecture":"熊本県","prefecture_kana":"クマモトケン","city":"宇土市","city_kana":"ウトシ","town":"走潟町","town_kana":"ハシリガタマチ","prefecture_code":43},"0410":{"zip_code":"8690410","prefecture":"熊本県","prefecture_kana":"クマモトケン","city":"宇土市","city_kana":"ウトシ","town":"花園台町","town_kana":"ハナゾノダイマチ","prefecture_code":43},"0413":{"zip_code":"8690413","prefecture":"熊本県","prefecture_kana":"クマモトケン","city":"宇土市","city_kana":"ウトシ","town":"花園町","town_kana":"ハナゾノマチ","prefecture_code":43},"0431":{"zip_code":"8690431","prefecture":"熊本県","prefecture_kana":"クマモトケン","city":"宇土市","city_kana":"ウトシ","town":"本町","town_kana":"ホンマチ","prefecture_code":43},"0407":{"zip_code":"8690407","prefecture":"熊本県","prefecture_kana":"クマモトケン","city":"宇土市","city_kana":"ウトシ","town":"松原町","town_kana":"マツワラマチ","prefecture_code":43},"0416":{"zip_code":"8690416","prefecture":"熊本県","prefecture_kana":"クマモトケン","city":"宇土市","city_kana":"ウトシ","town":"松山町","town_kana":"マツヤママチ","prefecture_code":43},"0411":{"zip_code":"8690411","prefecture":"熊本県","prefecture_kana":"クマモトケン","city":"宇土市","city_kana":"ウトシ","town":"水町","town_kana":"ミズマチ","prefecture_code":43},"0421":{"zip_code":"8690421","prefecture":"熊本県","prefecture_kana":"クマモトケン","city":"宇土市","city_kana":"ウトシ","town":"南段原町","town_kana":"ミナミダンバラマチ","prefecture_code":43},"0457":{"zip_code":"8690457","prefecture":"熊本県","prefecture_kana":"クマモトケン","city":"宇土市","city_kana":"ウトシ","town":"宮庄町","town_kana":"ミヤノショウマチ","prefecture_code":43},"0434":{"zip_code":"8690434","prefecture":"熊本県","prefecture_kana":"クマモトケン","city":"宇土市","city_kana":"ウトシ","town":"門内町","town_kana":"モンナイマチ","prefecture_code":43},"3600":{"zip_code":"8693600","prefecture":"熊本県","prefecture_kana":"クマモトケン","city":"上天草市","city_kana":"カミアマクサシ","town":"以下に掲載がない場合","town_kana":"イカニケイサイガナイバアイ","prefecture_code":43},"3604":{"zip_code":"8693604","prefecture":"熊本県","prefecture_kana":"クマモトケン","city":"上天草市","city_kana":"カミアマクサシ","town":"大矢野町維和","town_kana":"オオヤノマチイワ","prefecture_code":43},"3602":{"zip_code":"8693602","prefecture":"熊本県","prefecture_kana":"クマモトケン","city":"上天草市","city_kana":"カミアマクサシ","town":"大矢野町上","town_kana":"オオヤノマチカミ","prefecture_code":43},"3603":{"zip_code":"8693603","prefecture":"熊本県","prefecture_kana":"クマモトケン","city":"上天草市","city_kana":"カミアマクサシ","town":"大矢野町中","town_kana":"オオヤノマチナカ","prefecture_code":43},"3601":{"zip_code":"8693601","prefecture":"熊本県","prefecture_kana":"クマモトケン","city":"上天草市","city_kana":"カミアマクサシ","town":"大矢野町登立","town_kana":"オオヤノマチノボリタテ","prefecture_code":43},"3711":{"zip_code":"8693711","prefecture":"熊本県","prefecture_kana":"クマモトケン","city":"上天草市","city_kana":"カミアマクサシ","town":"大矢野町湯島","town_kana":"オオヤノマチユシマ","prefecture_code":43},"0500":{"zip_code":"8690500","prefecture":"熊本県","prefecture_kana":"クマモトケン","city":"宇城市","city_kana":"ウキシ","town":"以下に掲載がない場合","town_kana":"イカニケイサイガナイバアイ","prefecture_code":43},"0624":{"zip_code":"8690624","prefecture":"熊本県","prefecture_kana":"クマモトケン","city":"宇城市","city_kana":"ウキシ","town":"小川町江頭","town_kana":"オガワマチエガシラ","prefecture_code":43},"0621":{"zip_code":"8690621","prefecture":"熊本県","prefecture_kana":"クマモトケン","city":"宇城市","city_kana":"ウキシ","town":"小川町小川","town_kana":"オガワマチオガワ","prefecture_code":43},"0623":{"zip_code":"8690623","prefecture":"熊本県","prefecture_kana":"クマモトケン","city":"宇城市","city_kana":"ウキシ","town":"小川町川尻","town_kana":"オガワマチカワジリ","prefecture_code":43},"0601":{"zip_code":"8690601","prefecture":"熊本県","prefecture_kana":"クマモトケン","city":"宇城市","city_kana":"ウキシ","town":"小川町北小野","town_kana":"オガワマチキタオノ","prefecture_code":43},"0616":{"zip_code":"8690616","prefecture":"熊本県","prefecture_kana":"クマモトケン","city":"宇城市","city_kana":"ウキシ","town":"小川町北海東","town_kana":"オガワマチキタカイトウ","prefecture_code":43},"0631":{"zip_code":"8690631","prefecture":"熊本県","prefecture_kana":"クマモトケン","city":"宇城市","city_kana":"ウキシ","town":"小川町北新田","town_kana":"オガワマチキタシンデン","prefecture_code":43},"0604":{"zip_code":"8690604","prefecture":"熊本県","prefecture_kana":"クマモトケン","city":"宇城市","city_kana":"ウキシ","town":"小川町北部田","town_kana":"オガワマチキタベタ","prefecture_code":43},"0606":{"zip_code":"8690606","prefecture":"熊本県","prefecture_kana":"クマモトケン","city":"宇城市","city_kana":"ウキシ","town":"小川町河江","town_kana":"オガワマチゴウノエ","prefecture_code":43},"0635":{"zip_code":"8690635","prefecture":"熊本県","prefecture_kana":"クマモトケン","city":"宇城市","city_kana":"ウキシ","town":"小川町不知火","town_kana":"オガワマチシラヌイ","prefecture_code":43},"0633":{"zip_code":"8690633","prefecture":"熊本県","prefecture_kana":"クマモトケン","city":"宇城市","city_kana":"ウキシ","town":"小川町新田","town_kana":"オガワマチシンデン","prefecture_code":43},"0636":{"zip_code":"8690636","prefecture":"熊本県","prefecture_kana":"クマモトケン","city":"宇城市","city_kana":"ウキシ","town":"小川町新田出","town_kana":"オガワマチシンデンデ","prefecture_code":43},"0634":{"zip_code":"8690634","prefecture":"熊本県","prefecture_kana":"クマモトケン","city":"宇城市","city_kana":"ウキシ","town":"小川町住吉","town_kana":"オガワマチスミヨシ","prefecture_code":43},"0602":{"zip_code":"8690602","prefecture":"熊本県","prefecture_kana":"クマモトケン","city":"宇城市","city_kana":"ウキシ","town":"小川町中小野","town_kana":"オガワマチナカオノ","prefecture_code":43},"0615":{"zip_code":"8690615","prefecture":"熊本県","prefecture_kana":"クマモトケン","city":"宇城市","city_kana":"ウキシ","town":"小川町西海東","town_kana":"オガワマチニシカイトウ","prefecture_code":43},"0622":{"zip_code":"8690622","prefecture":"熊本県","prefecture_kana":"クマモトケン","city":"宇城市","city_kana":"ウキシ","town":"小川町西北小川","town_kana":"オガワマチニシキタオガワ","prefecture_code":43},"0613":{"zip_code":"8690613","prefecture":"熊本県","prefecture_kana":"クマモトケン","city":"宇城市","city_kana":"ウキシ","town":"小川町東小川","town_kana":"オガワマチヒガシオガワ","prefecture_code":43},"0611":{"zip_code":"8690611","prefecture":"熊本県","prefecture_kana":"クマモトケン","city":"宇城市","city_kana":"ウキシ","town":"小川町東海東","town_kana":"オガワマチヒガシカイトウ","prefecture_code":43},"0614":{"zip_code":"8690614","prefecture":"熊本県","prefecture_kana":"クマモトケン","city":"宇城市","city_kana":"ウキシ","town":"小川町南小川","town_kana":"オガワマチミナミオガワ","prefecture_code":43},"0603":{"zip_code":"8690603","prefecture":"熊本県","prefecture_kana":"クマモトケン","city":"宇城市","city_kana":"ウキシ","town":"小川町南小野","town_kana":"オガワマチミナミオノ","prefecture_code":43},"0612":{"zip_code":"8690612","prefecture":"熊本県","prefecture_kana":"クマモトケン","city":"宇城市","city_kana":"ウキシ","town":"小川町南海東","town_kana":"オガワマチミナミカイトウ","prefecture_code":43},"0632":{"zip_code":"8690632","prefecture":"熊本県","prefecture_kana":"クマモトケン","city":"宇城市","city_kana":"ウキシ","town":"小川町南新田","town_kana":"オガワマチミナミシンデン","prefecture_code":43},"0605":{"zip_code":"8690605","prefecture":"熊本県","prefecture_kana":"クマモトケン","city":"宇城市","city_kana":"ウキシ","town":"小川町南部田","town_kana":"オガワマチミナミベタ","prefecture_code":43},"0563":{"zip_code":"8690563","prefecture":"熊本県","prefecture_kana":"クマモトケン","city":"宇城市","city_kana":"ウキシ","town":"不知火町浦上","town_kana":"シラヌヒマチウラガミ","prefecture_code":43},"3471":{"zip_code":"8693471","prefecture":"熊本県","prefecture_kana":"クマモトケン","city":"宇城市","city_kana":"ウキシ","town":"不知火町永尾","town_kana":"シラヌヒマチエイノオ","prefecture_code":43},"3473":{"zip_code":"8693473","prefecture":"熊本県","prefecture_kana":"クマモトケン","city":"宇城市","city_kana":"ウキシ","town":"不知火町大見","town_kana":"シラヌヒマチオオミ","prefecture_code":43},"0554":{"zip_code":"8690554","prefecture":"熊本県","prefecture_kana":"クマモトケン","city":"宇城市","city_kana":"ウキシ","town":"不知火町柏原","town_kana":"シラヌヒマチカシワハラ","prefecture_code":43},"0561":{"zip_code":"8690561","prefecture":"熊本県","prefecture_kana":"クマモトケン","city":"宇城市","city_kana":"ウキシ","town":"不知火町亀松","town_kana":"シラヌヒマチカメマツ","prefecture_code":43},"0552":{"zip_code":"8690552","prefecture":"熊本県","prefecture_kana":"クマモトケン","city":"宇城市","city_kana":"ウキシ","town":"不知火町高良","town_kana":"シラヌヒマチコウラ","prefecture_code":43},"0553":{"zip_code":"8690553","prefecture":"熊本県","prefecture_kana":"クマモトケン","city":"宇城市","city_kana":"ウキシ","town":"不知火町小曽部","town_kana":"シラヌヒマチコソブ","prefecture_code":43},"0551":{"zip_code":"8690551","prefecture":"熊本県","prefecture_kana":"クマモトケン","city":"宇城市","city_kana":"ウキシ","town":"不知火町御領","town_kana":"シラヌヒマチゴリョウ","prefecture_code":43},"0562":{"zip_code":"8690562","prefecture":"熊本県","prefecture_kana":"クマモトケン","city":"宇城市","city_kana":"ウキシ","town":"不知火町長崎","town_kana":"シラヌヒマチナガサキ","prefecture_code":43},"3472":{"zip_code":"8693472","prefecture":"熊本県","prefecture_kana":"クマモトケン","city":"宇城市","city_kana":"ウキシ","town":"不知火町松合","town_kana":"シラヌヒマチマツアイ","prefecture_code":43},"0544":{"zip_code":"8690544","prefecture":"熊本県","prefecture_kana":"クマモトケン","city":"宇城市","city_kana":"ウキシ","town":"松橋町浅川","town_kana":"マツバセマチアサカワ","prefecture_code":43},"0522":{"zip_code":"8690522","prefecture":"熊本県","prefecture_kana":"クマモトケン","city":"宇城市","city_kana":"ウキシ","town":"松橋町内田","town_kana":"マツバセマチウチダ","prefecture_code":43},"0521":{"zip_code":"8690521","prefecture":"熊本県","prefecture_kana":"クマモトケン","city":"宇城市","city_kana":"ウキシ","town":"松橋町浦川内","town_kana":"マツバセマチウラカワチ","prefecture_code":43},"0531":{"zip_code":"8690531","prefecture":"熊本県","prefecture_kana":"クマモトケン","city":"宇城市","city_kana":"ウキシ","town":"松橋町大野","town_kana":"マツバセマチオオノ","prefecture_code":43},"0503":{"zip_code":"8690503","prefecture":"熊本県","prefecture_kana":"クマモトケン","city":"宇城市","city_kana":"ウキシ","town":"松橋町きらら","town_kana":"マツバセマチキララ","prefecture_code":43},"0532":{"zip_code":"8690532","prefecture":"熊本県","prefecture_kana":"クマモトケン","city":"宇城市","city_kana":"ウキシ","town":"松橋町久具","town_kana":"マツバセマチクグ","prefecture_code":43},"0512":{"zip_code":"8690512","prefecture":"熊本県","prefecture_kana":"クマモトケン","city":"宇城市","city_kana":"ウキシ","town":"松橋町古保山","town_kana":"マツバセマチコオヤマ","prefecture_code":43},"0545":{"zip_code":"8690545","prefecture":"熊本県","prefecture_kana":"クマモトケン","city":"宇城市","city_kana":"ウキシ","town":"松橋町砂川","town_kana":"マツバセマチスナガワ","prefecture_code":43},"0523":{"zip_code":"8690523","prefecture":"熊本県","prefecture_kana":"クマモトケン","city":"宇城市","city_kana":"ウキシ","town":"松橋町竹崎","town_kana":"マツバセマチタケザキ","prefecture_code":43},"0542":{"zip_code":"8690542","prefecture":"熊本県","prefecture_kana":"クマモトケン","city":"宇城市","city_kana":"ウキシ","town":"松橋町豊崎","town_kana":"マツバセマチトヨザキ","prefecture_code":43},"0524":{"zip_code":"8690524","prefecture":"熊本県","prefecture_kana":"クマモトケン","city":"宇城市","city_kana":"ウキシ","town":"松橋町豊福","town_kana":"マツバセマチトヨフク","prefecture_code":43},"0534":{"zip_code":"8690534","prefecture":"熊本県","prefecture_kana":"クマモトケン","city":"宇城市","city_kana":"ウキシ","town":"松橋町西下郷","town_kana":"マツバセマチニシシモゴウ","prefecture_code":43},"0513":{"zip_code":"8690513","prefecture":"熊本県","prefecture_kana":"クマモトケン","city":"宇城市","city_kana":"ウキシ","town":"松橋町萩尾","town_kana":"マツバセマチハギオ","prefecture_code":43},"0541":{"zip_code":"8690541","prefecture":"熊本県","prefecture_kana":"クマモトケン","city":"宇城市","city_kana":"ウキシ","town":"松橋町東松崎","town_kana":"マツバセマチヒガシマツザキ","prefecture_code":43},"0511":{"zip_code":"8690511","prefecture":"熊本県","prefecture_kana":"クマモトケン","city":"宇城市","city_kana":"ウキシ","town":"松橋町曲野","town_kana":"マツバセマチマガノ","prefecture_code":43},"0502":{"zip_code":"8690502","prefecture":"熊本県","prefecture_kana":"クマモトケン","city":"宇城市","city_kana":"ウキシ","town":"松橋町松橋","town_kana":"マツバセマチマツバセ","prefecture_code":43},"0501":{"zip_code":"8690501","prefecture":"熊本県","prefecture_kana":"クマモトケン","city":"宇城市","city_kana":"ウキシ","town":"松橋町松山","town_kana":"マツバセマチマツヤマ","prefecture_code":43},"0543":{"zip_code":"8690543","prefecture":"熊本県","prefecture_kana":"クマモトケン","city":"宇城市","city_kana":"ウキシ","town":"松橋町南豊崎","town_kana":"マツバセマチミナミトヨザキ","prefecture_code":43},"0546":{"zip_code":"8690546","prefecture":"熊本県","prefecture_kana":"クマモトケン","city":"宇城市","city_kana":"ウキシ","town":"松橋町御船","town_kana":"マツバセマチミフネ","prefecture_code":43},"0533":{"zip_code":"8690533","prefecture":"熊本県","prefecture_kana":"クマモトケン","city":"宇城市","city_kana":"ウキシ","town":"松橋町両仲間","town_kana":"マツバセマチリョウナカマ","prefecture_code":43},"3411":{"zip_code":"8693411","prefecture":"熊本県","prefecture_kana":"クマモトケン","city":"宇城市","city_kana":"ウキシ","town":"三角町大口","town_kana":"ミスミマチオオクチ","prefecture_code":43},"3201":{"zip_code":"8693201","prefecture":"熊本県","prefecture_kana":"クマモトケン","city":"宇城市","city_kana":"ウキシ","town":"三角町大田尾","town_kana":"ミスミマチオオタオ","prefecture_code":43},"3202":{"zip_code":"8693202","prefecture":"熊本県","prefecture_kana":"クマモトケン","city":"宇城市","city_kana":"ウキシ","town":"三角町郡浦","town_kana":"ミスミマチコオノウラ","prefecture_code":43},"3413":{"zip_code":"8693413","prefecture":"熊本県","prefecture_kana":"クマモトケン","city":"宇城市","city_kana":"ウキシ","town":"三角町里浦","town_kana":"ミスミマチサトノウラ","prefecture_code":43},"3412":{"zip_code":"8693412","prefecture":"熊本県","prefecture_kana":"クマモトケン","city":"宇城市","city_kana":"ウキシ","town":"三角町手場","town_kana":"ミスミマチテバ","prefecture_code":43},"3203":{"zip_code":"8693203","prefecture":"熊本県","prefecture_kana":"クマモトケン","city":"宇城市","city_kana":"ウキシ","town":"三角町戸馳","town_kana":"ミスミマチトバセ","prefecture_code":43},"3204":{"zip_code":"8693204","prefecture":"熊本県","prefecture_kana":"クマモトケン","city":"宇城市","city_kana":"ウキシ","town":"三角町中村","town_kana":"ミスミマチナカムラ","prefecture_code":43},"3205":{"zip_code":"8693205","prefecture":"熊本県","prefecture_kana":"クマモトケン","city":"宇城市","city_kana":"ウキシ","town":"三角町波多","town_kana":"ミスミマチハタ","prefecture_code":43},"3206":{"zip_code":"8693206","prefecture":"熊本県","prefecture_kana":"クマモトケン","city":"宇城市","city_kana":"ウキシ","town":"三角町前越","town_kana":"ミスミマチマエゴシ","prefecture_code":43},"3207":{"zip_code":"8693207","prefecture":"熊本県","prefecture_kana":"クマモトケン","city":"宇城市","city_kana":"ウキシ","town":"三角町三角浦","town_kana":"ミスミマチミスミウラ","prefecture_code":43},"2600":{"zip_code":"8692600","prefecture":"熊本県","prefecture_kana":"クマモトケン","city":"阿蘇市","city_kana":"アソシ","town":"以下に掲載がない場合","town_kana":"イカニケイサイガナイバアイ","prefecture_code":43},"2232":{"zip_code":"8692232","prefecture":"熊本県","prefecture_kana":"クマモトケン","city":"阿蘇市","city_kana":"アソシ","town":"赤水","town_kana":"アカミズ","prefecture_code":43},"2236":{"zip_code":"8692236","prefecture":"熊本県","prefecture_kana":"クマモトケン","city":"阿蘇市","city_kana":"アソシ","town":"跡ケ瀬","town_kana":"アトガセ","prefecture_code":43},"2621":{"zip_code":"8692621","prefecture":"熊本県","prefecture_kana":"クマモトケン","city":"阿蘇市","city_kana":"アソシ","town":"一の宮町荻の草","town_kana":"イチノミヤマチオギノクサ","prefecture_code":43},"2603":{"zip_code":"8692603","prefecture":"熊本県","prefecture_kana":"クマモトケン","city":"阿蘇市","city_kana":"アソシ","town":"一の宮町北坂梨","town_kana":"イチノミヤマチキタサカナシ","prefecture_code":43},"2611":{"zip_code":"8692611","prefecture":"熊本県","prefecture_kana":"クマモトケン","city":"阿蘇市","city_kana":"アソシ","town":"一の宮町坂梨","town_kana":"イチノミヤマチサカナシ","prefecture_code":43},"2602":{"zip_code":"8692602","prefecture":"熊本県","prefecture_kana":"クマモトケン","city":"阿蘇市","city_kana":"アソシ","town":"一の宮町三野","town_kana":"イチノミヤマチサンノ","prefecture_code":43},"2601":{"zip_code":"8692601","prefecture":"熊本県","prefecture_kana":"クマモトケン","city":"阿蘇市","city_kana":"アソシ","town":"一の宮町手野","town_kana":"イチノミヤマチテノ","prefecture_code":43},"2604":{"zip_code":"8692604","prefecture":"熊本県","prefecture_kana":"クマモトケン","city":"阿蘇市","city_kana":"アソシ","town":"一の宮町中坂梨","town_kana":"イチノミヤマチナカサカナシ","prefecture_code":43},"2613":{"zip_code":"8692613","prefecture":"熊本県","prefecture_kana":"クマモトケン","city":"阿蘇市","city_kana":"アソシ","town":"一の宮町中通","town_kana":"イチノミヤマチナカドオリ","prefecture_code":43},"2612":{"zip_code":"8692612","prefecture":"熊本県","prefecture_kana":"クマモトケン","city":"阿蘇市","city_kana":"アソシ","town":"一の宮町宮地","town_kana":"イチノミヤマチミヤジ","prefecture_code":43},"2315":{"zip_code":"8692315","prefecture":"熊本県","prefecture_kana":"クマモトケン","city":"阿蘇市","city_kana":"アソシ","town":"今町","town_kana":"イママチ","prefecture_code":43},"2301":{"zip_code":"8692301","prefecture":"熊本県","prefecture_kana":"クマモトケン","city":"阿蘇市","city_kana":"アソシ","town":"内牧","town_kana":"ウチノマキ","prefecture_code":43},"2312":{"zip_code":"8692312","prefecture":"熊本県","prefecture_kana":"クマモトケン","city":"阿蘇市","city_kana":"アソシ","town":"小倉","town_kana":"オクラ","prefecture_code":43},"2307":{"zip_code":"8692307","prefecture":"熊本県","prefecture_kana":"クマモトケン","city":"阿蘇市","city_kana":"アソシ","town":"小里","town_kana":"オザト","prefecture_code":43},"2226":{"zip_code":"8692226","prefecture":"熊本県","prefecture_kana":"クマモトケン","city":"阿蘇市","city_kana":"アソシ","town":"乙姫","town_kana":"オトヒメ","prefecture_code":43},"2314":{"zip_code":"8692314","prefecture":"熊本県","prefecture_kana":"クマモトケン","city":"阿蘇市","city_kana":"アソシ","town":"小野田","town_kana":"オノダ","prefecture_code":43},"2235":{"zip_code":"8692235","prefecture":"熊本県","prefecture_kana":"クマモトケン","city":"阿蘇市","city_kana":"アソシ","town":"狩尾","town_kana":"カリオ","prefecture_code":43},"2224":{"zip_code":"8692224","prefecture":"熊本県","prefecture_kana":"クマモトケン","city":"阿蘇市","city_kana":"アソシ","town":"蔵原","town_kana":"クラバル","prefecture_code":43},"2234":{"zip_code":"8692234","prefecture":"熊本県","prefecture_kana":"クマモトケン","city":"阿蘇市","city_kana":"アソシ","town":"車帰","town_kana":"クルマガエリ","prefecture_code":43},"2225":{"zip_code":"8692225","prefecture":"熊本県","prefecture_kana":"クマモトケン","city":"阿蘇市","city_kana":"アソシ","town":"黒川","town_kana":"クロカワ","prefecture_code":43},"2316":{"zip_code":"8692316","prefecture":"熊本県","prefecture_kana":"クマモトケン","city":"阿蘇市","city_kana":"アソシ","town":"黒流町","town_kana":"クロナガレマチ","prefecture_code":43},"2311":{"zip_code":"8692311","prefecture":"熊本県","prefecture_kana":"クマモトケン","city":"阿蘇市","city_kana":"アソシ","town":"小池","town_kana":"コウジ","prefecture_code":43},"2223":{"zip_code":"8692223","prefecture":"熊本県","prefecture_kana":"クマモトケン","city":"阿蘇市","city_kana":"アソシ","town":"竹原","town_kana":"タカワラ","prefecture_code":43},"2231":{"zip_code":"8692231","prefecture":"熊本県","prefecture_kana":"クマモトケン","city":"阿蘇市","city_kana":"アソシ","town":"永草","town_kana":"ナガクサ","prefecture_code":43},"2803":{"zip_code":"8692803","prefecture":"熊本県","prefecture_kana":"クマモトケン","city":"阿蘇市","city_kana":"アソシ","town":"波野赤仁田","town_kana":"ナミノアカニタ","prefecture_code":43},"2802":{"zip_code":"8692802","prefecture":"熊本県","prefecture_kana":"クマモトケン","city":"阿蘇市","city_kana":"アソシ","town":"波野小園","town_kana":"ナミノオゾノ","prefecture_code":43},"2801":{"zip_code":"8692801","prefecture":"熊本県","prefecture_kana":"クマモトケン","city":"阿蘇市","city_kana":"アソシ","town":"波野小地野","town_kana":"ナミノショウチノ","prefecture_code":43},"2807":{"zip_code":"8692807","prefecture":"熊本県","prefecture_kana":"クマモトケン","city":"阿蘇市","city_kana":"アソシ","town":"波野新波野","town_kana":"ナミノシンナミノ","prefecture_code":43},"2804":{"zip_code":"8692804","prefecture":"熊本県","prefecture_kana":"クマモトケン","city":"阿蘇市","city_kana":"アソシ","town":"波野滝水","town_kana":"ナミノタキミズ","prefecture_code":43},"2805":{"zip_code":"8692805","prefecture":"熊本県","prefecture_kana":"クマモトケン","city":"阿蘇市","city_kana":"アソシ","town":"波野中江","town_kana":"ナミノナカエ","prefecture_code":43},"2806":{"zip_code":"8692806","prefecture":"熊本県","prefecture_kana":"クマモトケン","city":"阿蘇市","city_kana":"アソシ","town":"波野波野","town_kana":"ナミノナミノ","prefecture_code":43},"2303":{"zip_code":"8692303","prefecture":"熊本県","prefecture_kana":"クマモトケン","city":"阿蘇市","city_kana":"アソシ","town":"西小園","town_kana":"ニシコゾノ","prefecture_code":43},"2222":{"zip_code":"8692222","prefecture":"熊本県","prefecture_kana":"クマモトケン","city":"阿蘇市","city_kana":"アソシ","town":"西町","town_kana":"ニシマチ","prefecture_code":43},"2304":{"zip_code":"8692304","prefecture":"熊本県","prefecture_kana":"クマモトケン","city":"阿蘇市","city_kana":"アソシ","town":"西湯浦","town_kana":"ニシユノウラ","prefecture_code":43},"2237":{"zip_code":"8692237","prefecture":"熊本県","prefecture_kana":"クマモトケン","city":"阿蘇市","city_kana":"アソシ","town":"的石","town_kana":"マトイシ","prefecture_code":43},"2302":{"zip_code":"8692302","prefecture":"熊本県","prefecture_kana":"クマモトケン","city":"阿蘇市","city_kana":"アソシ","town":"三久保","town_kana":"ミクボ","prefecture_code":43},"2306":{"zip_code":"8692306","prefecture":"熊本県","prefecture_kana":"クマモトケン","city":"阿蘇市","city_kana":"アソシ","town":"南宮原","town_kana":"ミナミミヤバル","prefecture_code":43},"2233":{"zip_code":"8692233","prefecture":"熊本県","prefecture_kana":"クマモトケン","city":"阿蘇市","city_kana":"アソシ","town":"無田","town_kana":"ムタ","prefecture_code":43},"2221":{"zip_code":"8692221","prefecture":"熊本県","prefecture_kana":"クマモトケン","city":"阿蘇市","city_kana":"アソシ","town":"役犬原","town_kana":"ヤクインバル","prefecture_code":43},"2413":{"zip_code":"8692413","prefecture":"熊本県","prefecture_kana":"クマモトケン","city":"阿蘇市","city_kana":"アソシ","town":"山田（蔵床、橋台、茗ケ原）","town_kana":"ヤマダ(クラトコ、ハシダイ、ミョウガハラ)","prefecture_code":43},"2313":{"zip_code":"8692313","prefecture":"熊本県","prefecture_kana":"クマモトケン","city":"阿蘇市","city_kana":"アソシ","town":"山田（その他）","town_kana":"ヤマダ(ソノタ)","prefecture_code":43},"2305":{"zip_code":"8692305","prefecture":"熊本県","prefecture_kana":"クマモトケン","city":"阿蘇市","city_kana":"アソシ","town":"湯浦","town_kana":"ユノウラ","prefecture_code":43},"0300":{"zip_code":"8690300","prefecture":"熊本県","prefecture_kana":"クマモトケン","city":"玉名郡玉東町","city_kana":"タマナグンギョクトウマチ","town":"以下に掲載がない場合","town_kana":"イカニケイサイガナイバアイ","prefecture_code":43},"0301":{"zip_code":"8690301","prefecture":"熊本県","prefecture_kana":"クマモトケン","city":"玉名郡玉東町","city_kana":"タマナグンギョクトウマチ","town":"稲佐","town_kana":"イナサ","prefecture_code":43},"0304":{"zip_code":"8690304","prefecture":"熊本県","prefecture_kana":"クマモトケン","city":"玉名郡玉東町","city_kana":"タマナグンギョクトウマチ","town":"浦田","town_kana":"ウラタ","prefecture_code":43},"0305":{"zip_code":"8690305","prefecture":"熊本県","prefecture_kana":"クマモトケン","city":"玉名郡玉東町","city_kana":"タマナグンギョクトウマチ","town":"上木葉","town_kana":"カミコノハ","prefecture_code":43},"0313":{"zip_code":"8690313","prefecture":"熊本県","prefecture_kana":"クマモトケン","city":"玉名郡玉東町","city_kana":"タマナグンギョクトウマチ","town":"上白木","town_kana":"カミシラキ","prefecture_code":43},"0303":{"zip_code":"8690303","prefecture":"熊本県","prefecture_kana":"クマモトケン","city":"玉名郡玉東町","city_kana":"タマナグンギョクトウマチ","town":"木葉","town_kana":"コノハ","prefecture_code":43},"0321":{"zip_code":"8690321","prefecture":"熊本県","prefecture_kana":"クマモトケン","city":"玉名郡玉東町","city_kana":"タマナグンギョクトウマチ","town":"西安寺","town_kana":"サイアンジ","prefecture_code":43},"0312":{"zip_code":"8690312","prefecture":"熊本県","prefecture_kana":"クマモトケン","city":"玉名郡玉東町","city_kana":"タマナグンギョクトウマチ","town":"白木","town_kana":"シラキ","prefecture_code":43},"0322":{"zip_code":"8690322","prefecture":"熊本県","prefecture_kana":"クマモトケン","city":"玉名郡玉東町","city_kana":"タマナグンギョクトウマチ","town":"原倉","town_kana":"ハラクラ","prefecture_code":43},"0311":{"zip_code":"8690311","prefecture":"熊本県","prefecture_kana":"クマモトケン","city":"玉名郡玉東町","city_kana":"タマナグンギョクトウマチ","town":"二俣","town_kana":"フタマタ","prefecture_code":43},"0302":{"zip_code":"8690302","prefecture":"熊本県","prefecture_kana":"クマモトケン","city":"玉名郡玉東町","city_kana":"タマナグンギョクトウマチ","town":"山口","town_kana":"ヤマグチ","prefecture_code":43},"0100":{"zip_code":"8690100","prefecture":"熊本県","prefecture_kana":"クマモトケン","city":"玉名郡長洲町","city_kana":"タマナグンナガスマチ","town":"以下に掲載がない場合","town_kana":"イカニケイサイガナイバアイ","prefecture_code":43},"0113":{"zip_code":"8690113","prefecture":"熊本県","prefecture_kana":"クマモトケン","city":"玉名郡長洲町","city_kana":"タマナグンナガスマチ","town":"有明","town_kana":"アリアケ","prefecture_code":43},"0122":{"zip_code":"8690122","prefecture":"熊本県","prefecture_kana":"クマモトケン","city":"玉名郡長洲町","city_kana":"タマナグンナガスマチ","town":"梅田","town_kana":"ウメダ","prefecture_code":43},"0102":{"zip_code":"8690102","prefecture":"熊本県","prefecture_kana":"クマモトケン","city":"玉名郡長洲町","city_kana":"タマナグンナガスマチ","town":"折崎","town_kana":"オリサキ","prefecture_code":43},"0104":{"zip_code":"8690104","prefecture":"熊本県","prefecture_kana":"クマモトケン","city":"玉名郡長洲町","city_kana":"タマナグンナガスマチ","town":"上沖洲","town_kana":"カミオキノス","prefecture_code":43},"0105":{"zip_code":"8690105","prefecture":"熊本県","prefecture_kana":"クマモトケン","city":"玉名郡長洲町","city_kana":"タマナグンナガスマチ","town":"清源寺","town_kana":"セイゲンジ","prefecture_code":43},"0121":{"zip_code":"8690121","prefecture":"熊本県","prefecture_kana":"クマモトケン","city":"玉名郡長洲町","city_kana":"タマナグンナガスマチ","town":"高浜","town_kana":"タカハマ","prefecture_code":43},"0106":{"zip_code":"8690106","prefecture":"熊本県","prefecture_kana":"クマモトケン","city":"玉名郡長洲町","city_kana":"タマナグンナガスマチ","town":"永塩","town_kana":"ナガシオ","prefecture_code":43},"0123":{"zip_code":"8690123","prefecture":"熊本県","prefecture_kana":"クマモトケン","city":"玉名郡長洲町","city_kana":"タマナグンナガスマチ","town":"長洲","town_kana":"ナガス","prefecture_code":43},"0103":{"zip_code":"8690103","prefecture":"熊本県","prefecture_kana":"クマモトケン","city":"玉名郡長洲町","city_kana":"タマナグンナガスマチ","town":"腹赤","town_kana":"ハラカ","prefecture_code":43},"0112":{"zip_code":"8690112","prefecture":"熊本県","prefecture_kana":"クマモトケン","city":"玉名郡長洲町","city_kana":"タマナグンナガスマチ","town":"姫ケ浦","town_kana":"ヒメガウラ","prefecture_code":43},"0101":{"zip_code":"8690101","prefecture":"熊本県","prefecture_kana":"クマモトケン","city":"玉名郡長洲町","city_kana":"タマナグンナガスマチ","town":"宮野","town_kana":"ミヤノ","prefecture_code":43},"0111":{"zip_code":"8690111","prefecture":"熊本県","prefecture_kana":"クマモトケン","city":"玉名郡長洲町","city_kana":"タマナグンナガスマチ","town":"名石浜","town_kana":"メイシハマ","prefecture_code":43},"1200":{"zip_code":"8691200","prefecture":"熊本県","prefecture_kana":"クマモトケン","city":"菊池郡大津町","city_kana":"キクチグンオオヅマチ","town":"以下に掲載がない場合","town_kana":"イカニケイサイガナイバアイ","prefecture_code":43},"1222":{"zip_code":"8691222","prefecture":"熊本県","prefecture_kana":"クマモトケン","city":"菊池郡大津町","city_kana":"キクチグンオオヅマチ","town":"岩坂","town_kana":"イワサカ","prefecture_code":43},"1233":{"zip_code":"8691233","prefecture":"熊本県","prefecture_kana":"クマモトケン","city":"菊池郡大津町","city_kana":"キクチグンオオヅマチ","town":"大津","town_kana":"オオヅ","prefecture_code":43},"1219":{"zip_code":"8691219","prefecture":"熊本県","prefecture_kana":"クマモトケン","city":"菊池郡大津町","city_kana":"キクチグンオオヅマチ","town":"大林","town_kana":"オオバヤシ","prefecture_code":43},"1225":{"zip_code":"8691225","prefecture":"熊本県","prefecture_kana":"クマモトケン","city":"菊池郡大津町","city_kana":"キクチグンオオヅマチ","town":"下町","town_kana":"シモマチ","prefecture_code":43},"1227":{"zip_code":"8691227","prefecture":"熊本県","prefecture_kana":"クマモトケン","city":"菊池郡大津町","city_kana":"キクチグンオオヅマチ","town":"新","town_kana":"シン","prefecture_code":43},"1221":{"zip_code":"8691221","prefecture":"熊本県","prefecture_kana":"クマモトケン","city":"菊池郡大津町","city_kana":"キクチグンオオヅマチ","town":"陣内","town_kana":"ジンナイ","prefecture_code":43},"1236":{"zip_code":"8691236","prefecture":"熊本県","prefecture_kana":"クマモトケン","city":"菊池郡大津町","city_kana":"キクチグンオオヅマチ","town":"杉水","town_kana":"スギミズ","prefecture_code":43},"1214":{"zip_code":"8691214","prefecture":"熊本県","prefecture_kana":"クマモトケン","city":"菊池郡大津町","city_kana":"キクチグンオオヅマチ","town":"瀬田","town_kana":"セタ","prefecture_code":43},"1232":{"zip_code":"8691232","prefecture":"熊本県","prefecture_kana":"クマモトケン","city":"菊池郡大津町","city_kana":"キクチグンオオヅマチ","town":"高尾野","town_kana":"タカオノ","prefecture_code":43},"1223":{"zip_code":"8691223","prefecture":"熊本県","prefecture_kana":"クマモトケン","city":"菊池郡大津町","city_kana":"キクチグンオオヅマチ","town":"中島","town_kana":"ナカシマ","prefecture_code":43},"1216":{"zip_code":"8691216","prefecture":"熊本県","prefecture_kana":"クマモトケン","city":"菊池郡大津町","city_kana":"キクチグンオオヅマチ","town":"錦野","town_kana":"ニシキノ","prefecture_code":43},"1226":{"zip_code":"8691226","prefecture":"熊本県","prefecture_kana":"クマモトケン","city":"菊池郡大津町","city_kana":"キクチグンオオヅマチ","town":"灰塚","town_kana":"ハイヅカ","prefecture_code":43},"1234":{"zip_code":"8691234","prefecture":"熊本県","prefecture_kana":"クマモトケン","city":"菊池郡大津町","city_kana":"キクチグンオオヅマチ","town":"引水","town_kana":"ヒキノミズ","prefecture_code":43},"1231":{"zip_code":"8691231","prefecture":"熊本県","prefecture_kana":"クマモトケン","city":"菊池郡大津町","city_kana":"キクチグンオオヅマチ","town":"平川","town_kana":"ヒラカワ","prefecture_code":43},"1218":{"zip_code":"8691218","prefecture":"熊本県","prefecture_kana":"クマモトケン","city":"菊池郡大津町","city_kana":"キクチグンオオヅマチ","town":"吹田","town_kana":"フケダ","prefecture_code":43},"1213":{"zip_code":"8691213","prefecture":"熊本県","prefecture_kana":"クマモトケン","city":"菊池郡大津町","city_kana":"キクチグンオオヅマチ","town":"古城","town_kana":"フルジョウ","prefecture_code":43},"1215":{"zip_code":"8691215","prefecture":"熊本県","prefecture_kana":"クマモトケン","city":"菊池郡大津町","city_kana":"キクチグンオオヅマチ","town":"外牧","town_kana":"ホカマキ","prefecture_code":43},"1212":{"zip_code":"8691212","prefecture":"熊本県","prefecture_kana":"クマモトケン","city":"菊池郡大津町","city_kana":"キクチグンオオヅマチ","town":"真木","town_kana":"マキ","prefecture_code":43},"1224":{"zip_code":"8691224","prefecture":"熊本県","prefecture_kana":"クマモトケン","city":"菊池郡大津町","city_kana":"キクチグンオオヅマチ","town":"町","town_kana":"マチ","prefecture_code":43},"1237":{"zip_code":"8691237","prefecture":"熊本県","prefecture_kana":"クマモトケン","city":"菊池郡大津町","city_kana":"キクチグンオオヅマチ","town":"美咲野","town_kana":"ミサキノ","prefecture_code":43},"1235":{"zip_code":"8691235","prefecture":"熊本県","prefecture_kana":"クマモトケン","city":"菊池郡大津町","city_kana":"キクチグンオオヅマチ","town":"室","town_kana":"ムロ","prefecture_code":43},"1217":{"zip_code":"8691217","prefecture":"熊本県","prefecture_kana":"クマモトケン","city":"菊池郡大津町","city_kana":"キクチグンオオヅマチ","town":"森","town_kana":"モリ","prefecture_code":43},"1211":{"zip_code":"8691211","prefecture":"熊本県","prefecture_kana":"クマモトケン","city":"菊池郡大津町","city_kana":"キクチグンオオヅマチ","town":"矢護川","town_kana":"ヤゴガワ","prefecture_code":43},"1100":{"zip_code":"8691100","prefecture":"熊本県","prefecture_kana":"クマモトケン","city":"菊池郡菊陽町","city_kana":"キクチグンキクヨウマチ","town":"以下に掲載がない場合","town_kana":"イカニケイサイガナイバアイ","prefecture_code":43},"1115":{"zip_code":"8691115","prefecture":"熊本県","prefecture_kana":"クマモトケン","city":"菊池郡菊陽町","city_kana":"キクチグンキクヨウマチ","town":"沖野","town_kana":"オキノ","prefecture_code":43},"1107":{"zip_code":"8691107","prefecture":"熊本県","prefecture_kana":"クマモトケン","city":"菊池郡菊陽町","city_kana":"キクチグンキクヨウマチ","town":"辛川","town_kana":"カラカワ","prefecture_code":43},"1103":{"zip_code":"8691103","prefecture":"熊本県","prefecture_kana":"クマモトケン","city":"菊池郡菊陽町","city_kana":"キクチグンキクヨウマチ","town":"久保田","town_kana":"クボタ","prefecture_code":43},"1114":{"zip_code":"8691114","prefecture":"熊本県","prefecture_kana":"クマモトケン","city":"菊池郡菊陽町","city_kana":"キクチグンキクヨウマチ","town":"向陽台","town_kana":"コウヨウダイ","prefecture_code":43},"1109":{"zip_code":"8691109","prefecture":"熊本県","prefecture_kana":"クマモトケン","city":"菊池郡菊陽町","city_kana":"キクチグンキクヨウマチ","town":"新山","town_kana":"シンヤマ","prefecture_code":43},"1110":{"zip_code":"8691110","prefecture":"熊本県","prefecture_kana":"クマモトケン","city":"菊池郡菊陽町","city_kana":"キクチグンキクヨウマチ","town":"杉並台","town_kana":"スギナミダイ","prefecture_code":43},"1101":{"zip_code":"8691101","prefecture":"熊本県","prefecture_kana":"クマモトケン","city":"菊池郡菊陽町","city_kana":"キクチグンキクヨウマチ","town":"津久礼","town_kana":"ツクレ","prefecture_code":43},"1104":{"zip_code":"8691104","prefecture":"熊本県","prefecture_kana":"クマモトケン","city":"菊池郡菊陽町","city_kana":"キクチグンキクヨウマチ","town":"戸次","town_kana":"トツギ","prefecture_code":43},"1113":{"zip_code":"8691113","prefecture":"熊本県","prefecture_kana":"クマモトケン","city":"菊池郡菊陽町","city_kana":"キクチグンキクヨウマチ","town":"花立","town_kana":"ハナタテ","prefecture_code":43},"1105":{"zip_code":"8691105","prefecture":"熊本県","prefecture_kana":"クマモトケン","city":"菊池郡菊陽町","city_kana":"キクチグンキクヨウマチ","town":"馬場楠","town_kana":"ババグス","prefecture_code":43},"1102":{"zip_code":"8691102","prefecture":"熊本県","prefecture_kana":"クマモトケン","city":"菊池郡菊陽町","city_kana":"キクチグンキクヨウマチ","town":"原水","town_kana":"ハラミズ","prefecture_code":43},"1108":{"zip_code":"8691108","prefecture":"熊本県","prefecture_kana":"クマモトケン","city":"菊池郡菊陽町","city_kana":"キクチグンキクヨウマチ","town":"光の森","town_kana":"ヒカリノモリ","prefecture_code":43},"1106":{"zip_code":"8691106","prefecture":"熊本県","prefecture_kana":"クマモトケン","city":"菊池郡菊陽町","city_kana":"キクチグンキクヨウマチ","town":"曲手","town_kana":"マガテ","prefecture_code":43},"1111":{"zip_code":"8691111","prefecture":"熊本県","prefecture_kana":"クマモトケン","city":"菊池郡菊陽町","city_kana":"キクチグンキクヨウマチ","town":"武蔵ヶ丘","town_kana":"ムサシガオカ","prefecture_code":43},"1112":{"zip_code":"8691112","prefecture":"熊本県","prefecture_kana":"クマモトケン","city":"菊池郡菊陽町","city_kana":"キクチグンキクヨウマチ","town":"武蔵ヶ丘北","town_kana":"ムサシガオカキタ","prefecture_code":43},"2400":{"zip_code":"8692400","prefecture":"熊本県","prefecture_kana":"クマモトケン","city":"阿蘇郡南小国町","city_kana":"アソグンミナミオグニマチ","town":"以下に掲載がない場合","town_kana":"イカニケイサイガナイバアイ","prefecture_code":43},"2401":{"zip_code":"8692401","prefecture":"熊本県","prefecture_kana":"クマモトケン","city":"阿蘇郡南小国町","city_kana":"アソグンミナミオグニマチ","town":"赤馬場","town_kana":"アカババ","prefecture_code":43},"2403":{"zip_code":"8692403","prefecture":"熊本県","prefecture_kana":"クマモトケン","city":"阿蘇郡南小国町","city_kana":"アソグンミナミオグニマチ","town":"中原","town_kana":"ナカバル","prefecture_code":43},"2402":{"zip_code":"8692402","prefecture":"熊本県","prefecture_kana":"クマモトケン","city":"阿蘇郡南小国町","city_kana":"アソグンミナミオグニマチ","town":"満願寺","town_kana":"マンガンジ","prefecture_code":43},"2500":{"zip_code":"8692500","prefecture":"熊本県","prefecture_kana":"クマモトケン","city":"阿蘇郡小国町","city_kana":"アソグンオグニマチ","town":"以下に掲載がない場合","town_kana":"イカニケイサイガナイバアイ","prefecture_code":43},"2506":{"zip_code":"8692506","prefecture":"熊本県","prefecture_kana":"クマモトケン","city":"阿蘇郡小国町","city_kana":"アソグンオグニマチ","town":"上田","town_kana":"カミダ","prefecture_code":43},"2505":{"zip_code":"8692505","prefecture":"熊本県","prefecture_kana":"クマモトケン","city":"阿蘇郡小国町","city_kana":"アソグンオグニマチ","town":"北里","town_kana":"キタザト","prefecture_code":43},"2502":{"zip_code":"8692502","prefecture":"熊本県","prefecture_kana":"クマモトケン","city":"阿蘇郡小国町","city_kana":"アソグンオグニマチ","town":"黒渕","town_kana":"クロブチ","prefecture_code":43},"2503":{"zip_code":"8692503","prefecture":"熊本県","prefecture_kana":"クマモトケン","city":"阿蘇郡小国町","city_kana":"アソグンオグニマチ","town":"下城","town_kana":"シモジョウ","prefecture_code":43},"2504":{"zip_code":"8692504","prefecture":"熊本県","prefecture_kana":"クマモトケン","city":"阿蘇郡小国町","city_kana":"アソグンオグニマチ","town":"西里","town_kana":"ニシザト","prefecture_code":43},"2501":{"zip_code":"8692501","prefecture":"熊本県","prefecture_kana":"クマモトケン","city":"阿蘇郡小国町","city_kana":"アソグンオグニマチ","town":"宮原","town_kana":"ミヤハラ","prefecture_code":43},"2700":{"zip_code":"8692700","prefecture":"熊本県","prefecture_kana":"クマモトケン","city":"阿蘇郡産山村","city_kana":"アソグンウブヤマムラ","town":"以下に掲載がない場合","town_kana":"イカニケイサイガナイバアイ","prefecture_code":43},"2705":{"zip_code":"8692705","prefecture":"熊本県","prefecture_kana":"クマモトケン","city":"阿蘇郡産山村","city_kana":"アソグンウブヤマムラ","town":"産山","town_kana":"ウブヤマ","prefecture_code":43},"2702":{"zip_code":"8692702","prefecture":"熊本県","prefecture_kana":"クマモトケン","city":"阿蘇郡産山村","city_kana":"アソグンウブヤマムラ","town":"大利","town_kana":"オオリ","prefecture_code":43},"2701":{"zip_code":"8692701","prefecture":"熊本県","prefecture_kana":"クマモトケン","city":"阿蘇郡産山村","city_kana":"アソグンウブヤマムラ","town":"片俣","town_kana":"カタマタ","prefecture_code":43},"2704":{"zip_code":"8692704","prefecture":"熊本県","prefecture_kana":"クマモトケン","city":"阿蘇郡産山村","city_kana":"アソグンウブヤマムラ","town":"田尻","town_kana":"タジリ","prefecture_code":43},"2703":{"zip_code":"8692703","prefecture":"熊本県","prefecture_kana":"クマモトケン","city":"阿蘇郡産山村","city_kana":"アソグンウブヤマムラ","town":"山鹿","town_kana":"ヤマガ","prefecture_code":43},"1600":{"zip_code":"8691600","prefecture":"熊本県","prefecture_kana":"クマモトケン","city":"阿蘇郡高森町","city_kana":"アソグンタカモリマチ","town":"以下に掲載がない場合","town_kana":"イカニケイサイガナイバアイ","prefecture_code":43},"1825":{"zip_code":"8691825","prefecture":"熊本県","prefecture_kana":"クマモトケン","city":"阿蘇郡高森町","city_kana":"アソグンタカモリマチ","town":"尾下","town_kana":"オクダリ","prefecture_code":43},"1601":{"zip_code":"8691601","prefecture":"熊本県","prefecture_kana":"クマモトケン","city":"阿蘇郡高森町","city_kana":"アソグンタカモリマチ","town":"上色見","town_kana":"カミシキミ","prefecture_code":43},"1826":{"zip_code":"8691826","prefecture":"熊本県","prefecture_kana":"クマモトケン","city":"阿蘇郡高森町","city_kana":"アソグンタカモリマチ","town":"河原","town_kana":"カワラ","prefecture_code":43},"1811":{"zip_code":"8691811","prefecture":"熊本県","prefecture_kana":"クマモトケン","city":"阿蘇郡高森町","city_kana":"アソグンタカモリマチ","town":"草部","town_kana":"クサカベ","prefecture_code":43},"1603":{"zip_code":"8691603","prefecture":"熊本県","prefecture_kana":"クマモトケン","city":"阿蘇郡高森町","city_kana":"アソグンタカモリマチ","town":"色見","town_kana":"シキミ","prefecture_code":43},"1815":{"zip_code":"8691815","prefecture":"熊本県","prefecture_kana":"クマモトケン","city":"阿蘇郡高森町","city_kana":"アソグンタカモリマチ","town":"下切","town_kana":"シタギリ","prefecture_code":43},"1813":{"zip_code":"8691813","prefecture":"熊本県","prefecture_kana":"クマモトケン","city":"阿蘇郡高森町","city_kana":"アソグンタカモリマチ","town":"菅山","town_kana":"スガヤマ","prefecture_code":43},"1812":{"zip_code":"8691812","prefecture":"熊本県","prefecture_kana":"クマモトケン","city":"阿蘇郡高森町","city_kana":"アソグンタカモリマチ","town":"芹口","town_kana":"セリグチ","prefecture_code":43},"1602":{"zip_code":"8691602","prefecture":"熊本県","prefecture_kana":"クマモトケン","city":"阿蘇郡高森町","city_kana":"アソグンタカモリマチ","town":"高森","town_kana":"タカモリ","prefecture_code":43},"1823":{"zip_code":"8691823","prefecture":"熊本県","prefecture_kana":"クマモトケン","city":"阿蘇郡高森町","city_kana":"アソグンタカモリマチ","town":"津留","town_kana":"ツル","prefecture_code":43},"1821":{"zip_code":"8691821","prefecture":"熊本県","prefecture_kana":"クマモトケン","city":"阿蘇郡高森町","city_kana":"アソグンタカモリマチ","town":"中","town_kana":"ナカ","prefecture_code":43},"1814":{"zip_code":"8691814","prefecture":"熊本県","prefecture_kana":"クマモトケン","city":"阿蘇郡高森町","city_kana":"アソグンタカモリマチ","town":"永野原","town_kana":"ナガノハル","prefecture_code":43},"1824":{"zip_code":"8691824","prefecture":"熊本県","prefecture_kana":"クマモトケン","city":"阿蘇郡高森町","city_kana":"アソグンタカモリマチ","town":"野尻","town_kana":"ノジリ","prefecture_code":43},"1822":{"zip_code":"8691822","prefecture":"熊本県","prefecture_kana":"クマモトケン","city":"阿蘇郡高森町","city_kana":"アソグンタカモリマチ","town":"矢津田","town_kana":"ヤツダ","prefecture_code":43},"1400":{"zip_code":"8691400","prefecture":"熊本県","prefecture_kana":"クマモトケン","city":"阿蘇郡南阿蘇村","city_kana":"アソグンミナミアソムラ","town":"以下に掲載がない場合","town_kana":"イカニケイサイガナイバアイ","prefecture_code":43},"1504":{"zip_code":"8691504","prefecture":"熊本県","prefecture_kana":"クマモトケン","city":"阿蘇郡南阿蘇村","city_kana":"アソグンミナミアソムラ","town":"一関","town_kana":"イチゼキ","prefecture_code":43},"1411":{"zip_code":"8691411","prefecture":"熊本県","prefecture_kana":"クマモトケン","city":"阿蘇郡南阿蘇村","city_kana":"アソグンミナミアソムラ","town":"河陰","town_kana":"カイン","prefecture_code":43},"1404":{"zip_code":"8691404","prefecture":"熊本県","prefecture_kana":"クマモトケン","city":"阿蘇郡南阿蘇村","city_kana":"アソグンミナミアソムラ","town":"河陽","town_kana":"カワヨウ","prefecture_code":43},"1402":{"zip_code":"8691402","prefecture":"熊本県","prefecture_kana":"クマモトケン","city":"阿蘇郡南阿蘇村","city_kana":"アソグンミナミアソムラ","town":"下野","town_kana":"シモノ","prefecture_code":43},"1502":{"zip_code":"8691502","prefecture":"熊本県","prefecture_kana":"クマモトケン","city":"阿蘇郡南阿蘇村","city_kana":"アソグンミナミアソムラ","town":"白川","town_kana":"シラカワ","prefecture_code":43},"1401":{"zip_code":"8691401","prefecture":"熊本県","prefecture_kana":"クマモトケン","city":"阿蘇郡南阿蘇村","city_kana":"アソグンミナミアソムラ","town":"立野","town_kana":"タテノ","prefecture_code":43},"1403":{"zip_code":"8691403","prefecture":"熊本県","prefecture_kana":"クマモトケン","city":"阿蘇郡南阿蘇村","city_kana":"アソグンミナミアソムラ","town":"長野","town_kana":"ナガノ","prefecture_code":43},"2205":{"zip_code":"8692205","prefecture":"熊本県","prefecture_kana":"クマモトケン","city":"阿蘇郡南阿蘇村","city_kana":"アソグンミナミアソムラ","town":"中松（古坊中）","town_kana":"ナカマツ(フルボウチュウ)","prefecture_code":43},"1505":{"zip_code":"8691505","prefecture":"熊本県","prefecture_kana":"クマモトケン","city":"阿蘇郡南阿蘇村","city_kana":"アソグンミナミアソムラ","town":"中松（その他）","town_kana":"ナカマツ(ソノタ)","prefecture_code":43},"1412":{"zip_code":"8691412","prefecture":"熊本県","prefecture_kana":"クマモトケン","city":"阿蘇郡南阿蘇村","city_kana":"アソグンミナミアソムラ","town":"久石","town_kana":"ヒサイシ","prefecture_code":43},"1503":{"zip_code":"8691503","prefecture":"熊本県","prefecture_kana":"クマモトケン","city":"阿蘇郡南阿蘇村","city_kana":"アソグンミナミアソムラ","town":"吉田","town_kana":"ヨシダ","prefecture_code":43},"1501":{"zip_code":"8691501","prefecture":"熊本県","prefecture_kana":"クマモトケン","city":"阿蘇郡南阿蘇村","city_kana":"アソグンミナミアソムラ","town":"両併","town_kana":"リョウヘイ","prefecture_code":43},"4600":{"zip_code":"8694600","prefecture":"熊本県","prefecture_kana":"クマモトケン","city":"八代郡氷川町","city_kana":"ヤツシログンヒカワチョウ","town":"以下に掲載がない場合","town_kana":"イカニケイサイガナイバアイ","prefecture_code":43},"4812":{"zip_code":"8694812","prefecture":"熊本県","prefecture_kana":"クマモトケン","city":"八代郡氷川町","city_kana":"ヤツシログンヒカワチョウ","town":"網道","town_kana":"アミドウ","prefecture_code":43},"4604":{"zip_code":"8694604","prefecture":"熊本県","prefecture_kana":"クマモトケン","city":"八代郡氷川町","city_kana":"ヤツシログンヒカワチョウ","town":"有佐","town_kana":"アリサ","prefecture_code":43},"4601":{"zip_code":"8694601","prefecture":"熊本県","prefecture_kana":"クマモトケン","city":"八代郡氷川町","city_kana":"ヤツシログンヒカワチョウ","town":"今","town_kana":"イマ","prefecture_code":43},"4804":{"zip_code":"8694804","prefecture":"熊本県","prefecture_kana":"クマモトケン","city":"八代郡氷川町","city_kana":"ヤツシログンヒカワチョウ","town":"大野","town_kana":"オオノ","prefecture_code":43},"4607":{"zip_code":"8694607","prefecture":"熊本県","prefecture_kana":"クマモトケン","city":"八代郡氷川町","city_kana":"ヤツシログンヒカワチョウ","town":"栫","town_kana":"カコイ","prefecture_code":43},"4815":{"zip_code":"8694815","prefecture":"熊本県","prefecture_kana":"クマモトケン","city":"八代郡氷川町","city_kana":"ヤツシログンヒカワチョウ","town":"鹿島","town_kana":"カシマ","prefecture_code":43},"4811":{"zip_code":"8694811","prefecture":"熊本県","prefecture_kana":"クマモトケン","city":"八代郡氷川町","city_kana":"ヤツシログンヒカワチョウ","town":"鹿野","town_kana":"カノ","prefecture_code":43},"4806":{"zip_code":"8694806","prefecture":"熊本県","prefecture_kana":"クマモトケン","city":"八代郡氷川町","city_kana":"ヤツシログンヒカワチョウ","town":"河原","town_kana":"カワハラ","prefecture_code":43},"4814":{"zip_code":"8694814","prefecture":"熊本県","prefecture_kana":"クマモトケン","city":"八代郡氷川町","city_kana":"ヤツシログンヒカワチョウ","town":"島地","town_kana":"シマチ","prefecture_code":43},"4801":{"zip_code":"8694801","prefecture":"熊本県","prefecture_kana":"クマモトケン","city":"八代郡氷川町","city_kana":"ヤツシログンヒカワチョウ","town":"新田","town_kana":"シンデン","prefecture_code":43},"4802":{"zip_code":"8694802","prefecture":"熊本県","prefecture_kana":"クマモトケン","city":"八代郡氷川町","city_kana":"ヤツシログンヒカワチョウ","town":"高塚","town_kana":"タカツカ","prefecture_code":43},"4603":{"zip_code":"8694603","prefecture":"熊本県","prefecture_kana":"クマモトケン","city":"八代郡氷川町","city_kana":"ヤツシログンヒカワチョウ","town":"立神","town_kana":"タテガミ","prefecture_code":43},"4605":{"zip_code":"8694605","prefecture":"熊本県","prefecture_kana":"クマモトケン","city":"八代郡氷川町","city_kana":"ヤツシログンヒカワチョウ","town":"中島","town_kana":"ナカシマ","prefecture_code":43},"4805":{"zip_code":"8694805","prefecture":"熊本県","prefecture_kana":"クマモトケン","city":"八代郡氷川町","city_kana":"ヤツシログンヒカワチョウ","town":"野津","town_kana":"ノヅ","prefecture_code":43},"4606":{"zip_code":"8694606","prefecture":"熊本県","prefecture_kana":"クマモトケン","city":"八代郡氷川町","city_kana":"ヤツシログンヒカワチョウ","town":"早尾","town_kana":"ハヤオ","prefecture_code":43},"4602":{"zip_code":"8694602","prefecture":"熊本県","prefecture_kana":"クマモトケン","city":"八代郡氷川町","city_kana":"ヤツシログンヒカワチョウ","town":"宮原","town_kana":"ミヤハラ","prefecture_code":43},"4608":{"zip_code":"8694608","prefecture":"熊本県","prefecture_kana":"クマモトケン","city":"八代郡氷川町","city_kana":"ヤツシログンヒカワチョウ","town":"宮原栄久","town_kana":"ミヤハラエイキュウ","prefecture_code":43},"4803":{"zip_code":"8694803","prefecture":"熊本県","prefecture_kana":"クマモトケン","city":"八代郡氷川町","city_kana":"ヤツシログンヒカワチョウ","town":"吉本","town_kana":"ヨシモト","prefecture_code":43},"4813":{"zip_code":"8694813","prefecture":"熊本県","prefecture_kana":"クマモトケン","city":"八代郡氷川町","city_kana":"ヤツシログンヒカワチョウ","town":"若洲","town_kana":"ワカス","prefecture_code":43},"5400":{"zip_code":"8695400","prefecture":"熊本県","prefecture_kana":"クマモトケン","city":"葦北郡芦北町","city_kana":"アシキタグンアシキタマチ","town":"以下に掲載がない場合","town_kana":"イカニケイサイガナイバアイ","prefecture_code":43},"5561":{"zip_code":"8695561","prefecture":"熊本県","prefecture_kana":"クマモトケン","city":"葦北郡芦北町","city_kana":"アシキタグンアシキタマチ","town":"芦北（北田、中割、西割、松崎）","town_kana":"アシキタ(キタダ、ナカワリ、ニシワリ、マツザキ)","prefecture_code":43},"5461":{"zip_code":"8695461","prefecture":"熊本県","prefecture_kana":"クマモトケン","city":"葦北郡芦北町","city_kana":"アシキタグンアシキタマチ","town":"芦北（その他）","town_kana":"アシキタ(ソノタ)","prefecture_code":43},"6301":{"zip_code":"8696301","prefecture":"熊本県","prefecture_kana":"クマモトケン","city":"葦北郡芦北町","city_kana":"アシキタグンアシキタマチ","town":"天月","town_kana":"アマツキ","prefecture_code":43},"6306":{"zip_code":"8696306","prefecture":"熊本県","prefecture_kana":"クマモトケン","city":"葦北郡芦北町","city_kana":"アシキタグンアシキタマチ","town":"市野瀬","town_kana":"イチノセ","prefecture_code":43},"5307":{"zip_code":"8695307","prefecture":"熊本県","prefecture_kana":"クマモトケン","city":"葦北郡芦北町","city_kana":"アシキタグンアシキタマチ","town":"井牟田","town_kana":"イムタ","prefecture_code":43},"5304":{"zip_code":"8695304","prefecture":"熊本県","prefecture_kana":"クマモトケン","city":"葦北郡芦北町","city_kana":"アシキタグンアシキタマチ","town":"海浦","town_kana":"ウミノウラ","prefecture_code":43},"6215":{"zip_code":"8696215","prefecture":"熊本県","prefecture_kana":"クマモトケン","city":"葦北郡芦北町","city_kana":"アシキタグンアシキタマチ","town":"上原","town_kana":"ウワバル","prefecture_code":43},"6211":{"zip_code":"8696211","prefecture":"熊本県","prefecture_kana":"クマモトケン","city":"葦北郡芦北町","city_kana":"アシキタグンアシキタマチ","town":"箙瀬","town_kana":"エビラセ","prefecture_code":43},"6213":{"zip_code":"8696213","prefecture":"熊本県","prefecture_kana":"クマモトケン","city":"葦北郡芦北町","city_kana":"アシキタグンアシキタマチ","town":"大岩","town_kana":"オオイワ","prefecture_code":43},"5574":{"zip_code":"8695574","prefecture":"熊本県","prefecture_kana":"クマモトケン","city":"葦北郡芦北町","city_kana":"アシキタグンアシキタマチ","town":"大川内","town_kana":"オオカワチ","prefecture_code":43},"5422":{"zip_code":"8695422","prefecture":"熊本県","prefecture_kana":"クマモトケン","city":"葦北郡芦北町","city_kana":"アシキタグンアシキタマチ","town":"大尼田","town_kana":"オオニタ","prefecture_code":43},"6305":{"zip_code":"8696305","prefecture":"熊本県","prefecture_kana":"クマモトケン","city":"葦北郡芦北町","city_kana":"アシキタグンアシキタマチ","town":"大野","town_kana":"オオノ","prefecture_code":43},"5431":{"zip_code":"8695431","prefecture":"熊本県","prefecture_kana":"クマモトケン","city":"葦北郡芦北町","city_kana":"アシキタグンアシキタマチ","town":"乙千屋","town_kana":"オトジヤ","prefecture_code":43},"6216":{"zip_code":"8696216","prefecture":"熊本県","prefecture_kana":"クマモトケン","city":"葦北郡芦北町","city_kana":"アシキタグンアシキタマチ","town":"海路","town_kana":"カイジ","prefecture_code":43},"6304":{"zip_code":"8696304","prefecture":"熊本県","prefecture_kana":"クマモトケン","city":"葦北郡芦北町","city_kana":"アシキタグンアシキタマチ","town":"国見","town_kana":"クニミ","prefecture_code":43},"6214":{"zip_code":"8696214","prefecture":"熊本県","prefecture_kana":"クマモトケン","city":"葦北郡芦北町","city_kana":"アシキタグンアシキタマチ","town":"黒岩","town_kana":"クロイワ","prefecture_code":43},"5434":{"zip_code":"8695434","prefecture":"熊本県","prefecture_kana":"クマモトケン","city":"葦北郡芦北町","city_kana":"アシキタグンアシキタマチ","town":"桑原","town_kana":"クワバラ","prefecture_code":43},"5303":{"zip_code":"8695303","prefecture":"熊本県","prefecture_kana":"クマモトケン","city":"葦北郡芦北町","city_kana":"アシキタグンアシキタマチ","town":"小田浦","town_kana":"コダノウラ","prefecture_code":43},"5441":{"zip_code":"8695441","prefecture":"熊本県","prefecture_kana":"クマモトケン","city":"葦北郡芦北町","city_kana":"アシキタグンアシキタマチ","town":"佐敷","town_kana":"サシキ","prefecture_code":43},"6307":{"zip_code":"8696307","prefecture":"熊本県","prefecture_kana":"クマモトケン","city":"葦北郡芦北町","city_kana":"アシキタグンアシキタマチ","town":"塩浸","town_kana":"シオヒタシ","prefecture_code":43},"6302":{"zip_code":"8696302","prefecture":"熊本県","prefecture_kana":"クマモトケン","city":"葦北郡芦北町","city_kana":"アシキタグンアシキタマチ","town":"白石","town_kana":"シライシ","prefecture_code":43},"5452":{"zip_code":"8695452","prefecture":"熊本県","prefecture_kana":"クマモトケン","city":"葦北郡芦北町","city_kana":"アシキタグンアシキタマチ","town":"白岩","town_kana":"シライワ","prefecture_code":43},"6308":{"zip_code":"8696308","prefecture":"熊本県","prefecture_kana":"クマモトケン","city":"葦北郡芦北町","city_kana":"アシキタグンアシキタマチ","town":"白木","town_kana":"シラキ","prefecture_code":43},"5576":{"zip_code":"8695576","prefecture":"熊本県","prefecture_kana":"クマモトケン","city":"葦北郡芦北町","city_kana":"アシキタグンアシキタマチ","town":"高岡","town_kana":"タカオカ","prefecture_code":43},"5443":{"zip_code":"8695443","prefecture":"熊本県","prefecture_kana":"クマモトケン","city":"葦北郡芦北町","city_kana":"アシキタグンアシキタマチ","town":"田川","town_kana":"タガワ","prefecture_code":43},"5421":{"zip_code":"8695421","prefecture":"熊本県","prefecture_kana":"クマモトケン","city":"葦北郡芦北町","city_kana":"アシキタグンアシキタマチ","town":"立川","town_kana":"タチカワ","prefecture_code":43},"5302":{"zip_code":"8695302","prefecture":"熊本県","prefecture_kana":"クマモトケン","city":"葦北郡芦北町","city_kana":"アシキタグンアシキタマチ","town":"田浦","town_kana":"タノウラ","prefecture_code":43},"5305":{"zip_code":"8695305","prefecture":"熊本県","prefecture_kana":"クマモトケン","city":"葦北郡芦北町","city_kana":"アシキタグンアシキタマチ","town":"田浦町","town_kana":"タノウラマチ","prefecture_code":43},"6303":{"zip_code":"8696303","prefecture":"熊本県","prefecture_kana":"クマモトケン","city":"葦北郡芦北町","city_kana":"アシキタグンアシキタマチ","town":"告","town_kana":"ツゲ","prefecture_code":43},"5454":{"zip_code":"8695454","prefecture":"熊本県","prefecture_kana":"クマモトケン","city":"葦北郡芦北町","city_kana":"アシキタグンアシキタマチ","town":"鶴木山","town_kana":"ツルギヤマ","prefecture_code":43},"5571":{"zip_code":"8695571","prefecture":"熊本県","prefecture_kana":"クマモトケン","city":"葦北郡芦北町","city_kana":"アシキタグンアシキタマチ","town":"豊岡","town_kana":"トヨオカ","prefecture_code":43},"5453":{"zip_code":"8695453","prefecture":"熊本県","prefecture_kana":"クマモトケン","city":"葦北郡芦北町","city_kana":"アシキタグンアシキタマチ","town":"計石","town_kana":"ハカリイシ","prefecture_code":43},"5306":{"zip_code":"8695306","prefecture":"熊本県","prefecture_kana":"クマモトケン","city":"葦北郡芦北町","city_kana":"アシキタグンアシキタマチ","town":"波多島","town_kana":"ハタトウ","prefecture_code":43},"5442":{"zip_code":"8695442","prefecture":"熊本県","prefecture_kana":"クマモトケン","city":"葦北郡芦北町","city_kana":"アシキタグンアシキタマチ","town":"花岡","town_kana":"ハナオカ","prefecture_code":43},"5424":{"zip_code":"8695424","prefecture":"熊本県","prefecture_kana":"クマモトケン","city":"葦北郡芦北町","city_kana":"アシキタグンアシキタマチ","town":"伏木氏","town_kana":"フシキ","prefecture_code":43},"5575":{"zip_code":"8695575","prefecture":"熊本県","prefecture_kana":"クマモトケン","city":"葦北郡芦北町","city_kana":"アシキタグンアシキタマチ","town":"古石","town_kana":"フルイシ","prefecture_code":43},"5423":{"zip_code":"8695423","prefecture":"熊本県","prefecture_kana":"クマモトケン","city":"葦北郡芦北町","city_kana":"アシキタグンアシキタマチ","town":"松生","town_kana":"マツバエ","prefecture_code":43},"5572":{"zip_code":"8695572","prefecture":"熊本県","prefecture_kana":"クマモトケン","city":"葦北郡芦北町","city_kana":"アシキタグンアシキタマチ","town":"丸山","town_kana":"マルヤマ","prefecture_code":43},"5451":{"zip_code":"8695451","prefecture":"熊本県","prefecture_kana":"クマモトケン","city":"葦北郡芦北町","city_kana":"アシキタグンアシキタマチ","town":"道川内","town_kana":"ミチガワチ","prefecture_code":43},"5562":{"zip_code":"8695562","prefecture":"熊本県","prefecture_kana":"クマモトケン","city":"葦北郡芦北町","city_kana":"アシキタグンアシキタマチ","town":"宮崎","town_kana":"ミヤザキ","prefecture_code":43},"5432":{"zip_code":"8695432","prefecture":"熊本県","prefecture_kana":"クマモトケン","city":"葦北郡芦北町","city_kana":"アシキタグンアシキタマチ","town":"宮浦","town_kana":"ミヤノウラ","prefecture_code":43},"5564":{"zip_code":"8695564","prefecture":"熊本県","prefecture_kana":"クマモトケン","city":"葦北郡芦北町","city_kana":"アシキタグンアシキタマチ","town":"女島","town_kana":"メシマ","prefecture_code":43},"5433":{"zip_code":"8695433","prefecture":"熊本県","prefecture_kana":"クマモトケン","city":"葦北郡芦北町","city_kana":"アシキタグンアシキタマチ","town":"八幡","town_kana":"ヤハタ","prefecture_code":43},"5563":{"zip_code":"8695563","prefecture":"熊本県","prefecture_kana":"クマモトケン","city":"葦北郡芦北町","city_kana":"アシキタグンアシキタマチ","town":"湯浦","town_kana":"ユノウラ","prefecture_code":43},"5301":{"zip_code":"8695301","prefecture":"熊本県","prefecture_kana":"クマモトケン","city":"葦北郡芦北町","city_kana":"アシキタグンアシキタマチ","town":"横居木","town_kana":"ヨコイギ","prefecture_code":43},"6212":{"zip_code":"8696212","prefecture":"熊本県","prefecture_kana":"クマモトケン","city":"葦北郡芦北町","city_kana":"アシキタグンアシキタマチ","town":"吉尾","town_kana":"ヨシオ","prefecture_code":43},"5573":{"zip_code":"8695573","prefecture":"熊本県","prefecture_kana":"クマモトケン","city":"葦北郡芦北町","city_kana":"アシキタグンアシキタマチ","town":"米田","town_kana":"ヨネダ","prefecture_code":43},"5600":{"zip_code":"8695600","prefecture":"熊本県","prefecture_kana":"クマモトケン","city":"葦北郡津奈木町","city_kana":"アシキタグンツナギマチ","town":"以下に掲載がない場合","town_kana":"イカニケイサイガナイバアイ","prefecture_code":43},"5603":{"zip_code":"8695603","prefecture":"熊本県","prefecture_kana":"クマモトケン","city":"葦北郡津奈木町","city_kana":"アシキタグンツナギマチ","town":"岩城","town_kana":"イワキ","prefecture_code":43},"5604":{"zip_code":"8695604","prefecture":"熊本県","prefecture_kana":"クマモトケン","city":"葦北郡津奈木町","city_kana":"アシキタグンツナギマチ","town":"小津奈木","town_kana":"コツナギ","prefecture_code":43},"5601":{"zip_code":"8695601","prefecture":"熊本県","prefecture_kana":"クマモトケン","city":"葦北郡津奈木町","city_kana":"アシキタグンツナギマチ","town":"千代","town_kana":"チヨ","prefecture_code":43},"5602":{"zip_code":"8695602","prefecture":"熊本県","prefecture_kana":"クマモトケン","city":"葦北郡津奈木町","city_kana":"アシキタグンツナギマチ","town":"津奈木","town_kana":"ツナギ","prefecture_code":43},"5605":{"zip_code":"8695605","prefecture":"熊本県","prefecture_kana":"クマモトケン","city":"葦北郡津奈木町","city_kana":"アシキタグンツナギマチ","town":"福浜","town_kana":"フクハマ","prefecture_code":43},"6400":{"zip_code":"8696400","prefecture":"熊本県","prefecture_kana":"クマモトケン","city":"球磨郡球磨村","city_kana":"クマグンクマムラ","town":"以下に掲載がない場合","town_kana":"イカニケイサイガナイバアイ","prefecture_code":43},"6403":{"zip_code":"8696403","prefecture":"熊本県","prefecture_kana":"クマモトケン","city":"球磨郡球磨村","city_kana":"クマグンクマムラ","town":"一勝地","town_kana":"イッショウチ","prefecture_code":43},"6405":{"zip_code":"8696405","prefecture":"熊本県","prefecture_kana":"クマモトケン","city":"球磨郡球磨村","city_kana":"クマグンクマムラ","town":"大瀬（沢見）","town_kana":"オオセ(サワミ)","prefecture_code":43},"6205":{"zip_code":"8696205","prefecture":"熊本県","prefecture_kana":"クマモトケン","city":"球磨郡球磨村","city_kana":"クマグンクマムラ","town":"大瀬（その他）","town_kana":"オオセ(ソノタ)","prefecture_code":43},"6404":{"zip_code":"8696404","prefecture":"熊本県","prefecture_kana":"クマモトケン","city":"球磨郡球磨村","city_kana":"クマグンクマムラ","town":"神瀬（大槻、蔵谷、坂口、高沢、横井）","town_kana":"コウノセ(オオツキ、クラタニ、サカグチ、タカザワ、ヨコイ)","prefecture_code":43},"6204":{"zip_code":"8696204","prefecture":"熊本県","prefecture_kana":"クマモトケン","city":"球磨郡球磨村","city_kana":"クマグンクマムラ","town":"神瀬（その他）","town_kana":"コウノセ(ソノタ)","prefecture_code":43},"6402":{"zip_code":"8696402","prefecture":"熊本県","prefecture_kana":"クマモトケン","city":"球磨郡球磨村","city_kana":"クマグンクマムラ","town":"三ケ浦","town_kana":"サンガウラ","prefecture_code":43},"6401":{"zip_code":"8696401","prefecture":"熊本県","prefecture_kana":"クマモトケン","city":"球磨郡球磨村","city_kana":"クマグンクマムラ","town":"渡","town_kana":"ワタリ","prefecture_code":43}}