{"0100":{"zip_code":"8700100","prefecture":"大分県","prefecture_kana":"オオイタケン","city":"大分市","city_kana":"オオイタシ","town":"以下に掲載がない場合","town_kana":"イカニケイサイガナイバアイ","prefecture_code":44},"0278":{"zip_code":"8700278","prefecture":"大分県","prefecture_kana":"オオイタケン","city":"大分市","city_kana":"オオイタシ","town":"青崎","town_kana":"アオサキ","prefecture_code":44},"0875":{"zip_code":"8700875","prefecture":"大分県","prefecture_kana":"オオイタケン","city":"大分市","city_kana":"オオイタシ","town":"青葉台","town_kana":"アオバダイ","prefecture_code":44},"0908":{"zip_code":"8700908","prefecture":"大分県","prefecture_kana":"オオイタケン","city":"大分市","city_kana":"オオイタシ","town":"青葉町","town_kana":"アオバマチ","prefecture_code":44},"0317":{"zip_code":"8700317","prefecture":"大分県","prefecture_kana":"オオイタケン","city":"大分市","city_kana":"オオイタシ","town":"丹川","town_kana":"アカガワ","prefecture_code":44},"0857":{"zip_code":"8700857","prefecture":"大分県","prefecture_kana":"オオイタケン","city":"大分市","city_kana":"オオイタシ","town":"明磧","town_kana":"アケガワラ","prefecture_code":44},"0162":{"zip_code":"8700162","prefecture":"大分県","prefecture_kana":"オオイタケン","city":"大分市","city_kana":"オオイタシ","town":"明野高尾","town_kana":"アケノタカオ","prefecture_code":44},"0161":{"zip_code":"8700161","prefecture":"大分県","prefecture_kana":"オオイタケン","city":"大分市","city_kana":"オオイタシ","town":"明野東","town_kana":"アケノヒガシ","prefecture_code":44},"0164":{"zip_code":"8700164","prefecture":"大分県","prefecture_kana":"オオイタケン","city":"大分市","city_kana":"オオイタシ","town":"明野西","town_kana":"アケノニシ","prefecture_code":44},"0163":{"zip_code":"8700163","prefecture":"大分県","prefecture_kana":"オオイタケン","city":"大分市","city_kana":"オオイタシ","town":"明野南","town_kana":"アケノミナミ","prefecture_code":44},"0165":{"zip_code":"8700165","prefecture":"大分県","prefecture_kana":"オオイタケン","city":"大分市","city_kana":"オオイタシ","town":"明野北","town_kana":"アケノキタ","prefecture_code":44},"0166":{"zip_code":"8700166","prefecture":"大分県","prefecture_kana":"オオイタケン","city":"大分市","city_kana":"オオイタシ","town":"明野北町","town_kana":"アケノキタマチ","prefecture_code":44},"0167":{"zip_code":"8700167","prefecture":"大分県","prefecture_kana":"オオイタケン","city":"大分市","city_kana":"オオイタシ","town":"明野紅陽台","town_kana":"アケノコウヨウダイ","prefecture_code":44},"0168":{"zip_code":"8700168","prefecture":"大分県","prefecture_kana":"オオイタケン","city":"大分市","city_kana":"オオイタシ","town":"明野ハイツ","town_kana":"アケノハイツ","prefecture_code":44},"0273":{"zip_code":"8700273","prefecture":"大分県","prefecture_kana":"オオイタケン","city":"大分市","city_kana":"オオイタシ","town":"曙台","town_kana":"アケボノダイ","prefecture_code":44},"0884":{"zip_code":"8700884","prefecture":"大分県","prefecture_kana":"オオイタケン","city":"大分市","city_kana":"オオイタシ","town":"旭町","town_kana":"アサヒマチ","prefecture_code":44},"0014":{"zip_code":"8700014","prefecture":"大分県","prefecture_kana":"オオイタケン","city":"大分市","city_kana":"オオイタシ","town":"芦崎","town_kana":"アシザキ","prefecture_code":44},"0858":{"zip_code":"8700858","prefecture":"大分県","prefecture_kana":"オオイタケン","city":"大分市","city_kana":"オオイタシ","town":"尼ケ瀬","town_kana":"アマガセ","prefecture_code":44},"0113":{"zip_code":"8700113","prefecture":"大分県","prefecture_kana":"オオイタケン","city":"大分市","city_kana":"オオイタシ","town":"家島","town_kana":"イエジマ","prefecture_code":44},"0003":{"zip_code":"8700003","prefecture":"大分県","prefecture_kana":"オオイタケン","city":"大分市","city_kana":"オオイタシ","town":"生石","town_kana":"イクシ","prefecture_code":44},"0001":{"zip_code":"8700001","prefecture":"大分県","prefecture_kana":"オオイタケン","city":"大分市","city_kana":"オオイタシ","town":"生石港町","town_kana":"イクシミナトマチ","prefecture_code":44},"0041":{"zip_code":"8700041","prefecture":"大分県","prefecture_kana":"オオイタケン","city":"大分市","city_kana":"オオイタシ","town":"泉町","town_kana":"イズミマチ","prefecture_code":44},"1151":{"zip_code":"8701151","prefecture":"大分県","prefecture_kana":"オオイタケン","city":"大分市","city_kana":"オオイタシ","town":"市","town_kana":"イチ","prefecture_code":44},"0316":{"zip_code":"8700316","prefecture":"大分県","prefecture_kana":"オオイタケン","city":"大分市","city_kana":"オオイタシ","town":"一木","town_kana":"イチギ","prefecture_code":44},"0312":{"zip_code":"8700312","prefecture":"大分県","prefecture_kana":"オオイタケン","city":"大分市","city_kana":"オオイタシ","town":"市尾","town_kana":"イチノオ","prefecture_code":44},"0112":{"zip_code":"8700112","prefecture":"大分県","prefecture_kana":"オオイタケン","city":"大分市","city_kana":"オオイタシ","town":"一の洲","town_kana":"イチノス","prefecture_code":44},"0134":{"zip_code":"8700134","prefecture":"大分県","prefecture_kana":"オオイタケン","city":"大分市","city_kana":"オオイタシ","town":"猪野","town_kana":"イノ","prefecture_code":44},"1223":{"zip_code":"8701223","prefecture":"大分県","prefecture_kana":"オオイタケン","city":"大分市","city_kana":"オオイタシ","town":"今市","town_kana":"イマイチ","prefecture_code":44},"0938":{"zip_code":"8700938","prefecture":"大分県","prefecture_kana":"オオイタケン","city":"大分市","city_kana":"オオイタシ","town":"今津留","town_kana":"イマヅル","prefecture_code":44},"1202":{"zip_code":"8701202","prefecture":"大分県","prefecture_kana":"オオイタケン","city":"大分市","city_kana":"オオイタシ","town":"入蔵","town_kana":"イリクラ","prefecture_code":44},"0936":{"zip_code":"8700936","prefecture":"大分県","prefecture_kana":"オオイタケン","city":"大分市","city_kana":"オオイタシ","town":"岩田町","town_kana":"イワタマチ","prefecture_code":44},"0886":{"zip_code":"8700886","prefecture":"大分県","prefecture_kana":"オオイタケン","city":"大分市","city_kana":"オオイタシ","town":"上田町","town_kana":"ウエダマチ","prefecture_code":44},"0836":{"zip_code":"8700836","prefecture":"大分県","prefecture_kana":"オオイタケン","city":"大分市","city_kana":"オオイタシ","town":"上野南","town_kana":"ウエノミナミ","prefecture_code":44},"0835":{"zip_code":"8700835","prefecture":"大分県","prefecture_kana":"オオイタケン","city":"大分市","city_kana":"オオイタシ","town":"上野丘","town_kana":"ウエノガオカ","prefecture_code":44},"0833":{"zip_code":"8700833","prefecture":"大分県","prefecture_kana":"オオイタケン","city":"大分市","city_kana":"オオイタシ","town":"上野丘東","town_kana":"ウエノガオカヒガシ","prefecture_code":44},"0834":{"zip_code":"8700834","prefecture":"大分県","prefecture_kana":"オオイタケン","city":"大分市","city_kana":"オオイタシ","town":"上野丘西","town_kana":"ウエノガオカニシ","prefecture_code":44},"0832":{"zip_code":"8700832","prefecture":"大分県","prefecture_kana":"オオイタケン","city":"大分市","city_kana":"オオイタシ","town":"上野町","town_kana":"ウエノマチ","prefecture_code":44},"0956":{"zip_code":"8700956","prefecture":"大分県","prefecture_kana":"オオイタケン","city":"大分市","city_kana":"オオイタシ","town":"裏川団地","town_kana":"ウラカワダンチ","prefecture_code":44},"0889":{"zip_code":"8700889","prefecture":"大分県","prefecture_kana":"オオイタケン","city":"大分市","city_kana":"オオイタシ","town":"荏隈","town_kana":"エノクマ","prefecture_code":44},"0322":{"zip_code":"8700322","prefecture":"大分県","prefecture_kana":"オオイタケン","city":"大分市","city_kana":"オオイタシ","town":"恵比寿町","town_kana":"エビスマチ","prefecture_code":44},"0819":{"zip_code":"8700819","prefecture":"大分県","prefecture_kana":"オオイタケン","city":"大分市","city_kana":"オオイタシ","town":"王子新町","town_kana":"オウジシンマチ","prefecture_code":44},"0006":{"zip_code":"8700006","prefecture":"大分県","prefecture_kana":"オオイタケン","city":"大分市","city_kana":"オオイタシ","town":"王子中町","town_kana":"オウジナカマチ","prefecture_code":44},"0004":{"zip_code":"8700004","prefecture":"大分県","prefecture_kana":"オオイタケン","city":"大分市","city_kana":"オオイタシ","town":"王子港町","town_kana":"オウジミナトマチ","prefecture_code":44},"0008":{"zip_code":"8700008","prefecture":"大分県","prefecture_kana":"オオイタケン","city":"大分市","city_kana":"オオイタシ","town":"王子西町","town_kana":"オウジニシマチ","prefecture_code":44},"0007":{"zip_code":"8700007","prefecture":"大分県","prefecture_kana":"オオイタケン","city":"大分市","city_kana":"オオイタシ","town":"王子南町","town_kana":"オウジミナミマチ","prefecture_code":44},"0005":{"zip_code":"8700005","prefecture":"大分県","prefecture_kana":"オオイタケン","city":"大分市","city_kana":"オオイタシ","town":"王子北町","town_kana":"オウジキタマチ","prefecture_code":44},"0813":{"zip_code":"8700813","prefecture":"大分県","prefecture_kana":"オオイタケン","city":"大分市","city_kana":"オオイタシ","town":"王子山の手町","town_kana":"オウジヤマノテマチ","prefecture_code":44},"0009":{"zip_code":"8700009","prefecture":"大分県","prefecture_kana":"オオイタケン","city":"大分市","city_kana":"オオイタシ","town":"王子町","town_kana":"オウジマチ","prefecture_code":44},"0321":{"zip_code":"8700321","prefecture":"大分県","prefecture_kana":"オオイタケン","city":"大分市","city_kana":"オオイタシ","town":"王ノ瀬","town_kana":"オウノセ","prefecture_code":44},"0851":{"zip_code":"8700851","prefecture":"大分県","prefecture_kana":"オオイタケン","city":"大分市","city_kana":"オオイタシ","town":"大石町","town_kana":"オオイシマチ","prefecture_code":44},"0319":{"zip_code":"8700319","prefecture":"大分県","prefecture_kana":"オオイタケン","city":"大分市","city_kana":"オオイタシ","town":"大分流通業務団地","town_kana":"オオイタリュウツウギョウムダンチ","prefecture_code":44},"0806":{"zip_code":"8700806","prefecture":"大分県","prefecture_kana":"オオイタケン","city":"大分市","city_kana":"オオイタシ","town":"大久保","town_kana":"オオクボ","prefecture_code":44},"0266":{"zip_code":"8700266","prefecture":"大分県","prefecture_kana":"オオイタケン","city":"大分市","city_kana":"オオイタシ","town":"大在","town_kana":"オオザイ","prefecture_code":44},"0245":{"zip_code":"8700245","prefecture":"大分県","prefecture_kana":"オオイタケン","city":"大分市","city_kana":"オオイタシ","town":"大在北","town_kana":"オオザイキタ","prefecture_code":44},"0251":{"zip_code":"8700251","prefecture":"大分県","prefecture_kana":"オオイタケン","city":"大分市","city_kana":"オオイタシ","town":"大在中央","town_kana":"オオザイチュウオウ","prefecture_code":44},"0252":{"zip_code":"8700252","prefecture":"大分県","prefecture_kana":"オオイタケン","city":"大分市","city_kana":"オオイタシ","town":"大在浜","town_kana":"オオザイハマ","prefecture_code":44},"0906":{"zip_code":"8700906","prefecture":"大分県","prefecture_kana":"オオイタケン","city":"大分市","city_kana":"オオイタシ","town":"大州浜","town_kana":"オオスハマ","prefecture_code":44},"1125":{"zip_code":"8701125","prefecture":"大分県","prefecture_kana":"オオイタケン","city":"大分市","city_kana":"オオイタシ","town":"大園団地","town_kana":"オオゾノダンチ","prefecture_code":44},"1214":{"zip_code":"8701214","prefecture":"大分県","prefecture_kana":"オオイタケン","city":"大分市","city_kana":"オオイタシ","town":"太田","town_kana":"オオタ","prefecture_code":44},"0907":{"zip_code":"8700907","prefecture":"大分県","prefecture_kana":"オオイタケン","city":"大分市","city_kana":"オオイタシ","town":"大津町","town_kana":"オオツマチ","prefecture_code":44},"0123":{"zip_code":"8700123","prefecture":"大分県","prefecture_kana":"オオイタケン","city":"大分市","city_kana":"オオイタシ","town":"大津留","town_kana":"オオツル","prefecture_code":44},"0022":{"zip_code":"8700022","prefecture":"大分県","prefecture_kana":"オオイタケン","city":"大分市","city_kana":"オオイタシ","town":"大手町","town_kana":"オオテマチ","prefecture_code":44},"0822":{"zip_code":"8700822","prefecture":"大分県","prefecture_kana":"オオイタケン","city":"大分市","city_kana":"オオイタシ","town":"大道町","town_kana":"オオミチマチ","prefecture_code":44},"0158":{"zip_code":"8700158","prefecture":"大分県","prefecture_kana":"オオイタケン","city":"大分市","city_kana":"オオイタシ","town":"岡","town_kana":"オカ","prefecture_code":44},"1131":{"zip_code":"8701131","prefecture":"大分県","prefecture_kana":"オオイタケン","city":"大分市","city_kana":"オオイタシ","town":"岡川","town_kana":"オカガワ","prefecture_code":44},"0159":{"zip_code":"8700159","prefecture":"大分県","prefecture_kana":"オオイタケン","city":"大分市","city_kana":"オオイタシ","town":"岡新町","town_kana":"オカシンマチ","prefecture_code":44},"1164":{"zip_code":"8701164","prefecture":"大分県","prefecture_kana":"オオイタケン","city":"大分市","city_kana":"オオイタシ","town":"雄城台住宅地","town_kana":"オギノダイジュウタクチ","prefecture_code":44},"1165":{"zip_code":"8701165","prefecture":"大分県","prefecture_kana":"オオイタケン","city":"大分市","city_kana":"オオイタシ","town":"雄城台団地","town_kana":"オギノダイダンチ","prefecture_code":44},"1121":{"zip_code":"8701121","prefecture":"大分県","prefecture_kana":"オオイタケン","city":"大分市","city_kana":"オオイタシ","town":"鴛野","town_kana":"オシノ","prefecture_code":44},"0144":{"zip_code":"8700144","prefecture":"大分県","prefecture_kana":"オオイタケン","city":"大分市","city_kana":"オオイタシ","town":"乙津","town_kana":"オトヅ","prefecture_code":44},"0145":{"zip_code":"8700145","prefecture":"大分県","prefecture_kana":"オオイタケン","city":"大分市","city_kana":"オオイタシ","town":"乙津町","town_kana":"オトヅマチ","prefecture_code":44},"0146":{"zip_code":"8700146","prefecture":"大分県","prefecture_kana":"オオイタケン","city":"大分市","city_kana":"オオイタシ","town":"乙津港町","town_kana":"オトヅミナトマチ","prefecture_code":44},"0114":{"zip_code":"8700114","prefecture":"大分県","prefecture_kana":"オオイタケン","city":"大分市","city_kana":"オオイタシ","town":"小中島","town_kana":"オナカシマ","prefecture_code":44},"1171":{"zip_code":"8701171","prefecture":"大分県","prefecture_kana":"オオイタケン","city":"大分市","city_kana":"オオイタシ","town":"鬼崎","town_kana":"オニザキ","prefecture_code":44},"1153":{"zip_code":"8701153","prefecture":"大分県","prefecture_kana":"オオイタケン","city":"大分市","city_kana":"オオイタシ","town":"小野鶴","town_kana":"オノヅル","prefecture_code":44},"1156":{"zip_code":"8701156","prefecture":"大分県","prefecture_kana":"オオイタケン","city":"大分市","city_kana":"オオイタシ","town":"小野鶴新町","town_kana":"オノツルシンマチ","prefecture_code":44},"1150":{"zip_code":"8701150","prefecture":"大分県","prefecture_kana":"オオイタケン","city":"大分市","city_kana":"オオイタシ","town":"小野鶴南","town_kana":"オノツルミナミ","prefecture_code":44},"0107":{"zip_code":"8700107","prefecture":"大分県","prefecture_kana":"オオイタケン","city":"大分市","city_kana":"オオイタシ","town":"海原","town_kana":"カイワラ","prefecture_code":44},"0877":{"zip_code":"8700877","prefecture":"大分県","prefecture_kana":"オオイタケン","city":"大分市","city_kana":"オオイタシ","town":"賀来","town_kana":"カク","prefecture_code":44},"0848":{"zip_code":"8700848","prefecture":"大分県","prefecture_kana":"オオイタケン","city":"大分市","city_kana":"オオイタシ","town":"賀来北","town_kana":"カクキタ","prefecture_code":44},"0850":{"zip_code":"8700850","prefecture":"大分県","prefecture_kana":"オオイタケン","city":"大分市","city_kana":"オオイタシ","town":"賀来西","town_kana":"カクニシ","prefecture_code":44},"0849":{"zip_code":"8700849","prefecture":"大分県","prefecture_kana":"オオイタケン","city":"大分市","city_kana":"オオイタシ","town":"賀来南","town_kana":"カクミナミ","prefecture_code":44},"0011":{"zip_code":"8700011","prefecture":"大分県","prefecture_kana":"オオイタケン","city":"大分市","city_kana":"オオイタシ","town":"春日浦","town_kana":"カスガウラ","prefecture_code":44},"0943":{"zip_code":"8700943","prefecture":"大分県","prefecture_kana":"オオイタケン","city":"大分市","city_kana":"オオイタシ","town":"片島","town_kana":"カタシマ","prefecture_code":44},"0949":{"zip_code":"8700949","prefecture":"大分県","prefecture_kana":"オオイタケン","city":"大分市","city_kana":"オオイタシ","town":"かたしま台","town_kana":"カタシマダイ","prefecture_code":44},"0133":{"zip_code":"8700133","prefecture":"大分県","prefecture_kana":"オオイタケン","city":"大分市","city_kana":"オオイタシ","town":"葛木","town_kana":"カツラギ","prefecture_code":44},"0026":{"zip_code":"8700026","prefecture":"大分県","prefecture_kana":"オオイタケン","city":"大分市","city_kana":"オオイタシ","town":"金池町","town_kana":"カナイケマチ","prefecture_code":44},"0839":{"zip_code":"8700839","prefecture":"大分県","prefecture_kana":"オオイタケン","city":"大分市","city_kana":"オオイタシ","town":"金池南","town_kana":"カナイケミナミ","prefecture_code":44},"0831":{"zip_code":"8700831","prefecture":"大分県","prefecture_kana":"オオイタケン","city":"大分市","city_kana":"オオイタシ","town":"要町","town_kana":"カナメマチ","prefecture_code":44},"0879":{"zip_code":"8700879","prefecture":"大分県","prefecture_kana":"オオイタケン","city":"大分市","city_kana":"オオイタシ","town":"金谷迫","town_kana":"カナヤザコ","prefecture_code":44},"0926":{"zip_code":"8700926","prefecture":"大分県","prefecture_kana":"オオイタケン","city":"大分市","city_kana":"オオイタシ","town":"加納","town_kana":"カノウ","prefecture_code":44},"0817":{"zip_code":"8700817","prefecture":"大分県","prefecture_kana":"オオイタケン","city":"大分市","city_kana":"オオイタシ","town":"上春日町","town_kana":"カミカスガマチ","prefecture_code":44},"0805":{"zip_code":"8700805","prefecture":"大分県","prefecture_kana":"オオイタケン","city":"大分市","city_kana":"オオイタシ","town":"上白木","town_kana":"カミシラキ","prefecture_code":44},"1215":{"zip_code":"8701215","prefecture":"大分県","prefecture_kana":"オオイタケン","city":"大分市","city_kana":"オオイタシ","town":"上詰","town_kana":"カミツメ","prefecture_code":44},"1111":{"zip_code":"8701111","prefecture":"大分県","prefecture_kana":"オオイタケン","city":"大分市","city_kana":"オオイタシ","town":"上判田","town_kana":"カミハンダ","prefecture_code":44},"1152":{"zip_code":"8701152","prefecture":"大分県","prefecture_kana":"オオイタケン","city":"大分市","city_kana":"オオイタシ","town":"上宗方","town_kana":"カミムナカタ","prefecture_code":44},"0808":{"zip_code":"8700808","prefecture":"大分県","prefecture_kana":"オオイタケン","city":"大分市","city_kana":"オオイタシ","town":"上八幡","town_kana":"カミヤハタ","prefecture_code":44},"0927":{"zip_code":"8700927","prefecture":"大分県","prefecture_kana":"オオイタケン","city":"大分市","city_kana":"オオイタシ","town":"北下郡","town_kana":"キタシモゴオリ","prefecture_code":44},"0102":{"zip_code":"8700102","prefecture":"大分県","prefecture_kana":"オオイタケン","city":"大分市","city_kana":"オオイタシ","town":"北鶴崎","town_kana":"キタツルサキ","prefecture_code":44},"0311":{"zip_code":"8700311","prefecture":"大分県","prefecture_kana":"オオイタケン","city":"大分市","city_kana":"オオイタシ","town":"木田","town_kana":"キダ","prefecture_code":44},"0809":{"zip_code":"8700809","prefecture":"大分県","prefecture_kana":"オオイタケン","city":"大分市","city_kana":"オオイタシ","town":"机張原","town_kana":"キチョウバル","prefecture_code":44},"1161":{"zip_code":"8701161","prefecture":"大分県","prefecture_kana":"オオイタケン","city":"大分市","city_kana":"オオイタシ","town":"木上","town_kana":"キノウエ","prefecture_code":44},"0870":{"zip_code":"8700870","prefecture":"大分県","prefecture_kana":"オオイタケン","city":"大分市","city_kana":"オオイタシ","town":"季の坂","town_kana":"キノサカ","prefecture_code":44},"0959":{"zip_code":"8700959","prefecture":"大分県","prefecture_kana":"オオイタケン","city":"大分市","city_kana":"オオイタシ","town":"希望が丘","town_kana":"キボウガオカ","prefecture_code":44},"0129":{"zip_code":"8700129","prefecture":"大分県","prefecture_kana":"オオイタケン","city":"大分市","city_kana":"オオイタシ","town":"京が丘南","town_kana":"キョウガオカミナミ","prefecture_code":44},"1162":{"zip_code":"8701162","prefecture":"大分県","prefecture_kana":"オオイタケン","city":"大分市","city_kana":"オオイタシ","town":"口戸","town_kana":"クチド","prefecture_code":44},"0314":{"zip_code":"8700314","prefecture":"大分県","prefecture_kana":"オオイタケン","city":"大分市","city_kana":"オオイタシ","town":"久土","town_kana":"クド","prefecture_code":44},"0304":{"zip_code":"8700304","prefecture":"大分県","prefecture_kana":"オオイタケン","city":"大分市","city_kana":"オオイタシ","town":"久原","town_kana":"クバル","prefecture_code":44},"0324":{"zip_code":"8700324","prefecture":"大分県","prefecture_kana":"オオイタケン","city":"大分市","city_kana":"オオイタシ","town":"久原北","town_kana":"クバルキタ","prefecture_code":44},"0325":{"zip_code":"8700325","prefecture":"大分県","prefecture_kana":"オオイタケン","city":"大分市","city_kana":"オオイタシ","town":"久原中央","town_kana":"クバルチュウオウ","prefecture_code":44},"0326":{"zip_code":"8700326","prefecture":"大分県","prefecture_kana":"オオイタケン","city":"大分市","city_kana":"オオイタシ","town":"久原南","town_kana":"クバルミナミ","prefecture_code":44},"0124":{"zip_code":"8700124","prefecture":"大分県","prefecture_kana":"オオイタケン","city":"大分市","city_kana":"オオイタシ","town":"毛井","town_kana":"ケイ","prefecture_code":44},"0025":{"zip_code":"8700025","prefecture":"大分県","prefecture_kana":"オオイタケン","city":"大分市","city_kana":"オオイタシ","town":"顕徳町","town_kana":"ケントクマチ","prefecture_code":44},"0147":{"zip_code":"8700147","prefecture":"大分県","prefecture_kana":"オオイタケン","city":"大分市","city_kana":"オオイタシ","town":"小池原","town_kana":"コイケバル","prefecture_code":44},"0173":{"zip_code":"8700173","prefecture":"大分県","prefecture_kana":"オオイタケン","city":"大分市","city_kana":"オオイタシ","town":"公園通り","town_kana":"コウエンドオリ","prefecture_code":44},"0174":{"zip_code":"8700174","prefecture":"大分県","prefecture_kana":"オオイタケン","city":"大分市","city_kana":"オオイタシ","town":"公園通り西","town_kana":"コウエンドオリニシ","prefecture_code":44},"0935":{"zip_code":"8700935","prefecture":"大分県","prefecture_kana":"オオイタケン","city":"大分市","city_kana":"オオイタシ","town":"古ケ鶴","town_kana":"コガヅル","prefecture_code":44},"0864":{"zip_code":"8700864","prefecture":"大分県","prefecture_kana":"オオイタケン","city":"大分市","city_kana":"オオイタシ","town":"国分","town_kana":"コクブ","prefecture_code":44},"0869":{"zip_code":"8700869","prefecture":"大分県","prefecture_kana":"オオイタケン","city":"大分市","city_kana":"オオイタシ","town":"国分新町","town_kana":"コクブシンマチ","prefecture_code":44},"0863":{"zip_code":"8700863","prefecture":"大分県","prefecture_kana":"オオイタケン","city":"大分市","city_kana":"オオイタシ","town":"国分台","town_kana":"コクブダイ","prefecture_code":44},"0865":{"zip_code":"8700865","prefecture":"大分県","prefecture_kana":"オオイタケン","city":"大分市","city_kana":"オオイタシ","town":"国分団地","town_kana":"コクブダンチ","prefecture_code":44},"0327":{"zip_code":"8700327","prefecture":"大分県","prefecture_kana":"オオイタケン","city":"大分市","city_kana":"オオイタシ","town":"小佐井","town_kana":"コザイ","prefecture_code":44},"0036":{"zip_code":"8700036","prefecture":"大分県","prefecture_kana":"オオイタケン","city":"大分市","city_kana":"オオイタシ","town":"寿町","town_kana":"コトブキマチ","prefecture_code":44},"1134":{"zip_code":"8701134","prefecture":"大分県","prefecture_kana":"オオイタケン","city":"大分市","city_kana":"オオイタシ","town":"小原団地","town_kana":"コバルダンチ","prefecture_code":44},"0302":{"zip_code":"8700302","prefecture":"大分県","prefecture_kana":"オオイタケン","city":"大分市","city_kana":"オオイタシ","town":"坂ノ市","town_kana":"サカノイチ","prefecture_code":44},"0307":{"zip_code":"8700307","prefecture":"大分県","prefecture_kana":"オオイタケン","city":"大分市","city_kana":"オオイタシ","town":"坂ノ市中央","town_kana":"サカノイチチュウオウ","prefecture_code":44},"0309":{"zip_code":"8700309","prefecture":"大分県","prefecture_kana":"オオイタケン","city":"大分市","city_kana":"オオイタシ","town":"坂ノ市西","town_kana":"サカノイチニシ","prefecture_code":44},"0308":{"zip_code":"8700308","prefecture":"大分県","prefecture_kana":"オオイタケン","city":"大分市","city_kana":"オオイタシ","town":"坂ノ市南","town_kana":"サカノイチミナミ","prefecture_code":44},"0838":{"zip_code":"8700838","prefecture":"大分県","prefecture_kana":"オオイタケン","city":"大分市","city_kana":"オオイタシ","town":"桜ケ丘","town_kana":"サクラガオカ","prefecture_code":44},"0272":{"zip_code":"8700272","prefecture":"大分県","prefecture_kana":"オオイタケン","city":"大分市","city_kana":"オオイタシ","town":"迫","town_kana":"サコ","prefecture_code":44},"0303":{"zip_code":"8700303","prefecture":"大分県","prefecture_kana":"オオイタケン","city":"大分市","city_kana":"オオイタシ","town":"里","town_kana":"サト","prefecture_code":44},"0315":{"zip_code":"8700315","prefecture":"大分県","prefecture_kana":"オオイタケン","city":"大分市","city_kana":"オオイタシ","town":"佐野","town_kana":"サノ","prefecture_code":44},"1212":{"zip_code":"8701212","prefecture":"大分県","prefecture_kana":"オオイタケン","city":"大分市","city_kana":"オオイタシ","town":"沢田","town_kana":"サワタ","prefecture_code":44},"1120":{"zip_code":"8701120","prefecture":"大分県","prefecture_kana":"オオイタケン","city":"大分市","city_kana":"オオイタシ","town":"サンシャインしきど","town_kana":"サンシャインシキド","prefecture_code":44},"0829":{"zip_code":"8700829","prefecture":"大分県","prefecture_kana":"オオイタケン","city":"大分市","city_kana":"オオイタシ","town":"椎迫","town_kana":"シイザコ","prefecture_code":44},"0253":{"zip_code":"8700253","prefecture":"大分県","prefecture_kana":"オオイタケン","city":"大分市","city_kana":"オオイタシ","town":"汐見","town_kana":"シオミ","prefecture_code":44},"1122":{"zip_code":"8701122","prefecture":"大分県","prefecture_kana":"オオイタケン","city":"大分市","city_kana":"オオイタシ","town":"敷戸","town_kana":"シキド","prefecture_code":44},"1107":{"zip_code":"8701107","prefecture":"大分県","prefecture_kana":"オオイタケン","city":"大分市","city_kana":"オオイタシ","town":"敷戸駅北町","town_kana":"シキドエキキタマチ","prefecture_code":44},"1102":{"zip_code":"8701102","prefecture":"大分県","prefecture_kana":"オオイタケン","city":"大分市","city_kana":"オオイタシ","town":"敷戸新町","town_kana":"シキドシンマチ","prefecture_code":44},"1106":{"zip_code":"8701106","prefecture":"大分県","prefecture_kana":"オオイタケン","city":"大分市","city_kana":"オオイタシ","town":"敷戸台","town_kana":"シキドダイ","prefecture_code":44},"1104":{"zip_code":"8701104","prefecture":"大分県","prefecture_kana":"オオイタケン","city":"大分市","city_kana":"オオイタシ","town":"敷戸東町","town_kana":"シキドヒガシマチ","prefecture_code":44},"1103":{"zip_code":"8701103","prefecture":"大分県","prefecture_kana":"オオイタケン","city":"大分市","city_kana":"オオイタシ","town":"敷戸西町","town_kana":"シキドニシマチ","prefecture_code":44},"1105":{"zip_code":"8701105","prefecture":"大分県","prefecture_kana":"オオイタケン","city":"大分市","city_kana":"オオイタシ","town":"敷戸南町","town_kana":"シキドミナミマチ","prefecture_code":44},"1101":{"zip_code":"8701101","prefecture":"大分県","prefecture_kana":"オオイタケン","city":"大分市","city_kana":"オオイタシ","town":"敷戸北町","town_kana":"シキドキタマチ","prefecture_code":44},"0821":{"zip_code":"8700821","prefecture":"大分県","prefecture_kana":"オオイタケン","city":"大分市","city_kana":"オオイタシ","town":"志手","town_kana":"シテ","prefecture_code":44},"0261":{"zip_code":"8700261","prefecture":"大分県","prefecture_kana":"オオイタケン","city":"大分市","city_kana":"オオイタシ","town":"志村","town_kana":"シムラ","prefecture_code":44},"0952":{"zip_code":"8700952","prefecture":"大分県","prefecture_kana":"オオイタケン","city":"大分市","city_kana":"オオイタシ","town":"下郡北","town_kana":"シモゴウリキタ","prefecture_code":44},"0954":{"zip_code":"8700954","prefecture":"大分県","prefecture_kana":"オオイタケン","city":"大分市","city_kana":"オオイタシ","town":"下郡中央","town_kana":"シモゴウリチュウオウ","prefecture_code":44},"0953":{"zip_code":"8700953","prefecture":"大分県","prefecture_kana":"オオイタケン","city":"大分市","city_kana":"オオイタシ","town":"下郡東","town_kana":"シモゴウリヒガシ","prefecture_code":44},"0955":{"zip_code":"8700955","prefecture":"大分県","prefecture_kana":"オオイタケン","city":"大分市","city_kana":"オオイタシ","town":"下郡南","town_kana":"シモゴウリミナミ","prefecture_code":44},"0951":{"zip_code":"8700951","prefecture":"大分県","prefecture_kana":"オオイタケン","city":"大分市","city_kana":"オオイタシ","town":"下郡","town_kana":"シモゴオリ","prefecture_code":44},"0941":{"zip_code":"8700941","prefecture":"大分県","prefecture_kana":"オオイタケン","city":"大分市","city_kana":"オオイタシ","town":"下郡工業団地","town_kana":"シモゴオリコウギョウダンチ","prefecture_code":44},"0803":{"zip_code":"8700803","prefecture":"大分県","prefecture_kana":"オオイタケン","city":"大分市","city_kana":"オオイタシ","town":"下白木","town_kana":"シモシラキ","prefecture_code":44},"0118":{"zip_code":"8700118","prefecture":"大分県","prefecture_kana":"オオイタケン","city":"大分市","city_kana":"オオイタシ","town":"下徳丸","town_kana":"シモトクマル","prefecture_code":44},"1213":{"zip_code":"8701213","prefecture":"大分県","prefecture_kana":"オオイタケン","city":"大分市","city_kana":"オオイタシ","town":"下原","town_kana":"シモハラ","prefecture_code":44},"1112":{"zip_code":"8701112","prefecture":"大分県","prefecture_kana":"オオイタケン","city":"大分市","city_kana":"オオイタシ","town":"下判田","town_kana":"シモハンダ","prefecture_code":44},"1141":{"zip_code":"8701141","prefecture":"大分県","prefecture_kana":"オオイタケン","city":"大分市","city_kana":"オオイタシ","town":"下宗方","town_kana":"シモムナカタ","prefecture_code":44},"0807":{"zip_code":"8700807","prefecture":"大分県","prefecture_kana":"オオイタケン","city":"大分市","city_kana":"オオイタシ","town":"下八幡","town_kana":"シモヤハタ","prefecture_code":44},"0241":{"zip_code":"8700241","prefecture":"大分県","prefecture_kana":"オオイタケン","city":"大分市","city_kana":"オオイタシ","town":"庄境","town_kana":"ショウザカイ","prefecture_code":44},"0922":{"zip_code":"8700922","prefecture":"大分県","prefecture_kana":"オオイタケン","city":"大分市","city_kana":"オオイタシ","town":"城東町（３の２２、４の２、４の３０）","town_kana":"ジョウトウマチ(3ノ22、4ノ2、4ノ30)","prefecture_code":44},"0153":{"zip_code":"8700153","prefecture":"大分県","prefecture_kana":"オオイタケン","city":"大分市","city_kana":"オオイタシ","town":"城東町（その他）","town_kana":"ジョウトウマチ(ソノタ)","prefecture_code":44},"0824":{"zip_code":"8700824","prefecture":"大分県","prefecture_kana":"オオイタケン","city":"大分市","city_kana":"オオイタシ","town":"城南東町","town_kana":"ジョウナンヒガシマチ","prefecture_code":44},"0826":{"zip_code":"8700826","prefecture":"大分県","prefecture_kana":"オオイタケン","city":"大分市","city_kana":"オオイタシ","town":"城南西町","town_kana":"ジョウナンニシマチ","prefecture_code":44},"0825":{"zip_code":"8700825","prefecture":"大分県","prefecture_kana":"オオイタケン","city":"大分市","city_kana":"オオイタシ","town":"城南南町","town_kana":"ジョウナンミナミマチ","prefecture_code":44},"0827":{"zip_code":"8700827","prefecture":"大分県","prefecture_kana":"オオイタケン","city":"大分市","city_kana":"オオイタシ","town":"城南北町","town_kana":"ジョウナンキタマチ","prefecture_code":44},"0828":{"zip_code":"8700828","prefecture":"大分県","prefecture_kana":"オオイタケン","city":"大分市","city_kana":"オオイタシ","town":"城南山手台","town_kana":"ジョウナンヤマテダイ","prefecture_code":44},"0267":{"zip_code":"8700267","prefecture":"大分県","prefecture_kana":"オオイタケン","city":"大分市","city_kana":"オオイタシ","town":"城原","town_kana":"ジョウハル","prefecture_code":44},"0876":{"zip_code":"8700876","prefecture":"大分県","prefecture_kana":"オオイタケン","city":"大分市","city_kana":"オオイタシ","town":"庄の原","town_kana":"ショウノハル","prefecture_code":44},"0045":{"zip_code":"8700045","prefecture":"大分県","prefecture_kana":"オオイタケン","city":"大分市","city_kana":"オオイタシ","town":"城崎町","town_kana":"シロサキマチ","prefecture_code":44},"0818":{"zip_code":"8700818","prefecture":"大分県","prefecture_kana":"オオイタケン","city":"大分市","city_kana":"オオイタシ","town":"新春日町","town_kana":"シンカスガマチ","prefecture_code":44},"0015":{"zip_code":"8700015","prefecture":"大分県","prefecture_kana":"オオイタケン","city":"大分市","city_kana":"オオイタシ","town":"新川西","town_kana":"シンカワニシ","prefecture_code":44},"0016":{"zip_code":"8700016","prefecture":"大分県","prefecture_kana":"オオイタケン","city":"大分市","city_kana":"オオイタシ","town":"新川町","town_kana":"シンカワマチ","prefecture_code":44},"0911":{"zip_code":"8700911","prefecture":"大分県","prefecture_kana":"オオイタケン","city":"大分市","city_kana":"オオイタシ","town":"新貝","town_kana":"シンガイ","prefecture_code":44},"0919":{"zip_code":"8700919","prefecture":"大分県","prefecture_kana":"オオイタケン","city":"大分市","city_kana":"オオイタシ","town":"新栄町","town_kana":"シンサカエマチ","prefecture_code":44},"0028":{"zip_code":"8700028","prefecture":"大分県","prefecture_kana":"オオイタケン","city":"大分市","city_kana":"オオイタシ","town":"新町","town_kana":"シンマチ","prefecture_code":44},"0172":{"zip_code":"8700172","prefecture":"大分県","prefecture_kana":"オオイタケン","city":"大分市","city_kana":"オオイタシ","town":"新明治","town_kana":"シンメイジ","prefecture_code":44},"0027":{"zip_code":"8700027","prefecture":"大分県","prefecture_kana":"オオイタケン","city":"大分市","city_kana":"オオイタシ","town":"末広町","town_kana":"スエヒロマチ","prefecture_code":44},"0244":{"zip_code":"8700244","prefecture":"大分県","prefecture_kana":"オオイタケン","city":"大分市","city_kana":"オオイタシ","town":"須賀","town_kana":"スガ","prefecture_code":44},"0032":{"zip_code":"8700032","prefecture":"大分県","prefecture_kana":"オオイタケン","city":"大分市","city_kana":"オオイタシ","town":"住吉町","town_kana":"スミヨシマチ","prefecture_code":44},"0031":{"zip_code":"8700031","prefecture":"大分県","prefecture_kana":"オオイタケン","city":"大分市","city_kana":"オオイタシ","town":"勢家町","town_kana":"セイケマチ","prefecture_code":44},"1114":{"zip_code":"8701114","prefecture":"大分県","prefecture_kana":"オオイタケン","city":"大分市","city_kana":"オオイタシ","town":"星和台","town_kana":"セイワダイ","prefecture_code":44},"0115":{"zip_code":"8700115","prefecture":"大分県","prefecture_kana":"オオイタケン","city":"大分市","city_kana":"オオイタシ","town":"関園","town_kana":"セキゾノ","prefecture_code":44},"0048":{"zip_code":"8700048","prefecture":"大分県","prefecture_kana":"オオイタケン","city":"大分市","city_kana":"オオイタシ","town":"碩田町","town_kana":"セキデンマチ","prefecture_code":44},"0132":{"zip_code":"8700132","prefecture":"大分県","prefecture_kana":"オオイタケン","city":"大分市","city_kana":"オオイタシ","town":"千歳","town_kana":"センザイ","prefecture_code":44},"1123":{"zip_code":"8701123","prefecture":"大分県","prefecture_kana":"オオイタケン","city":"大分市","city_kana":"オオイタシ","town":"寒田","town_kana":"ソウダ","prefecture_code":44},"1138":{"zip_code":"8701138","prefecture":"大分県","prefecture_kana":"オオイタケン","city":"大分市","city_kana":"オオイタシ","town":"寒田北町","town_kana":"ソウダキタマチ","prefecture_code":44},"1139":{"zip_code":"8701139","prefecture":"大分県","prefecture_kana":"オオイタケン","city":"大分市","city_kana":"オオイタシ","town":"寒田南町","town_kana":"ソウダミナミマチ","prefecture_code":44},"0837":{"zip_code":"8700837","prefecture":"大分県","prefecture_kana":"オオイタケン","city":"大分市","city_kana":"オオイタシ","town":"太平町","town_kana":"タイヘイマチ","prefecture_code":44},"1116":{"zip_code":"8701116","prefecture":"大分県","prefecture_kana":"オオイタケン","city":"大分市","city_kana":"オオイタシ","town":"高江中央","town_kana":"タカエチュウオウ","prefecture_code":44},"1117":{"zip_code":"8701117","prefecture":"大分県","prefecture_kana":"オオイタケン","city":"大分市","city_kana":"オオイタシ","town":"高江西","town_kana":"タカエニシ","prefecture_code":44},"1118":{"zip_code":"8701118","prefecture":"大分県","prefecture_kana":"オオイタケン","city":"大分市","city_kana":"オオイタシ","town":"高江南","town_kana":"タカエミナミ","prefecture_code":44},"1119":{"zip_code":"8701119","prefecture":"大分県","prefecture_kana":"オオイタケン","city":"大分市","city_kana":"オオイタシ","town":"高江北","town_kana":"タカエキタ","prefecture_code":44},"0873":{"zip_code":"8700873","prefecture":"大分県","prefecture_kana":"オオイタケン","city":"大分市","city_kana":"オオイタシ","town":"高尾台","town_kana":"タカオダイ","prefecture_code":44},"0872":{"zip_code":"8700872","prefecture":"大分県","prefecture_kana":"オオイタケン","city":"大分市","city_kana":"オオイタシ","town":"高崎","town_kana":"タカサキ","prefecture_code":44},"0029":{"zip_code":"8700029","prefecture":"大分県","prefecture_kana":"オオイタケン","city":"大分市","city_kana":"オオイタシ","town":"高砂町","town_kana":"タカサゴマチ","prefecture_code":44},"0156":{"zip_code":"8700156","prefecture":"大分県","prefecture_kana":"オオイタケン","city":"大分市","city_kana":"オオイタシ","town":"高城新町","town_kana":"タカジョウシンマチ","prefecture_code":44},"0148":{"zip_code":"8700148","prefecture":"大分県","prefecture_kana":"オオイタケン","city":"大分市","city_kana":"オオイタシ","town":"高城台","town_kana":"タカジョウダイ","prefecture_code":44},"0149":{"zip_code":"8700149","prefecture":"大分県","prefecture_kana":"オオイタケン","city":"大分市","city_kana":"オオイタシ","town":"高城団地","town_kana":"タカジョウダンチ","prefecture_code":44},"0923":{"zip_code":"8700923","prefecture":"大分県","prefecture_kana":"オオイタケン","city":"大分市","city_kana":"オオイタシ","town":"高城西町（１〜７番）","town_kana":"タカジョウニシマチ(1-7バン)","prefecture_code":44},"0154":{"zip_code":"8700154","prefecture":"大分県","prefecture_kana":"オオイタケン","city":"大分市","city_kana":"オオイタシ","town":"高城西町（その他）","town_kana":"タカジョウニシマチ(ソノタ)","prefecture_code":44},"0157":{"zip_code":"8700157","prefecture":"大分県","prefecture_kana":"オオイタケン","city":"大分市","city_kana":"オオイタシ","town":"高城本町","town_kana":"タカジョウホンマチ","prefecture_code":44},"0155":{"zip_code":"8700155","prefecture":"大分県","prefecture_kana":"オオイタケン","city":"大分市","city_kana":"オオイタシ","town":"高城南町","town_kana":"タカジョウミナミマチ","prefecture_code":44},"1142":{"zip_code":"8701142","prefecture":"大分県","prefecture_kana":"オオイタケン","city":"大分市","city_kana":"オオイタシ","town":"高瀬","town_kana":"タカセ","prefecture_code":44},"1222":{"zip_code":"8701222","prefecture":"大分県","prefecture_kana":"オオイタケン","city":"大分市","city_kana":"オオイタシ","town":"高原","town_kana":"タカハラ","prefecture_code":44},"0917":{"zip_code":"8700917","prefecture":"大分県","prefecture_kana":"オオイタケン","city":"大分市","city_kana":"オオイタシ","town":"高松","town_kana":"タカマツ","prefecture_code":44},"0916":{"zip_code":"8700916","prefecture":"大分県","prefecture_kana":"オオイタケン","city":"大分市","city_kana":"オオイタシ","town":"高松東","town_kana":"タカマツヒガシ","prefecture_code":44},"0265":{"zip_code":"8700265","prefecture":"大分県","prefecture_kana":"オオイタケン","city":"大分市","city_kana":"オオイタシ","town":"竹下","town_kana":"タケシタ","prefecture_code":44},"0882":{"zip_code":"8700882","prefecture":"大分県","prefecture_kana":"オオイタケン","city":"大分市","city_kana":"オオイタシ","town":"竹の上","town_kana":"タケノウエ","prefecture_code":44},"1211":{"zip_code":"8701211","prefecture":"大分県","prefecture_kana":"オオイタケン","city":"大分市","city_kana":"オオイタシ","town":"竹矢","town_kana":"タケヤ","prefecture_code":44},"1143":{"zip_code":"8701143","prefecture":"大分県","prefecture_kana":"オオイタケン","city":"大分市","city_kana":"オオイタシ","town":"田尻","town_kana":"タジリ","prefecture_code":44},"1144":{"zip_code":"8701144","prefecture":"大分県","prefecture_kana":"オオイタケン","city":"大分市","city_kana":"オオイタシ","town":"田尻グリーンハイツ","town_kana":"タジリグリーンハイツ","prefecture_code":44},"1145":{"zip_code":"8701145","prefecture":"大分県","prefecture_kana":"オオイタケン","city":"大分市","city_kana":"オオイタシ","town":"田尻南","town_kana":"タジリミナミ","prefecture_code":44},"0852":{"zip_code":"8700852","prefecture":"大分県","prefecture_kana":"オオイタケン","city":"大分市","city_kana":"オオイタシ","town":"田中町","town_kana":"タナカマチ","prefecture_code":44},"0274":{"zip_code":"8700274","prefecture":"大分県","prefecture_kana":"オオイタケン","city":"大分市","city_kana":"オオイタシ","town":"種具","town_kana":"タネグ","prefecture_code":44},"0802":{"zip_code":"8700802","prefecture":"大分県","prefecture_kana":"オオイタケン","city":"大分市","city_kana":"オオイタシ","town":"田ノ浦","town_kana":"タノウラ","prefecture_code":44},"1154":{"zip_code":"8701154","prefecture":"大分県","prefecture_kana":"オオイタケン","city":"大分市","city_kana":"オオイタシ","town":"田原","town_kana":"タバル","prefecture_code":44},"1155":{"zip_code":"8701155","prefecture":"大分県","prefecture_kana":"オオイタケン","city":"大分市","city_kana":"オオイタシ","town":"玉沢","town_kana":"タマザワ","prefecture_code":44},"0816":{"zip_code":"8700816","prefecture":"大分県","prefecture_kana":"オオイタケン","city":"大分市","city_kana":"オオイタシ","town":"田室町","town_kana":"タムロマチ","prefecture_code":44},"1124":{"zip_code":"8701124","prefecture":"大分県","prefecture_kana":"オオイタケン","city":"大分市","city_kana":"オオイタシ","town":"旦野原","town_kana":"ダンノハル","prefecture_code":44},"0035":{"zip_code":"8700035","prefecture":"大分県","prefecture_kana":"オオイタケン","city":"大分市","city_kana":"オオイタシ","town":"中央町","town_kana":"チュウオウマチ","prefecture_code":44},"0033":{"zip_code":"8700033","prefecture":"大分県","prefecture_kana":"オオイタケン","city":"大分市","city_kana":"オオイタシ","town":"千代町","town_kana":"チヨマチ","prefecture_code":44},"1204":{"zip_code":"8701204","prefecture":"大分県","prefecture_kana":"オオイタケン","city":"大分市","city_kana":"オオイタシ","town":"辻原","town_kana":"ツジハル","prefecture_code":44},"0116":{"zip_code":"8700116","prefecture":"大分県","prefecture_kana":"オオイタケン","city":"大分市","city_kana":"オオイタシ","town":"常行","town_kana":"ツネユキ","prefecture_code":44},"0271":{"zip_code":"8700271","prefecture":"大分県","prefecture_kana":"オオイタケン","city":"大分市","city_kana":"オオイタシ","town":"角子原","town_kana":"ツノコバル","prefecture_code":44},"0242":{"zip_code":"8700242","prefecture":"大分県","prefecture_kana":"オオイタケン","city":"大分市","city_kana":"オオイタシ","town":"角子南","town_kana":"ツノゴミナミ","prefecture_code":44},"1166":{"zip_code":"8701166","prefecture":"大分県","prefecture_kana":"オオイタケン","city":"大分市","city_kana":"オオイタシ","town":"椿ケ丘","town_kana":"ツバキガオカ","prefecture_code":44},"0945":{"zip_code":"8700945","prefecture":"大分県","prefecture_kana":"オオイタケン","city":"大分市","city_kana":"オオイタシ","town":"津守","town_kana":"ツモリ","prefecture_code":44},"0106":{"zip_code":"8700106","prefecture":"大分県","prefecture_kana":"オオイタケン","city":"大分市","city_kana":"オオイタシ","town":"鶴崎","town_kana":"ツルサキ","prefecture_code":44},"0120":{"zip_code":"8700120","prefecture":"大分県","prefecture_kana":"オオイタケン","city":"大分市","city_kana":"オオイタシ","town":"鶴崎コスモス団地","town_kana":"ツルサキコスモスダンチ","prefecture_code":44},"0279":{"zip_code":"8700279","prefecture":"大分県","prefecture_kana":"オオイタケン","city":"大分市","city_kana":"オオイタシ","town":"つるさき陽光台","town_kana":"ツルサキヨウコウダイ","prefecture_code":44},"0121":{"zip_code":"8700121","prefecture":"大分県","prefecture_kana":"オオイタケン","city":"大分市","city_kana":"オオイタシ","town":"鶴瀬","town_kana":"ツルセ","prefecture_code":44},"0137":{"zip_code":"8700137","prefecture":"大分県","prefecture_kana":"オオイタケン","city":"大分市","city_kana":"オオイタシ","town":"寺崎町","town_kana":"テラサキマチ","prefecture_code":44},"1148":{"zip_code":"8701148","prefecture":"大分県","prefecture_kana":"オオイタケン","city":"大分市","city_kana":"オオイタシ","town":"天領ハイツ","town_kana":"テンリョウハイツ","prefecture_code":44},"0861":{"zip_code":"8700861","prefecture":"大分県","prefecture_kana":"オオイタケン","city":"大分市","city_kana":"オオイタシ","town":"東院","town_kana":"トイ","prefecture_code":44},"0867":{"zip_code":"8700867","prefecture":"大分県","prefecture_kana":"オオイタケン","city":"大分市","city_kana":"オオイタシ","town":"東野台","town_kana":"トウノダイ","prefecture_code":44},"0109":{"zip_code":"8700109","prefecture":"大分県","prefecture_kana":"オオイタケン","city":"大分市","city_kana":"オオイタシ","town":"徳島","town_kana":"トクシマ","prefecture_code":44},"0947":{"zip_code":"8700947","prefecture":"大分県","prefecture_kana":"オオイタケン","city":"大分市","city_kana":"オオイタシ","town":"富岡","town_kana":"トミオカ","prefecture_code":44},"0018":{"zip_code":"8700018","prefecture":"大分県","prefecture_kana":"オオイタケン","city":"大分市","city_kana":"オオイタシ","town":"豊海","town_kana":"トヨミ","prefecture_code":44},"0862":{"zip_code":"8700862","prefecture":"大分県","prefecture_kana":"オオイタケン","city":"大分市","city_kana":"オオイタシ","town":"中尾","town_kana":"ナカオ","prefecture_code":44},"0039":{"zip_code":"8700039","prefecture":"大分県","prefecture_kana":"オオイタケン","city":"大分市","city_kana":"オオイタシ","town":"中春日町","town_kana":"ナカカスガマチ","prefecture_code":44},"0049":{"zip_code":"8700049","prefecture":"大分県","prefecture_kana":"オオイタケン","city":"大分市","city_kana":"オオイタシ","town":"中島中央","town_kana":"ナカシマチュウオウ","prefecture_code":44},"0043":{"zip_code":"8700043","prefecture":"大分県","prefecture_kana":"オオイタケン","city":"大分市","city_kana":"オオイタシ","town":"中島東","town_kana":"ナカシマヒガシ","prefecture_code":44},"0047":{"zip_code":"8700047","prefecture":"大分県","prefecture_kana":"オオイタケン","city":"大分市","city_kana":"オオイタシ","town":"中島西","town_kana":"ナカシマニシ","prefecture_code":44},"0101":{"zip_code":"8700101","prefecture":"大分県","prefecture_kana":"オオイタケン","city":"大分市","city_kana":"オオイタシ","town":"中鶴崎","town_kana":"ナカツルサキ","prefecture_code":44},"0939":{"zip_code":"8700939","prefecture":"大分県","prefecture_kana":"オオイタケン","city":"大分市","city_kana":"オオイタシ","town":"中津留","town_kana":"ナカヅル","prefecture_code":44},"0135":{"zip_code":"8700135","prefecture":"大分県","prefecture_kana":"オオイタケン","city":"大分市","city_kana":"オオイタシ","town":"仲西町","town_kana":"ナカニシマチ","prefecture_code":44},"0111":{"zip_code":"8700111","prefecture":"大分県","prefecture_kana":"オオイタケン","city":"大分市","city_kana":"オオイタシ","town":"中ノ洲","town_kana":"ナカノス","prefecture_code":44},"0859":{"zip_code":"8700859","prefecture":"大分県","prefecture_kana":"オオイタケン","city":"大分市","city_kana":"オオイタシ","town":"中の瀬団地","town_kana":"ナカノセダンチ","prefecture_code":44},"1113":{"zip_code":"8701113","prefecture":"大分県","prefecture_kana":"オオイタケン","city":"大分市","city_kana":"オオイタシ","town":"中判田","town_kana":"ナカハンダ","prefecture_code":44},"0929":{"zip_code":"8700929","prefecture":"大分県","prefecture_kana":"オオイタケン","city":"大分市","city_kana":"オオイタシ","town":"長谷町","town_kana":"ナガタニマチ","prefecture_code":44},"0023":{"zip_code":"8700023","prefecture":"大分県","prefecture_kana":"オオイタケン","city":"大分市","city_kana":"オオイタシ","town":"長浜町","town_kana":"ナガハママチ","prefecture_code":44},"0801":{"zip_code":"8700801","prefecture":"大分県","prefecture_kana":"オオイタケン","city":"大分市","city_kana":"オオイタシ","town":"鳴川","town_kana":"ナルカワ","prefecture_code":44},"0046":{"zip_code":"8700046","prefecture":"大分県","prefecture_kana":"オオイタケン","city":"大分市","city_kana":"オオイタシ","town":"荷揚町","town_kana":"ニアゲマチ","prefecture_code":44},"1221":{"zip_code":"8701221","prefecture":"大分県","prefecture_kana":"オオイタケン","city":"大分市","city_kana":"オオイタシ","town":"荷尾杵","town_kana":"ニオキ","prefecture_code":44},"0820":{"zip_code":"8700820","prefecture":"大分県","prefecture_kana":"オオイタケン","city":"大分市","city_kana":"オオイタシ","town":"西大道","town_kana":"ニシオオミチ","prefecture_code":44},"0038":{"zip_code":"8700038","prefecture":"大分県","prefecture_kana":"オオイタケン","city":"大分市","city_kana":"オオイタシ","town":"西春日町","town_kana":"ニシカスガマチ","prefecture_code":44},"0024":{"zip_code":"8700024","prefecture":"大分県","prefecture_kana":"オオイタケン","city":"大分市","city_kana":"オオイタシ","town":"錦町","town_kana":"ニシキマチ","prefecture_code":44},"0901":{"zip_code":"8700901","prefecture":"大分県","prefecture_kana":"オオイタケン","city":"大分市","city_kana":"オオイタシ","town":"西新地","town_kana":"ニシシンチ","prefecture_code":44},"0105":{"zip_code":"8700105","prefecture":"大分県","prefecture_kana":"オオイタケン","city":"大分市","city_kana":"オオイタシ","town":"西鶴崎","town_kana":"ニシツルサキ","prefecture_code":44},"0902":{"zip_code":"8700902","prefecture":"大分県","prefecture_kana":"オオイタケン","city":"大分市","city_kana":"オオイタシ","town":"西ノ洲","town_kana":"ニシノス","prefecture_code":44},"0931":{"zip_code":"8700931","prefecture":"大分県","prefecture_kana":"オオイタケン","city":"大分市","city_kana":"オオイタシ","town":"西浜","town_kana":"ニシハマ","prefecture_code":44},"0874":{"zip_code":"8700874","prefecture":"大分県","prefecture_kana":"オオイタケン","city":"大分市","city_kana":"オオイタシ","town":"にじが丘","town_kana":"ニジガオカ","prefecture_code":44},"1167":{"zip_code":"8701167","prefecture":"大分県","prefecture_kana":"オオイタケン","city":"大分市","city_kana":"オオイタシ","town":"二豊団地","town_kana":"ニホウダンチ","prefecture_code":44},"0318":{"zip_code":"8700318","prefecture":"大分県","prefecture_kana":"オオイタケン","city":"大分市","city_kana":"オオイタシ","town":"丹生","town_kana":"ニュウ","prefecture_code":44},"0270":{"zip_code":"8700270","prefecture":"大分県","prefecture_kana":"オオイタケン","city":"大分市","city_kana":"オオイタシ","town":"望みが丘","town_kana":"ノゾミガオカ","prefecture_code":44},"0868":{"zip_code":"8700868","prefecture":"大分県","prefecture_kana":"オオイタケン","city":"大分市","city_kana":"オオイタシ","town":"野田","town_kana":"ノダ","prefecture_code":44},"1203":{"zip_code":"8701203","prefecture":"大分県","prefecture_kana":"オオイタケン","city":"大分市","city_kana":"オオイタシ","town":"野津原","town_kana":"ノツハル","prefecture_code":44},"0921":{"zip_code":"8700921","prefecture":"大分県","prefecture_kana":"オオイタケン","city":"大分市","city_kana":"オオイタシ","town":"萩原","town_kana":"ハギワラ","prefecture_code":44},"0856":{"zip_code":"8700856","prefecture":"大分県","prefecture_kana":"オオイタケン","city":"大分市","city_kana":"オオイタシ","town":"畑中","town_kana":"ハタケナカ","prefecture_code":44},"0942":{"zip_code":"8700942","prefecture":"大分県","prefecture_kana":"オオイタケン","city":"大分市","city_kana":"オオイタシ","town":"羽田","town_kana":"ハダ","prefecture_code":44},"0243":{"zip_code":"8700243","prefecture":"大分県","prefecture_kana":"オオイタケン","city":"大分市","city_kana":"オオイタシ","town":"花江川","town_kana":"ハナエガワ","prefecture_code":44},"0846":{"zip_code":"8700846","prefecture":"大分県","prefecture_kana":"オオイタケン","city":"大分市","city_kana":"オオイタシ","town":"花園","town_kana":"ハナゾノ","prefecture_code":44},"0915":{"zip_code":"8700915","prefecture":"大分県","prefecture_kana":"オオイタケン","city":"大分市","city_kana":"オオイタシ","town":"花高松","town_kana":"ハナタカマツ","prefecture_code":44},"0933":{"zip_code":"8700933","prefecture":"大分県","prefecture_kana":"オオイタケン","city":"大分市","city_kana":"オオイタシ","town":"花津留","town_kana":"ハナヅル","prefecture_code":44},"1128":{"zip_code":"8701128","prefecture":"大分県","prefecture_kana":"オオイタケン","city":"大分市","city_kana":"オオイタシ","town":"花の木坂","town_kana":"ハナノキザカ","prefecture_code":44},"0880":{"zip_code":"8700880","prefecture":"大分県","prefecture_kana":"オオイタケン","city":"大分市","city_kana":"オオイタシ","town":"はなの森","town_kana":"ハナノモリ","prefecture_code":44},"0323":{"zip_code":"8700323","prefecture":"大分県","prefecture_kana":"オオイタケン","city":"大分市","city_kana":"オオイタシ","town":"浜中","town_kana":"ハマナカ","prefecture_code":44},"0002":{"zip_code":"8700002","prefecture":"大分県","prefecture_kana":"オオイタケン","city":"大分市","city_kana":"オオイタシ","town":"浜の市","town_kana":"ハマノイチ","prefecture_code":44},"0013":{"zip_code":"8700013","prefecture":"大分県","prefecture_kana":"オオイタケン","city":"大分市","city_kana":"オオイタシ","town":"浜町東","town_kana":"ハママチヒガシ","prefecture_code":44},"0012":{"zip_code":"8700012","prefecture":"大分県","prefecture_kana":"オオイタケン","city":"大分市","city_kana":"オオイタシ","town":"浜町北","town_kana":"ハママチキタ","prefecture_code":44},"0854":{"zip_code":"8700854","prefecture":"大分県","prefecture_kana":"オオイタケン","city":"大分市","city_kana":"オオイタシ","town":"羽屋","town_kana":"ハヤ","prefecture_code":44},"0853":{"zip_code":"8700853","prefecture":"大分県","prefecture_kana":"オオイタケン","city":"大分市","city_kana":"オオイタシ","town":"羽屋新町","town_kana":"ハヤシンマチ","prefecture_code":44},"0138":{"zip_code":"8700138","prefecture":"大分県","prefecture_kana":"オオイタケン","city":"大分市","city_kana":"オオイタシ","town":"原川","town_kana":"ハルカワ","prefecture_code":44},"0912":{"zip_code":"8700912","prefecture":"大分県","prefecture_kana":"オオイタケン","city":"大分市","city_kana":"オオイタシ","town":"原新町","town_kana":"ハルシンマチ","prefecture_code":44},"1110":{"zip_code":"8701110","prefecture":"大分県","prefecture_kana":"オオイタケン","city":"大分市","city_kana":"オオイタシ","town":"判田台","town_kana":"ハンダダイ","prefecture_code":44},"1126":{"zip_code":"8701126","prefecture":"大分県","prefecture_kana":"オオイタケン","city":"大分市","city_kana":"オオイタシ","town":"判田台北","town_kana":"ハンダダイキタ","prefecture_code":44},"1108":{"zip_code":"8701108","prefecture":"大分県","prefecture_kana":"オオイタケン","city":"大分市","city_kana":"オオイタシ","town":"判田台東","town_kana":"ハンダダイヒガシ","prefecture_code":44},"1109":{"zip_code":"8701109","prefecture":"大分県","prefecture_kana":"オオイタケン","city":"大分市","city_kana":"オオイタシ","town":"判田台南","town_kana":"ハンダダイミナミ","prefecture_code":44},"0914":{"zip_code":"8700914","prefecture":"大分県","prefecture_kana":"オオイタケン","city":"大分市","city_kana":"オオイタシ","town":"日岡","town_kana":"ヒオカ","prefecture_code":44},"0151":{"zip_code":"8700151","prefecture":"大分県","prefecture_kana":"オオイタケン","city":"大分市","city_kana":"オオイタシ","town":"東明野","town_kana":"ヒガシアケノ","prefecture_code":44},"0306":{"zip_code":"8700306","prefecture":"大分県","prefecture_kana":"オオイタケン","city":"大分市","city_kana":"オオイタシ","town":"東上野","town_kana":"ヒガシウエノ","prefecture_code":44},"0823":{"zip_code":"8700823","prefecture":"大分県","prefecture_kana":"オオイタケン","city":"大分市","city_kana":"オオイタシ","town":"東大道","town_kana":"ヒガシオオミチ","prefecture_code":44},"0037":{"zip_code":"8700037","prefecture":"大分県","prefecture_kana":"オオイタケン","city":"大分市","city_kana":"オオイタシ","town":"東春日町","town_kana":"ヒガシカスガマチ","prefecture_code":44},"0103":{"zip_code":"8700103","prefecture":"大分県","prefecture_kana":"オオイタケン","city":"大分市","city_kana":"オオイタシ","town":"東鶴崎","town_kana":"ヒガシツルサキ","prefecture_code":44},"0934":{"zip_code":"8700934","prefecture":"大分県","prefecture_kana":"オオイタケン","city":"大分市","city_kana":"オオイタシ","town":"東津留","town_kana":"ヒガシヅル","prefecture_code":44},"0932":{"zip_code":"8700932","prefecture":"大分県","prefecture_kana":"オオイタケン","city":"大分市","city_kana":"オオイタシ","town":"東浜","town_kana":"ヒガシハマ","prefecture_code":44},"0150":{"zip_code":"8700150","prefecture":"大分県","prefecture_kana":"オオイタケン","city":"大分市","city_kana":"オオイタシ","town":"東原","town_kana":"ヒガシバル","prefecture_code":44},"0871":{"zip_code":"8700871","prefecture":"大分県","prefecture_kana":"オオイタケン","city":"大分市","city_kana":"オオイタシ","town":"東八幡","town_kana":"ヒガシヤハタ","prefecture_code":44},"1115":{"zip_code":"8701115","prefecture":"大分県","prefecture_kana":"オオイタケン","city":"大分市","city_kana":"オオイタシ","town":"ひばりケ丘","town_kana":"ヒバリガオカ","prefecture_code":44},"0301":{"zip_code":"8700301","prefecture":"大分県","prefecture_kana":"オオイタケン","city":"大分市","city_kana":"オオイタシ","town":"日吉原","town_kana":"ヒヨシバル","prefecture_code":44},"0918":{"zip_code":"8700918","prefecture":"大分県","prefecture_kana":"オオイタケン","city":"大分市","city_kana":"オオイタシ","town":"日吉町","town_kana":"ヒヨシマチ","prefecture_code":44},"0866":{"zip_code":"8700866","prefecture":"大分県","prefecture_kana":"オオイタケン","city":"大分市","city_kana":"オオイタシ","town":"平横瀬","town_kana":"ヒラヨコセ","prefecture_code":44},"0277":{"zip_code":"8700277","prefecture":"大分県","prefecture_kana":"オオイタケン","city":"大分市","city_kana":"オオイタシ","town":"広内","town_kana":"ヒロウチ","prefecture_code":44},"0847":{"zip_code":"8700847","prefecture":"大分県","prefecture_kana":"オオイタケン","city":"大分市","city_kana":"オオイタシ","town":"広瀬町","town_kana":"ヒロセマチ","prefecture_code":44},"0881":{"zip_code":"8700881","prefecture":"大分県","prefecture_kana":"オオイタケン","city":"大分市","city_kana":"オオイタシ","town":"深河内","town_kana":"フカガワウチ","prefecture_code":44},"1205":{"zip_code":"8701205","prefecture":"大分県","prefecture_kana":"オオイタケン","city":"大分市","city_kana":"オオイタシ","town":"福宗","town_kana":"フクムネ","prefecture_code":44},"1147":{"zip_code":"8701147","prefecture":"大分県","prefecture_kana":"オオイタケン","city":"大分市","city_kana":"オオイタシ","town":"ふじが丘","town_kana":"フジガオカ","prefecture_code":44},"0957":{"zip_code":"8700957","prefecture":"大分県","prefecture_kana":"オオイタケン","city":"大分市","city_kana":"オオイタシ","town":"藤の台","town_kana":"フジノダイ","prefecture_code":44},"1176":{"zip_code":"8701176","prefecture":"大分県","prefecture_kana":"オオイタケン","city":"大分市","city_kana":"オオイタシ","town":"富士見が丘東","town_kana":"フジミガオカヒガシ","prefecture_code":44},"1177":{"zip_code":"8701177","prefecture":"大分県","prefecture_kana":"オオイタケン","city":"大分市","city_kana":"オオイタシ","town":"富士見が丘西","town_kana":"フジミガオカニシ","prefecture_code":44},"0887":{"zip_code":"8700887","prefecture":"大分県","prefecture_kana":"オオイタケン","city":"大分市","city_kana":"オオイタシ","town":"二又町","town_kana":"フタマタマチ","prefecture_code":44},"0021":{"zip_code":"8700021","prefecture":"大分県","prefecture_kana":"オオイタケン","city":"大分市","city_kana":"オオイタシ","town":"府内町","town_kana":"フナイマチ","prefecture_code":44},"0855":{"zip_code":"8700855","prefecture":"大分県","prefecture_kana":"オオイタケン","city":"大分市","city_kana":"オオイタシ","town":"豊饒","town_kana":"ブニョウ","prefecture_code":44},"0844":{"zip_code":"8700844","prefecture":"大分県","prefecture_kana":"オオイタケン","city":"大分市","city_kana":"オオイタシ","town":"古国府","town_kana":"フルゴウ","prefecture_code":44},"0845":{"zip_code":"8700845","prefecture":"大分県","prefecture_kana":"オオイタケン","city":"大分市","city_kana":"オオイタシ","town":"古国府東","town_kana":"フルゴウヒガシ","prefecture_code":44},"0017":{"zip_code":"8700017","prefecture":"大分県","prefecture_kana":"オオイタケン","city":"大分市","city_kana":"オオイタシ","town":"弁天","town_kana":"ベンテン","prefecture_code":44},"0948":{"zip_code":"8700948","prefecture":"大分県","prefecture_kana":"オオイタケン","city":"大分市","city_kana":"オオイタシ","town":"芳河原台","town_kana":"ホウガワラダイ","prefecture_code":44},"0171":{"zip_code":"8700171","prefecture":"大分県","prefecture_kana":"オオイタケン","city":"大分市","city_kana":"オオイタシ","town":"法勝台","town_kana":"ホウショウダイ","prefecture_code":44},"0305":{"zip_code":"8700305","prefecture":"大分県","prefecture_kana":"オオイタケン","city":"大分市","city_kana":"オオイタシ","town":"細","town_kana":"ホソ","prefecture_code":44},"0044":{"zip_code":"8700044","prefecture":"大分県","prefecture_kana":"オオイタケン","city":"大分市","city_kana":"オオイタシ","town":"舞鶴町","town_kana":"マイヅルマチ","prefecture_code":44},"1146":[{"zip_code":"8701146","prefecture":"大分県","prefecture_kana":"オオイタケン","city":"大分市","city_kana":"オオイタシ","town":"曲（６３５、６３９、６５０、６６９、６７６、６７８、６８９、","town_kana":"マガリ(635、639、650、669、676、678、689、","prefecture_code":44},{"zip_code":"8701146","prefecture":"大分県","prefecture_kana":"オオイタケン","city":"大分市","city_kana":"オオイタシ","town":"６９５、７１８、７３３、１４８１、１５５５、１６１８番地）","town_kana":"695、718、733、1481、1555、1618バンチ)","prefecture_code":44}],"0946":{"zip_code":"8700946","prefecture":"大分県","prefecture_kana":"オオイタケン","city":"大分市","city_kana":"オオイタシ","town":"曲（その他）","town_kana":"マガリ(ソノタ)","prefecture_code":44},"0924":{"zip_code":"8700924","prefecture":"大分県","prefecture_kana":"オオイタケン","city":"大分市","city_kana":"オオイタシ","town":"牧（１〜３丁目、白滝Ｂ・Ｃ、高見）","town_kana":"マキ(1-3チョウメ、シラタキB・C、タカミ)","prefecture_code":44},"0152":{"zip_code":"8700152","prefecture":"大分県","prefecture_kana":"オオイタケン","city":"大分市","city_kana":"オオイタシ","town":"牧（その他）","town_kana":"マキ(ソノタ)","prefecture_code":44},"0925":{"zip_code":"8700925","prefecture":"大分県","prefecture_kana":"オオイタケン","city":"大分市","city_kana":"オオイタシ","town":"牧上町","town_kana":"マキカミマチ","prefecture_code":44},"0125":{"zip_code":"8700125","prefecture":"大分県","prefecture_kana":"オオイタケン","city":"大分市","city_kana":"オオイタシ","town":"松岡","town_kana":"マツオカ","prefecture_code":44},"1168":{"zip_code":"8701168","prefecture":"大分県","prefecture_kana":"オオイタケン","city":"大分市","city_kana":"オオイタシ","town":"松が丘","town_kana":"マツガオカ","prefecture_code":44},"0913":{"zip_code":"8700913","prefecture":"大分県","prefecture_kana":"オオイタケン","city":"大分市","city_kana":"オオイタシ","town":"松原町","town_kana":"マツバラマチ","prefecture_code":44},"0268":{"zip_code":"8700268","prefecture":"大分県","prefecture_kana":"オオイタケン","city":"大分市","city_kana":"オオイタシ","town":"政所","town_kana":"マドコロ","prefecture_code":44},"0122":{"zip_code":"8700122","prefecture":"大分県","prefecture_kana":"オオイタケン","city":"大分市","city_kana":"オオイタシ","town":"丸亀","town_kana":"マルガメ","prefecture_code":44},"0888":{"zip_code":"8700888","prefecture":"大分県","prefecture_kana":"オオイタケン","city":"大分市","city_kana":"オオイタシ","town":"三ケ田町","town_kana":"ミケタマチ","prefecture_code":44},"0108":{"zip_code":"8700108","prefecture":"大分県","prefecture_kana":"オオイタケン","city":"大分市","city_kana":"オオイタシ","town":"三佐","town_kana":"ミサ","prefecture_code":44},"0143":{"zip_code":"8700143","prefecture":"大分県","prefecture_kana":"オオイタケン","city":"大分市","city_kana":"オオイタシ","town":"三川上","town_kana":"ミツガワカミ","prefecture_code":44},"0142":{"zip_code":"8700142","prefecture":"大分県","prefecture_kana":"オオイタケン","city":"大分市","city_kana":"オオイタシ","town":"三川下","town_kana":"ミツガワシモ","prefecture_code":44},"0141":{"zip_code":"8700141","prefecture":"大分県","prefecture_kana":"オオイタケン","city":"大分市","city_kana":"オオイタシ","town":"三川新町","town_kana":"ミツガワシンマチ","prefecture_code":44},"1132":{"zip_code":"8701132","prefecture":"大分県","prefecture_kana":"オオイタケン","city":"大分市","city_kana":"オオイタシ","town":"光吉","town_kana":"ミツヨシ","prefecture_code":44},"1135":{"zip_code":"8701135","prefecture":"大分県","prefecture_kana":"オオイタケン","city":"大分市","city_kana":"オオイタシ","town":"光吉新町","town_kana":"ミツヨシシンマチ","prefecture_code":44},"1136":{"zip_code":"8701136","prefecture":"大分県","prefecture_kana":"オオイタケン","city":"大分市","city_kana":"オオイタシ","town":"光吉台","town_kana":"ミツヨシダイ","prefecture_code":44},"1172":{"zip_code":"8701172","prefecture":"大分県","prefecture_kana":"オオイタケン","city":"大分市","city_kana":"オオイタシ","town":"緑が丘","town_kana":"ミドリガオカ","prefecture_code":44},"0131":{"zip_code":"8700131","prefecture":"大分県","prefecture_kana":"オオイタケン","city":"大分市","city_kana":"オオイタシ","town":"皆春","town_kana":"ミナハル","prefecture_code":44},"0117":{"zip_code":"8700117","prefecture":"大分県","prefecture_kana":"オオイタケン","city":"大分市","city_kana":"オオイタシ","town":"南","town_kana":"ミナミ","prefecture_code":44},"0812":{"zip_code":"8700812","prefecture":"大分県","prefecture_kana":"オオイタケン","city":"大分市","city_kana":"オオイタシ","town":"南生石東","town_kana":"ミナミイクシヒガシ","prefecture_code":44},"0811":{"zip_code":"8700811","prefecture":"大分県","prefecture_kana":"オオイタケン","city":"大分市","city_kana":"オオイタシ","town":"南生石西","town_kana":"ミナミイクシニシ","prefecture_code":44},"0814":{"zip_code":"8700814","prefecture":"大分県","prefecture_kana":"オオイタケン","city":"大分市","city_kana":"オオイタシ","town":"南王子町","town_kana":"ミナミオウジマチ","prefecture_code":44},"0815":{"zip_code":"8700815","prefecture":"大分県","prefecture_kana":"オオイタケン","city":"大分市","city_kana":"オオイタシ","town":"南春日町","town_kana":"ミナミカスガマチ","prefecture_code":44},"0928":{"zip_code":"8700928","prefecture":"大分県","prefecture_kana":"オオイタケン","city":"大分市","city_kana":"オオイタシ","town":"南下郡","town_kana":"ミナミシモゴオリ","prefecture_code":44},"0885":{"zip_code":"8700885","prefecture":"大分県","prefecture_kana":"オオイタケン","city":"大分市","city_kana":"オオイタシ","town":"南太平寺","town_kana":"ミナミタイヘイジ","prefecture_code":44},"0104":{"zip_code":"8700104","prefecture":"大分県","prefecture_kana":"オオイタケン","city":"大分市","city_kana":"オオイタシ","town":"南鶴崎","town_kana":"ミナミツルサキ","prefecture_code":44},"0937":{"zip_code":"8700937","prefecture":"大分県","prefecture_kana":"オオイタケン","city":"大分市","city_kana":"オオイタシ","town":"南津留","town_kana":"ミナミヅル","prefecture_code":44},"0276":{"zip_code":"8700276","prefecture":"大分県","prefecture_kana":"オオイタケン","city":"大分市","city_kana":"オオイタシ","town":"宮河内","town_kana":"ミヤカワウチ","prefecture_code":44},"0275":{"zip_code":"8700275","prefecture":"大分県","prefecture_kana":"オオイタケン","city":"大分市","city_kana":"オオイタシ","town":"宮河内ハイランド","town_kana":"ミヤカワウチハイランド","prefecture_code":44},"0034":{"zip_code":"8700034","prefecture":"大分県","prefecture_kana":"オオイタケン","city":"大分市","city_kana":"オオイタシ","town":"都町","town_kana":"ミヤコマチ","prefecture_code":44},"1133":{"zip_code":"8701133","prefecture":"大分県","prefecture_kana":"オオイタケン","city":"大分市","city_kana":"オオイタシ","town":"宮崎","town_kana":"ミヤザキ","prefecture_code":44},"1137":{"zip_code":"8701137","prefecture":"大分県","prefecture_kana":"オオイタケン","city":"大分市","city_kana":"オオイタシ","town":"宮崎台","town_kana":"ミヤザキダイ","prefecture_code":44},"0878":{"zip_code":"8700878","prefecture":"大分県","prefecture_kana":"オオイタケン","city":"大分市","city_kana":"オオイタシ","town":"宮苑","town_kana":"ミヤゾノ","prefecture_code":44},"0804":{"zip_code":"8700804","prefecture":"大分県","prefecture_kana":"オオイタケン","city":"大分市","city_kana":"オオイタシ","town":"御幸町","town_kana":"ミユキ","prefecture_code":44},"0030":{"zip_code":"8700030","prefecture":"大分県","prefecture_kana":"オオイタケン","city":"大分市","city_kana":"オオイタシ","town":"三芳","town_kana":"ミヨシ","prefecture_code":44},"0903":{"zip_code":"8700903","prefecture":"大分県","prefecture_kana":"オオイタケン","city":"大分市","city_kana":"オオイタシ","town":"向原沖","town_kana":"ムカイバルオキ","prefecture_code":44},"0904":{"zip_code":"8700904","prefecture":"大分県","prefecture_kana":"オオイタケン","city":"大分市","city_kana":"オオイタシ","town":"向原東","town_kana":"ムカイバルヒガシ","prefecture_code":44},"0905":{"zip_code":"8700905","prefecture":"大分県","prefecture_kana":"オオイタケン","city":"大分市","city_kana":"オオイタシ","town":"向原西","town_kana":"ムカイバルニシ","prefecture_code":44},"1159":{"zip_code":"8701159","prefecture":"大分県","prefecture_kana":"オオイタケン","city":"大分市","city_kana":"オオイタシ","town":"宗方台北","town_kana":"ムナカタダイキタ","prefecture_code":44},"1158":{"zip_code":"8701158","prefecture":"大分県","prefecture_kana":"オオイタケン","city":"大分市","city_kana":"オオイタシ","town":"宗方台西","town_kana":"ムナカタダイニシ","prefecture_code":44},"1157":{"zip_code":"8701157","prefecture":"大分県","prefecture_kana":"オオイタケン","city":"大分市","city_kana":"オオイタシ","town":"宗方台東","town_kana":"ムナカタダイヒガシ","prefecture_code":44},"1163":[{"zip_code":"8701163","prefecture":"大分県","prefecture_kana":"オオイタケン","city":"大分市","city_kana":"オオイタシ","town":"廻栖野（１〜６５７、７７６〜８２９、８４２〜１３０５、２６９１、","town_kana":"メグスノ(1-657、776-829、842-1305、2691、","prefecture_code":44},{"zip_code":"8701163","prefecture":"大分県","prefecture_kana":"オオイタケン","city":"大分市","city_kana":"オオイタシ","town":"２９２５番地）","town_kana":"2925バンチ)","prefecture_code":44}],"1201":{"zip_code":"8701201","prefecture":"大分県","prefecture_kana":"オオイタケン","city":"大分市","city_kana":"オオイタシ","town":"廻栖野（その他）","town_kana":"メグスノ(ソノタ)","prefecture_code":44},"0944":{"zip_code":"8700944","prefecture":"大分県","prefecture_kana":"オオイタケン","city":"大分市","city_kana":"オオイタシ","town":"米良","town_kana":"メラ","prefecture_code":44},"1174":{"zip_code":"8701174","prefecture":"大分県","prefecture_kana":"オオイタケン","city":"大分市","city_kana":"オオイタシ","town":"萌葱台","town_kana":"モエギダイ","prefecture_code":44},"0843":{"zip_code":"8700843","prefecture":"大分県","prefecture_kana":"オオイタケン","city":"大分市","city_kana":"オオイタシ","town":"元町","town_kana":"モトマチ","prefecture_code":44},"0139":{"zip_code":"8700139","prefecture":"大分県","prefecture_kana":"オオイタケン","city":"大分市","city_kana":"オオイタシ","town":"桃園団地","town_kana":"モモゾノダンチ","prefecture_code":44},"0128":{"zip_code":"8700128","prefecture":"大分県","prefecture_kana":"オオイタケン","city":"大分市","city_kana":"オオイタシ","town":"森","town_kana":"モリ","prefecture_code":44},"0127":{"zip_code":"8700127","prefecture":"大分県","prefecture_kana":"オオイタケン","city":"大分市","city_kana":"オオイタシ","town":"森町","town_kana":"モリマチ","prefecture_code":44},"0136":{"zip_code":"8700136","prefecture":"大分県","prefecture_kana":"オオイタケン","city":"大分市","city_kana":"オオイタシ","town":"山津町","town_kana":"ヤマヅマチ","prefecture_code":44},"0313":{"zip_code":"8700313","prefecture":"大分県","prefecture_kana":"オオイタケン","city":"大分市","city_kana":"オオイタシ","town":"屋山","town_kana":"ヤヤマ","prefecture_code":44},"0042":{"zip_code":"8700042","prefecture":"大分県","prefecture_kana":"オオイタケン","city":"大分市","city_kana":"オオイタシ","town":"豊町","town_kana":"ユタカマチ","prefecture_code":44},"0958":{"zip_code":"8700958","prefecture":"大分県","prefecture_kana":"オオイタケン","city":"大分市","city_kana":"オオイタシ","town":"ゆめが丘","town_kana":"ユメガオカ","prefecture_code":44},"0126":{"zip_code":"8700126","prefecture":"大分県","prefecture_kana":"オオイタケン","city":"大分市","city_kana":"オオイタシ","town":"横尾","town_kana":"ヨコオ","prefecture_code":44},"1173":{"zip_code":"8701173","prefecture":"大分県","prefecture_kana":"オオイタケン","city":"大分市","city_kana":"オオイタシ","town":"横瀬","town_kana":"ヨコセ","prefecture_code":44},"0263":{"zip_code":"8700263","prefecture":"大分県","prefecture_kana":"オオイタケン","city":"大分市","city_kana":"オオイタシ","town":"横田","town_kana":"ヨコタ","prefecture_code":44},"0254":{"zip_code":"8700254","prefecture":"大分県","prefecture_kana":"オオイタケン","city":"大分市","city_kana":"オオイタシ","town":"横塚","town_kana":"ヨコヅカ","prefecture_code":44},"0883":{"zip_code":"8700883","prefecture":"大分県","prefecture_kana":"オオイタケン","city":"大分市","city_kana":"オオイタシ","town":"永興","town_kana":"リョウゴ","prefecture_code":44},"0842":{"zip_code":"8700842","prefecture":"大分県","prefecture_kana":"オオイタケン","city":"大分市","city_kana":"オオイタシ","town":"六坊南町","town_kana":"ロクボウミナミマチ","prefecture_code":44},"0841":{"zip_code":"8700841","prefecture":"大分県","prefecture_kana":"オオイタケン","city":"大分市","city_kana":"オオイタシ","town":"六坊北町","town_kana":"ロクボウキタマチ","prefecture_code":44}}