{"0000":[{"zip_code":"8710000","prefecture":"福岡県","prefecture_kana":"フクオカケン","city":"築上郡吉富町","city_kana":"チクジョウグンヨシトミマチ","town":"","town_kana":"","prefecture_code":40},{"zip_code":"8710000","prefecture":"大分県","prefecture_kana":"オオイタケン","city":"中津市","city_kana":"ナカツシ","town":"","town_kana":"","prefecture_code":44}],"0822":{"zip_code":"8710822","prefecture":"福岡県","prefecture_kana":"フクオカケン","city":"築上郡吉富町","city_kana":"チクジョウグンヨシトミマチ","town":"今吉","town_kana":"イマヨシ","prefecture_code":40},"0802":{"zip_code":"8710802","prefecture":"福岡県","prefecture_kana":"フクオカケン","city":"築上郡吉富町","city_kana":"チクジョウグンヨシトミマチ","town":"小犬丸","town_kana":"コイヌマル","prefecture_code":40},"0801":{"zip_code":"8710801","prefecture":"福岡県","prefecture_kana":"フクオカケン","city":"築上郡吉富町","city_kana":"チクジョウグンヨシトミマチ","town":"小祝","town_kana":"コイワイ","prefecture_code":40},"0821":{"zip_code":"8710821","prefecture":"福岡県","prefecture_kana":"フクオカケン","city":"築上郡吉富町","city_kana":"チクジョウグンヨシトミマチ","town":"幸子","town_kana":"コウジ","prefecture_code":40},"0832":{"zip_code":"8710832","prefecture":"福岡県","prefecture_kana":"フクオカケン","city":"築上郡吉富町","city_kana":"チクジョウグンヨシトミマチ","town":"鈴熊","town_kana":"スズクマ","prefecture_code":40},"0834":{"zip_code":"8710834","prefecture":"福岡県","prefecture_kana":"フクオカケン","city":"築上郡吉富町","city_kana":"チクジョウグンヨシトミマチ","town":"土屋","town_kana":"ツチヤ","prefecture_code":40},"0831":{"zip_code":"8710831","prefecture":"福岡県","prefecture_kana":"フクオカケン","city":"築上郡吉富町","city_kana":"チクジョウグンヨシトミマチ","town":"直江","town_kana":"ナオエ","prefecture_code":40},"0833":{"zip_code":"8710833","prefecture":"福岡県","prefecture_kana":"フクオカケン","city":"築上郡吉富町","city_kana":"チクジョウグンヨシトミマチ","town":"楡生","town_kana":"ニリョウ","prefecture_code":40},"0823":{"zip_code":"8710823","prefecture":"福岡県","prefecture_kana":"フクオカケン","city":"築上郡吉富町","city_kana":"チクジョウグンヨシトミマチ","town":"別府","town_kana":"ビョウ","prefecture_code":40},"0811":{"zip_code":"8710811","prefecture":"福岡県","prefecture_kana":"フクオカケン","city":"築上郡吉富町","city_kana":"チクジョウグンヨシトミマチ","town":"広津","town_kana":"ヒロツ","prefecture_code":40},"0900":{"zip_code":"8710900","prefecture":"福岡県","prefecture_kana":"フクオカケン","city":"築上郡上毛町","city_kana":"チクジョウグンコウゲマチ","town":"","town_kana":"","prefecture_code":40},"0904":{"zip_code":"8710904","prefecture":"福岡県","prefecture_kana":"フクオカケン","city":"築上郡上毛町","city_kana":"チクジョウグンコウゲマチ","town":"安雲","town_kana":"アクモ","prefecture_code":40},"0914":{"zip_code":"8710914","prefecture":"福岡県","prefecture_kana":"フクオカケン","city":"築上郡上毛町","city_kana":"チクジョウグンコウゲマチ","town":"宇野","town_kana":"ウノ","prefecture_code":40},"0907":{"zip_code":"8710907","prefecture":"福岡県","prefecture_kana":"フクオカケン","city":"築上郡上毛町","city_kana":"チクジョウグンコウゲマチ","town":"緒方","town_kana":"オガタ","prefecture_code":40},"0924":{"zip_code":"8710924","prefecture":"福岡県","prefecture_kana":"フクオカケン","city":"築上郡上毛町","city_kana":"チクジョウグンコウゲマチ","town":"上唐原","town_kana":"カミトウバル","prefecture_code":40},"0905":{"zip_code":"8710905","prefecture":"福岡県","prefecture_kana":"フクオカケン","city":"築上郡上毛町","city_kana":"チクジョウグンコウゲマチ","town":"尻高","town_kana":"シダカ","prefecture_code":40},"0923":{"zip_code":"8710923","prefecture":"福岡県","prefecture_kana":"フクオカケン","city":"築上郡上毛町","city_kana":"チクジョウグンコウゲマチ","town":"下唐原","town_kana":"シモトウバル","prefecture_code":40},"0902":{"zip_code":"8710902","prefecture":"福岡県","prefecture_kana":"フクオカケン","city":"築上郡上毛町","city_kana":"チクジョウグンコウゲマチ","town":"大ノ瀬","town_kana":"ダイノセ","prefecture_code":40},"0913":{"zip_code":"8710913","prefecture":"福岡県","prefecture_kana":"フクオカケン","city":"築上郡上毛町","city_kana":"チクジョウグンコウゲマチ","town":"垂水","town_kana":"タルミ","prefecture_code":40},"0921":{"zip_code":"8710921","prefecture":"福岡県","prefecture_kana":"フクオカケン","city":"築上郡上毛町","city_kana":"チクジョウグンコウゲマチ","town":"土佐井","town_kana":"ツチサイ","prefecture_code":40},"0911":{"zip_code":"8710911","prefecture":"福岡県","prefecture_kana":"フクオカケン","city":"築上郡上毛町","city_kana":"チクジョウグンコウゲマチ","town":"中村","town_kana":"ナカムラ","prefecture_code":40},"0901":{"zip_code":"8710901","prefecture":"福岡県","prefecture_kana":"フクオカケン","city":"築上郡上毛町","city_kana":"チクジョウグンコウゲマチ","town":"成恒","town_kana":"ナリツネ","prefecture_code":40},"0928":{"zip_code":"8710928","prefecture":"福岡県","prefecture_kana":"フクオカケン","city":"築上郡上毛町","city_kana":"チクジョウグンコウゲマチ","town":"西友枝","town_kana":"ニシトモエダ","prefecture_code":40},"0226":{"zip_code":"8710226","prefecture":"福岡県","prefecture_kana":"フクオカケン","city":"築上郡上毛町","city_kana":"チクジョウグンコウゲマチ","town":"原井有野","town_kana":"ハライアリノ","prefecture_code":40},"0926":{"zip_code":"8710926","prefecture":"福岡県","prefecture_kana":"フクオカケン","city":"築上郡上毛町","city_kana":"チクジョウグンコウゲマチ","town":"原井","town_kana":"ハライ","prefecture_code":40},"0927":{"zip_code":"8710927","prefecture":"福岡県","prefecture_kana":"フクオカケン","city":"築上郡上毛町","city_kana":"チクジョウグンコウゲマチ","town":"東上","town_kana":"ヒガシカミ","prefecture_code":40},"0922":{"zip_code":"8710922","prefecture":"福岡県","prefecture_kana":"フクオカケン","city":"築上郡上毛町","city_kana":"チクジョウグンコウゲマチ","town":"東下","town_kana":"ヒガシシモ","prefecture_code":40},"0925":{"zip_code":"8710925","prefecture":"福岡県","prefecture_kana":"フクオカケン","city":"築上郡上毛町","city_kana":"チクジョウグンコウゲマチ","town":"百留","town_kana":"ヒャクドミ","prefecture_code":40},"0906":{"zip_code":"8710906","prefecture":"福岡県","prefecture_kana":"フクオカケン","city":"築上郡上毛町","city_kana":"チクジョウグンコウゲマチ","town":"矢方","town_kana":"ヤカタ","prefecture_code":40},"0903":{"zip_code":"8710903","prefecture":"福岡県","prefecture_kana":"フクオカケン","city":"築上郡上毛町","city_kana":"チクジョウグンコウゲマチ","town":"八ツ並","town_kana":"ヤツナミ","prefecture_code":40},"0912":{"zip_code":"8710912","prefecture":"福岡県","prefecture_kana":"フクオカケン","city":"築上郡上毛町","city_kana":"チクジョウグンコウゲマチ","town":"吉岡","town_kana":"ヨシオカ","prefecture_code":40},"0099":{"zip_code":"8710099","prefecture":"大分県","prefecture_kana":"オオイタケン","city":"中津市","city_kana":"ナカツシ","town":"","town_kana":"","prefecture_code":44},"0122":{"zip_code":"8710122","prefecture":"大分県","prefecture_kana":"オオイタケン","city":"中津市","city_kana":"ナカツシ","town":"相原","town_kana":"アイハラ","prefecture_code":44},"0022":{"zip_code":"8710022","prefecture":"大分県","prefecture_kana":"オオイタケン","city":"中津市","city_kana":"ナカツシ","town":"相原","town_kana":"アイハラ","prefecture_code":44},"0098":{"zip_code":"8710098","prefecture":"大分県","prefecture_kana":"オオイタケン","city":"中津市","city_kana":"ナカツシ","town":"市場","town_kana":"イチバ","prefecture_code":44},"0015":{"zip_code":"8710015","prefecture":"大分県","prefecture_kana":"オオイタケン","city":"中津市","city_kana":"ナカツシ","town":"牛神","town_kana":"ウシガミ","prefecture_code":44},"0016":{"zip_code":"8710016","prefecture":"大分県","prefecture_kana":"オオイタケン","city":"中津市","city_kana":"ナカツシ","town":"牛神町","town_kana":"ウシガミマチ","prefecture_code":44},"0093":{"zip_code":"8710093","prefecture":"大分県","prefecture_kana":"オオイタケン","city":"中津市","city_kana":"ナカツシ","town":"浦町","town_kana":"ウラマチ","prefecture_code":44},"0064":{"zip_code":"8710064","prefecture":"大分県","prefecture_kana":"オオイタケン","city":"中津市","city_kana":"ナカツシ","town":"餌指町","town_kana":"エサシマチ","prefecture_code":44},"0038":{"zip_code":"8710038","prefecture":"大分県","prefecture_kana":"オオイタケン","city":"中津市","city_kana":"ナカツシ","town":"枝町","town_kana":"エダマチ","prefecture_code":44},"0065":{"zip_code":"8710065","prefecture":"大分県","prefecture_kana":"オオイタケン","city":"中津市","city_kana":"ナカツシ","town":"蛭子町","town_kana":"エビスマチ","prefecture_code":44},"0044":{"zip_code":"8710044","prefecture":"大分県","prefecture_kana":"オオイタケン","city":"中津市","city_kana":"ナカツシ","town":"江三竹町","town_kana":"エミタケマチ","prefecture_code":44},"0005":{"zip_code":"8710005","prefecture":"大分県","prefecture_kana":"オオイタケン","city":"中津市","city_kana":"ナカツシ","town":"合馬","town_kana":"オウマ","prefecture_code":44},"0153":{"zip_code":"8710153","prefecture":"大分県","prefecture_kana":"オオイタケン","city":"中津市","city_kana":"ナカツシ","town":"大貞","town_kana":"オオサダ","prefecture_code":44},"0001":{"zip_code":"8710001","prefecture":"大分県","prefecture_kana":"オオイタケン","city":"中津市","city_kana":"ナカツシ","town":"大新田","town_kana":"オオシンデン","prefecture_code":44},"0008":{"zip_code":"8710008","prefecture":"大分県","prefecture_kana":"オオイタケン","city":"中津市","city_kana":"ナカツシ","town":"大塚","town_kana":"オオツカ","prefecture_code":44},"0021":{"zip_code":"8710021","prefecture":"大分県","prefecture_kana":"オオイタケン","city":"中津市","city_kana":"ナカツシ","town":"沖代町","town_kana":"オキダイマチ","prefecture_code":44},"0045":{"zip_code":"8710045","prefecture":"大分県","prefecture_kana":"オオイタケン","city":"中津市","city_kana":"ナカツシ","town":"萱津町","town_kana":"カイヅマチ","prefecture_code":44},"0007":{"zip_code":"8710007","prefecture":"大分県","prefecture_kana":"オオイタケン","city":"中津市","city_kana":"ナカツシ","town":"蛎瀬","town_kana":"カキゼ","prefecture_code":44},"0152":{"zip_code":"8710152","prefecture":"大分県","prefecture_kana":"オオイタケン","city":"中津市","city_kana":"ナカツシ","town":"加来","town_kana":"カク","prefecture_code":44},"0082":{"zip_code":"8710082","prefecture":"大分県","prefecture_kana":"オオイタケン","city":"中津市","city_kana":"ナカツシ","town":"水主町","town_kana":"カコマチ","prefecture_code":44},"0056":{"zip_code":"8710056","prefecture":"大分県","prefecture_kana":"オオイタケン","city":"中津市","city_kana":"ナカツシ","town":"片端町","town_kana":"カタハマチ","prefecture_code":44},"0013":{"zip_code":"8710013","prefecture":"大分県","prefecture_kana":"オオイタケン","city":"中津市","city_kana":"ナカツシ","town":"金手","town_kana":"カナテ","prefecture_code":44},"0046":[{"zip_code":"8710046","prefecture":"大分県","prefecture_kana":"オオイタケン","city":"中津市","city_kana":"ナカツシ","town":"金谷上ノ丁","town_kana":"カナヤウエノチョウ","prefecture_code":44},{"zip_code":"8710046","prefecture":"大分県","prefecture_kana":"オオイタケン","city":"中津市","city_kana":"ナカツシ","town":"金谷中ノ丁","town_kana":"カナヤナカノチョウ","prefecture_code":44},{"zip_code":"8710046","prefecture":"大分県","prefecture_kana":"オオイタケン","city":"中津市","city_kana":"ナカツシ","town":"金谷西ノ丁","town_kana":"カナヤニシノチョウ","prefecture_code":44},{"zip_code":"8710046","prefecture":"大分県","prefecture_kana":"オオイタケン","city":"中津市","city_kana":"ナカツシ","town":"金谷本町","town_kana":"カナヤホンマチ","prefecture_code":44},{"zip_code":"8710046","prefecture":"大分県","prefecture_kana":"オオイタケン","city":"中津市","city_kana":"ナカツシ","town":"金谷南ノ丁","town_kana":"カナヤミナミノチョウ","prefecture_code":44},{"zip_code":"8710046","prefecture":"大分県","prefecture_kana":"オオイタケン","city":"中津市","city_kana":"ナカツシ","town":"金谷森ノ丁","town_kana":"カナヤモリノチョウ","prefecture_code":44},{"zip_code":"8710046","prefecture":"大分県","prefecture_kana":"オオイタケン","city":"中津市","city_kana":"ナカツシ","town":"金谷山ノ神","town_kana":"カナヤヤマノカミ","prefecture_code":44},{"zip_code":"8710046","prefecture":"大分県","prefecture_kana":"オオイタケン","city":"中津市","city_kana":"ナカツシ","town":"西堀端","town_kana":"ニシホリバタ","prefecture_code":44},{"zip_code":"8710046","prefecture":"大分県","prefecture_kana":"オオイタケン","city":"中津市","city_kana":"ナカツシ","town":"東堀端","town_kana":"ヒガシホリバタ","prefecture_code":44},{"zip_code":"8710046","prefecture":"大分県","prefecture_kana":"オオイタケン","city":"中津市","city_kana":"ナカツシ","town":"古金谷","town_kana":"フルカナヤ","prefecture_code":44}],"0161":{"zip_code":"8710161","prefecture":"大分県","prefecture_kana":"オオイタケン","city":"中津市","city_kana":"ナカツシ","town":"上池永","town_kana":"カミイケナガ","prefecture_code":44},"0004":{"zip_code":"8710004","prefecture":"大分県","prefecture_kana":"オオイタケン","city":"中津市","city_kana":"ナカツシ","town":"上如水","town_kana":"カミジョスイ","prefecture_code":44},"0042":{"zip_code":"8710042","prefecture":"大分県","prefecture_kana":"オオイタケン","city":"中津市","city_kana":"ナカツシ","town":"上博多町","town_kana":"カミハカタマチ","prefecture_code":44},"0027":{"zip_code":"8710027","prefecture":"大分県","prefecture_kana":"オオイタケン","city":"中津市","city_kana":"ナカツシ","town":"上宮永","town_kana":"カミミヤナガ","prefecture_code":44},"0060":{"zip_code":"8710060","prefecture":"大分県","prefecture_kana":"オオイタケン","city":"中津市","city_kana":"ナカツシ","town":"北稲堀","town_kana":"キタイナボリ","prefecture_code":44},"0094":{"zip_code":"8710094","prefecture":"大分県","prefecture_kana":"オオイタケン","city":"中津市","city_kana":"ナカツシ","town":"北浦町","town_kana":"キタウラマチ","prefecture_code":44},"0090":{"zip_code":"8710090","prefecture":"大分県","prefecture_kana":"オオイタケン","city":"中津市","city_kana":"ナカツシ","town":"北新地","town_kana":"キタシンチ","prefecture_code":44},"0081":{"zip_code":"8710081","prefecture":"大分県","prefecture_kana":"オオイタケン","city":"中津市","city_kana":"ナカツシ","town":"北堀川町","town_kana":"キタホリカワマチ","prefecture_code":44},"0079":{"zip_code":"8710079","prefecture":"大分県","prefecture_kana":"オオイタケン","city":"中津市","city_kana":"ナカツシ","town":"北門通","town_kana":"キタモンドオリ","prefecture_code":44},"0054":{"zip_code":"8710054","prefecture":"大分県","prefecture_kana":"オオイタケン","city":"中津市","city_kana":"ナカツシ","town":"京町","town_kana":"キョウマチ","prefecture_code":44},"0091":[{"zip_code":"8710091","prefecture":"大分県","prefecture_kana":"オオイタケン","city":"中津市","city_kana":"ナカツシ","town":"闇無町","town_kana":"クラナシマチ","prefecture_code":44},{"zip_code":"8710091","prefecture":"大分県","prefecture_kana":"オオイタケン","city":"中津市","city_kana":"ナカツシ","town":"角木","town_kana":"ツノギ","prefecture_code":44}],"0078":[{"zip_code":"8710078","prefecture":"大分県","prefecture_kana":"オオイタケン","city":"中津市","city_kana":"ナカツシ","town":"小祝上方町","town_kana":"コイワイカミカタマチ","prefecture_code":44},{"zip_code":"8710078","prefecture":"大分県","prefecture_kana":"オオイタケン","city":"中津市","city_kana":"ナカツシ","town":"小祝中島町","town_kana":"コイワイナカシママチ","prefecture_code":44},{"zip_code":"8710078","prefecture":"大分県","prefecture_kana":"オオイタケン","city":"中津市","city_kana":"ナカツシ","town":"小祝本町","town_kana":"コイワイホンマチ","prefecture_code":44},{"zip_code":"8710078","prefecture":"大分県","prefecture_kana":"オオイタケン","city":"中津市","city_kana":"ナカツシ","town":"小祝港町","town_kana":"コイワイミナトマチ","prefecture_code":44}],"0080":{"zip_code":"8710080","prefecture":"大分県","prefecture_kana":"オオイタケン","city":"中津市","city_kana":"ナカツシ","town":"小祝新町","town_kana":"コイワイシンマチ","prefecture_code":44},"0154":{"zip_code":"8710154","prefecture":"大分県","prefecture_kana":"オオイタケン","city":"中津市","city_kana":"ナカツシ","town":"古城","town_kana":"コジョウ","prefecture_code":44},"0084":{"zip_code":"8710084","prefecture":"大分県","prefecture_kana":"オオイタケン","city":"中津市","city_kana":"ナカツシ","town":"小堀","town_kana":"コボリ","prefecture_code":44},"0076":{"zip_code":"8710076","prefecture":"大分県","prefecture_kana":"オオイタケン","city":"中津市","city_kana":"ナカツシ","town":"米町","town_kana":"コメマチ","prefecture_code":44},"0003":{"zip_code":"8710003","prefecture":"大分県","prefecture_kana":"オオイタケン","city":"中津市","city_kana":"ナカツシ","town":"是則","town_kana":"コレノリ","prefecture_code":44},"0043":{"zip_code":"8710043","prefecture":"大分県","prefecture_kana":"オオイタケン","city":"中津市","city_kana":"ナカツシ","town":"栄町","town_kana":"サカエマチ","prefecture_code":44},"0156":{"zip_code":"8710156","prefecture":"大分県","prefecture_kana":"オオイタケン","city":"中津市","city_kana":"ナカツシ","town":"榊原町","town_kana":"サカキバラチョウ","prefecture_code":44},"0074":{"zip_code":"8710074","prefecture":"大分県","prefecture_kana":"オオイタケン","city":"中津市","city_kana":"ナカツシ","town":"桜町","town_kana":"サクラマチ","prefecture_code":44},"0104":{"zip_code":"8710104","prefecture":"大分県","prefecture_kana":"オオイタケン","city":"中津市","city_kana":"ナカツシ","town":"三光諫山","town_kana":"サンコウイサヤマ","prefecture_code":44},"0112":{"zip_code":"8710112","prefecture":"大分県","prefecture_kana":"オオイタケン","city":"中津市","city_kana":"ナカツシ","town":"三光臼木","town_kana":"サンコウウスギ","prefecture_code":44},"0114":{"zip_code":"8710114","prefecture":"大分県","prefecture_kana":"オオイタケン","city":"中津市","city_kana":"ナカツシ","town":"三光小袋","town_kana":"サンコウオブクロ","prefecture_code":44},"0111":{"zip_code":"8710111","prefecture":"大分県","prefecture_kana":"オオイタケン","city":"中津市","city_kana":"ナカツシ","town":"三光佐知","town_kana":"サンコウサチ","prefecture_code":44},"0103":{"zip_code":"8710103","prefecture":"大分県","prefecture_kana":"オオイタケン","city":"中津市","city_kana":"ナカツシ","town":"三光田口","town_kana":"サンコウタグチ","prefecture_code":44},"0113":{"zip_code":"8710113","prefecture":"大分県","prefecture_kana":"オオイタケン","city":"中津市","city_kana":"ナカツシ","town":"三光土田","town_kana":"サンコウツチダ","prefecture_code":44},"0102":{"zip_code":"8710102","prefecture":"大分県","prefecture_kana":"オオイタケン","city":"中津市","city_kana":"ナカツシ","town":"三光成恒","town_kana":"サンコウナリツネ","prefecture_code":44},"0105":{"zip_code":"8710105","prefecture":"大分県","prefecture_kana":"オオイタケン","city":"中津市","city_kana":"ナカツシ","town":"三光原口","town_kana":"サンコウハラグチ","prefecture_code":44},"0101":{"zip_code":"8710101","prefecture":"大分県","prefecture_kana":"オオイタケン","city":"中津市","city_kana":"ナカツシ","town":"三光森山","town_kana":"サンコウモリヤマ","prefecture_code":44},"0057":{"zip_code":"8710057","prefecture":"大分県","prefecture_kana":"オオイタケン","city":"中津市","city_kana":"ナカツシ","town":"三ノ丁","town_kana":"サンノチョウ","prefecture_code":44},"0073":{"zip_code":"8710073","prefecture":"大分県","prefecture_kana":"オオイタケン","city":"中津市","city_kana":"ナカツシ","town":"塩町","town_kana":"シオマチ","prefecture_code":44},"0033":{"zip_code":"8710033","prefecture":"大分県","prefecture_kana":"オオイタケン","city":"中津市","city_kana":"ナカツシ","town":"島田","town_kana":"シマタ","prefecture_code":44},"0035":{"zip_code":"8710035","prefecture":"大分県","prefecture_kana":"オオイタケン","city":"中津市","city_kana":"ナカツシ","town":"島田仲町","town_kana":"シマタナカマチ","prefecture_code":44},"0036":{"zip_code":"8710036","prefecture":"大分県","prefecture_kana":"オオイタケン","city":"中津市","city_kana":"ナカツシ","town":"島田本町","town_kana":"シマタホンマチ","prefecture_code":44},"0011":{"zip_code":"8710011","prefecture":"大分県","prefecture_kana":"オオイタケン","city":"中津市","city_kana":"ナカツシ","town":"下池永","town_kana":"シモイケナガ","prefecture_code":44},"0097":{"zip_code":"8710097","prefecture":"大分県","prefecture_kana":"オオイタケン","city":"中津市","city_kana":"ナカツシ","town":"下正路","town_kana":"シモショウジ","prefecture_code":44},"0164":{"zip_code":"8710164","prefecture":"大分県","prefecture_kana":"オオイタケン","city":"中津市","city_kana":"ナカツシ","town":"下永添","town_kana":"シモナガソイ","prefecture_code":44},"0029":{"zip_code":"8710029","prefecture":"大分県","prefecture_kana":"オオイタケン","city":"中津市","city_kana":"ナカツシ","town":"下宮永","town_kana":"シモミヤナガ","prefecture_code":44},"0048":{"zip_code":"8710048","prefecture":"大分県","prefecture_kana":"オオイタケン","city":"中津市","city_kana":"ナカツシ","town":"新魚町","town_kana":"シンウオマチ","prefecture_code":44},"0009":{"zip_code":"8710009","prefecture":"大分県","prefecture_kana":"オオイタケン","city":"中津市","city_kana":"ナカツシ","town":"新大塚町","town_kana":"シンオオツカマチ","prefecture_code":44},"0039":[{"zip_code":"8710039","prefecture":"大分県","prefecture_kana":"オオイタケン","city":"中津市","city_kana":"ナカツシ","town":"新天神町","town_kana":"シンテンジンマチ","prefecture_code":44},{"zip_code":"8710039","prefecture":"大分県","prefecture_kana":"オオイタケン","city":"中津市","city_kana":"ナカツシ","town":"天神町","town_kana":"テンジンマチ","prefecture_code":44}],"0041":{"zip_code":"8710041","prefecture":"大分県","prefecture_kana":"オオイタケン","city":"中津市","city_kana":"ナカツシ","town":"新博多町","town_kana":"シンハカタマチ","prefecture_code":44},"0069":{"zip_code":"8710069","prefecture":"大分県","prefecture_kana":"オオイタケン","city":"中津市","city_kana":"ナカツシ","town":"新堀","town_kana":"シンボリ","prefecture_code":44},"0086":{"zip_code":"8710086","prefecture":"大分県","prefecture_kana":"オオイタケン","city":"中津市","city_kana":"ナカツシ","town":"船頭町","town_kana":"センドマチ","prefecture_code":44},"0002":{"zip_code":"8710002","prefecture":"大分県","prefecture_kana":"オオイタケン","city":"中津市","city_kana":"ナカツシ","town":"全徳","town_kana":"ゼントク","prefecture_code":44},"0089":{"zip_code":"8710089","prefecture":"大分県","prefecture_kana":"オオイタケン","city":"中津市","city_kana":"ナカツシ","town":"船場町","town_kana":"センバマチ","prefecture_code":44},"0059":{"zip_code":"8710059","prefecture":"大分県","prefecture_kana":"オオイタケン","city":"中津市","city_kana":"ナカツシ","town":"外馬場","town_kana":"ソトババ","prefecture_code":44},"0151":{"zip_code":"8710151","prefecture":"大分県","prefecture_kana":"オオイタケン","city":"中津市","city_kana":"ナカツシ","town":"大悟法","town_kana":"ダイゴボウ","prefecture_code":44},"0066":{"zip_code":"8710066","prefecture":"大分県","prefecture_kana":"オオイタケン","city":"中津市","city_kana":"ナカツシ","town":"鷹匠町","town_kana":"タカジョウマチ","prefecture_code":44},"0026":{"zip_code":"8710026","prefecture":"大分県","prefecture_kana":"オオイタケン","city":"中津市","city_kana":"ナカツシ","town":"高瀬","town_kana":"タカセ","prefecture_code":44},"0071":{"zip_code":"8710071","prefecture":"大分県","prefecture_kana":"オオイタケン","city":"中津市","city_kana":"ナカツシ","town":"鷹部屋","town_kana":"タカベヤ","prefecture_code":44},"0024":{"zip_code":"8710024","prefecture":"大分県","prefecture_kana":"オオイタケン","city":"中津市","city_kana":"ナカツシ","town":"中央町","town_kana":"チュウオウマチ","prefecture_code":44},"0067":{"zip_code":"8710067","prefecture":"大分県","prefecture_kana":"オオイタケン","city":"中津市","city_kana":"ナカツシ","town":"仲間町","town_kana":"チュウゲンマチ","prefecture_code":44},"0095":{"zip_code":"8710095","prefecture":"大分県","prefecture_kana":"オオイタケン","city":"中津市","city_kana":"ナカツシ","town":"角木新町","town_kana":"ツノギシンマチ","prefecture_code":44},"0028":{"zip_code":"8710028","prefecture":"大分県","prefecture_kana":"オオイタケン","city":"中津市","city_kana":"ナカツシ","town":"角木町","town_kana":"ツノギマチ","prefecture_code":44},"0075":{"zip_code":"8710075","prefecture":"大分県","prefecture_kana":"オオイタケン","city":"中津市","city_kana":"ナカツシ","town":"寺町","town_kana":"テラマチ","prefecture_code":44},"0055":{"zip_code":"8710055","prefecture":"大分県","prefecture_kana":"オオイタケン","city":"中津市","city_kana":"ナカツシ","town":"殿町","town_kana":"トノマチ","prefecture_code":44},"0058":{"zip_code":"8710058","prefecture":"大分県","prefecture_kana":"オオイタケン","city":"中津市","city_kana":"ナカツシ","town":"豊田町","town_kana":"トヨダマチ","prefecture_code":44},"0031":{"zip_code":"8710031","prefecture":"大分県","prefecture_kana":"オオイタケン","city":"中津市","city_kana":"ナカツシ","town":"中殿","town_kana":"ナカドノ","prefecture_code":44},"0030":{"zip_code":"8710030","prefecture":"大分県","prefecture_kana":"オオイタケン","city":"中津市","city_kana":"ナカツシ","town":"中殿町","town_kana":"ナカドノマチ","prefecture_code":44},"0157":{"zip_code":"8710157","prefecture":"大分県","prefecture_kana":"オオイタケン","city":"中津市","city_kana":"ナカツシ","town":"中原","town_kana":"ナカバル","prefecture_code":44},"0162":{"zip_code":"8710162","prefecture":"大分県","prefecture_kana":"オオイタケン","city":"中津市","city_kana":"ナカツシ","town":"永添","town_kana":"ナガソエ","prefecture_code":44},"0163":{"zip_code":"8710163","prefecture":"大分県","prefecture_kana":"オオイタケン","city":"中津市","city_kana":"ナカツシ","town":"西永添","town_kana":"ニシナガソイ","prefecture_code":44},"0050":{"zip_code":"8710050","prefecture":"大分県","prefecture_kana":"オオイタケン","city":"中津市","city_kana":"ナカツシ","town":"二ノ丁","town_kana":"ニノチョウ","prefecture_code":44},"0155":{"zip_code":"8710155","prefecture":"大分県","prefecture_kana":"オオイタケン","city":"中津市","city_kana":"ナカツシ","town":"八幡町","town_kana":"ハチマンチョウ","prefecture_code":44},"0006":{"zip_code":"8710006","prefecture":"大分県","prefecture_kana":"オオイタケン","city":"中津市","city_kana":"ナカツシ","town":"東浜","town_kana":"ヒガシハマ","prefecture_code":44},"0032":{"zip_code":"8710032","prefecture":"大分県","prefecture_kana":"オオイタケン","city":"中津市","city_kana":"ナカツシ","town":"東本町","town_kana":"ヒガシホンマチ","prefecture_code":44},"0014":{"zip_code":"8710014","prefecture":"大分県","prefecture_kana":"オオイタケン","city":"中津市","city_kana":"ナカツシ","town":"一ツ松","town_kana":"ヒトツマツ","prefecture_code":44},"0034":{"zip_code":"8710034","prefecture":"大分県","prefecture_kana":"オオイタケン","city":"中津市","city_kana":"ナカツシ","town":"日ノ出町","town_kana":"ヒノデマチ","prefecture_code":44},"0077":{"zip_code":"8710077","prefecture":"大分県","prefecture_kana":"オオイタケン","city":"中津市","city_kana":"ナカツシ","town":"姫路町","town_kana":"ヒメジマチ","prefecture_code":44},"0063":{"zip_code":"8710063","prefecture":"大分県","prefecture_kana":"オオイタケン","city":"中津市","city_kana":"ナカツシ","town":"袋町","town_kana":"フクロマチ","prefecture_code":44},"0072":{"zip_code":"8710072","prefecture":"大分県","prefecture_kana":"オオイタケン","city":"中津市","city_kana":"ナカツシ","town":"船町","town_kana":"フナマチ","prefecture_code":44},"0053":{"zip_code":"8710053","prefecture":"大分県","prefecture_kana":"オオイタケン","city":"中津市","city_kana":"ナカツシ","town":"古魚町","town_kana":"フルウオマチ","prefecture_code":44},"0051":{"zip_code":"8710051","prefecture":"大分県","prefecture_kana":"オオイタケン","city":"中津市","city_kana":"ナカツシ","town":"古博多町","town_kana":"フルハカタマチ","prefecture_code":44},"0068":{"zip_code":"8710068","prefecture":"大分県","prefecture_kana":"オオイタケン","city":"中津市","city_kana":"ナカツシ","town":"豊後町","town_kana":"ブンゴマチ","prefecture_code":44},"0311":{"zip_code":"8710311","prefecture":"大分県","prefecture_kana":"オオイタケン","city":"中津市","city_kana":"ナカツシ","town":"本耶馬渓町跡田","town_kana":"ホンヤバケイマチアトダ","prefecture_code":44},"0206":{"zip_code":"8710206","prefecture":"大分県","prefecture_kana":"オオイタケン","city":"中津市","city_kana":"ナカツシ","town":"本耶馬渓町今行","town_kana":"ホンヤバケイマチイマユク","prefecture_code":44},"0313":{"zip_code":"8710313","prefecture":"大分県","prefecture_kana":"オオイタケン","city":"中津市","city_kana":"ナカツシ","town":"本耶馬渓町落合","town_kana":"ホンヤバケイマチオチアイ","prefecture_code":44},"0312":{"zip_code":"8710312","prefecture":"大分県","prefecture_kana":"オオイタケン","city":"中津市","city_kana":"ナカツシ","town":"本耶馬渓町折元","town_kana":"ホンヤバケイマチオリモト","prefecture_code":44},"0204":{"zip_code":"8710204","prefecture":"大分県","prefecture_kana":"オオイタケン","city":"中津市","city_kana":"ナカツシ","town":"本耶馬渓町冠石野","town_kana":"ホンヤバケイマチカブシノ","prefecture_code":44},"0205":{"zip_code":"8710205","prefecture":"大分県","prefecture_kana":"オオイタケン","city":"中津市","city_kana":"ナカツシ","town":"本耶馬渓町下屋形","town_kana":"ホンヤバケイマチシモヤカタ","prefecture_code":44},"0202":{"zip_code":"8710202","prefecture":"大分県","prefecture_kana":"オオイタケン","city":"中津市","city_kana":"ナカツシ","town":"本耶馬渓町曽木","town_kana":"ホンヤバケイマチソギ","prefecture_code":44},"0203":{"zip_code":"8710203","prefecture":"大分県","prefecture_kana":"オオイタケン","city":"中津市","city_kana":"ナカツシ","town":"本耶馬渓町多志田","town_kana":"ホンヤバケイマチタシダ","prefecture_code":44},"0314":{"zip_code":"8710314","prefecture":"大分県","prefecture_kana":"オオイタケン","city":"中津市","city_kana":"ナカツシ","town":"本耶馬渓町西谷","town_kana":"ホンヤバケイマチニシタニ","prefecture_code":44},"0208":{"zip_code":"8710208","prefecture":"大分県","prefecture_kana":"オオイタケン","city":"中津市","city_kana":"ナカツシ","town":"本耶馬渓町西屋形","town_kana":"ホンヤバケイマチニシヤカタ","prefecture_code":44},"0315":{"zip_code":"8710315","prefecture":"大分県","prefecture_kana":"オオイタケン","city":"中津市","city_kana":"ナカツシ","town":"本耶馬渓町東谷","town_kana":"ホンヤバケイマチヒガシタニ","prefecture_code":44},"0207":{"zip_code":"8710207","prefecture":"大分県","prefecture_kana":"オオイタケン","city":"中津市","city_kana":"ナカツシ","town":"本耶馬渓町東屋形","town_kana":"ホンヤバケイマチヒガシヤカタ","prefecture_code":44},"0201":{"zip_code":"8710201","prefecture":"大分県","prefecture_kana":"オオイタケン","city":"中津市","city_kana":"ナカツシ","town":"本耶馬渓町樋田","town_kana":"ホンヤバケイマチヒダ","prefecture_code":44},"0047":{"zip_code":"8710047","prefecture":"大分県","prefecture_kana":"オオイタケン","city":"中津市","city_kana":"ナカツシ","town":"丸山町","town_kana":"マルヤマチョウ","prefecture_code":44},"0025":{"zip_code":"8710025","prefecture":"大分県","prefecture_kana":"オオイタケン","city":"中津市","city_kana":"ナカツシ","town":"万田","town_kana":"マンダ","prefecture_code":44},"0061":{"zip_code":"8710061","prefecture":"大分県","prefecture_kana":"オオイタケン","city":"中津市","city_kana":"ナカツシ","town":"南稲堀","town_kana":"ミナミイナボリ","prefecture_code":44},"0092":{"zip_code":"8710092","prefecture":"大分県","prefecture_kana":"オオイタケン","city":"中津市","city_kana":"ナカツシ","town":"南新地","town_kana":"ミナミシンチ","prefecture_code":44},"0087":{"zip_code":"8710087","prefecture":"大分県","prefecture_kana":"オオイタケン","city":"中津市","city_kana":"ナカツシ","town":"南堀川町","town_kana":"ミナミホリカワマチ","prefecture_code":44},"0037":{"zip_code":"8710037","prefecture":"大分県","prefecture_kana":"オオイタケン","city":"中津市","city_kana":"ナカツシ","town":"宮島町","town_kana":"ミヤジママチ","prefecture_code":44},"0012":{"zip_code":"8710012","prefecture":"大分県","prefecture_kana":"オオイタケン","city":"中津市","city_kana":"ナカツシ","town":"宮夫","town_kana":"ミヤブ","prefecture_code":44},"0049":{"zip_code":"8710049","prefecture":"大分県","prefecture_kana":"オオイタケン","city":"中津市","city_kana":"ナカツシ","town":"諸町","town_kana":"モロマチ","prefecture_code":44},"0083":{"zip_code":"8710083","prefecture":"大分県","prefecture_kana":"オオイタケン","city":"中津市","city_kana":"ナカツシ","town":"矢場","town_kana":"ヤバ","prefecture_code":44},"0431":{"zip_code":"8710431","prefecture":"大分県","prefecture_kana":"オオイタケン","city":"中津市","city_kana":"ナカツシ","town":"耶馬溪町大島","town_kana":"ヤバケイマチオオシマ","prefecture_code":44},"0413":{"zip_code":"8710413","prefecture":"大分県","prefecture_kana":"オオイタケン","city":"中津市","city_kana":"ナカツシ","town":"耶馬溪町大野","town_kana":"ヤバケイマチオオノ","prefecture_code":44},"0406":{"zip_code":"8710406","prefecture":"大分県","prefecture_kana":"オオイタケン","city":"中津市","city_kana":"ナカツシ","town":"耶馬溪町小友田","town_kana":"ヤバケイマチオトモダ","prefecture_code":44},"0405":{"zip_code":"8710405","prefecture":"大分県","prefecture_kana":"オオイタケン","city":"中津市","city_kana":"ナカツシ","town":"耶馬溪町柿坂","town_kana":"ヤバケイマチカキサカ","prefecture_code":44},"0432":{"zip_code":"8710432","prefecture":"大分県","prefecture_kana":"オオイタケン","city":"中津市","city_kana":"ナカツシ","town":"耶馬溪町金吉","town_kana":"ヤバケイマチカナヨシ","prefecture_code":44},"0402":{"zip_code":"8710402","prefecture":"大分県","prefecture_kana":"オオイタケン","city":"中津市","city_kana":"ナカツシ","town":"耶馬溪町冠石野","town_kana":"ヤバケイマチカブシノ","prefecture_code":44},"0414":{"zip_code":"8710414","prefecture":"大分県","prefecture_kana":"オオイタケン","city":"中津市","city_kana":"ナカツシ","town":"耶馬溪町川原口","town_kana":"ヤバケイマチカワラグチ","prefecture_code":44},"0422":{"zip_code":"8710422","prefecture":"大分県","prefecture_kana":"オオイタケン","city":"中津市","city_kana":"ナカツシ","town":"耶馬溪町深耶馬","town_kana":"ヤバケイマチシンヤバ","prefecture_code":44},"0403":{"zip_code":"8710403","prefecture":"大分県","prefecture_kana":"オオイタケン","city":"中津市","city_kana":"ナカツシ","town":"耶馬溪町多志田","town_kana":"ヤバケイマチタシダ","prefecture_code":44},"0412":{"zip_code":"8710412","prefecture":"大分県","prefecture_kana":"オオイタケン","city":"中津市","city_kana":"ナカツシ","town":"耶馬溪町栃木","town_kana":"ヤバケイマチトチギ","prefecture_code":44},"0404":{"zip_code":"8710404","prefecture":"大分県","prefecture_kana":"オオイタケン","city":"中津市","city_kana":"ナカツシ","town":"耶馬溪町戸原","town_kana":"ヤバケイマチトバル","prefecture_code":44},"0411":{"zip_code":"8710411","prefecture":"大分県","prefecture_kana":"オオイタケン","city":"中津市","city_kana":"ナカツシ","town":"耶馬溪町中畑","town_kana":"ヤバケイマチナカハタ","prefecture_code":44},"0434":{"zip_code":"8710434","prefecture":"大分県","prefecture_kana":"オオイタケン","city":"中津市","city_kana":"ナカツシ","town":"耶馬溪町樋山路","town_kana":"ヤバケイマチヒヤマジ","prefecture_code":44},"0401":{"zip_code":"8710401","prefecture":"大分県","prefecture_kana":"オオイタケン","city":"中津市","city_kana":"ナカツシ","town":"耶馬溪町平田","town_kana":"ヤバケイマチヒラタ","prefecture_code":44},"0408":{"zip_code":"8710408","prefecture":"大分県","prefecture_kana":"オオイタケン","city":"中津市","city_kana":"ナカツシ","town":"耶馬溪町福土","town_kana":"ヤバケイマチフクツチ","prefecture_code":44},"0407":{"zip_code":"8710407","prefecture":"大分県","prefecture_kana":"オオイタケン","city":"中津市","city_kana":"ナカツシ","town":"耶馬溪町三尾母","town_kana":"ヤバケイマチミオモ","prefecture_code":44},"0433":{"zip_code":"8710433","prefecture":"大分県","prefecture_kana":"オオイタケン","city":"中津市","city_kana":"ナカツシ","town":"耶馬溪町宮園","town_kana":"ヤバケイマチミヤソノ","prefecture_code":44},"0421":{"zip_code":"8710421","prefecture":"大分県","prefecture_kana":"オオイタケン","city":"中津市","city_kana":"ナカツシ","town":"耶馬溪町山移","town_kana":"ヤバケイマチヤマウツリ","prefecture_code":44},"0715":{"zip_code":"8710715","prefecture":"大分県","prefecture_kana":"オオイタケン","city":"中津市","city_kana":"ナカツシ","town":"山国町宇曽","town_kana":"ヤマクニマチウソ","prefecture_code":44},"0702":{"zip_code":"8710702","prefecture":"大分県","prefecture_kana":"オオイタケン","city":"中津市","city_kana":"ナカツシ","town":"山国町草本","town_kana":"ヤマクニマチクサモト","prefecture_code":44},"0703":{"zip_code":"8710703","prefecture":"大分県","prefecture_kana":"オオイタケン","city":"中津市","city_kana":"ナカツシ","town":"山国町小屋川","town_kana":"ヤマクニマチコヤガワ","prefecture_code":44},"0701":{"zip_code":"8710701","prefecture":"大分県","prefecture_kana":"オオイタケン","city":"中津市","city_kana":"ナカツシ","town":"山国町槻木","town_kana":"ヤマクニマチツキノキ","prefecture_code":44},"0714":{"zip_code":"8710714","prefecture":"大分県","prefecture_kana":"オオイタケン","city":"中津市","city_kana":"ナカツシ","town":"山国町長尾野","town_kana":"ヤマクニマチナガオノ","prefecture_code":44},"0716":{"zip_code":"8710716","prefecture":"大分県","prefecture_kana":"オオイタケン","city":"中津市","city_kana":"ナカツシ","town":"山国町中摩","town_kana":"ヤマクニマチナカマ","prefecture_code":44},"0711":{"zip_code":"8710711","prefecture":"大分県","prefecture_kana":"オオイタケン","city":"中津市","city_kana":"ナカツシ","town":"山国町平小野","town_kana":"ヤマクニマチヒラオノ","prefecture_code":44},"0713":{"zip_code":"8710713","prefecture":"大分県","prefecture_kana":"オオイタケン","city":"中津市","city_kana":"ナカツシ","town":"山国町藤野木","town_kana":"ヤマクニマチフジノキ","prefecture_code":44},"0712":{"zip_code":"8710712","prefecture":"大分県","prefecture_kana":"オオイタケン","city":"中津市","city_kana":"ナカツシ","town":"山国町守実","town_kana":"ヤマクニマチモリザネ","prefecture_code":44},"0704":{"zip_code":"8710704","prefecture":"大分県","prefecture_kana":"オオイタケン","city":"中津市","city_kana":"ナカツシ","town":"山国町吉野","town_kana":"ヤマクニマチヨシノ","prefecture_code":44},"0062":{"zip_code":"8710062","prefecture":"大分県","prefecture_kana":"オオイタケン","city":"中津市","city_kana":"ナカツシ","town":"山下","town_kana":"ヤマシタ","prefecture_code":44},"0085":{"zip_code":"8710085","prefecture":"大分県","prefecture_kana":"オオイタケン","city":"中津市","city_kana":"ナカツシ","town":"弓町","town_kana":"ユミチョウ","prefecture_code":44},"0023":{"zip_code":"8710023","prefecture":"大分県","prefecture_kana":"オオイタケン","city":"中津市","city_kana":"ナカツシ","town":"湯屋","town_kana":"ユヤ","prefecture_code":44},"0096":{"zip_code":"8710096","prefecture":"大分県","prefecture_kana":"オオイタケン","city":"中津市","city_kana":"ナカツシ","town":"竜王町","town_kana":"リュウオウマチ","prefecture_code":44},"0088":{"zip_code":"8710088","prefecture":"大分県","prefecture_kana":"オオイタケン","city":"中津市","city_kana":"ナカツシ","town":"留守居町","town_kana":"ルスイマチ","prefecture_code":44}}