{"1107":{"zip_code":"8721107","prefecture":"大分県","prefecture_kana":"オオイタケン","city":"豊後高田市","city_kana":"ブンゴタカダシ","town":"臼野","town_kana":"ウスノ","prefecture_code":44},"1201":{"zip_code":"8721201","prefecture":"大分県","prefecture_kana":"オオイタケン","city":"豊後高田市","city_kana":"ブンゴタカダシ","town":"夷","town_kana":"エビス","prefecture_code":44},"1102":{"zip_code":"8721102","prefecture":"大分県","prefecture_kana":"オオイタケン","city":"豊後高田市","city_kana":"ブンゴタカダシ","town":"大岩屋","town_kana":"オオイワヤ","prefecture_code":44},"1106":{"zip_code":"8721106","prefecture":"大分県","prefecture_kana":"オオイタケン","city":"豊後高田市","city_kana":"ブンゴタカダシ","town":"大平","town_kana":"オオヒラ","prefecture_code":44},"1202":{"zip_code":"8721202","prefecture":"大分県","prefecture_kana":"オオイタケン","city":"豊後高田市","city_kana":"ブンゴタカダシ","town":"香々地","town_kana":"カカヂ","prefecture_code":44},"1203":{"zip_code":"8721203","prefecture":"大分県","prefecture_kana":"オオイタケン","city":"豊後高田市","city_kana":"ブンゴタカダシ","town":"堅来","town_kana":"カタク","prefecture_code":44},"1204":{"zip_code":"8721204","prefecture":"大分県","prefecture_kana":"オオイタケン","city":"豊後高田市","city_kana":"ブンゴタカダシ","town":"上香々地","town_kana":"カミカカヂ","prefecture_code":44},"1103":{"zip_code":"8721103","prefecture":"大分県","prefecture_kana":"オオイタケン","city":"豊後高田市","city_kana":"ブンゴタカダシ","town":"黒土","town_kana":"クロツチ","prefecture_code":44},"1205":{"zip_code":"8721205","prefecture":"大分県","prefecture_kana":"オオイタケン","city":"豊後高田市","city_kana":"ブンゴタカダシ","town":"小畑","town_kana":"コバタ","prefecture_code":44},"1104":{"zip_code":"8721104","prefecture":"大分県","prefecture_kana":"オオイタケン","city":"豊後高田市","city_kana":"ブンゴタカダシ","town":"城前","town_kana":"ジョウゼン","prefecture_code":44},"1101":{"zip_code":"8721101","prefecture":"大分県","prefecture_kana":"オオイタケン","city":"豊後高田市","city_kana":"ブンゴタカダシ","town":"中真玉","town_kana":"ナカマタマ","prefecture_code":44},"1105":{"zip_code":"8721105","prefecture":"大分県","prefecture_kana":"オオイタケン","city":"豊後高田市","city_kana":"ブンゴタカダシ","town":"西真玉","town_kana":"ニシマタマ","prefecture_code":44},"1206":{"zip_code":"8721206","prefecture":"大分県","prefecture_kana":"オオイタケン","city":"豊後高田市","city_kana":"ブンゴタカダシ","town":"羽根","town_kana":"ハネ","prefecture_code":44},"1207":{"zip_code":"8721207","prefecture":"大分県","prefecture_kana":"オオイタケン","city":"豊後高田市","city_kana":"ブンゴタカダシ","town":"見目","town_kana":"ミメ","prefecture_code":44},"0000":{"zip_code":"8720000","prefecture":"大分県","prefecture_kana":"オオイタケン","city":"宇佐市","city_kana":"ウサシ","town":"","town_kana":"","prefecture_code":44},"0732":{"zip_code":"8720732","prefecture":"大分県","prefecture_kana":"オオイタケン","city":"宇佐市","city_kana":"ウサシ","town":"安心院町板場","town_kana":"アジムマチイタバ","prefecture_code":44},"0518":{"zip_code":"8720518","prefecture":"大分県","prefecture_kana":"オオイタケン","city":"宇佐市","city_kana":"ウサシ","town":"安心院町今井","town_kana":"アジムマチイマイ","prefecture_code":44},"0843":{"zip_code":"8720843","prefecture":"大分県","prefecture_kana":"オオイタケン","city":"宇佐市","city_kana":"ウサシ","town":"安心院町筌ノ口","town_kana":"アジムマチウケノクチ","prefecture_code":44},"0654":{"zip_code":"8720654","prefecture":"大分県","prefecture_kana":"オオイタケン","city":"宇佐市","city_kana":"ウサシ","town":"安心院町内川野","town_kana":"アジムマチウチガワノ","prefecture_code":44},"0510":{"zip_code":"8720510","prefecture":"大分県","prefecture_kana":"オオイタケン","city":"宇佐市","city_kana":"ウサシ","town":"安心院町有徳原","town_kana":"アジムマチウットクバル","prefecture_code":44},"0663":{"zip_code":"8720663","prefecture":"大分県","prefecture_kana":"オオイタケン","city":"宇佐市","city_kana":"ウサシ","town":"安心院町大見尾","town_kana":"アジムマチオオミオ","prefecture_code":44},"0522":{"zip_code":"8720522","prefecture":"大分県","prefecture_kana":"オオイタケン","city":"宇佐市","city_kana":"ウサシ","town":"安心院町折敷田","town_kana":"アジムマチオシキダ","prefecture_code":44},"0703":{"zip_code":"8720703","prefecture":"大分県","prefecture_kana":"オオイタケン","city":"宇佐市","city_kana":"ウサシ","town":"安心院町尾立","town_kana":"アジムマチオダテ","prefecture_code":44},"0671":{"zip_code":"8720671","prefecture":"大分県","prefecture_kana":"オオイタケン","city":"宇佐市","city_kana":"ウサシ","town":"安心院町且尾","town_kana":"アジムマチカツオ","prefecture_code":44},"0511":{"zip_code":"8720511","prefecture":"大分県","prefecture_kana":"オオイタケン","city":"宇佐市","city_kana":"ウサシ","town":"安心院町上市","town_kana":"アジムマチカミイチ","prefecture_code":44},"0852":{"zip_code":"8720852","prefecture":"大分県","prefecture_kana":"オオイタケン","city":"宇佐市","city_kana":"ウサシ","town":"安心院町上内河野","town_kana":"アジムマチカミウチガワノ","prefecture_code":44},"0723":{"zip_code":"8720723","prefecture":"大分県","prefecture_kana":"オオイタケン","city":"宇佐市","city_kana":"ウサシ","town":"安心院町萱籠","town_kana":"アジムマチカヤゴモリ","prefecture_code":44},"0731":{"zip_code":"8720731","prefecture":"大分県","prefecture_kana":"オオイタケン","city":"宇佐市","city_kana":"ウサシ","town":"安心院町川崎","town_kana":"アジムマチカワサキ","prefecture_code":44},"0862":{"zip_code":"8720862","prefecture":"大分県","prefecture_kana":"オオイタケン","city":"宇佐市","city_kana":"ウサシ","town":"安心院町川底","town_kana":"アジムマチカワソコ","prefecture_code":44},"0507":{"zip_code":"8720507","prefecture":"大分県","prefecture_kana":"オオイタケン","city":"宇佐市","city_kana":"ウサシ","town":"安心院町木裳","town_kana":"アジムマチキノモ","prefecture_code":44},"0674":{"zip_code":"8720674","prefecture":"大分県","prefecture_kana":"オオイタケン","city":"宇佐市","city_kana":"ウサシ","town":"安心院町久井田","town_kana":"アジムマチクイダ","prefecture_code":44},"0673":{"zip_code":"8720673","prefecture":"大分県","prefecture_kana":"オオイタケン","city":"宇佐市","city_kana":"ウサシ","town":"安心院町口ノ坪","town_kana":"アジムマチクチノツボ","prefecture_code":44},"0541":{"zip_code":"8720541","prefecture":"大分県","prefecture_kana":"オオイタケン","city":"宇佐市","city_kana":"ウサシ","town":"安心院町熊","town_kana":"アジムマチクマ","prefecture_code":44},"0712":{"zip_code":"8720712","prefecture":"大分県","prefecture_kana":"オオイタケン","city":"宇佐市","city_kana":"ウサシ","town":"安心院町五郎丸","town_kana":"アジムマチゴロウマル","prefecture_code":44},"0861":{"zip_code":"8720861","prefecture":"大分県","prefecture_kana":"オオイタケン","city":"宇佐市","city_kana":"ウサシ","town":"安心院町境ノ坪","town_kana":"アジムマチサカイノツボ","prefecture_code":44},"0661":{"zip_code":"8720661","prefecture":"大分県","prefecture_kana":"オオイタケン","city":"宇佐市","city_kana":"ウサシ","town":"安心院町笹ケ平","town_kana":"アジムマチササガヒラ","prefecture_code":44},"0651":{"zip_code":"8720651","prefecture":"大分県","prefecture_kana":"オオイタケン","city":"宇佐市","city_kana":"ウサシ","town":"安心院町佐田","town_kana":"アジムマチサダ","prefecture_code":44},"0842":{"zip_code":"8720842","prefecture":"大分県","prefecture_kana":"オオイタケン","city":"宇佐市","city_kana":"ウサシ","town":"安心院町下内河野","town_kana":"アジムマチシモウチガワノ","prefecture_code":44},"0521":{"zip_code":"8720521","prefecture":"大分県","prefecture_kana":"オオイタケン","city":"宇佐市","city_kana":"ウサシ","town":"安心院町下毛","town_kana":"アジムマチシモゲ","prefecture_code":44},"0504":{"zip_code":"8720504","prefecture":"大分県","prefecture_kana":"オオイタケン","city":"宇佐市","city_kana":"ウサシ","town":"安心院町荘","town_kana":"アジムマチショウ","prefecture_code":44},"0542":{"zip_code":"8720542","prefecture":"大分県","prefecture_kana":"オオイタケン","city":"宇佐市","city_kana":"ウサシ","town":"安心院町正覚寺","town_kana":"アジムマチショウガクジ","prefecture_code":44},"0873":{"zip_code":"8720873","prefecture":"大分県","prefecture_kana":"オオイタケン","city":"宇佐市","city_kana":"ウサシ","town":"安心院町新貝","town_kana":"アジムマチシンガイ","prefecture_code":44},"0854":{"zip_code":"8720854","prefecture":"大分県","prefecture_kana":"オオイタケン","city":"宇佐市","city_kana":"ウサシ","town":"安心院町寒水","town_kana":"アジムマチソウズ","prefecture_code":44},"0863":{"zip_code":"8720863","prefecture":"大分県","prefecture_kana":"オオイタケン","city":"宇佐市","city_kana":"ウサシ","town":"安心院町村部","town_kana":"アジムマチソベ","prefecture_code":44},"0517":{"zip_code":"8720517","prefecture":"大分県","prefecture_kana":"オオイタケン","city":"宇佐市","city_kana":"ウサシ","town":"安心院町大","town_kana":"アジムマチダイ","prefecture_code":44},"0523":{"zip_code":"8720523","prefecture":"大分県","prefecture_kana":"オオイタケン","city":"宇佐市","city_kana":"ウサシ","town":"安心院町大佛","town_kana":"アジムマチダイブツ","prefecture_code":44},"0857":{"zip_code":"8720857","prefecture":"大分県","prefecture_kana":"オオイタケン","city":"宇佐市","city_kana":"ウサシ","town":"安心院町畳石","town_kana":"アジムマチタタミイシ","prefecture_code":44},"0526":{"zip_code":"8720526","prefecture":"大分県","prefecture_kana":"オオイタケン","city":"宇佐市","city_kana":"ウサシ","town":"安心院町田ノ口","town_kana":"アジムマチタノクチ","prefecture_code":44},"0527":{"zip_code":"8720527","prefecture":"大分県","prefecture_kana":"オオイタケン","city":"宇佐市","city_kana":"ウサシ","town":"安心院町辻","town_kana":"アジムマチツジ","prefecture_code":44},"0524":{"zip_code":"8720524","prefecture":"大分県","prefecture_kana":"オオイタケン","city":"宇佐市","city_kana":"ウサシ","town":"安心院町恒松","town_kana":"アジムマチツネマツ","prefecture_code":44},"0506":{"zip_code":"8720506","prefecture":"大分県","prefecture_kana":"オオイタケン","city":"宇佐市","city_kana":"ウサシ","town":"安心院町妻垣","town_kana":"アジムマチツマガケ","prefecture_code":44},"0664":{"zip_code":"8720664","prefecture":"大分県","prefecture_kana":"オオイタケン","city":"宇佐市","city_kana":"ウサシ","town":"安心院町塔尾","town_kana":"アジムマチトウノオ","prefecture_code":44},"0505":{"zip_code":"8720505","prefecture":"大分県","prefecture_kana":"オオイタケン","city":"宇佐市","city_kana":"ウサシ","town":"安心院町戸方","town_kana":"アジムマチトカタ","prefecture_code":44},"0514":{"zip_code":"8720514","prefecture":"大分県","prefecture_kana":"オオイタケン","city":"宇佐市","city_kana":"ウサシ","town":"安心院町鳥越","town_kana":"アジムマチトリゴエ","prefecture_code":44},"0525":{"zip_code":"8720525","prefecture":"大分県","prefecture_kana":"オオイタケン","city":"宇佐市","city_kana":"ウサシ","town":"安心院町中山","town_kana":"アジムマチナカヤマ","prefecture_code":44},"0701":{"zip_code":"8720701","prefecture":"大分県","prefecture_kana":"オオイタケン","city":"宇佐市","city_kana":"ウサシ","town":"安心院町楢本","town_kana":"アジムマチナラモト","prefecture_code":44},"0503":{"zip_code":"8720503","prefecture":"大分県","prefecture_kana":"オオイタケン","city":"宇佐市","city_kana":"ウサシ","town":"安心院町新原","town_kana":"アジムマチニイバル","prefecture_code":44},"0519":{"zip_code":"8720519","prefecture":"大分県","prefecture_kana":"オオイタケン","city":"宇佐市","city_kana":"ウサシ","town":"安心院町西衲","town_kana":"アジムマチニシノト","prefecture_code":44},"0515":{"zip_code":"8720515","prefecture":"大分県","prefecture_kana":"オオイタケン","city":"宇佐市","city_kana":"ウサシ","town":"安心院町野山","town_kana":"アジムマチノヤマ","prefecture_code":44},"0501":{"zip_code":"8720501","prefecture":"大分県","prefecture_kana":"オオイタケン","city":"宇佐市","city_kana":"ウサシ","town":"安心院町原","town_kana":"アジムマチハル","prefecture_code":44},"0864":{"zip_code":"8720864","prefecture":"大分県","prefecture_kana":"オオイタケン","city":"宇佐市","city_kana":"ウサシ","town":"安心院町番木","town_kana":"アジムマチバンギ","prefecture_code":44},"0502":{"zip_code":"8720502","prefecture":"大分県","prefecture_kana":"オオイタケン","city":"宇佐市","city_kana":"ウサシ","town":"安心院町飯田","town_kana":"アジムマチハンダ","prefecture_code":44},"0702":{"zip_code":"8720702","prefecture":"大分県","prefecture_kana":"オオイタケン","city":"宇佐市","city_kana":"ウサシ","town":"安心院町東恵良","town_kana":"アジムマチヒガシエラ","prefecture_code":44},"0724":{"zip_code":"8720724","prefecture":"大分県","prefecture_kana":"オオイタケン","city":"宇佐市","city_kana":"ウサシ","town":"安心院町東椎屋","town_kana":"アジムマチヒガシシイヤ","prefecture_code":44},"0543":{"zip_code":"8720543","prefecture":"大分県","prefecture_kana":"オオイタケン","city":"宇佐市","city_kana":"ウサシ","town":"安心院町平ケ倉","town_kana":"アジムマチヒラガクラ","prefecture_code":44},"0871":{"zip_code":"8720871","prefecture":"大分県","prefecture_kana":"オオイタケン","city":"宇佐市","city_kana":"ウサシ","town":"安心院町平山","town_kana":"アジムマチヒラヤマ","prefecture_code":44},"0672":{"zip_code":"8720672","prefecture":"大分県","prefecture_kana":"オオイタケン","city":"宇佐市","city_kana":"ウサシ","town":"安心院町広谷","town_kana":"アジムマチヒロタニ","prefecture_code":44},"0851":{"zip_code":"8720851","prefecture":"大分県","prefecture_kana":"オオイタケン","city":"宇佐市","city_kana":"ウサシ","town":"安心院町広連","town_kana":"アジムマチヒロツレ","prefecture_code":44},"0855":{"zip_code":"8720855","prefecture":"大分県","prefecture_kana":"オオイタケン","city":"宇佐市","city_kana":"ウサシ","town":"安心院町福貴野","town_kana":"アジムマチフキノ","prefecture_code":44},"0872":{"zip_code":"8720872","prefecture":"大分県","prefecture_kana":"オオイタケン","city":"宇佐市","city_kana":"ウサシ","town":"安心院町舟板","town_kana":"アジムマチフナイタ","prefecture_code":44},"0512":{"zip_code":"8720512","prefecture":"大分県","prefecture_kana":"オオイタケン","city":"宇佐市","city_kana":"ウサシ","town":"安心院町古市","town_kana":"アジムマチフルイチ","prefecture_code":44},"0655":{"zip_code":"8720655","prefecture":"大分県","prefecture_kana":"オオイタケン","city":"宇佐市","city_kana":"ウサシ","town":"安心院町古川","town_kana":"アジムマチフルカワ","prefecture_code":44},"0653":{"zip_code":"8720653","prefecture":"大分県","prefecture_kana":"オオイタケン","city":"宇佐市","city_kana":"ウサシ","town":"安心院町房ケ畑","town_kana":"アジムマチボウガハタ","prefecture_code":44},"0865":{"zip_code":"8720865","prefecture":"大分県","prefecture_kana":"オオイタケン","city":"宇佐市","city_kana":"ウサシ","town":"安心院町佛木","town_kana":"アジムマチホトギ","prefecture_code":44},"0733":{"zip_code":"8720733","prefecture":"大分県","prefecture_kana":"オオイタケン","city":"宇佐市","city_kana":"ウサシ","town":"安心院町松本","town_kana":"アジムマチマツモト","prefecture_code":44},"0858":{"zip_code":"8720858","prefecture":"大分県","prefecture_kana":"オオイタケン","city":"宇佐市","city_kana":"ウサシ","town":"安心院町水車","town_kana":"アジムマチミズクルマ","prefecture_code":44},"0722":{"zip_code":"8720722","prefecture":"大分県","prefecture_kana":"オオイタケン","city":"宇佐市","city_kana":"ウサシ","town":"安心院町南畑","town_kana":"アジムマチミナミハタ","prefecture_code":44},"0853":{"zip_code":"8720853","prefecture":"大分県","prefecture_kana":"オオイタケン","city":"宇佐市","city_kana":"ウサシ","town":"安心院町元","town_kana":"アジムマチモト","prefecture_code":44},"0516":{"zip_code":"8720516","prefecture":"大分県","prefecture_kana":"オオイタケン","city":"宇佐市","city_kana":"ウサシ","town":"安心院町森","town_kana":"アジムマチモリ","prefecture_code":44},"0675":{"zip_code":"8720675","prefecture":"大分県","prefecture_kana":"オオイタケン","city":"宇佐市","city_kana":"ウサシ","town":"安心院町矢崎","town_kana":"アジムマチヤザキ","prefecture_code":44},"0662":{"zip_code":"8720662","prefecture":"大分県","prefecture_kana":"オオイタケン","city":"宇佐市","city_kana":"ウサシ","town":"安心院町矢津","town_kana":"アジムマチヤヅ","prefecture_code":44},"0841":{"zip_code":"8720841","prefecture":"大分県","prefecture_kana":"オオイタケン","city":"宇佐市","city_kana":"ウサシ","town":"安心院町矢畑","town_kana":"アジムマチヤハタ","prefecture_code":44},"0652":{"zip_code":"8720652","prefecture":"大分県","prefecture_kana":"オオイタケン","city":"宇佐市","city_kana":"ウサシ","town":"安心院町山蔵","town_kana":"アジムマチヤマゾウ","prefecture_code":44},"0856":{"zip_code":"8720856","prefecture":"大分県","prefecture_kana":"オオイタケン","city":"宇佐市","city_kana":"ウサシ","town":"安心院町山ノ口","town_kana":"アジムマチヤマノクチ","prefecture_code":44},"0513":{"zip_code":"8720513","prefecture":"大分県","prefecture_kana":"オオイタケン","city":"宇佐市","city_kana":"ウサシ","town":"安心院町龍王","town_kana":"アジムマチリュウオウ","prefecture_code":44},"0711":{"zip_code":"8720711","prefecture":"大分県","prefecture_kana":"オオイタケン","city":"宇佐市","city_kana":"ウサシ","town":"安心院町六郎丸","town_kana":"アジムマチロクロウマル","prefecture_code":44},"0721":{"zip_code":"8720721","prefecture":"大分県","prefecture_kana":"オオイタケン","city":"宇佐市","city_kana":"ウサシ","town":"安心院町若林","town_kana":"アジムマチワカバヤシ","prefecture_code":44},"0011":{"zip_code":"8720011","prefecture":"大分県","prefecture_kana":"オオイタケン","city":"宇佐市","city_kana":"ウサシ","town":"岩保新田","town_kana":"イワホシンデン","prefecture_code":44},"0323":{"zip_code":"8720323","prefecture":"大分県","prefecture_kana":"オオイタケン","city":"宇佐市","city_kana":"ウサシ","town":"院内町大重見","town_kana":"インナイマチオオシゲミ","prefecture_code":44},"0331":{"zip_code":"8720331","prefecture":"大分県","prefecture_kana":"オオイタケン","city":"宇佐市","city_kana":"ウサシ","town":"院内町大副","town_kana":"インナイマチオオソイ","prefecture_code":44},"0458":{"zip_code":"8720458","prefecture":"大分県","prefecture_kana":"オオイタケン","city":"宇佐市","city_kana":"ウサシ","town":"院内町大坪","town_kana":"インナイマチオオツボ","prefecture_code":44},"0457":{"zip_code":"8720457","prefecture":"大分県","prefecture_kana":"オオイタケン","city":"宇佐市","city_kana":"ウサシ","town":"院内町岡","town_kana":"インナイマチオカ","prefecture_code":44},"0314":{"zip_code":"8720314","prefecture":"大分県","prefecture_kana":"オオイタケン","city":"宇佐市","city_kana":"ウサシ","town":"院内町沖","town_kana":"インナイマチオキ","prefecture_code":44},"0482":{"zip_code":"8720482","prefecture":"大分県","prefecture_kana":"オオイタケン","city":"宇佐市","city_kana":"ウサシ","town":"院内町荻迫","town_kana":"インナイマチオギサコ","prefecture_code":44},"0316":{"zip_code":"8720316","prefecture":"大分県","prefecture_kana":"オオイタケン","city":"宇佐市","city_kana":"ウサシ","town":"院内町小坂","town_kana":"インナイマチオサカ","prefecture_code":44},"0334":{"zip_code":"8720334","prefecture":"大分県","prefecture_kana":"オオイタケン","city":"宇佐市","city_kana":"ウサシ","town":"院内町落狩倉","town_kana":"インナイマチオチカクラ","prefecture_code":44},"0324":{"zip_code":"8720324","prefecture":"大分県","prefecture_kana":"オオイタケン","city":"宇佐市","city_kana":"ウサシ","town":"院内町小野川内","town_kana":"インナイマチオノゴウチ","prefecture_code":44},"0342":{"zip_code":"8720342","prefecture":"大分県","prefecture_kana":"オオイタケン","city":"宇佐市","city_kana":"ウサシ","town":"院内町景平","town_kana":"インナイマチカゲヘラ","prefecture_code":44},"0459":{"zip_code":"8720459","prefecture":"大分県","prefecture_kana":"オオイタケン","city":"宇佐市","city_kana":"ウサシ","town":"院内町上余","town_kana":"インナイマチカミアマリ","prefecture_code":44},"0484":{"zip_code":"8720484","prefecture":"大分県","prefecture_kana":"オオイタケン","city":"宇佐市","city_kana":"ウサシ","town":"院内町上恵良","town_kana":"インナイマチカミエラ","prefecture_code":44},"0452":{"zip_code":"8720452","prefecture":"大分県","prefecture_kana":"オオイタケン","city":"宇佐市","city_kana":"ウサシ","town":"院内町上納持","town_kana":"インナイマチカミノウジ","prefecture_code":44},"0326":{"zip_code":"8720326","prefecture":"大分県","prefecture_kana":"オオイタケン","city":"宇佐市","city_kana":"ウサシ","town":"院内町上船木","town_kana":"インナイマチカミフナギ","prefecture_code":44},"0315":{"zip_code":"8720315","prefecture":"大分県","prefecture_kana":"オオイタケン","city":"宇佐市","city_kana":"ウサシ","town":"院内町北山","town_kana":"インナイマチキタヤマ","prefecture_code":44},"0312":{"zip_code":"8720312","prefecture":"大分県","prefecture_kana":"オオイタケン","city":"宇佐市","city_kana":"ウサシ","town":"院内町櫛野","town_kana":"インナイマチクシノ","prefecture_code":44},"0466":{"zip_code":"8720466","prefecture":"大分県","prefecture_kana":"オオイタケン","city":"宇佐市","city_kana":"ウサシ","town":"院内町来鉢","town_kana":"インナイマチクバチ","prefecture_code":44},"0456":{"zip_code":"8720456","prefecture":"大分県","prefecture_kana":"オオイタケン","city":"宇佐市","city_kana":"ウサシ","town":"院内町栗山","town_kana":"インナイマチクリヤマ","prefecture_code":44},"0325":{"zip_code":"8720325","prefecture":"大分県","prefecture_kana":"オオイタケン","city":"宇佐市","city_kana":"ウサシ","town":"院内町小稲","town_kana":"インナイマチコイネ","prefecture_code":44},"0311":{"zip_code":"8720311","prefecture":"大分県","prefecture_kana":"オオイタケン","city":"宇佐市","city_kana":"ウサシ","town":"院内町香下","town_kana":"インナイマチコウシタ","prefecture_code":44},"0455":{"zip_code":"8720455","prefecture":"大分県","prefecture_kana":"オオイタケン","city":"宇佐市","city_kana":"ウサシ","town":"院内町小平","town_kana":"インナイマチコビラ","prefecture_code":44},"0321":{"zip_code":"8720321","prefecture":"大分県","prefecture_kana":"オオイタケン","city":"宇佐市","city_kana":"ウサシ","town":"院内町五名","town_kana":"インナイマチゴミョウ","prefecture_code":44},"0341":{"zip_code":"8720341","prefecture":"大分県","prefecture_kana":"オオイタケン","city":"宇佐市","city_kana":"ウサシ","town":"院内町斎藤","town_kana":"インナイマチサイトウ","prefecture_code":44},"0451":{"zip_code":"8720451","prefecture":"大分県","prefecture_kana":"オオイタケン","city":"宇佐市","city_kana":"ウサシ","town":"院内町下余","town_kana":"インナイマチシモアマリ","prefecture_code":44},"0481":{"zip_code":"8720481","prefecture":"大分県","prefecture_kana":"オオイタケン","city":"宇佐市","city_kana":"ウサシ","town":"院内町下恵良","town_kana":"インナイマチシモエラ","prefecture_code":44},"0327":{"zip_code":"8720327","prefecture":"大分県","prefecture_kana":"オオイタケン","city":"宇佐市","city_kana":"ウサシ","town":"院内町下船木","town_kana":"インナイマチシモフナギ","prefecture_code":44},"0346":{"zip_code":"8720346","prefecture":"大分県","prefecture_kana":"オオイタケン","city":"宇佐市","city_kana":"ウサシ","town":"院内町定別当","town_kana":"インナイマチジョウベットウ","prefecture_code":44},"0313":{"zip_code":"8720313","prefecture":"大分県","prefecture_kana":"オオイタケン","city":"宇佐市","city_kana":"ウサシ","town":"院内町新洞","town_kana":"インナイマチシンドウ","prefecture_code":44},"0318":{"zip_code":"8720318","prefecture":"大分県","prefecture_kana":"オオイタケン","city":"宇佐市","city_kana":"ウサシ","town":"院内町副","town_kana":"インナイマチソイ","prefecture_code":44},"0461":{"zip_code":"8720461","prefecture":"大分県","prefecture_kana":"オオイタケン","city":"宇佐市","city_kana":"ウサシ","town":"院内町台","town_kana":"インナイマチダイ","prefecture_code":44},"0344":{"zip_code":"8720344","prefecture":"大分県","prefecture_kana":"オオイタケン","city":"宇佐市","city_kana":"ウサシ","town":"院内町大門","town_kana":"インナイマチダイモン","prefecture_code":44},"0328":{"zip_code":"8720328","prefecture":"大分県","prefecture_kana":"オオイタケン","city":"宇佐市","city_kana":"ウサシ","town":"院内町高並","town_kana":"インナイマチタカナミ","prefecture_code":44},"0454":{"zip_code":"8720454","prefecture":"大分県","prefecture_kana":"オオイタケン","city":"宇佐市","city_kana":"ウサシ","town":"院内町滝貞","town_kana":"インナイマチタキサダ","prefecture_code":44},"0473":{"zip_code":"8720473","prefecture":"大分県","prefecture_kana":"オオイタケン","city":"宇佐市","city_kana":"ウサシ","town":"院内町田所","town_kana":"インナイマチタドコロ","prefecture_code":44},"0465":{"zip_code":"8720465","prefecture":"大分県","prefecture_kana":"オオイタケン","city":"宇佐市","city_kana":"ウサシ","town":"院内町田平","town_kana":"インナイマチタビラ","prefecture_code":44},"0345":{"zip_code":"8720345","prefecture":"大分県","prefecture_kana":"オオイタケン","city":"宇佐市","city_kana":"ウサシ","town":"院内町月俣","town_kana":"インナイマチツキノマタ","prefecture_code":44},"0483":{"zip_code":"8720483","prefecture":"大分県","prefecture_kana":"オオイタケン","city":"宇佐市","city_kana":"ウサシ","town":"院内町土岩屋","town_kana":"インナイマチツチイワヤ","prefecture_code":44},"0464":{"zip_code":"8720464","prefecture":"大分県","prefecture_kana":"オオイタケン","city":"宇佐市","city_kana":"ウサシ","town":"院内町西椎屋","town_kana":"インナイマチニシシイヤ","prefecture_code":44},"0471":{"zip_code":"8720471","prefecture":"大分県","prefecture_kana":"オオイタケン","city":"宇佐市","city_kana":"ウサシ","town":"院内町温見","town_kana":"インナイマチヌクミ","prefecture_code":44},"0472":{"zip_code":"8720472","prefecture":"大分県","prefecture_kana":"オオイタケン","city":"宇佐市","city_kana":"ウサシ","town":"院内町野地","town_kana":"インナイマチノジ","prefecture_code":44},"0462":{"zip_code":"8720462","prefecture":"大分県","prefecture_kana":"オオイタケン","city":"宇佐市","city_kana":"ウサシ","town":"院内町羽馬礼","town_kana":"インナイマチハバレ","prefecture_code":44},"0333":{"zip_code":"8720333","prefecture":"大分県","prefecture_kana":"オオイタケン","city":"宇佐市","city_kana":"ウサシ","town":"院内町原口","town_kana":"インナイマチハルグチ","prefecture_code":44},"0322":{"zip_code":"8720322","prefecture":"大分県","prefecture_kana":"オオイタケン","city":"宇佐市","city_kana":"ウサシ","town":"院内町日岳","town_kana":"インナイマチヒノタケ","prefecture_code":44},"0453":{"zip_code":"8720453","prefecture":"大分県","prefecture_kana":"オオイタケン","city":"宇佐市","city_kana":"ウサシ","town":"院内町平原","town_kana":"インナイマチヒラバル","prefecture_code":44},"0317":{"zip_code":"8720317","prefecture":"大分県","prefecture_kana":"オオイタケン","city":"宇佐市","city_kana":"ウサシ","town":"院内町広瀬","town_kana":"インナイマチヒロセ","prefecture_code":44},"0302":{"zip_code":"8720302","prefecture":"大分県","prefecture_kana":"オオイタケン","city":"宇佐市","city_kana":"ウサシ","town":"院内町二日市","town_kana":"インナイマチフツカイチ","prefecture_code":44},"0301":{"zip_code":"8720301","prefecture":"大分県","prefecture_kana":"オオイタケン","city":"宇佐市","city_kana":"ウサシ","town":"院内町御沓","town_kana":"インナイマチミクツ","prefecture_code":44},"0343":{"zip_code":"8720343","prefecture":"大分県","prefecture_kana":"オオイタケン","city":"宇佐市","city_kana":"ウサシ","town":"院内町宮原","town_kana":"インナイマチミヤバル","prefecture_code":44},"0332":{"zip_code":"8720332","prefecture":"大分県","prefecture_kana":"オオイタケン","city":"宇佐市","city_kana":"ウサシ","town":"院内町山城","town_kana":"インナイマチヤマシロ","prefecture_code":44},"0463":{"zip_code":"8720463","prefecture":"大分県","prefecture_kana":"オオイタケン","city":"宇佐市","city_kana":"ウサシ","town":"院内町和田","town_kana":"インナイマチワダ","prefecture_code":44},"0032":{"zip_code":"8720032","prefecture":"大分県","prefecture_kana":"オオイタケン","city":"宇佐市","city_kana":"ウサシ","town":"江須賀","town_kana":"エスカ","prefecture_code":44},"0031":{"zip_code":"8720031","prefecture":"大分県","prefecture_kana":"オオイタケン","city":"宇佐市","city_kana":"ウサシ","town":"沖須町","town_kana":"オキスマチ","prefecture_code":44},"0021":{"zip_code":"8720021","prefecture":"大分県","prefecture_kana":"オオイタケン","city":"宇佐市","city_kana":"ウサシ","town":"金屋","town_kana":"カナヤ","prefecture_code":44},"0366":{"zip_code":"8720366","prefecture":"大分県","prefecture_kana":"オオイタケン","city":"宇佐市","city_kana":"ウサシ","town":"上拝田新洞","town_kana":"カミハイタシンドウ","prefecture_code":44},"0112":{"zip_code":"8720112","prefecture":"大分県","prefecture_kana":"オオイタケン","city":"宇佐市","city_kana":"ウサシ","town":"上矢部","town_kana":"カミヤベ","prefecture_code":44},"0103":{"zip_code":"8720103","prefecture":"大分県","prefecture_kana":"オオイタケン","city":"宇佐市","city_kana":"ウサシ","town":"北宇佐","town_kana":"キタウサ","prefecture_code":44},"0013":{"zip_code":"8720013","prefecture":"大分県","prefecture_kana":"オオイタケン","city":"宇佐市","city_kana":"ウサシ","town":"北鶴田新田","town_kana":"キタツルダシンデン","prefecture_code":44},"0042":{"zip_code":"8720042","prefecture":"大分県","prefecture_kana":"オオイタケン","city":"宇佐市","city_kana":"ウサシ","town":"貴船町","town_kana":"キフネマチ","prefecture_code":44},"0012":{"zip_code":"8720012","prefecture":"大分県","prefecture_kana":"オオイタケン","city":"宇佐市","city_kana":"ウサシ","town":"久兵衛新田","town_kana":"キュウベエシンデン","prefecture_code":44},"0114":{"zip_code":"8720114","prefecture":"大分県","prefecture_kana":"オオイタケン","city":"宇佐市","city_kana":"ウサシ","town":"熊","town_kana":"クマ","prefecture_code":44},"0045":{"zip_code":"8720045","prefecture":"大分県","prefecture_kana":"オオイタケン","city":"宇佐市","city_kana":"ウサシ","town":"郡中新田","town_kana":"グンチュウシンデン","prefecture_code":44},"0104":{"zip_code":"8720104","prefecture":"大分県","prefecture_kana":"オオイタケン","city":"宇佐市","city_kana":"ウサシ","town":"小向野","town_kana":"コムクノ","prefecture_code":44},"0043":{"zip_code":"8720043","prefecture":"大分県","prefecture_kana":"オオイタケン","city":"宇佐市","city_kana":"ウサシ","town":"子安町","town_kana":"コヤスマチ","prefecture_code":44},"0016":{"zip_code":"8720016","prefecture":"大分県","prefecture_kana":"オオイタケン","city":"宇佐市","city_kana":"ウサシ","town":"佐々礼","town_kana":"サザレ","prefecture_code":44},"0111":{"zip_code":"8720111","prefecture":"大分県","prefecture_kana":"オオイタケン","city":"宇佐市","city_kana":"ウサシ","town":"下矢部","town_kana":"シモヤベ","prefecture_code":44},"0047":{"zip_code":"8720047","prefecture":"大分県","prefecture_kana":"オオイタケン","city":"宇佐市","city_kana":"ウサシ","town":"順風新田","town_kana":"ジュンプウシンデン","prefecture_code":44},"0113":{"zip_code":"8720113","prefecture":"大分県","prefecture_kana":"オオイタケン","city":"宇佐市","city_kana":"ウサシ","town":"正覚寺","town_kana":"ショウガクジ","prefecture_code":44},"0044":{"zip_code":"8720044","prefecture":"大分県","prefecture_kana":"オオイタケン","city":"宇佐市","city_kana":"ウサシ","town":"住江","town_kana":"スミエ","prefecture_code":44},"0033":{"zip_code":"8720033","prefecture":"大分県","prefecture_kana":"オオイタケン","city":"宇佐市","city_kana":"ウサシ","town":"住吉町","town_kana":"スミヨシマチ","prefecture_code":44},"0046":{"zip_code":"8720046","prefecture":"大分県","prefecture_kana":"オオイタケン","city":"宇佐市","city_kana":"ウサシ","town":"高砂新田","town_kana":"タカサゴシンデン","prefecture_code":44},"0101":{"zip_code":"8720101","prefecture":"大分県","prefecture_kana":"オオイタケン","city":"宇佐市","city_kana":"ウサシ","town":"高森","town_kana":"タカモリ","prefecture_code":44},"0001":{"zip_code":"8720001","prefecture":"大分県","prefecture_kana":"オオイタケン","city":"宇佐市","city_kana":"ウサシ","town":"長洲","town_kana":"ナガス","prefecture_code":44},"0022":{"zip_code":"8720022","prefecture":"大分県","prefecture_kana":"オオイタケン","city":"宇佐市","city_kana":"ウサシ","town":"西大堀","town_kana":"ニシオオボリ","prefecture_code":44},"0023":{"zip_code":"8720023","prefecture":"大分県","prefecture_kana":"オオイタケン","city":"宇佐市","city_kana":"ウサシ","town":"蜷木","town_kana":"ニナギ","prefecture_code":44},"0015":{"zip_code":"8720015","prefecture":"大分県","prefecture_kana":"オオイタケン","city":"宇佐市","city_kana":"ウサシ","town":"松崎","town_kana":"マツサキ","prefecture_code":44},"0041":{"zip_code":"8720041","prefecture":"大分県","prefecture_kana":"オオイタケン","city":"宇佐市","city_kana":"ウサシ","town":"神子山新田","town_kana":"ミコヤマシンデン","prefecture_code":44},"0102":{"zip_code":"8720102","prefecture":"大分県","prefecture_kana":"オオイタケン","city":"宇佐市","city_kana":"ウサシ","town":"南宇佐","town_kana":"ミナミウサ","prefecture_code":44},"0014":{"zip_code":"8720014","prefecture":"大分県","prefecture_kana":"オオイタケン","city":"宇佐市","city_kana":"ウサシ","town":"南鶴田新田","town_kana":"ミナミツルダシンデン","prefecture_code":44},"1653":{"zip_code":"8721653","prefecture":"大分県","prefecture_kana":"オオイタケン","city":"国東市","city_kana":"クニサキシ","town":"国東町岩戸寺","town_kana":"クニサキマチイワトウジ","prefecture_code":44},"1652":{"zip_code":"8721652","prefecture":"大分県","prefecture_kana":"オオイタケン","city":"国東市","city_kana":"クニサキシ","town":"国東町来浦","town_kana":"クニサキマチクノウラ","prefecture_code":44},"1651":{"zip_code":"8721651","prefecture":"大分県","prefecture_kana":"オオイタケン","city":"国東市","city_kana":"クニサキシ","town":"国東町浜","town_kana":"クニサキマチハマ","prefecture_code":44},"1405":{"zip_code":"8721405","prefecture":"大分県","prefecture_kana":"オオイタケン","city":"国東市","city_kana":"クニサキシ","town":"国見町赤根","town_kana":"クニミマチアカネ","prefecture_code":44},"1401":{"zip_code":"8721401","prefecture":"大分県","prefecture_kana":"オオイタケン","city":"国東市","city_kana":"クニサキシ","town":"国見町伊美","town_kana":"クニミマチイミ","prefecture_code":44},"1612":{"zip_code":"8721612","prefecture":"大分県","prefecture_kana":"オオイタケン","city":"国東市","city_kana":"クニサキシ","town":"国見町大熊毛","town_kana":"クニミマチオオクマゲ","prefecture_code":44},"1323":{"zip_code":"8721323","prefecture":"大分県","prefecture_kana":"オオイタケン","city":"国東市","city_kana":"クニサキシ","town":"国見町鬼籠","town_kana":"クニミマチキコ","prefecture_code":44},"1614":{"zip_code":"8721614","prefecture":"大分県","prefecture_kana":"オオイタケン","city":"国東市","city_kana":"クニサキシ","town":"国見町岐部","town_kana":"クニミマチキベ","prefecture_code":44},"1406":{"zip_code":"8721406","prefecture":"大分県","prefecture_kana":"オオイタケン","city":"国東市","city_kana":"クニサキシ","town":"国見町櫛来","town_kana":"クニミマチクシク","prefecture_code":44},"1324":{"zip_code":"8721324","prefecture":"大分県","prefecture_kana":"オオイタケン","city":"国東市","city_kana":"クニサキシ","town":"国見町櫛海","town_kana":"クニミマチクシノミ","prefecture_code":44},"1613":{"zip_code":"8721613","prefecture":"大分県","prefecture_kana":"オオイタケン","city":"国東市","city_kana":"クニサキシ","town":"国見町小熊毛","town_kana":"クニミマチコクマゲ","prefecture_code":44},"1322":{"zip_code":"8721322","prefecture":"大分県","prefecture_kana":"オオイタケン","city":"国東市","city_kana":"クニサキシ","town":"国見町西方寺","town_kana":"クニミマチサイホウジ","prefecture_code":44},"1404":{"zip_code":"8721404","prefecture":"大分県","prefecture_kana":"オオイタケン","city":"国東市","city_kana":"クニサキシ","town":"国見町千燈","town_kana":"クニミマチセンド","prefecture_code":44},"1321":{"zip_code":"8721321","prefecture":"大分県","prefecture_kana":"オオイタケン","city":"国東市","city_kana":"クニサキシ","town":"国見町竹田津","town_kana":"クニミマチタケタヅ","prefecture_code":44},"1402":{"zip_code":"8721402","prefecture":"大分県","prefecture_kana":"オオイタケン","city":"国東市","city_kana":"クニサキシ","town":"国見町中","town_kana":"クニミマチナカ","prefecture_code":44},"1403":{"zip_code":"8721403","prefecture":"大分県","prefecture_kana":"オオイタケン","city":"国東市","city_kana":"クニサキシ","town":"国見町野田","town_kana":"クニミマチノダ","prefecture_code":44},"1611":{"zip_code":"8721611","prefecture":"大分県","prefecture_kana":"オオイタケン","city":"国東市","city_kana":"クニサキシ","town":"国見町向田","town_kana":"クニミマチムカタ","prefecture_code":44},"1501":{"zip_code":"8721501","prefecture":"大分県","prefecture_kana":"オオイタケン","city":"東国東郡姫島村","city_kana":"ヒガシクニサキグンヒメシマムラ","town":"","town_kana":"","prefecture_code":44}}