{"0000":{"zip_code":"8730000","prefecture":"大分県","prefecture_kana":"オオイタケン","city":"杵築市","city_kana":"キツキシ","town":"","town_kana":"","prefecture_code":44},"0011":{"zip_code":"8730011","prefecture":"大分県","prefecture_kana":"オオイタケン","city":"杵築市","city_kana":"キツキシ","town":"相原","town_kana":"アイワラ","prefecture_code":44},"0005":{"zip_code":"8730005","prefecture":"大分県","prefecture_kana":"オオイタケン","city":"杵築市","city_kana":"キツキシ","town":"猪尾","town_kana":"イノオ","prefecture_code":44},"0021":{"zip_code":"8730021","prefecture":"大分県","prefecture_kana":"オオイタケン","city":"杵築市","city_kana":"キツキシ","town":"岩谷","town_kana":"イワヤ","prefecture_code":44},"0006":{"zip_code":"8730006","prefecture":"大分県","prefecture_kana":"オオイタケン","city":"杵築市","city_kana":"キツキシ","town":"大内","town_kana":"オオウチ","prefecture_code":44},"0022":{"zip_code":"8730022","prefecture":"大分県","prefecture_kana":"オオイタケン","city":"杵築市","city_kana":"キツキシ","town":"大片平","town_kana":"オオカタヒラ","prefecture_code":44},"0041":{"zip_code":"8730041","prefecture":"大分県","prefecture_kana":"オオイタケン","city":"杵築市","city_kana":"キツキシ","town":"大田俣水","town_kana":"オオタマタミズ","prefecture_code":44},"0007":{"zip_code":"8730007","prefecture":"大分県","prefecture_kana":"オオイタケン","city":"杵築市","city_kana":"キツキシ","town":"片野","town_kana":"カタノ","prefecture_code":44},"0023":{"zip_code":"8730023","prefecture":"大分県","prefecture_kana":"オオイタケン","city":"杵築市","city_kana":"キツキシ","town":"鴨川","town_kana":"カモガワ","prefecture_code":44},"0031":{"zip_code":"8730031","prefecture":"大分県","prefecture_kana":"オオイタケン","city":"杵築市","city_kana":"キツキシ","town":"狩宿","town_kana":"カリシュク","prefecture_code":44},"0001":{"zip_code":"8730001","prefecture":"大分県","prefecture_kana":"オオイタケン","city":"杵築市","city_kana":"キツキシ","town":"杵築","town_kana":"キツキ","prefecture_code":44},"0008":{"zip_code":"8730008","prefecture":"大分県","prefecture_kana":"オオイタケン","city":"杵築市","city_kana":"キツキシ","town":"熊野","town_kana":"クマノ","prefecture_code":44},"0012":{"zip_code":"8730012","prefecture":"大分県","prefecture_kana":"オオイタケン","city":"杵築市","city_kana":"キツキシ","town":"中","town_kana":"ナカ","prefecture_code":44},"0032":{"zip_code":"8730032","prefecture":"大分県","prefecture_kana":"オオイタケン","city":"杵築市","city_kana":"キツキシ","town":"奈多","town_kana":"ナダ","prefecture_code":44},"0003":{"zip_code":"8730003","prefecture":"大分県","prefecture_kana":"オオイタケン","city":"杵築市","city_kana":"キツキシ","town":"馬場尾","town_kana":"ババオ","prefecture_code":44},"0013":{"zip_code":"8730013","prefecture":"大分県","prefecture_kana":"オオイタケン","city":"杵築市","city_kana":"キツキシ","town":"日野","town_kana":"ヒノ","prefecture_code":44},"0024":{"zip_code":"8730024","prefecture":"大分県","prefecture_kana":"オオイタケン","city":"杵築市","city_kana":"キツキシ","town":"船部","town_kana":"フナベ","prefecture_code":44},"0014":{"zip_code":"8730014","prefecture":"大分県","prefecture_kana":"オオイタケン","city":"杵築市","city_kana":"キツキシ","town":"本庄","town_kana":"ホンジョウ","prefecture_code":44},"0025":{"zip_code":"8730025","prefecture":"大分県","prefecture_kana":"オオイタケン","city":"杵築市","city_kana":"キツキシ","town":"溝井","town_kana":"ミゾイ","prefecture_code":44},"0002":{"zip_code":"8730002","prefecture":"大分県","prefecture_kana":"オオイタケン","city":"杵築市","city_kana":"キツキシ","town":"南杵築","town_kana":"ミナミキツキ","prefecture_code":44},"0004":{"zip_code":"8730004","prefecture":"大分県","prefecture_kana":"オオイタケン","city":"杵築市","city_kana":"キツキシ","town":"宮司","town_kana":"ミヤジ","prefecture_code":44},"0033":{"zip_code":"8730033","prefecture":"大分県","prefecture_kana":"オオイタケン","city":"杵築市","city_kana":"キツキシ","town":"守江","town_kana":"モリエ","prefecture_code":44},"0015":{"zip_code":"8730015","prefecture":"大分県","prefecture_kana":"オオイタケン","city":"杵築市","city_kana":"キツキシ","town":"八坂","town_kana":"ヤサカ","prefecture_code":44},"0034":{"zip_code":"8730034","prefecture":"大分県","prefecture_kana":"オオイタケン","city":"杵築市","city_kana":"キツキシ","town":"横城","town_kana":"ヨコギ","prefecture_code":44},"0500":{"zip_code":"8730500","prefecture":"大分県","prefecture_kana":"オオイタケン","city":"国東市","city_kana":"クニサキシ","town":"","town_kana":"","prefecture_code":44},"0351":{"zip_code":"8730351","prefecture":"大分県","prefecture_kana":"オオイタケン","city":"国東市","city_kana":"クニサキシ","town":"安岐町朝来","town_kana":"アキマチアサク","prefecture_code":44},"0354":{"zip_code":"8730354","prefecture":"大分県","prefecture_kana":"オオイタケン","city":"国東市","city_kana":"クニサキシ","town":"安岐町糸永","town_kana":"アキマチイトナガ","prefecture_code":44},"0223":{"zip_code":"8730223","prefecture":"大分県","prefecture_kana":"オオイタケン","city":"国東市","city_kana":"クニサキシ","town":"安岐町大添","town_kana":"アキマチオオソエ","prefecture_code":44},"0205":{"zip_code":"8730205","prefecture":"大分県","prefecture_kana":"オオイタケン","city":"国東市","city_kana":"クニサキシ","town":"安岐町掛樋","town_kana":"アキマチカケヒ","prefecture_code":44},"0232":{"zip_code":"8730232","prefecture":"大分県","prefecture_kana":"オオイタケン","city":"国東市","city_kana":"クニサキシ","town":"安岐町向陽台","town_kana":"アキマチコウヨウダイ","prefecture_code":44},"0212":{"zip_code":"8730212","prefecture":"大分県","prefecture_kana":"オオイタケン","city":"国東市","city_kana":"クニサキシ","town":"安岐町塩屋","town_kana":"アキマチシオヤ","prefecture_code":44},"0231":{"zip_code":"8730231","prefecture":"大分県","prefecture_kana":"オオイタケン","city":"国東市","city_kana":"クニサキシ","town":"安岐町下原","town_kana":"アキマチシモバル","prefecture_code":44},"0222":{"zip_code":"8730222","prefecture":"大分県","prefecture_kana":"オオイタケン","city":"国東市","city_kana":"クニサキシ","town":"安岐町下山口","town_kana":"アキマチシモヤマグチ","prefecture_code":44},"0202":{"zip_code":"8730202","prefecture":"大分県","prefecture_kana":"オオイタケン","city":"国東市","city_kana":"クニサキシ","town":"安岐町瀬戸田","town_kana":"アキマチセドタ","prefecture_code":44},"0355":{"zip_code":"8730355","prefecture":"大分県","prefecture_kana":"オオイタケン","city":"国東市","city_kana":"クニサキシ","town":"安岐町富清","town_kana":"アキマチトミキヨ","prefecture_code":44},"0203":{"zip_code":"8730203","prefecture":"大分県","prefecture_kana":"オオイタケン","city":"国東市","city_kana":"クニサキシ","town":"安岐町中園","town_kana":"アキマチナカソノ","prefecture_code":44},"0204":{"zip_code":"8730204","prefecture":"大分県","prefecture_kana":"オオイタケン","city":"国東市","city_kana":"クニサキシ","town":"安岐町成久","town_kana":"アキマチナリヒサ","prefecture_code":44},"0221":{"zip_code":"8730221","prefecture":"大分県","prefecture_kana":"オオイタケン","city":"国東市","city_kana":"クニサキシ","town":"安岐町西本","town_kana":"アキマチニシモト","prefecture_code":44},"0211":{"zip_code":"8730211","prefecture":"大分県","prefecture_kana":"オオイタケン","city":"国東市","city_kana":"クニサキシ","town":"安岐町馬場","town_kana":"アキマチババ","prefecture_code":44},"0356":{"zip_code":"8730356","prefecture":"大分県","prefecture_kana":"オオイタケン","city":"国東市","city_kana":"クニサキシ","town":"安岐町両子","town_kana":"アキマチフタゴ","prefecture_code":44},"0352":{"zip_code":"8730352","prefecture":"大分県","prefecture_kana":"オオイタケン","city":"国東市","city_kana":"クニサキシ","town":"安岐町明治","town_kana":"アキマチメイジ","prefecture_code":44},"0053":{"zip_code":"8730053","prefecture":"大分県","prefecture_kana":"オオイタケン","city":"国東市","city_kana":"クニサキシ","town":"安岐町矢川","town_kana":"アキマチヤガワ","prefecture_code":44},"0353":{"zip_code":"8730353","prefecture":"大分県","prefecture_kana":"オオイタケン","city":"国東市","city_kana":"クニサキシ","town":"安岐町矢川","town_kana":"アキマチヤガワ","prefecture_code":44},"0206":{"zip_code":"8730206","prefecture":"大分県","prefecture_kana":"オオイタケン","city":"国東市","city_kana":"クニサキシ","town":"安岐町山浦","town_kana":"アキマチヤマウラ","prefecture_code":44},"0224":{"zip_code":"8730224","prefecture":"大分県","prefecture_kana":"オオイタケン","city":"国東市","city_kana":"クニサキシ","town":"安岐町山口","town_kana":"アキマチヤマグチ","prefecture_code":44},"0207":{"zip_code":"8730207","prefecture":"大分県","prefecture_kana":"オオイタケン","city":"国東市","city_kana":"クニサキシ","town":"安岐町油留木","town_kana":"アキマチユルギ","prefecture_code":44},"0201":{"zip_code":"8730201","prefecture":"大分県","prefecture_kana":"オオイタケン","city":"国東市","city_kana":"クニサキシ","town":"安岐町吉松","town_kana":"アキマチヨシマツ","prefecture_code":44},"0523":{"zip_code":"8730523","prefecture":"大分県","prefecture_kana":"オオイタケン","city":"国東市","city_kana":"クニサキシ","town":"国東町赤松","town_kana":"クニサキマチアカマツ","prefecture_code":44},"0504":{"zip_code":"8730504","prefecture":"大分県","prefecture_kana":"オオイタケン","city":"国東市","city_kana":"クニサキシ","town":"国東町安国寺","town_kana":"クニサキマチアンコクジ","prefecture_code":44},"0522":{"zip_code":"8730522","prefecture":"大分県","prefecture_kana":"オオイタケン","city":"国東市","city_kana":"クニサキシ","town":"国東町岩屋","town_kana":"クニサキマチイワヤ","prefecture_code":44},"0511":{"zip_code":"8730511","prefecture":"大分県","prefecture_kana":"オオイタケン","city":"国東市","city_kana":"クニサキシ","town":"国東町小原","town_kana":"クニサキマチオハラ","prefecture_code":44},"0531":{"zip_code":"8730531","prefecture":"大分県","prefecture_kana":"オオイタケン","city":"国東市","city_kana":"クニサキシ","town":"国東町川原","town_kana":"クニサキマチカワラ","prefecture_code":44},"0501":{"zip_code":"8730501","prefecture":"大分県","prefecture_kana":"オオイタケン","city":"国東市","city_kana":"クニサキシ","town":"国東町北江","town_kana":"クニサキマチキタエ","prefecture_code":44},"0533":{"zip_code":"8730533","prefecture":"大分県","prefecture_kana":"オオイタケン","city":"国東市","city_kana":"クニサキシ","town":"国東町見地","town_kana":"クニサキマチケンジ","prefecture_code":44},"0514":{"zip_code":"8730514","prefecture":"大分県","prefecture_kana":"オオイタケン","city":"国東市","city_kana":"クニサキシ","town":"国東町重藤","town_kana":"クニサキマチシゲフジ","prefecture_code":44},"0534":{"zip_code":"8730534","prefecture":"大分県","prefecture_kana":"オオイタケン","city":"国東市","city_kana":"クニサキシ","town":"国東町下成仏","town_kana":"クニサキマチシモジョウブツ","prefecture_code":44},"0535":{"zip_code":"8730535","prefecture":"大分県","prefecture_kana":"オオイタケン","city":"国東市","city_kana":"クニサキシ","town":"国東町成仏","town_kana":"クニサキマチジョウブツ","prefecture_code":44},"0512":{"zip_code":"8730512","prefecture":"大分県","prefecture_kana":"オオイタケン","city":"国東市","city_kana":"クニサキシ","town":"国東町治郎丸","town_kana":"クニサキマチジロウマル","prefecture_code":44},"0646":{"zip_code":"8730646","prefecture":"大分県","prefecture_kana":"オオイタケン","city":"国東市","city_kana":"クニサキシ","town":"国東町大恩寺","town_kana":"クニサキマチダイオンジ","prefecture_code":44},"0502":{"zip_code":"8730502","prefecture":"大分県","prefecture_kana":"オオイタケン","city":"国東市","city_kana":"クニサキシ","town":"国東町田深","town_kana":"クニサキマチタブカ","prefecture_code":44},"0513":{"zip_code":"8730513","prefecture":"大分県","prefecture_kana":"オオイタケン","city":"国東市","city_kana":"クニサキシ","town":"国東町綱井","town_kana":"クニサキマチツナイ","prefecture_code":44},"0503":{"zip_code":"8730503","prefecture":"大分県","prefecture_kana":"オオイタケン","city":"国東市","city_kana":"クニサキシ","town":"国東町鶴川","town_kana":"クニサキマチツルガワ","prefecture_code":44},"0645":{"zip_code":"8730645","prefecture":"大分県","prefecture_kana":"オオイタケン","city":"国東市","city_kana":"クニサキシ","town":"国東町富来","town_kana":"クニサキマチトミク","prefecture_code":44},"0643":{"zip_code":"8730643","prefecture":"大分県","prefecture_kana":"オオイタケン","city":"国東市","city_kana":"クニサキシ","town":"国東町富来浦","town_kana":"クニサキマチトミクウラ","prefecture_code":44},"0532":{"zip_code":"8730532","prefecture":"大分県","prefecture_kana":"オオイタケン","city":"国東市","city_kana":"クニサキシ","town":"国東町中田","town_kana":"クニサキマチナカダ","prefecture_code":44},"0644":{"zip_code":"8730644","prefecture":"大分県","prefecture_kana":"オオイタケン","city":"国東市","city_kana":"クニサキシ","town":"国東町浜崎","town_kana":"クニサキマチハマサキ","prefecture_code":44},"0521":{"zip_code":"8730521","prefecture":"大分県","prefecture_kana":"オオイタケン","city":"国東市","city_kana":"クニサキシ","town":"国東町原","town_kana":"クニサキマチハル","prefecture_code":44},"0642":{"zip_code":"8730642","prefecture":"大分県","prefecture_kana":"オオイタケン","city":"国東市","city_kana":"クニサキシ","town":"国東町東堅来","town_kana":"クニサキマチヒガシカタク","prefecture_code":44},"0641":{"zip_code":"8730641","prefecture":"大分県","prefecture_kana":"オオイタケン","city":"国東市","city_kana":"クニサキシ","town":"国東町深江","town_kana":"クニサキマチフカエ","prefecture_code":44},"0524":{"zip_code":"8730524","prefecture":"大分県","prefecture_kana":"オオイタケン","city":"国東市","city_kana":"クニサキシ","town":"国東町横手","town_kana":"クニサキマチヨコテ","prefecture_code":44},"0405":{"zip_code":"8730405","prefecture":"大分県","prefecture_kana":"オオイタケン","city":"国東市","city_kana":"クニサキシ","town":"武蔵町麻田","town_kana":"ムサシマチアサダ","prefecture_code":44},"0401":{"zip_code":"8730401","prefecture":"大分県","prefecture_kana":"オオイタケン","city":"国東市","city_kana":"クニサキシ","town":"武蔵町池ノ内","town_kana":"ムサシマチイケノウチ","prefecture_code":44},"0421":{"zip_code":"8730421","prefecture":"大分県","prefecture_kana":"オオイタケン","city":"国東市","city_kana":"クニサキシ","town":"武蔵町糸原","town_kana":"ムサシマチイトハル","prefecture_code":44},"0402":{"zip_code":"8730402","prefecture":"大分県","prefecture_kana":"オオイタケン","city":"国東市","city_kana":"クニサキシ","town":"武蔵町内田","town_kana":"ムサシマチウチダ","prefecture_code":44},"0422":{"zip_code":"8730422","prefecture":"大分県","prefecture_kana":"オオイタケン","city":"国東市","city_kana":"クニサキシ","town":"武蔵町小城","town_kana":"ムサシマチオギ","prefecture_code":44},"0432":{"zip_code":"8730432","prefecture":"大分県","prefecture_kana":"オオイタケン","city":"国東市","city_kana":"クニサキシ","town":"武蔵町向陽台","town_kana":"ムサシマチコウヨウダイ","prefecture_code":44},"0424":{"zip_code":"8730424","prefecture":"大分県","prefecture_kana":"オオイタケン","city":"国東市","city_kana":"クニサキシ","town":"武蔵町志和利","town_kana":"ムサシマチシワリ","prefecture_code":44},"0414":{"zip_code":"8730414","prefecture":"大分県","prefecture_kana":"オオイタケン","city":"国東市","city_kana":"クニサキシ","town":"武蔵町手野","town_kana":"ムサシマチテノ","prefecture_code":44},"0404":{"zip_code":"8730404","prefecture":"大分県","prefecture_kana":"オオイタケン","city":"国東市","city_kana":"クニサキシ","town":"武蔵町成吉","town_kana":"ムサシマチナリヨシ","prefecture_code":44},"0407":{"zip_code":"8730407","prefecture":"大分県","prefecture_kana":"オオイタケン","city":"国東市","city_kana":"クニサキシ","town":"武蔵町狭間","town_kana":"ムサシマチハサマ","prefecture_code":44},"0412":{"zip_code":"8730412","prefecture":"大分県","prefecture_kana":"オオイタケン","city":"国東市","city_kana":"クニサキシ","town":"武蔵町古市","town_kana":"ムサシマチフルイチ","prefecture_code":44},"0406":{"zip_code":"8730406","prefecture":"大分県","prefecture_kana":"オオイタケン","city":"国東市","city_kana":"クニサキシ","town":"武蔵町丸小野","town_kana":"ムサシマチマルオノ","prefecture_code":44},"0423":{"zip_code":"8730423","prefecture":"大分県","prefecture_kana":"オオイタケン","city":"国東市","city_kana":"クニサキシ","town":"武蔵町三井寺","town_kana":"ムサシマチミイデラ","prefecture_code":44},"0415":{"zip_code":"8730415","prefecture":"大分県","prefecture_kana":"オオイタケン","city":"国東市","city_kana":"クニサキシ","town":"武蔵町吉広","town_kana":"ムサシマチヨシヒロ","prefecture_code":44}}