{"0000":{"zip_code":"8740000","prefecture":"大分県","prefecture_kana":"オオイタケン","city":"別府市","city_kana":"ベップシ","town":"","town_kana":"","prefecture_code":44},"0902":{"zip_code":"8740902","prefecture":"大分県","prefecture_kana":"オオイタケン","city":"別府市","city_kana":"ベップシ","town":"青山町","town_kana":"アオヤマチョウ","prefecture_code":44},"0819":{"zip_code":"8740819","prefecture":"大分県","prefecture_kana":"オオイタケン","city":"別府市","city_kana":"ベップシ","town":"赤松","town_kana":"アカマツ","prefecture_code":44},"0937":{"zip_code":"8740937","prefecture":"大分県","prefecture_kana":"オオイタケン","city":"別府市","city_kana":"ベップシ","town":"秋葉町","town_kana":"アキバチョウ","prefecture_code":44},"0846":{"zip_code":"8740846","prefecture":"大分県","prefecture_kana":"オオイタケン","city":"別府市","city_kana":"ベップシ","town":"朝日ケ丘町","town_kana":"アサヒガオカチョウ","prefecture_code":44},"0812":{"zip_code":"8740812","prefecture":"大分県","prefecture_kana":"オオイタケン","city":"別府市","city_kana":"ベップシ","town":"朝見","town_kana":"アサミ","prefecture_code":44},"0005":{"zip_code":"8740005","prefecture":"大分県","prefecture_kana":"オオイタケン","city":"別府市","city_kana":"ベップシ","town":"天間","town_kana":"アママ","prefecture_code":44},"0919":{"zip_code":"8740919","prefecture":"大分県","prefecture_kana":"オオイタケン","city":"別府市","city_kana":"ベップシ","town":"石垣東","town_kana":"イシガキヒガシ","prefecture_code":44},"0910":{"zip_code":"8740910","prefecture":"大分県","prefecture_kana":"オオイタケン","city":"別府市","city_kana":"ベップシ","town":"石垣西","town_kana":"イシガキニシ","prefecture_code":44},"0043":{"zip_code":"8740043","prefecture":"大分県","prefecture_kana":"オオイタケン","city":"別府市","city_kana":"ベップシ","town":"井田","town_kana":"イダ","prefecture_code":44},"0011":{"zip_code":"8740011","prefecture":"大分県","prefecture_kana":"オオイタケン","city":"別府市","city_kana":"ベップシ","town":"内竈","town_kana":"ウチカマド","prefecture_code":44},"0814":{"zip_code":"8740814","prefecture":"大分県","prefecture_kana":"オオイタケン","city":"別府市","city_kana":"ベップシ","town":"浦田","town_kana":"ウラタ","prefecture_code":44},"0935":{"zip_code":"8740935","prefecture":"大分県","prefecture_kana":"オオイタケン","city":"別府市","city_kana":"ベップシ","town":"駅前町","town_kana":"エキマエチョウ","prefecture_code":44},"0934":{"zip_code":"8740934","prefecture":"大分県","prefecture_kana":"オオイタケン","city":"別府市","city_kana":"ベップシ","town":"駅前本町","town_kana":"エキマエホンマチ","prefecture_code":44},"0805":{"zip_code":"8740805","prefecture":"大分県","prefecture_kana":"オオイタケン","city":"別府市","city_kana":"ベップシ","town":"枝郷","town_kana":"エダゴウ","prefecture_code":44},"0849":{"zip_code":"8740849","prefecture":"大分県","prefecture_kana":"オオイタケン","city":"別府市","city_kana":"ベップシ","town":"扇山","town_kana":"オウギヤマ","prefecture_code":44},"0842":{"zip_code":"8740842","prefecture":"大分県","prefecture_kana":"オオイタケン","city":"別府市","city_kana":"ベップシ","town":"小倉","town_kana":"オグラ","prefecture_code":44},"0001":{"zip_code":"8740001","prefecture":"大分県","prefecture_kana":"オオイタケン","city":"別府市","city_kana":"ベップシ","town":"小坂","town_kana":"オサカ","prefecture_code":44},"0003":{"zip_code":"8740003","prefecture":"大分県","prefecture_kana":"オオイタケン","city":"別府市","city_kana":"ベップシ","town":"大所","town_kana":"オトコロ","prefecture_code":44},"0821":{"zip_code":"8740821","prefecture":"大分県","prefecture_kana":"オオイタケン","city":"別府市","city_kana":"ベップシ","town":"乙原","town_kana":"オトバル","prefecture_code":44},"0848":{"zip_code":"8740848","prefecture":"大分県","prefecture_kana":"オオイタケン","city":"別府市","city_kana":"ベップシ","town":"大畑","town_kana":"オバタケ","prefecture_code":44},"0908":{"zip_code":"8740908","prefecture":"大分県","prefecture_kana":"オオイタケン","city":"別府市","city_kana":"ベップシ","town":"上田の湯町","town_kana":"カミタノユマチ","prefecture_code":44},"0905":{"zip_code":"8740905","prefecture":"大分県","prefecture_kana":"オオイタケン","city":"別府市","city_kana":"ベップシ","town":"上野口町","town_kana":"カミノグチチョウ","prefecture_code":44},"0829":{"zip_code":"8740829","prefecture":"大分県","prefecture_kana":"オオイタケン","city":"別府市","city_kana":"ベップシ","town":"上原町","town_kana":"カミハルチョウ","prefecture_code":44},"0036":{"zip_code":"8740036","prefecture":"大分県","prefecture_kana":"オオイタケン","city":"別府市","city_kana":"ベップシ","town":"上平田町","town_kana":"カミヒラタチョウ","prefecture_code":44},"0025":{"zip_code":"8740025","prefecture":"大分県","prefecture_kana":"オオイタケン","city":"別府市","city_kana":"ベップシ","town":"亀川四の湯町","town_kana":"カメガワシノユマチ","prefecture_code":44},"0021":{"zip_code":"8740021","prefecture":"大分県","prefecture_kana":"オオイタケン","city":"別府市","city_kana":"ベップシ","town":"亀川中央町","town_kana":"カメガワチュウオウマチ","prefecture_code":44},"0014":{"zip_code":"8740014","prefecture":"大分県","prefecture_kana":"オオイタケン","city":"別府市","city_kana":"ベップシ","town":"亀川浜田町","town_kana":"カメガワハマダマチ","prefecture_code":44},"0022":{"zip_code":"8740022","prefecture":"大分県","prefecture_kana":"オオイタケン","city":"別府市","city_kana":"ベップシ","town":"亀川東町","town_kana":"カメガワヒガシマチ","prefecture_code":44},"0822":{"zip_code":"8740822","prefecture":"大分県","prefecture_kana":"オオイタケン","city":"別府市","city_kana":"ベップシ","town":"観海寺","town_kana":"カンカイジ","prefecture_code":44},"0046":{"zip_code":"8740046","prefecture":"大分県","prefecture_kana":"オオイタケン","city":"別府市","city_kana":"ベップシ","town":"鉄輪上","town_kana":"カンナワカミ","prefecture_code":44},"0042":{"zip_code":"8740042","prefecture":"大分県","prefecture_kana":"オオイタケン","city":"別府市","city_kana":"ベップシ","town":"鉄輪東","town_kana":"カンナワヒガシ","prefecture_code":44},"0802":{"zip_code":"8740802","prefecture":"大分県","prefecture_kana":"オオイタケン","city":"別府市","city_kana":"ベップシ","town":"城島","town_kana":"キジマ","prefecture_code":44},"0041":{"zip_code":"8740041","prefecture":"大分県","prefecture_kana":"オオイタケン","city":"別府市","city_kana":"ベップシ","town":"北鉄輪","town_kana":"キタカンナワ","prefecture_code":44},"0845":{"zip_code":"8740845","prefecture":"大分県","prefecture_kana":"オオイタケン","city":"別府市","city_kana":"ベップシ","town":"北中","town_kana":"キタジュウ","prefecture_code":44},"0920":{"zip_code":"8740920","prefecture":"大分県","prefecture_kana":"オオイタケン","city":"別府市","city_kana":"ベップシ","town":"北浜","town_kana":"キタハマ","prefecture_code":44},"0928":{"zip_code":"8740928","prefecture":"大分県","prefecture_kana":"オオイタケン","city":"別府市","city_kana":"ベップシ","town":"北的ケ浜町","town_kana":"キタマトガハマチョウ","prefecture_code":44},"0926":{"zip_code":"8740926","prefecture":"大分県","prefecture_kana":"オオイタケン","city":"別府市","city_kana":"ベップシ","town":"京町","town_kana":"キョウマチ","prefecture_code":44},"0943":{"zip_code":"8740943","prefecture":"大分県","prefecture_kana":"オオイタケン","city":"別府市","city_kana":"ベップシ","town":"楠町","town_kana":"クスノキマチ","prefecture_code":44},"0015":{"zip_code":"8740015","prefecture":"大分県","prefecture_kana":"オオイタケン","city":"別府市","city_kana":"ベップシ","town":"国立","town_kana":"クニタテ","prefecture_code":44},"0816":{"zip_code":"8740816","prefecture":"大分県","prefecture_kana":"オオイタケン","city":"別府市","city_kana":"ベップシ","town":"河内","town_kana":"コウチ","prefecture_code":44},"0907":{"zip_code":"8740907","prefecture":"大分県","prefecture_kana":"オオイタケン","city":"別府市","city_kana":"ベップシ","town":"幸町","town_kana":"サイワイチョウ","prefecture_code":44},"0915":{"zip_code":"8740915","prefecture":"大分県","prefecture_kana":"オオイタケン","city":"別府市","city_kana":"ベップシ","town":"桜ケ丘","town_kana":"サクラガオカ","prefecture_code":44},"0918":{"zip_code":"8740918","prefecture":"大分県","prefecture_kana":"オオイタケン","city":"別府市","city_kana":"ベップシ","town":"汐見町","town_kana":"シオミチョウ","prefecture_code":44},"0835":{"zip_code":"8740835","prefecture":"大分県","prefecture_kana":"オオイタケン","city":"別府市","city_kana":"ベップシ","town":"実相寺","town_kana":"ジッソウジ","prefecture_code":44},"0034":{"zip_code":"8740034","prefecture":"大分県","prefecture_kana":"オオイタケン","city":"別府市","city_kana":"ベップシ","town":"上人仲町","town_kana":"ショウニンナカマチ","prefecture_code":44},"0032":{"zip_code":"8740032","prefecture":"大分県","prefecture_kana":"オオイタケン","city":"別府市","city_kana":"ベップシ","town":"上人本町","town_kana":"ショウニンホンマチ","prefecture_code":44},"0035":{"zip_code":"8740035","prefecture":"大分県","prefecture_kana":"オオイタケン","city":"別府市","city_kana":"ベップシ","town":"上人西","town_kana":"ショウニンニシ","prefecture_code":44},"0033":{"zip_code":"8740033","prefecture":"大分県","prefecture_kana":"オオイタケン","city":"別府市","city_kana":"ベップシ","town":"上人南","town_kana":"ショウニンミナミ","prefecture_code":44},"0023":{"zip_code":"8740023","prefecture":"大分県","prefecture_kana":"オオイタケン","city":"別府市","city_kana":"ベップシ","town":"上人ケ浜町","town_kana":"ショウニンガハマチョウ","prefecture_code":44},"0031":{"zip_code":"8740031","prefecture":"大分県","prefecture_kana":"オオイタケン","city":"別府市","city_kana":"ベップシ","town":"照波園町","town_kana":"ショウハエンマチ","prefecture_code":44},"0834":{"zip_code":"8740834","prefecture":"大分県","prefecture_kana":"オオイタケン","city":"別府市","city_kana":"ベップシ","town":"新別府","town_kana":"シンベップ","prefecture_code":44},"0923":{"zip_code":"8740923","prefecture":"大分県","prefecture_kana":"オオイタケン","city":"別府市","city_kana":"ベップシ","town":"新港町","town_kana":"シンミナトマチ","prefecture_code":44},"0938":{"zip_code":"8740938","prefecture":"大分県","prefecture_kana":"オオイタケン","city":"別府市","city_kana":"ベップシ","town":"末広町","town_kana":"スエヒロチョウ","prefecture_code":44},"0012":{"zip_code":"8740012","prefecture":"大分県","prefecture_kana":"オオイタケン","city":"別府市","city_kana":"ベップシ","town":"スパランド豊海","town_kana":"スパランドトヨミ","prefecture_code":44},"0002":{"zip_code":"8740002","prefecture":"大分県","prefecture_kana":"オオイタケン","city":"別府市","city_kana":"ベップシ","town":"関の江新町","town_kana":"セキノエシンマチ","prefecture_code":44},"0838":{"zip_code":"8740838","prefecture":"大分県","prefecture_kana":"オオイタケン","city":"別府市","city_kana":"ベップシ","town":"荘園","town_kana":"ソウエン","prefecture_code":44},"0837":{"zip_code":"8740837","prefecture":"大分県","prefecture_kana":"オオイタケン","city":"別府市","city_kana":"ベップシ","town":"荘園北町","town_kana":"ソウエンキタマチ","prefecture_code":44},"0037":{"zip_code":"8740037","prefecture":"大分県","prefecture_kana":"オオイタケン","city":"別府市","city_kana":"ベップシ","town":"大観山町","town_kana":"ダイカンヤマチョウ","prefecture_code":44},"0841":{"zip_code":"8740841","prefecture":"大分県","prefecture_kana":"オオイタケン","city":"別府市","city_kana":"ベップシ","town":"竹の内","town_kana":"タケノウチ","prefecture_code":44},"0939":{"zip_code":"8740939","prefecture":"大分県","prefecture_kana":"オオイタケン","city":"別府市","city_kana":"ベップシ","town":"立田町","town_kana":"タッタチョウ","prefecture_code":44},"0815":{"zip_code":"8740815","prefecture":"大分県","prefecture_kana":"オオイタケン","city":"別府市","city_kana":"ベップシ","town":"田の口","town_kana":"タノクチ","prefecture_code":44},"0909":{"zip_code":"8740909","prefecture":"大分県","prefecture_kana":"オオイタケン","city":"別府市","city_kana":"ベップシ","town":"田の湯町","town_kana":"タノユマチ","prefecture_code":44},"0936":{"zip_code":"8740936","prefecture":"大分県","prefecture_kana":"オオイタケン","city":"別府市","city_kana":"ベップシ","town":"中央町","town_kana":"チュウオウマチ","prefecture_code":44},"0942":{"zip_code":"8740942","prefecture":"大分県","prefecture_kana":"オオイタケン","city":"別府市","city_kana":"ベップシ","town":"千代町","town_kana":"チヨマチ","prefecture_code":44},"0840":[{"zip_code":"8740840","prefecture":"大分県","prefecture_kana":"オオイタケン","city":"別府市","city_kana":"ベップシ","town":"鶴見","town_kana":"ツルミ","prefecture_code":44},{"zip_code":"8740840","prefecture":"大分県","prefecture_kana":"オオイタケン","city":"別府市","city_kana":"ベップシ","town":"鶴見大字","town_kana":"ツルミオオアザ","prefecture_code":44}],"0833":{"zip_code":"8740833","prefecture":"大分県","prefecture_kana":"オオイタケン","city":"別府市","city_kana":"ベップシ","town":"鶴見","town_kana":"ツルミ","prefecture_code":44},"0826":{"zip_code":"8740826","prefecture":"大分県","prefecture_kana":"オオイタケン","city":"別府市","city_kana":"ベップシ","town":"鶴見園町","town_kana":"ツルミエンチョウ","prefecture_code":44},"0906":{"zip_code":"8740906","prefecture":"大分県","prefecture_kana":"オオイタケン","city":"別府市","city_kana":"ベップシ","town":"天満町","town_kana":"テンマンチョウ","prefecture_code":44},"0817":{"zip_code":"8740817","prefecture":"大分県","prefecture_kana":"オオイタケン","city":"別府市","city_kana":"ベップシ","town":"鳥越","town_kana":"トリゴエ","prefecture_code":44},"0901":{"zip_code":"8740901","prefecture":"大分県","prefecture_kana":"オオイタケン","city":"別府市","city_kana":"ベップシ","town":"中島町","town_kana":"ナカシマチョウ","prefecture_code":44},"0917":{"zip_code":"8740917","prefecture":"大分県","prefecture_kana":"オオイタケン","city":"別府市","city_kana":"ベップシ","town":"中須賀東町","town_kana":"ナカスカヒガシマチ","prefecture_code":44},"0916":{"zip_code":"8740916","prefecture":"大分県","prefecture_kana":"オオイタケン","city":"別府市","city_kana":"ベップシ","town":"中須賀本町","town_kana":"ナカスカホンマチ","prefecture_code":44},"0914":{"zip_code":"8740914","prefecture":"大分県","prefecture_kana":"オオイタケン","city":"別府市","city_kana":"ベップシ","town":"中須賀元町","town_kana":"ナカスカモトマチ","prefecture_code":44},"0931":{"zip_code":"8740931","prefecture":"大分県","prefecture_kana":"オオイタケン","city":"別府市","city_kana":"ベップシ","town":"西野口町","town_kana":"ニシノグチマチ","prefecture_code":44},"0932":{"zip_code":"8740932","prefecture":"大分県","prefecture_kana":"オオイタケン","city":"別府市","city_kana":"ベップシ","town":"野口中町","town_kana":"ノグチナカマチ","prefecture_code":44},"0933":{"zip_code":"8740933","prefecture":"大分県","prefecture_kana":"オオイタケン","city":"別府市","city_kana":"ベップシ","town":"野口元町","town_kana":"ノグチモトマチ","prefecture_code":44},"0903":{"zip_code":"8740903","prefecture":"大分県","prefecture_kana":"オオイタケン","city":"別府市","city_kana":"ベップシ","town":"野口原","town_kana":"ノグチハラ","prefecture_code":44},"0016":{"zip_code":"8740016","prefecture":"大分県","prefecture_kana":"オオイタケン","city":"別府市","city_kana":"ベップシ","town":"野田","town_kana":"ノダ","prefecture_code":44},"0847":{"zip_code":"8740847","prefecture":"大分県","prefecture_kana":"オオイタケン","city":"別府市","city_kana":"ベップシ","town":"馬場","town_kana":"ババ","prefecture_code":44},"0945":{"zip_code":"8740945","prefecture":"大分県","prefecture_kana":"オオイタケン","city":"別府市","city_kana":"ベップシ","town":"浜町","town_kana":"ハママチ","prefecture_code":44},"0947":{"zip_code":"8740947","prefecture":"大分県","prefecture_kana":"オオイタケン","city":"別府市","city_kana":"ベップシ","town":"浜脇","town_kana":"ハマワキ","prefecture_code":44},"0820":{"zip_code":"8740820","prefecture":"大分県","prefecture_kana":"オオイタケン","city":"別府市","city_kana":"ベップシ","town":"原町","town_kana":"ハラマチ","prefecture_code":44},"0913":{"zip_code":"8740913","prefecture":"大分県","prefecture_kana":"オオイタケン","city":"別府市","city_kana":"ベップシ","town":"春木","town_kana":"ハルキ","prefecture_code":44},"0930":{"zip_code":"8740930","prefecture":"大分県","prefecture_kana":"オオイタケン","city":"別府市","city_kana":"ベップシ","town":"光町","town_kana":"ヒカリマチ","prefecture_code":44},"0836":{"zip_code":"8740836","prefecture":"大分県","prefecture_kana":"オオイタケン","city":"別府市","city_kana":"ベップシ","town":"東荘園","town_kana":"ヒガシソウエン","prefecture_code":44},"0803":{"zip_code":"8740803","prefecture":"大分県","prefecture_kana":"オオイタケン","city":"別府市","city_kana":"ベップシ","town":"東山一区","town_kana":"ヒガシヤマイック","prefecture_code":44},"0804":{"zip_code":"8740804","prefecture":"大分県","prefecture_kana":"オオイタケン","city":"別府市","city_kana":"ベップシ","town":"東山二区","town_kana":"ヒガシヤマニク","prefecture_code":44},"0024":{"zip_code":"8740024","prefecture":"大分県","prefecture_kana":"オオイタケン","city":"別府市","city_kana":"ベップシ","town":"平田町","town_kana":"ヒラタマチ","prefecture_code":44},"0921":{"zip_code":"8740921","prefecture":"大分県","prefecture_kana":"オオイタケン","city":"別府市","city_kana":"ベップシ","town":"富士見町","town_kana":"フジミチョウ","prefecture_code":44},"0922":{"zip_code":"8740922","prefecture":"大分県","prefecture_kana":"オオイタケン","city":"別府市","city_kana":"ベップシ","town":"船小路町","town_kana":"フナコウジマチ","prefecture_code":44},"0013":{"zip_code":"8740013","prefecture":"大分県","prefecture_kana":"オオイタケン","city":"別府市","city_kana":"ベップシ","town":"古市町","town_kana":"フルイチマチ","prefecture_code":44},"0044":{"zip_code":"8740044","prefecture":"大分県","prefecture_kana":"オオイタケン","city":"別府市","city_kana":"ベップシ","town":"風呂本","town_kana":"フロモト","prefecture_code":44},"0844":{"zip_code":"8740844","prefecture":"大分県","prefecture_kana":"オオイタケン","city":"別府市","city_kana":"ベップシ","town":"火売","town_kana":"ホノメ","prefecture_code":44},"0831":{"zip_code":"8740831","prefecture":"大分県","prefecture_kana":"オオイタケン","city":"別府市","city_kana":"ベップシ","town":"堀田","town_kana":"ホリタ","prefecture_code":44},"0946":{"zip_code":"8740946","prefecture":"大分県","prefecture_kana":"オオイタケン","city":"別府市","city_kana":"ベップシ","town":"松原町","town_kana":"マツバラチョウ","prefecture_code":44},"0911":{"zip_code":"8740911","prefecture":"大分県","prefecture_kana":"オオイタケン","city":"別府市","city_kana":"ベップシ","town":"緑丘町","town_kana":"ミドリガオカチョウ","prefecture_code":44},"0912":{"zip_code":"8740912","prefecture":"大分県","prefecture_kana":"オオイタケン","city":"別府市","city_kana":"ベップシ","town":"南須賀","town_kana":"ミナミスカ","prefecture_code":44},"0904":{"zip_code":"8740904","prefecture":"大分県","prefecture_kana":"オオイタケン","city":"別府市","city_kana":"ベップシ","town":"南荘園町","town_kana":"ミナミソウエンチョウ","prefecture_code":44},"0832":{"zip_code":"8740832","prefecture":"大分県","prefecture_kana":"オオイタケン","city":"別府市","city_kana":"ベップシ","town":"南立石生目町","town_kana":"ミナミタテイシイキメチョウ","prefecture_code":44},"0824":{"zip_code":"8740824","prefecture":"大分県","prefecture_kana":"オオイタケン","city":"別府市","city_kana":"ベップシ","town":"南立石板地町","town_kana":"ミナミタテイシイタジチョウ","prefecture_code":44},"0839":{"zip_code":"8740839","prefecture":"大分県","prefecture_kana":"オオイタケン","city":"別府市","city_kana":"ベップシ","town":"南立石一区","town_kana":"ミナミタテイシイック","prefecture_code":44},"0827":{"zip_code":"8740827","prefecture":"大分県","prefecture_kana":"オオイタケン","city":"別府市","city_kana":"ベップシ","town":"南立石二区","town_kana":"ミナミタテイシニク","prefecture_code":44},"0825":{"zip_code":"8740825","prefecture":"大分県","prefecture_kana":"オオイタケン","city":"別府市","city_kana":"ベップシ","town":"南立石八幡町","town_kana":"ミナミタテイシハチマンチョウ","prefecture_code":44},"0823":{"zip_code":"8740823","prefecture":"大分県","prefecture_kana":"オオイタケン","city":"別府市","city_kana":"ベップシ","town":"南立石本町","town_kana":"ミナミタテイシホンマチ","prefecture_code":44},"0941":{"zip_code":"8740941","prefecture":"大分県","prefecture_kana":"オオイタケン","city":"別府市","city_kana":"ベップシ","town":"南町","town_kana":"ミナミマチ","prefecture_code":44},"0929":{"zip_code":"8740929","prefecture":"大分県","prefecture_kana":"オオイタケン","city":"別府市","city_kana":"ベップシ","town":"南的ケ浜町","town_kana":"ミナミマトガハマチョウ","prefecture_code":44},"0045":{"zip_code":"8740045","prefecture":"大分県","prefecture_kana":"オオイタケン","city":"別府市","city_kana":"ベップシ","town":"御幸","town_kana":"ミユキ","prefecture_code":44},"0843":{"zip_code":"8740843","prefecture":"大分県","prefecture_kana":"オオイタケン","city":"別府市","city_kana":"ベップシ","town":"明礬","town_kana":"ミョウバン","prefecture_code":44},"0924":{"zip_code":"8740924","prefecture":"大分県","prefecture_kana":"オオイタケン","city":"別府市","city_kana":"ベップシ","town":"餅ケ浜町","town_kana":"モチガハマチョウ","prefecture_code":44},"0944":{"zip_code":"8740944","prefecture":"大分県","prefecture_kana":"オオイタケン","city":"別府市","city_kana":"ベップシ","town":"元町","town_kana":"モトマチ","prefecture_code":44},"0811":{"zip_code":"8740811","prefecture":"大分県","prefecture_kana":"オオイタケン","city":"別府市","city_kana":"ベップシ","town":"柳","town_kana":"ヤナギ","prefecture_code":44},"0818":{"zip_code":"8740818","prefecture":"大分県","prefecture_kana":"オオイタケン","city":"別府市","city_kana":"ベップシ","town":"山家","town_kana":"ヤマガ","prefecture_code":44},"0801":{"zip_code":"8740801","prefecture":"大分県","prefecture_kana":"オオイタケン","city":"別府市","city_kana":"ベップシ","town":"山の口","town_kana":"ヤマノクチ","prefecture_code":44},"0828":{"zip_code":"8740828","prefecture":"大分県","prefecture_kana":"オオイタケン","city":"別府市","city_kana":"ベップシ","town":"山の手町","town_kana":"ヤマノテチョウ","prefecture_code":44},"0927":{"zip_code":"8740927","prefecture":"大分県","prefecture_kana":"オオイタケン","city":"別府市","city_kana":"ベップシ","town":"弓ケ浜町","town_kana":"ユミガハマチョウ","prefecture_code":44},"0004":{"zip_code":"8740004","prefecture":"大分県","prefecture_kana":"オオイタケン","city":"別府市","city_kana":"ベップシ","town":"湯山","town_kana":"ユヤマ","prefecture_code":44},"0813":{"zip_code":"8740813","prefecture":"大分県","prefecture_kana":"オオイタケン","city":"別府市","city_kana":"ベップシ","town":"両郡橋","town_kana":"リョウグンバシ","prefecture_code":44},"0925":{"zip_code":"8740925","prefecture":"大分県","prefecture_kana":"オオイタケン","city":"別府市","city_kana":"ベップシ","town":"若草町","town_kana":"ワカクサチョウ","prefecture_code":44}}