{"0000":{"zip_code":"8750000","prefecture":"大分県","prefecture_kana":"オオイタケン","city":"臼杵市","city_kana":"ウスキシ","town":"","town_kana":"","prefecture_code":44},"0065":{"zip_code":"8750065","prefecture":"大分県","prefecture_kana":"オオイタケン","city":"臼杵市","city_kana":"ウスキシ","town":"家野","town_kana":"イエノ","prefecture_code":44},"0034":{"zip_code":"8750034","prefecture":"大分県","prefecture_kana":"オオイタケン","city":"臼杵市","city_kana":"ウスキシ","town":"板知屋","town_kana":"イタチヤ","prefecture_code":44},"0052":{"zip_code":"8750052","prefecture":"大分県","prefecture_kana":"オオイタケン","city":"臼杵市","city_kana":"ウスキシ","town":"市浜","town_kana":"イチハマ","prefecture_code":44},"0082":{"zip_code":"8750082","prefecture":"大分県","prefecture_kana":"オオイタケン","city":"臼杵市","city_kana":"ウスキシ","town":"稲田","town_kana":"イナダ","prefecture_code":44},"0083":{"zip_code":"8750083","prefecture":"大分県","prefecture_kana":"オオイタケン","city":"臼杵市","city_kana":"ウスキシ","town":"井村","town_kana":"イムラ","prefecture_code":44},"0041":{"zip_code":"8750041","prefecture":"大分県","prefecture_kana":"オオイタケン","city":"臼杵市","city_kana":"ウスキシ","town":"臼杵","town_kana":"ウスキ","prefecture_code":44},"0023":{"zip_code":"8750023","prefecture":"大分県","prefecture_kana":"オオイタケン","city":"臼杵市","city_kana":"ウスキシ","town":"江無田","town_kana":"エムタ","prefecture_code":44},"0033":{"zip_code":"8750033","prefecture":"大分県","prefecture_kana":"オオイタケン","city":"臼杵市","city_kana":"ウスキシ","town":"大泊","town_kana":"オオトマリ","prefecture_code":44},"0004":{"zip_code":"8750004","prefecture":"大分県","prefecture_kana":"オオイタケン","city":"臼杵市","city_kana":"ウスキシ","town":"大野","town_kana":"オオノ","prefecture_code":44},"0012":{"zip_code":"8750012","prefecture":"大分県","prefecture_kana":"オオイタケン","city":"臼杵市","city_kana":"ウスキシ","town":"大浜","town_kana":"オオハマ","prefecture_code":44},"0077":{"zip_code":"8750077","prefecture":"大分県","prefecture_kana":"オオイタケン","city":"臼杵市","city_kana":"ウスキシ","town":"乙見","town_kana":"オトミ","prefecture_code":44},"0042":{"zip_code":"8750042","prefecture":"大分県","prefecture_kana":"オオイタケン","city":"臼杵市","city_kana":"ウスキシ","town":"海添","town_kana":"カイゾエ","prefecture_code":44},"0073":{"zip_code":"8750073","prefecture":"大分県","prefecture_kana":"オオイタケン","city":"臼杵市","city_kana":"ウスキシ","town":"掻懐","town_kana":"カキダキ","prefecture_code":44},"0032":{"zip_code":"8750032","prefecture":"大分県","prefecture_kana":"オオイタケン","city":"臼杵市","city_kana":"ウスキシ","town":"風成","town_kana":"カザナシ","prefecture_code":44},"0070":{"zip_code":"8750070","prefecture":"大分県","prefecture_kana":"オオイタケン","city":"臼杵市","city_kana":"ウスキシ","town":"久木小野","town_kana":"クギオノ","prefecture_code":44},"0001":{"zip_code":"8750001","prefecture":"大分県","prefecture_kana":"オオイタケン","city":"臼杵市","city_kana":"ウスキシ","town":"佐志生","town_kana":"サシウ","prefecture_code":44},"0074":{"zip_code":"8750074","prefecture":"大分県","prefecture_kana":"オオイタケン","city":"臼杵市","city_kana":"ウスキシ","town":"左津留","town_kana":"サヅル","prefecture_code":44},"0002":{"zip_code":"8750002","prefecture":"大分県","prefecture_kana":"オオイタケン","city":"臼杵市","city_kana":"ウスキシ","town":"下ノ江","town_kana":"シタノエ","prefecture_code":44},"0022":{"zip_code":"8750022","prefecture":"大分県","prefecture_kana":"オオイタケン","city":"臼杵市","city_kana":"ウスキシ","town":"末広","town_kana":"スエヒロ","prefecture_code":44},"0011":{"zip_code":"8750011","prefecture":"大分県","prefecture_kana":"オオイタケン","city":"臼杵市","city_kana":"ウスキシ","town":"諏訪","town_kana":"スワ","prefecture_code":44},"0003":{"zip_code":"8750003","prefecture":"大分県","prefecture_kana":"オオイタケン","city":"臼杵市","city_kana":"ウスキシ","town":"田井","town_kana":"タイ","prefecture_code":44},"0078":{"zip_code":"8750078","prefecture":"大分県","prefecture_kana":"オオイタケン","city":"臼杵市","city_kana":"ウスキシ","town":"高山","town_kana":"タカヤマ","prefecture_code":44},"0084":{"zip_code":"8750084","prefecture":"大分県","prefecture_kana":"オオイタケン","city":"臼杵市","city_kana":"ウスキシ","town":"岳谷","town_kana":"タケヤ","prefecture_code":44},"0079":{"zip_code":"8750079","prefecture":"大分県","prefecture_kana":"オオイタケン","city":"臼杵市","city_kana":"ウスキシ","town":"武山","town_kana":"タケヤマ","prefecture_code":44},"0021":{"zip_code":"8750021","prefecture":"大分県","prefecture_kana":"オオイタケン","city":"臼杵市","city_kana":"ウスキシ","town":"田尻","town_kana":"タジリ","prefecture_code":44},"0051":{"zip_code":"8750051","prefecture":"大分県","prefecture_kana":"オオイタケン","city":"臼杵市","city_kana":"ウスキシ","town":"戸室","town_kana":"トムロ","prefecture_code":44},"0072":{"zip_code":"8750072","prefecture":"大分県","prefecture_kana":"オオイタケン","city":"臼杵市","city_kana":"ウスキシ","town":"中臼杵","town_kana":"ナカウスキ","prefecture_code":44},"0075":{"zip_code":"8750075","prefecture":"大分県","prefecture_kana":"オオイタケン","city":"臼杵市","city_kana":"ウスキシ","town":"中尾","town_kana":"ナカオ","prefecture_code":44},"0013":{"zip_code":"8750013","prefecture":"大分県","prefecture_kana":"オオイタケン","city":"臼杵市","city_kana":"ウスキシ","town":"中津浦","town_kana":"ナカツウラ","prefecture_code":44},"0043":{"zip_code":"8750043","prefecture":"大分県","prefecture_kana":"オオイタケン","city":"臼杵市","city_kana":"ウスキシ","town":"二王座","town_kana":"ニオウザ","prefecture_code":44},"0062":{"zip_code":"8750062","prefecture":"大分県","prefecture_kana":"オオイタケン","city":"臼杵市","city_kana":"ウスキシ","town":"野田","town_kana":"ノダ","prefecture_code":44},"0221":{"zip_code":"8750221","prefecture":"大分県","prefecture_kana":"オオイタケン","city":"臼杵市","city_kana":"ウスキシ","town":"野津町秋山","town_kana":"ノツマチアキヤマ","prefecture_code":44},"0343":{"zip_code":"8750343","prefecture":"大分県","prefecture_kana":"オオイタケン","city":"臼杵市","city_kana":"ウスキシ","town":"野津町岩屋","town_kana":"ノツマチイワヤ","prefecture_code":44},"0232":{"zip_code":"8750232","prefecture":"大分県","prefecture_kana":"オオイタケン","city":"臼杵市","city_kana":"ウスキシ","town":"野津町烏嶽","town_kana":"ノツマチウガク","prefecture_code":44},"0212":{"zip_code":"8750212","prefecture":"大分県","prefecture_kana":"オオイタケン","city":"臼杵市","city_kana":"ウスキシ","town":"野津町老松","town_kana":"ノツマチオイマツ","prefecture_code":44},"0215":{"zip_code":"8750215","prefecture":"大分県","prefecture_kana":"オオイタケン","city":"臼杵市","city_kana":"ウスキシ","town":"野津町王子","town_kana":"ノツマチオウジ","prefecture_code":44},"0342":{"zip_code":"8750342","prefecture":"大分県","prefecture_kana":"オオイタケン","city":"臼杵市","city_kana":"ウスキシ","town":"野津町落谷","town_kana":"ノツマチオチダニ","prefecture_code":44},"0352":{"zip_code":"8750352","prefecture":"大分県","prefecture_kana":"オオイタケン","city":"臼杵市","city_kana":"ウスキシ","town":"野津町垣河内","town_kana":"ノツマチカキガワチ","prefecture_code":44},"0216":{"zip_code":"8750216","prefecture":"大分県","prefecture_kana":"オオイタケン","city":"臼杵市","city_kana":"ウスキシ","town":"野津町亀甲","town_kana":"ノツマチカメコウ","prefecture_code":44},"0237":{"zip_code":"8750237","prefecture":"大分県","prefecture_kana":"オオイタケン","city":"臼杵市","city_kana":"ウスキシ","town":"野津町西寒田","town_kana":"ノツマチササムタ","prefecture_code":44},"0344":{"zip_code":"8750344","prefecture":"大分県","prefecture_kana":"オオイタケン","city":"臼杵市","city_kana":"ウスキシ","town":"野津町白岩","town_kana":"ノツマチシライワ","prefecture_code":44},"0341":{"zip_code":"8750341","prefecture":"大分県","prefecture_kana":"オオイタケン","city":"臼杵市","city_kana":"ウスキシ","town":"野津町清水原","town_kana":"ノツマチソウズバル","prefecture_code":44},"0231":{"zip_code":"8750231","prefecture":"大分県","prefecture_kana":"オオイタケン","city":"臼杵市","city_kana":"ウスキシ","town":"野津町千塚","town_kana":"ノツマチチヅカ","prefecture_code":44},"0351":{"zip_code":"8750351","prefecture":"大分県","prefecture_kana":"オオイタケン","city":"臼杵市","city_kana":"ウスキシ","town":"野津町泊","town_kana":"ノツマチトマリ","prefecture_code":44},"0353":{"zip_code":"8750353","prefecture":"大分県","prefecture_kana":"オオイタケン","city":"臼杵市","city_kana":"ウスキシ","town":"野津町西神野","town_kana":"ノツマチニシコウノ","prefecture_code":44},"0224":{"zip_code":"8750224","prefecture":"大分県","prefecture_kana":"オオイタケン","city":"臼杵市","city_kana":"ウスキシ","town":"野津町西畑","town_kana":"ノツマチニシハタ","prefecture_code":44},"0201":{"zip_code":"8750201","prefecture":"大分県","prefecture_kana":"オオイタケン","city":"臼杵市","city_kana":"ウスキシ","town":"野津町野津市","town_kana":"ノツマチノツイチ","prefecture_code":44},"0213":{"zip_code":"8750213","prefecture":"大分県","prefecture_kana":"オオイタケン","city":"臼杵市","city_kana":"ウスキシ","town":"野津町八里合","town_kana":"ノツマチハチリゴウ","prefecture_code":44},"0234":{"zip_code":"8750234","prefecture":"大分県","prefecture_kana":"オオイタケン","city":"臼杵市","city_kana":"ウスキシ","town":"野津町原","town_kana":"ノツマチハル","prefecture_code":44},"0323":{"zip_code":"8750323","prefecture":"大分県","prefecture_kana":"オオイタケン","city":"臼杵市","city_kana":"ウスキシ","town":"野津町東谷三重谷","town_kana":"ノツマチヒガシタニミエダニ","prefecture_code":44},"0223":{"zip_code":"8750223","prefecture":"大分県","prefecture_kana":"オオイタケン","city":"臼杵市","city_kana":"ウスキシ","town":"野津町東谷","town_kana":"ノツマチヒガシタニ","prefecture_code":44},"0214":{"zip_code":"8750214","prefecture":"大分県","prefecture_kana":"オオイタケン","city":"臼杵市","city_kana":"ウスキシ","town":"野津町福良木","town_kana":"ノツマチフクラギ","prefecture_code":44},"0235":{"zip_code":"8750235","prefecture":"大分県","prefecture_kana":"オオイタケン","city":"臼杵市","city_kana":"ウスキシ","town":"野津町藤小野","town_kana":"ノツマチフジオノ","prefecture_code":44},"0203":{"zip_code":"8750203","prefecture":"大分県","prefecture_kana":"オオイタケン","city":"臼杵市","city_kana":"ウスキシ","town":"野津町前河内","town_kana":"ノツマチマエガワチ","prefecture_code":44},"0211":{"zip_code":"8750211","prefecture":"大分県","prefecture_kana":"オオイタケン","city":"臼杵市","city_kana":"ウスキシ","town":"野津町都原","town_kana":"ノツマチミヤコバル","prefecture_code":44},"0233":{"zip_code":"8750233","prefecture":"大分県","prefecture_kana":"オオイタケン","city":"臼杵市","city_kana":"ウスキシ","town":"野津町宮原","town_kana":"ノツマチミヤバル","prefecture_code":44},"0202":{"zip_code":"8750202","prefecture":"大分県","prefecture_kana":"オオイタケン","city":"臼杵市","city_kana":"ウスキシ","town":"野津町山頭","town_kana":"ノツマチヤマズ","prefecture_code":44},"0236":{"zip_code":"8750236","prefecture":"大分県","prefecture_kana":"オオイタケン","city":"臼杵市","city_kana":"ウスキシ","town":"野津町柚野木","town_kana":"ノツマチユノキ","prefecture_code":44},"0222":{"zip_code":"8750222","prefecture":"大分県","prefecture_kana":"オオイタケン","city":"臼杵市","city_kana":"ウスキシ","town":"野津町吉田","town_kana":"ノツマチヨシダ","prefecture_code":44},"0076":{"zip_code":"8750076","prefecture":"大分県","prefecture_kana":"オオイタケン","city":"臼杵市","city_kana":"ウスキシ","town":"東神野","town_kana":"ヒガシコウノ","prefecture_code":44},"0031":{"zip_code":"8750031","prefecture":"大分県","prefecture_kana":"オオイタケン","city":"臼杵市","city_kana":"ウスキシ","town":"深江","town_kana":"フカエ","prefecture_code":44},"0064":{"zip_code":"8750064","prefecture":"大分県","prefecture_kana":"オオイタケン","city":"臼杵市","city_kana":"ウスキシ","town":"深田","town_kana":"フカタ","prefecture_code":44},"0053":{"zip_code":"8750053","prefecture":"大分県","prefecture_kana":"オオイタケン","city":"臼杵市","city_kana":"ウスキシ","town":"福良","town_kana":"フクラ","prefecture_code":44},"0081":{"zip_code":"8750081","prefecture":"大分県","prefecture_kana":"オオイタケン","city":"臼杵市","city_kana":"ウスキシ","town":"藤河内","town_kana":"フジカワチ","prefecture_code":44},"0061":{"zip_code":"8750061","prefecture":"大分県","prefecture_kana":"オオイタケン","city":"臼杵市","city_kana":"ウスキシ","town":"前田","town_kana":"マエダ","prefecture_code":44},"0063":{"zip_code":"8750063","prefecture":"大分県","prefecture_kana":"オオイタケン","city":"臼杵市","city_kana":"ウスキシ","town":"望月","town_kana":"モチヅキ","prefecture_code":44},"0071":{"zip_code":"8750071","prefecture":"大分県","prefecture_kana":"オオイタケン","city":"臼杵市","city_kana":"ウスキシ","town":"吉小野","town_kana":"ヨシオノ","prefecture_code":44}}