{"0000":{"zip_code":"8760000","prefecture":"大分県","prefecture_kana":"オオイタケン","city":"佐伯市","city_kana":"サイキシ","town":"","town_kana":"","prefecture_code":44},"1513":{"zip_code":"8761513","prefecture":"大分県","prefecture_kana":"オオイタケン","city":"佐伯市","city_kana":"サイキシ","town":"青山","town_kana":"アオヤマ","prefecture_code":44},"0004":{"zip_code":"8760004","prefecture":"大分県","prefecture_kana":"オオイタケン","city":"佐伯市","city_kana":"サイキシ","town":"荒網代浦","town_kana":"アラジロウラ","prefecture_code":44},"0025":{"zip_code":"8760025","prefecture":"大分県","prefecture_kana":"オオイタケン","city":"佐伯市","city_kana":"サイキシ","town":"池田","town_kana":"イケダ","prefecture_code":44},"0833":{"zip_code":"8760833","prefecture":"大分県","prefecture_kana":"オオイタケン","city":"佐伯市","city_kana":"サイキシ","town":"池船町","town_kana":"イケフネマチ","prefecture_code":44},"0005":{"zip_code":"8760005","prefecture":"大分県","prefecture_kana":"オオイタケン","city":"佐伯市","city_kana":"サイキシ","town":"石間浦","town_kana":"イシマウラ","prefecture_code":44},"0042":{"zip_code":"8760042","prefecture":"大分県","prefecture_kana":"オオイタケン","city":"佐伯市","city_kana":"サイキシ","town":"稲垣","town_kana":"イナガキ","prefecture_code":44},"0849":{"zip_code":"8760849","prefecture":"大分県","prefecture_kana":"オオイタケン","city":"佐伯市","city_kana":"サイキシ","town":"臼坪","town_kana":"ウスツボ","prefecture_code":44},"0845":{"zip_code":"8760845","prefecture":"大分県","prefecture_kana":"オオイタケン","city":"佐伯市","city_kana":"サイキシ","town":"内町","town_kana":"ウチマチ","prefecture_code":44},"0803":{"zip_code":"8760803","prefecture":"大分県","prefecture_kana":"オオイタケン","city":"佐伯市","city_kana":"サイキシ","town":"駅前","town_kana":"エキマエ","prefecture_code":44},"0016":{"zip_code":"8760016","prefecture":"大分県","prefecture_kana":"オオイタケン","city":"佐伯市","city_kana":"サイキシ","town":"王子丸","town_kana":"オウジマル","prefecture_code":44},"0036":{"zip_code":"8760036","prefecture":"大分県","prefecture_kana":"オオイタケン","city":"佐伯市","city_kana":"サイキシ","town":"大越","town_kana":"オオコエ","prefecture_code":44},"0831":{"zip_code":"8760831","prefecture":"大分県","prefecture_kana":"オオイタケン","city":"佐伯市","city_kana":"サイキシ","town":"大手町","town_kana":"オオテマチ","prefecture_code":44},"1105":{"zip_code":"8761105","prefecture":"大分県","prefecture_kana":"オオイタケン","city":"佐伯市","city_kana":"サイキシ","town":"海崎","town_kana":"カイザキ","prefecture_code":44},"0043":{"zip_code":"8760043","prefecture":"大分県","prefecture_kana":"オオイタケン","city":"佐伯市","city_kana":"サイキシ","town":"樫野","town_kana":"カシノ","prefecture_code":44},"0806":{"zip_code":"8760806","prefecture":"大分県","prefecture_kana":"オオイタケン","city":"佐伯市","city_kana":"サイキシ","town":"春日町","town_kana":"カスガマチ","prefecture_code":44},"1104":{"zip_code":"8761104","prefecture":"大分県","prefecture_kana":"オオイタケン","city":"佐伯市","city_kana":"サイキシ","town":"霞ケ浦","town_kana":"カスミガウラ","prefecture_code":44},"0008":{"zip_code":"8760008","prefecture":"大分県","prefecture_kana":"オオイタケン","city":"佐伯市","city_kana":"サイキシ","town":"片神浦","town_kana":"カタガミウラ","prefecture_code":44},"1512":{"zip_code":"8761512","prefecture":"大分県","prefecture_kana":"オオイタケン","city":"佐伯市","city_kana":"サイキシ","town":"堅田","town_kana":"カタタ","prefecture_code":44},"0801":{"zip_code":"8760801","prefecture":"大分県","prefecture_kana":"オオイタケン","city":"佐伯市","city_kana":"サイキシ","town":"葛港","town_kana":"カヅラミナト","prefecture_code":44},"2402":{"zip_code":"8762402","prefecture":"大分県","prefecture_kana":"オオイタケン","city":"佐伯市","city_kana":"サイキシ","town":"蒲江猪串浦","town_kana":"カマエイノクシウラ","prefecture_code":44},"2202":{"zip_code":"8762202","prefecture":"大分県","prefecture_kana":"オオイタケン","city":"佐伯市","city_kana":"サイキシ","town":"蒲江尾浦","town_kana":"カマエオウラ","prefecture_code":44},"2406":{"zip_code":"8762406","prefecture":"大分県","prefecture_kana":"オオイタケン","city":"佐伯市","city_kana":"サイキシ","town":"蒲江葛原浦","town_kana":"カマエカズラハラウラ","prefecture_code":44},"2401":{"zip_code":"8762401","prefecture":"大分県","prefecture_kana":"オオイタケン","city":"佐伯市","city_kana":"サイキシ","town":"蒲江蒲江浦","town_kana":"カマエカマエウラ","prefecture_code":44},"2203":{"zip_code":"8762203","prefecture":"大分県","prefecture_kana":"オオイタケン","city":"佐伯市","city_kana":"サイキシ","town":"蒲江楠本浦","town_kana":"カマエクスモトウラ","prefecture_code":44},"2301":{"zip_code":"8762301","prefecture":"大分県","prefecture_kana":"オオイタケン","city":"佐伯市","city_kana":"サイキシ","town":"蒲江竹野浦河内","town_kana":"カマエタケノウラゴウチ","prefecture_code":44},"2302":{"zip_code":"8762302","prefecture":"大分県","prefecture_kana":"オオイタケン","city":"佐伯市","city_kana":"サイキシ","town":"蒲江西野浦","town_kana":"カマエニシノウラ","prefecture_code":44},"2403":{"zip_code":"8762403","prefecture":"大分県","prefecture_kana":"オオイタケン","city":"佐伯市","city_kana":"サイキシ","town":"蒲江野々河内浦","town_kana":"カマエノノカワチウラ","prefecture_code":44},"2201":{"zip_code":"8762201","prefecture":"大分県","prefecture_kana":"オオイタケン","city":"佐伯市","city_kana":"サイキシ","town":"蒲江畑野浦","town_kana":"カマエハタノウラ","prefecture_code":44},"2407":{"zip_code":"8762407","prefecture":"大分県","prefecture_kana":"オオイタケン","city":"佐伯市","city_kana":"サイキシ","town":"蒲江波当津浦","town_kana":"カマエハトウヅウラ","prefecture_code":44},"2405":{"zip_code":"8762405","prefecture":"大分県","prefecture_kana":"オオイタケン","city":"佐伯市","city_kana":"サイキシ","town":"蒲江丸市尾浦","town_kana":"カマエマルイチビウラ","prefecture_code":44},"2404":{"zip_code":"8762404","prefecture":"大分県","prefecture_kana":"オオイタケン","city":"佐伯市","city_kana":"サイキシ","town":"蒲江森崎浦","town_kana":"カマエモリザキウラ","prefecture_code":44},"0045":{"zip_code":"8760045","prefecture":"大分県","prefecture_kana":"オオイタケン","city":"佐伯市","city_kana":"サイキシ","town":"上岡","town_kana":"カミオカ","prefecture_code":44},"0027":{"zip_code":"8760027","prefecture":"大分県","prefecture_kana":"オオイタケン","city":"佐伯市","city_kana":"サイキシ","town":"上久部","town_kana":"カミクベ","prefecture_code":44},"0034":{"zip_code":"8760034","prefecture":"大分県","prefecture_kana":"オオイタケン","city":"佐伯市","city_kana":"サイキシ","town":"上城","town_kana":"カミジョウ","prefecture_code":44},"0022":{"zip_code":"8760022","prefecture":"大分県","prefecture_kana":"オオイタケン","city":"佐伯市","city_kana":"サイキシ","town":"上灘","town_kana":"カミナダ","prefecture_code":44},"1101":{"zip_code":"8761101","prefecture":"大分県","prefecture_kana":"オオイタケン","city":"佐伯市","city_kana":"サイキシ","town":"狩生","town_kana":"カリウ","prefecture_code":44},"0031":{"zip_code":"8760031","prefecture":"大分県","prefecture_kana":"オオイタケン","city":"佐伯市","city_kana":"サイキシ","town":"川原","town_kana":"カワバル","prefecture_code":44},"0804":{"zip_code":"8760804","prefecture":"大分県","prefecture_kana":"オオイタケン","city":"佐伯市","city_kana":"サイキシ","town":"蟹田","town_kana":"ガンダ","prefecture_code":44},"0035":{"zip_code":"8760035","prefecture":"大分県","prefecture_kana":"オオイタケン","city":"佐伯市","city_kana":"サイキシ","town":"岸河内","town_kana":"キシガワチ","prefecture_code":44},"2121":{"zip_code":"8762121","prefecture":"大分県","prefecture_kana":"オオイタケン","city":"佐伯市","city_kana":"サイキシ","town":"木立","town_kana":"キタチ","prefecture_code":44},"0007":{"zip_code":"8760007","prefecture":"大分県","prefecture_kana":"オオイタケン","city":"佐伯市","city_kana":"サイキシ","town":"久保浦","town_kana":"クボウラ","prefecture_code":44},"0841":{"zip_code":"8760841","prefecture":"大分県","prefecture_kana":"オオイタケン","city":"佐伯市","city_kana":"サイキシ","town":"来島町","town_kana":"クルシママチ","prefecture_code":44},"0011":{"zip_code":"8760011","prefecture":"大分県","prefecture_kana":"オオイタケン","city":"佐伯市","city_kana":"サイキシ","town":"坂の浦","town_kana":"サカノウラ","prefecture_code":44},"0052":{"zip_code":"8760052","prefecture":"大分県","prefecture_kana":"オオイタケン","city":"佐伯市","city_kana":"サイキシ","town":"坂山","town_kana":"サカヤマ","prefecture_code":44},"0003":{"zip_code":"8760003","prefecture":"大分県","prefecture_kana":"オオイタケン","city":"佐伯市","city_kana":"サイキシ","town":"塩内浦","town_kana":"シウチウラ","prefecture_code":44},"0024":{"zip_code":"8760024","prefecture":"大分県","prefecture_kana":"オオイタケン","city":"佐伯市","city_kana":"サイキシ","town":"下久部","town_kana":"シモクベ","prefecture_code":44},"0033":{"zip_code":"8760033","prefecture":"大分県","prefecture_kana":"オオイタケン","city":"佐伯市","city_kana":"サイキシ","town":"下城","town_kana":"シモジョウ","prefecture_code":44},"0848":{"zip_code":"8760848","prefecture":"大分県","prefecture_kana":"オオイタケン","city":"佐伯市","city_kana":"サイキシ","town":"城下東町","town_kana":"ジョウカヒガシマチ","prefecture_code":44},"0847":{"zip_code":"8760847","prefecture":"大分県","prefecture_kana":"オオイタケン","city":"佐伯市","city_kana":"サイキシ","town":"城下西町","town_kana":"ジョウカニシマチ","prefecture_code":44},"0063":{"zip_code":"8760063","prefecture":"大分県","prefecture_kana":"オオイタケン","city":"佐伯市","city_kana":"サイキシ","town":"城西区","town_kana":"ジョウセイク","prefecture_code":44},"0846":{"zip_code":"8760846","prefecture":"大分県","prefecture_kana":"オオイタケン","city":"佐伯市","city_kana":"サイキシ","town":"城東町","town_kana":"ジョウトウマチ","prefecture_code":44},"0834":{"zip_code":"8760834","prefecture":"大分県","prefecture_kana":"オオイタケン","city":"佐伯市","city_kana":"サイキシ","town":"城南町","town_kana":"ジョウナンマチ","prefecture_code":44},"0026":{"zip_code":"8760026","prefecture":"大分県","prefecture_kana":"オオイタケン","city":"佐伯市","city_kana":"サイキシ","town":"匠南","town_kana":"ショウナン","prefecture_code":44},"0014":{"zip_code":"8760014","prefecture":"大分県","prefecture_kana":"オオイタケン","city":"佐伯市","city_kana":"サイキシ","town":"白方","town_kana":"シラカタ","prefecture_code":44},"0824":{"zip_code":"8760824","prefecture":"大分県","prefecture_kana":"オオイタケン","city":"佐伯市","city_kana":"サイキシ","town":"新女島","town_kana":"シンメジマ","prefecture_code":44},"0832":{"zip_code":"8760832","prefecture":"大分県","prefecture_kana":"オオイタケン","city":"佐伯市","city_kana":"サイキシ","town":"船頭町","town_kana":"センドウマチ","prefecture_code":44},"0044":{"zip_code":"8760044","prefecture":"大分県","prefecture_kana":"オオイタケン","city":"佐伯市","city_kana":"サイキシ","town":"高畠","town_kana":"タカバタ","prefecture_code":44},"0053":{"zip_code":"8760053","prefecture":"大分県","prefecture_kana":"オオイタケン","city":"佐伯市","city_kana":"サイキシ","town":"高畑","town_kana":"タカバタケ","prefecture_code":44},"0001":{"zip_code":"8760001","prefecture":"大分県","prefecture_kana":"オオイタケン","city":"佐伯市","city_kana":"サイキシ","town":"高松浦","town_kana":"タカマツウラ","prefecture_code":44},"0807":{"zip_code":"8760807","prefecture":"大分県","prefecture_kana":"オオイタケン","city":"佐伯市","city_kana":"サイキシ","town":"田の浦町","town_kana":"タノウラマチ","prefecture_code":44},"0047":{"zip_code":"8760047","prefecture":"大分県","prefecture_kana":"オオイタケン","city":"佐伯市","city_kana":"サイキシ","town":"鶴岡西町","town_kana":"ツルオカニシマチ","prefecture_code":44},"0835":{"zip_code":"8760835","prefecture":"大分県","prefecture_kana":"オオイタケン","city":"佐伯市","city_kana":"サイキシ","town":"鶴岡町","town_kana":"ツルオカマチ","prefecture_code":44},"0012":{"zip_code":"8760012","prefecture":"大分県","prefecture_kana":"オオイタケン","city":"佐伯市","city_kana":"サイキシ","town":"鶴望","town_kana":"ツルミ","prefecture_code":44},"1204":{"zip_code":"8761204","prefecture":"大分県","prefecture_kana":"オオイタケン","city":"佐伯市","city_kana":"サイキシ","town":"鶴見有明浦","town_kana":"ツルミアリアケウラ","prefecture_code":44},"1313":{"zip_code":"8761313","prefecture":"大分県","prefecture_kana":"オオイタケン","city":"佐伯市","city_kana":"サイキシ","town":"鶴見大島","town_kana":"ツルミオオシマ","prefecture_code":44},"1203":{"zip_code":"8761203","prefecture":"大分県","prefecture_kana":"オオイタケン","city":"佐伯市","city_kana":"サイキシ","town":"鶴見沖松浦","town_kana":"ツルミオキマツウラ","prefecture_code":44},"1312":{"zip_code":"8761312","prefecture":"大分県","prefecture_kana":"オオイタケン","city":"佐伯市","city_kana":"サイキシ","town":"鶴見梶寄浦","town_kana":"ツルミカジヨセウラ","prefecture_code":44},"1202":{"zip_code":"8761202","prefecture":"大分県","prefecture_kana":"オオイタケン","city":"佐伯市","city_kana":"サイキシ","town":"鶴見地松浦","town_kana":"ツルミジマツウラ","prefecture_code":44},"1311":{"zip_code":"8761311","prefecture":"大分県","prefecture_kana":"オオイタケン","city":"佐伯市","city_kana":"サイキシ","town":"鶴見丹賀浦","town_kana":"ツルミタンガウラ","prefecture_code":44},"1306":[{"zip_code":"8761306","prefecture":"大分県","prefecture_kana":"オオイタケン","city":"佐伯市","city_kana":"サイキシ","town":"鶴見中越浦猿戸","town_kana":"ツルミナカゴシウラサルト","prefecture_code":44},{"zip_code":"8761306","prefecture":"大分県","prefecture_kana":"オオイタケン","city":"佐伯市","city_kana":"サイキシ","town":"鶴見中越浦広浦","town_kana":"ツルミナカゴシウラヒロウラ","prefecture_code":44}],"1206":{"zip_code":"8761206","prefecture":"大分県","prefecture_kana":"オオイタケン","city":"佐伯市","city_kana":"サイキシ","town":"鶴見中越浦","town_kana":"ツルミナカゴシウラ","prefecture_code":44},"1205":{"zip_code":"8761205","prefecture":"大分県","prefecture_kana":"オオイタケン","city":"佐伯市","city_kana":"サイキシ","town":"鶴見羽出浦","town_kana":"ツルミハイデウラ","prefecture_code":44},"1201":{"zip_code":"8761201","prefecture":"大分県","prefecture_kana":"オオイタケン","city":"佐伯市","city_kana":"サイキシ","town":"鶴見吹浦","town_kana":"ツルミフキウラ","prefecture_code":44},"0811":{"zip_code":"8760811","prefecture":"大分県","prefecture_kana":"オオイタケン","city":"佐伯市","city_kana":"サイキシ","town":"鶴谷町","town_kana":"ツルヤマチ","prefecture_code":44},"0051":{"zip_code":"8760051","prefecture":"大分県","prefecture_kana":"オオイタケン","city":"佐伯市","city_kana":"サイキシ","town":"寺田","town_kana":"テラダ","prefecture_code":44},"0851":{"zip_code":"8760851","prefecture":"大分県","prefecture_kana":"オオイタケン","city":"佐伯市","city_kana":"サイキシ","town":"常盤東町","town_kana":"トキワヒガシマチ","prefecture_code":44},"0857":{"zip_code":"8760857","prefecture":"大分県","prefecture_kana":"オオイタケン","city":"佐伯市","city_kana":"サイキシ","town":"常盤西町","town_kana":"トキワニシマチ","prefecture_code":44},"0852":{"zip_code":"8760852","prefecture":"大分県","prefecture_kana":"オオイタケン","city":"佐伯市","city_kana":"サイキシ","town":"常盤南町","town_kana":"トキワミナミマチ","prefecture_code":44},"0812":{"zip_code":"8760812","prefecture":"大分県","prefecture_kana":"オオイタケン","city":"佐伯市","city_kana":"サイキシ","town":"中江町","town_kana":"ナカエマチ","prefecture_code":44},"0843":{"zip_code":"8760843","prefecture":"大分県","prefecture_kana":"オオイタケン","city":"佐伯市","city_kana":"サイキシ","town":"中の島","town_kana":"ナカノシマ","prefecture_code":44},"0842":{"zip_code":"8760842","prefecture":"大分県","prefecture_kana":"オオイタケン","city":"佐伯市","city_kana":"サイキシ","town":"中ノ島東町","town_kana":"ナカノシマヒガシマチ","prefecture_code":44},"0853":{"zip_code":"8760853","prefecture":"大分県","prefecture_kana":"オオイタケン","city":"佐伯市","city_kana":"サイキシ","town":"中村東町","town_kana":"ナカムラヒガシマチ","prefecture_code":44},"0855":{"zip_code":"8760855","prefecture":"大分県","prefecture_kana":"オオイタケン","city":"佐伯市","city_kana":"サイキシ","town":"中村西町","town_kana":"ナカムラニシマチ","prefecture_code":44},"0854":{"zip_code":"8760854","prefecture":"大分県","prefecture_kana":"オオイタケン","city":"佐伯市","city_kana":"サイキシ","town":"中村南町","town_kana":"ナカムラミナミマチ","prefecture_code":44},"0856":{"zip_code":"8760856","prefecture":"大分県","prefecture_kana":"オオイタケン","city":"佐伯市","city_kana":"サイキシ","town":"中村北町","town_kana":"ナカムラキタマチ","prefecture_code":44},"0032":{"zip_code":"8760032","prefecture":"大分県","prefecture_kana":"オオイタケン","city":"佐伯市","city_kana":"サイキシ","town":"中山","town_kana":"ナカヤマ","prefecture_code":44},"0813":{"zip_code":"8760813","prefecture":"大分県","prefecture_kana":"オオイタケン","city":"佐伯市","city_kana":"サイキシ","town":"長島町","town_kana":"ナガシママチ","prefecture_code":44},"0041":{"zip_code":"8760041","prefecture":"大分県","prefecture_kana":"オオイタケン","city":"佐伯市","city_kana":"サイキシ","town":"長瀬","town_kana":"ナガセ","prefecture_code":44},"1511":{"zip_code":"8761511","prefecture":"大分県","prefecture_kana":"オオイタケン","city":"佐伯市","city_kana":"サイキシ","town":"長良","town_kana":"ナガラ","prefecture_code":44},"0836":{"zip_code":"8760836","prefecture":"大分県","prefecture_kana":"オオイタケン","city":"佐伯市","city_kana":"サイキシ","town":"西谷町","town_kana":"ニシダニマチ","prefecture_code":44},"0822":{"zip_code":"8760822","prefecture":"大分県","prefecture_kana":"オオイタケン","city":"佐伯市","city_kana":"サイキシ","town":"西浜","town_kana":"ニシハマ","prefecture_code":44},"0815":{"zip_code":"8760815","prefecture":"大分県","prefecture_kana":"オオイタケン","city":"佐伯市","city_kana":"サイキシ","town":"野岡町","town_kana":"ノオカマチ","prefecture_code":44},"0017":{"zip_code":"8760017","prefecture":"大分県","prefecture_kana":"オオイタケン","city":"佐伯市","city_kana":"サイキシ","town":"野口","town_kana":"ノグチ","prefecture_code":44},"0037":{"zip_code":"8760037","prefecture":"大分県","prefecture_kana":"オオイタケン","city":"佐伯市","city_kana":"サイキシ","town":"長谷","town_kana":"ハセ","prefecture_code":44},"1106":{"zip_code":"8761106","prefecture":"大分県","prefecture_kana":"オオイタケン","city":"佐伯市","city_kana":"サイキシ","town":"戸穴","town_kana":"ヒアナ","prefecture_code":44},"0021":{"zip_code":"8760021","prefecture":"大分県","prefecture_kana":"オオイタケン","city":"佐伯市","city_kana":"サイキシ","town":"東灘","town_kana":"ヒガシナダ","prefecture_code":44},"0821":{"zip_code":"8760821","prefecture":"大分県","prefecture_kana":"オオイタケン","city":"佐伯市","city_kana":"サイキシ","town":"東浜","town_kana":"ヒガシハマ","prefecture_code":44},"0814":{"zip_code":"8760814","prefecture":"大分県","prefecture_kana":"オオイタケン","city":"佐伯市","city_kana":"サイキシ","town":"東町","town_kana":"ヒガシマチ","prefecture_code":44},"0802":{"zip_code":"8760802","prefecture":"大分県","prefecture_kana":"オオイタケン","city":"佐伯市","city_kana":"サイキシ","town":"日の出町","town_kana":"ヒノデマチ","prefecture_code":44},"0002":{"zip_code":"8760002","prefecture":"大分県","prefecture_kana":"オオイタケン","city":"佐伯市","city_kana":"サイキシ","town":"日向泊浦","town_kana":"ヒュウガドマリウラ","prefecture_code":44},"0018":{"zip_code":"8760018","prefecture":"大分県","prefecture_kana":"オオイタケン","city":"佐伯市","city_kana":"サイキシ","town":"平","town_kana":"ヒラ","prefecture_code":44},"0805":{"zip_code":"8760805","prefecture":"大分県","prefecture_kana":"オオイタケン","city":"佐伯市","city_kana":"サイキシ","town":"平野町","town_kana":"ヒラノマチ","prefecture_code":44},"1102":{"zip_code":"8761102","prefecture":"大分県","prefecture_kana":"オオイタケン","city":"佐伯市","city_kana":"サイキシ","town":"二栄","town_kana":"フタバエ","prefecture_code":44},"0062":{"zip_code":"8760062","prefecture":"大分県","prefecture_kana":"オオイタケン","city":"佐伯市","city_kana":"サイキシ","town":"古市","town_kana":"フルイチ","prefecture_code":44},"0023":{"zip_code":"8760023","prefecture":"大分県","prefecture_kana":"オオイタケン","city":"佐伯市","city_kana":"サイキシ","town":"蛇崎","town_kana":"ヘビザキ","prefecture_code":44},"0844":{"zip_code":"8760844","prefecture":"大分県","prefecture_kana":"オオイタケン","city":"佐伯市","city_kana":"サイキシ","town":"向島","town_kana":"ホウジマ","prefecture_code":44},"0211":{"zip_code":"8760211","prefecture":"大分県","prefecture_kana":"オオイタケン","city":"佐伯市","city_kana":"サイキシ","town":"本匠井ノ上","town_kana":"ホンジョウイノウエ","prefecture_code":44},"0212":{"zip_code":"8760212","prefecture":"大分県","prefecture_kana":"オオイタケン","city":"佐伯市","city_kana":"サイキシ","town":"本匠因尾","town_kana":"ホンジョウインビ","prefecture_code":44},"0204":{"zip_code":"8760204","prefecture":"大分県","prefecture_kana":"オオイタケン","city":"佐伯市","city_kana":"サイキシ","town":"本匠宇津々","town_kana":"ホンジョウウツツ","prefecture_code":44},"0206":{"zip_code":"8760206","prefecture":"大分県","prefecture_kana":"オオイタケン","city":"佐伯市","city_kana":"サイキシ","town":"本匠小川","town_kana":"ホンジョウオガワ","prefecture_code":44},"0215":{"zip_code":"8760215","prefecture":"大分県","prefecture_kana":"オオイタケン","city":"佐伯市","city_kana":"サイキシ","town":"本匠小半","town_kana":"ホンジョウオナガラ","prefecture_code":44},"0202":{"zip_code":"8760202","prefecture":"大分県","prefecture_kana":"オオイタケン","city":"佐伯市","city_kana":"サイキシ","town":"本匠笠掛","town_kana":"ホンジョウカサカケ","prefecture_code":44},"0201":{"zip_code":"8760201","prefecture":"大分県","prefecture_kana":"オオイタケン","city":"佐伯市","city_kana":"サイキシ","town":"本匠風戸","town_kana":"ホンジョウカザト","prefecture_code":44},"0214":{"zip_code":"8760214","prefecture":"大分県","prefecture_kana":"オオイタケン","city":"佐伯市","city_kana":"サイキシ","town":"本匠上津川","town_kana":"ホンジョウコウヅガワ","prefecture_code":44},"0213":{"zip_code":"8760213","prefecture":"大分県","prefecture_kana":"オオイタケン","city":"佐伯市","city_kana":"サイキシ","town":"本匠堂ノ間","town_kana":"ホンジョウドウノマ","prefecture_code":44},"0205":{"zip_code":"8760205","prefecture":"大分県","prefecture_kana":"オオイタケン","city":"佐伯市","city_kana":"サイキシ","town":"本匠波寄","town_kana":"ホンジョウハキ","prefecture_code":44},"0203":{"zip_code":"8760203","prefecture":"大分県","prefecture_kana":"オオイタケン","city":"佐伯市","city_kana":"サイキシ","town":"本匠三股","town_kana":"ホンジョウミマタ","prefecture_code":44},"0216":{"zip_code":"8760216","prefecture":"大分県","prefecture_kana":"オオイタケン","city":"佐伯市","city_kana":"サイキシ","town":"本匠山部","town_kana":"ホンジョウヤマブ","prefecture_code":44},"0823":{"zip_code":"8760823","prefecture":"大分県","prefecture_kana":"オオイタケン","city":"佐伯市","city_kana":"サイキシ","town":"女島","town_kana":"メジマ","prefecture_code":44},"0825":{"zip_code":"8760825","prefecture":"大分県","prefecture_kana":"オオイタケン","city":"佐伯市","city_kana":"サイキシ","town":"女島団地","town_kana":"メジマダンチ","prefecture_code":44},"0015":{"zip_code":"8760015","prefecture":"大分県","prefecture_kana":"オオイタケン","city":"佐伯市","city_kana":"サイキシ","town":"百谷","town_kana":"モモタニ","prefecture_code":44},"1103":{"zip_code":"8761103","prefecture":"大分県","prefecture_kana":"オオイタケン","city":"佐伯市","city_kana":"サイキシ","town":"護江","town_kana":"モリエ","prefecture_code":44},"0006":{"zip_code":"8760006","prefecture":"大分県","prefecture_kana":"オオイタケン","city":"佐伯市","city_kana":"サイキシ","town":"守後浦","town_kana":"モリゴウラ","prefecture_code":44},"0061":{"zip_code":"8760061","prefecture":"大分県","prefecture_kana":"オオイタケン","city":"佐伯市","city_kana":"サイキシ","town":"門前","town_kana":"モンゼ","prefecture_code":44},"0064":{"zip_code":"8760064","prefecture":"大分県","prefecture_kana":"オオイタケン","city":"佐伯市","city_kana":"サイキシ","town":"八迫区","town_kana":"ヤサコク","prefecture_code":44},"0111":{"zip_code":"8760111","prefecture":"大分県","prefecture_kana":"オオイタケン","city":"佐伯市","city_kana":"サイキシ","town":"弥生井崎","town_kana":"ヤヨイイサキ","prefecture_code":44},"0125":{"zip_code":"8760125","prefecture":"大分県","prefecture_kana":"オオイタケン","city":"佐伯市","city_kana":"サイキシ","town":"弥生江良","town_kana":"ヤヨイエラ","prefecture_code":44},"0101":{"zip_code":"8760101","prefecture":"大分県","prefecture_kana":"オオイタケン","city":"佐伯市","city_kana":"サイキシ","town":"弥生大坂本","town_kana":"ヤヨイオオサカモト","prefecture_code":44},"0112":{"zip_code":"8760112","prefecture":"大分県","prefecture_kana":"オオイタケン","city":"佐伯市","city_kana":"サイキシ","town":"弥生上小倉","town_kana":"ヤヨイカミオグラ","prefecture_code":44},"0122":{"zip_code":"8760122","prefecture":"大分県","prefecture_kana":"オオイタケン","city":"佐伯市","city_kana":"サイキシ","town":"弥生門田","town_kana":"ヤヨイカンタ","prefecture_code":44},"0121":{"zip_code":"8760121","prefecture":"大分県","prefecture_kana":"オオイタケン","city":"佐伯市","city_kana":"サイキシ","town":"弥生小田","town_kana":"ヤヨイコダ","prefecture_code":44},"0124":{"zip_code":"8760124","prefecture":"大分県","prefecture_kana":"オオイタケン","city":"佐伯市","city_kana":"サイキシ","town":"弥生細田","town_kana":"ヤヨイサイタ","prefecture_code":44},"0102":{"zip_code":"8760102","prefecture":"大分県","prefecture_kana":"オオイタケン","city":"佐伯市","city_kana":"サイキシ","town":"弥生尺間","town_kana":"ヤヨイシャクマ","prefecture_code":44},"0126":{"zip_code":"8760126","prefecture":"大分県","prefecture_kana":"オオイタケン","city":"佐伯市","city_kana":"サイキシ","town":"弥生提内","town_kana":"ヤヨイヒサギウチ","prefecture_code":44},"0123":{"zip_code":"8760123","prefecture":"大分県","prefecture_kana":"オオイタケン","city":"佐伯市","city_kana":"サイキシ","town":"弥生平井","town_kana":"ヤヨイヒライ","prefecture_code":44},"0113":{"zip_code":"8760113","prefecture":"大分県","prefecture_kana":"オオイタケン","city":"佐伯市","city_kana":"サイキシ","town":"弥生山梨子","town_kana":"ヤヨイヤマナシ","prefecture_code":44},"0103":{"zip_code":"8760103","prefecture":"大分県","prefecture_kana":"オオイタケン","city":"佐伯市","city_kana":"サイキシ","town":"弥生床木","town_kana":"ヤヨイユカギ","prefecture_code":44},"1402":{"zip_code":"8761402","prefecture":"大分県","prefecture_kana":"オオイタケン","city":"佐伯市","city_kana":"サイキシ","town":"米水津色利浦","town_kana":"ヨノウヅイロリウラ","prefecture_code":44},"1401":{"zip_code":"8761401","prefecture":"大分県","prefecture_kana":"オオイタケン","city":"佐伯市","city_kana":"サイキシ","town":"米水津浦代浦","town_kana":"ヨノウヅウラシロウラ","prefecture_code":44},"1301":[{"zip_code":"8761301","prefecture":"大分県","prefecture_kana":"オオイタケン","city":"佐伯市","city_kana":"サイキシ","town":"米水津浦代浦間越","town_kana":"ヨノウヅウラシロウラハザコ","prefecture_code":44},{"zip_code":"8761301","prefecture":"大分県","prefecture_kana":"オオイタケン","city":"佐伯市","city_kana":"サイキシ","town":"米水津浦代浦芳ケ浦","town_kana":"ヨノウヅウラシロウラヨシガウラ","prefecture_code":44}],"1404":{"zip_code":"8761404","prefecture":"大分県","prefecture_kana":"オオイタケン","city":"佐伯市","city_kana":"サイキシ","town":"米水津小浦","town_kana":"ヨノウヅコウラ","prefecture_code":44},"1405":{"zip_code":"8761405","prefecture":"大分県","prefecture_kana":"オオイタケン","city":"佐伯市","city_kana":"サイキシ","town":"米水津竹野浦","town_kana":"ヨノウヅタケノウラ","prefecture_code":44},"1403":{"zip_code":"8761403","prefecture":"大分県","prefecture_kana":"オオイタケン","city":"佐伯市","city_kana":"サイキシ","town":"米水津宮野浦","town_kana":"ヨノウヅミヤノウラ","prefecture_code":44},"0013":{"zip_code":"8760013","prefecture":"大分県","prefecture_kana":"オオイタケン","city":"佐伯市","city_kana":"サイキシ","town":"若宮町","town_kana":"ワカミヤマチ","prefecture_code":44},"0046":{"zip_code":"8760046","prefecture":"大分県","prefecture_kana":"オオイタケン","city":"佐伯市","city_kana":"サイキシ","town":"脇","town_kana":"ワキ","prefecture_code":44}}