{"0000":{"zip_code":"8770000","prefecture":"大分県","prefecture_kana":"オオイタケン","city":"日田市","city_kana":"ヒタシ","town":"","town_kana":"","prefecture_code":44},"1224":{"zip_code":"8771224","prefecture":"大分県","prefecture_kana":"オオイタケン","city":"日田市","city_kana":"ヒタシ","town":"秋原町","town_kana":"アキバルマチ","prefecture_code":44},"0001":{"zip_code":"8770001","prefecture":"大分県","prefecture_kana":"オオイタケン","city":"日田市","city_kana":"ヒタシ","town":"秋山町","town_kana":"アキヤママチ","prefecture_code":44},"0084":{"zip_code":"8770084","prefecture":"大分県","prefecture_kana":"オオイタケン","city":"日田市","city_kana":"ヒタシ","town":"朝日ケ丘","town_kana":"アサヒガオカ","prefecture_code":44},"0085":{"zip_code":"8770085","prefecture":"大分県","prefecture_kana":"オオイタケン","city":"日田市","city_kana":"ヒタシ","town":"朝日町","town_kana":"アサヒマチ","prefecture_code":44},"0111":{"zip_code":"8770111","prefecture":"大分県","prefecture_kana":"オオイタケン","city":"日田市","city_kana":"ヒタシ","town":"天瀬町五馬市","town_kana":"アマガセマチイツマイチ","prefecture_code":44},"0114":{"zip_code":"8770114","prefecture":"大分県","prefecture_kana":"オオイタケン","city":"日田市","city_kana":"ヒタシ","town":"天瀬町出口","town_kana":"アマガセマチイデグチ","prefecture_code":44},"0113":{"zip_code":"8770113","prefecture":"大分県","prefecture_kana":"オオイタケン","city":"日田市","city_kana":"ヒタシ","town":"天瀬町塚田","town_kana":"アマガセマチツカダ","prefecture_code":44},"0112":{"zip_code":"8770112","prefecture":"大分県","prefecture_kana":"オオイタケン","city":"日田市","city_kana":"ヒタシ","town":"天瀬町本城","town_kana":"アマガセマチホンジョウ","prefecture_code":44},"1361":{"zip_code":"8771361","prefecture":"大分県","prefecture_kana":"オオイタケン","city":"日田市","city_kana":"ヒタシ","town":"有田町","town_kana":"アリタマチ","prefecture_code":44},"1375":{"zip_code":"8771375","prefecture":"大分県","prefecture_kana":"オオイタケン","city":"日田市","city_kana":"ヒタシ","town":"池辺町","town_kana":"イケベマチ","prefecture_code":44},"0061":{"zip_code":"8770061","prefecture":"大分県","prefecture_kana":"オオイタケン","city":"日田市","city_kana":"ヒタシ","town":"石井","town_kana":"イシイ","prefecture_code":44},"1352":{"zip_code":"8771352","prefecture":"大分県","prefecture_kana":"オオイタケン","city":"日田市","city_kana":"ヒタシ","town":"石松町","town_kana":"イシマツマチ","prefecture_code":44},"1223":{"zip_code":"8771223","prefecture":"大分県","prefecture_kana":"オオイタケン","city":"日田市","city_kana":"ヒタシ","town":"市ノ瀬町","town_kana":"イチノセマチ","prefecture_code":44},"1383":{"zip_code":"8771383","prefecture":"大分県","prefecture_kana":"オオイタケン","city":"日田市","city_kana":"ヒタシ","town":"岩美町","town_kana":"イワミマチ","prefecture_code":44},"0062":{"zip_code":"8770062","prefecture":"大分県","prefecture_kana":"オオイタケン","city":"日田市","city_kana":"ヒタシ","town":"上野町","town_kana":"ウエノマチ","prefecture_code":44},"0068":{"zip_code":"8770068","prefecture":"大分県","prefecture_kana":"オオイタケン","city":"日田市","city_kana":"ヒタシ","town":"内河町","town_kana":"ウチカワマチ","prefecture_code":44},"1104":{"zip_code":"8771104","prefecture":"大分県","prefecture_kana":"オオイタケン","city":"日田市","city_kana":"ヒタシ","town":"大鶴本町","town_kana":"オオツルホンマチ","prefecture_code":44},"1107":{"zip_code":"8771107","prefecture":"大分県","prefecture_kana":"オオイタケン","city":"日田市","city_kana":"ヒタシ","town":"大鶴町","town_kana":"オオツルマチ","prefecture_code":44},"1105":{"zip_code":"8771105","prefecture":"大分県","prefecture_kana":"オオイタケン","city":"日田市","city_kana":"ヒタシ","town":"大肥町","town_kana":"オオヒマチ","prefecture_code":44},"1106":{"zip_code":"8771106","prefecture":"大分県","prefecture_kana":"オオイタケン","city":"日田市","city_kana":"ヒタシ","town":"大肥本町","town_kana":"オオヒホンマチ","prefecture_code":44},"0033":{"zip_code":"8770033","prefecture":"大分県","prefecture_kana":"オオイタケン","city":"日田市","city_kana":"ヒタシ","town":"大部町","town_kana":"オオベマチ","prefecture_code":44},"0055":{"zip_code":"8770055","prefecture":"大分県","prefecture_kana":"オオイタケン","city":"日田市","city_kana":"ヒタシ","town":"大宮町","town_kana":"オオミヤマチ","prefecture_code":44},"0201":{"zip_code":"8770201","prefecture":"大分県","prefecture_kana":"オオイタケン","city":"日田市","city_kana":"ヒタシ","town":"大山町西大山","town_kana":"オオヤママチニシオオヤマ","prefecture_code":44},"0202":{"zip_code":"8770202","prefecture":"大分県","prefecture_kana":"オオイタケン","city":"日田市","city_kana":"ヒタシ","town":"大山町東大山","town_kana":"オオヤママチヒガシオオヤマ","prefecture_code":44},"0032":{"zip_code":"8770032","prefecture":"大分県","prefecture_kana":"オオイタケン","city":"日田市","city_kana":"ヒタシ","town":"小ケ瀬町","town_kana":"オガセマチ","prefecture_code":44},"1222":{"zip_code":"8771222","prefecture":"大分県","prefecture_kana":"オオイタケン","city":"日田市","city_kana":"ヒタシ","town":"小河内町","town_kana":"オガワチマチ","prefecture_code":44},"0088":{"zip_code":"8770088","prefecture":"大分県","prefecture_kana":"オオイタケン","city":"日田市","city_kana":"ヒタシ","town":"小迫町","town_kana":"オザコマチ","prefecture_code":44},"1362":{"zip_code":"8771362","prefecture":"大分県","prefecture_kana":"オオイタケン","city":"日田市","city_kana":"ヒタシ","town":"尾当町","town_kana":"オトウマチ","prefecture_code":44},"0064":{"zip_code":"8770064","prefecture":"大分県","prefecture_kana":"オオイタケン","city":"日田市","city_kana":"ヒタシ","town":"小山町","town_kana":"オヤママチ","prefecture_code":44},"0022":{"zip_code":"8770022","prefecture":"大分県","prefecture_kana":"オオイタケン","city":"日田市","city_kana":"ヒタシ","town":"神来町","town_kana":"カミクマチ","prefecture_code":44},"0003":{"zip_code":"8770003","prefecture":"大分県","prefecture_kana":"オオイタケン","city":"日田市","city_kana":"ヒタシ","town":"上城内町","town_kana":"カミジョウナイマチ","prefecture_code":44},"0312":{"zip_code":"8770312","prefecture":"大分県","prefecture_kana":"オオイタケン","city":"日田市","city_kana":"ヒタシ","town":"上津江町上野田","town_kana":"カミツエマチカミノダ","prefecture_code":44},"0311":{"zip_code":"8770311","prefecture":"大分県","prefecture_kana":"オオイタケン","city":"日田市","city_kana":"ヒタシ","town":"上津江町川原","town_kana":"カミツエマチカワバル","prefecture_code":44},"1372":{"zip_code":"8771372","prefecture":"大分県","prefecture_kana":"オオイタケン","city":"日田市","city_kana":"ヒタシ","town":"上諸留町","town_kana":"カミモロドメマチ","prefecture_code":44},"0076":{"zip_code":"8770076","prefecture":"大分県","prefecture_kana":"オオイタケン","city":"日田市","city_kana":"ヒタシ","town":"亀川町","town_kana":"カメガワマチ","prefecture_code":44},"0066":{"zip_code":"8770066","prefecture":"大分県","prefecture_kana":"オオイタケン","city":"日田市","city_kana":"ヒタシ","town":"川下","town_kana":"カワシタ","prefecture_code":44},"0043":{"zip_code":"8770043","prefecture":"大分県","prefecture_kana":"オオイタケン","city":"日田市","city_kana":"ヒタシ","town":"川原町","town_kana":"カワハラマチ","prefecture_code":44},"0045":{"zip_code":"8770045","prefecture":"大分県","prefecture_kana":"オオイタケン","city":"日田市","city_kana":"ヒタシ","town":"亀山町","town_kana":"キザンマチ","prefecture_code":44},"0078":{"zip_code":"8770078","prefecture":"大分県","prefecture_kana":"オオイタケン","city":"日田市","city_kana":"ヒタシ","town":"北友田","town_kana":"キタトモダ","prefecture_code":44},"0087":{"zip_code":"8770087","prefecture":"大分県","prefecture_kana":"オオイタケン","city":"日田市","city_kana":"ヒタシ","town":"君迫町","town_kana":"キミザコマチ","prefecture_code":44},"0051":{"zip_code":"8770051","prefecture":"大分県","prefecture_kana":"オオイタケン","city":"日田市","city_kana":"ヒタシ","town":"京町","town_kana":"キョウマチ","prefecture_code":44},"0063":{"zip_code":"8770063","prefecture":"大分県","prefecture_kana":"オオイタケン","city":"日田市","city_kana":"ヒタシ","town":"串川町","town_kana":"クシカワマチ","prefecture_code":44},"0044":{"zip_code":"8770044","prefecture":"大分県","prefecture_kana":"オオイタケン","city":"日田市","city_kana":"ヒタシ","town":"隈","town_kana":"クマ","prefecture_code":44},"0031":{"zip_code":"8770031","prefecture":"大分県","prefecture_kana":"オオイタケン","city":"日田市","city_kana":"ヒタシ","town":"古金町","town_kana":"コガネマチ","prefecture_code":44},"0054":{"zip_code":"8770054","prefecture":"大分県","prefecture_kana":"オオイタケン","city":"日田市","city_kana":"ヒタシ","town":"琴平町","town_kana":"コトヒラマチ","prefecture_code":44},"1231":{"zip_code":"8771231","prefecture":"大分県","prefecture_kana":"オオイタケン","city":"日田市","city_kana":"ヒタシ","town":"財津町","town_kana":"ザイツマチ","prefecture_code":44},"1354":{"zip_code":"8771354","prefecture":"大分県","prefecture_kana":"オオイタケン","city":"日田市","city_kana":"ヒタシ","town":"坂井町","town_kana":"サカイマチ","prefecture_code":44},"1351":{"zip_code":"8771351","prefecture":"大分県","prefecture_kana":"オオイタケン","city":"日田市","city_kana":"ヒタシ","town":"三ノ宮町","town_kana":"サンノミヤマチ","prefecture_code":44},"0016":{"zip_code":"8770016","prefecture":"大分県","prefecture_kana":"オオイタケン","city":"日田市","city_kana":"ヒタシ","town":"三本松","town_kana":"サンボンマツ","prefecture_code":44},"0017":{"zip_code":"8770017","prefecture":"大分県","prefecture_kana":"オオイタケン","city":"日田市","city_kana":"ヒタシ","town":"三本松新町","town_kana":"サンボンマツシンマチ","prefecture_code":44},"1232":{"zip_code":"8771232","prefecture":"大分県","prefecture_kana":"オオイタケン","city":"日田市","city_kana":"ヒタシ","town":"清水町","town_kana":"シミズマチ","prefecture_code":44},"0038":{"zip_code":"8770038","prefecture":"大分県","prefecture_kana":"オオイタケン","city":"日田市","city_kana":"ヒタシ","town":"下井手町","town_kana":"シモイデマチ","prefecture_code":44},"1102":{"zip_code":"8771102","prefecture":"大分県","prefecture_kana":"オオイタケン","city":"日田市","city_kana":"ヒタシ","town":"上宮町","town_kana":"ジョウグウマチ","prefecture_code":44},"0002":{"zip_code":"8770002","prefecture":"大分県","prefecture_kana":"オオイタケン","city":"日田市","city_kana":"ヒタシ","town":"城内新町","town_kana":"ジョウナイシンマチ","prefecture_code":44},"0004":{"zip_code":"8770004","prefecture":"大分県","prefecture_kana":"オオイタケン","city":"日田市","city_kana":"ヒタシ","town":"城町","town_kana":"シロマチ","prefecture_code":44},"1243":{"zip_code":"8771243","prefecture":"大分県","prefecture_kana":"オオイタケン","city":"日田市","city_kana":"ヒタシ","town":"鈴連町","town_kana":"スズレマチ","prefecture_code":44},"0081":{"zip_code":"8770081","prefecture":"大分県","prefecture_kana":"オオイタケン","city":"日田市","city_kana":"ヒタシ","town":"清岸寺町","town_kana":"セイガンジマチ","prefecture_code":44},"0056":{"zip_code":"8770056","prefecture":"大分県","prefecture_kana":"オオイタケン","city":"日田市","city_kana":"ヒタシ","town":"誠和町","town_kana":"セイワマチ","prefecture_code":44},"0052":{"zip_code":"8770052","prefecture":"大分県","prefecture_kana":"オオイタケン","city":"日田市","city_kana":"ヒタシ","town":"銭渕町","town_kana":"ゼニブチマチ","prefecture_code":44},"0059":{"zip_code":"8770059","prefecture":"大分県","prefecture_kana":"オオイタケン","city":"日田市","city_kana":"ヒタシ","town":"大日町","town_kana":"ダイニチマチ","prefecture_code":44},"0067":{"zip_code":"8770067","prefecture":"大分県","prefecture_kana":"オオイタケン","city":"日田市","city_kana":"ヒタシ","town":"高井町","town_kana":"タカイマチ","prefecture_code":44},"0053":{"zip_code":"8770053","prefecture":"大分県","prefecture_kana":"オオイタケン","city":"日田市","city_kana":"ヒタシ","town":"高瀬本町","town_kana":"タカセホンマチ","prefecture_code":44},"0041":{"zip_code":"8770041","prefecture":"大分県","prefecture_kana":"オオイタケン","city":"日田市","city_kana":"ヒタシ","town":"竹田新町","town_kana":"タケダシンマチ","prefecture_code":44},"0023":{"zip_code":"8770023","prefecture":"大分県","prefecture_kana":"オオイタケン","city":"日田市","city_kana":"ヒタシ","town":"田島","town_kana":"タシマ","prefecture_code":44},"0025":{"zip_code":"8770025","prefecture":"大分県","prefecture_kana":"オオイタケン","city":"日田市","city_kana":"ヒタシ","town":"田島","town_kana":"タシマ","prefecture_code":44},"0026":{"zip_code":"8770026","prefecture":"大分県","prefecture_kana":"オオイタケン","city":"日田市","city_kana":"ヒタシ","town":"田島本町","town_kana":"タシマホンマチ","prefecture_code":44},"0071":{"zip_code":"8770071","prefecture":"大分県","prefecture_kana":"オオイタケン","city":"日田市","city_kana":"ヒタシ","town":"玉川町","town_kana":"タマガワマチ","prefecture_code":44},"0012":{"zip_code":"8770012","prefecture":"大分県","prefecture_kana":"オオイタケン","city":"日田市","city_kana":"ヒタシ","town":"淡窓","town_kana":"タンソウ","prefecture_code":44},"0015":{"zip_code":"8770015","prefecture":"大分県","prefecture_kana":"オオイタケン","city":"日田市","city_kana":"ヒタシ","town":"中央","town_kana":"チュウオウ","prefecture_code":44},"1373":{"zip_code":"8771373","prefecture":"大分県","prefecture_kana":"オオイタケン","city":"日田市","city_kana":"ヒタシ","town":"月出町","town_kana":"ツキデマチ","prefecture_code":44},"1103":{"zip_code":"8771103","prefecture":"大分県","prefecture_kana":"オオイタケン","city":"日田市","city_kana":"ヒタシ","town":"鶴河内町","town_kana":"ツルガワチマチ","prefecture_code":44},"1101":{"zip_code":"8771101","prefecture":"大分県","prefecture_kana":"オオイタケン","city":"日田市","city_kana":"ヒタシ","town":"鶴城町","town_kana":"ツルギマチ","prefecture_code":44},"1234":{"zip_code":"8771234","prefecture":"大分県","prefecture_kana":"オオイタケン","city":"日田市","city_kana":"ヒタシ","town":"天神町","town_kana":"テンジンマチ","prefecture_code":44},"1242":{"zip_code":"8771242","prefecture":"大分県","prefecture_kana":"オオイタケン","city":"日田市","city_kana":"ヒタシ","town":"殿町","town_kana":"トノマチ","prefecture_code":44},"1363":{"zip_code":"8771363","prefecture":"大分県","prefecture_kana":"オオイタケン","city":"日田市","city_kana":"ヒタシ","town":"中尾町","town_kana":"ナカオマチ","prefecture_code":44},"0011":{"zip_code":"8770011","prefecture":"大分県","prefecture_kana":"オオイタケン","city":"日田市","city_kana":"ヒタシ","town":"中城町","town_kana":"ナカジョウマチ","prefecture_code":44},"0302":{"zip_code":"8770302","prefecture":"大分県","prefecture_kana":"オオイタケン","city":"日田市","city_kana":"ヒタシ","town":"中津江村合瀬","town_kana":"ナカツエムラゴウセ","prefecture_code":44},"0301":{"zip_code":"8770301","prefecture":"大分県","prefecture_kana":"オオイタケン","city":"日田市","city_kana":"ヒタシ","town":"中津江村栃野","town_kana":"ナカツエムラトチノ","prefecture_code":44},"0075":{"zip_code":"8770075","prefecture":"大分県","prefecture_kana":"オオイタケン","city":"日田市","city_kana":"ヒタシ","town":"中釣町","town_kana":"ナカヅルマチ","prefecture_code":44},"0074":{"zip_code":"8770074","prefecture":"大分県","prefecture_kana":"オオイタケン","city":"日田市","city_kana":"ヒタシ","town":"中ノ島町","town_kana":"ナカノシママチ","prefecture_code":44},"0047":{"zip_code":"8770047","prefecture":"大分県","prefecture_kana":"オオイタケン","city":"日田市","city_kana":"ヒタシ","town":"中本町","town_kana":"ナカホンマチ","prefecture_code":44},"0058":{"zip_code":"8770058","prefecture":"大分県","prefecture_kana":"オオイタケン","city":"日田市","city_kana":"ヒタシ","town":"南部町","town_kana":"ナンブマチ","prefecture_code":44},"0072":{"zip_code":"8770072","prefecture":"大分県","prefecture_kana":"オオイタケン","city":"日田市","city_kana":"ヒタシ","town":"新治町","town_kana":"ニイバルマチ","prefecture_code":44},"0086":{"zip_code":"8770086","prefecture":"大分県","prefecture_kana":"オオイタケン","city":"日田市","city_kana":"ヒタシ","town":"二串町","town_kana":"ニクシチョウ","prefecture_code":44},"1353":{"zip_code":"8771353","prefecture":"大分県","prefecture_kana":"オオイタケン","city":"日田市","city_kana":"ヒタシ","town":"上手町","town_kana":"ノボテマチ","prefecture_code":44},"1384":{"zip_code":"8771384","prefecture":"大分県","prefecture_kana":"オオイタケン","city":"日田市","city_kana":"ヒタシ","town":"羽田町","town_kana":"ハタマチ","prefecture_code":44},"1381":{"zip_code":"8771381","prefecture":"大分県","prefecture_kana":"オオイタケン","city":"日田市","city_kana":"ヒタシ","town":"東羽田町","town_kana":"ヒガシハタマチ","prefecture_code":44},"0042":{"zip_code":"8770042","prefecture":"大分県","prefecture_kana":"オオイタケン","city":"日田市","city_kana":"ヒタシ","town":"東町","town_kana":"ヒガシマチ","prefecture_code":44},"0035":{"zip_code":"8770035","prefecture":"大分県","prefecture_kana":"オオイタケン","city":"日田市","city_kana":"ヒタシ","town":"日高町","town_kana":"ヒダカマチ","prefecture_code":44},"0073":{"zip_code":"8770073","prefecture":"大分県","prefecture_kana":"オオイタケン","city":"日田市","city_kana":"ヒタシ","town":"日ノ隈町","town_kana":"ヒノクママチ","prefecture_code":44},"0082":{"zip_code":"8770082","prefecture":"大分県","prefecture_kana":"オオイタケン","city":"日田市","city_kana":"ヒタシ","town":"日ノ出町","town_kana":"ヒノデマチ","prefecture_code":44},"1382":{"zip_code":"8771382","prefecture":"大分県","prefecture_kana":"オオイタケン","city":"日田市","city_kana":"ヒタシ","town":"日の本町","town_kana":"ヒノモトマチ","prefecture_code":44},"0083":{"zip_code":"8770083","prefecture":"大分県","prefecture_kana":"オオイタケン","city":"日田市","city_kana":"ヒタシ","town":"吹上町","town_kana":"フキアゲマチ","prefecture_code":44},"1221":{"zip_code":"8771221","prefecture":"大分県","prefecture_kana":"オオイタケン","city":"日田市","city_kana":"ヒタシ","town":"伏木町","town_kana":"フシキマチ","prefecture_code":44},"1225":{"zip_code":"8771225","prefecture":"大分県","prefecture_kana":"オオイタケン","city":"日田市","city_kana":"ヒタシ","town":"藤山町","town_kana":"フジヤママチ","prefecture_code":44},"0046":{"zip_code":"8770046","prefecture":"大分県","prefecture_kana":"オオイタケン","city":"日田市","city_kana":"ヒタシ","town":"本庄町","town_kana":"ホンジョウマチ","prefecture_code":44},"0014":{"zip_code":"8770014","prefecture":"大分県","prefecture_kana":"オオイタケン","city":"日田市","city_kana":"ヒタシ","town":"本町","town_kana":"ホンマチ","prefecture_code":44},"0211":{"zip_code":"8770211","prefecture":"大分県","prefecture_kana":"オオイタケン","city":"日田市","city_kana":"ヒタシ","town":"前津江町赤石","town_kana":"マエツエマチアカイシ","prefecture_code":44},"0212":{"zip_code":"8770212","prefecture":"大分県","prefecture_kana":"オオイタケン","city":"日田市","city_kana":"ヒタシ","town":"前津江町大野","town_kana":"マエツエマチオオノ","prefecture_code":44},"0221":{"zip_code":"8770221","prefecture":"大分県","prefecture_kana":"オオイタケン","city":"日田市","city_kana":"ヒタシ","town":"前津江町柚木","town_kana":"マエツエマチユウギ","prefecture_code":44},"1374":{"zip_code":"8771374","prefecture":"大分県","prefecture_kana":"オオイタケン","city":"日田市","city_kana":"ヒタシ","town":"松野町","town_kana":"マツノマチ","prefecture_code":44},"0005":{"zip_code":"8770005","prefecture":"大分県","prefecture_kana":"オオイタケン","city":"日田市","city_kana":"ヒタシ","town":"豆田町","town_kana":"マメダマチ","prefecture_code":44},"0007":{"zip_code":"8770007","prefecture":"大分県","prefecture_kana":"オオイタケン","city":"日田市","city_kana":"ヒタシ","town":"丸の内町","town_kana":"マルノウチマチ","prefecture_code":44},"0008":{"zip_code":"8770008","prefecture":"大分県","prefecture_kana":"オオイタケン","city":"日田市","city_kana":"ヒタシ","town":"丸山","town_kana":"マルヤマ","prefecture_code":44},"1364":{"zip_code":"8771364","prefecture":"大分県","prefecture_kana":"オオイタケン","city":"日田市","city_kana":"ヒタシ","town":"三池町","town_kana":"ミイケマチ","prefecture_code":44},"1244":{"zip_code":"8771244","prefecture":"大分県","prefecture_kana":"オオイタケン","city":"日田市","city_kana":"ヒタシ","town":"三河町","town_kana":"ミカワマチ","prefecture_code":44},"1365":{"zip_code":"8771365","prefecture":"大分県","prefecture_kana":"オオイタケン","city":"日田市","city_kana":"ヒタシ","town":"水目町","town_kana":"ミズメマチ","prefecture_code":44},"0065":{"zip_code":"8770065","prefecture":"大分県","prefecture_kana":"オオイタケン","city":"日田市","city_kana":"ヒタシ","town":"緑町","town_kana":"ミドリマチ","prefecture_code":44},"0006":{"zip_code":"8770006","prefecture":"大分県","prefecture_kana":"オオイタケン","city":"日田市","city_kana":"ヒタシ","town":"港町","town_kana":"ミナトマチ","prefecture_code":44},"0077":{"zip_code":"8770077","prefecture":"大分県","prefecture_kana":"オオイタケン","city":"日田市","city_kana":"ヒタシ","town":"南友田町","town_kana":"ミナミトモダマチ","prefecture_code":44},"0024":{"zip_code":"8770024","prefecture":"大分県","prefecture_kana":"オオイタケン","city":"日田市","city_kana":"ヒタシ","town":"南元町","town_kana":"ミナミモトマチ","prefecture_code":44},"0036":{"zip_code":"8770036","prefecture":"大分県","prefecture_kana":"オオイタケン","city":"日田市","city_kana":"ヒタシ","town":"三芳小渕町","town_kana":"ミヨシコブチマチ","prefecture_code":44},"1233":{"zip_code":"8771233","prefecture":"大分県","prefecture_kana":"オオイタケン","city":"日田市","city_kana":"ヒタシ","town":"三和団地","town_kana":"ミワダンチ","prefecture_code":44},"0013":{"zip_code":"8770013","prefecture":"大分県","prefecture_kana":"オオイタケン","city":"日田市","city_kana":"ヒタシ","town":"元町","town_kana":"モトマチ","prefecture_code":44},"1121":{"zip_code":"8771121","prefecture":"大分県","prefecture_kana":"オオイタケン","city":"日田市","city_kana":"ヒタシ","town":"源栄町","town_kana":"モトエマチ","prefecture_code":44},"1241":{"zip_code":"8771241","prefecture":"大分県","prefecture_kana":"オオイタケン","city":"日田市","city_kana":"ヒタシ","town":"源栄町","town_kana":"モトエマチ","prefecture_code":44},"0021":{"zip_code":"8770021","prefecture":"大分県","prefecture_kana":"オオイタケン","city":"日田市","city_kana":"ヒタシ","town":"求町","town_kana":"モトメマチ","prefecture_code":44},"0034":{"zip_code":"8770034","prefecture":"大分県","prefecture_kana":"オオイタケン","city":"日田市","city_kana":"ヒタシ","town":"桃山町","town_kana":"モモヤママチ","prefecture_code":44},"1371":{"zip_code":"8771371","prefecture":"大分県","prefecture_kana":"オオイタケン","city":"日田市","city_kana":"ヒタシ","town":"諸留町","town_kana":"モロドメマチ","prefecture_code":44},"0057":{"zip_code":"8770057","prefecture":"大分県","prefecture_kana":"オオイタケン","city":"日田市","city_kana":"ヒタシ","town":"八幡町","town_kana":"ヤハタマチ","prefecture_code":44},"0089":{"zip_code":"8770089","prefecture":"大分県","prefecture_kana":"オオイタケン","city":"日田市","city_kana":"ヒタシ","town":"山田町","town_kana":"ヤマダマチ","prefecture_code":44},"0039":{"zip_code":"8770039","prefecture":"大分県","prefecture_kana":"オオイタケン","city":"日田市","city_kana":"ヒタシ","town":"刃連町","town_kana":"ユキイマチ","prefecture_code":44},"1111":{"zip_code":"8771111","prefecture":"大分県","prefecture_kana":"オオイタケン","city":"日田市","city_kana":"ヒタシ","town":"夜明上町","town_kana":"ヨアケカミマチ","prefecture_code":44},"1112":{"zip_code":"8771112","prefecture":"大分県","prefecture_kana":"オオイタケン","city":"日田市","city_kana":"ヒタシ","town":"夜明中町","town_kana":"ヨアケナカマチ","prefecture_code":44},"1113":{"zip_code":"8771113","prefecture":"大分県","prefecture_kana":"オオイタケン","city":"日田市","city_kana":"ヒタシ","town":"夜明関町","town_kana":"ヨアケセキマチ","prefecture_code":44},"0037":{"zip_code":"8770037","prefecture":"大分県","prefecture_kana":"オオイタケン","city":"日田市","city_kana":"ヒタシ","town":"若宮町","town_kana":"ワカミヤマチ","prefecture_code":44}}