{"7504":{"zip_code":"8797504","prefecture":"大分県","prefecture_kana":"オオイタケン","city":"大分市","city_kana":"オオイタシ","town":"安藤","town_kana":"アンドウ","prefecture_code":44},"2203":{"zip_code":"8792203","prefecture":"大分県","prefecture_kana":"オオイタケン","city":"大分市","city_kana":"オオイタシ","town":"一尺屋","town_kana":"イッシャクヤ","prefecture_code":44},"7885":{"zip_code":"8797885","prefecture":"大分県","prefecture_kana":"オオイタケン","city":"大分市","city_kana":"オオイタシ","town":"梅が丘","town_kana":"ウメガオカ","prefecture_code":44},"2114":{"zip_code":"8792114","prefecture":"大分県","prefecture_kana":"オオイタケン","city":"大分市","city_kana":"オオイタシ","town":"大平","town_kana":"オオヒラ","prefecture_code":44},"7881":{"zip_code":"8797881","prefecture":"大分県","prefecture_kana":"オオイタケン","city":"大分市","city_kana":"オオイタシ","town":"奥","town_kana":"オク","prefecture_code":44},"7764":{"zip_code":"8797764","prefecture":"大分県","prefecture_kana":"オオイタケン","city":"大分市","city_kana":"オオイタシ","town":"上戸次","town_kana":"カミヘツギ","prefecture_code":44},"7503":{"zip_code":"8797503","prefecture":"大分県","prefecture_kana":"オオイタケン","city":"大分市","city_kana":"オオイタシ","town":"河原内","town_kana":"カワラウチ","prefecture_code":44},"2113":{"zip_code":"8792113","prefecture":"大分県","prefecture_kana":"オオイタケン","city":"大分市","city_kana":"オオイタシ","town":"木佐上","town_kana":"キサガミ","prefecture_code":44},"7762":{"zip_code":"8797762","prefecture":"大分県","prefecture_kana":"オオイタケン","city":"大分市","city_kana":"オオイタシ","town":"けやき台","town_kana":"ケヤキダイ","prefecture_code":44},"2201":{"zip_code":"8792201","prefecture":"大分県","prefecture_kana":"オオイタケン","city":"大分市","city_kana":"オオイタシ","town":"佐賀関","town_kana":"サガノセキ","prefecture_code":44},"7884":{"zip_code":"8797884","prefecture":"大分県","prefecture_kana":"オオイタケン","city":"大分市","city_kana":"オオイタシ","town":"志津留","town_kana":"シツル","prefecture_code":44},"7763":{"zip_code":"8797763","prefecture":"大分県","prefecture_kana":"オオイタケン","city":"大分市","city_kana":"オオイタシ","town":"下戸次","town_kana":"シモヘツギ","prefecture_code":44},"2115":{"zip_code":"8792115","prefecture":"大分県","prefecture_kana":"オオイタケン","city":"大分市","city_kana":"オオイタシ","town":"志生木","town_kana":"シュウキ","prefecture_code":44},"2202":{"zip_code":"8792202","prefecture":"大分県","prefecture_kana":"オオイタケン","city":"大分市","city_kana":"オオイタシ","town":"白木","town_kana":"シラキ","prefecture_code":44},"7882":{"zip_code":"8797882","prefecture":"大分県","prefecture_kana":"オオイタケン","city":"大分市","city_kana":"オオイタシ","town":"杉原","town_kana":"スギバル","prefecture_code":44},"7501":{"zip_code":"8797501","prefecture":"大分県","prefecture_kana":"オオイタケン","city":"大分市","city_kana":"オオイタシ","town":"竹中","town_kana":"タケナカ","prefecture_code":44},"7872":{"zip_code":"8797872","prefecture":"大分県","prefecture_kana":"オオイタケン","city":"大分市","city_kana":"オオイタシ","town":"月形","town_kana":"ツキガタ","prefecture_code":44},"7871":{"zip_code":"8797871","prefecture":"大分県","prefecture_kana":"オオイタケン","city":"大分市","city_kana":"オオイタシ","town":"辻","town_kana":"ツジ","prefecture_code":44},"7761":{"zip_code":"8797761","prefecture":"大分県","prefecture_kana":"オオイタケン","city":"大分市","city_kana":"オオイタシ","town":"中戸次","town_kana":"ナカヘツギ","prefecture_code":44},"7883":{"zip_code":"8797883","prefecture":"大分県","prefecture_kana":"オオイタケン","city":"大分市","city_kana":"オオイタシ","town":"萩尾","town_kana":"ハギオ","prefecture_code":44},"7502":{"zip_code":"8797502","prefecture":"大分県","prefecture_kana":"オオイタケン","city":"大分市","city_kana":"オオイタシ","town":"端登","town_kana":"ハタノボリ","prefecture_code":44},"2112":{"zip_code":"8792112","prefecture":"大分県","prefecture_kana":"オオイタケン","city":"大分市","city_kana":"オオイタシ","town":"馬場","town_kana":"ババ","prefecture_code":44},"7874":{"zip_code":"8797874","prefecture":"大分県","prefecture_kana":"オオイタケン","city":"大分市","city_kana":"オオイタシ","town":"福良","town_kana":"フクラ","prefecture_code":44},"2111":{"zip_code":"8792111","prefecture":"大分県","prefecture_kana":"オオイタケン","city":"大分市","city_kana":"オオイタシ","town":"本神崎","town_kana":"ホンコウザキ","prefecture_code":44},"7765":{"zip_code":"8797765","prefecture":"大分県","prefecture_kana":"オオイタケン","city":"大分市","city_kana":"オオイタシ","town":"美園団地","town_kana":"ミソノダンチ","prefecture_code":44},"7873":{"zip_code":"8797873","prefecture":"大分県","prefecture_kana":"オオイタケン","city":"大分市","city_kana":"オオイタシ","town":"宮尾","town_kana":"ミヤオ","prefecture_code":44},"7875":{"zip_code":"8797875","prefecture":"大分県","prefecture_kana":"オオイタケン","city":"大分市","city_kana":"オオイタシ","town":"吉野原","town_kana":"ヨシノハル","prefecture_code":44},"5551":{"zip_code":"8795551","prefecture":"大分県","prefecture_kana":"オオイタケン","city":"別府市","city_kana":"ベップシ","town":"内成","town_kana":"ウチナリ","prefecture_code":44},"5552":{"zip_code":"8795552","prefecture":"大分県","prefecture_kana":"オオイタケン","city":"別府市","city_kana":"ベップシ","town":"古賀原","town_kana":"コガノハル","prefecture_code":44},"0106":{"zip_code":"8790106","prefecture":"大分県","prefecture_kana":"オオイタケン","city":"中津市","city_kana":"ナカツシ","town":"赤迫","town_kana":"アカサコ","prefecture_code":44},"0111":{"zip_code":"8790111","prefecture":"大分県","prefecture_kana":"オオイタケン","city":"中津市","city_kana":"ナカツシ","town":"伊藤田","town_kana":"イドウダ","prefecture_code":44},"0105":{"zip_code":"8790105","prefecture":"大分県","prefecture_kana":"オオイタケン","city":"中津市","city_kana":"ナカツシ","town":"犬丸","town_kana":"イヌマル","prefecture_code":44},"0101":{"zip_code":"8790101","prefecture":"大分県","prefecture_kana":"オオイタケン","city":"中津市","city_kana":"ナカツシ","town":"今津","town_kana":"イマヅ","prefecture_code":44},"0103":{"zip_code":"8790103","prefecture":"大分県","prefecture_kana":"オオイタケン","city":"中津市","city_kana":"ナカツシ","town":"植野","town_kana":"ウエノ","prefecture_code":44},"0113":{"zip_code":"8790113","prefecture":"大分県","prefecture_kana":"オオイタケン","city":"中津市","city_kana":"ナカツシ","town":"北原","town_kana":"キタバル","prefecture_code":44},"0122":{"zip_code":"8790122","prefecture":"大分県","prefecture_kana":"オオイタケン","city":"中津市","city_kana":"ナカツシ","town":"定留","town_kana":"サダノミ","prefecture_code":44},"0225":{"zip_code":"8790225","prefecture":"大分県","prefecture_kana":"オオイタケン","city":"中津市","city_kana":"ナカツシ","town":"三光上深水","town_kana":"サンコウカミフコウズ","prefecture_code":44},"0221":{"zip_code":"8790221","prefecture":"大分県","prefecture_kana":"オオイタケン","city":"中津市","city_kana":"ナカツシ","town":"三光上秣","town_kana":"サンコウカミマクサ","prefecture_code":44},"0224":{"zip_code":"8790224","prefecture":"大分県","prefecture_kana":"オオイタケン","city":"中津市","city_kana":"ナカツシ","town":"三光下深水","town_kana":"サンコウシモフコウズ","prefecture_code":44},"0223":{"zip_code":"8790223","prefecture":"大分県","prefecture_kana":"オオイタケン","city":"中津市","city_kana":"ナカツシ","town":"三光下秣","town_kana":"サンコウシモマクサ","prefecture_code":44},"0222":{"zip_code":"8790222","prefecture":"大分県","prefecture_kana":"オオイタケン","city":"中津市","city_kana":"ナカツシ","town":"三光西秣","town_kana":"サンコウニシマクサ","prefecture_code":44},"0107":{"zip_code":"8790107","prefecture":"大分県","prefecture_kana":"オオイタケン","city":"中津市","city_kana":"ナカツシ","town":"昭和新田","town_kana":"ショウワシンデン","prefecture_code":44},"0123":{"zip_code":"8790123","prefecture":"大分県","prefecture_kana":"オオイタケン","city":"中津市","city_kana":"ナカツシ","town":"田尻","town_kana":"タジリ","prefecture_code":44},"0124":{"zip_code":"8790124","prefecture":"大分県","prefecture_kana":"オオイタケン","city":"中津市","city_kana":"ナカツシ","town":"田尻崎","town_kana":"タジリザキ","prefecture_code":44},"0102":{"zip_code":"8790102","prefecture":"大分県","prefecture_kana":"オオイタケン","city":"中津市","city_kana":"ナカツシ","town":"鍋島","town_kana":"ナベシマ","prefecture_code":44},"0104":{"zip_code":"8790104","prefecture":"大分県","prefecture_kana":"オオイタケン","city":"中津市","city_kana":"ナカツシ","town":"野依","town_kana":"ノヨリ","prefecture_code":44},"0112":{"zip_code":"8790112","prefecture":"大分県","prefecture_kana":"オオイタケン","city":"中津市","city_kana":"ナカツシ","town":"福島","town_kana":"フクシマ","prefecture_code":44},"0121":{"zip_code":"8790121","prefecture":"大分県","prefecture_kana":"オオイタケン","city":"中津市","city_kana":"ナカツシ","town":"諸田","town_kana":"モロタ","prefecture_code":44},"4202":{"zip_code":"8794202","prefecture":"大分県","prefecture_kana":"オオイタケン","city":"日田市","city_kana":"ヒタシ","town":"天瀬町赤岩","town_kana":"アマガセマチアカイワ","prefecture_code":44},"4123":{"zip_code":"8794123","prefecture":"大分県","prefecture_kana":"オオイタケン","city":"日田市","city_kana":"ヒタシ","town":"天瀬町女子畑","town_kana":"アマガセマチオナゴハタ","prefecture_code":44},"4122":{"zip_code":"8794122","prefecture":"大分県","prefecture_kana":"オオイタケン","city":"日田市","city_kana":"ヒタシ","town":"天瀬町合田","town_kana":"アマガセマチゴウタ","prefecture_code":44},"4201":{"zip_code":"8794201","prefecture":"大分県","prefecture_kana":"オオイタケン","city":"日田市","city_kana":"ヒタシ","town":"天瀬町桜竹","town_kana":"アマガセマチサクラダケ","prefecture_code":44},"4121":{"zip_code":"8794121","prefecture":"大分県","prefecture_kana":"オオイタケン","city":"日田市","city_kana":"ヒタシ","town":"天瀬町馬原","town_kana":"アマガセマチマバル","prefecture_code":44},"4203":{"zip_code":"8794203","prefecture":"大分県","prefecture_kana":"オオイタケン","city":"日田市","city_kana":"ヒタシ","town":"天瀬町湯山","town_kana":"アマガセマチユヤマ","prefecture_code":44},"3201":{"zip_code":"8793201","prefecture":"大分県","prefecture_kana":"オオイタケン","city":"佐伯市","city_kana":"サイキシ","town":"宇目大平","town_kana":"ウメオオヒラ","prefecture_code":44},"3301":{"zip_code":"8793301","prefecture":"大分県","prefecture_kana":"オオイタケン","city":"佐伯市","city_kana":"サイキシ","town":"宇目小野市","town_kana":"ウメオノイチ","prefecture_code":44},"3202":{"zip_code":"8793202","prefecture":"大分県","prefecture_kana":"オオイタケン","city":"佐伯市","city_kana":"サイキシ","town":"宇目河内","town_kana":"ウメカワチ","prefecture_code":44},"3402":{"zip_code":"8793402","prefecture":"大分県","prefecture_kana":"オオイタケン","city":"佐伯市","city_kana":"サイキシ","town":"宇目木浦内","town_kana":"ウメキウラウチ","prefecture_code":44},"3401":{"zip_code":"8793401","prefecture":"大分県","prefecture_kana":"オオイタケン","city":"佐伯市","city_kana":"サイキシ","town":"宇目木浦鉱山","town_kana":"ウメキウラコウザン","prefecture_code":44},"3203":{"zip_code":"8793203","prefecture":"大分県","prefecture_kana":"オオイタケン","city":"佐伯市","city_kana":"サイキシ","town":"宇目塩見園","town_kana":"ウメシオミゾノ","prefecture_code":44},"3204":{"zip_code":"8793204","prefecture":"大分県","prefecture_kana":"オオイタケン","city":"佐伯市","city_kana":"サイキシ","town":"宇目重岡","town_kana":"ウメシゲオカ","prefecture_code":44},"3205":{"zip_code":"8793205","prefecture":"大分県","prefecture_kana":"オオイタケン","city":"佐伯市","city_kana":"サイキシ","town":"宇目千束","town_kana":"ウメセンゾク","prefecture_code":44},"3302":{"zip_code":"8793302","prefecture":"大分県","prefecture_kana":"オオイタケン","city":"佐伯市","city_kana":"サイキシ","town":"宇目南田原","town_kana":"ウメミナミタバル","prefecture_code":44},"2601":{"zip_code":"8792601","prefecture":"大分県","prefecture_kana":"オオイタケン","city":"佐伯市","city_kana":"サイキシ","town":"上浦浅海井浦","town_kana":"カミウラアザムイウラ","prefecture_code":44},"2602":{"zip_code":"8792602","prefecture":"大分県","prefecture_kana":"オオイタケン","city":"佐伯市","city_kana":"サイキシ","town":"上浦津井浦","town_kana":"カミウラツイウラ","prefecture_code":44},"2603":{"zip_code":"8792603","prefecture":"大分県","prefecture_kana":"オオイタケン","city":"佐伯市","city_kana":"サイキシ","town":"上浦最勝海浦","town_kana":"カミウラニイナメウラ","prefecture_code":44},"3101":{"zip_code":"8793101","prefecture":"大分県","prefecture_kana":"オオイタケン","city":"佐伯市","city_kana":"サイキシ","town":"直川赤木","town_kana":"ナオカワアカギ","prefecture_code":44},"3102":{"zip_code":"8793102","prefecture":"大分県","prefecture_kana":"オオイタケン","city":"佐伯市","city_kana":"サイキシ","town":"直川上直見","town_kana":"ナオカワカミナオミ","prefecture_code":44},"3103":{"zip_code":"8793103","prefecture":"大分県","prefecture_kana":"オオイタケン","city":"佐伯市","city_kana":"サイキシ","town":"直川下直見","town_kana":"ナオカワシモナオミ","prefecture_code":44},"3104":{"zip_code":"8793104","prefecture":"大分県","prefecture_kana":"オオイタケン","city":"佐伯市","city_kana":"サイキシ","town":"直川仁田原","town_kana":"ナオカワニタハラ","prefecture_code":44},"3105":{"zip_code":"8793105","prefecture":"大分県","prefecture_kana":"オオイタケン","city":"佐伯市","city_kana":"サイキシ","town":"直川横川","town_kana":"ナオカワヨコガワ","prefecture_code":44},"2400":{"zip_code":"8792400","prefecture":"大分県","prefecture_kana":"オオイタケン","city":"津久見市","city_kana":"ツクミシ","town":"","town_kana":"","prefecture_code":44},"2682":{"zip_code":"8792682","prefecture":"大分県","prefecture_kana":"オオイタケン","city":"津久見市","city_kana":"ツクミシ","town":"網代","town_kana":"アジロ","prefecture_code":44},"2445":{"zip_code":"8792445","prefecture":"大分県","prefecture_kana":"オオイタケン","city":"津久見市","city_kana":"ツクミシ","town":"井無田町","town_kana":"イムタマチ","prefecture_code":44},"2459":{"zip_code":"8792459","prefecture":"大分県","prefecture_kana":"オオイタケン","city":"津久見市","city_kana":"ツクミシ","town":"入船東町","town_kana":"イリフネヒガシマチ","prefecture_code":44},"2458":{"zip_code":"8792458","prefecture":"大分県","prefecture_kana":"オオイタケン","city":"津久見市","city_kana":"ツクミシ","town":"入船西町","town_kana":"イリフネニシマチ","prefecture_code":44},"2411":{"zip_code":"8792411","prefecture":"大分県","prefecture_kana":"オオイタケン","city":"津久見市","city_kana":"ツクミシ","town":"岩屋町","town_kana":"イワヤマチ","prefecture_code":44},"2431":{"zip_code":"8792431","prefecture":"大分県","prefecture_kana":"オオイタケン","city":"津久見市","city_kana":"ツクミシ","town":"大友町","town_kana":"オオトモマチ","prefecture_code":44},"2455":{"zip_code":"8792455","prefecture":"大分県","prefecture_kana":"オオイタケン","city":"津久見市","city_kana":"ツクミシ","town":"岡町","town_kana":"オカマチ","prefecture_code":44},"2475":{"zip_code":"8792475","prefecture":"大分県","prefecture_kana":"オオイタケン","city":"津久見市","city_kana":"ツクミシ","town":"堅浦","town_kana":"カタウラ","prefecture_code":44},"2461":{"zip_code":"8792461","prefecture":"大分県","prefecture_kana":"オオイタケン","city":"津久見市","city_kana":"ツクミシ","town":"上青江","town_kana":"カミアオエ","prefecture_code":44},"2436":{"zip_code":"8792436","prefecture":"大分県","prefecture_kana":"オオイタケン","city":"津久見市","city_kana":"ツクミシ","town":"上宮本町","town_kana":"カミミヤモトマチ","prefecture_code":44},"2471":{"zip_code":"8792471","prefecture":"大分県","prefecture_kana":"オオイタケン","city":"津久見市","city_kana":"ツクミシ","town":"合ノ元町","town_kana":"ゴウノモトマチ","prefecture_code":44},"2453":{"zip_code":"8792453","prefecture":"大分県","prefecture_kana":"オオイタケン","city":"津久見市","city_kana":"ツクミシ","town":"小園町","town_kana":"コゾノマチ","prefecture_code":44},"2454":{"zip_code":"8792454","prefecture":"大分県","prefecture_kana":"オオイタケン","city":"津久見市","city_kana":"ツクミシ","town":"地蔵町","town_kana":"ジゾウマチ","prefecture_code":44},"2457":{"zip_code":"8792457","prefecture":"大分県","prefecture_kana":"オオイタケン","city":"津久見市","city_kana":"ツクミシ","town":"志手町","town_kana":"シテマチ","prefecture_code":44},"2446":{"zip_code":"8792446","prefecture":"大分県","prefecture_kana":"オオイタケン","city":"津久見市","city_kana":"ツクミシ","town":"下青江","town_kana":"シモアオエ","prefecture_code":44},"2451":{"zip_code":"8792451","prefecture":"大分県","prefecture_kana":"オオイタケン","city":"津久見市","city_kana":"ツクミシ","town":"新町","town_kana":"シンマチ","prefecture_code":44},"2443":{"zip_code":"8792443","prefecture":"大分県","prefecture_kana":"オオイタケン","city":"津久見市","city_kana":"ツクミシ","town":"セメント町","town_kana":"セメントマチ","prefecture_code":44},"2412":{"zip_code":"8792412","prefecture":"大分県","prefecture_kana":"オオイタケン","city":"津久見市","city_kana":"ツクミシ","town":"高洲町","town_kana":"タカスマチ","prefecture_code":44},"2434":{"zip_code":"8792434","prefecture":"大分県","prefecture_kana":"オオイタケン","city":"津久見市","city_kana":"ツクミシ","town":"立花町","town_kana":"タチバナマチ","prefecture_code":44},"2401":{"zip_code":"8792401","prefecture":"大分県","prefecture_kana":"オオイタケン","city":"津久見市","city_kana":"ツクミシ","town":"千怒","town_kana":"チヌ","prefecture_code":44},"2441":{"zip_code":"8792441","prefecture":"大分県","prefecture_kana":"オオイタケン","city":"津久見市","city_kana":"ツクミシ","town":"中央町","town_kana":"チュウオウマチ","prefecture_code":44},"2421":{"zip_code":"8792421","prefecture":"大分県","prefecture_kana":"オオイタケン","city":"津久見市","city_kana":"ツクミシ","town":"津久見","town_kana":"ツクミ","prefecture_code":44},"2413":{"zip_code":"8792413","prefecture":"大分県","prefecture_kana":"オオイタケン","city":"津久見市","city_kana":"ツクミシ","town":"津久見浦","town_kana":"ツクミウラ","prefecture_code":44},"2474":{"zip_code":"8792474","prefecture":"大分県","prefecture_kana":"オオイタケン","city":"津久見市","city_kana":"ツクミシ","town":"徳浦","town_kana":"トクウラ","prefecture_code":44},"2472":{"zip_code":"8792472","prefecture":"大分県","prefecture_kana":"オオイタケン","city":"津久見市","city_kana":"ツクミシ","town":"徳浦本町","town_kana":"トクウラホンマチ","prefecture_code":44},"2473":{"zip_code":"8792473","prefecture":"大分県","prefecture_kana":"オオイタケン","city":"津久見市","city_kana":"ツクミシ","town":"徳浦宮町","town_kana":"トクウラミヤマチ","prefecture_code":44},"2433":{"zip_code":"8792433","prefecture":"大分県","prefecture_kana":"オオイタケン","city":"津久見市","city_kana":"ツクミシ","town":"中田町","town_kana":"ナカダマチ","prefecture_code":44},"2452":{"zip_code":"8792452","prefecture":"大分県","prefecture_kana":"オオイタケン","city":"津久見市","city_kana":"ツクミシ","town":"中町","town_kana":"ナカマチ","prefecture_code":44},"2476":{"zip_code":"8792476","prefecture":"大分県","prefecture_kana":"オオイタケン","city":"津久見市","city_kana":"ツクミシ","town":"長目","town_kana":"ナガメ","prefecture_code":44},"2681":{"zip_code":"8792681","prefecture":"大分県","prefecture_kana":"オオイタケン","city":"津久見市","city_kana":"ツクミシ","town":"日見","town_kana":"ヒミ","prefecture_code":44},"2432":{"zip_code":"8792432","prefecture":"大分県","prefecture_kana":"オオイタケン","city":"津久見市","city_kana":"ツクミシ","town":"文京町","town_kana":"ブンキョウマチ","prefecture_code":44},"2501":{"zip_code":"8792501","prefecture":"大分県","prefecture_kana":"オオイタケン","city":"津久見市","city_kana":"ツクミシ","town":"保戸島","town_kana":"ホトジマ","prefecture_code":44},"2442":{"zip_code":"8792442","prefecture":"大分県","prefecture_kana":"オオイタケン","city":"津久見市","city_kana":"ツクミシ","town":"港町","town_kana":"ミナトマチ","prefecture_code":44},"2435":{"zip_code":"8792435","prefecture":"大分県","prefecture_kana":"オオイタケン","city":"津久見市","city_kana":"ツクミシ","town":"宮本町","town_kana":"ミヤモトマチ","prefecture_code":44},"2444":{"zip_code":"8792444","prefecture":"大分県","prefecture_kana":"オオイタケン","city":"津久見市","city_kana":"ツクミシ","town":"元町","town_kana":"モトマチ","prefecture_code":44},"2456":{"zip_code":"8792456","prefecture":"大分県","prefecture_kana":"オオイタケン","city":"津久見市","city_kana":"ツクミシ","town":"門前町","town_kana":"モンゼンマチ","prefecture_code":44},"2422":{"zip_code":"8792422","prefecture":"大分県","prefecture_kana":"オオイタケン","city":"津久見市","city_kana":"ツクミシ","town":"八戸","town_kana":"ヤト","prefecture_code":44},"2683":{"zip_code":"8792683","prefecture":"大分県","prefecture_kana":"オオイタケン","city":"津久見市","city_kana":"ツクミシ","town":"四浦","town_kana":"ヨウラ","prefecture_code":44},"6182":{"zip_code":"8796182","prefecture":"大分県","prefecture_kana":"オオイタケン","city":"竹田市","city_kana":"タケタシ","town":"今","town_kana":"イマ","prefecture_code":44},"6134":{"zip_code":"8796134","prefecture":"大分県","prefecture_kana":"オオイタケン","city":"竹田市","city_kana":"タケタシ","town":"荻町瓜作","town_kana":"オギマチウリツクリ","prefecture_code":44},"6113":{"zip_code":"8796113","prefecture":"大分県","prefecture_kana":"オオイタケン","city":"竹田市","city_kana":"タケタシ","town":"荻町恵良原","town_kana":"オギマチエラハル","prefecture_code":44},"6126":{"zip_code":"8796126","prefecture":"大分県","prefecture_kana":"オオイタケン","city":"竹田市","city_kana":"タケタシ","town":"荻町大平","town_kana":"オギマチオオダイラ","prefecture_code":44},"6122":{"zip_code":"8796122","prefecture":"大分県","prefecture_kana":"オオイタケン","city":"竹田市","city_kana":"タケタシ","town":"荻町柏原","town_kana":"オギマチカシワバル","prefecture_code":44},"6127":{"zip_code":"8796127","prefecture":"大分県","prefecture_kana":"オオイタケン","city":"竹田市","city_kana":"タケタシ","town":"荻町叶野","town_kana":"オギマチカナイノ","prefecture_code":44},"6135":{"zip_code":"8796135","prefecture":"大分県","prefecture_kana":"オオイタケン","city":"竹田市","city_kana":"タケタシ","town":"荻町北原","town_kana":"オギマチキタバル","prefecture_code":44},"6101":{"zip_code":"8796101","prefecture":"大分県","prefecture_kana":"オオイタケン","city":"竹田市","city_kana":"タケタシ","town":"荻町木下","town_kana":"オギマチキノシタ","prefecture_code":44},"6121":{"zip_code":"8796121","prefecture":"大分県","prefecture_kana":"オオイタケン","city":"竹田市","city_kana":"タケタシ","town":"荻町桑木","town_kana":"オギマチクワギ","prefecture_code":44},"6132":{"zip_code":"8796132","prefecture":"大分県","prefecture_kana":"オオイタケン","city":"竹田市","city_kana":"タケタシ","town":"荻町西福寺","town_kana":"オギマチサイフクジ","prefecture_code":44},"6131":{"zip_code":"8796131","prefecture":"大分県","prefecture_kana":"オオイタケン","city":"竹田市","city_kana":"タケタシ","town":"荻町鴫田","town_kana":"オギマチシギタ","prefecture_code":44},"6103":{"zip_code":"8796103","prefecture":"大分県","prefecture_kana":"オオイタケン","city":"竹田市","city_kana":"タケタシ","town":"荻町新藤","town_kana":"オギマチシンドウ","prefecture_code":44},"6116":{"zip_code":"8796116","prefecture":"大分県","prefecture_kana":"オオイタケン","city":"竹田市","city_kana":"タケタシ","town":"荻町高城","town_kana":"オギマチタカジョウ","prefecture_code":44},"6128":{"zip_code":"8796128","prefecture":"大分県","prefecture_kana":"オオイタケン","city":"竹田市","city_kana":"タケタシ","town":"荻町高練木","town_kana":"オギマチタカネリキ","prefecture_code":44},"6133":{"zip_code":"8796133","prefecture":"大分県","prefecture_kana":"オオイタケン","city":"竹田市","city_kana":"タケタシ","town":"荻町田代","town_kana":"オギマチタシロ","prefecture_code":44},"6115":{"zip_code":"8796115","prefecture":"大分県","prefecture_kana":"オオイタケン","city":"竹田市","city_kana":"タケタシ","town":"荻町馬場","town_kana":"オギマチババ","prefecture_code":44},"6124":{"zip_code":"8796124","prefecture":"大分県","prefecture_kana":"オオイタケン","city":"竹田市","city_kana":"タケタシ","town":"荻町陽目","town_kana":"オギマチヒナタメ","prefecture_code":44},"6104":{"zip_code":"8796104","prefecture":"大分県","prefecture_kana":"オオイタケン","city":"竹田市","city_kana":"タケタシ","town":"荻町藤渡","town_kana":"オギマチフジワタリ","prefecture_code":44},"6125":{"zip_code":"8796125","prefecture":"大分県","prefecture_kana":"オオイタケン","city":"竹田市","city_kana":"タケタシ","town":"荻町仏面","town_kana":"オギマチブツメン","prefecture_code":44},"6112":{"zip_code":"8796112","prefecture":"大分県","prefecture_kana":"オオイタケン","city":"竹田市","city_kana":"タケタシ","town":"荻町馬背野","town_kana":"オギマチマセノ","prefecture_code":44},"6102":{"zip_code":"8796102","prefecture":"大分県","prefecture_kana":"オオイタケン","city":"竹田市","city_kana":"タケタシ","town":"荻町政所","town_kana":"オギマチマドコロ","prefecture_code":44},"6111":{"zip_code":"8796111","prefecture":"大分県","prefecture_kana":"オオイタケン","city":"竹田市","city_kana":"タケタシ","town":"荻町南河内","town_kana":"オギマチミナミガワチ","prefecture_code":44},"6123":{"zip_code":"8796123","prefecture":"大分県","prefecture_kana":"オオイタケン","city":"竹田市","city_kana":"タケタシ","town":"荻町宮平","town_kana":"オギマチミヤビラ","prefecture_code":44},"6181":{"zip_code":"8796181","prefecture":"大分県","prefecture_kana":"オオイタケン","city":"竹田市","city_kana":"タケタシ","town":"小塚","town_kana":"オヅカ","prefecture_code":44},"6184":{"zip_code":"8796184","prefecture":"大分県","prefecture_kana":"オオイタケン","city":"竹田市","city_kana":"タケタシ","town":"菅生","town_kana":"スゴウ","prefecture_code":44},"6183":{"zip_code":"8796183","prefecture":"大分県","prefecture_kana":"オオイタケン","city":"竹田市","city_kana":"タケタシ","town":"戸上","town_kana":"トウエ","prefecture_code":44},"0600":{"zip_code":"8790600","prefecture":"大分県","prefecture_kana":"オオイタケン","city":"豊後高田市","city_kana":"ブンゴタカダシ","town":"","town_kana":"","prefecture_code":44},"0733":{"zip_code":"8790733","prefecture":"大分県","prefecture_kana":"オオイタケン","city":"豊後高田市","city_kana":"ブンゴタカダシ","town":"荒尾","town_kana":"アラオ","prefecture_code":44},"0722":{"zip_code":"8790722","prefecture":"大分県","prefecture_kana":"オオイタケン","city":"豊後高田市","city_kana":"ブンゴタカダシ","town":"一畑","town_kana":"イチハタ","prefecture_code":44},"0626":{"zip_code":"8790626","prefecture":"大分県","prefecture_kana":"オオイタケン","city":"豊後高田市","city_kana":"ブンゴタカダシ","town":"今町","town_kana":"イママチ","prefecture_code":44},"0723":{"zip_code":"8790723","prefecture":"大分県","prefecture_kana":"オオイタケン","city":"豊後高田市","city_kana":"ブンゴタカダシ","town":"梅ノ木","town_kana":"ウメノキ","prefecture_code":44},"0605":{"zip_code":"8790605","prefecture":"大分県","prefecture_kana":"オオイタケン","city":"豊後高田市","city_kana":"ブンゴタカダシ","town":"御玉","town_kana":"オダマ","prefecture_code":44},"0622":{"zip_code":"8790622","prefecture":"大分県","prefecture_kana":"オオイタケン","city":"豊後高田市","city_kana":"ブンゴタカダシ","town":"鍛治屋町","town_kana":"カジヤマチ","prefecture_code":44},"0603":{"zip_code":"8790603","prefecture":"大分県","prefecture_kana":"オオイタケン","city":"豊後高田市","city_kana":"ブンゴタカダシ","town":"鼎","town_kana":"カナエ","prefecture_code":44},"0623":{"zip_code":"8790623","prefecture":"大分県","prefecture_kana":"オオイタケン","city":"豊後高田市","city_kana":"ブンゴタカダシ","town":"金谷町","town_kana":"カナヤマチ","prefecture_code":44},"0721":{"zip_code":"8790721","prefecture":"大分県","prefecture_kana":"オオイタケン","city":"豊後高田市","city_kana":"ブンゴタカダシ","town":"加礼川","town_kana":"カレガワ","prefecture_code":44},"0601":{"zip_code":"8790601","prefecture":"大分県","prefecture_kana":"オオイタケン","city":"豊後高田市","city_kana":"ブンゴタカダシ","town":"草地","town_kana":"クサジ","prefecture_code":44},"0614":{"zip_code":"8790614","prefecture":"大分県","prefecture_kana":"オオイタケン","city":"豊後高田市","city_kana":"ブンゴタカダシ","town":"来縄","town_kana":"クナワ","prefecture_code":44},"0608":{"zip_code":"8790608","prefecture":"大分県","prefecture_kana":"オオイタケン","city":"豊後高田市","city_kana":"ブンゴタカダシ","town":"呉崎","town_kana":"クレサキ","prefecture_code":44},"0613":{"zip_code":"8790613","prefecture":"大分県","prefecture_kana":"オオイタケン","city":"豊後高田市","city_kana":"ブンゴタカダシ","town":"小田原","town_kana":"コダワラ","prefecture_code":44},"0621":{"zip_code":"8790621","prefecture":"大分県","prefecture_kana":"オオイタケン","city":"豊後高田市","city_kana":"ブンゴタカダシ","town":"是永町","town_kana":"コレナガマチ","prefecture_code":44},"0615":{"zip_code":"8790615","prefecture":"大分県","prefecture_kana":"オオイタケン","city":"豊後高田市","city_kana":"ブンゴタカダシ","town":"界","town_kana":"サカイ","prefecture_code":44},"0612":{"zip_code":"8790612","prefecture":"大分県","prefecture_kana":"オオイタケン","city":"豊後高田市","city_kana":"ブンゴタカダシ","town":"佐野","town_kana":"サノ","prefecture_code":44},"0609":{"zip_code":"8790609","prefecture":"大分県","prefecture_kana":"オオイタケン","city":"豊後高田市","city_kana":"ブンゴタカダシ","town":"城台","town_kana":"ジョウダイ","prefecture_code":44},"0607":{"zip_code":"8790607","prefecture":"大分県","prefecture_kana":"オオイタケン","city":"豊後高田市","city_kana":"ブンゴタカダシ","town":"新栄","town_kana":"シンエイ","prefecture_code":44},"0724":{"zip_code":"8790724","prefecture":"大分県","prefecture_kana":"オオイタケン","city":"豊後高田市","city_kana":"ブンゴタカダシ","town":"新城","town_kana":"シンジョウ","prefecture_code":44},"0627":{"zip_code":"8790627","prefecture":"大分県","prefecture_kana":"オオイタケン","city":"豊後高田市","city_kana":"ブンゴタカダシ","town":"新地","town_kana":"シンチ","prefecture_code":44},"0628":{"zip_code":"8790628","prefecture":"大分県","prefecture_kana":"オオイタケン","city":"豊後高田市","city_kana":"ブンゴタカダシ","town":"新町","town_kana":"シンマチ","prefecture_code":44},"0732":{"zip_code":"8790732","prefecture":"大分県","prefecture_kana":"オオイタケン","city":"豊後高田市","city_kana":"ブンゴタカダシ","town":"大力","town_kana":"ダイリキ","prefecture_code":44},"0617":{"zip_code":"8790617","prefecture":"大分県","prefecture_kana":"オオイタケン","city":"豊後高田市","city_kana":"ブンゴタカダシ","town":"高田","town_kana":"タカダ","prefecture_code":44},"0843":{"zip_code":"8790843","prefecture":"大分県","prefecture_kana":"オオイタケン","city":"豊後高田市","city_kana":"ブンゴタカダシ","town":"田染相原","town_kana":"タシブアイワラ","prefecture_code":44},"0842":{"zip_code":"8790842","prefecture":"大分県","prefecture_kana":"オオイタケン","city":"豊後高田市","city_kana":"ブンゴタカダシ","town":"田染池部","town_kana":"タシブイケベ","prefecture_code":44},"0844":{"zip_code":"8790844","prefecture":"大分県","prefecture_kana":"オオイタケン","city":"豊後高田市","city_kana":"ブンゴタカダシ","town":"田染上野","town_kana":"タシブウエノ","prefecture_code":44},"0854":{"zip_code":"8790854","prefecture":"大分県","prefecture_kana":"オオイタケン","city":"豊後高田市","city_kana":"ブンゴタカダシ","town":"田染小崎","town_kana":"タシブオサキ","prefecture_code":44},"0853":{"zip_code":"8790853","prefecture":"大分県","prefecture_kana":"オオイタケン","city":"豊後高田市","city_kana":"ブンゴタカダシ","town":"田染平野","town_kana":"タシブヒラノ","prefecture_code":44},"0841":{"zip_code":"8790841","prefecture":"大分県","prefecture_kana":"オオイタケン","city":"豊後高田市","city_kana":"ブンゴタカダシ","town":"田染蕗","town_kana":"タシブフキ","prefecture_code":44},"0855":{"zip_code":"8790855","prefecture":"大分県","prefecture_kana":"オオイタケン","city":"豊後高田市","city_kana":"ブンゴタカダシ","town":"田染真木","town_kana":"タシブマキ","prefecture_code":44},"0852":{"zip_code":"8790852","prefecture":"大分県","prefecture_kana":"オオイタケン","city":"豊後高田市","city_kana":"ブンゴタカダシ","town":"田染真中","town_kana":"タシブマナカ","prefecture_code":44},"0851":{"zip_code":"8790851","prefecture":"大分県","prefecture_kana":"オオイタケン","city":"豊後高田市","city_kana":"ブンゴタカダシ","town":"田染横嶺","town_kana":"タシブヨコミネ","prefecture_code":44},"0606":{"zip_code":"8790606","prefecture":"大分県","prefecture_kana":"オオイタケン","city":"豊後高田市","city_kana":"ブンゴタカダシ","town":"玉津","town_kana":"タマツ","prefecture_code":44},"0618":{"zip_code":"8790618","prefecture":"大分県","prefecture_kana":"オオイタケン","city":"豊後高田市","city_kana":"ブンゴタカダシ","town":"中央通","town_kana":"チュウオウドオリ","prefecture_code":44},"0734":{"zip_code":"8790734","prefecture":"大分県","prefecture_kana":"オオイタケン","city":"豊後高田市","city_kana":"ブンゴタカダシ","town":"築地","town_kana":"ツイジ","prefecture_code":44},"0731":{"zip_code":"8790731","prefecture":"大分県","prefecture_kana":"オオイタケン","city":"豊後高田市","city_kana":"ブンゴタカダシ","town":"長岩屋","town_kana":"ナガイワヤ","prefecture_code":44},"0619":{"zip_code":"8790619","prefecture":"大分県","prefecture_kana":"オオイタケン","city":"豊後高田市","city_kana":"ブンゴタカダシ","town":"浜町","town_kana":"ハママチ","prefecture_code":44},"0602":{"zip_code":"8790602","prefecture":"大分県","prefecture_kana":"オオイタケン","city":"豊後高田市","city_kana":"ブンゴタカダシ","town":"払田","town_kana":"ハライダ","prefecture_code":44},"0624":{"zip_code":"8790624","prefecture":"大分県","prefecture_kana":"オオイタケン","city":"豊後高田市","city_kana":"ブンゴタカダシ","town":"本町","town_kana":"ホンマチ","prefecture_code":44},"0735":{"zip_code":"8790735","prefecture":"大分県","prefecture_kana":"オオイタケン","city":"豊後高田市","city_kana":"ブンゴタカダシ","town":"松行","town_kana":"マツユキ","prefecture_code":44},"0616":{"zip_code":"8790616","prefecture":"大分県","prefecture_kana":"オオイタケン","city":"豊後高田市","city_kana":"ブンゴタカダシ","town":"水崎","town_kana":"ミズサキ","prefecture_code":44},"0625":{"zip_code":"8790625","prefecture":"大分県","prefecture_kana":"オオイタケン","city":"豊後高田市","city_kana":"ブンゴタカダシ","town":"水取","town_kana":"ミズトリ","prefecture_code":44},"0604":{"zip_code":"8790604","prefecture":"大分県","prefecture_kana":"オオイタケン","city":"豊後高田市","city_kana":"ブンゴタカダシ","town":"美和","town_kana":"ミワ","prefecture_code":44},"0611":{"zip_code":"8790611","prefecture":"大分県","prefecture_kana":"オオイタケン","city":"豊後高田市","city_kana":"ブンゴタカダシ","town":"森","town_kana":"モリ","prefecture_code":44},"0901":{"zip_code":"8790901","prefecture":"大分県","prefecture_kana":"オオイタケン","city":"杵築市","city_kana":"キツキシ","town":"大田石丸","town_kana":"オオタイシマル","prefecture_code":44},"0904":{"zip_code":"8790904","prefecture":"大分県","prefecture_kana":"オオイタケン","city":"杵築市","city_kana":"キツキシ","town":"大田小野","town_kana":"オオタオノ","prefecture_code":44},"0902":{"zip_code":"8790902","prefecture":"大分県","prefecture_kana":"オオイタケン","city":"杵築市","city_kana":"キツキシ","town":"大田沓掛","town_kana":"オオタクツカケ","prefecture_code":44},"0912":{"zip_code":"8790912","prefecture":"大分県","prefecture_kana":"オオイタケン","city":"杵築市","city_kana":"キツキシ","town":"大田白木原","town_kana":"オオタシラキハラ","prefecture_code":44},"0903":{"zip_code":"8790903","prefecture":"大分県","prefecture_kana":"オオイタケン","city":"杵築市","city_kana":"キツキシ","town":"大田永松","town_kana":"オオタナガマツ","prefecture_code":44},"0911":{"zip_code":"8790911","prefecture":"大分県","prefecture_kana":"オオイタケン","city":"杵築市","city_kana":"キツキシ","town":"大田波多方","town_kana":"オオタハダカタ","prefecture_code":44},"0941":{"zip_code":"8790941","prefecture":"大分県","prefecture_kana":"オオイタケン","city":"杵築市","city_kana":"キツキシ","town":"大田俣水","town_kana":"オオタマタミズ","prefecture_code":44},"1311":{"zip_code":"8791311","prefecture":"大分県","prefecture_kana":"オオイタケン","city":"杵築市","city_kana":"キツキシ","town":"山香町内河野","town_kana":"ヤマガマチウチガワノ","prefecture_code":44},"1304":{"zip_code":"8791304","prefecture":"大分県","prefecture_kana":"オオイタケン","city":"杵築市","city_kana":"キツキシ","town":"山香町小武","town_kana":"ヤマガマチオダケ","prefecture_code":44},"1313":{"zip_code":"8791313","prefecture":"大分県","prefecture_kana":"オオイタケン","city":"杵築市","city_kana":"キツキシ","town":"山香町久木野尾","town_kana":"ヤマガマチクギノオ","prefecture_code":44},"1305":{"zip_code":"8791305","prefecture":"大分県","prefecture_kana":"オオイタケン","city":"杵築市","city_kana":"キツキシ","town":"山香町倉成","town_kana":"ヤマガマチクラナリ","prefecture_code":44},"1303":{"zip_code":"8791303","prefecture":"大分県","prefecture_kana":"オオイタケン","city":"杵築市","city_kana":"キツキシ","town":"山香町下","town_kana":"ヤマガマチシモ","prefecture_code":44},"1302":{"zip_code":"8791302","prefecture":"大分県","prefecture_kana":"オオイタケン","city":"杵築市","city_kana":"キツキシ","town":"山香町立石","town_kana":"ヤマガマチタテイシ","prefecture_code":44},"1307":{"zip_code":"8791307","prefecture":"大分県","prefecture_kana":"オオイタケン","city":"杵築市","city_kana":"キツキシ","town":"山香町野原","town_kana":"ヤマガマチノハル","prefecture_code":44},"1312":{"zip_code":"8791312","prefecture":"大分県","prefecture_kana":"オオイタケン","city":"杵築市","city_kana":"キツキシ","town":"山香町日指","town_kana":"ヤマガマチヒサシ","prefecture_code":44},"1306":{"zip_code":"8791306","prefecture":"大分県","prefecture_kana":"オオイタケン","city":"杵築市","city_kana":"キツキシ","town":"山香町広瀬","town_kana":"ヤマガマチヒロセ","prefecture_code":44},"1314":{"zip_code":"8791314","prefecture":"大分県","prefecture_kana":"オオイタケン","city":"杵築市","city_kana":"キツキシ","town":"山香町南畑","town_kana":"ヤマガマチミナミハタ","prefecture_code":44},"1301":{"zip_code":"8791301","prefecture":"大分県","prefecture_kana":"オオイタケン","city":"杵築市","city_kana":"キツキシ","town":"山香町向野","town_kana":"ヤマガマチムクノ","prefecture_code":44},"1315":{"zip_code":"8791315","prefecture":"大分県","prefecture_kana":"オオイタケン","city":"杵築市","city_kana":"キツキシ","town":"山香町山浦","town_kana":"ヤマガマチヤマウラ","prefecture_code":44},"1316":{"zip_code":"8791316","prefecture":"大分県","prefecture_kana":"オオイタケン","city":"杵築市","city_kana":"キツキシ","town":"山香町吉野渡","town_kana":"ヤマガマチヨシノワタリ","prefecture_code":44},"1138":{"zip_code":"8791138","prefecture":"大分県","prefecture_kana":"オオイタケン","city":"宇佐市","city_kana":"ウサシ","town":"青森","town_kana":"アオモリ","prefecture_code":44},"0233":{"zip_code":"8790233","prefecture":"大分県","prefecture_kana":"オオイタケン","city":"宇佐市","city_kana":"ウサシ","town":"赤尾","town_kana":"アカオ","prefecture_code":44},"0501":{"zip_code":"8790501","prefecture":"大分県","prefecture_kana":"オオイタケン","city":"宇佐市","city_kana":"ウサシ","town":"麻生","town_kana":"アソウ","prefecture_code":44},"0312":{"zip_code":"8790312","prefecture":"大分県","prefecture_kana":"オオイタケン","city":"宇佐市","city_kana":"ウサシ","town":"荒木","town_kana":"アラキ","prefecture_code":44},"0444":{"zip_code":"8790444","prefecture":"大分県","prefecture_kana":"オオイタケン","city":"宇佐市","city_kana":"ウサシ","town":"石田","town_kana":"イシダ","prefecture_code":44},"1131":{"zip_code":"8791131","prefecture":"大分県","prefecture_kana":"オオイタケン","city":"宇佐市","city_kana":"ウサシ","town":"出光","town_kana":"イデミツ","prefecture_code":44},"0514":{"zip_code":"8790514","prefecture":"大分県","prefecture_kana":"オオイタケン","city":"宇佐市","city_kana":"ウサシ","town":"今成","town_kana":"イマナリ","prefecture_code":44},"0234":{"zip_code":"8790234","prefecture":"大分県","prefecture_kana":"オオイタケン","city":"宇佐市","city_kana":"ウサシ","town":"今仁","town_kana":"イマニ","prefecture_code":44},"1132":{"zip_code":"8791132","prefecture":"大分県","prefecture_kana":"オオイタケン","city":"宇佐市","city_kana":"ウサシ","town":"岩崎","town_kana":"イワサキ","prefecture_code":44},"0453":{"zip_code":"8790453","prefecture":"大分県","prefecture_kana":"オオイタケン","city":"宇佐市","city_kana":"ウサシ","town":"上田","town_kana":"ウエダ","prefecture_code":44},"1126":{"zip_code":"8791126","prefecture":"大分県","prefecture_kana":"オオイタケン","city":"宇佐市","city_kana":"ウサシ","town":"江熊","town_kana":"エグマ","prefecture_code":44},"0464":{"zip_code":"8790464","prefecture":"大分県","prefecture_kana":"オオイタケン","city":"宇佐市","city_kana":"ウサシ","town":"大塚","town_kana":"オオツカ","prefecture_code":44},"0232":{"zip_code":"8790232","prefecture":"大分県","prefecture_kana":"オオイタケン","city":"宇佐市","city_kana":"ウサシ","town":"大根川","town_kana":"オオネガワ","prefecture_code":44},"0301":{"zip_code":"8790301","prefecture":"大分県","prefecture_kana":"オオイタケン","city":"宇佐市","city_kana":"ウサシ","town":"乙女新田","town_kana":"オトメシンデン","prefecture_code":44},"0304":{"zip_code":"8790304","prefecture":"大分県","prefecture_kana":"オオイタケン","city":"宇佐市","city_kana":"ウサシ","town":"尾永井","town_kana":"オナガイ","prefecture_code":44},"1128":{"zip_code":"8791128","prefecture":"大分県","prefecture_kana":"オオイタケン","city":"宇佐市","city_kana":"ウサシ","town":"金丸","town_kana":"カナマル","prefecture_code":44},"0303":{"zip_code":"8790303","prefecture":"大分県","prefecture_kana":"オオイタケン","city":"宇佐市","city_kana":"ウサシ","town":"上乙女","town_kana":"カミオトメ","prefecture_code":44},"0163":{"zip_code":"8790163","prefecture":"大分県","prefecture_kana":"オオイタケン","city":"宇佐市","city_kana":"ウサシ","town":"上敷田","town_kana":"カミシキダ","prefecture_code":44},"0153":{"zip_code":"8790153","prefecture":"大分県","prefecture_kana":"オオイタケン","city":"宇佐市","city_kana":"ウサシ","town":"上庄","town_kana":"カミショウ","prefecture_code":44},"0313":{"zip_code":"8790313","prefecture":"大分県","prefecture_kana":"オオイタケン","city":"宇佐市","city_kana":"ウサシ","town":"上高","town_kana":"カミタカ","prefecture_code":44},"0305":{"zip_code":"8790305","prefecture":"大分県","prefecture_kana":"オオイタケン","city":"宇佐市","city_kana":"ウサシ","town":"上高家","town_kana":"カミタケイ","prefecture_code":44},"0315":{"zip_code":"8790315","prefecture":"大分県","prefecture_kana":"オオイタケン","city":"宇佐市","city_kana":"ウサシ","town":"上時枝","town_kana":"カミトキエダ","prefecture_code":44},"0466":{"zip_code":"8790466","prefecture":"大分県","prefecture_kana":"オオイタケン","city":"宇佐市","city_kana":"ウサシ","town":"上拝田","town_kana":"カミハイタ","prefecture_code":44},"0472":{"zip_code":"8790472","prefecture":"大分県","prefecture_kana":"オオイタケン","city":"宇佐市","city_kana":"ウサシ","town":"上元重","town_kana":"カミモトシゲ","prefecture_code":44},"0456":{"zip_code":"8790456","prefecture":"大分県","prefecture_kana":"オオイタケン","city":"宇佐市","city_kana":"ウサシ","town":"辛島","town_kana":"カラシマ","prefecture_code":44},"1137":{"zip_code":"8791137","prefecture":"大分県","prefecture_kana":"オオイタケン","city":"宇佐市","city_kana":"ウサシ","town":"苅宇田","town_kana":"カリウダ","prefecture_code":44},"0452":{"zip_code":"8790452","prefecture":"大分県","prefecture_kana":"オオイタケン","city":"宇佐市","city_kana":"ウサシ","town":"川部","town_kana":"カワベ","prefecture_code":44},"0516":{"zip_code":"8790516","prefecture":"大分県","prefecture_kana":"オオイタケン","city":"宇佐市","city_kana":"ウサシ","town":"木内","town_kana":"キノウチ","prefecture_code":44},"0235":{"zip_code":"8790235","prefecture":"大分県","prefecture_kana":"オオイタケン","city":"宇佐市","city_kana":"ウサシ","town":"木部","town_kana":"キベ","prefecture_code":44},"0443":{"zip_code":"8790443","prefecture":"大分県","prefecture_kana":"オオイタケン","city":"宇佐市","city_kana":"ウサシ","town":"葛原","town_kana":"クズハラ","prefecture_code":44},"0512":{"zip_code":"8790512","prefecture":"大分県","prefecture_kana":"オオイタケン","city":"宇佐市","city_kana":"ウサシ","town":"黒","town_kana":"クロ","prefecture_code":44},"0455":{"zip_code":"8790455","prefecture":"大分県","prefecture_kana":"オオイタケン","city":"宇佐市","city_kana":"ウサシ","town":"閤","town_kana":"ゴウ","prefecture_code":44},"1136":{"zip_code":"8791136","prefecture":"大分県","prefecture_kana":"オオイタケン","city":"宇佐市","city_kana":"ウサシ","town":"西木","town_kana":"サイギ","prefecture_code":44},"0237":{"zip_code":"8790237","prefecture":"大分県","prefecture_kana":"オオイタケン","city":"宇佐市","city_kana":"ウサシ","town":"佐野","town_kana":"サノ","prefecture_code":44},"0314":{"zip_code":"8790314","prefecture":"大分県","prefecture_kana":"オオイタケン","city":"宇佐市","city_kana":"ウサシ","town":"猿渡","town_kana":"サルワタリ","prefecture_code":44},"0457":{"zip_code":"8790457","prefecture":"大分県","prefecture_kana":"オオイタケン","city":"宇佐市","city_kana":"ウサシ","town":"芝原","town_kana":"シバハラ","prefecture_code":44},"0236":{"zip_code":"8790236","prefecture":"大分県","prefecture_kana":"オオイタケン","city":"宇佐市","city_kana":"ウサシ","town":"清水","town_kana":"シミズ","prefecture_code":44},"0302":{"zip_code":"8790302","prefecture":"大分県","prefecture_kana":"オオイタケン","city":"宇佐市","city_kana":"ウサシ","town":"下乙女","town_kana":"シモオトメ","prefecture_code":44},"0161":{"zip_code":"8790161","prefecture":"大分県","prefecture_kana":"オオイタケン","city":"宇佐市","city_kana":"ウサシ","town":"下敷田","town_kana":"シモシキダ","prefecture_code":44},"0152":{"zip_code":"8790152","prefecture":"大分県","prefecture_kana":"オオイタケン","city":"宇佐市","city_kana":"ウサシ","town":"下庄","town_kana":"シモショウ","prefecture_code":44},"0317":{"zip_code":"8790317","prefecture":"大分県","prefecture_kana":"オオイタケン","city":"宇佐市","city_kana":"ウサシ","town":"下高","town_kana":"シモタカ","prefecture_code":44},"0308":{"zip_code":"8790308","prefecture":"大分県","prefecture_kana":"オオイタケン","city":"宇佐市","city_kana":"ウサシ","town":"下高家","town_kana":"シモタケイ","prefecture_code":44},"0316":{"zip_code":"8790316","prefecture":"大分県","prefecture_kana":"オオイタケン","city":"宇佐市","city_kana":"ウサシ","town":"下時枝","town_kana":"シモトキエダ","prefecture_code":44},"0465":{"zip_code":"8790465","prefecture":"大分県","prefecture_kana":"オオイタケン","city":"宇佐市","city_kana":"ウサシ","town":"下拝田","town_kana":"シモハイタ","prefecture_code":44},"0473":{"zip_code":"8790473","prefecture":"大分県","prefecture_kana":"オオイタケン","city":"宇佐市","city_kana":"ウサシ","town":"下元重","town_kana":"シモモトシゲ","prefecture_code":44},"0442":{"zip_code":"8790442","prefecture":"大分県","prefecture_kana":"オオイタケン","city":"宇佐市","city_kana":"ウサシ","town":"城井","town_kana":"ジョウイ","prefecture_code":44},"0515":{"zip_code":"8790515","prefecture":"大分県","prefecture_kana":"オオイタケン","city":"宇佐市","city_kana":"ウサシ","town":"末","town_kana":"スエ","prefecture_code":44},"0502":{"zip_code":"8790502","prefecture":"大分県","prefecture_kana":"オオイタケン","city":"宇佐市","city_kana":"ウサシ","town":"岳ノ首","town_kana":"タケノクビ","prefecture_code":44},"1123":{"zip_code":"8791123","prefecture":"大分県","prefecture_kana":"オオイタケン","city":"宇佐市","city_kana":"ウサシ","town":"立石","town_kana":"タテイシ","prefecture_code":44},"0164":{"zip_code":"8790164","prefecture":"大分県","prefecture_kana":"オオイタケン","city":"宇佐市","city_kana":"ウサシ","town":"富山","town_kana":"トミヤマ","prefecture_code":44},"0513":{"zip_code":"8790513","prefecture":"大分県","prefecture_kana":"オオイタケン","city":"宇佐市","city_kana":"ウサシ","town":"中","town_kana":"ナカ","prefecture_code":44},"0162":{"zip_code":"8790162","prefecture":"大分県","prefecture_kana":"オオイタケン","city":"宇佐市","city_kana":"ウサシ","town":"中敷田","town_kana":"ナカシキダ","prefecture_code":44},"0463":{"zip_code":"8790463","prefecture":"大分県","prefecture_kana":"オオイタケン","city":"宇佐市","city_kana":"ウサシ","town":"中原","town_kana":"ナカハル","prefecture_code":44},"0503":{"zip_code":"8790503","prefecture":"大分県","prefecture_kana":"オオイタケン","city":"宇佐市","city_kana":"ウサシ","town":"灘","town_kana":"ナダ","prefecture_code":44},"0306":{"zip_code":"8790306","prefecture":"大分県","prefecture_kana":"オオイタケン","city":"宇佐市","city_kana":"ウサシ","town":"西高家","town_kana":"ニシタケイ","prefecture_code":44},"1127":{"zip_code":"8791127","prefecture":"大分県","prefecture_kana":"オオイタケン","city":"宇佐市","city_kana":"ウサシ","town":"西屋敷","town_kana":"ニシヤシキ","prefecture_code":44},"1134":{"zip_code":"8791134","prefecture":"大分県","prefecture_kana":"オオイタケン","city":"宇佐市","city_kana":"ウサシ","town":"橋津","town_kana":"ハシヅ","prefecture_code":44},"0451":{"zip_code":"8790451","prefecture":"大分県","prefecture_kana":"オオイタケン","city":"宇佐市","city_kana":"ウサシ","town":"畑田","town_kana":"ハタケダ","prefecture_code":44},"0307":{"zip_code":"8790307","prefecture":"大分県","prefecture_kana":"オオイタケン","city":"宇佐市","city_kana":"ウサシ","town":"浜高家","town_kana":"ハマタケイ","prefecture_code":44},"1133":{"zip_code":"8791133","prefecture":"大分県","prefecture_kana":"オオイタケン","city":"宇佐市","city_kana":"ウサシ","town":"日足","town_kana":"ヒアシ","prefecture_code":44},"1121":{"zip_code":"8791121","prefecture":"大分県","prefecture_kana":"オオイタケン","city":"宇佐市","city_kana":"ウサシ","town":"東大堀","town_kana":"ヒガシオオボリ","prefecture_code":44},"0309":{"zip_code":"8790309","prefecture":"大分県","prefecture_kana":"オオイタケン","city":"宇佐市","city_kana":"ウサシ","town":"東高家","town_kana":"ヒガシタケイ","prefecture_code":44},"0461":{"zip_code":"8790461","prefecture":"大分県","prefecture_kana":"オオイタケン","city":"宇佐市","city_kana":"ウサシ","town":"樋田","town_kana":"ヒダ","prefecture_code":44},"0462":{"zip_code":"8790462","prefecture":"大分県","prefecture_kana":"オオイタケン","city":"宇佐市","city_kana":"ウサシ","town":"別府","town_kana":"ビュウ","prefecture_code":44},"0454":{"zip_code":"8790454","prefecture":"大分県","prefecture_kana":"オオイタケン","city":"宇佐市","city_kana":"ウサシ","town":"法鏡寺","town_kana":"ホウキョウジ","prefecture_code":44},"0231":{"zip_code":"8790231","prefecture":"大分県","prefecture_kana":"オオイタケン","city":"宇佐市","city_kana":"ウサシ","town":"南敷田","town_kana":"ミナミシキダ","prefecture_code":44},"0151":{"zip_code":"8790151","prefecture":"大分県","prefecture_kana":"オオイタケン","city":"宇佐市","city_kana":"ウサシ","town":"宮熊","town_kana":"ミヤグマ","prefecture_code":44},"0311":{"zip_code":"8790311","prefecture":"大分県","prefecture_kana":"オオイタケン","city":"宇佐市","city_kana":"ウサシ","town":"森山","town_kana":"モリヤマ","prefecture_code":44},"1124":{"zip_code":"8791124","prefecture":"大分県","prefecture_kana":"オオイタケン","city":"宇佐市","city_kana":"ウサシ","town":"山","town_kana":"ヤマ","prefecture_code":44},"0504":{"zip_code":"8790504","prefecture":"大分県","prefecture_kana":"オオイタケン","city":"宇佐市","city_kana":"ウサシ","town":"山口","town_kana":"ヤマグチ","prefecture_code":44},"0474":{"zip_code":"8790474","prefecture":"大分県","prefecture_kana":"オオイタケン","city":"宇佐市","city_kana":"ウサシ","town":"山下","town_kana":"ヤマシタ","prefecture_code":44},"0511":{"zip_code":"8790511","prefecture":"大分県","prefecture_kana":"オオイタケン","city":"宇佐市","city_kana":"ウサシ","town":"山袋","town_kana":"ヤマブクロ","prefecture_code":44},"0467":{"zip_code":"8790467","prefecture":"大分県","prefecture_kana":"オオイタケン","city":"宇佐市","city_kana":"ウサシ","town":"山本","town_kana":"ヤマモト","prefecture_code":44},"1122":{"zip_code":"8791122","prefecture":"大分県","prefecture_kana":"オオイタケン","city":"宇佐市","city_kana":"ウサシ","town":"横田","town_kana":"ヨコタ","prefecture_code":44},"0441":{"zip_code":"8790441","prefecture":"大分県","prefecture_kana":"オオイタケン","city":"宇佐市","city_kana":"ウサシ","town":"吉松","town_kana":"ヨシマツ","prefecture_code":44},"0471":{"zip_code":"8790471","prefecture":"大分県","prefecture_kana":"オオイタケン","city":"宇佐市","city_kana":"ウサシ","town":"四日市","town_kana":"ヨッカイチ","prefecture_code":44},"1125":{"zip_code":"8791125","prefecture":"大分県","prefecture_kana":"オオイタケン","city":"宇佐市","city_kana":"ウサシ","town":"両戒","town_kana":"リョウカイ","prefecture_code":44},"1135":{"zip_code":"8791135","prefecture":"大分県","prefecture_kana":"オオイタケン","city":"宇佐市","city_kana":"ウサシ","town":"和気","town_kana":"ワキ","prefecture_code":44},"7100":{"zip_code":"8797100","prefecture":"大分県","prefecture_kana":"オオイタケン","city":"豊後大野市","city_kana":"ブンゴオオノシ","town":"","town_kana":"","prefecture_code":44},"6222":{"zip_code":"8796222","prefecture":"大分県","prefecture_kana":"オオイタケン","city":"豊後大野市","city_kana":"ブンゴオオノシ","town":"朝地町朝地","town_kana":"アサジマチアサジ","prefecture_code":44},"6224":{"zip_code":"8796224","prefecture":"大分県","prefecture_kana":"オオイタケン","city":"豊後大野市","city_kana":"ブンゴオオノシ","town":"朝地町池田","town_kana":"アサジマチイケダ","prefecture_code":44},"6223":{"zip_code":"8796223","prefecture":"大分県","prefecture_kana":"オオイタケン","city":"豊後大野市","city_kana":"ブンゴオオノシ","town":"朝地町板井迫","town_kana":"アサジマチイタイザコ","prefecture_code":44},"6201":{"zip_code":"8796201","prefecture":"大分県","prefecture_kana":"オオイタケン","city":"豊後大野市","city_kana":"ブンゴオオノシ","town":"朝地町市万田","town_kana":"アサジマチイチマンダ","prefecture_code":44},"6213":{"zip_code":"8796213","prefecture":"大分県","prefecture_kana":"オオイタケン","city":"豊後大野市","city_kana":"ブンゴオオノシ","town":"朝地町上尾塚","town_kana":"アサジマチカミオツカ","prefecture_code":44},"6333":{"zip_code":"8796333","prefecture":"大分県","prefecture_kana":"オオイタケン","city":"豊後大野市","city_kana":"ブンゴオオノシ","town":"朝地町栗林","town_kana":"アサジマチクリバヤシ","prefecture_code":44},"6212":{"zip_code":"8796212","prefecture":"大分県","prefecture_kana":"オオイタケン","city":"豊後大野市","city_kana":"ブンゴオオノシ","town":"朝地町志賀","town_kana":"アサジマチシガ","prefecture_code":44},"6202":{"zip_code":"8796202","prefecture":"大分県","prefecture_kana":"オオイタケン","city":"豊後大野市","city_kana":"ブンゴオオノシ","town":"朝地町下野","town_kana":"アサジマチシモノ","prefecture_code":44},"6221":{"zip_code":"8796221","prefecture":"大分県","prefecture_kana":"オオイタケン","city":"豊後大野市","city_kana":"ブンゴオオノシ","town":"朝地町坪泉","town_kana":"アサジマチツボイズミ","prefecture_code":44},"6331":{"zip_code":"8796331","prefecture":"大分県","prefecture_kana":"オオイタケン","city":"豊後大野市","city_kana":"ブンゴオオノシ","town":"朝地町鳥田","town_kana":"アサジマチトリタ","prefecture_code":44},"6334":{"zip_code":"8796334","prefecture":"大分県","prefecture_kana":"オオイタケン","city":"豊後大野市","city_kana":"ブンゴオオノシ","town":"朝地町梨小","town_kana":"アサジマチナシコ","prefecture_code":44},"6211":{"zip_code":"8796211","prefecture":"大分県","prefecture_kana":"オオイタケン","city":"豊後大野市","city_kana":"ブンゴオオノシ","town":"朝地町宮生","town_kana":"アサジマチミヤオ","prefecture_code":44},"6332":{"zip_code":"8796332","prefecture":"大分県","prefecture_kana":"オオイタケン","city":"豊後大野市","city_kana":"ブンゴオオノシ","town":"朝地町綿田","town_kana":"アサジマチワタダ","prefecture_code":44},"7301":{"zip_code":"8797301","prefecture":"大分県","prefecture_kana":"オオイタケン","city":"豊後大野市","city_kana":"ブンゴオオノシ","town":"犬飼町犬飼","town_kana":"イヌカイマチイヌカイ","prefecture_code":44},"7304":{"zip_code":"8797304","prefecture":"大分県","prefecture_kana":"オオイタケン","city":"豊後大野市","city_kana":"ブンゴオオノシ","town":"犬飼町大寒","town_kana":"イヌカイマチオオソウ","prefecture_code":44},"7302":{"zip_code":"8797302","prefecture":"大分県","prefecture_kana":"オオイタケン","city":"豊後大野市","city_kana":"ブンゴオオノシ","town":"犬飼町久原","town_kana":"イヌカイマチクバル","prefecture_code":44},"7314":{"zip_code":"8797314","prefecture":"大分県","prefecture_kana":"オオイタケン","city":"豊後大野市","city_kana":"ブンゴオオノシ","town":"犬飼町栗ケ畑","town_kana":"イヌカイマチクリガハタ","prefecture_code":44},"7313":{"zip_code":"8797313","prefecture":"大分県","prefecture_kana":"オオイタケン","city":"豊後大野市","city_kana":"ブンゴオオノシ","town":"犬飼町黒松","town_kana":"イヌカイマチクロマツ","prefecture_code":44},"7312":{"zip_code":"8797312","prefecture":"大分県","prefecture_kana":"オオイタケン","city":"豊後大野市","city_kana":"ブンゴオオノシ","town":"犬飼町高津原","town_kana":"イヌカイマチコウヅハル","prefecture_code":44},"7307":{"zip_code":"8797307","prefecture":"大分県","prefecture_kana":"オオイタケン","city":"豊後大野市","city_kana":"ブンゴオオノシ","town":"犬飼町西寒田","town_kana":"イヌカイマチササムタ","prefecture_code":44},"7311":{"zip_code":"8797311","prefecture":"大分県","prefecture_kana":"オオイタケン","city":"豊後大野市","city_kana":"ブンゴオオノシ","town":"犬飼町柴北","town_kana":"イヌカイマチシバキタ","prefecture_code":44},"7306":{"zip_code":"8797306","prefecture":"大分県","prefecture_kana":"オオイタケン","city":"豊後大野市","city_kana":"ブンゴオオノシ","town":"犬飼町下津尾","town_kana":"イヌカイマチシモツオ","prefecture_code":44},"7305":{"zip_code":"8797305","prefecture":"大分県","prefecture_kana":"オオイタケン","city":"豊後大野市","city_kana":"ブンゴオオノシ","town":"犬飼町田原","town_kana":"イヌカイマチタハラ","prefecture_code":44},"7316":{"zip_code":"8797316","prefecture":"大分県","prefecture_kana":"オオイタケン","city":"豊後大野市","city_kana":"ブンゴオオノシ","town":"犬飼町長畑","town_kana":"イヌカイマチナガハタ","prefecture_code":44},"7315":{"zip_code":"8797315","prefecture":"大分県","prefecture_kana":"オオイタケン","city":"豊後大野市","city_kana":"ブンゴオオノシ","town":"犬飼町山内","town_kana":"イヌカイマチヤマウチ","prefecture_code":44},"7303":{"zip_code":"8797303","prefecture":"大分県","prefecture_kana":"オオイタケン","city":"豊後大野市","city_kana":"ブンゴオオノシ","town":"犬飼町柚野木","town_kana":"イヌカイマチユノキ","prefecture_code":44},"6401":{"zip_code":"8796401","prefecture":"大分県","prefecture_kana":"オオイタケン","city":"豊後大野市","city_kana":"ブンゴオオノシ","town":"大野町安藤","town_kana":"オオノマチアンドウ","prefecture_code":44},"6404":{"zip_code":"8796404","prefecture":"大分県","prefecture_kana":"オオイタケン","city":"豊後大野市","city_kana":"ブンゴオオノシ","town":"大野町後田","town_kana":"オオノマチウシロダ","prefecture_code":44},"6433":{"zip_code":"8796433","prefecture":"大分県","prefecture_kana":"オオイタケン","city":"豊後大野市","city_kana":"ブンゴオオノシ","town":"大野町大原","town_kana":"オオノマチオオハル","prefecture_code":44},"6445":{"zip_code":"8796445","prefecture":"大分県","prefecture_kana":"オオイタケン","city":"豊後大野市","city_kana":"ブンゴオオノシ","town":"大野町片島","town_kana":"オオノマチカタシマ","prefecture_code":44},"6435":{"zip_code":"8796435","prefecture":"大分県","prefecture_kana":"オオイタケン","city":"豊後大野市","city_kana":"ブンゴオオノシ","town":"大野町北園","town_kana":"オオノマチキタゾノ","prefecture_code":44},"6434":{"zip_code":"8796434","prefecture":"大分県","prefecture_kana":"オオイタケン","city":"豊後大野市","city_kana":"ブンゴオオノシ","town":"大野町桑原","town_kana":"オオノマチクワバル","prefecture_code":44},"6426":{"zip_code":"8796426","prefecture":"大分県","prefecture_kana":"オオイタケン","city":"豊後大野市","city_kana":"ブンゴオオノシ","town":"大野町郡山","town_kana":"オオノマチコオリヤマ","prefecture_code":44},"6422":{"zip_code":"8796422","prefecture":"大分県","prefecture_kana":"オオイタケン","city":"豊後大野市","city_kana":"ブンゴオオノシ","town":"大野町小倉木","town_kana":"オオノマチコグラキ","prefecture_code":44},"6431":{"zip_code":"8796431","prefecture":"大分県","prefecture_kana":"オオイタケン","city":"豊後大野市","city_kana":"ブンゴオオノシ","town":"大野町酒井寺","town_kana":"オオノマチサカイジ","prefecture_code":44},"6408":{"zip_code":"8796408","prefecture":"大分県","prefecture_kana":"オオイタケン","city":"豊後大野市","city_kana":"ブンゴオオノシ","town":"大野町沢田","town_kana":"オオノマチサワタ","prefecture_code":44},"6406":{"zip_code":"8796406","prefecture":"大分県","prefecture_kana":"オオイタケン","city":"豊後大野市","city_kana":"ブンゴオオノシ","town":"大野町杉園","town_kana":"オオノマチスギゾノ","prefecture_code":44},"6405":{"zip_code":"8796405","prefecture":"大分県","prefecture_kana":"オオイタケン","city":"豊後大野市","city_kana":"ブンゴオオノシ","town":"大野町代三五","town_kana":"オオノマチダイサンゴ","prefecture_code":44},"6444":{"zip_code":"8796444","prefecture":"大分県","prefecture_kana":"オオイタケン","city":"豊後大野市","city_kana":"ブンゴオオノシ","town":"大野町田代","town_kana":"オオノマチタシロ","prefecture_code":44},"6441":{"zip_code":"8796441","prefecture":"大分県","prefecture_kana":"オオイタケン","city":"豊後大野市","city_kana":"ブンゴオオノシ","town":"大野町田中","town_kana":"オオノマチタナカ","prefecture_code":44},"6407":{"zip_code":"8796407","prefecture":"大分県","prefecture_kana":"オオイタケン","city":"豊後大野市","city_kana":"ブンゴオオノシ","town":"大野町十時","town_kana":"オオノマチトトキ","prefecture_code":44},"6402":{"zip_code":"8796402","prefecture":"大分県","prefecture_kana":"オオイタケン","city":"豊後大野市","city_kana":"ブンゴオオノシ","town":"大野町中土師","town_kana":"オオノマチナカハジ","prefecture_code":44},"6403":{"zip_code":"8796403","prefecture":"大分県","prefecture_kana":"オオイタケン","city":"豊後大野市","city_kana":"ブンゴオオノシ","town":"大野町長畑","town_kana":"オオノマチナガハタ","prefecture_code":44},"6421":{"zip_code":"8796421","prefecture":"大分県","prefecture_kana":"オオイタケン","city":"豊後大野市","city_kana":"ブンゴオオノシ","town":"大野町中原","town_kana":"オオノマチナカバル","prefecture_code":44},"6424":{"zip_code":"8796424","prefecture":"大分県","prefecture_kana":"オオイタケン","city":"豊後大野市","city_kana":"ブンゴオオノシ","town":"大野町夏足","town_kana":"オオノマチナタセ","prefecture_code":44},"6442":{"zip_code":"8796442","prefecture":"大分県","prefecture_kana":"オオイタケン","city":"豊後大野市","city_kana":"ブンゴオオノシ","town":"大野町藤北","town_kana":"オオノマチフジキタ","prefecture_code":44},"6443":{"zip_code":"8796443","prefecture":"大分県","prefecture_kana":"オオイタケン","city":"豊後大野市","city_kana":"ブンゴオオノシ","town":"大野町宮迫","town_kana":"オオノマチミヤザコ","prefecture_code":44},"6423":{"zip_code":"8796423","prefecture":"大分県","prefecture_kana":"オオイタケン","city":"豊後大野市","city_kana":"ブンゴオオノシ","town":"大野町矢田","town_kana":"オオノマチヤダ","prefecture_code":44},"6432":{"zip_code":"8796432","prefecture":"大分県","prefecture_kana":"オオイタケン","city":"豊後大野市","city_kana":"ブンゴオオノシ","town":"大野町屋原","town_kana":"オオノマチヤバル","prefecture_code":44},"6425":{"zip_code":"8796425","prefecture":"大分県","prefecture_kana":"オオイタケン","city":"豊後大野市","city_kana":"ブンゴオオノシ","town":"大野町両家","town_kana":"オオノマチリョウケ","prefecture_code":44},"6613":{"zip_code":"8796613","prefecture":"大分県","prefecture_kana":"オオイタケン","city":"豊後大野市","city_kana":"ブンゴオオノシ","town":"緒方町井上","town_kana":"オガタマチイノウエ","prefecture_code":44},"6864":{"zip_code":"8796864","prefecture":"大分県","prefecture_kana":"オオイタケン","city":"豊後大野市","city_kana":"ブンゴオオノシ","town":"緒方町上畑","town_kana":"オガタマチウワハタ","prefecture_code":44},"6633":{"zip_code":"8796633","prefecture":"大分県","prefecture_kana":"オオイタケン","city":"豊後大野市","city_kana":"ブンゴオオノシ","town":"緒方町小宛","town_kana":"オガタマチオアテ","prefecture_code":44},"6759":{"zip_code":"8796759","prefecture":"大分県","prefecture_kana":"オオイタケン","city":"豊後大野市","city_kana":"ブンゴオオノシ","town":"緒方町大石","town_kana":"オガタマチオオイシ","prefecture_code":44},"6861":{"zip_code":"8796861","prefecture":"大分県","prefecture_kana":"オオイタケン","city":"豊後大野市","city_kana":"ブンゴオオノシ","town":"緒方町小原","town_kana":"オガタマチオハル","prefecture_code":44},"6865":{"zip_code":"8796865","prefecture":"大分県","prefecture_kana":"オオイタケン","city":"豊後大野市","city_kana":"ブンゴオオノシ","town":"緒方町尾平鉱山","town_kana":"オガタマチオビラコウザン","prefecture_code":44},"6625":{"zip_code":"8796625","prefecture":"大分県","prefecture_kana":"オオイタケン","city":"豊後大野市","city_kana":"ブンゴオオノシ","town":"緒方町上犬塚","town_kana":"オガタマチカミイヌヅカ","prefecture_code":44},"6642":{"zip_code":"8796642","prefecture":"大分県","prefecture_kana":"オオイタケン","city":"豊後大野市","city_kana":"ブンゴオオノシ","town":"緒方町上自在","town_kana":"オガタマチカミジザイ","prefecture_code":44},"6751":{"zip_code":"8796751","prefecture":"大分県","prefecture_kana":"オオイタケン","city":"豊後大野市","city_kana":"ブンゴオオノシ","town":"緒方町上年野","town_kana":"オガタマチカミトシノ","prefecture_code":44},"6755":{"zip_code":"8796755","prefecture":"大分県","prefecture_kana":"オオイタケン","city":"豊後大野市","city_kana":"ブンゴオオノシ","town":"緒方町上冬原","town_kana":"オガタマチカミフユバル","prefecture_code":44},"6757":{"zip_code":"8796757","prefecture":"大分県","prefecture_kana":"オオイタケン","city":"豊後大野市","city_kana":"ブンゴオオノシ","town":"緒方町木野","town_kana":"オガタマチキノ","prefecture_code":44},"6641":{"zip_code":"8796641","prefecture":"大分県","prefecture_kana":"オオイタケン","city":"豊後大野市","city_kana":"ブンゴオオノシ","town":"緒方町草深野","town_kana":"オガタマチクサブカノ","prefecture_code":44},"6616":{"zip_code":"8796616","prefecture":"大分県","prefecture_kana":"オオイタケン","city":"豊後大野市","city_kana":"ブンゴオオノシ","town":"緒方町久土知","town_kana":"オガタマチクドチ","prefecture_code":44},"6862":{"zip_code":"8796862","prefecture":"大分県","prefecture_kana":"オオイタケン","city":"豊後大野市","city_kana":"ブンゴオオノシ","town":"緒方町栗生","town_kana":"オガタマチクリウ","prefecture_code":44},"6612":{"zip_code":"8796612","prefecture":"大分県","prefecture_kana":"オオイタケン","city":"豊後大野市","city_kana":"ブンゴオオノシ","town":"緒方町越生","town_kana":"オガタマチコシオ","prefecture_code":44},"6602":{"zip_code":"8796602","prefecture":"大分県","prefecture_kana":"オオイタケン","city":"豊後大野市","city_kana":"ブンゴオオノシ","town":"緒方町志賀","town_kana":"オガタマチシガ","prefecture_code":44},"6635":{"zip_code":"8796635","prefecture":"大分県","prefecture_kana":"オオイタケン","city":"豊後大野市","city_kana":"ブンゴオオノシ","town":"緒方町軸丸","town_kana":"オガタマチジクマル","prefecture_code":44},"6643":{"zip_code":"8796643","prefecture":"大分県","prefecture_kana":"オオイタケン","city":"豊後大野市","city_kana":"ブンゴオオノシ","town":"緒方町下自在","town_kana":"オガタマチシモジザイ","prefecture_code":44},"6753":{"zip_code":"8796753","prefecture":"大分県","prefecture_kana":"オオイタケン","city":"豊後大野市","city_kana":"ブンゴオオノシ","town":"緒方町下徳田","town_kana":"オガタマチシモトクダ","prefecture_code":44},"6626":{"zip_code":"8796626","prefecture":"大分県","prefecture_kana":"オオイタケン","city":"豊後大野市","city_kana":"ブンゴオオノシ","town":"緒方町大化","town_kana":"オガタマチタイカ","prefecture_code":44},"6863":{"zip_code":"8796863","prefecture":"大分県","prefecture_kana":"オオイタケン","city":"豊後大野市","city_kana":"ブンゴオオノシ","town":"緒方町滞迫","town_kana":"オガタマチタイザコ","prefecture_code":44},"6614":{"zip_code":"8796614","prefecture":"大分県","prefecture_kana":"オオイタケン","city":"豊後大野市","city_kana":"ブンゴオオノシ","town":"緒方町知田","town_kana":"オガタマチチタ","prefecture_code":44},"6632":{"zip_code":"8796632","prefecture":"大分県","prefecture_kana":"オオイタケン","city":"豊後大野市","city_kana":"ブンゴオオノシ","town":"緒方町辻","town_kana":"オガタマチツジ","prefecture_code":44},"6634":{"zip_code":"8796634","prefecture":"大分県","prefecture_kana":"オオイタケン","city":"豊後大野市","city_kana":"ブンゴオオノシ","town":"緒方町寺原","town_kana":"オガタマチテラバル","prefecture_code":44},"6622":{"zip_code":"8796622","prefecture":"大分県","prefecture_kana":"オオイタケン","city":"豊後大野市","city_kana":"ブンゴオオノシ","town":"緒方町天神","town_kana":"オガタマチテンジン","prefecture_code":44},"6756":{"zip_code":"8796756","prefecture":"大分県","prefecture_kana":"オオイタケン","city":"豊後大野市","city_kana":"ブンゴオオノシ","town":"緒方町徳田","town_kana":"オガタマチトクダ","prefecture_code":44},"6758":{"zip_code":"8796758","prefecture":"大分県","prefecture_kana":"オオイタケン","city":"豊後大野市","city_kana":"ブンゴオオノシ","town":"緒方町中野","town_kana":"オガタマチナカノ","prefecture_code":44},"6611":{"zip_code":"8796611","prefecture":"大分県","prefecture_kana":"オオイタケン","city":"豊後大野市","city_kana":"ブンゴオオノシ","town":"緒方町夏足","town_kana":"オガタマチナタセ","prefecture_code":44},"6621":{"zip_code":"8796621","prefecture":"大分県","prefecture_kana":"オオイタケン","city":"豊後大野市","city_kana":"ブンゴオオノシ","town":"緒方町野尻","town_kana":"オガタマチノジリ","prefecture_code":44},"6601":{"zip_code":"8796601","prefecture":"大分県","prefecture_kana":"オオイタケン","city":"豊後大野市","city_kana":"ブンゴオオノシ","town":"緒方町馬場","town_kana":"オガタマチババ","prefecture_code":44},"6631":{"zip_code":"8796631","prefecture":"大分県","prefecture_kana":"オオイタケン","city":"豊後大野市","city_kana":"ブンゴオオノシ","town":"緒方町原尻","town_kana":"オガタマチハラジリ","prefecture_code":44},"6624":{"zip_code":"8796624","prefecture":"大分県","prefecture_kana":"オオイタケン","city":"豊後大野市","city_kana":"ブンゴオオノシ","town":"緒方町平石","town_kana":"オガタマチヒライシ","prefecture_code":44},"6615":{"zip_code":"8796615","prefecture":"大分県","prefecture_kana":"オオイタケン","city":"豊後大野市","city_kana":"ブンゴオオノシ","town":"緒方町鮒川","town_kana":"オガタマチフナガワ","prefecture_code":44},"6754":{"zip_code":"8796754","prefecture":"大分県","prefecture_kana":"オオイタケン","city":"豊後大野市","city_kana":"ブンゴオオノシ","town":"緒方町冬原","town_kana":"オガタマチフユバル","prefecture_code":44},"6623":{"zip_code":"8796623","prefecture":"大分県","prefecture_kana":"オオイタケン","city":"豊後大野市","city_kana":"ブンゴオオノシ","town":"緒方町馬背畑","town_kana":"オガタマチマセバタ","prefecture_code":44},"6752":{"zip_code":"8796752","prefecture":"大分県","prefecture_kana":"オオイタケン","city":"豊後大野市","city_kana":"ブンゴオオノシ","town":"緒方町柚木","town_kana":"オガタマチユギ","prefecture_code":44},"6902":{"zip_code":"8796902","prefecture":"大分県","prefecture_kana":"オオイタケン","city":"豊後大野市","city_kana":"ブンゴオオノシ","town":"清川町雨堤","town_kana":"キヨカワマチアマヅツミ","prefecture_code":44},"6901":{"zip_code":"8796901","prefecture":"大分県","prefecture_kana":"オオイタケン","city":"豊後大野市","city_kana":"ブンゴオオノシ","town":"清川町臼尾","town_kana":"キヨカワマチウスオ","prefecture_code":44},"6911":{"zip_code":"8796911","prefecture":"大分県","prefecture_kana":"オオイタケン","city":"豊後大野市","city_kana":"ブンゴオオノシ","town":"清川町宇田枝","town_kana":"キヨカワマチウタエダ","prefecture_code":44},"6922":{"zip_code":"8796922","prefecture":"大分県","prefecture_kana":"オオイタケン","city":"豊後大野市","city_kana":"ブンゴオオノシ","town":"清川町大白谷","town_kana":"キヨカワマチオオシロタニ","prefecture_code":44},"6903":{"zip_code":"8796903","prefecture":"大分県","prefecture_kana":"オオイタケン","city":"豊後大野市","city_kana":"ブンゴオオノシ","town":"清川町砂田","town_kana":"キヨカワマチスナダ","prefecture_code":44},"6914":{"zip_code":"8796914","prefecture":"大分県","prefecture_kana":"オオイタケン","city":"豊後大野市","city_kana":"ブンゴオオノシ","town":"清川町左右知","town_kana":"キヨカワマチソウチ","prefecture_code":44},"6904":{"zip_code":"8796904","prefecture":"大分県","prefecture_kana":"オオイタケン","city":"豊後大野市","city_kana":"ブンゴオオノシ","town":"清川町天神","town_kana":"キヨカワマチテンジン","prefecture_code":44},"6913":{"zip_code":"8796913","prefecture":"大分県","prefecture_kana":"オオイタケン","city":"豊後大野市","city_kana":"ブンゴオオノシ","town":"清川町平石","town_kana":"キヨカワマチヒライシ","prefecture_code":44},"6921":{"zip_code":"8796921","prefecture":"大分県","prefecture_kana":"オオイタケン","city":"豊後大野市","city_kana":"ブンゴオオノシ","town":"清川町伏野","town_kana":"キヨカワマチフセノ","prefecture_code":44},"6905":{"zip_code":"8796905","prefecture":"大分県","prefecture_kana":"オオイタケン","city":"豊後大野市","city_kana":"ブンゴオオノシ","town":"清川町三玉","town_kana":"キヨカワマチミタマ","prefecture_code":44},"6912":{"zip_code":"8796912","prefecture":"大分県","prefecture_kana":"オオイタケン","city":"豊後大野市","city_kana":"ブンゴオオノシ","town":"清川町六種","town_kana":"キヨカワマチムクサ","prefecture_code":44},"7403":{"zip_code":"8797403","prefecture":"大分県","prefecture_kana":"オオイタケン","city":"豊後大野市","city_kana":"ブンゴオオノシ","town":"千歳町石田","town_kana":"チトセマチイシダ","prefecture_code":44},"7411":{"zip_code":"8797411","prefecture":"大分県","prefecture_kana":"オオイタケン","city":"豊後大野市","city_kana":"ブンゴオオノシ","town":"千歳町柴山","town_kana":"チトセマチシバヤマ","prefecture_code":44},"7413":{"zip_code":"8797413","prefecture":"大分県","prefecture_kana":"オオイタケン","city":"豊後大野市","city_kana":"ブンゴオオノシ","town":"千歳町下山","town_kana":"チトセマチシモヤマ","prefecture_code":44},"7412":{"zip_code":"8797412","prefecture":"大分県","prefecture_kana":"オオイタケン","city":"豊後大野市","city_kana":"ブンゴオオノシ","town":"千歳町高畑","town_kana":"チトセマチタカハタ","prefecture_code":44},"7404":{"zip_code":"8797404","prefecture":"大分県","prefecture_kana":"オオイタケン","city":"豊後大野市","city_kana":"ブンゴオオノシ","town":"千歳町長峰","town_kana":"チトセマチナガミネ","prefecture_code":44},"7401":{"zip_code":"8797401","prefecture":"大分県","prefecture_kana":"オオイタケン","city":"豊後大野市","city_kana":"ブンゴオオノシ","town":"千歳町新殿","town_kana":"チトセマチニイドノ","prefecture_code":44},"7402":{"zip_code":"8797402","prefecture":"大分県","prefecture_kana":"オオイタケン","city":"豊後大野市","city_kana":"ブンゴオオノシ","town":"千歳町船田","town_kana":"チトセマチフナダ","prefecture_code":44},"7414":{"zip_code":"8797414","prefecture":"大分県","prefecture_kana":"オオイタケン","city":"豊後大野市","city_kana":"ブンゴオオノシ","town":"千歳町前田","town_kana":"チトセマチマエダ","prefecture_code":44},"7111":{"zip_code":"8797111","prefecture":"大分県","prefecture_kana":"オオイタケン","city":"豊後大野市","city_kana":"ブンゴオオノシ","town":"三重町赤嶺","town_kana":"ミエマチアカミネ","prefecture_code":44},"7141":{"zip_code":"8797141","prefecture":"大分県","prefecture_kana":"オオイタケン","city":"豊後大野市","city_kana":"ブンゴオオノシ","town":"三重町秋葉","town_kana":"ミエマチアキバ","prefecture_code":44},"7108":{"zip_code":"8797108","prefecture":"大分県","prefecture_kana":"オオイタケン","city":"豊後大野市","city_kana":"ブンゴオオノシ","town":"三重町浅瀬","town_kana":"ミエマチアサセ","prefecture_code":44},"7105":{"zip_code":"8797105","prefecture":"大分県","prefecture_kana":"オオイタケン","city":"豊後大野市","city_kana":"ブンゴオオノシ","town":"三重町芦刈","town_kana":"ミエマチアシカリ","prefecture_code":44},"7106":{"zip_code":"8797106","prefecture":"大分県","prefecture_kana":"オオイタケン","city":"豊後大野市","city_kana":"ブンゴオオノシ","town":"三重町井迫","town_kana":"ミエマチイサコ","prefecture_code":44},"7131":{"zip_code":"8797131","prefecture":"大分県","prefecture_kana":"オオイタケン","city":"豊後大野市","city_kana":"ブンゴオオノシ","town":"三重町市場","town_kana":"ミエマチイチバ","prefecture_code":44},"7125":{"zip_code":"8797125","prefecture":"大分県","prefecture_kana":"オオイタケン","city":"豊後大野市","city_kana":"ブンゴオオノシ","town":"三重町内田","town_kana":"ミエマチウチダ","prefecture_code":44},"7124":{"zip_code":"8797124","prefecture":"大分県","prefecture_kana":"オオイタケン","city":"豊後大野市","city_kana":"ブンゴオオノシ","town":"三重町内山","town_kana":"ミエマチウチヤマ","prefecture_code":44},"7264":{"zip_code":"8797264","prefecture":"大分県","prefecture_kana":"オオイタケン","city":"豊後大野市","city_kana":"ブンゴオオノシ","town":"三重町大白谷","town_kana":"ミエマチオオシロタニ","prefecture_code":44},"7262":{"zip_code":"8797262","prefecture":"大分県","prefecture_kana":"オオイタケン","city":"豊後大野市","city_kana":"ブンゴオオノシ","town":"三重町奥畑","town_kana":"ミエマチオクバタ","prefecture_code":44},"7104":{"zip_code":"8797104","prefecture":"大分県","prefecture_kana":"オオイタケン","city":"豊後大野市","city_kana":"ブンゴオオノシ","town":"三重町小坂","town_kana":"ミエマチオサカ","prefecture_code":44},"7142":{"zip_code":"8797142","prefecture":"大分県","prefecture_kana":"オオイタケン","city":"豊後大野市","city_kana":"ブンゴオオノシ","town":"三重町小田","town_kana":"ミエマチオダ","prefecture_code":44},"7107":{"zip_code":"8797107","prefecture":"大分県","prefecture_kana":"オオイタケン","city":"豊後大野市","city_kana":"ブンゴオオノシ","town":"三重町上田原","town_kana":"ミエマチカミタワラ","prefecture_code":44},"7154":{"zip_code":"8797154","prefecture":"大分県","prefecture_kana":"オオイタケン","city":"豊後大野市","city_kana":"ブンゴオオノシ","town":"三重町川辺","town_kana":"ミエマチカワベ","prefecture_code":44},"7102":{"zip_code":"8797102","prefecture":"大分県","prefecture_kana":"オオイタケン","city":"豊後大野市","city_kana":"ブンゴオオノシ","town":"三重町菅生","town_kana":"ミエマチスゴウ","prefecture_code":44},"7153":{"zip_code":"8797153","prefecture":"大分県","prefecture_kana":"オオイタケン","city":"豊後大野市","city_kana":"ブンゴオオノシ","town":"三重町玉田","town_kana":"ミエマチタマダ","prefecture_code":44},"7263":{"zip_code":"8797263","prefecture":"大分県","prefecture_kana":"オオイタケン","city":"豊後大野市","city_kana":"ブンゴオオノシ","town":"三重町中津留","town_kana":"ミエマチナカヅル","prefecture_code":44},"7151":{"zip_code":"8797151","prefecture":"大分県","prefecture_kana":"オオイタケン","city":"豊後大野市","city_kana":"ブンゴオオノシ","town":"三重町西泉","town_kana":"ミエマチニシイズミ","prefecture_code":44},"7103":{"zip_code":"8797103","prefecture":"大分県","prefecture_kana":"オオイタケン","city":"豊後大野市","city_kana":"ブンゴオオノシ","town":"三重町西畑","town_kana":"ミエマチニシハタ","prefecture_code":44},"7143":{"zip_code":"8797143","prefecture":"大分県","prefecture_kana":"オオイタケン","city":"豊後大野市","city_kana":"ブンゴオオノシ","town":"三重町久田","town_kana":"ミエマチヒサダ","prefecture_code":44},"7261":{"zip_code":"8797261","prefecture":"大分県","prefecture_kana":"オオイタケン","city":"豊後大野市","city_kana":"ブンゴオオノシ","town":"三重町伏野","town_kana":"ミエマチフセノ","prefecture_code":44},"7144":{"zip_code":"8797144","prefecture":"大分県","prefecture_kana":"オオイタケン","city":"豊後大野市","city_kana":"ブンゴオオノシ","town":"三重町本城","town_kana":"ミエマチホンジョウ","prefecture_code":44},"7123":{"zip_code":"8797123","prefecture":"大分県","prefecture_kana":"オオイタケン","city":"豊後大野市","city_kana":"ブンゴオオノシ","town":"三重町松尾","town_kana":"ミエマチマツオ","prefecture_code":44},"7101":{"zip_code":"8797101","prefecture":"大分県","prefecture_kana":"オオイタケン","city":"豊後大野市","city_kana":"ブンゴオオノシ","town":"三重町宮野","town_kana":"ミエマチミヤノ","prefecture_code":44},"7155":{"zip_code":"8797155","prefecture":"大分県","prefecture_kana":"オオイタケン","city":"豊後大野市","city_kana":"ブンゴオオノシ","town":"三重町向野","town_kana":"ミエマチムコウノ","prefecture_code":44},"7152":{"zip_code":"8797152","prefecture":"大分県","prefecture_kana":"オオイタケン","city":"豊後大野市","city_kana":"ブンゴオオノシ","town":"三重町百枝","town_kana":"ミエマチモモエダ","prefecture_code":44},"7121":{"zip_code":"8797121","prefecture":"大分県","prefecture_kana":"オオイタケン","city":"豊後大野市","city_kana":"ブンゴオオノシ","town":"三重町山部","town_kana":"ミエマチヤマブ","prefecture_code":44},"7122":{"zip_code":"8797122","prefecture":"大分県","prefecture_kana":"オオイタケン","city":"豊後大野市","city_kana":"ブンゴオオノシ","town":"三重町鷲谷","town_kana":"ミエマチワシダニ","prefecture_code":44},"5400":{"zip_code":"8795400","prefecture":"大分県","prefecture_kana":"オオイタケン","city":"由布市","city_kana":"ユフシ","town":"","town_kana":"","prefecture_code":44},"5423":{"zip_code":"8795423","prefecture":"大分県","prefecture_kana":"オオイタケン","city":"由布市","city_kana":"ユフシ","town":"庄内町阿蘇野","town_kana":"ショウナイチョウアソノ","prefecture_code":44},"5404":{"zip_code":"8795404","prefecture":"大分県","prefecture_kana":"オオイタケン","city":"由布市","city_kana":"ユフシ","town":"庄内町櫟木","town_kana":"ショウナイチョウイチギ","prefecture_code":44},"5413":{"zip_code":"8795413","prefecture":"大分県","prefecture_kana":"オオイタケン","city":"由布市","city_kana":"ユフシ","town":"庄内町大龍","town_kana":"ショウナイチョウオオタツ","prefecture_code":44},"5402":{"zip_code":"8795402","prefecture":"大分県","prefecture_kana":"オオイタケン","city":"由布市","city_kana":"ユフシ","town":"庄内町小挾間","town_kana":"ショウナイチョウオバサマ","prefecture_code":44},"5421":{"zip_code":"8795421","prefecture":"大分県","prefecture_kana":"オオイタケン","city":"由布市","city_kana":"ユフシ","town":"庄内町柿原","town_kana":"ショウナイチョウカキハル","prefecture_code":44},"5401":{"zip_code":"8795401","prefecture":"大分県","prefecture_kana":"オオイタケン","city":"由布市","city_kana":"ユフシ","town":"庄内町北大津留","town_kana":"ショウナイチョウキタオオツル","prefecture_code":44},"5412":{"zip_code":"8795412","prefecture":"大分県","prefecture_kana":"オオイタケン","city":"由布市","city_kana":"ユフシ","town":"庄内町五ケ瀬","town_kana":"ショウナイチョウゴカセ","prefecture_code":44},"5434":{"zip_code":"8795434","prefecture":"大分県","prefecture_kana":"オオイタケン","city":"由布市","city_kana":"ユフシ","town":"庄内町庄内原","town_kana":"ショウナイチョウショウナイバル","prefecture_code":44},"5433":{"zip_code":"8795433","prefecture":"大分県","prefecture_kana":"オオイタケン","city":"由布市","city_kana":"ユフシ","town":"庄内町高岡","town_kana":"ショウナイチョウタカオカ","prefecture_code":44},"5411":{"zip_code":"8795411","prefecture":"大分県","prefecture_kana":"オオイタケン","city":"由布市","city_kana":"ユフシ","town":"庄内町龍原","town_kana":"ショウナイチョウタツハル","prefecture_code":44},"5424":{"zip_code":"8795424","prefecture":"大分県","prefecture_kana":"オオイタケン","city":"由布市","city_kana":"ユフシ","town":"庄内町直野内山","town_kana":"ショウナイチョウナオノウチヤマ","prefecture_code":44},"5435":{"zip_code":"8795435","prefecture":"大分県","prefecture_kana":"オオイタケン","city":"由布市","city_kana":"ユフシ","town":"庄内町中","town_kana":"ショウナイチョウナカ","prefecture_code":44},"5431":{"zip_code":"8795431","prefecture":"大分県","prefecture_kana":"オオイタケン","city":"由布市","city_kana":"ユフシ","town":"庄内町長野","town_kana":"ショウナイチョウナガノ","prefecture_code":44},"5436":{"zip_code":"8795436","prefecture":"大分県","prefecture_kana":"オオイタケン","city":"由布市","city_kana":"ユフシ","town":"庄内町西","town_kana":"ショウナイチョウニシ","prefecture_code":44},"5408":{"zip_code":"8795408","prefecture":"大分県","prefecture_kana":"オオイタケン","city":"由布市","city_kana":"ユフシ","town":"庄内町西大津留","town_kana":"ショウナイチョウニシオオツル","prefecture_code":44},"5406":{"zip_code":"8795406","prefecture":"大分県","prefecture_kana":"オオイタケン","city":"由布市","city_kana":"ユフシ","town":"庄内町西長宝","town_kana":"ショウナイチョウニシチョウホウ","prefecture_code":44},"5422":{"zip_code":"8795422","prefecture":"大分県","prefecture_kana":"オオイタケン","city":"由布市","city_kana":"ユフシ","town":"庄内町野畑","town_kana":"ショウナイチョウノバタケ","prefecture_code":44},"5432":{"zip_code":"8795432","prefecture":"大分県","prefecture_kana":"オオイタケン","city":"由布市","city_kana":"ユフシ","town":"庄内町畑田","town_kana":"ショウナイチョウハタケダ","prefecture_code":44},"5403":{"zip_code":"8795403","prefecture":"大分県","prefecture_kana":"オオイタケン","city":"由布市","city_kana":"ユフシ","town":"庄内町東大津留","town_kana":"ショウナイチョウヒガシオオツル","prefecture_code":44},"5405":{"zip_code":"8795405","prefecture":"大分県","prefecture_kana":"オオイタケン","city":"由布市","city_kana":"ユフシ","town":"庄内町東長宝","town_kana":"ショウナイチョウヒガシチョウホウ","prefecture_code":44},"5437":{"zip_code":"8795437","prefecture":"大分県","prefecture_kana":"オオイタケン","city":"由布市","city_kana":"ユフシ","town":"庄内町平石","town_kana":"ショウナイチョウヒライシ","prefecture_code":44},"5425":{"zip_code":"8795425","prefecture":"大分県","prefecture_kana":"オオイタケン","city":"由布市","city_kana":"ユフシ","town":"庄内町渕","town_kana":"ショウナイチョウフチ","prefecture_code":44},"5407":{"zip_code":"8795407","prefecture":"大分県","prefecture_kana":"オオイタケン","city":"由布市","city_kana":"ユフシ","town":"庄内町南大津留","town_kana":"ショウナイチョウミナミオオツル","prefecture_code":44},"5516":{"zip_code":"8795516","prefecture":"大分県","prefecture_kana":"オオイタケン","city":"由布市","city_kana":"ユフシ","town":"挾間町赤野","town_kana":"ハサママチアカノ","prefecture_code":44},"5503":{"zip_code":"8795503","prefecture":"大分県","prefecture_kana":"オオイタケン","city":"由布市","city_kana":"ユフシ","town":"挾間町医大ケ丘","town_kana":"ハサママチイダイガオカ","prefecture_code":44},"5517":{"zip_code":"8795517","prefecture":"大分県","prefecture_kana":"オオイタケン","city":"由布市","city_kana":"ユフシ","town":"挾間町内成","town_kana":"ハサママチウチナリ","prefecture_code":44},"5521":{"zip_code":"8795521","prefecture":"大分県","prefecture_kana":"オオイタケン","city":"由布市","city_kana":"ユフシ","town":"挾間町鬼瀬","town_kana":"ハサママチオニガセ","prefecture_code":44},"5501":{"zip_code":"8795501","prefecture":"大分県","prefecture_kana":"オオイタケン","city":"由布市","city_kana":"ユフシ","town":"挾間町鬼崎","town_kana":"ハサママチオニザキ","prefecture_code":44},"5522":{"zip_code":"8795522","prefecture":"大分県","prefecture_kana":"オオイタケン","city":"由布市","city_kana":"ユフシ","town":"挾間町小野","town_kana":"ハサママチオノ","prefecture_code":44},"5518":{"zip_code":"8795518","prefecture":"大分県","prefecture_kana":"オオイタケン","city":"由布市","city_kana":"ユフシ","town":"挾間町北方","town_kana":"ハサママチキタガタ","prefecture_code":44},"5512":{"zip_code":"8795512","prefecture":"大分県","prefecture_kana":"オオイタケン","city":"由布市","city_kana":"ユフシ","town":"挾間町来鉢","town_kana":"ハサママチクバチ","prefecture_code":44},"5523":{"zip_code":"8795523","prefecture":"大分県","prefecture_kana":"オオイタケン","city":"由布市","city_kana":"ユフシ","town":"挾間町篠原","town_kana":"ハサママチシノハラ","prefecture_code":44},"5504":{"zip_code":"8795504","prefecture":"大分県","prefecture_kana":"オオイタケン","city":"由布市","city_kana":"ユフシ","town":"挾間町下市","town_kana":"ハサママチシモイチ","prefecture_code":44},"5513":{"zip_code":"8795513","prefecture":"大分県","prefecture_kana":"オオイタケン","city":"由布市","city_kana":"ユフシ","town":"挾間町高崎","town_kana":"ハサママチタカザキ","prefecture_code":44},"5519":{"zip_code":"8795519","prefecture":"大分県","prefecture_kana":"オオイタケン","city":"由布市","city_kana":"ユフシ","town":"挾間町田代","town_kana":"ハサママチタシロ","prefecture_code":44},"5531":{"zip_code":"8795531","prefecture":"大分県","prefecture_kana":"オオイタケン","city":"由布市","city_kana":"ユフシ","town":"挾間町谷","town_kana":"ハサママチタニ","prefecture_code":44},"5532":{"zip_code":"8795532","prefecture":"大分県","prefecture_kana":"オオイタケン","city":"由布市","city_kana":"ユフシ","town":"挾間町筒口","town_kana":"ハサママチツツグチ","prefecture_code":44},"5510":{"zip_code":"8795510","prefecture":"大分県","prefecture_kana":"オオイタケン","city":"由布市","city_kana":"ユフシ","town":"挾間町東院","town_kana":"ハサママチトイ","prefecture_code":44},"5524":{"zip_code":"8795524","prefecture":"大分県","prefecture_kana":"オオイタケン","city":"由布市","city_kana":"ユフシ","town":"挾間町時松","town_kana":"ハサママチトキマツ","prefecture_code":44},"5514":{"zip_code":"8795514","prefecture":"大分県","prefecture_kana":"オオイタケン","city":"由布市","city_kana":"ユフシ","town":"挾間町七蔵司","town_kana":"ハサママチナナゾウシ","prefecture_code":44},"5506":{"zip_code":"8795506","prefecture":"大分県","prefecture_kana":"オオイタケン","city":"由布市","city_kana":"ユフシ","town":"挾間町挾間","town_kana":"ハサママチハサマ","prefecture_code":44},"5511":{"zip_code":"8795511","prefecture":"大分県","prefecture_kana":"オオイタケン","city":"由布市","city_kana":"ユフシ","town":"挾間町古野","town_kana":"ハサママチフルノ","prefecture_code":44},"5525":{"zip_code":"8795525","prefecture":"大分県","prefecture_kana":"オオイタケン","city":"由布市","city_kana":"ユフシ","town":"挾間町朴木","town_kana":"ハサママチホオノキ","prefecture_code":44},"5515":{"zip_code":"8795515","prefecture":"大分県","prefecture_kana":"オオイタケン","city":"由布市","city_kana":"ユフシ","town":"挾間町三船","town_kana":"ハサママチミフネ","prefecture_code":44},"5502":{"zip_code":"8795502","prefecture":"大分県","prefecture_kana":"オオイタケン","city":"由布市","city_kana":"ユフシ","town":"挾間町向原","town_kana":"ハサママチムカイノハル","prefecture_code":44},"5102":{"zip_code":"8795102","prefecture":"大分県","prefecture_kana":"オオイタケン","city":"由布市","city_kana":"ユフシ","town":"湯布院町川上","town_kana":"ユフインチョウカワカミ","prefecture_code":44},"5114":{"zip_code":"8795114","prefecture":"大分県","prefecture_kana":"オオイタケン","city":"由布市","city_kana":"ユフシ","town":"湯布院町川北","town_kana":"ユフインチョウカワキタ","prefecture_code":44},"5113":{"zip_code":"8795113","prefecture":"大分県","prefecture_kana":"オオイタケン","city":"由布市","city_kana":"ユフシ","town":"湯布院町川西","town_kana":"ユフインチョウカワニシ","prefecture_code":44},"5103":{"zip_code":"8795103","prefecture":"大分県","prefecture_kana":"オオイタケン","city":"由布市","city_kana":"ユフシ","town":"湯布院町川南","town_kana":"ユフインチョウカワミナミ","prefecture_code":44},"5111":{"zip_code":"8795111","prefecture":"大分県","prefecture_kana":"オオイタケン","city":"由布市","city_kana":"ユフシ","town":"湯布院町下湯平","town_kana":"ユフインチョウシモユノヒラ","prefecture_code":44},"5101":{"zip_code":"8795101","prefecture":"大分県","prefecture_kana":"オオイタケン","city":"由布市","city_kana":"ユフシ","town":"湯布院町塚原","town_kana":"ユフインチョウツカワラ","prefecture_code":44},"5104":{"zip_code":"8795104","prefecture":"大分県","prefecture_kana":"オオイタケン","city":"由布市","city_kana":"ユフシ","town":"湯布院町中川","town_kana":"ユフインチョウナカガワ","prefecture_code":44},"5112":{"zip_code":"8795112","prefecture":"大分県","prefecture_kana":"オオイタケン","city":"由布市","city_kana":"ユフシ","town":"湯布院町湯平","town_kana":"ユフインチョウユノヒラ","prefecture_code":44},"1500":{"zip_code":"8791500","prefecture":"大分県","prefecture_kana":"オオイタケン","city":"速見郡日出町","city_kana":"ハヤミグンヒジマチ","town":"","town_kana":"","prefecture_code":44},"1506":{"zip_code":"8791506","prefecture":"大分県","prefecture_kana":"オオイタケン","city":"速見郡日出町","city_kana":"ハヤミグンヒジマチ","town":"","town_kana":"","prefecture_code":44},"1504":{"zip_code":"8791504","prefecture":"大分県","prefecture_kana":"オオイタケン","city":"速見郡日出町","city_kana":"ハヤミグンヒジマチ","town":"大神","town_kana":"オオガ","prefecture_code":44},"1505":{"zip_code":"8791505","prefecture":"大分県","prefecture_kana":"オオイタケン","city":"速見郡日出町","city_kana":"ハヤミグンヒジマチ","town":"川崎","town_kana":"カワサキ","prefecture_code":44},"1507":{"zip_code":"8791507","prefecture":"大分県","prefecture_kana":"オオイタケン","city":"速見郡日出町","city_kana":"ハヤミグンヒジマチ","town":"豊岡","town_kana":"トヨオカ","prefecture_code":44},"1508":{"zip_code":"8791508","prefecture":"大分県","prefecture_kana":"オオイタケン","city":"速見郡日出町","city_kana":"ハヤミグンヒジマチ","town":"平道","town_kana":"ヒラミチ","prefecture_code":44},"1501":{"zip_code":"8791501","prefecture":"大分県","prefecture_kana":"オオイタケン","city":"速見郡日出町","city_kana":"ハヤミグンヒジマチ","town":"広瀬","town_kana":"ヒロセ","prefecture_code":44},"1502":{"zip_code":"8791502","prefecture":"大分県","prefecture_kana":"オオイタケン","city":"速見郡日出町","city_kana":"ハヤミグンヒジマチ","town":"藤原","town_kana":"フジワラ","prefecture_code":44},"1503":{"zip_code":"8791503","prefecture":"大分県","prefecture_kana":"オオイタケン","city":"速見郡日出町","city_kana":"ハヤミグンヒジマチ","town":"真那井","town_kana":"マナイ","prefecture_code":44},"1509":{"zip_code":"8791509","prefecture":"大分県","prefecture_kana":"オオイタケン","city":"速見郡日出町","city_kana":"ハヤミグンヒジマチ","town":"南畑","town_kana":"ミナミハタ","prefecture_code":44},"4800":{"zip_code":"8794800","prefecture":"大分県","prefecture_kana":"オオイタケン","city":"玖珠郡九重町","city_kana":"クスグンココノエマチ","town":"","town_kana":"","prefecture_code":44},"4721":{"zip_code":"8794721","prefecture":"大分県","prefecture_kana":"オオイタケン","city":"玖珠郡九重町","city_kana":"クスグンココノエマチ","town":"粟野","town_kana":"アワノ","prefecture_code":44},"4803":{"zip_code":"8794803","prefecture":"大分県","prefecture_kana":"オオイタケン","city":"玖珠郡九重町","city_kana":"クスグンココノエマチ","town":"後野上","town_kana":"ウシロノガミ","prefecture_code":44},"4631":{"zip_code":"8794631","prefecture":"大分県","prefecture_kana":"オオイタケン","city":"玖珠郡九重町","city_kana":"クスグンココノエマチ","town":"恵良","town_kana":"エラ","prefecture_code":44},"4724":{"zip_code":"8794724","prefecture":"大分県","prefecture_kana":"オオイタケン","city":"玖珠郡九重町","city_kana":"クスグンココノエマチ","town":"菅原","town_kana":"スガワラ","prefecture_code":44},"4911":{"zip_code":"8794911","prefecture":"大分県","prefecture_kana":"オオイタケン","city":"玖珠郡九重町","city_kana":"クスグンココノエマチ","town":"田野","town_kana":"タノ","prefecture_code":44},"4802":{"zip_code":"8794802","prefecture":"大分県","prefecture_kana":"オオイタケン","city":"玖珠郡九重町","city_kana":"クスグンココノエマチ","town":"野上","town_kana":"ノガミ","prefecture_code":44},"4722":{"zip_code":"8794722","prefecture":"大分県","prefecture_kana":"オオイタケン","city":"玖珠郡九重町","city_kana":"クスグンココノエマチ","town":"引治","town_kana":"ヒキジ","prefecture_code":44},"4723":{"zip_code":"8794723","prefecture":"大分県","prefecture_kana":"オオイタケン","city":"玖珠郡九重町","city_kana":"クスグンココノエマチ","town":"町田","town_kana":"マチダ","prefecture_code":44},"4632":{"zip_code":"8794632","prefecture":"大分県","prefecture_kana":"オオイタケン","city":"玖珠郡九重町","city_kana":"クスグンココノエマチ","town":"松木","town_kana":"マツギ","prefecture_code":44},"4801":{"zip_code":"8794801","prefecture":"大分県","prefecture_kana":"オオイタケン","city":"玖珠郡九重町","city_kana":"クスグンココノエマチ","town":"右田","town_kana":"ミギタ","prefecture_code":44},"4601":{"zip_code":"8794601","prefecture":"大分県","prefecture_kana":"オオイタケン","city":"玖珠郡九重町","city_kana":"クスグンココノエマチ","town":"右田","town_kana":"ミギタ","prefecture_code":44},"4912":{"zip_code":"8794912","prefecture":"大分県","prefecture_kana":"オオイタケン","city":"玖珠郡九重町","city_kana":"クスグンココノエマチ","town":"湯坪","town_kana":"ユツボ","prefecture_code":44},"4400":{"zip_code":"8794400","prefecture":"大分県","prefecture_kana":"オオイタケン","city":"玖珠郡玖珠町","city_kana":"クスグンクスマチ","town":"","town_kana":"","prefecture_code":44},"4402":{"zip_code":"8794402","prefecture":"大分県","prefecture_kana":"オオイタケン","city":"玖珠郡玖珠町","city_kana":"クスグンクスマチ","town":"綾垣","town_kana":"アヤガキ","prefecture_code":44},"4405":{"zip_code":"8794405","prefecture":"大分県","prefecture_kana":"オオイタケン","city":"玖珠郡玖珠町","city_kana":"クスグンクスマチ","town":"岩室","town_kana":"イワムロ","prefecture_code":44},"4414":{"zip_code":"8794414","prefecture":"大分県","prefecture_kana":"オオイタケン","city":"玖珠郡玖珠町","city_kana":"クスグンクスマチ","town":"大隈","town_kana":"オオクマ","prefecture_code":44},"4521":{"zip_code":"8794521","prefecture":"大分県","prefecture_kana":"オオイタケン","city":"玖珠郡玖珠町","city_kana":"クスグンクスマチ","town":"太田","town_kana":"オオタ","prefecture_code":44},"4411":{"zip_code":"8794411","prefecture":"大分県","prefecture_kana":"オオイタケン","city":"玖珠郡玖珠町","city_kana":"クスグンクスマチ","town":"小田","town_kana":"オタ","prefecture_code":44},"4523":{"zip_code":"8794523","prefecture":"大分県","prefecture_kana":"オオイタケン","city":"玖珠郡玖珠町","city_kana":"クスグンクスマチ","town":"古後","town_kana":"コゴ","prefecture_code":44},"4413":{"zip_code":"8794413","prefecture":"大分県","prefecture_kana":"オオイタケン","city":"玖珠郡玖珠町","city_kana":"クスグンクスマチ","town":"塚脇","town_kana":"ツカワキ","prefecture_code":44},"4331":{"zip_code":"8794331","prefecture":"大分県","prefecture_kana":"オオイタケン","city":"玖珠郡玖珠町","city_kana":"クスグンクスマチ","town":"戸畑","town_kana":"トバタ","prefecture_code":44},"4406":{"zip_code":"8794406","prefecture":"大分県","prefecture_kana":"オオイタケン","city":"玖珠郡玖珠町","city_kana":"クスグンクスマチ","town":"日出生","town_kana":"ヒジウ","prefecture_code":44},"4403":{"zip_code":"8794403","prefecture":"大分県","prefecture_kana":"オオイタケン","city":"玖珠郡玖珠町","city_kana":"クスグンクスマチ","town":"帆足","town_kana":"ホアシ","prefecture_code":44},"4404":{"zip_code":"8794404","prefecture":"大分県","prefecture_kana":"オオイタケン","city":"玖珠郡玖珠町","city_kana":"クスグンクスマチ","town":"森","town_kana":"モリ","prefecture_code":44},"4332":[{"zip_code":"8794332","prefecture":"大分県","prefecture_kana":"オオイタケン","city":"玖珠郡玖珠町","city_kana":"クスグンクスマチ","town":"山浦秋畑","town_kana":"ヤマウラアキハタ","prefecture_code":44},{"zip_code":"8794332","prefecture":"大分県","prefecture_kana":"オオイタケン","city":"玖珠郡玖珠町","city_kana":"クスグンクスマチ","town":"山浦荻原","town_kana":"ヤマウラオギワラ","prefecture_code":44},{"zip_code":"8794332","prefecture":"大分県","prefecture_kana":"オオイタケン","city":"玖珠郡玖珠町","city_kana":"クスグンクスマチ","town":"山浦下園","town_kana":"ヤマウラシモソノ","prefecture_code":44},{"zip_code":"8794332","prefecture":"大分県","prefecture_kana":"オオイタケン","city":"玖珠郡玖珠町","city_kana":"クスグンクスマチ","town":"山浦下ノ寺","town_kana":"ヤマウラシモノテラ","prefecture_code":44},{"zip_code":"8794332","prefecture":"大分県","prefecture_kana":"オオイタケン","city":"玖珠郡玖珠町","city_kana":"クスグンクスマチ","town":"山浦杉河内","town_kana":"ヤマウラスギカワチ","prefecture_code":44},{"zip_code":"8794332","prefecture":"大分県","prefecture_kana":"オオイタケン","city":"玖珠郡玖珠町","city_kana":"クスグンクスマチ","town":"山浦千重","town_kana":"ヤマウラセンシュウ","prefecture_code":44},{"zip_code":"8794332","prefecture":"大分県","prefecture_kana":"オオイタケン","city":"玖珠郡玖珠町","city_kana":"クスグンクスマチ","town":"山浦早水","town_kana":"ヤマウラソウズ","prefecture_code":44},{"zip_code":"8794332","prefecture":"大分県","prefecture_kana":"オオイタケン","city":"玖珠郡玖珠町","city_kana":"クスグンクスマチ","town":"山浦中野","town_kana":"ヤマウラナカノ","prefecture_code":44},{"zip_code":"8794332","prefecture":"大分県","prefecture_kana":"オオイタケン","city":"玖珠郡玖珠町","city_kana":"クスグンクスマチ","town":"山浦中泊里","town_kana":"ヤマウラナカヅマリ","prefecture_code":44},{"zip_code":"8794332","prefecture":"大分県","prefecture_kana":"オオイタケン","city":"玖珠郡玖珠町","city_kana":"クスグンクスマチ","town":"山浦花香","town_kana":"ヤマウラハナガ","prefecture_code":44},{"zip_code":"8794332","prefecture":"大分県","prefecture_kana":"オオイタケン","city":"玖珠郡玖珠町","city_kana":"クスグンクスマチ","town":"山浦牧場","town_kana":"ヤマウラボクジョウ","prefecture_code":44}],"4732":[{"zip_code":"8794732","prefecture":"大分県","prefecture_kana":"オオイタケン","city":"玖珠郡玖珠町","city_kana":"クスグンクスマチ","town":"山浦第一大原野","town_kana":"ヤマウラダイ1ダイゲンヤ","prefecture_code":44},{"zip_code":"8794732","prefecture":"大分県","prefecture_kana":"オオイタケン","city":"玖珠郡玖珠町","city_kana":"クスグンクスマチ","town":"山浦第二大原野","town_kana":"ヤマウラダイ2ダイゲンヤ","prefecture_code":44},{"zip_code":"8794732","prefecture":"大分県","prefecture_kana":"オオイタケン","city":"玖珠郡玖珠町","city_kana":"クスグンクスマチ","town":"山浦阿蘇釣","town_kana":"ヤマウラアソヅル","prefecture_code":44}],"4522":{"zip_code":"8794522","prefecture":"大分県","prefecture_kana":"オオイタケン","city":"玖珠郡玖珠町","city_kana":"クスグンクスマチ","town":"山下","town_kana":"ヤマシタ","prefecture_code":44},"4412":{"zip_code":"8794412","prefecture":"大分県","prefecture_kana":"オオイタケン","city":"玖珠郡玖珠町","city_kana":"クスグンクスマチ","town":"山田","town_kana":"ヤマダ","prefecture_code":44},"4401":{"zip_code":"8794401","prefecture":"大分県","prefecture_kana":"オオイタケン","city":"玖珠郡玖珠町","city_kana":"クスグンクスマチ","town":"四日市","town_kana":"ヨッカイチ","prefecture_code":44},"4301":{"zip_code":"8794301","prefecture":"大分県","prefecture_kana":"オオイタケン","city":"玖珠郡玖珠町","city_kana":"クスグンクスマチ","town":"四日市","town_kana":"ヨッカイチ","prefecture_code":44}}