{"0000":{"zip_code":"8800000","prefecture":"宮崎県","prefecture_kana":"ミヤザキケン","city":"宮崎市","city_kana":"ミヤザキシ","town":"","town_kana":"","prefecture_code":45},"0842":{"zip_code":"8800842","prefecture":"宮崎県","prefecture_kana":"ミヤザキケン","city":"宮崎市","city_kana":"ミヤザキシ","town":"青葉町","town_kana":"アオバチョウ","prefecture_code":45},"0912":{"zip_code":"8800912","prefecture":"宮崎県","prefecture_kana":"ミヤザキケン","city":"宮崎市","city_kana":"ミヤザキシ","town":"赤江","town_kana":"アカエ","prefecture_code":45},"0803":{"zip_code":"8800803","prefecture":"宮崎県","prefecture_kana":"ミヤザキケン","city":"宮崎市","city_kana":"ミヤザキシ","town":"旭","town_kana":"アサヒ","prefecture_code":45},"0864":{"zip_code":"8800864","prefecture":"宮崎県","prefecture_kana":"ミヤザキケン","city":"宮崎市","city_kana":"ミヤザキシ","town":"吾妻町","town_kana":"アヅマチョウ","prefecture_code":45},"2101":{"zip_code":"8802101","prefecture":"宮崎県","prefecture_kana":"ミヤザキケン","city":"宮崎市","city_kana":"ミヤザキシ","town":"跡江","town_kana":"アトエ","prefecture_code":45},"2102":{"zip_code":"8802102","prefecture":"宮崎県","prefecture_kana":"ミヤザキケン","city":"宮崎市","city_kana":"ミヤザキシ","town":"有田","town_kana":"アリタ","prefecture_code":45},"0835":{"zip_code":"8800835","prefecture":"宮崎県","prefecture_kana":"ミヤザキケン","city":"宮崎市","city_kana":"ミヤザキシ","town":"阿波岐原町","town_kana":"アワギガハラチョウ","prefecture_code":45},"2103":{"zip_code":"8802103","prefecture":"宮崎県","prefecture_kana":"ミヤザキケン","city":"宮崎市","city_kana":"ミヤザキシ","town":"生目","town_kana":"イキメ","prefecture_code":45},"0942":{"zip_code":"8800942","prefecture":"宮崎県","prefecture_kana":"ミヤザキケン","city":"宮崎市","city_kana":"ミヤザキシ","town":"生目台東","town_kana":"イキメダイヒガシ","prefecture_code":45},"0943":{"zip_code":"8800943","prefecture":"宮崎県","prefecture_kana":"ミヤザキケン","city":"宮崎市","city_kana":"ミヤザキシ","town":"生目台西","town_kana":"イキメダイニシ","prefecture_code":45},"0041":{"zip_code":"8800041","prefecture":"宮崎県","prefecture_kana":"ミヤザキケン","city":"宮崎市","city_kana":"ミヤザキシ","town":"池内町","town_kana":"イケウチチョウ","prefecture_code":45},"0854":{"zip_code":"8800854","prefecture":"宮崎県","prefecture_kana":"ミヤザキケン","city":"宮崎市","city_kana":"ミヤザキシ","town":"一の宮町","town_kana":"イチノミヤチョウ","prefecture_code":45},"2231":{"zip_code":"8802231","prefecture":"宮崎県","prefecture_kana":"ミヤザキケン","city":"宮崎市","city_kana":"ミヤザキシ","town":"糸原","town_kana":"イトバル","prefecture_code":45},"2104":{"zip_code":"8802104","prefecture":"宮崎県","prefecture_kana":"ミヤザキケン","city":"宮崎市","city_kana":"ミヤザキシ","town":"浮田","town_kana":"ウキタ","prefecture_code":45},"0821":{"zip_code":"8800821","prefecture":"宮崎県","prefecture_kana":"ミヤザキケン","city":"宮崎市","city_kana":"ミヤザキシ","town":"浮城町","town_kana":"ウキノジョウチョウ","prefecture_code":45},"0344":[{"zip_code":"8800344","prefecture":"宮崎県","prefecture_kana":"ミヤザキケン","city":"宮崎市","city_kana":"ミヤザキシ","town":"瓜生野","town_kana":"ウリュウノ","prefecture_code":45},{"zip_code":"8800344","prefecture":"宮崎県","prefecture_kana":"ミヤザキケン","city":"宮崎市","city_kana":"ミヤザキシ","town":"瓜生野下畑","town_kana":"ウリュウノシモハタ","prefecture_code":45}],"0044":{"zip_code":"8800044","prefecture":"宮崎県","prefecture_kana":"ミヤザキケン","city":"宮崎市","city_kana":"ミヤザキシ","town":"瓜生野","town_kana":"ウリュウノ","prefecture_code":45},"0872":{"zip_code":"8800872","prefecture":"宮崎県","prefecture_kana":"ミヤザキケン","city":"宮崎市","city_kana":"ミヤザキシ","town":"永楽町","town_kana":"エイラクチョウ","prefecture_code":45},"0814":{"zip_code":"8800814","prefecture":"宮崎県","prefecture_kana":"ミヤザキケン","city":"宮崎市","city_kana":"ミヤザキシ","town":"江平中町","town_kana":"エヒラナカマチ","prefecture_code":45},"0817":{"zip_code":"8800817","prefecture":"宮崎県","prefecture_kana":"ミヤザキケン","city":"宮崎市","city_kana":"ミヤザキシ","town":"江平東町","town_kana":"エヒラヒガシマチ","prefecture_code":45},"0816":{"zip_code":"8800816","prefecture":"宮崎県","prefecture_kana":"ミヤザキケン","city":"宮崎市","city_kana":"ミヤザキシ","town":"江平東","town_kana":"エヒラヒガシ","prefecture_code":45},"0051":{"zip_code":"8800051","prefecture":"宮崎県","prefecture_kana":"ミヤザキケン","city":"宮崎市","city_kana":"ミヤザキシ","town":"江平西","town_kana":"エヒラニシ","prefecture_code":45},"0815":{"zip_code":"8800815","prefecture":"宮崎県","prefecture_kana":"ミヤザキケン","city":"宮崎市","city_kana":"ミヤザキシ","town":"江平町","town_kana":"エヒラチョウ","prefecture_code":45},"0801":{"zip_code":"8800801","prefecture":"宮崎県","prefecture_kana":"ミヤザキケン","city":"宮崎市","city_kana":"ミヤザキシ","town":"老松","town_kana":"オイマツ","prefecture_code":45},"0824":{"zip_code":"8800824","prefecture":"宮崎県","prefecture_kana":"ミヤザキケン","city":"宮崎市","city_kana":"ミヤザキシ","town":"大島町","town_kana":"オオシマチョウ","prefecture_code":45},"0345":[{"zip_code":"8800345","prefecture":"宮崎県","prefecture_kana":"ミヤザキケン","city":"宮崎市","city_kana":"ミヤザキシ","town":"大瀬町","town_kana":"オオセマチ","prefecture_code":45},{"zip_code":"8800345","prefecture":"宮崎県","prefecture_kana":"ミヤザキケン","city":"宮崎市","city_kana":"ミヤザキシ","town":"大瀬町上畑","town_kana":"オオセマチカミハタ","prefecture_code":45}],"0045":{"zip_code":"8800045","prefecture":"宮崎県","prefecture_kana":"ミヤザキケン","city":"宮崎市","city_kana":"ミヤザキシ","town":"大瀬町","town_kana":"オオセマチ","prefecture_code":45},"0903":{"zip_code":"8800903","prefecture":"宮崎県","prefecture_kana":"ミヤザキケン","city":"宮崎市","city_kana":"ミヤザキシ","town":"太田","town_kana":"オオタ","prefecture_code":45},"0952":{"zip_code":"8800952","prefecture":"宮崎県","prefecture_kana":"ミヤザキケン","city":"宮崎市","city_kana":"ミヤザキシ","town":"大塚台東","town_kana":"オオツカダイヒガシ","prefecture_code":45},"2105":{"zip_code":"8802105","prefecture":"宮崎県","prefecture_kana":"ミヤザキケン","city":"宮崎市","city_kana":"ミヤザキシ","town":"大塚台西","town_kana":"オオツカダイニシ","prefecture_code":45},"0951":{"zip_code":"8800951","prefecture":"宮崎県","prefecture_kana":"ミヤザキケン","city":"宮崎市","city_kana":"ミヤザキシ","town":"大塚町","town_kana":"オオツカチョウ","prefecture_code":45},"0933":{"zip_code":"8800933","prefecture":"宮崎県","prefecture_kana":"ミヤザキケン","city":"宮崎市","city_kana":"ミヤザキシ","town":"大坪町","town_kana":"オオツボチョウ","prefecture_code":45},"0934":{"zip_code":"8800934","prefecture":"宮崎県","prefecture_kana":"ミヤザキケン","city":"宮崎市","city_kana":"ミヤザキシ","town":"大坪東","town_kana":"オオツボヒガシ","prefecture_code":45},"0932":{"zip_code":"8800932","prefecture":"宮崎県","prefecture_kana":"ミヤザキケン","city":"宮崎市","city_kana":"ミヤザキシ","town":"大坪西","town_kana":"オオツボニシ","prefecture_code":45},"0022":{"zip_code":"8800022","prefecture":"宮崎県","prefecture_kana":"ミヤザキケン","city":"宮崎市","city_kana":"ミヤザキシ","town":"大橋","town_kana":"オオハシ","prefecture_code":45},"0902":{"zip_code":"8800902","prefecture":"宮崎県","prefecture_kana":"ミヤザキケン","city":"宮崎市","city_kana":"ミヤザキシ","town":"大淀","town_kana":"オオヨド","prefecture_code":45},"0857":{"zip_code":"8800857","prefecture":"宮崎県","prefecture_kana":"ミヤザキケン","city":"宮崎市","city_kana":"ミヤザキシ","town":"小戸町","town_kana":"オドチョウ","prefecture_code":45},"0947":{"zip_code":"8800947","prefecture":"宮崎県","prefecture_kana":"ミヤザキケン","city":"宮崎市","city_kana":"ミヤザキシ","town":"薫る坂","town_kana":"カオルザカ","prefecture_code":45},"2111":{"zip_code":"8802111","prefecture":"宮崎県","prefecture_kana":"ミヤザキケン","city":"宮崎市","city_kana":"ミヤザキシ","town":"柏原","town_kana":"カシワバル","prefecture_code":45},"2234":{"zip_code":"8802234","prefecture":"宮崎県","prefecture_kana":"ミヤザキケン","city":"宮崎市","city_kana":"ミヤザキシ","town":"金崎","town_kana":"カネザキ","prefecture_code":45},"0043":{"zip_code":"8800043","prefecture":"宮崎県","prefecture_kana":"ミヤザキケン","city":"宮崎市","city_kana":"ミヤザキシ","town":"上北方","town_kana":"カミキタカタ","prefecture_code":45},"0011":{"zip_code":"8800011","prefecture":"宮崎県","prefecture_kana":"ミヤザキケン","city":"宮崎市","city_kana":"ミヤザキシ","town":"上野町","town_kana":"カミノマチ","prefecture_code":45},"0866":{"zip_code":"8800866","prefecture":"宮崎県","prefecture_kana":"ミヤザキケン","city":"宮崎市","city_kana":"ミヤザキシ","town":"川原町","town_kana":"カワラマチ","prefecture_code":45},"0024":{"zip_code":"8800024","prefecture":"宮崎県","prefecture_kana":"ミヤザキケン","city":"宮崎市","city_kana":"ミヤザキシ","town":"祇園","town_kana":"ギオン","prefecture_code":45},"0941":{"zip_code":"8800941","prefecture":"宮崎県","prefecture_kana":"ミヤザキケン","city":"宮崎市","city_kana":"ミヤザキシ","town":"北川内町","town_kana":"キタカワウチチョウ","prefecture_code":45},"0823":{"zip_code":"8800823","prefecture":"宮崎県","prefecture_kana":"ミヤザキケン","city":"宮崎市","city_kana":"ミヤザキシ","town":"北権現町","town_kana":"キタゴンゲンチョウ","prefecture_code":45},"0017":{"zip_code":"8800017","prefecture":"宮崎県","prefecture_kana":"ミヤザキケン","city":"宮崎市","city_kana":"ミヤザキシ","town":"北高松町","town_kana":"キタタカマツチョウ","prefecture_code":45},"0923":{"zip_code":"8800923","prefecture":"宮崎県","prefecture_kana":"ミヤザキケン","city":"宮崎市","city_kana":"ミヤザキシ","town":"希望ケ丘","town_kana":"キボウガオカ","prefecture_code":45},"0937":{"zip_code":"8800937","prefecture":"宮崎県","prefecture_kana":"ミヤザキケン","city":"宮崎市","city_kana":"ミヤザキシ","town":"京塚","town_kana":"キョウツカ","prefecture_code":45},"0938":{"zip_code":"8800938","prefecture":"宮崎県","prefecture_kana":"ミヤザキケン","city":"宮崎市","city_kana":"ミヤザキシ","town":"京塚町","town_kana":"キョウヅカチョウ","prefecture_code":45},"0032":{"zip_code":"8800032","prefecture":"宮崎県","prefecture_kana":"ミヤザキケン","city":"宮崎市","city_kana":"ミヤザキシ","town":"霧島","town_kana":"キリシマ","prefecture_code":45},"0924":{"zip_code":"8800924","prefecture":"宮崎県","prefecture_kana":"ミヤザキケン","city":"宮崎市","city_kana":"ミヤザキシ","town":"郡司分","town_kana":"グジブン","prefecture_code":45},"0927":{"zip_code":"8800927","prefecture":"宮崎県","prefecture_kana":"ミヤザキケン","city":"宮崎市","city_kana":"ミヤザキシ","town":"源藤町","town_kana":"ゲンドウチョウ","prefecture_code":45},"0944":{"zip_code":"8800944","prefecture":"宮崎県","prefecture_kana":"ミヤザキケン","city":"宮崎市","city_kana":"ミヤザキシ","town":"江南","town_kana":"コウナン","prefecture_code":45},"2112":{"zip_code":"8802112","prefecture":"宮崎県","prefecture_kana":"ミヤザキケン","city":"宮崎市","city_kana":"ミヤザキシ","town":"小松","town_kana":"コマツ","prefecture_code":45},"2113":{"zip_code":"8802113","prefecture":"宮崎県","prefecture_kana":"ミヤザキケン","city":"宮崎市","city_kana":"ミヤザキシ","town":"小松台北町","town_kana":"コマツダイキタマチ","prefecture_code":45},"0954":{"zip_code":"8800954","prefecture":"宮崎県","prefecture_kana":"ミヤザキケン","city":"宮崎市","city_kana":"ミヤザキシ","town":"小松台西","town_kana":"コマツダイニシ","prefecture_code":45},"0953":{"zip_code":"8800953","prefecture":"宮崎県","prefecture_kana":"ミヤザキケン","city":"宮崎市","city_kana":"ミヤザキシ","town":"小松台東","town_kana":"コマツダイヒガシ","prefecture_code":45},"0956":{"zip_code":"8800956","prefecture":"宮崎県","prefecture_kana":"ミヤザキケン","city":"宮崎市","city_kana":"ミヤザキシ","town":"小松台南町","town_kana":"コマツダイミナミマチ","prefecture_code":45},"0822":{"zip_code":"8800822","prefecture":"宮崎県","prefecture_kana":"ミヤザキケン","city":"宮崎市","city_kana":"ミヤザキシ","town":"権現町","town_kana":"ゴンゲンチョウ","prefecture_code":45},"0955":{"zip_code":"8800955","prefecture":"宮崎県","prefecture_kana":"ミヤザキケン","city":"宮崎市","city_kana":"ミヤザキシ","town":"桜ケ丘町","town_kana":"サクラガオカチョウ","prefecture_code":45},"0057":{"zip_code":"8800057","prefecture":"宮崎県","prefecture_kana":"ミヤザキケン","city":"宮崎市","city_kana":"ミヤザキシ","town":"桜町","town_kana":"サクラマチ","prefecture_code":45},"0213":{"zip_code":"8800213","prefecture":"宮崎県","prefecture_kana":"ミヤザキケン","city":"宮崎市","city_kana":"ミヤザキシ","town":"佐土原町石崎","town_kana":"サドワラチョウイシザキ","prefecture_code":45},"0301":{"zip_code":"8800301","prefecture":"宮崎県","prefecture_kana":"ミヤザキケン","city":"宮崎市","city_kana":"ミヤザキシ","town":"佐土原町上田島","town_kana":"サドワラチョウカミタジマ","prefecture_code":45},"0211":{"zip_code":"8800211","prefecture":"宮崎県","prefecture_kana":"ミヤザキケン","city":"宮崎市","city_kana":"ミヤザキシ","town":"佐土原町下田島","town_kana":"サドワラチョウシモタジマ","prefecture_code":45},"0204":{"zip_code":"8800204","prefecture":"宮崎県","prefecture_kana":"ミヤザキケン","city":"宮崎市","city_kana":"ミヤザキシ","town":"佐土原町下富田","town_kana":"サドワラチョウシモトンダ","prefecture_code":45},"0212":{"zip_code":"8800212","prefecture":"宮崎県","prefecture_kana":"ミヤザキケン","city":"宮崎市","city_kana":"ミヤザキシ","town":"佐土原町下那珂","town_kana":"サドワラチョウシモナカ","prefecture_code":45},"0302":{"zip_code":"8800302","prefecture":"宮崎県","prefecture_kana":"ミヤザキケン","city":"宮崎市","city_kana":"ミヤザキシ","town":"佐土原町西上那珂","town_kana":"サドワラチョウニシカミナカ","prefecture_code":45},"0303":{"zip_code":"8800303","prefecture":"宮崎県","prefecture_kana":"ミヤザキケン","city":"宮崎市","city_kana":"ミヤザキシ","town":"佐土原町東上那珂","town_kana":"サドワラチョウヒガシカミナカ","prefecture_code":45},"0214":{"zip_code":"8800214","prefecture":"宮崎県","prefecture_kana":"ミヤザキケン","city":"宮崎市","city_kana":"ミヤザキシ","town":"佐土原町松小路","town_kana":"サドワラチョウマツコウジ","prefecture_code":45},"0122":{"zip_code":"8800122","prefecture":"宮崎県","prefecture_kana":"ミヤザキケン","city":"宮崎市","city_kana":"ミヤザキシ","town":"塩路","town_kana":"シオジ","prefecture_code":45},"0862":{"zip_code":"8800862","prefecture":"宮崎県","prefecture_kana":"ミヤザキケン","city":"宮崎市","city_kana":"ミヤザキシ","town":"潮見町","town_kana":"シオミチョウ","prefecture_code":45},"0121":{"zip_code":"8800121","prefecture":"宮崎県","prefecture_kana":"ミヤザキケン","city":"宮崎市","city_kana":"ミヤザキシ","town":"島之内","town_kana":"シマノウチ","prefecture_code":45},"0021":{"zip_code":"8800021","prefecture":"宮崎県","prefecture_kana":"ミヤザキケン","city":"宮崎市","city_kana":"ミヤザキシ","town":"清水","town_kana":"シミズ","prefecture_code":45},"0035":{"zip_code":"8800035","prefecture":"宮崎県","prefecture_kana":"ミヤザキケン","city":"宮崎市","city_kana":"ミヤザキシ","town":"下北方町","town_kana":"シモキタカタマチ","prefecture_code":45},"0843":{"zip_code":"8800843","prefecture":"宮崎県","prefecture_kana":"ミヤザキケン","city":"宮崎市","city_kana":"ミヤザキシ","town":"下原町","town_kana":"シモハラチョウ","prefecture_code":45},"0833":{"zip_code":"8800833","prefecture":"宮崎県","prefecture_kana":"ミヤザキケン","city":"宮崎市","city_kana":"ミヤザキシ","town":"昭栄町","town_kana":"ショウエイチョウ","prefecture_code":45},"0917":{"zip_code":"8800917","prefecture":"宮崎県","prefecture_kana":"ミヤザキケン","city":"宮崎市","city_kana":"ミヤザキシ","town":"城ケ崎","town_kana":"ジョウガサキ","prefecture_code":45},"0876":{"zip_code":"8800876","prefecture":"宮崎県","prefecture_kana":"ミヤザキケン","city":"宮崎市","city_kana":"ミヤザキシ","town":"浄土江町","town_kana":"ジョウドエチョウ","prefecture_code":45},"0874":{"zip_code":"8800874","prefecture":"宮崎県","prefecture_kana":"ミヤザキケン","city":"宮崎市","city_kana":"ミヤザキシ","town":"昭和町","town_kana":"ショウワチョウ","prefecture_code":45},"0831":{"zip_code":"8800831","prefecture":"宮崎県","prefecture_kana":"ミヤザキケン","city":"宮崎市","city_kana":"ミヤザキシ","town":"新栄町","town_kana":"シンエイチョウ","prefecture_code":45},"0053":{"zip_code":"8800053","prefecture":"宮崎県","prefecture_kana":"ミヤザキケン","city":"宮崎市","city_kana":"ミヤザキシ","town":"神宮","town_kana":"ジングウ","prefecture_code":45},"0033":{"zip_code":"8800033","prefecture":"宮崎県","prefecture_kana":"ミヤザキケン","city":"宮崎市","city_kana":"ミヤザキシ","town":"神宮西","town_kana":"ジングウニシ","prefecture_code":45},"0056":{"zip_code":"8800056","prefecture":"宮崎県","prefecture_kana":"ミヤザキケン","city":"宮崎市","city_kana":"ミヤザキシ","town":"神宮東","town_kana":"ジングウヒガシ","prefecture_code":45},"0054":{"zip_code":"8800054","prefecture":"宮崎県","prefecture_kana":"ミヤザキケン","city":"宮崎市","city_kana":"ミヤザキシ","town":"神宮町","town_kana":"ジングウチョウ","prefecture_code":45},"0845":{"zip_code":"8800845","prefecture":"宮崎県","prefecture_kana":"ミヤザキケン","city":"宮崎市","city_kana":"ミヤザキシ","town":"新城町","town_kana":"シンジョウチョウ","prefecture_code":45},"0834":{"zip_code":"8800834","prefecture":"宮崎県","prefecture_kana":"ミヤザキケン","city":"宮崎市","city_kana":"ミヤザキシ","town":"新別府町","town_kana":"シンベップチョウ","prefecture_code":45},"0012":{"zip_code":"8800012","prefecture":"宮崎県","prefecture_kana":"ミヤザキケン","city":"宮崎市","city_kana":"ミヤザキシ","town":"末広","town_kana":"スエヒロ","prefecture_code":45},"0867":{"zip_code":"8800867","prefecture":"宮崎県","prefecture_kana":"ミヤザキケン","city":"宮崎市","city_kana":"ミヤザキシ","town":"瀬頭","town_kana":"セガシラ","prefecture_code":45},"0868":{"zip_code":"8800868","prefecture":"宮崎県","prefecture_kana":"ミヤザキケン","city":"宮崎市","city_kana":"ミヤザキシ","town":"瀬頭町","town_kana":"セガシラチョウ","prefecture_code":45},"0875":{"zip_code":"8800875","prefecture":"宮崎県","prefecture_kana":"ミヤザキケン","city":"宮崎市","city_kana":"ミヤザキシ","town":"曽師町","town_kana":"ソシチョウ","prefecture_code":45},"0871":{"zip_code":"8800871","prefecture":"宮崎県","prefecture_kana":"ミヤザキケン","city":"宮崎市","city_kana":"ミヤザキシ","town":"大王町","town_kana":"ダイオウチョウ","prefecture_code":45},"0015":{"zip_code":"8800015","prefecture":"宮崎県","prefecture_kana":"ミヤザキケン","city":"宮崎市","city_kana":"ミヤザキシ","town":"大工","town_kana":"ダイク","prefecture_code":45},"2224":{"zip_code":"8802224","prefecture":"宮崎県","prefecture_kana":"ミヤザキケン","city":"宮崎市","city_kana":"ミヤザキシ","town":"高岡町飯田","town_kana":"タカオカチョウイイダ","prefecture_code":45},"2221":{"zip_code":"8802221","prefecture":"宮崎県","prefecture_kana":"ミヤザキケン","city":"宮崎市","city_kana":"ミヤザキシ","town":"高岡町内山","town_kana":"タカオカチョウウチヤマ","prefecture_code":45},"2321":{"zip_code":"8802321","prefecture":"宮崎県","prefecture_kana":"ミヤザキケン","city":"宮崎市","city_kana":"ミヤザキシ","town":"高岡町内山","town_kana":"タカオカチョウウチヤマ","prefecture_code":45},"2223":{"zip_code":"8802223","prefecture":"宮崎県","prefecture_kana":"ミヤザキケン","city":"宮崎市","city_kana":"ミヤザキシ","town":"高岡町浦之名","town_kana":"タカオカチョウウラノミョウ","prefecture_code":45},"2323":{"zip_code":"8802323","prefecture":"宮崎県","prefecture_kana":"ミヤザキケン","city":"宮崎市","city_kana":"ミヤザキシ","town":"高岡町浦之名","town_kana":"タカオカチョウウラノミョウ","prefecture_code":45},"2214":{"zip_code":"8802214","prefecture":"宮崎県","prefecture_kana":"ミヤザキケン","city":"宮崎市","city_kana":"ミヤザキシ","town":"高岡町小山田","town_kana":"タカオカチョウオヤマダ","prefecture_code":45},"2213":{"zip_code":"8802213","prefecture":"宮崎県","prefecture_kana":"ミヤザキケン","city":"宮崎市","city_kana":"ミヤザキシ","town":"高岡町上倉永","town_kana":"タカオカチョウカミクラナガ","prefecture_code":45},"2325":{"zip_code":"8802325","prefecture":"宮崎県","prefecture_kana":"ミヤザキケン","city":"宮崎市","city_kana":"ミヤザキシ","town":"高岡町紙屋","town_kana":"タカオカチョウカミヤ","prefecture_code":45},"2222":{"zip_code":"8802222","prefecture":"宮崎県","prefecture_kana":"ミヤザキケン","city":"宮崎市","city_kana":"ミヤザキシ","town":"高岡町五町","town_kana":"タカオカチョウゴチョウ","prefecture_code":45},"2322":{"zip_code":"8802322","prefecture":"宮崎県","prefecture_kana":"ミヤザキケン","city":"宮崎市","city_kana":"ミヤザキシ","town":"高岡町五町","town_kana":"タカオカチョウゴチョウ","prefecture_code":45},"2212":{"zip_code":"8802212","prefecture":"宮崎県","prefecture_kana":"ミヤザキケン","city":"宮崎市","city_kana":"ミヤザキシ","town":"高岡町下倉永","town_kana":"タカオカチョウシモクラナガ","prefecture_code":45},"2215":{"zip_code":"8802215","prefecture":"宮崎県","prefecture_kana":"ミヤザキケン","city":"宮崎市","city_kana":"ミヤザキシ","town":"高岡町高浜","town_kana":"タカオカチョウタカハマ","prefecture_code":45},"2211":{"zip_code":"8802211","prefecture":"宮崎県","prefecture_kana":"ミヤザキケン","city":"宮崎市","city_kana":"ミヤザキシ","town":"高岡町花見","town_kana":"タカオカチョウハナミ","prefecture_code":45},"0852":{"zip_code":"8800852","prefecture":"宮崎県","prefecture_kana":"ミヤザキケン","city":"宮崎市","city_kana":"ミヤザキシ","town":"高洲町","town_kana":"タカスチョウ","prefecture_code":45},"0812":{"zip_code":"8800812","prefecture":"宮崎県","prefecture_kana":"ミヤザキケン","city":"宮崎市","city_kana":"ミヤザキシ","town":"高千穂通","town_kana":"タカチホドオリ","prefecture_code":45},"0003":{"zip_code":"8800003","prefecture":"宮崎県","prefecture_kana":"ミヤザキケン","city":"宮崎市","city_kana":"ミヤザキシ","town":"高松町","town_kana":"タカマツチョウ","prefecture_code":45},"0855":{"zip_code":"8800855","prefecture":"宮崎県","prefecture_kana":"ミヤザキケン","city":"宮崎市","city_kana":"ミヤザキシ","town":"田代町","town_kana":"タシロチョウ","prefecture_code":45},"0001":{"zip_code":"8800001","prefecture":"宮崎県","prefecture_kana":"ミヤザキケン","city":"宮崎市","city_kana":"ミヤザキシ","town":"橘通西","town_kana":"タチバナドオリニシ","prefecture_code":45},"0805":{"zip_code":"8800805","prefecture":"宮崎県","prefecture_kana":"ミヤザキケン","city":"宮崎市","city_kana":"ミヤザキシ","town":"橘通東","town_kana":"タチバナドオリヒガシ","prefecture_code":45},"0908":{"zip_code":"8800908","prefecture":"宮崎県","prefecture_kana":"ミヤザキケン","city":"宮崎市","city_kana":"ミヤザキシ","town":"谷川","town_kana":"タニガワ","prefecture_code":45},"0909":{"zip_code":"8800909","prefecture":"宮崎県","prefecture_kana":"ミヤザキケン","city":"宮崎市","city_kana":"ミヤザキシ","town":"谷川町","town_kana":"タニガワチョウ","prefecture_code":45},"0911":{"zip_code":"8800911","prefecture":"宮崎県","prefecture_kana":"ミヤザキケン","city":"宮崎市","city_kana":"ミヤザキシ","town":"田吉","town_kana":"タヨシ","prefecture_code":45},"0006":{"zip_code":"8800006","prefecture":"宮崎県","prefecture_kana":"ミヤザキケン","city":"宮崎市","city_kana":"ミヤザキシ","town":"千草町","town_kana":"チグサチョウ","prefecture_code":45},"0002":{"zip_code":"8800002","prefecture":"宮崎県","prefecture_kana":"ミヤザキケン","city":"宮崎市","city_kana":"ミヤザキシ","town":"中央通","town_kana":"チュウオウドオリ","prefecture_code":45},"0926":{"zip_code":"8800926","prefecture":"宮崎県","prefecture_kana":"ミヤザキケン","city":"宮崎市","city_kana":"ミヤザキシ","town":"月見ケ丘","town_kana":"ツキミガオカ","prefecture_code":45},"2232":{"zip_code":"8802232","prefecture":"宮崎県","prefecture_kana":"ミヤザキケン","city":"宮崎市","city_kana":"ミヤザキシ","town":"堤内","town_kana":"ツツミウチ","prefecture_code":45},"0913":{"zip_code":"8800913","prefecture":"宮崎県","prefecture_kana":"ミヤザキケン","city":"宮崎市","city_kana":"ミヤザキシ","town":"恒久","town_kana":"ツネヒサ","prefecture_code":45},"0916":{"zip_code":"8800916","prefecture":"宮崎県","prefecture_kana":"ミヤザキケン","city":"宮崎市","city_kana":"ミヤザキシ","town":"恒久","town_kana":"ツネヒサ","prefecture_code":45},"0915":{"zip_code":"8800915","prefecture":"宮崎県","prefecture_kana":"ミヤザキケン","city":"宮崎市","city_kana":"ミヤザキシ","town":"恒久南","town_kana":"ツネヒサミナミ","prefecture_code":45},"0014":{"zip_code":"8800014","prefecture":"宮崎県","prefecture_kana":"ミヤザキケン","city":"宮崎市","city_kana":"ミヤザキシ","town":"鶴島","town_kana":"ツルノシマ","prefecture_code":45},"0861":{"zip_code":"8800861","prefecture":"宮崎県","prefecture_kana":"ミヤザキケン","city":"宮崎市","city_kana":"ミヤザキシ","town":"出来島町","town_kana":"デキジマチョウ","prefecture_code":45},"0936":{"zip_code":"8800936","prefecture":"宮崎県","prefecture_kana":"ミヤザキケン","city":"宮崎市","city_kana":"ミヤザキシ","town":"天満","town_kana":"テンマン","prefecture_code":45},"0935":{"zip_code":"8800935","prefecture":"宮崎県","prefecture_kana":"ミヤザキケン","city":"宮崎市","city_kana":"ミヤザキシ","town":"天満町","town_kana":"テンマンチョウ","prefecture_code":45},"0928":{"zip_code":"8800928","prefecture":"宮崎県","prefecture_kana":"ミヤザキケン","city":"宮崎市","city_kana":"ミヤザキシ","town":"東宮","town_kana":"トウグウ","prefecture_code":45},"2114":{"zip_code":"8802114","prefecture":"宮崎県","prefecture_kana":"ミヤザキケン","city":"宮崎市","city_kana":"ミヤザキシ","town":"富吉","town_kana":"トミヨシ","prefecture_code":45},"0025":{"zip_code":"8800025","prefecture":"宮崎県","prefecture_kana":"ミヤザキケン","city":"宮崎市","city_kana":"ミヤザキシ","town":"中津瀬町","town_kana":"ナカツセチョウ","prefecture_code":45},"0853":{"zip_code":"8800853","prefecture":"宮崎県","prefecture_kana":"ミヤザキケン","city":"宮崎市","city_kana":"ミヤザキシ","town":"中西町","town_kana":"ナカニシチョウ","prefecture_code":45},"0904":{"zip_code":"8800904","prefecture":"宮崎県","prefecture_kana":"ミヤザキケン","city":"宮崎市","city_kana":"ミヤザキシ","town":"中村東","town_kana":"ナカムラヒガシ","prefecture_code":45},"0905":{"zip_code":"8800905","prefecture":"宮崎県","prefecture_kana":"ミヤザキケン","city":"宮崎市","city_kana":"ミヤザキシ","town":"中村西","town_kana":"ナカムラニシ","prefecture_code":45},"2115":{"zip_code":"8802115","prefecture":"宮崎県","prefecture_kana":"ミヤザキケン","city":"宮崎市","city_kana":"ミヤザキシ","town":"長嶺","town_kana":"ナガミネ","prefecture_code":45},"0826":{"zip_code":"8800826","prefecture":"宮崎県","prefecture_kana":"ミヤザキケン","city":"宮崎市","city_kana":"ミヤザキシ","town":"波島","town_kana":"ナミシマ","prefecture_code":45},"0124":{"zip_code":"8800124","prefecture":"宮崎県","prefecture_kana":"ミヤザキケン","city":"宮崎市","city_kana":"ミヤザキシ","town":"新名爪","town_kana":"ニイナヅメ","prefecture_code":45},"0027":{"zip_code":"8800027","prefecture":"宮崎県","prefecture_kana":"ミヤザキケン","city":"宮崎市","city_kana":"ミヤザキシ","town":"西池町","town_kana":"ニシイケチョウ","prefecture_code":45},"0818":{"zip_code":"8800818","prefecture":"宮崎県","prefecture_kana":"ミヤザキケン","city":"宮崎市","city_kana":"ミヤザキシ","town":"錦本町","town_kana":"ニシキホンマチ","prefecture_code":45},"0811":{"zip_code":"8800811","prefecture":"宮崎県","prefecture_kana":"ミヤザキケン","city":"宮崎市","city_kana":"ミヤザキシ","town":"錦町","town_kana":"ニシキマチ","prefecture_code":45},"0016":{"zip_code":"8800016","prefecture":"宮崎県","prefecture_kana":"ミヤザキケン","city":"宮崎市","city_kana":"ミヤザキシ","town":"西高松町","town_kana":"ニシタカマツチョウ","prefecture_code":45},"0036":{"zip_code":"8800036","prefecture":"宮崎県","prefecture_kana":"ミヤザキケン","city":"宮崎市","city_kana":"ミヤザキシ","town":"花ケ島町","town_kana":"ハナガシマチョウ","prefecture_code":45},"0026":{"zip_code":"8800026","prefecture":"宮崎県","prefecture_kana":"ミヤザキケン","city":"宮崎市","city_kana":"ミヤザキシ","town":"花殿町","town_kana":"ハナドノチョウ","prefecture_code":45},"0939":{"zip_code":"8800939","prefecture":"宮崎県","prefecture_kana":"ミヤザキケン","city":"宮崎市","city_kana":"ミヤザキシ","town":"花山手西","town_kana":"ハナヤマテニシ","prefecture_code":45},"0930":{"zip_code":"8800930","prefecture":"宮崎県","prefecture_kana":"ミヤザキケン","city":"宮崎市","city_kana":"ミヤザキシ","town":"花山手東","town_kana":"ハナヤマテヒガシ","prefecture_code":45},"0007":{"zip_code":"8800007","prefecture":"宮崎県","prefecture_kana":"ミヤザキケン","city":"宮崎市","city_kana":"ミヤザキシ","town":"原町","town_kana":"ハラマチ","prefecture_code":45},"0832":{"zip_code":"8800832","prefecture":"宮崎県","prefecture_kana":"ミヤザキケン","city":"宮崎市","city_kana":"ミヤザキシ","town":"稗原町","town_kana":"ヒエバルチョウ","prefecture_code":45},"0825":{"zip_code":"8800825","prefecture":"宮崎県","prefecture_kana":"ミヤザキケン","city":"宮崎市","city_kana":"ミヤザキシ","town":"東大宮","town_kana":"ヒガシオオミヤ","prefecture_code":45},"0901":{"zip_code":"8800901","prefecture":"宮崎県","prefecture_kana":"ミヤザキケン","city":"宮崎市","city_kana":"ミヤザキシ","town":"東大淀","town_kana":"ヒガシオオヨド","prefecture_code":45},"0856":{"zip_code":"8800856","prefecture":"宮崎県","prefecture_kana":"ミヤザキケン","city":"宮崎市","city_kana":"ミヤザキシ","town":"日ノ出町","town_kana":"ヒノデチョウ","prefecture_code":45},"0806":{"zip_code":"8800806","prefecture":"宮崎県","prefecture_kana":"ミヤザキケン","city":"宮崎市","city_kana":"ミヤザキシ","town":"広島","town_kana":"ヒロシマ","prefecture_code":45},"0125":{"zip_code":"8800125","prefecture":"宮崎県","prefecture_kana":"ミヤザキケン","city":"宮崎市","city_kana":"ミヤザキシ","town":"広原","town_kana":"ヒロハラ","prefecture_code":45},"0946":{"zip_code":"8800946","prefecture":"宮崎県","prefecture_kana":"ミヤザキケン","city":"宮崎市","city_kana":"ミヤザキシ","town":"福島町","town_kana":"フクシマチョウ","prefecture_code":45},"0945":{"zip_code":"8800945","prefecture":"宮崎県","prefecture_kana":"ミヤザキケン","city":"宮崎市","city_kana":"ミヤザキシ","town":"福島町","town_kana":"フクシマチョウ","prefecture_code":45},"0031":{"zip_code":"8800031","prefecture":"宮崎県","prefecture_kana":"ミヤザキケン","city":"宮崎市","city_kana":"ミヤザキシ","town":"船塚","town_kana":"フナツカ","prefecture_code":45},"0931":{"zip_code":"8800931","prefecture":"宮崎県","prefecture_kana":"ミヤザキケン","city":"宮崎市","city_kana":"ミヤザキシ","town":"古城町","town_kana":"フルジョウチョウ","prefecture_code":45},"0046":{"zip_code":"8800046","prefecture":"宮崎県","prefecture_kana":"ミヤザキケン","city":"宮崎市","city_kana":"ミヤザキシ","town":"平和が丘北町","town_kana":"ヘイワガオカキタマチ","prefecture_code":45},"0047":{"zip_code":"8800047","prefecture":"宮崎県","prefecture_kana":"ミヤザキケン","city":"宮崎市","city_kana":"ミヤザキシ","town":"平和が丘西町","town_kana":"ヘイワガオカニシマチ","prefecture_code":45},"0042":{"zip_code":"8800042","prefecture":"宮崎県","prefecture_kana":"ミヤザキケン","city":"宮崎市","city_kana":"ミヤザキシ","town":"平和が丘東町","town_kana":"ヘイワガオカヒガシマチ","prefecture_code":45},"0802":{"zip_code":"8800802","prefecture":"宮崎県","prefecture_kana":"ミヤザキケン","city":"宮崎市","city_kana":"ミヤザキシ","town":"別府町","town_kana":"ベップチョウ","prefecture_code":45},"0123":{"zip_code":"8800123","prefecture":"宮崎県","prefecture_kana":"ミヤザキケン","city":"宮崎市","city_kana":"ミヤザキシ","town":"芳士","town_kana":"ホウジ","prefecture_code":45},"2116":{"zip_code":"8802116","prefecture":"宮崎県","prefecture_kana":"ミヤザキケン","city":"宮崎市","city_kana":"ミヤザキシ","town":"細江","town_kana":"ホソエ","prefecture_code":45},"0873":{"zip_code":"8800873","prefecture":"宮崎県","prefecture_kana":"ミヤザキケン","city":"宮崎市","city_kana":"ミヤザキシ","town":"堀川町","town_kana":"ホリカワチョウ","prefecture_code":45},"0922":{"zip_code":"8800922","prefecture":"宮崎県","prefecture_kana":"ミヤザキケン","city":"宮崎市","city_kana":"ミヤザキシ","town":"本郷","town_kana":"ホンゴウ","prefecture_code":45},"0925":{"zip_code":"8800925","prefecture":"宮崎県","prefecture_kana":"ミヤザキケン","city":"宮崎市","city_kana":"ミヤザキシ","town":"本郷北方","town_kana":"ホンゴウキタカタ","prefecture_code":45},"0921":{"zip_code":"8800921","prefecture":"宮崎県","prefecture_kana":"ミヤザキケン","city":"宮崎市","city_kana":"ミヤザキシ","town":"本郷南方","town_kana":"ホンゴウミナミカタ","prefecture_code":45},"0863":{"zip_code":"8800863","prefecture":"宮崎県","prefecture_kana":"ミヤザキケン","city":"宮崎市","city_kana":"ミヤザキシ","town":"前原町","town_kana":"マエバルチョウ","prefecture_code":45},"0013":{"zip_code":"8800013","prefecture":"宮崎県","prefecture_kana":"ミヤザキケン","city":"宮崎市","city_kana":"ミヤザキシ","town":"松橋","town_kana":"マツバシ","prefecture_code":45},"0865":{"zip_code":"8800865","prefecture":"宮崎県","prefecture_kana":"ミヤザキケン","city":"宮崎市","city_kana":"ミヤザキシ","town":"松山","town_kana":"マツヤマ","prefecture_code":45},"0929":{"zip_code":"8800929","prefecture":"宮崎県","prefecture_kana":"ミヤザキケン","city":"宮崎市","city_kana":"ミヤザキシ","town":"まなび野","town_kana":"マナビノ","prefecture_code":45},"0813":{"zip_code":"8800813","prefecture":"宮崎県","prefecture_kana":"ミヤザキケン","city":"宮崎市","city_kana":"ミヤザキシ","town":"丸島町","town_kana":"マルシマチョウ","prefecture_code":45},"0052":{"zip_code":"8800052","prefecture":"宮崎県","prefecture_kana":"ミヤザキケン","city":"宮崎市","city_kana":"ミヤザキシ","town":"丸山","town_kana":"マルヤマ","prefecture_code":45},"0858":{"zip_code":"8800858","prefecture":"宮崎県","prefecture_kana":"ミヤザキケン","city":"宮崎市","city_kana":"ミヤザキシ","town":"港","town_kana":"ミナト","prefecture_code":45},"0851":{"zip_code":"8800851","prefecture":"宮崎県","prefecture_kana":"ミヤザキケン","city":"宮崎市","city_kana":"ミヤザキシ","town":"港東","town_kana":"ミナトヒガシ","prefecture_code":45},"0037":{"zip_code":"8800037","prefecture":"宮崎県","prefecture_kana":"ミヤザキケン","city":"宮崎市","city_kana":"ミヤザキシ","town":"南方町","town_kana":"ミナミカタチョウ","prefecture_code":45},"0005":{"zip_code":"8800005","prefecture":"宮崎県","prefecture_kana":"ミヤザキケン","city":"宮崎市","city_kana":"ミヤザキシ","town":"南高松町","town_kana":"ミナミタカマツチョウ","prefecture_code":45},"0055":{"zip_code":"8800055","prefecture":"宮崎県","prefecture_kana":"ミヤザキケン","city":"宮崎市","city_kana":"ミヤザキシ","town":"南花ケ島町","town_kana":"ミナミハナガシマチョウ","prefecture_code":45},"0906":{"zip_code":"8800906","prefecture":"宮崎県","prefecture_kana":"ミヤザキケン","city":"宮崎市","city_kana":"ミヤザキシ","town":"南町","town_kana":"ミナミマチ","prefecture_code":45},"0879":{"zip_code":"8800879","prefecture":"宮崎県","prefecture_kana":"ミヤザキケン","city":"宮崎市","city_kana":"ミヤザキシ","town":"宮崎駅東","town_kana":"ミヤザキエキヒガシ","prefecture_code":45},"0804":{"zip_code":"8800804","prefecture":"宮崎県","prefecture_kana":"ミヤザキケン","city":"宮崎市","city_kana":"ミヤザキシ","town":"宮田町","town_kana":"ミヤタチョウ","prefecture_code":45},"0914":{"zip_code":"8800914","prefecture":"宮崎県","prefecture_kana":"ミヤザキケン","city":"宮崎市","city_kana":"ミヤザキシ","town":"宮の元町","town_kana":"ミヤノモトマチ","prefecture_code":45},"0877":{"zip_code":"8800877","prefecture":"宮崎県","prefecture_kana":"ミヤザキケン","city":"宮崎市","city_kana":"ミヤザキシ","town":"宮脇町","town_kana":"ミヤワキチョウ","prefecture_code":45},"0837":{"zip_code":"8800837","prefecture":"宮崎県","prefecture_kana":"ミヤザキケン","city":"宮崎市","city_kana":"ミヤザキシ","town":"村角町","town_kana":"ムラスミチョウ","prefecture_code":45},"0004":{"zip_code":"8800004","prefecture":"宮崎県","prefecture_kana":"ミヤザキケン","city":"宮崎市","city_kana":"ミヤザキシ","town":"元宮町","town_kana":"モトミヤチョウ","prefecture_code":45},"0844":{"zip_code":"8800844","prefecture":"宮崎県","prefecture_kana":"ミヤザキケン","city":"宮崎市","city_kana":"ミヤザキシ","town":"柳丸町","town_kana":"ヤナギマルチョウ","prefecture_code":45},"0034":{"zip_code":"8800034","prefecture":"宮崎県","prefecture_kana":"ミヤザキケン","city":"宮崎市","city_kana":"ミヤザキシ","town":"矢の先町","town_kana":"ヤノサキチョウ","prefecture_code":45},"0836":{"zip_code":"8800836","prefecture":"宮崎県","prefecture_kana":"ミヤザキケン","city":"宮崎市","city_kana":"ミヤザキシ","town":"山崎町","town_kana":"ヤマサキチョウ","prefecture_code":45},"0878":{"zip_code":"8800878","prefecture":"宮崎県","prefecture_kana":"ミヤザキケン","city":"宮崎市","city_kana":"ミヤザキシ","town":"大和町","town_kana":"ヤマトチョウ","prefecture_code":45},"2233":{"zip_code":"8802233","prefecture":"宮崎県","prefecture_kana":"ミヤザキケン","city":"宮崎市","city_kana":"ミヤザキシ","town":"吉野","town_kana":"ヨシノ","prefecture_code":45},"0841":{"zip_code":"8800841","prefecture":"宮崎県","prefecture_kana":"ミヤザキケン","city":"宮崎市","city_kana":"ミヤザキシ","town":"吉村町","town_kana":"ヨシムラチョウ","prefecture_code":45},"0907":{"zip_code":"8800907","prefecture":"宮崎県","prefecture_kana":"ミヤザキケン","city":"宮崎市","city_kana":"ミヤザキシ","town":"淀川","town_kana":"ヨドガワ","prefecture_code":45},"0023":{"zip_code":"8800023","prefecture":"宮崎県","prefecture_kana":"ミヤザキケン","city":"宮崎市","city_kana":"ミヤザキシ","town":"和知川原","town_kana":"ワチガワラ","prefecture_code":45},"2303":[{"zip_code":"8802303","prefecture":"宮崎県","prefecture_kana":"ミヤザキケン","city":"都城市","city_kana":"ミヤコノジョウシ","town":"山之口町山之口","town_kana":"ヤマノクチチョウヤマノクチ","prefecture_code":45},{"zip_code":"8802303","prefecture":"宮崎県","prefecture_kana":"ミヤザキケン","city":"都城市","city_kana":"ミヤコノジョウシ","town":"山之口町山之口上平野","town_kana":"ヤマノクチチョウヤマノクチカミヒラノ","prefecture_code":45},{"zip_code":"8802303","prefecture":"宮崎県","prefecture_kana":"ミヤザキケン","city":"都城市","city_kana":"ミヤコノジョウシ","town":"山之口町山之口仲田","town_kana":"ヤマノクチチョウヤマノクチナカタ","prefecture_code":45}],"0341":{"zip_code":"8800341","prefecture":"宮崎県","prefecture_kana":"ミヤザキケン","city":"西都市","city_kana":"サイトシ","town":"現王島","town_kana":"ゲンノウジマ","prefecture_code":45},"1100":{"zip_code":"8801100","prefecture":"宮崎県","prefecture_kana":"ミヤザキケン","city":"東諸県郡国富町","city_kana":"ヒガシモロカタグンクニトミチョウ","town":"","town_kana":"","prefecture_code":45},"1103":{"zip_code":"8801103","prefecture":"宮崎県","prefecture_kana":"ミヤザキケン","city":"東諸県郡国富町","city_kana":"ヒガシモロカタグンクニトミチョウ","town":"嵐田","town_kana":"アラシダ","prefecture_code":45},"1121":[{"zip_code":"8801121","prefecture":"宮崎県","prefecture_kana":"ミヤザキケン","city":"東諸県郡国富町","city_kana":"ヒガシモロカタグンクニトミチョウ","town":"伊左生","town_kana":"イザオ","prefecture_code":45},{"zip_code":"8801121","prefecture":"宮崎県","prefecture_kana":"ミヤザキケン","city":"東諸県郡国富町","city_kana":"ヒガシモロカタグンクニトミチョウ","town":"伊左生吹上","town_kana":"イザオフキアゲ","prefecture_code":45}],"1221":{"zip_code":"8801221","prefecture":"宮崎県","prefecture_kana":"ミヤザキケン","city":"東諸県郡国富町","city_kana":"ヒガシモロカタグンクニトミチョウ","town":"伊左生","town_kana":"イザオ","prefecture_code":45},"1111":{"zip_code":"8801111","prefecture":"宮崎県","prefecture_kana":"ミヤザキケン","city":"東諸県郡国富町","city_kana":"ヒガシモロカタグンクニトミチョウ","town":"岩知野","town_kana":"イワチノ","prefecture_code":45},"1113":{"zip_code":"8801113","prefecture":"宮崎県","prefecture_kana":"ミヤザキケン","city":"東諸県郡国富町","city_kana":"ヒガシモロカタグンクニトミチョウ","town":"木脇","town_kana":"キワキ","prefecture_code":45},"1114":{"zip_code":"8801114","prefecture":"宮崎県","prefecture_kana":"ミヤザキケン","city":"東諸県郡国富町","city_kana":"ヒガシモロカタグンクニトミチョウ","town":"三名","town_kana":"サンミョウ","prefecture_code":45},"1108":{"zip_code":"8801108","prefecture":"宮崎県","prefecture_kana":"ミヤザキケン","city":"東諸県郡国富町","city_kana":"ヒガシモロカタグンクニトミチョウ","town":"須志田","town_kana":"スシダ","prefecture_code":45},"1107":{"zip_code":"8801107","prefecture":"宮崎県","prefecture_kana":"ミヤザキケン","city":"東諸県郡国富町","city_kana":"ヒガシモロカタグンクニトミチョウ","town":"竹田","town_kana":"タケダ","prefecture_code":45},"1104":{"zip_code":"8801104","prefecture":"宮崎県","prefecture_kana":"ミヤザキケン","city":"東諸県郡国富町","city_kana":"ヒガシモロカタグンクニトミチョウ","town":"田尻","town_kana":"タジリ","prefecture_code":45},"1112":{"zip_code":"8801112","prefecture":"宮崎県","prefecture_kana":"ミヤザキケン","city":"東諸県郡国富町","city_kana":"ヒガシモロカタグンクニトミチョウ","town":"塚原","town_kana":"ツカバル","prefecture_code":45},"1224":{"zip_code":"8801224","prefecture":"宮崎県","prefecture_kana":"ミヤザキケン","city":"東諸県郡国富町","city_kana":"ヒガシモロカタグンクニトミチョウ","town":"深年","town_kana":"フカドシ","prefecture_code":45},"1101":{"zip_code":"8801101","prefecture":"宮崎県","prefecture_kana":"ミヤザキケン","city":"東諸県郡国富町","city_kana":"ヒガシモロカタグンクニトミチョウ","town":"本庄","town_kana":"ホンジョウ","prefecture_code":45},"1102":{"zip_code":"8801102","prefecture":"宮崎県","prefecture_kana":"ミヤザキケン","city":"東諸県郡国富町","city_kana":"ヒガシモロカタグンクニトミチョウ","town":"宮王丸","town_kana":"ミヤオウマル","prefecture_code":45},"1105":{"zip_code":"8801105","prefecture":"宮崎県","prefecture_kana":"ミヤザキケン","city":"東諸県郡国富町","city_kana":"ヒガシモロカタグンクニトミチョウ","town":"向高","town_kana":"ムコウタカ","prefecture_code":45},"1106":{"zip_code":"8801106","prefecture":"宮崎県","prefecture_kana":"ミヤザキケン","city":"東諸県郡国富町","city_kana":"ヒガシモロカタグンクニトミチョウ","town":"森永","town_kana":"モリナガ","prefecture_code":45},"1222":{"zip_code":"8801222","prefecture":"宮崎県","prefecture_kana":"ミヤザキケン","city":"東諸県郡国富町","city_kana":"ヒガシモロカタグンクニトミチョウ","town":"八代北俣","town_kana":"ヤツシロキタマタ","prefecture_code":45},"1223":{"zip_code":"8801223","prefecture":"宮崎県","prefecture_kana":"ミヤザキケン","city":"東諸県郡国富町","city_kana":"ヒガシモロカタグンクニトミチョウ","town":"八代南俣","town_kana":"ヤツシロミナミマタ","prefecture_code":45},"1300":{"zip_code":"8801300","prefecture":"宮崎県","prefecture_kana":"ミヤザキケン","city":"東諸県郡綾町","city_kana":"ヒガシモロカタグンアヤチョウ","town":"","town_kana":"","prefecture_code":45},"1301":{"zip_code":"8801301","prefecture":"宮崎県","prefecture_kana":"ミヤザキケン","city":"東諸県郡綾町","city_kana":"ヒガシモロカタグンアヤチョウ","town":"入野","town_kana":"イリノ","prefecture_code":45},"1302":{"zip_code":"8801302","prefecture":"宮崎県","prefecture_kana":"ミヤザキケン","city":"東諸県郡綾町","city_kana":"ヒガシモロカタグンアヤチョウ","town":"北俣","town_kana":"キタマタ","prefecture_code":45},"1303":{"zip_code":"8801303","prefecture":"宮崎県","prefecture_kana":"ミヤザキケン","city":"東諸県郡綾町","city_kana":"ヒガシモロカタグンアヤチョウ","town":"南俣","town_kana":"ミナミマタ","prefecture_code":45}}