{"0000":{"zip_code":"8820000","prefecture":"宮崎県","prefecture_kana":"ミヤザキケン","city":"延岡市","city_kana":"ノベオカシ","town":"","town_kana":"","prefecture_code":45},"0845":{"zip_code":"8820845","prefecture":"宮崎県","prefecture_kana":"ミヤザキケン","city":"延岡市","city_kana":"ノベオカシ","town":"安賀多町","town_kana":"アガタマチ","prefecture_code":45},"0847":{"zip_code":"8820847","prefecture":"宮崎県","prefecture_kana":"ミヤザキケン","city":"延岡市","city_kana":"ノベオカシ","town":"旭町","town_kana":"アサヒマチ","prefecture_code":45},"0872":{"zip_code":"8820872","prefecture":"宮崎県","prefecture_kana":"ミヤザキケン","city":"延岡市","city_kana":"ノベオカシ","town":"愛宕町","town_kana":"アタゴマチ","prefecture_code":45},"0871":{"zip_code":"8820871","prefecture":"宮崎県","prefecture_kana":"ミヤザキケン","city":"延岡市","city_kana":"ノベオカシ","town":"愛宕山","town_kana":"アタゴヤマ","prefecture_code":45},"0071":{"zip_code":"8820071","prefecture":"宮崎県","prefecture_kana":"ミヤザキケン","city":"延岡市","city_kana":"ノベオカシ","town":"天下町","town_kana":"アモリマチ","prefecture_code":45},"0025":{"zip_code":"8820025","prefecture":"宮崎県","prefecture_kana":"ミヤザキケン","city":"延岡市","city_kana":"ノベオカシ","town":"粟野名町","town_kana":"アワノミョウマチ","prefecture_code":45},"0831":{"zip_code":"8820831","prefecture":"宮崎県","prefecture_kana":"ミヤザキケン","city":"延岡市","city_kana":"ノベオカシ","town":"出口町","town_kana":"イデグチマチ","prefecture_code":45},"0856":{"zip_code":"8820856","prefecture":"宮崎県","prefecture_kana":"ミヤザキケン","city":"延岡市","city_kana":"ノベオカシ","town":"出北","town_kana":"イデキタ","prefecture_code":45},"0003":{"zip_code":"8820003","prefecture":"宮崎県","prefecture_kana":"ミヤザキケン","city":"延岡市","city_kana":"ノベオカシ","town":"稲葉崎町","town_kana":"イナバザキマチ","prefecture_code":45},"0095":{"zip_code":"8820095","prefecture":"宮崎県","prefecture_kana":"ミヤザキケン","city":"延岡市","city_kana":"ノベオカシ","town":"浦城町","town_kana":"ウラシロマチ","prefecture_code":45},"0084":{"zip_code":"8820084","prefecture":"宮崎県","prefecture_kana":"ミヤザキケン","city":"延岡市","city_kana":"ノベオカシ","town":"宇和田町","town_kana":"ウワダマチ","prefecture_code":45},"0046":{"zip_code":"8820046","prefecture":"宮崎県","prefecture_kana":"ミヤザキケン","city":"延岡市","city_kana":"ノベオカシ","town":"恵比須町","town_kana":"エビスマチ","prefecture_code":45},"0013":{"zip_code":"8820013","prefecture":"宮崎県","prefecture_kana":"ミヤザキケン","city":"延岡市","city_kana":"ノベオカシ","town":"追内町","town_kana":"オイウチマチ","prefecture_code":45},"0001":{"zip_code":"8820001","prefecture":"宮崎県","prefecture_kana":"ミヤザキケン","city":"延岡市","city_kana":"ノベオカシ","town":"大峡町","town_kana":"オオカイマチ","prefecture_code":45},"0027":{"zip_code":"8820027","prefecture":"宮崎県","prefecture_kana":"ミヤザキケン","city":"延岡市","city_kana":"ノベオカシ","town":"大門町","town_kana":"オオカドマチ","prefecture_code":45},"0841":{"zip_code":"8820841","prefecture":"宮崎県","prefecture_kana":"ミヤザキケン","city":"延岡市","city_kana":"ノベオカシ","town":"大瀬町","town_kana":"オオセマチ","prefecture_code":45},"0024":{"zip_code":"8820024","prefecture":"宮崎県","prefecture_kana":"ミヤザキケン","city":"延岡市","city_kana":"ノベオカシ","town":"大武町","town_kana":"オオダケマチ","prefecture_code":45},"0803":{"zip_code":"8820803","prefecture":"宮崎県","prefecture_kana":"ミヤザキケン","city":"延岡市","city_kana":"ノベオカシ","town":"大貫町","town_kana":"オオヌキマチ","prefecture_code":45},"0086":{"zip_code":"8820086","prefecture":"宮崎県","prefecture_kana":"ミヤザキケン","city":"延岡市","city_kana":"ノベオカシ","town":"大野町","town_kana":"オオノマチ","prefecture_code":45},"0056":{"zip_code":"8820056","prefecture":"宮崎県","prefecture_kana":"ミヤザキケン","city":"延岡市","city_kana":"ノベオカシ","town":"岡富町","town_kana":"オカトミマチ","prefecture_code":45},"0057":{"zip_code":"8820057","prefecture":"宮崎県","prefecture_kana":"ミヤザキケン","city":"延岡市","city_kana":"ノベオカシ","town":"岡富山","town_kana":"オカトミヤマ","prefecture_code":45},"0075":{"zip_code":"8820075","prefecture":"宮崎県","prefecture_kana":"ミヤザキケン","city":"延岡市","city_kana":"ノベオカシ","town":"岡元町","town_kana":"オカモトマチ","prefecture_code":45},"0876":{"zip_code":"8820876","prefecture":"宮崎県","prefecture_kana":"ミヤザキケン","city":"延岡市","city_kana":"ノベオカシ","town":"沖田町","town_kana":"オキタマチ","prefecture_code":45},"0006":{"zip_code":"8820006","prefecture":"宮崎県","prefecture_kana":"ミヤザキケン","city":"延岡市","city_kana":"ノベオカシ","town":"尾崎町","town_kana":"オザキマチ","prefecture_code":45},"0855":{"zip_code":"8820855","prefecture":"宮崎県","prefecture_kana":"ミヤザキケン","city":"延岡市","city_kana":"ノベオカシ","town":"卸本町","town_kana":"オロシホンマチ","prefecture_code":45},"0073":{"zip_code":"8820073","prefecture":"宮崎県","prefecture_kana":"ミヤザキケン","city":"延岡市","city_kana":"ノベオカシ","town":"貝の畑町","town_kana":"カイノハタマチ","prefecture_code":45},"0085":{"zip_code":"8820085","prefecture":"宮崎県","prefecture_kana":"ミヤザキケン","city":"延岡市","city_kana":"ノベオカシ","town":"鹿狩瀬町","town_kana":"カガセマチ","prefecture_code":45},"0004":{"zip_code":"8820004","prefecture":"宮崎県","prefecture_kana":"ミヤザキケン","city":"延岡市","city_kana":"ノベオカシ","town":"樫山町","town_kana":"カシヤママチ","prefecture_code":45},"0012":{"zip_code":"8820012","prefecture":"宮崎県","prefecture_kana":"ミヤザキケン","city":"延岡市","city_kana":"ノベオカシ","town":"鹿小路","town_kana":"カショウジ","prefecture_code":45},"0844":{"zip_code":"8820844","prefecture":"宮崎県","prefecture_kana":"ミヤザキケン","city":"延岡市","city_kana":"ノベオカシ","town":"春日町","town_kana":"カスガマチ","prefecture_code":45},"0877":{"zip_code":"8820877","prefecture":"宮崎県","prefecture_kana":"ミヤザキケン","city":"延岡市","city_kana":"ノベオカシ","town":"片田町","town_kana":"カタタマチ","prefecture_code":45},"0867":{"zip_code":"8820867","prefecture":"宮崎県","prefecture_kana":"ミヤザキケン","city":"延岡市","city_kana":"ノベオカシ","town":"構口町","town_kana":"カマエグチマチ","prefecture_code":45},"0833":{"zip_code":"8820833","prefecture":"宮崎県","prefecture_kana":"ミヤザキケン","city":"延岡市","city_kana":"ノベオカシ","town":"上大瀬町","town_kana":"カミオオセマチ","prefecture_code":45},"0885":{"zip_code":"8820885","prefecture":"宮崎県","prefecture_kana":"ミヤザキケン","city":"延岡市","city_kana":"ノベオカシ","town":"上三輪町","town_kana":"カミミワマチ","prefecture_code":45},"0017":{"zip_code":"8820017","prefecture":"宮崎県","prefecture_kana":"ミヤザキケン","city":"延岡市","city_kana":"ノベオカシ","town":"川島町","town_kana":"カワシママチ","prefecture_code":45},"0033":{"zip_code":"8820033","prefecture":"宮崎県","prefecture_kana":"ミヤザキケン","city":"延岡市","city_kana":"ノベオカシ","town":"川原崎町","town_kana":"カワラサキマチ","prefecture_code":45},"0043":{"zip_code":"8820043","prefecture":"宮崎県","prefecture_kana":"ミヤザキケン","city":"延岡市","city_kana":"ノベオカシ","town":"祗園町","town_kana":"ギオンマチ","prefecture_code":45},"0121":{"zip_code":"8820121","prefecture":"宮崎県","prefecture_kana":"ミヤザキケン","city":"延岡市","city_kana":"ノベオカシ","town":"北方町板上","town_kana":"キタカタマチイタカミ","prefecture_code":45},"0122":{"zip_code":"8820122","prefecture":"宮崎県","prefecture_kana":"ミヤザキケン","city":"延岡市","city_kana":"ノベオカシ","town":"北方町板下","town_kana":"キタカタマチイタシモ","prefecture_code":45},"0123":{"zip_code":"8820123","prefecture":"宮崎県","prefecture_kana":"ミヤザキケン","city":"延岡市","city_kana":"ノベオカシ","town":"北方町うそ越","town_kana":"キタカタマチウソゴエ","prefecture_code":45},"0106":{"zip_code":"8820106","prefecture":"宮崎県","prefecture_kana":"ミヤザキケン","city":"延岡市","city_kana":"ノベオカシ","town":"北方町笠下","town_kana":"キタカタマチカサシタ","prefecture_code":45},"0126":{"zip_code":"8820126","prefecture":"宮崎県","prefecture_kana":"ミヤザキケン","city":"延岡市","city_kana":"ノベオカシ","town":"北方町上崎","town_kana":"キタカタマチカミザキ","prefecture_code":45},"0231":{"zip_code":"8820231","prefecture":"宮崎県","prefecture_kana":"ミヤザキケン","city":"延岡市","city_kana":"ノベオカシ","town":"北方町上鹿川","town_kana":"キタカタマチカミシシガワ","prefecture_code":45},"0125":{"zip_code":"8820125","prefecture":"宮崎県","prefecture_kana":"ミヤザキケン","city":"延岡市","city_kana":"ノベオカシ","town":"北方町川水流","town_kana":"キタカタマチカワズル","prefecture_code":45},"0129":{"zip_code":"8820129","prefecture":"宮崎県","prefecture_kana":"ミヤザキケン","city":"延岡市","city_kana":"ノベオカシ","town":"北方町北久保山","town_kana":"キタカタマチキタクボヤマ","prefecture_code":45},"0127":{"zip_code":"8820127","prefecture":"宮崎県","prefecture_kana":"ミヤザキケン","city":"延岡市","city_kana":"ノベオカシ","town":"北方町蔵田","town_kana":"キタカタマチクラタ","prefecture_code":45},"0241":{"zip_code":"8820241","prefecture":"宮崎県","prefecture_kana":"ミヤザキケン","city":"延岡市","city_kana":"ノベオカシ","town":"北方町三ケ村","town_kana":"キタカタマチサンガムラ","prefecture_code":45},"0237":{"zip_code":"8820237","prefecture":"宮崎県","prefecture_kana":"ミヤザキケン","city":"延岡市","city_kana":"ノベオカシ","town":"北方町椎畑","town_kana":"キタカタマチシイバタ","prefecture_code":45},"0232":{"zip_code":"8820232","prefecture":"宮崎県","prefecture_kana":"ミヤザキケン","city":"延岡市","city_kana":"ノベオカシ","town":"北方町下鹿川","town_kana":"キタカタマチシモシシガワ","prefecture_code":45},"0233":{"zip_code":"8820233","prefecture":"宮崎県","prefecture_kana":"ミヤザキケン","city":"延岡市","city_kana":"ノベオカシ","town":"北方町菅原","town_kana":"キタカタマチスゲバル","prefecture_code":45},"0124":{"zip_code":"8820124","prefecture":"宮崎県","prefecture_kana":"ミヤザキケン","city":"延岡市","city_kana":"ノベオカシ","town":"北方町曽木","town_kana":"キタカタマチソキ","prefecture_code":45},"0238":{"zip_code":"8820238","prefecture":"宮崎県","prefecture_kana":"ミヤザキケン","city":"延岡市","city_kana":"ノベオカシ","town":"北方町滝下","town_kana":"キタカタマチタキシタ","prefecture_code":45},"0104":{"zip_code":"8820104","prefecture":"宮崎県","prefecture_kana":"ミヤザキケン","city":"延岡市","city_kana":"ノベオカシ","town":"北方町角田","town_kana":"キタカタマチツノダ","prefecture_code":45},"0245":{"zip_code":"8820245","prefecture":"宮崎県","prefecture_kana":"ミヤザキケン","city":"延岡市","city_kana":"ノベオカシ","town":"北方町早上","town_kana":"キタカタマチハヤカミ","prefecture_code":45},"0244":{"zip_code":"8820244","prefecture":"宮崎県","prefecture_kana":"ミヤザキケン","city":"延岡市","city_kana":"ノベオカシ","town":"北方町早中","town_kana":"キタカタマチハヤナカ","prefecture_code":45},"0243":{"zip_code":"8820243","prefecture":"宮崎県","prefecture_kana":"ミヤザキケン","city":"延岡市","city_kana":"ノベオカシ","town":"北方町早日渡","town_kana":"キタカタマチハヤヒト","prefecture_code":45},"0236":{"zip_code":"8820236","prefecture":"宮崎県","prefecture_kana":"ミヤザキケン","city":"延岡市","city_kana":"ノベオカシ","town":"北方町日平","town_kana":"キタカタマチヒビラ","prefecture_code":45},"0107":{"zip_code":"8820107","prefecture":"宮崎県","prefecture_kana":"ミヤザキケン","city":"延岡市","city_kana":"ノベオカシ","town":"北方町藤の木","town_kana":"キタカタマチフジノキ","prefecture_code":45},"0101":{"zip_code":"8820101","prefecture":"宮崎県","prefecture_kana":"ミヤザキケン","city":"延岡市","city_kana":"ノベオカシ","town":"北方町二股","town_kana":"キタカタマチフタマタ","prefecture_code":45},"0235":{"zip_code":"8820235","prefecture":"宮崎県","prefecture_kana":"ミヤザキケン","city":"延岡市","city_kana":"ノベオカシ","town":"北方町槇峰","town_kana":"キタカタマチマキミネ","prefecture_code":45},"0128":{"zip_code":"8820128","prefecture":"宮崎県","prefecture_kana":"ミヤザキケン","city":"延岡市","city_kana":"ノベオカシ","town":"北方町南久保山","town_kana":"キタカタマチミナミクボヤマ","prefecture_code":45},"0234":{"zip_code":"8820234","prefecture":"宮崎県","prefecture_kana":"ミヤザキケン","city":"延岡市","city_kana":"ノベオカシ","town":"北方町美々地","town_kana":"キタカタマチミミチ","prefecture_code":45},"0242":{"zip_code":"8820242","prefecture":"宮崎県","prefecture_kana":"ミヤザキケン","city":"延岡市","city_kana":"ノベオカシ","town":"北方町八峡","town_kana":"キタカタマチヤカイ","prefecture_code":45},"0097":{"zip_code":"8820097","prefecture":"宮崎県","prefecture_kana":"ミヤザキケン","city":"延岡市","city_kana":"ノベオカシ","town":"北川町川内名祝子川","town_kana":"キタガワマチカワチミョウホウリガワ","prefecture_code":45},"0041":{"zip_code":"8820041","prefecture":"宮崎県","prefecture_kana":"ミヤザキケン","city":"延岡市","city_kana":"ノベオカシ","town":"北小路","town_kana":"キタコウジ","prefecture_code":45},"0834":{"zip_code":"8820834","prefecture":"宮崎県","prefecture_kana":"ミヤザキケン","city":"延岡市","city_kana":"ノベオカシ","town":"北新小路","town_kana":"キタシンコウジ","prefecture_code":45},"0814":{"zip_code":"8820814","prefecture":"宮崎県","prefecture_kana":"ミヤザキケン","city":"延岡市","city_kana":"ノベオカシ","town":"北町","town_kana":"キタマチ","prefecture_code":45},"0873":{"zip_code":"8820873","prefecture":"宮崎県","prefecture_kana":"ミヤザキケン","city":"延岡市","city_kana":"ノベオカシ","town":"共栄町","town_kana":"キョウエイマチ","prefecture_code":45},"0091":{"zip_code":"8820091","prefecture":"宮崎県","prefecture_kana":"ミヤザキケン","city":"延岡市","city_kana":"ノベオカシ","town":"桑平町","town_kana":"クワヒラマチ","prefecture_code":45},"0093":{"zip_code":"8820093","prefecture":"宮崎県","prefecture_kana":"ミヤザキケン","city":"延岡市","city_kana":"ノベオカシ","town":"神戸町","town_kana":"コウベマチ","prefecture_code":45},"0076":{"zip_code":"8820076","prefecture":"宮崎県","prefecture_kana":"ミヤザキケン","city":"延岡市","city_kana":"ノベオカシ","town":"小川町","town_kana":"コガワマチ","prefecture_code":45},"0882":{"zip_code":"8820882","prefecture":"宮崎県","prefecture_kana":"ミヤザキケン","city":"延岡市","city_kana":"ノベオカシ","town":"小野町","town_kana":"コノマチ","prefecture_code":45},"0061":{"zip_code":"8820061","prefecture":"宮崎県","prefecture_kana":"ミヤザキケン","city":"延岡市","city_kana":"ノベオカシ","town":"小峰町","town_kana":"コミネマチ","prefecture_code":45},"0047":{"zip_code":"8820047","prefecture":"宮崎県","prefecture_kana":"ミヤザキケン","city":"延岡市","city_kana":"ノベオカシ","town":"紺屋町","town_kana":"コンヤマチ","prefecture_code":45},"0832":{"zip_code":"8820832","prefecture":"宮崎県","prefecture_kana":"ミヤザキケン","city":"延岡市","city_kana":"ノベオカシ","town":"西小路","town_kana":"サイコウジ","prefecture_code":45},"0053":{"zip_code":"8820053","prefecture":"宮崎県","prefecture_kana":"ミヤザキケン","city":"延岡市","city_kana":"ノベオカシ","town":"幸町","town_kana":"サイワイマチ","prefecture_code":45},"0054":{"zip_code":"8820054","prefecture":"宮崎県","prefecture_kana":"ミヤザキケン","city":"延岡市","city_kana":"ノベオカシ","town":"栄町","town_kana":"サカエマチ","prefecture_code":45},"0007":{"zip_code":"8820007","prefecture":"宮崎県","prefecture_kana":"ミヤザキケン","city":"延岡市","city_kana":"ノベオカシ","town":"桜ケ丘","town_kana":"サクラガオカ","prefecture_code":45},"0816":{"zip_code":"8820816","prefecture":"宮崎県","prefecture_kana":"ミヤザキケン","city":"延岡市","city_kana":"ノベオカシ","town":"桜小路","town_kana":"サクラコウジ","prefecture_code":45},"0036":{"zip_code":"8820036","prefecture":"宮崎県","prefecture_kana":"ミヤザキケン","city":"延岡市","city_kana":"ノベオカシ","town":"桜園町","town_kana":"サクラゾノマチ","prefecture_code":45},"0002":{"zip_code":"8820002","prefecture":"宮崎県","prefecture_kana":"ミヤザキケン","city":"延岡市","city_kana":"ノベオカシ","town":"差木野町","town_kana":"サシキノマチ","prefecture_code":45},"0081":{"zip_code":"8820081","prefecture":"宮崎県","prefecture_kana":"ミヤザキケン","city":"延岡市","city_kana":"ノベオカシ","town":"佐野町","town_kana":"サノマチ","prefecture_code":45},"0864":{"zip_code":"8820864","prefecture":"宮崎県","prefecture_kana":"ミヤザキケン","city":"延岡市","city_kana":"ノベオカシ","town":"塩浜町","town_kana":"シオハママチ","prefecture_code":45},"0096":{"zip_code":"8820096","prefecture":"宮崎県","prefecture_kana":"ミヤザキケン","city":"延岡市","city_kana":"ノベオカシ","town":"島浦町","town_kana":"シマウラマチ","prefecture_code":45},"0883":{"zip_code":"8820883","prefecture":"宮崎県","prefecture_kana":"ミヤザキケン","city":"延岡市","city_kana":"ノベオカシ","town":"下三輪町","town_kana":"シモミワマチ","prefecture_code":45},"0034":{"zip_code":"8820034","prefecture":"宮崎県","prefecture_kana":"ミヤザキケン","city":"延岡市","city_kana":"ノベオカシ","town":"昭和町","town_kana":"ショウワマチ","prefecture_code":45},"0014":{"zip_code":"8820014","prefecture":"宮崎県","prefecture_kana":"ミヤザキケン","city":"延岡市","city_kana":"ノベオカシ","town":"白石町","town_kana":"シロイシマチ","prefecture_code":45},"0835":{"zip_code":"8820835","prefecture":"宮崎県","prefecture_kana":"ミヤザキケン","city":"延岡市","city_kana":"ノベオカシ","town":"新小路","town_kana":"シンコウジ","prefecture_code":45},"0827":{"zip_code":"8820827","prefecture":"宮崎県","prefecture_kana":"ミヤザキケン","city":"延岡市","city_kana":"ノベオカシ","town":"新町","town_kana":"シンマチ","prefecture_code":45},"0011":{"zip_code":"8820011","prefecture":"宮崎県","prefecture_kana":"ミヤザキケン","city":"延岡市","city_kana":"ノベオカシ","town":"須佐町","town_kana":"スサマチ","prefecture_code":45},"0825":{"zip_code":"8820825","prefecture":"宮崎県","prefecture_kana":"ミヤザキケン","city":"延岡市","city_kana":"ノベオカシ","town":"須崎町","town_kana":"スザキマチ","prefecture_code":45},"0045":{"zip_code":"8820045","prefecture":"宮崎県","prefecture_kana":"ミヤザキケン","city":"延岡市","city_kana":"ノベオカシ","town":"瀬之口町","town_kana":"セノクチマチ","prefecture_code":45},"0857":{"zip_code":"8820857","prefecture":"宮崎県","prefecture_kana":"ミヤザキケン","city":"延岡市","city_kana":"ノベオカシ","town":"惣領町","town_kana":"ソウリョウマチ","prefecture_code":45},"0042":{"zip_code":"8820042","prefecture":"宮崎県","prefecture_kana":"ミヤザキケン","city":"延岡市","city_kana":"ノベオカシ","town":"高千穂通","town_kana":"タカチホドオリ","prefecture_code":45},"0064":{"zip_code":"8820064","prefecture":"宮崎県","prefecture_kana":"ミヤザキケン","city":"延岡市","city_kana":"ノベオカシ","town":"高野町","town_kana":"タカノマチ","prefecture_code":45},"0874":{"zip_code":"8820874","prefecture":"宮崎県","prefecture_kana":"ミヤザキケン","city":"延岡市","city_kana":"ノベオカシ","town":"伊達町","town_kana":"ダテマチ","prefecture_code":45},"0824":{"zip_code":"8820824","prefecture":"宮崎県","prefecture_kana":"ミヤザキケン","city":"延岡市","city_kana":"ノベオカシ","town":"中央通","town_kana":"チュウオウドオリ","prefecture_code":45},"0836":{"zip_code":"8820836","prefecture":"宮崎県","prefecture_kana":"ミヤザキケン","city":"延岡市","city_kana":"ノベオカシ","town":"恒富町","town_kana":"ツネトミマチ","prefecture_code":45},"0865":{"zip_code":"8820865","prefecture":"宮崎県","prefecture_kana":"ミヤザキケン","city":"延岡市","city_kana":"ノベオカシ","town":"鶴ケ丘","town_kana":"ツルガオカ","prefecture_code":45},"0811":{"zip_code":"8820811","prefecture":"宮崎県","prefecture_kana":"ミヤザキケン","city":"延岡市","city_kana":"ノベオカシ","town":"天神小路","town_kana":"テンジンコウジ","prefecture_code":45},"0016":{"zip_code":"8820016","prefecture":"宮崎県","prefecture_kana":"ミヤザキケン","city":"延岡市","city_kana":"ノベオカシ","town":"東海町","town_kana":"トウミマチ","prefecture_code":45},"0051":{"zip_code":"8820051","prefecture":"宮崎県","prefecture_kana":"ミヤザキケン","city":"延岡市","city_kana":"ノベオカシ","town":"富美山町","town_kana":"トミヤママチ","prefecture_code":45},"0031":{"zip_code":"8820031","prefecture":"宮崎県","prefecture_kana":"ミヤザキケン","city":"延岡市","city_kana":"ノベオカシ","town":"中川原町","town_kana":"ナカガワラマチ","prefecture_code":45},"0846":{"zip_code":"8820846","prefecture":"宮崎県","prefecture_kana":"ミヤザキケン","city":"延岡市","city_kana":"ノベオカシ","town":"中島町","town_kana":"ナカシママチ","prefecture_code":45},"0032":{"zip_code":"8820032","prefecture":"宮崎県","prefecture_kana":"ミヤザキケン","city":"延岡市","city_kana":"ノベオカシ","town":"中の瀬町","town_kana":"ナカノセチョウ","prefecture_code":45},"0823":{"zip_code":"8820823","prefecture":"宮崎県","prefecture_kana":"ミヤザキケン","city":"延岡市","city_kana":"ノベオカシ","town":"中町","town_kana":"ナカマチ","prefecture_code":45},"0884":{"zip_code":"8820884","prefecture":"宮崎県","prefecture_kana":"ミヤザキケン","city":"延岡市","city_kana":"ノベオカシ","town":"中三輪町","town_kana":"ナカミワマチ","prefecture_code":45},"0843":{"zip_code":"8820843","prefecture":"宮崎県","prefecture_kana":"ミヤザキケン","city":"延岡市","city_kana":"ノベオカシ","town":"永池町","town_kana":"ナガイケマチ","prefecture_code":45},"0854":{"zip_code":"8820854","prefecture":"宮崎県","prefecture_kana":"ミヤザキケン","city":"延岡市","city_kana":"ノベオカシ","town":"長浜町","town_kana":"ナガハママチ","prefecture_code":45},"0005":{"zip_code":"8820005","prefecture":"宮崎県","prefecture_kana":"ミヤザキケン","city":"延岡市","city_kana":"ノベオカシ","town":"夏田町","town_kana":"ナツタマチ","prefecture_code":45},"0804":{"zip_code":"8820804","prefecture":"宮崎県","prefecture_kana":"ミヤザキケン","city":"延岡市","city_kana":"ノベオカシ","town":"西階町","town_kana":"ニシシナマチ","prefecture_code":45},"0802":{"zip_code":"8820802","prefecture":"宮崎県","prefecture_kana":"ミヤザキケン","city":"延岡市","city_kana":"ノベオカシ","town":"野地町","town_kana":"ノジマチ","prefecture_code":45},"0805":{"zip_code":"8820805","prefecture":"宮崎県","prefecture_kana":"ミヤザキケン","city":"延岡市","city_kana":"ノベオカシ","town":"野田","town_kana":"ノタ","prefecture_code":45},"0801":{"zip_code":"8820801","prefecture":"宮崎県","prefecture_kana":"ミヤザキケン","city":"延岡市","city_kana":"ノベオカシ","town":"野田町","town_kana":"ノタマチ","prefecture_code":45},"0052":{"zip_code":"8820052","prefecture":"宮崎県","prefecture_kana":"ミヤザキケン","city":"延岡市","city_kana":"ノベオカシ","town":"萩町","town_kana":"ハギマチ","prefecture_code":45},"0044":{"zip_code":"8820044","prefecture":"宮崎県","prefecture_kana":"ミヤザキケン","city":"延岡市","city_kana":"ノベオカシ","town":"博労町","town_kana":"バクロウマチ","prefecture_code":45},"0851":{"zip_code":"8820851","prefecture":"宮崎県","prefecture_kana":"ミヤザキケン","city":"延岡市","city_kana":"ノベオカシ","town":"浜砂","town_kana":"ハマゴ","prefecture_code":45},"0862":{"zip_code":"8820862","prefecture":"宮崎県","prefecture_kana":"ミヤザキケン","city":"延岡市","city_kana":"ノベオカシ","town":"浜町","town_kana":"ハママチ","prefecture_code":45},"0852":{"zip_code":"8820852","prefecture":"宮崎県","prefecture_kana":"ミヤザキケン","city":"延岡市","city_kana":"ノベオカシ","town":"東浜砂町","town_kana":"ヒガシハマゴマチ","prefecture_code":45},"0813":{"zip_code":"8820813","prefecture":"宮崎県","prefecture_kana":"ミヤザキケン","city":"延岡市","city_kana":"ノベオカシ","town":"東本小路","town_kana":"ヒガシホンコウジ","prefecture_code":45},"0035":{"zip_code":"8820035","prefecture":"宮崎県","prefecture_kana":"ミヤザキケン","city":"延岡市","city_kana":"ノベオカシ","town":"日の出町","town_kana":"ヒノデマチ","prefecture_code":45},"0861":{"zip_code":"8820861","prefecture":"宮崎県","prefecture_kana":"ミヤザキケン","city":"延岡市","city_kana":"ノベオカシ","town":"別府町","town_kana":"ビュウマチ","prefecture_code":45},"0065":{"zip_code":"8820065","prefecture":"宮崎県","prefecture_kana":"ミヤザキケン","city":"延岡市","city_kana":"ノベオカシ","town":"平田町","town_kana":"ヒラタマチ","prefecture_code":45},"0866":{"zip_code":"8820866","prefecture":"宮崎県","prefecture_kana":"ミヤザキケン","city":"延岡市","city_kana":"ノベオカシ","town":"平原町","town_kana":"ヒラバルマチ","prefecture_code":45},"0022":{"zip_code":"8820022","prefecture":"宮崎県","prefecture_kana":"ミヤザキケン","city":"延岡市","city_kana":"ノベオカシ","town":"二ツ島町","town_kana":"フタツシママチ","prefecture_code":45},"0826":{"zip_code":"8820826","prefecture":"宮崎県","prefecture_kana":"ミヤザキケン","city":"延岡市","city_kana":"ノベオカシ","town":"船倉町","town_kana":"フナグラマチ","prefecture_code":45},"0063":{"zip_code":"8820063","prefecture":"宮崎県","prefecture_kana":"ミヤザキケン","city":"延岡市","city_kana":"ノベオカシ","town":"古川町","town_kana":"フルカワマチ","prefecture_code":45},"0837":{"zip_code":"8820837","prefecture":"宮崎県","prefecture_kana":"ミヤザキケン","city":"延岡市","city_kana":"ノベオカシ","town":"古城町","town_kana":"フルシロマチ","prefecture_code":45},"0853":{"zip_code":"8820853","prefecture":"宮崎県","prefecture_kana":"ミヤザキケン","city":"延岡市","city_kana":"ノベオカシ","town":"方財町","town_kana":"ホウザイマチ","prefecture_code":45},"0082":{"zip_code":"8820082","prefecture":"宮崎県","prefecture_kana":"ミヤザキケン","city":"延岡市","city_kana":"ノベオカシ","town":"祝子町","town_kana":"ホウリマチ","prefecture_code":45},"0074":{"zip_code":"8820074","prefecture":"宮崎県","prefecture_kana":"ミヤザキケン","city":"延岡市","city_kana":"ノベオカシ","town":"細見町","town_kana":"ホソミマチ","prefecture_code":45},"0812":{"zip_code":"8820812","prefecture":"宮崎県","prefecture_kana":"ミヤザキケン","city":"延岡市","city_kana":"ノベオカシ","town":"本小路","town_kana":"ホンコウジ","prefecture_code":45},"0821":{"zip_code":"8820821","prefecture":"宮崎県","prefecture_kana":"ミヤザキケン","city":"延岡市","city_kana":"ノベオカシ","town":"本町","town_kana":"ホンマチ","prefecture_code":45},"0066":{"zip_code":"8820066","prefecture":"宮崎県","prefecture_kana":"ミヤザキケン","city":"延岡市","city_kana":"ノベオカシ","town":"舞野町","town_kana":"マイノマチ","prefecture_code":45},"0023":{"zip_code":"8820023","prefecture":"宮崎県","prefecture_kana":"ミヤザキケン","city":"延岡市","city_kana":"ノベオカシ","town":"牧町","town_kana":"マキマチ","prefecture_code":45},"0062":{"zip_code":"8820062","prefecture":"宮崎県","prefecture_kana":"ミヤザキケン","city":"延岡市","city_kana":"ノベオカシ","town":"松山町","town_kana":"マツヤママチ","prefecture_code":45},"0881":{"zip_code":"8820881","prefecture":"宮崎県","prefecture_kana":"ミヤザキケン","city":"延岡市","city_kana":"ノベオカシ","town":"三須町","town_kana":"ミスマチ","prefecture_code":45},"0015":{"zip_code":"8820015","prefecture":"宮崎県","prefecture_kana":"ミヤザキケン","city":"延岡市","city_kana":"ノベオカシ","town":"水尻町","town_kana":"ミズシリマチ","prefecture_code":45},"0842":{"zip_code":"8820842","prefecture":"宮崎県","prefecture_kana":"ミヤザキケン","city":"延岡市","city_kana":"ノベオカシ","town":"三ツ瀬町","town_kana":"ミツゼマチ","prefecture_code":45},"0863":{"zip_code":"8820863","prefecture":"宮崎県","prefecture_kana":"ミヤザキケン","city":"延岡市","city_kana":"ノベオカシ","town":"緑ケ丘","town_kana":"ミドリガオカ","prefecture_code":45},"0822":{"zip_code":"8820822","prefecture":"宮崎県","prefecture_kana":"ミヤザキケン","city":"延岡市","city_kana":"ノベオカシ","town":"南町","town_kana":"ミナミマチ","prefecture_code":45},"0092":{"zip_code":"8820092","prefecture":"宮崎県","prefecture_kana":"ミヤザキケン","city":"延岡市","city_kana":"ノベオカシ","town":"宮長町","town_kana":"ミヤナガマチ","prefecture_code":45},"0087":{"zip_code":"8820087","prefecture":"宮崎県","prefecture_kana":"ミヤザキケン","city":"延岡市","city_kana":"ノベオカシ","town":"妙町","town_kana":"ミョウマチ","prefecture_code":45},"0077":{"zip_code":"8820077","prefecture":"宮崎県","prefecture_kana":"ミヤザキケン","city":"延岡市","city_kana":"ノベオカシ","town":"行縢町","town_kana":"ムカバキマチ","prefecture_code":45},"0021":{"zip_code":"8820021","prefecture":"宮崎県","prefecture_kana":"ミヤザキケン","city":"延岡市","city_kana":"ノベオカシ","town":"無鹿町","town_kana":"ムシカマチ","prefecture_code":45},"0094":{"zip_code":"8820094","prefecture":"宮崎県","prefecture_kana":"ミヤザキケン","city":"延岡市","city_kana":"ノベオカシ","town":"安井町","town_kana":"ヤスイマチ","prefecture_code":45},"0815":{"zip_code":"8820815","prefecture":"宮崎県","prefecture_kana":"ミヤザキケン","city":"延岡市","city_kana":"ノベオカシ","town":"柳沢町","town_kana":"ヤナザワマチ","prefecture_code":45},"0055":{"zip_code":"8820055","prefecture":"宮崎県","prefecture_kana":"ミヤザキケン","city":"延岡市","city_kana":"ノベオカシ","town":"山下町","town_kana":"ヤマシタマチ","prefecture_code":45},"0037":{"zip_code":"8820037","prefecture":"宮崎県","prefecture_kana":"ミヤザキケン","city":"延岡市","city_kana":"ノベオカシ","town":"山月町","town_kana":"ヤマツキマチ","prefecture_code":45},"0083":{"zip_code":"8820083","prefecture":"宮崎県","prefecture_kana":"ミヤザキケン","city":"延岡市","city_kana":"ノベオカシ","town":"柚木町","town_kana":"ユウギマチ","prefecture_code":45},"0026":{"zip_code":"8820026","prefecture":"宮崎県","prefecture_kana":"ミヤザキケン","city":"延岡市","city_kana":"ノベオカシ","town":"柚の木田町","town_kana":"ユノキダマチ","prefecture_code":45},"0072":{"zip_code":"8820072","prefecture":"宮崎県","prefecture_kana":"ミヤザキケン","city":"延岡市","city_kana":"ノベオカシ","town":"吉野町","town_kana":"ヨシノマチ","prefecture_code":45},"0875":{"zip_code":"8820875","prefecture":"宮崎県","prefecture_kana":"ミヤザキケン","city":"延岡市","city_kana":"ノベオカシ","town":"若葉町","town_kana":"ワカバマチ","prefecture_code":45},"1100":{"zip_code":"8821100","prefecture":"宮崎県","prefecture_kana":"ミヤザキケン","city":"西臼杵郡高千穂町","city_kana":"ニシウスキグンタカチホチョウ","town":"","town_kana":"","prefecture_code":45},"1621":{"zip_code":"8821621","prefecture":"宮崎県","prefecture_kana":"ミヤザキケン","city":"西臼杵郡高千穂町","city_kana":"ニシウスキグンタカチホチョウ","town":"岩戸","town_kana":"イワト","prefecture_code":45},"1102":{"zip_code":"8821102","prefecture":"宮崎県","prefecture_kana":"ミヤザキケン","city":"西臼杵郡高千穂町","city_kana":"ニシウスキグンタカチホチョウ","town":"押方","town_kana":"オシカタ","prefecture_code":45},"1622":{"zip_code":"8821622","prefecture":"宮崎県","prefecture_kana":"ミヤザキケン","city":"西臼杵郡高千穂町","city_kana":"ニシウスキグンタカチホチョウ","town":"上岩戸","town_kana":"カミイワト","prefecture_code":45},"1411":{"zip_code":"8821411","prefecture":"宮崎県","prefecture_kana":"ミヤザキケン","city":"西臼杵郡高千穂町","city_kana":"ニシウスキグンタカチホチョウ","town":"上野","town_kana":"カミノ","prefecture_code":45},"1414":{"zip_code":"8821414","prefecture":"宮崎県","prefecture_kana":"ミヤザキケン","city":"西臼杵郡高千穂町","city_kana":"ニシウスキグンタカチホチョウ","town":"河内","town_kana":"カワチ","prefecture_code":45},"1415":{"zip_code":"8821415","prefecture":"宮崎県","prefecture_kana":"ミヤザキケン","city":"西臼杵郡高千穂町","city_kana":"ニシウスキグンタカチホチョウ","town":"五ケ所","town_kana":"ゴカショ","prefecture_code":45},"1412":{"zip_code":"8821412","prefecture":"宮崎県","prefecture_kana":"ミヤザキケン","city":"西臼杵郡高千穂町","city_kana":"ニシウスキグンタカチホチョウ","town":"下野","town_kana":"シモノ","prefecture_code":45},"1413":{"zip_code":"8821413","prefecture":"宮崎県","prefecture_kana":"ミヤザキケン","city":"西臼杵郡高千穂町","city_kana":"ニシウスキグンタカチホチョウ","town":"田原","town_kana":"タバル","prefecture_code":45},"1101":{"zip_code":"8821101","prefecture":"宮崎県","prefecture_kana":"ミヤザキケン","city":"西臼杵郡高千穂町","city_kana":"ニシウスキグンタカチホチョウ","town":"三田井","town_kana":"ミタイ","prefecture_code":45},"1103":{"zip_code":"8821103","prefecture":"宮崎県","prefecture_kana":"ミヤザキケン","city":"西臼杵郡高千穂町","city_kana":"ニシウスキグンタカチホチョウ","town":"向山","town_kana":"ムコウヤマ","prefecture_code":45},"0400":{"zip_code":"8820400","prefecture":"宮崎県","prefecture_kana":"ミヤザキケン","city":"西臼杵郡日之影町","city_kana":"ニシウスキグンヒノカゲチョウ","town":"","town_kana":"","prefecture_code":45},"0302":{"zip_code":"8820302","prefecture":"宮崎県","prefecture_kana":"ミヤザキケン","city":"西臼杵郡日之影町","city_kana":"ニシウスキグンヒノカゲチョウ","town":"岩井川境野","town_kana":"イワイカワサカイノ","prefecture_code":45},"0402":{"zip_code":"8820402","prefecture":"宮崎県","prefecture_kana":"ミヤザキケン","city":"西臼杵郡日之影町","city_kana":"ニシウスキグンヒノカゲチョウ","town":"岩井川","town_kana":"イワイカワ","prefecture_code":45},"0301":[{"zip_code":"8820301","prefecture":"宮崎県","prefecture_kana":"ミヤザキケン","city":"西臼杵郡日之影町","city_kana":"ニシウスキグンヒノカゲチョウ","town":"七折阿下","town_kana":"ナナオリアゲ","prefecture_code":45},{"zip_code":"8820301","prefecture":"宮崎県","prefecture_kana":"ミヤザキケン","city":"西臼杵郡日之影町","city_kana":"ニシウスキグンヒノカゲチョウ","town":"七折笠戸","town_kana":"ナナオリカサド","prefecture_code":45},{"zip_code":"8820301","prefecture":"宮崎県","prefecture_kana":"ミヤザキケン","city":"西臼杵郡日之影町","city_kana":"ニシウスキグンヒノカゲチョウ","town":"七折椛木","town_kana":"ナナオリカバギ","prefecture_code":45},{"zip_code":"8820301","prefecture":"宮崎県","prefecture_kana":"ミヤザキケン","city":"西臼杵郡日之影町","city_kana":"ニシウスキグンヒノカゲチョウ","town":"七折鹿川","town_kana":"ナナオリシシガワ","prefecture_code":45},{"zip_code":"8820301","prefecture":"宮崎県","prefecture_kana":"ミヤザキケン","city":"西臼杵郡日之影町","city_kana":"ニシウスキグンヒノカゲチョウ","town":"七折新町","town_kana":"ナナオリシンマチ","prefecture_code":45},{"zip_code":"8820301","prefecture":"宮崎県","prefecture_kana":"ミヤザキケン","city":"西臼杵郡日之影町","city_kana":"ニシウスキグンヒノカゲチョウ","town":"七折滝ノ内","town_kana":"ナナオリタキノウチ","prefecture_code":45},{"zip_code":"8820301","prefecture":"宮崎県","prefecture_kana":"ミヤザキケン","city":"西臼杵郡日之影町","city_kana":"ニシウスキグンヒノカゲチョウ","town":"七折中川","town_kana":"ナナオリナカガワ","prefecture_code":45},{"zip_code":"8820301","prefecture":"宮崎県","prefecture_kana":"ミヤザキケン","city":"西臼杵郡日之影町","city_kana":"ニシウスキグンヒノカゲチョウ","town":"七折西ノ内","town_kana":"ナナオリニシノウチ","prefecture_code":45},{"zip_code":"8820301","prefecture":"宮崎県","prefecture_kana":"ミヤザキケン","city":"西臼杵郡日之影町","city_kana":"ニシウスキグンヒノカゲチョウ","town":"七折舟ノ尾","town_kana":"ナナオリフネノオ","prefecture_code":45},{"zip_code":"8820301","prefecture":"宮崎県","prefecture_kana":"ミヤザキケン","city":"西臼杵郡日之影町","city_kana":"ニシウスキグンヒノカゲチョウ","town":"七折八戸","town_kana":"ナナオリヤト","prefecture_code":45},{"zip_code":"8820301","prefecture":"宮崎県","prefecture_kana":"ミヤザキケン","city":"西臼杵郡日之影町","city_kana":"ニシウスキグンヒノカゲチョウ","town":"七折簗崎","town_kana":"ナナオリヤナザキ","prefecture_code":45}],"0401":{"zip_code":"8820401","prefecture":"宮崎県","prefecture_kana":"ミヤザキケン","city":"西臼杵郡日之影町","city_kana":"ニシウスキグンヒノカゲチョウ","town":"七折","town_kana":"ナナオリ","prefecture_code":45},"0403":{"zip_code":"8820403","prefecture":"宮崎県","prefecture_kana":"ミヤザキケン","city":"西臼杵郡日之影町","city_kana":"ニシウスキグンヒノカゲチョウ","town":"見立","town_kana":"ミタテ","prefecture_code":45},"0304":{"zip_code":"8820304","prefecture":"宮崎県","prefecture_kana":"ミヤザキケン","city":"西臼杵郡日之影町","city_kana":"ニシウスキグンヒノカゲチョウ","town":"分城","town_kana":"ワケジョウ","prefecture_code":45},"1200":{"zip_code":"8821200","prefecture":"宮崎県","prefecture_kana":"ミヤザキケン","city":"西臼杵郡五ヶ瀬町","city_kana":"ニシウスキグンゴカセチョウ","town":"","town_kana":"","prefecture_code":45},"1201":{"zip_code":"8821201","prefecture":"宮崎県","prefecture_kana":"ミヤザキケン","city":"西臼杵郡五ヶ瀬町","city_kana":"ニシウスキグンゴカセチョウ","town":"鞍岡","town_kana":"クラオカ","prefecture_code":45},"1202":{"zip_code":"8821202","prefecture":"宮崎県","prefecture_kana":"ミヤザキケン","city":"西臼杵郡五ヶ瀬町","city_kana":"ニシウスキグンゴカセチョウ","town":"桑野内","town_kana":"クワノウチ","prefecture_code":45},"1203":{"zip_code":"8821203","prefecture":"宮崎県","prefecture_kana":"ミヤザキケン","city":"西臼杵郡五ヶ瀬町","city_kana":"ニシウスキグンゴカセチョウ","town":"三ヶ所","town_kana":"サンカショ","prefecture_code":45}}