{"0000":{"zip_code":"8830000","prefecture":"宮崎県","prefecture_kana":"ミヤザキケン","city":"日向市","city_kana":"ヒュウガシ","town":"以下に掲載がない場合","town_kana":"イカニケイサイガナイバアイ","prefecture_code":45},"0003":{"zip_code":"8830003","prefecture":"宮崎県","prefecture_kana":"ミヤザキケン","city":"日向市","city_kana":"ヒュウガシ","town":"伊勢ケ浜","town_kana":"イセガハマ","prefecture_code":45},"0044":{"zip_code":"8830044","prefecture":"宮崎県","prefecture_kana":"ミヤザキケン","city":"日向市","city_kana":"ヒュウガシ","town":"上町","town_kana":"ウエマチ","prefecture_code":45},"0012":{"zip_code":"8830012","prefecture":"宮崎県","prefecture_kana":"ミヤザキケン","city":"日向市","city_kana":"ヒュウガシ","town":"江良町","town_kana":"エラチョウ","prefecture_code":45},"0053":{"zip_code":"8830053","prefecture":"宮崎県","prefecture_kana":"ミヤザキケン","city":"日向市","city_kana":"ヒュウガシ","town":"梶木町","town_kana":"カジキチョウ","prefecture_code":45},"0066":{"zip_code":"8830066","prefecture":"宮崎県","prefecture_kana":"ミヤザキケン","city":"日向市","city_kana":"ヒュウガシ","town":"亀崎","town_kana":"カメザキ","prefecture_code":45},"0068":{"zip_code":"8830068","prefecture":"宮崎県","prefecture_kana":"ミヤザキケン","city":"日向市","city_kana":"ヒュウガシ","town":"亀崎西","town_kana":"カメザキニシ","prefecture_code":45},"0067":{"zip_code":"8830067","prefecture":"宮崎県","prefecture_kana":"ミヤザキケン","city":"日向市","city_kana":"ヒュウガシ","town":"亀崎東","town_kana":"カメザキヒガシ","prefecture_code":45},"0041":{"zip_code":"8830041","prefecture":"宮崎県","prefecture_kana":"ミヤザキケン","city":"日向市","city_kana":"ヒュウガシ","town":"北町","town_kana":"キタマチ","prefecture_code":45},"0038":{"zip_code":"8830038","prefecture":"宮崎県","prefecture_kana":"ミヤザキケン","city":"日向市","city_kana":"ヒュウガシ","town":"迎洋園","town_kana":"ゲイヨウエン","prefecture_code":45},"0021":{"zip_code":"8830021","prefecture":"宮崎県","prefecture_kana":"ミヤザキケン","city":"日向市","city_kana":"ヒュウガシ","town":"財光寺","town_kana":"ザイコウジ","prefecture_code":45},"0024":{"zip_code":"8830024","prefecture":"宮崎県","prefecture_kana":"ミヤザキケン","city":"日向市","city_kana":"ヒュウガシ","town":"財光寺往還町","town_kana":"ザイコウジオウカンチョウ","prefecture_code":45},"0023":{"zip_code":"8830023","prefecture":"宮崎県","prefecture_kana":"ミヤザキケン","city":"日向市","city_kana":"ヒュウガシ","town":"財光寺沖町","town_kana":"ザイコウジオキマチ","prefecture_code":45},"0033":{"zip_code":"8830033","prefecture":"宮崎県","prefecture_kana":"ミヤザキケン","city":"日向市","city_kana":"ヒュウガシ","town":"塩見","town_kana":"シオミ","prefecture_code":45},"0013":{"zip_code":"8830013","prefecture":"宮崎県","prefecture_kana":"ミヤザキケン","city":"日向市","city_kana":"ヒュウガシ","town":"新生町","town_kana":"シンセイチョウ","prefecture_code":45},"0011":{"zip_code":"8830011","prefecture":"宮崎県","prefecture_kana":"ミヤザキケン","city":"日向市","city_kana":"ヒュウガシ","town":"曽根町","town_kana":"ソネチョウ","prefecture_code":45},"0061":{"zip_code":"8830061","prefecture":"宮崎県","prefecture_kana":"ミヤザキケン","city":"日向市","city_kana":"ヒュウガシ","town":"大王町","town_kana":"ダイオウチョウ","prefecture_code":45},"0042":{"zip_code":"8830042","prefecture":"宮崎県","prefecture_kana":"ミヤザキケン","city":"日向市","city_kana":"ヒュウガシ","town":"高砂町","town_kana":"タカサゴチョウ","prefecture_code":45},"0063":{"zip_code":"8830063","prefecture":"宮崎県","prefecture_kana":"ミヤザキケン","city":"日向市","city_kana":"ヒュウガシ","town":"竹島町","town_kana":"タケシマチョウ","prefecture_code":45},"0052":{"zip_code":"8830052","prefecture":"宮崎県","prefecture_kana":"ミヤザキケン","city":"日向市","city_kana":"ヒュウガシ","town":"鶴町","town_kana":"ツルマチ","prefecture_code":45},"0213":{"zip_code":"8830213","prefecture":"宮崎県","prefecture_kana":"ミヤザキケン","city":"日向市","city_kana":"ヒュウガシ","town":"東郷町下三ケ","town_kana":"トウゴウチョウシモサンゲ","prefecture_code":45},"0211":{"zip_code":"8830211","prefecture":"宮崎県","prefecture_kana":"ミヤザキケン","city":"日向市","city_kana":"ヒュウガシ","town":"東郷町坪谷","town_kana":"トウゴウチョウツボヤ","prefecture_code":45},"0108":{"zip_code":"8830108","prefecture":"宮崎県","prefecture_kana":"ミヤザキケン","city":"日向市","city_kana":"ヒュウガシ","town":"東郷町八重原迫野内","town_kana":"トウゴウチョウハエバルサコノウチ","prefecture_code":45},"0109":{"zip_code":"8830109","prefecture":"宮崎県","prefecture_kana":"ミヤザキケン","city":"日向市","city_kana":"ヒュウガシ","town":"東郷町山陰","town_kana":"トウゴウチョウヤマゲ","prefecture_code":45},"0101":{"zip_code":"8830101","prefecture":"宮崎県","prefecture_kana":"ミヤザキケン","city":"日向市","city_kana":"ヒュウガシ","town":"東郷町山陰乙（その他）","town_kana":"トウゴウチョウヤマゲオツ(ソノタ)","prefecture_code":45},"0105":{"zip_code":"8830105","prefecture":"宮崎県","prefecture_kana":"ミヤザキケン","city":"日向市","city_kana":"ヒュウガシ","town":"東郷町山陰己","town_kana":"トウゴウチョウヤマゲキ","prefecture_code":45},"0107":{"zip_code":"8830107","prefecture":"宮崎県","prefecture_kana":"ミヤザキケン","city":"日向市","city_kana":"ヒュウガシ","town":"東郷町山陰庚","town_kana":"トウゴウチョウヤマゲコウ","prefecture_code":45},"0106":{"zip_code":"8830106","prefecture":"宮崎県","prefecture_kana":"ミヤザキケン","city":"日向市","city_kana":"ヒュウガシ","town":"東郷町山陰辛","town_kana":"トウゴウチョウヤマゲシン","prefecture_code":45},"0103":{"zip_code":"8830103","prefecture":"宮崎県","prefecture_kana":"ミヤザキケン","city":"日向市","city_kana":"ヒュウガシ","town":"東郷町山陰丁","town_kana":"トウゴウチョウヤマゲテイ","prefecture_code":45},"0102":{"zip_code":"8830102","prefecture":"宮崎県","prefecture_kana":"ミヤザキケン","city":"日向市","city_kana":"ヒュウガシ","town":"東郷町山陰丙","town_kana":"トウゴウチョウヤマゲヘイ","prefecture_code":45},"0104":{"zip_code":"8830104","prefecture":"宮崎県","prefecture_kana":"ミヤザキケン","city":"日向市","city_kana":"ヒュウガシ","town":"東郷町山陰戊（５１３の１以内）","town_kana":"トウゴウチョウヤマゲボ(513ノ1イナイ)","prefecture_code":45},"0212":{"zip_code":"8830212","prefecture":"宮崎県","prefecture_kana":"ミヤザキケン","city":"日向市","city_kana":"ヒュウガシ","town":"東郷町山陰戊（その他）","town_kana":"トウゴウチョウヤマゲボ(ソノタ)","prefecture_code":45},"0034":{"zip_code":"8830034","prefecture":"宮崎県","prefecture_kana":"ミヤザキケン","city":"日向市","city_kana":"ヒュウガシ","town":"富高","town_kana":"トミタカ","prefecture_code":45},"0005":{"zip_code":"8830005","prefecture":"宮崎県","prefecture_kana":"ミヤザキケン","city":"日向市","city_kana":"ヒュウガシ","town":"中堀町","town_kana":"ナカホリチョウ","prefecture_code":45},"0046":{"zip_code":"8830046","prefecture":"宮崎県","prefecture_kana":"ミヤザキケン","city":"日向市","city_kana":"ヒュウガシ","town":"中町","town_kana":"ナカマチ","prefecture_code":45},"0015":{"zip_code":"8830015","prefecture":"宮崎県","prefecture_kana":"ミヤザキケン","city":"日向市","city_kana":"ヒュウガシ","town":"永江町","town_kana":"ナガエチョウ","prefecture_code":45},"0004":{"zip_code":"8830004","prefecture":"宮崎県","prefecture_kana":"ミヤザキケン","city":"日向市","city_kana":"ヒュウガシ","town":"浜町","town_kana":"ハママチ","prefecture_code":45},"0014":{"zip_code":"8830014","prefecture":"宮崎県","prefecture_kana":"ミヤザキケン","city":"日向市","city_kana":"ヒュウガシ","town":"原町","town_kana":"ハラマチ","prefecture_code":45},"0035":{"zip_code":"8830035","prefecture":"宮崎県","prefecture_kana":"ミヤザキケン","city":"日向市","city_kana":"ヒュウガシ","town":"春原町","town_kana":"ハルハラチョウ","prefecture_code":45},"0062":{"zip_code":"8830062","prefecture":"宮崎県","prefecture_kana":"ミヤザキケン","city":"日向市","city_kana":"ヒュウガシ","town":"日知屋","town_kana":"ヒチヤ","prefecture_code":45},"0064":{"zip_code":"8830064","prefecture":"宮崎県","prefecture_kana":"ミヤザキケン","city":"日向市","city_kana":"ヒュウガシ","town":"日知屋古田町","town_kana":"ヒチヤフルタチョウ","prefecture_code":45},"0022":{"zip_code":"8830022","prefecture":"宮崎県","prefecture_kana":"ミヤザキケン","city":"日向市","city_kana":"ヒュウガシ","town":"平岩","town_kana":"ヒライワ","prefecture_code":45},"0031":{"zip_code":"8830031","prefecture":"宮崎県","prefecture_kana":"ミヤザキケン","city":"日向市","city_kana":"ヒュウガシ","town":"比良町","town_kana":"ヒラチョウ","prefecture_code":45},"0002":{"zip_code":"8830002","prefecture":"宮崎県","prefecture_kana":"ミヤザキケン","city":"日向市","city_kana":"ヒュウガシ","town":"平野町","town_kana":"ヒラノチョウ","prefecture_code":45},"0037":{"zip_code":"8830037","prefecture":"宮崎県","prefecture_kana":"ミヤザキケン","city":"日向市","city_kana":"ヒュウガシ","town":"不動寺","town_kana":"フドウジ","prefecture_code":45},"0065":{"zip_code":"8830065","prefecture":"宮崎県","prefecture_kana":"ミヤザキケン","city":"日向市","city_kana":"ヒュウガシ","town":"船場町","town_kana":"フナバチョウ","prefecture_code":45},"0001":{"zip_code":"8830001","prefecture":"宮崎県","prefecture_kana":"ミヤザキケン","city":"日向市","city_kana":"ヒュウガシ","town":"細島","town_kana":"ホソシマ","prefecture_code":45},"0045":{"zip_code":"8830045","prefecture":"宮崎県","prefecture_kana":"ミヤザキケン","city":"日向市","city_kana":"ヒュウガシ","town":"本町","town_kana":"ホンマチ","prefecture_code":45},"0036":{"zip_code":"8830036","prefecture":"宮崎県","prefecture_kana":"ミヤザキケン","city":"日向市","city_kana":"ヒュウガシ","town":"南町","town_kana":"ミナミマチ","prefecture_code":45},"0043":{"zip_code":"8830043","prefecture":"宮崎県","prefecture_kana":"ミヤザキケン","city":"日向市","city_kana":"ヒュウガシ","town":"都町","town_kana":"ミヤコマチ","prefecture_code":45},"0051":{"zip_code":"8830051","prefecture":"宮崎県","prefecture_kana":"ミヤザキケン","city":"日向市","city_kana":"ヒュウガシ","town":"向江町","town_kana":"ムカエチョウ","prefecture_code":45},"0032":{"zip_code":"8830032","prefecture":"宮崎県","prefecture_kana":"ミヤザキケン","city":"日向市","city_kana":"ヒュウガシ","town":"山下町","town_kana":"ヤマシタチョウ","prefecture_code":45},"0006":{"zip_code":"8830006","prefecture":"宮崎県","prefecture_kana":"ミヤザキケン","city":"日向市","city_kana":"ヒュウガシ","town":"山手町","town_kana":"ヤマテチョウ","prefecture_code":45},"1300":{"zip_code":"8831300","prefecture":"宮崎県","prefecture_kana":"ミヤザキケン","city":"東臼杵郡諸塚村","city_kana":"ヒガシウスキグンモロツカソン","town":"以下に掲載がない場合","town_kana":"イカニケイサイガナイバアイ","prefecture_code":45},"1301":{"zip_code":"8831301","prefecture":"宮崎県","prefecture_kana":"ミヤザキケン","city":"東臼杵郡諸塚村","city_kana":"ヒガシウスキグンモロツカソン","town":"家代","town_kana":"エシロ","prefecture_code":45},"1402":{"zip_code":"8831402","prefecture":"宮崎県","prefecture_kana":"ミヤザキケン","city":"東臼杵郡諸塚村","city_kana":"ヒガシウスキグンモロツカソン","town":"七ツ山（飯干、小原井、川内、立岩、八重の平、本村）","town_kana":"ナナツヤマ(イイボシ、オバライ、カワウチ、タテイワ、ハエノヒラ、ホンムラ)","prefecture_code":45},"1302":{"zip_code":"8831302","prefecture":"宮崎県","prefecture_kana":"ミヤザキケン","city":"東臼杵郡諸塚村","city_kana":"ヒガシウスキグンモロツカソン","town":"七ツ山（その他）","town_kana":"ナナツヤマ(ソノタ)","prefecture_code":45},"1600":{"zip_code":"8831600","prefecture":"宮崎県","prefecture_kana":"ミヤザキケン","city":"東臼杵郡椎葉村","city_kana":"ヒガシウスキグンシイバソン","town":"以下に掲載がない場合","town_kana":"イカニケイサイガナイバアイ","prefecture_code":45},"0402":{"zip_code":"8830402","prefecture":"宮崎県","prefecture_kana":"ミヤザキケン","city":"東臼杵郡椎葉村","city_kana":"ヒガシウスキグンシイバソン","town":"大河内（１〜１３０２番地）","town_kana":"オオカワウチ(1-1302バンチ)","prefecture_code":45},"1602":{"zip_code":"8831602","prefecture":"宮崎県","prefecture_kana":"ミヤザキケン","city":"東臼杵郡椎葉村","city_kana":"ヒガシウスキグンシイバソン","town":"大河内（その他）","town_kana":"オオカワウチ(ソノタ)","prefecture_code":45},"1601":{"zip_code":"8831601","prefecture":"宮崎県","prefecture_kana":"ミヤザキケン","city":"東臼杵郡椎葉村","city_kana":"ヒガシウスキグンシイバソン","town":"下福良","town_kana":"シモフクラ","prefecture_code":45},"1603":{"zip_code":"8831603","prefecture":"宮崎県","prefecture_kana":"ミヤザキケン","city":"東臼杵郡椎葉村","city_kana":"ヒガシウスキグンシイバソン","town":"不土野","town_kana":"フドノ","prefecture_code":45},"1604":{"zip_code":"8831604","prefecture":"宮崎県","prefecture_kana":"ミヤザキケン","city":"東臼杵郡椎葉村","city_kana":"ヒガシウスキグンシイバソン","town":"松尾","town_kana":"マツオ","prefecture_code":45},"1100":{"zip_code":"8831100","prefecture":"宮崎県","prefecture_kana":"ミヤザキケン","city":"東臼杵郡美郷町","city_kana":"ヒガシウスキグンミサトチョウ","town":"以下に掲載がない場合","town_kana":"イカニケイサイガナイバアイ","prefecture_code":45},"1212":{"zip_code":"8831212","prefecture":"宮崎県","prefecture_kana":"ミヤザキケン","city":"東臼杵郡美郷町","city_kana":"ヒガシウスキグンミサトチョウ","town":"西郷小原","town_kana":"サイゴウオバル","prefecture_code":45},"1101":{"zip_code":"8831101","prefecture":"宮崎県","prefecture_kana":"ミヤザキケン","city":"東臼杵郡美郷町","city_kana":"ヒガシウスキグンミサトチョウ","town":"西郷田代","town_kana":"サイゴウタシロ","prefecture_code":45},"1102":{"zip_code":"8831102","prefecture":"宮崎県","prefecture_kana":"ミヤザキケン","city":"東臼杵郡美郷町","city_kana":"ヒガシウスキグンミサトチョウ","town":"西郷立石","town_kana":"サイゴウタテイシ","prefecture_code":45},"1211":{"zip_code":"8831211","prefecture":"宮崎県","prefecture_kana":"ミヤザキケン","city":"東臼杵郡美郷町","city_kana":"ヒガシウスキグンミサトチョウ","town":"西郷山三ヶ","town_kana":"サイゴウヤマサンガ","prefecture_code":45},"0303":{"zip_code":"8830303","prefecture":"宮崎県","prefecture_kana":"ミヤザキケン","city":"東臼杵郡美郷町","city_kana":"ヒガシウスキグンミサトチョウ","town":"南郷上渡川","town_kana":"ナンゴウカミドガワ","prefecture_code":45},"0304":{"zip_code":"8830304","prefecture":"宮崎県","prefecture_kana":"ミヤザキケン","city":"東臼杵郡美郷町","city_kana":"ヒガシウスキグンミサトチョウ","town":"南郷鬼神野","town_kana":"ナンゴウキジノ","prefecture_code":45},"0302":{"zip_code":"8830302","prefecture":"宮崎県","prefecture_kana":"ミヤザキケン","city":"東臼杵郡美郷町","city_kana":"ヒガシウスキグンミサトチョウ","town":"南郷中渡川","town_kana":"ナンゴウナカドガワ","prefecture_code":45},"0306":{"zip_code":"8830306","prefecture":"宮崎県","prefecture_kana":"ミヤザキケン","city":"東臼杵郡美郷町","city_kana":"ヒガシウスキグンミサトチョウ","town":"南郷神門","town_kana":"ナンゴウミカド","prefecture_code":45},"0301":{"zip_code":"8830301","prefecture":"宮崎県","prefecture_kana":"ミヤザキケン","city":"東臼杵郡美郷町","city_kana":"ヒガシウスキグンミサトチョウ","town":"南郷水清谷","town_kana":"ナンゴウミズシダニ","prefecture_code":45},"0305":{"zip_code":"8830305","prefecture":"宮崎県","prefecture_kana":"ミヤザキケン","city":"東臼杵郡美郷町","city_kana":"ヒガシウスキグンミサトチョウ","town":"南郷山三ヶ","town_kana":"ナンゴウヤマサンガ","prefecture_code":45}}