{"0000":{"zip_code":"8840000","prefecture":"宮崎県","prefecture_kana":"ミヤザキケン","city":"児湯郡高鍋町","city_kana":"コユグンタカナベチョウ","town":"以下に掲載がない場合","town_kana":"イカニケイサイガナイバアイ","prefecture_code":45},"0006":{"zip_code":"8840006","prefecture":"宮崎県","prefecture_kana":"ミヤザキケン","city":"児湯郡高鍋町","city_kana":"コユグンタカナベチョウ","town":"上江","town_kana":"ウワエ","prefecture_code":45},"0004":{"zip_code":"8840004","prefecture":"宮崎県","prefecture_kana":"ミヤザキケン","city":"児湯郡高鍋町","city_kana":"コユグンタカナベチョウ","town":"蚊口浦","town_kana":"カグチウラ","prefecture_code":45},"0002":{"zip_code":"8840002","prefecture":"宮崎県","prefecture_kana":"ミヤザキケン","city":"児湯郡高鍋町","city_kana":"コユグンタカナベチョウ","town":"北高鍋","town_kana":"キタタカナベ","prefecture_code":45},"0001":{"zip_code":"8840001","prefecture":"宮崎県","prefecture_kana":"ミヤザキケン","city":"児湯郡高鍋町","city_kana":"コユグンタカナベチョウ","town":"高鍋町","town_kana":"タカナベマチ","prefecture_code":45},"0003":{"zip_code":"8840003","prefecture":"宮崎県","prefecture_kana":"ミヤザキケン","city":"児湯郡高鍋町","city_kana":"コユグンタカナベチョウ","town":"南高鍋","town_kana":"ミナミタカナベ","prefecture_code":45},"0005":{"zip_code":"8840005","prefecture":"宮崎県","prefecture_kana":"ミヤザキケン","city":"児湯郡高鍋町","city_kana":"コユグンタカナベチョウ","town":"持田","town_kana":"モチダ","prefecture_code":45},"0100":{"zip_code":"8840100","prefecture":"宮崎県","prefecture_kana":"ミヤザキケン","city":"児湯郡木城町","city_kana":"コユグンキジョウチョウ","town":"以下に掲載がない場合","town_kana":"イカニケイサイガナイバアイ","prefecture_code":45},"0104":{"zip_code":"8840104","prefecture":"宮崎県","prefecture_kana":"ミヤザキケン","city":"児湯郡木城町","city_kana":"コユグンキジョウチョウ","town":"石河内","town_kana":"イシカワウチ","prefecture_code":45},"0103":{"zip_code":"8840103","prefecture":"宮崎県","prefecture_kana":"ミヤザキケン","city":"児湯郡木城町","city_kana":"コユグンキジョウチョウ","town":"川原","town_kana":"カワバル","prefecture_code":45},"0102":{"zip_code":"8840102","prefecture":"宮崎県","prefecture_kana":"ミヤザキケン","city":"児湯郡木城町","city_kana":"コユグンキジョウチョウ","town":"椎木","town_kana":"シイノキ","prefecture_code":45},"0101":{"zip_code":"8840101","prefecture":"宮崎県","prefecture_kana":"ミヤザキケン","city":"児湯郡木城町","city_kana":"コユグンキジョウチョウ","town":"高城","town_kana":"タカジョウ","prefecture_code":45},"0105":{"zip_code":"8840105","prefecture":"宮崎県","prefecture_kana":"ミヤザキケン","city":"児湯郡木城町","city_kana":"コユグンキジョウチョウ","town":"中之又","town_kana":"ナカノマタ","prefecture_code":45}}