{"0000":{"zip_code":"8860000","prefecture":"宮崎県","prefecture_kana":"ミヤザキケン","city":"小林市","city_kana":"コバヤシシ","town":"","town_kana":"","prefecture_code":45},"0009":{"zip_code":"8860009","prefecture":"宮崎県","prefecture_kana":"ミヤザキケン","city":"小林市","city_kana":"コバヤシシ","town":"駅南","town_kana":"エキミナミ","prefecture_code":45},"0006":{"zip_code":"8860006","prefecture":"宮崎県","prefecture_kana":"ミヤザキケン","city":"小林市","city_kana":"コバヤシシ","town":"北西方","town_kana":"キタニシカタ","prefecture_code":45},"0115":{"zip_code":"8860115","prefecture":"宮崎県","prefecture_kana":"ミヤザキケン","city":"小林市","city_kana":"コバヤシシ","town":"須木内山","town_kana":"スキウチヤマ","prefecture_code":45},"0112":{"zip_code":"8860112","prefecture":"宮崎県","prefecture_kana":"ミヤザキケン","city":"小林市","city_kana":"コバヤシシ","town":"須木下田","town_kana":"スキシモダ","prefecture_code":45},"0113":{"zip_code":"8860113","prefecture":"宮崎県","prefecture_kana":"ミヤザキケン","city":"小林市","city_kana":"コバヤシシ","town":"須木鳥田町","town_kana":"スキトリダマチ","prefecture_code":45},"0111":{"zip_code":"8860111","prefecture":"宮崎県","prefecture_kana":"ミヤザキケン","city":"小林市","city_kana":"コバヤシシ","town":"須木中原","town_kana":"スキナカハラ","prefecture_code":45},"0114":{"zip_code":"8860114","prefecture":"宮崎県","prefecture_kana":"ミヤザキケン","city":"小林市","city_kana":"コバヤシシ","town":"須木奈佐木","town_kana":"スキナサキ","prefecture_code":45},"0003":{"zip_code":"8860003","prefecture":"宮崎県","prefecture_kana":"ミヤザキケン","city":"小林市","city_kana":"コバヤシシ","town":"堤","town_kana":"ツツミ","prefecture_code":45},"0002":{"zip_code":"8860002","prefecture":"宮崎県","prefecture_kana":"ミヤザキケン","city":"小林市","city_kana":"コバヤシシ","town":"水流迫","town_kana":"ツルザコ","prefecture_code":45},"0211":{"zip_code":"8860211","prefecture":"宮崎県","prefecture_kana":"ミヤザキケン","city":"小林市","city_kana":"コバヤシシ","town":"野尻町紙屋","town_kana":"ノジリチョウカミヤ","prefecture_code":45},"0212":{"zip_code":"8860212","prefecture":"宮崎県","prefecture_kana":"ミヤザキケン","city":"小林市","city_kana":"コバヤシシ","town":"野尻町東麓","town_kana":"ノジリチョウヒガシフモト","prefecture_code":45},"0213":{"zip_code":"8860213","prefecture":"宮崎県","prefecture_kana":"ミヤザキケン","city":"小林市","city_kana":"コバヤシシ","town":"野尻町三ケ野山","town_kana":"ノジリチョウミカノヤマ","prefecture_code":45},"0101":{"zip_code":"8860101","prefecture":"宮崎県","prefecture_kana":"ミヤザキケン","city":"小林市","city_kana":"コバヤシシ","town":"東方","town_kana":"ヒガシカタ","prefecture_code":45},"0001":{"zip_code":"8860001","prefecture":"宮崎県","prefecture_kana":"ミヤザキケン","city":"小林市","city_kana":"コバヤシシ","town":"東方","town_kana":"ヒガシカタ","prefecture_code":45},"0004":{"zip_code":"8860004","prefecture":"宮崎県","prefecture_kana":"ミヤザキケン","city":"小林市","city_kana":"コバヤシシ","town":"細野","town_kana":"ホソノ","prefecture_code":45},"0008":{"zip_code":"8860008","prefecture":"宮崎県","prefecture_kana":"ミヤザキケン","city":"小林市","city_kana":"コバヤシシ","town":"本町","town_kana":"ホンマチ","prefecture_code":45},"0007":{"zip_code":"8860007","prefecture":"宮崎県","prefecture_kana":"ミヤザキケン","city":"小林市","city_kana":"コバヤシシ","town":"真方","town_kana":"マガタ","prefecture_code":45},"0005":{"zip_code":"8860005","prefecture":"宮崎県","prefecture_kana":"ミヤザキケン","city":"小林市","city_kana":"コバヤシシ","town":"南西方","town_kana":"ミナミニシカタ","prefecture_code":45},"0203":[{"zip_code":"8860203","prefecture":"宮崎県","prefecture_kana":"ミヤザキケン","city":"東諸県郡綾町","city_kana":"ヒガシモロカタグンアヤチョウ","town":"南俣","town_kana":"ミナミマタ","prefecture_code":45},{"zip_code":"8860203","prefecture":"宮崎県","prefecture_kana":"ミヤザキケン","city":"東諸県郡綾町","city_kana":"ヒガシモロカタグンアヤチョウ","town":"南俣釜牟田","town_kana":"ミナミマタカマムタ","prefecture_code":45}]}