{"2162":{"zip_code":"8892162","prefecture":"宮崎県","prefecture_kana":"ミヤザキケン","city":"宮崎市","city_kana":"ミヤザキシ","town":"青島","town_kana":"アオシマ","prefecture_code":45},"2163":{"zip_code":"8892163","prefecture":"宮崎県","prefecture_kana":"ミヤザキケン","city":"宮崎市","city_kana":"ミヤザキシ","town":"青島西","town_kana":"アオシマニシ","prefecture_code":45},"2301":{"zip_code":"8892301","prefecture":"宮崎県","prefecture_kana":"ミヤザキケン","city":"宮崎市","city_kana":"ミヤザキシ","town":"内海","town_kana":"ウチウミ","prefecture_code":45},"2164":{"zip_code":"8892164","prefecture":"宮崎県","prefecture_kana":"ミヤザキケン","city":"宮崎市","city_kana":"ミヤザキシ","town":"折生迫","town_kana":"オリウザコ","prefecture_code":45},"2161":{"zip_code":"8892161","prefecture":"宮崎県","prefecture_kana":"ミヤザキケン","city":"宮崎市","city_kana":"ミヤザキシ","town":"加江田","town_kana":"カエダ","prefecture_code":45},"2156":{"zip_code":"8892156","prefecture":"宮崎県","prefecture_kana":"ミヤザキケン","city":"宮崎市","city_kana":"ミヤザキシ","town":"鏡洲","town_kana":"カガミズ","prefecture_code":45},"2154":{"zip_code":"8892154","prefecture":"宮崎県","prefecture_kana":"ミヤザキケン","city":"宮崎市","city_kana":"ミヤザキシ","town":"学園木花台桜","town_kana":"ガクエンキハナダイサクラ","prefecture_code":45},"2155":{"zip_code":"8892155","prefecture":"宮崎県","prefecture_kana":"ミヤザキケン","city":"宮崎市","city_kana":"ミヤザキシ","town":"学園木花台西","town_kana":"ガクエンキバナダイニシ","prefecture_code":45},"2153":{"zip_code":"8892153","prefecture":"宮崎県","prefecture_kana":"ミヤザキケン","city":"宮崎市","city_kana":"ミヤザキシ","town":"学園木花台南","town_kana":"ガクエンキバナダイミナミ","prefecture_code":45},"2152":{"zip_code":"8892152","prefecture":"宮崎県","prefecture_kana":"ミヤザキケン","city":"宮崎市","city_kana":"ミヤザキシ","town":"学園木花台北","town_kana":"ガクエンキバナダイキタ","prefecture_code":45},"1609":{"zip_code":"8891609","prefecture":"宮崎県","prefecture_kana":"ミヤザキケン","city":"宮崎市","city_kana":"ミヤザキシ","town":"清武町あさひ","town_kana":"キヨタケチョウアサヒ","prefecture_code":45},"1606":{"zip_code":"8891606","prefecture":"宮崎県","prefecture_kana":"ミヤザキケン","city":"宮崎市","city_kana":"ミヤザキシ","town":"清武町池田台","town_kana":"キヨタケチョウイケダダイ","prefecture_code":45},"1608":{"zip_code":"8891608","prefecture":"宮崎県","prefecture_kana":"ミヤザキケン","city":"宮崎市","city_kana":"ミヤザキシ","town":"清武町池田台北","town_kana":"キヨタケチョウイケダダイキタ","prefecture_code":45},"1602":{"zip_code":"8891602","prefecture":"宮崎県","prefecture_kana":"ミヤザキケン","city":"宮崎市","city_kana":"ミヤザキシ","town":"清武町今泉","town_kana":"キヨタケチョウイマイズミ","prefecture_code":45},"1612":{"zip_code":"8891612","prefecture":"宮崎県","prefecture_kana":"ミヤザキケン","city":"宮崎市","city_kana":"ミヤザキシ","town":"清武町岡","town_kana":"キヨタケチョウオカ","prefecture_code":45},"1607":{"zip_code":"8891607","prefecture":"宮崎県","prefecture_kana":"ミヤザキケン","city":"宮崎市","city_kana":"ミヤザキシ","town":"清武町加納","town_kana":"キヨタケチョウカノウ","prefecture_code":45},"1605":{"zip_code":"8891605","prefecture":"宮崎県","prefecture_kana":"ミヤザキケン","city":"宮崎市","city_kana":"ミヤザキシ","town":"清武町加納","town_kana":"キヨタケチョウカノウ","prefecture_code":45},"1601":{"zip_code":"8891601","prefecture":"宮崎県","prefecture_kana":"ミヤザキケン","city":"宮崎市","city_kana":"ミヤザキシ","town":"清武町木原","town_kana":"キヨタケチョウキハラ","prefecture_code":45},"1603":{"zip_code":"8891603","prefecture":"宮崎県","prefecture_kana":"ミヤザキケン","city":"宮崎市","city_kana":"ミヤザキシ","town":"清武町正手","town_kana":"キヨタケチョウショウデ","prefecture_code":45},"1611":{"zip_code":"8891611","prefecture":"宮崎県","prefecture_kana":"ミヤザキケン","city":"宮崎市","city_kana":"ミヤザキシ","town":"清武町新町","town_kana":"キヨタケチョウシンマチ","prefecture_code":45},"1613":{"zip_code":"8891613","prefecture":"宮崎県","prefecture_kana":"ミヤザキケン","city":"宮崎市","city_kana":"ミヤザキシ","town":"清武町西新町","town_kana":"キヨタケチョウニシシンマチ","prefecture_code":45},"1604":{"zip_code":"8891604","prefecture":"宮崎県","prefecture_kana":"ミヤザキケン","city":"宮崎市","city_kana":"ミヤザキシ","town":"清武町船引","town_kana":"キヨタケチョウフナヒキ","prefecture_code":45},"2151":{"zip_code":"8892151","prefecture":"宮崎県","prefecture_kana":"ミヤザキケン","city":"宮崎市","city_kana":"ミヤザキシ","town":"熊野","town_kana":"クマノ","prefecture_code":45},"1713":[{"zip_code":"8891713","prefecture":"宮崎県","prefecture_kana":"ミヤザキケン","city":"宮崎市","city_kana":"ミヤザキシ","town":"高岡町上倉永","town_kana":"タカオカチョウカミクラナガ","prefecture_code":45},{"zip_code":"8891713","prefecture":"宮崎県","prefecture_kana":"ミヤザキケン","city":"宮崎市","city_kana":"ミヤザキシ","town":"高岡町上倉永内の八重","town_kana":"タカオカチョウカミクラナガウチノヤエ","prefecture_code":45}],"1703":{"zip_code":"8891703","prefecture":"宮崎県","prefecture_kana":"ミヤザキケン","city":"宮崎市","city_kana":"ミヤザキシ","town":"田野町あけぼの","town_kana":"タノチョウアケボノ","prefecture_code":45},"1702":{"zip_code":"8891702","prefecture":"宮崎県","prefecture_kana":"ミヤザキケン","city":"宮崎市","city_kana":"ミヤザキシ","town":"田野町乙","town_kana":"タノチョウオツ","prefecture_code":45},"1701":{"zip_code":"8891701","prefecture":"宮崎県","prefecture_kana":"ミヤザキケン","city":"宮崎市","city_kana":"ミヤザキシ","town":"田野町甲","town_kana":"タノチョウコウ","prefecture_code":45},"1716":{"zip_code":"8891716","prefecture":"宮崎県","prefecture_kana":"ミヤザキケン","city":"宮崎市","city_kana":"ミヤザキシ","town":"細江平和","town_kana":"ホソエヘイワ","prefecture_code":45},"4502":{"zip_code":"8894502","prefecture":"宮崎県","prefecture_kana":"ミヤザキケン","city":"都城市","city_kana":"ミヤコノジョウシ","town":"高崎町江平","town_kana":"タカザキチョウエヒラ","prefecture_code":45},"4505":{"zip_code":"8894505","prefecture":"宮崎県","prefecture_kana":"ミヤザキケン","city":"都城市","city_kana":"ミヤコノジョウシ","town":"高崎町大牟田","town_kana":"タカザキチョウオオムタ","prefecture_code":45},"4504":{"zip_code":"8894504","prefecture":"宮崎県","prefecture_kana":"ミヤザキケン","city":"都城市","city_kana":"ミヤコノジョウシ","town":"高崎町東霧島","town_kana":"タカザキチョウツマギリシマ","prefecture_code":45},"4503":{"zip_code":"8894503","prefecture":"宮崎県","prefecture_kana":"ミヤザキケン","city":"都城市","city_kana":"ミヤコノジョウシ","town":"高崎町縄瀬","town_kana":"タカザキチョウナワゼ","prefecture_code":45},"4501":{"zip_code":"8894501","prefecture":"宮崎県","prefecture_kana":"ミヤザキケン","city":"都城市","city_kana":"ミヤコノジョウシ","town":"高崎町笛水","town_kana":"タカザキチョウフエミズ","prefecture_code":45},"4506":{"zip_code":"8894506","prefecture":"宮崎県","prefecture_kana":"ミヤザキケン","city":"都城市","city_kana":"ミヤコノジョウシ","town":"高崎町前田","town_kana":"タカザキチョウマエダ","prefecture_code":45},"4602":{"zip_code":"8894602","prefecture":"宮崎県","prefecture_kana":"ミヤザキケン","city":"都城市","city_kana":"ミヤコノジョウシ","town":"山田町中霧島","town_kana":"ヤマダチョウナカギリシマ","prefecture_code":45},"4601":{"zip_code":"8894601","prefecture":"宮崎県","prefecture_kana":"ミヤザキケン","city":"都城市","city_kana":"ミヤコノジョウシ","town":"山田町山田","town_kana":"ヤマダチョウヤマダ","prefecture_code":45},"1801":{"zip_code":"8891801","prefecture":"宮崎県","prefecture_kana":"ミヤザキケン","city":"都城市","city_kana":"ミヤコノジョウシ","town":"山之口町富吉","town_kana":"ヤマノクチチョウトミヨシ","prefecture_code":45},"1802":{"zip_code":"8891802","prefecture":"宮崎県","prefecture_kana":"ミヤザキケン","city":"都城市","city_kana":"ミヤコノジョウシ","town":"山之口町花木","town_kana":"ヤマノクチチョウハナノキ","prefecture_code":45},"1803":{"zip_code":"8891803","prefecture":"宮崎県","prefecture_kana":"ミヤザキケン","city":"都城市","city_kana":"ミヤコノジョウシ","town":"山之口町山之口","town_kana":"ヤマノクチチョウヤマノクチ","prefecture_code":45},"0517":{"zip_code":"8890517","prefecture":"宮崎県","prefecture_kana":"ミヤザキケン","city":"延岡市","city_kana":"ノベオカシ","town":"赤水町","town_kana":"アカミズマチ","prefecture_code":45},"0507":{"zip_code":"8890507","prefecture":"宮崎県","prefecture_kana":"ミヤザキケン","city":"延岡市","city_kana":"ノベオカシ","town":"旭ケ丘","town_kana":"アサヒガオカ","prefecture_code":45},"0503":{"zip_code":"8890503","prefecture":"宮崎県","prefecture_kana":"ミヤザキケン","city":"延岡市","city_kana":"ノベオカシ","town":"伊形町","town_kana":"イガダマチ","prefecture_code":45},"0501":{"zip_code":"8890501","prefecture":"宮崎県","prefecture_kana":"ミヤザキケン","city":"延岡市","city_kana":"ノベオカシ","town":"石田町","town_kana":"イシダマチ","prefecture_code":45},"0502":{"zip_code":"8890502","prefecture":"宮崎県","prefecture_kana":"ミヤザキケン","city":"延岡市","city_kana":"ノベオカシ","town":"上伊形町","town_kana":"カミイガダマチ","prefecture_code":45},"0302":{"zip_code":"8890302","prefecture":"宮崎県","prefecture_kana":"ミヤザキケン","city":"延岡市","city_kana":"ノベオカシ","town":"北浦町市振","town_kana":"キタウラマチイチブリ","prefecture_code":45},"0301":{"zip_code":"8890301","prefecture":"宮崎県","prefecture_kana":"ミヤザキケン","city":"延岡市","city_kana":"ノベオカシ","town":"北浦町古江","town_kana":"キタウラマチフルエ","prefecture_code":45},"0304":{"zip_code":"8890304","prefecture":"宮崎県","prefecture_kana":"ミヤザキケン","city":"延岡市","city_kana":"ノベオカシ","town":"北浦町三川内","town_kana":"キタウラマチミカワウチ","prefecture_code":45},"0303":{"zip_code":"8890303","prefecture":"宮崎県","prefecture_kana":"ミヤザキケン","city":"延岡市","city_kana":"ノベオカシ","town":"北浦町宮野浦","town_kana":"キタウラマチミヤノウラ","prefecture_code":45},"0101":{"zip_code":"8890101","prefecture":"宮崎県","prefecture_kana":"ミヤザキケン","city":"延岡市","city_kana":"ノベオカシ","town":"北川町川内名","town_kana":"キタガワマチカワチミョウ","prefecture_code":45},"0102":{"zip_code":"8890102","prefecture":"宮崎県","prefecture_kana":"ミヤザキケン","city":"延岡市","city_kana":"ノベオカシ","town":"北川町長井","town_kana":"キタガワマチナガイ","prefecture_code":45},"0505":{"zip_code":"8890505","prefecture":"宮崎県","prefecture_kana":"ミヤザキケン","city":"延岡市","city_kana":"ノベオカシ","town":"北一ケ岡","town_kana":"キタヒトツガオカ","prefecture_code":45},"0514":{"zip_code":"8890514","prefecture":"宮崎県","prefecture_kana":"ミヤザキケン","city":"延岡市","city_kana":"ノベオカシ","town":"櫛津町","town_kana":"クシツマチ","prefecture_code":45},"0322":{"zip_code":"8890322","prefecture":"宮崎県","prefecture_kana":"ミヤザキケン","city":"延岡市","city_kana":"ノベオカシ","town":"熊野江町","town_kana":"クマノエマチ","prefecture_code":45},"0504":{"zip_code":"8890504","prefecture":"宮崎県","prefecture_kana":"ミヤザキケン","city":"延岡市","city_kana":"ノベオカシ","town":"下伊形町","town_kana":"シモイガダマチ","prefecture_code":45},"0512":{"zip_code":"8890512","prefecture":"宮崎県","prefecture_kana":"ミヤザキケン","city":"延岡市","city_kana":"ノベオカシ","town":"新浜町","town_kana":"シンハママチ","prefecture_code":45},"0321":{"zip_code":"8890321","prefecture":"宮崎県","prefecture_kana":"ミヤザキケン","city":"延岡市","city_kana":"ノベオカシ","town":"須美江町","town_kana":"スミエマチ","prefecture_code":45},"0516":{"zip_code":"8890516","prefecture":"宮崎県","prefecture_kana":"ミヤザキケン","city":"延岡市","city_kana":"ノベオカシ","town":"鯛名町","town_kana":"タイナマチ","prefecture_code":45},"0513":{"zip_code":"8890513","prefecture":"宮崎県","prefecture_kana":"ミヤザキケン","city":"延岡市","city_kana":"ノベオカシ","town":"土々呂町","town_kana":"トトロマチ","prefecture_code":45},"0511":{"zip_code":"8890511","prefecture":"宮崎県","prefecture_kana":"ミヤザキケン","city":"延岡市","city_kana":"ノベオカシ","town":"松原町","town_kana":"マツバラマチ","prefecture_code":45},"0506":{"zip_code":"8890506","prefecture":"宮崎県","prefecture_kana":"ミヤザキケン","city":"延岡市","city_kana":"ノベオカシ","town":"南一ケ岡","town_kana":"ミナミヒトツガオカ","prefecture_code":45},"0515":{"zip_code":"8890515","prefecture":"宮崎県","prefecture_kana":"ミヤザキケン","city":"延岡市","city_kana":"ノベオカシ","town":"妙見町","town_kana":"ミョウケンマチ","prefecture_code":45},"2541":{"zip_code":"8892541","prefecture":"宮崎県","prefecture_kana":"ミヤザキケン","city":"日南市","city_kana":"ニチナンシ","town":"吾田東","town_kana":"アガタヒガシ","prefecture_code":45},"2536":{"zip_code":"8892536","prefecture":"宮崎県","prefecture_kana":"ミヤザキケン","city":"日南市","city_kana":"ニチナンシ","town":"吾田西","town_kana":"アガタニシ","prefecture_code":45},"2532":{"zip_code":"8892532","prefecture":"宮崎県","prefecture_kana":"ミヤザキケン","city":"日南市","city_kana":"ニチナンシ","town":"板敷","town_kana":"イタジキ","prefecture_code":45},"2311":{"zip_code":"8892311","prefecture":"宮崎県","prefecture_kana":"ミヤザキケン","city":"日南市","city_kana":"ニチナンシ","town":"伊比井","town_kana":"イビイ","prefecture_code":45},"2525":{"zip_code":"8892525","prefecture":"宮崎県","prefecture_kana":"ミヤザキケン","city":"日南市","city_kana":"ニチナンシ","town":"今町","town_kana":"イママチ","prefecture_code":45},"3156":{"zip_code":"8893156","prefecture":"宮崎県","prefecture_kana":"ミヤザキケン","city":"日南市","city_kana":"ニチナンシ","town":"大窪","town_kana":"オオクボ","prefecture_code":45},"3141":{"zip_code":"8893141","prefecture":"宮崎県","prefecture_kana":"ミヤザキケン","city":"日南市","city_kana":"ニチナンシ","town":"大堂津","town_kana":"オオドウツ","prefecture_code":45},"2535":{"zip_code":"8892535","prefecture":"宮崎県","prefecture_kana":"ミヤザキケン","city":"日南市","city_kana":"ニチナンシ","town":"飫肥","town_kana":"オビ","prefecture_code":45},"3151":{"zip_code":"8893151","prefecture":"宮崎県","prefecture_kana":"ミヤザキケン","city":"日南市","city_kana":"ニチナンシ","town":"上方","town_kana":"カミカタ","prefecture_code":45},"2401":{"zip_code":"8892401","prefecture":"宮崎県","prefecture_kana":"ミヤザキケン","city":"日南市","city_kana":"ニチナンシ","town":"北郷町大藤","town_kana":"キタゴウチョウオオフジ","prefecture_code":45},"2403":{"zip_code":"8892403","prefecture":"宮崎県","prefecture_kana":"ミヤザキケン","city":"日南市","city_kana":"ニチナンシ","town":"北郷町北河内","town_kana":"キタゴウチョウキタガワチ","prefecture_code":45},"2402":{"zip_code":"8892402","prefecture":"宮崎県","prefecture_kana":"ミヤザキケン","city":"日南市","city_kana":"ニチナンシ","town":"北郷町郷之原","town_kana":"キタゴウチョウゴウノハラ","prefecture_code":45},"2514":{"zip_code":"8892514","prefecture":"宮崎県","prefecture_kana":"ミヤザキケン","city":"日南市","city_kana":"ニチナンシ","town":"楠原","town_kana":"クスバル","prefecture_code":45},"3152":{"zip_code":"8893152","prefecture":"宮崎県","prefecture_kana":"ミヤザキケン","city":"日南市","city_kana":"ニチナンシ","town":"毛吉田","town_kana":"ケヨシダ","prefecture_code":45},"2512":{"zip_code":"8892512","prefecture":"宮崎県","prefecture_kana":"ミヤザキケン","city":"日南市","city_kana":"ニチナンシ","town":"酒谷甲","town_kana":"サカタニコウ","prefecture_code":45},"2511":{"zip_code":"8892511","prefecture":"宮崎県","prefecture_kana":"ミヤザキケン","city":"日南市","city_kana":"ニチナンシ","town":"酒谷乙","town_kana":"サカタニオツ","prefecture_code":45},"3142":{"zip_code":"8893142","prefecture":"宮崎県","prefecture_kana":"ミヤザキケン","city":"日南市","city_kana":"ニチナンシ","town":"塩鶴","town_kana":"シオヅル","prefecture_code":45},"3143":{"zip_code":"8893143","prefecture":"宮崎県","prefecture_kana":"ミヤザキケン","city":"日南市","city_kana":"ニチナンシ","town":"下方","town_kana":"シモカタ","prefecture_code":45},"3154":{"zip_code":"8893154","prefecture":"宮崎県","prefecture_kana":"ミヤザキケン","city":"日南市","city_kana":"ニチナンシ","town":"塚田甲","town_kana":"ツカダコウ","prefecture_code":45},"3155":{"zip_code":"8893155","prefecture":"宮崎県","prefecture_kana":"ミヤザキケン","city":"日南市","city_kana":"ニチナンシ","town":"塚田乙","town_kana":"ツカダオツ","prefecture_code":45},"2534":{"zip_code":"8892534","prefecture":"宮崎県","prefecture_kana":"ミヤザキケン","city":"日南市","city_kana":"ニチナンシ","town":"時任町","town_kana":"トキトウチョウ","prefecture_code":45},"2524":{"zip_code":"8892524","prefecture":"宮崎県","prefecture_kana":"ミヤザキケン","city":"日南市","city_kana":"ニチナンシ","town":"殿所","town_kana":"トノトコロ","prefecture_code":45},"3213":{"zip_code":"8893213","prefecture":"宮崎県","prefecture_kana":"ミヤザキケン","city":"日南市","city_kana":"ニチナンシ","town":"南郷町潟上","town_kana":"ナンゴウチョウカタガミ","prefecture_code":45},"3203":{"zip_code":"8893203","prefecture":"宮崎県","prefecture_kana":"ミヤザキケン","city":"日南市","city_kana":"ニチナンシ","town":"南郷町谷之口","town_kana":"ナンゴウチョウタニノクチ","prefecture_code":45},"3201":{"zip_code":"8893201","prefecture":"宮崎県","prefecture_kana":"ミヤザキケン","city":"日南市","city_kana":"ニチナンシ","town":"南郷町津屋野","town_kana":"ナンゴウチョウツヤノ","prefecture_code":45},"3202":{"zip_code":"8893202","prefecture":"宮崎県","prefecture_kana":"ミヤザキケン","city":"日南市","city_kana":"ニチナンシ","town":"南郷町中村甲","town_kana":"ナンゴウチョウナカムラコウ","prefecture_code":45},"3204":{"zip_code":"8893204","prefecture":"宮崎県","prefecture_kana":"ミヤザキケン","city":"日南市","city_kana":"ニチナンシ","town":"南郷町中村乙","town_kana":"ナンゴウチョウナカムラオツ","prefecture_code":45},"3211":{"zip_code":"8893211","prefecture":"宮崎県","prefecture_kana":"ミヤザキケン","city":"日南市","city_kana":"ニチナンシ","town":"南郷町贄波","town_kana":"ナンゴウチョウニエナミ","prefecture_code":45},"3205":{"zip_code":"8893205","prefecture":"宮崎県","prefecture_kana":"ミヤザキケン","city":"日南市","city_kana":"ニチナンシ","town":"南郷町西町","town_kana":"ナンゴウチョウニシマチ","prefecture_code":45},"3207":{"zip_code":"8893207","prefecture":"宮崎県","prefecture_kana":"ミヤザキケン","city":"日南市","city_kana":"ニチナンシ","town":"南郷町東町","town_kana":"ナンゴウチョウヒガシマチ","prefecture_code":45},"3206":{"zip_code":"8893206","prefecture":"宮崎県","prefecture_kana":"ミヤザキケン","city":"日南市","city_kana":"ニチナンシ","town":"南郷町南町","town_kana":"ナンゴウチョウミナミマチ","prefecture_code":45},"3214":{"zip_code":"8893214","prefecture":"宮崎県","prefecture_kana":"ミヤザキケン","city":"日南市","city_kana":"ニチナンシ","town":"南郷町榎原","town_kana":"ナンゴウチョウヨワラ","prefecture_code":45},"3215":{"zip_code":"8893215","prefecture":"宮崎県","prefecture_kana":"ミヤザキケン","city":"日南市","city_kana":"ニチナンシ","town":"南郷町榎原甲","town_kana":"ナンゴウチョウヨワラコウ","prefecture_code":45},"3216":{"zip_code":"8893216","prefecture":"宮崎県","prefecture_kana":"ミヤザキケン","city":"日南市","city_kana":"ニチナンシ","town":"南郷町榎原乙","town_kana":"ナンゴウチョウヨワラオツ","prefecture_code":45},"3217":{"zip_code":"8893217","prefecture":"宮崎県","prefecture_kana":"ミヤザキケン","city":"日南市","city_kana":"ニチナンシ","town":"南郷町榎原丙","town_kana":"ナンゴウチョウヨワラヘイ","prefecture_code":45},"3212":{"zip_code":"8893212","prefecture":"宮崎県","prefecture_kana":"ミヤザキケン","city":"日南市","city_kana":"ニチナンシ","town":"南郷町脇本","town_kana":"ナンゴウチョウワキモト","prefecture_code":45},"3153":{"zip_code":"8893153","prefecture":"宮崎県","prefecture_kana":"ミヤザキケン","city":"日南市","city_kana":"ニチナンシ","town":"萩之嶺","town_kana":"ハギノミネ","prefecture_code":45},"2521":{"zip_code":"8892521","prefecture":"宮崎県","prefecture_kana":"ミヤザキケン","city":"日南市","city_kana":"ニチナンシ","town":"東弁分乙","town_kana":"ヒガシベンブンオツ","prefecture_code":45},"2522":{"zip_code":"8892522","prefecture":"宮崎県","prefecture_kana":"ミヤザキケン","city":"日南市","city_kana":"ニチナンシ","town":"東弁分甲","town_kana":"ヒガシベンブンコウ","prefecture_code":45},"2533":{"zip_code":"8892533","prefecture":"宮崎県","prefecture_kana":"ミヤザキケン","city":"日南市","city_kana":"ニチナンシ","town":"星倉","town_kana":"ホシクラ","prefecture_code":45},"2531":{"zip_code":"8892531","prefecture":"宮崎県","prefecture_kana":"ミヤザキケン","city":"日南市","city_kana":"ニチナンシ","town":"本町","town_kana":"ホンマチ","prefecture_code":45},"2523":{"zip_code":"8892523","prefecture":"宮崎県","prefecture_kana":"ミヤザキケン","city":"日南市","city_kana":"ニチナンシ","town":"松永","town_kana":"マツナガ","prefecture_code":45},"2513":{"zip_code":"8892513","prefecture":"宮崎県","prefecture_kana":"ミヤザキケン","city":"日南市","city_kana":"ニチナンシ","town":"吉野方","town_kana":"ヨシノカタ","prefecture_code":45},"1112":{"zip_code":"8891112","prefecture":"宮崎県","prefecture_kana":"ミヤザキケン","city":"日向市","city_kana":"ヒュウガシ","town":"幸脇","town_kana":"サイワキ","prefecture_code":45},"1101":{"zip_code":"8891101","prefecture":"宮崎県","prefecture_kana":"ミヤザキケン","city":"日向市","city_kana":"ヒュウガシ","town":"東郷町山陰乙鳥川","town_kana":"トウゴウチョウヤマゲオツトリカワ","prefecture_code":45},"1121":{"zip_code":"8891121","prefecture":"宮崎県","prefecture_kana":"ミヤザキケン","city":"日向市","city_kana":"ヒュウガシ","town":"東郷町山陰甲","town_kana":"トウゴウチョウヤマゲコウ","prefecture_code":45},"1111":{"zip_code":"8891111","prefecture":"宮崎県","prefecture_kana":"ミヤザキケン","city":"日向市","city_kana":"ヒュウガシ","town":"美々津町","town_kana":"ミミツチョウ","prefecture_code":45},"3533":{"zip_code":"8893533","prefecture":"宮崎県","prefecture_kana":"ミヤザキケン","city":"串間市","city_kana":"クシマシ","town":"一氏","town_kana":"イチウジ","prefecture_code":45},"3311":{"zip_code":"8893311","prefecture":"宮崎県","prefecture_kana":"ミヤザキケン","city":"串間市","city_kana":"クシマシ","town":"市木","town_kana":"イチキ","prefecture_code":45},"3532":{"zip_code":"8893532","prefecture":"宮崎県","prefecture_kana":"ミヤザキケン","city":"串間市","city_kana":"クシマシ","town":"大平","town_kana":"オオヒラ","prefecture_code":45},"3534":{"zip_code":"8893534","prefecture":"宮崎県","prefecture_kana":"ミヤザキケン","city":"串間市","city_kana":"クシマシ","town":"大矢取","town_kana":"オオヤドリ","prefecture_code":45},"3531":{"zip_code":"8893531","prefecture":"宮崎県","prefecture_kana":"ミヤザキケン","city":"串間市","city_kana":"クシマシ","town":"奈留","town_kana":"ナル","prefecture_code":45},"4300":{"zip_code":"8894300","prefecture":"宮崎県","prefecture_kana":"ミヤザキケン","city":"えびの市","city_kana":"エビノシ","town":"","town_kana":"","prefecture_code":45},"4303":{"zip_code":"8894303","prefecture":"宮崎県","prefecture_kana":"ミヤザキケン","city":"えびの市","city_kana":"エビノシ","town":"池島","town_kana":"イケジマ","prefecture_code":45},"4306":{"zip_code":"8894306","prefecture":"宮崎県","prefecture_kana":"ミヤザキケン","city":"えびの市","city_kana":"エビノシ","town":"今西","town_kana":"イマニシ","prefecture_code":45},"4162":{"zip_code":"8894162","prefecture":"宮崎県","prefecture_kana":"ミヤザキケン","city":"えびの市","city_kana":"エビノシ","town":"内竪","town_kana":"ウチタテ","prefecture_code":45},"4153":{"zip_code":"8894153","prefecture":"宮崎県","prefecture_kana":"ミヤザキケン","city":"えびの市","city_kana":"エビノシ","town":"浦","town_kana":"ウラ","prefecture_code":45},"4304":{"zip_code":"8894304","prefecture":"宮崎県","prefecture_kana":"ミヤザキケン","city":"えびの市","city_kana":"エビノシ","town":"上江","town_kana":"ウワエ","prefecture_code":45},"4243":{"zip_code":"8894243","prefecture":"宮崎県","prefecture_kana":"ミヤザキケン","city":"えびの市","city_kana":"エビノシ","town":"榎田","town_kana":"エノキダ","prefecture_code":45},"4314":{"zip_code":"8894314","prefecture":"宮崎県","prefecture_kana":"ミヤザキケン","city":"えびの市","city_kana":"エビノシ","town":"大河平","town_kana":"オオコウビラ","prefecture_code":45},"4161":{"zip_code":"8894161","prefecture":"宮崎県","prefecture_kana":"ミヤザキケン","city":"えびの市","city_kana":"エビノシ","town":"岡松","town_kana":"オカマツ","prefecture_code":45},"4222":{"zip_code":"8894222","prefecture":"宮崎県","prefecture_kana":"ミヤザキケン","city":"えびの市","city_kana":"エビノシ","town":"小田","town_kana":"オダ","prefecture_code":45},"4155":{"zip_code":"8894155","prefecture":"宮崎県","prefecture_kana":"ミヤザキケン","city":"えびの市","city_kana":"エビノシ","town":"亀沢","town_kana":"カメサワ","prefecture_code":45},"4221":{"zip_code":"8894221","prefecture":"宮崎県","prefecture_kana":"ミヤザキケン","city":"えびの市","city_kana":"エビノシ","town":"栗下","town_kana":"クリシタ","prefecture_code":45},"4241":{"zip_code":"8894241","prefecture":"宮崎県","prefecture_kana":"ミヤザキケン","city":"えびの市","city_kana":"エビノシ","town":"西郷","town_kana":"サイゴウ","prefecture_code":45},"4312":{"zip_code":"8894312","prefecture":"宮崎県","prefecture_kana":"ミヤザキケン","city":"えびの市","city_kana":"エビノシ","town":"坂元","town_kana":"サカモト","prefecture_code":45},"4152":{"zip_code":"8894152","prefecture":"宮崎県","prefecture_kana":"ミヤザキケン","city":"えびの市","city_kana":"エビノシ","town":"島内","town_kana":"シマウチ","prefecture_code":45},"4164":{"zip_code":"8894164","prefecture":"宮崎県","prefecture_kana":"ミヤザキケン","city":"えびの市","city_kana":"エビノシ","town":"昌明寺","town_kana":"ショウミョウジ","prefecture_code":45},"4302":{"zip_code":"8894302","prefecture":"宮崎県","prefecture_kana":"ミヤザキケン","city":"えびの市","city_kana":"エビノシ","town":"末永","town_kana":"スエナガ","prefecture_code":45},"4313":{"zip_code":"8894313","prefecture":"宮崎県","prefecture_kana":"ミヤザキケン","city":"えびの市","city_kana":"エビノシ","town":"杉水流","town_kana":"スギズル","prefecture_code":45},"4311":{"zip_code":"8894311","prefecture":"宮崎県","prefecture_kana":"ミヤザキケン","city":"えびの市","city_kana":"エビノシ","town":"大明司","town_kana":"ダイミョウジ","prefecture_code":45},"4163":{"zip_code":"8894163","prefecture":"宮崎県","prefecture_kana":"ミヤザキケン","city":"えびの市","city_kana":"エビノシ","town":"水流","town_kana":"ツル","prefecture_code":45},"4234":{"zip_code":"8894234","prefecture":"宮崎県","prefecture_kana":"ミヤザキケン","city":"えびの市","city_kana":"エビノシ","town":"永山","town_kana":"ナガヤマ","prefecture_code":45},"4165":{"zip_code":"8894165","prefecture":"宮崎県","prefecture_kana":"ミヤザキケン","city":"えびの市","city_kana":"エビノシ","town":"西川北","town_kana":"ニシカワキタ","prefecture_code":45},"4232":{"zip_code":"8894232","prefecture":"宮崎県","prefecture_kana":"ミヤザキケン","city":"えびの市","city_kana":"エビノシ","town":"西長江浦","town_kana":"ニシナガエウラ","prefecture_code":45},"4233":{"zip_code":"8894233","prefecture":"宮崎県","prefecture_kana":"ミヤザキケン","city":"えびの市","city_kana":"エビノシ","town":"灰塚","town_kana":"ハイツカ","prefecture_code":45},"4301":{"zip_code":"8894301","prefecture":"宮崎県","prefecture_kana":"ミヤザキケン","city":"えびの市","city_kana":"エビノシ","town":"原田","town_kana":"ハラダ","prefecture_code":45},"4244":{"zip_code":"8894244","prefecture":"宮崎県","prefecture_kana":"ミヤザキケン","city":"えびの市","city_kana":"エビノシ","town":"東川北","town_kana":"ヒガシカワキタ","prefecture_code":45},"4231":{"zip_code":"8894231","prefecture":"宮崎県","prefecture_kana":"ミヤザキケン","city":"えびの市","city_kana":"エビノシ","town":"東長江浦","town_kana":"ヒガシナガエウラ","prefecture_code":45},"4305":{"zip_code":"8894305","prefecture":"宮崎県","prefecture_kana":"ミヤザキケン","city":"えびの市","city_kana":"エビノシ","town":"前田","town_kana":"マエダ","prefecture_code":45},"4151":{"zip_code":"8894151","prefecture":"宮崎県","prefecture_kana":"ミヤザキケン","city":"えびの市","city_kana":"エビノシ","town":"向江","town_kana":"ムカエ","prefecture_code":45},"4154":{"zip_code":"8894154","prefecture":"宮崎県","prefecture_kana":"ミヤザキケン","city":"えびの市","city_kana":"エビノシ","town":"柳水流","town_kana":"ヤナギズル","prefecture_code":45},"4242":{"zip_code":"8894242","prefecture":"宮崎県","prefecture_kana":"ミヤザキケン","city":"えびの市","city_kana":"エビノシ","town":"湯田","town_kana":"ユダ","prefecture_code":45},"1900":{"zip_code":"8891900","prefecture":"宮崎県","prefecture_kana":"ミヤザキケン","city":"北諸県郡三股町","city_kana":"キタモロカタグンミマタチョウ","town":"","town_kana":"","prefecture_code":45},"1905":{"zip_code":"8891905","prefecture":"宮崎県","prefecture_kana":"ミヤザキケン","city":"北諸県郡三股町","city_kana":"キタモロカタグンミマタチョウ","town":"今市","town_kana":"イマイチ","prefecture_code":45},"1901":{"zip_code":"8891901","prefecture":"宮崎県","prefecture_kana":"ミヤザキケン","city":"北諸県郡三股町","city_kana":"キタモロカタグンミマタチョウ","town":"樺山","town_kana":"カバヤマ","prefecture_code":45},"1902":{"zip_code":"8891902","prefecture":"宮崎県","prefecture_kana":"ミヤザキケン","city":"北諸県郡三股町","city_kana":"キタモロカタグンミマタチョウ","town":"五本松","town_kana":"ゴホンマツ","prefecture_code":45},"1904":{"zip_code":"8891904","prefecture":"宮崎県","prefecture_kana":"ミヤザキケン","city":"北諸県郡三股町","city_kana":"キタモロカタグンミマタチョウ","town":"新馬場","town_kana":"シンババ","prefecture_code":45},"1914":{"zip_code":"8891914","prefecture":"宮崎県","prefecture_kana":"ミヤザキケン","city":"北諸県郡三股町","city_kana":"キタモロカタグンミマタチョウ","town":"蓼池","town_kana":"タデイケ","prefecture_code":45},"1906":{"zip_code":"8891906","prefecture":"宮崎県","prefecture_kana":"ミヤザキケン","city":"北諸県郡三股町","city_kana":"キタモロカタグンミマタチョウ","town":"中原","town_kana":"ナカバル","prefecture_code":45},"1911":{"zip_code":"8891911","prefecture":"宮崎県","prefecture_kana":"ミヤザキケン","city":"北諸県郡三股町","city_kana":"キタモロカタグンミマタチョウ","town":"長田","town_kana":"ナガタ","prefecture_code":45},"1907":{"zip_code":"8891907","prefecture":"宮崎県","prefecture_kana":"ミヤザキケン","city":"北諸県郡三股町","city_kana":"キタモロカタグンミマタチョウ","town":"花見原","town_kana":"ハナミバル","prefecture_code":45},"1903":{"zip_code":"8891903","prefecture":"宮崎県","prefecture_kana":"ミヤザキケン","city":"北諸県郡三股町","city_kana":"キタモロカタグンミマタチョウ","town":"稗田","town_kana":"ヒエダ","prefecture_code":45},"1912":{"zip_code":"8891912","prefecture":"宮崎県","prefecture_kana":"ミヤザキケン","city":"北諸県郡三股町","city_kana":"キタモロカタグンミマタチョウ","town":"宮村","town_kana":"ミヤムラ","prefecture_code":45},"1913":{"zip_code":"8891913","prefecture":"宮崎県","prefecture_kana":"ミヤザキケン","city":"北諸県郡三股町","city_kana":"キタモロカタグンミマタチョウ","town":"餅原","town_kana":"モチバル","prefecture_code":45},"4400":{"zip_code":"8894400","prefecture":"宮崎県","prefecture_kana":"ミヤザキケン","city":"西諸県郡高原町","city_kana":"ニシモロカタグンタカハルチョウ","town":"","town_kana":"","prefecture_code":45},"4413":{"zip_code":"8894413","prefecture":"宮崎県","prefecture_kana":"ミヤザキケン","city":"西諸県郡高原町","city_kana":"ニシモロカタグンタカハルチョウ","town":"後川内","town_kana":"ウシロカワチ","prefecture_code":45},"4414":{"zip_code":"8894414","prefecture":"宮崎県","prefecture_kana":"ミヤザキケン","city":"西諸県郡高原町","city_kana":"ニシモロカタグンタカハルチョウ","town":"蒲牟田","town_kana":"カマムタ","prefecture_code":45},"4412":{"zip_code":"8894412","prefecture":"宮崎県","prefecture_kana":"ミヤザキケン","city":"西諸県郡高原町","city_kana":"ニシモロカタグンタカハルチョウ","town":"西麓","town_kana":"ニシフモト","prefecture_code":45},"4411":{"zip_code":"8894411","prefecture":"宮崎県","prefecture_kana":"ミヤザキケン","city":"西諸県郡高原町","city_kana":"ニシモロカタグンタカハルチョウ","town":"広原","town_kana":"ヒロワラ","prefecture_code":45},"1400":{"zip_code":"8891400","prefecture":"宮崎県","prefecture_kana":"ミヤザキケン","city":"児湯郡新富町","city_kana":"コユグンシントミチョウ","town":"","town_kana":"","prefecture_code":45},"1405":{"zip_code":"8891405","prefecture":"宮崎県","prefecture_kana":"ミヤザキケン","city":"児湯郡新富町","city_kana":"コユグンシントミチョウ","town":"伊倉","town_kana":"イクラ","prefecture_code":45},"1403":{"zip_code":"8891403","prefecture":"宮崎県","prefecture_kana":"ミヤザキケン","city":"児湯郡新富町","city_kana":"コユグンシントミチョウ","town":"上富田","town_kana":"カミトンダ","prefecture_code":45},"1404":{"zip_code":"8891404","prefecture":"宮崎県","prefecture_kana":"ミヤザキケン","city":"児湯郡新富町","city_kana":"コユグンシントミチョウ","town":"下富田","town_kana":"シモトンダ","prefecture_code":45},"1411":{"zip_code":"8891411","prefecture":"宮崎県","prefecture_kana":"ミヤザキケン","city":"児湯郡新富町","city_kana":"コユグンシントミチョウ","town":"富田","town_kana":"トンダ","prefecture_code":45},"1415":{"zip_code":"8891415","prefecture":"宮崎県","prefecture_kana":"ミヤザキケン","city":"児湯郡新富町","city_kana":"コユグンシントミチョウ","town":"富田北","town_kana":"トンダキタ","prefecture_code":45},"1412":{"zip_code":"8891412","prefecture":"宮崎県","prefecture_kana":"ミヤザキケン","city":"児湯郡新富町","city_kana":"コユグンシントミチョウ","town":"富田東","town_kana":"トンダヒガシ","prefecture_code":45},"1413":{"zip_code":"8891413","prefecture":"宮崎県","prefecture_kana":"ミヤザキケン","city":"児湯郡新富町","city_kana":"コユグンシントミチョウ","town":"富田西","town_kana":"トンダニシ","prefecture_code":45},"1414":{"zip_code":"8891414","prefecture":"宮崎県","prefecture_kana":"ミヤザキケン","city":"児湯郡新富町","city_kana":"コユグンシントミチョウ","town":"富田南","town_kana":"トンダミナミ","prefecture_code":45},"1406":{"zip_code":"8891406","prefecture":"宮崎県","prefecture_kana":"ミヤザキケン","city":"児湯郡新富町","city_kana":"コユグンシントミチョウ","town":"新田","town_kana":"ニュウタ","prefecture_code":45},"1401":{"zip_code":"8891401","prefecture":"宮崎県","prefecture_kana":"ミヤザキケン","city":"児湯郡新富町","city_kana":"コユグンシントミチョウ","town":"日置","town_kana":"ヒオキ","prefecture_code":45},"1402":{"zip_code":"8891402","prefecture":"宮崎県","prefecture_kana":"ミヤザキケン","city":"児湯郡新富町","city_kana":"コユグンシントミチョウ","town":"三納代","town_kana":"ミナシロ","prefecture_code":45},"1300":{"zip_code":"8891300","prefecture":"宮崎県","prefecture_kana":"ミヤザキケン","city":"児湯郡川南町","city_kana":"コユグンカワミナミチョウ","town":"","town_kana":"","prefecture_code":45},"1301":{"zip_code":"8891301","prefecture":"宮崎県","prefecture_kana":"ミヤザキケン","city":"児湯郡川南町","city_kana":"コユグンカワミナミチョウ","town":"川南","town_kana":"カワミナミ","prefecture_code":45},"1302":{"zip_code":"8891302","prefecture":"宮崎県","prefecture_kana":"ミヤザキケン","city":"児湯郡川南町","city_kana":"コユグンカワミナミチョウ","town":"平田","town_kana":"ヘイダ","prefecture_code":45},"1200":{"zip_code":"8891200","prefecture":"宮崎県","prefecture_kana":"ミヤザキケン","city":"児湯郡都農町","city_kana":"コユグンツノチョウ","town":"","town_kana":"","prefecture_code":45},"1201":{"zip_code":"8891201","prefecture":"宮崎県","prefecture_kana":"ミヤザキケン","city":"児湯郡都農町","city_kana":"コユグンツノチョウ","town":"川北","town_kana":"カワキタ","prefecture_code":45},"0600":{"zip_code":"8890600","prefecture":"宮崎県","prefecture_kana":"ミヤザキケン","city":"東臼杵郡門川町","city_kana":"ヒガシウスキグンカドガワチョウ","town":"","town_kana":"","prefecture_code":45},"0602":{"zip_code":"8890602","prefecture":"宮崎県","prefecture_kana":"ミヤザキケン","city":"東臼杵郡門川町","city_kana":"ヒガシウスキグンカドガワチョウ","town":"庵川","town_kana":"イオリガワ","prefecture_code":45},"0605":{"zip_code":"8890605","prefecture":"宮崎県","prefecture_kana":"ミヤザキケン","city":"東臼杵郡門川町","city_kana":"ヒガシウスキグンカドガワチョウ","town":"庵川西","town_kana":"イオリガワニシ","prefecture_code":45},"0603":{"zip_code":"8890603","prefecture":"宮崎県","prefecture_kana":"ミヤザキケン","city":"東臼杵郡門川町","city_kana":"ヒガシウスキグンカドガワチョウ","town":"加草","town_kana":"カクサ","prefecture_code":45},"0611":{"zip_code":"8890611","prefecture":"宮崎県","prefecture_kana":"ミヤザキケン","city":"東臼杵郡門川町","city_kana":"ヒガシウスキグンカドガワチョウ","town":"門川尾末","town_kana":"カドカワオズエ","prefecture_code":45},"0614":{"zip_code":"8890614","prefecture":"宮崎県","prefecture_kana":"ミヤザキケン","city":"東臼杵郡門川町","city_kana":"ヒガシウスキグンカドガワチョウ","town":"上町","town_kana":"カミノマチ","prefecture_code":45},"0604":{"zip_code":"8890604","prefecture":"宮崎県","prefecture_kana":"ミヤザキケン","city":"東臼杵郡門川町","city_kana":"ヒガシウスキグンカドガワチョウ","town":"川内","town_kana":"カワチ","prefecture_code":45},"0615":{"zip_code":"8890615","prefecture":"宮崎県","prefecture_kana":"ミヤザキケン","city":"東臼杵郡門川町","city_kana":"ヒガシウスキグンカドガワチョウ","town":"栄ケ丘","town_kana":"サカエガオカ","prefecture_code":45},"0624":{"zip_code":"8890624","prefecture":"宮崎県","prefecture_kana":"ミヤザキケン","city":"東臼杵郡門川町","city_kana":"ヒガシウスキグンカドガワチョウ","town":"城ケ丘","town_kana":"ジョウガオカ","prefecture_code":45},"0601":{"zip_code":"8890601","prefecture":"宮崎県","prefecture_kana":"ミヤザキケン","city":"東臼杵郡門川町","city_kana":"ヒガシウスキグンカドガワチョウ","town":"須賀崎","town_kana":"スガサキ","prefecture_code":45},"0612":{"zip_code":"8890612","prefecture":"宮崎県","prefecture_kana":"ミヤザキケン","city":"東臼杵郡門川町","city_kana":"ヒガシウスキグンカドガワチョウ","town":"中須","town_kana":"ナカス","prefecture_code":45},"0622":{"zip_code":"8890622","prefecture":"宮崎県","prefecture_kana":"ミヤザキケン","city":"東臼杵郡門川町","city_kana":"ヒガシウスキグンカドガワチョウ","town":"西栄町","town_kana":"ニシサカエマチ","prefecture_code":45},"0621":{"zip_code":"8890621","prefecture":"宮崎県","prefecture_kana":"ミヤザキケン","city":"東臼杵郡門川町","city_kana":"ヒガシウスキグンカドガワチョウ","town":"東栄町","town_kana":"ヒガシサカエマチ","prefecture_code":45},"0626":{"zip_code":"8890626","prefecture":"宮崎県","prefecture_kana":"ミヤザキケン","city":"東臼杵郡門川町","city_kana":"ヒガシウスキグンカドガワチョウ","town":"平城西","town_kana":"ヒラジョウニシ","prefecture_code":45},"0625":{"zip_code":"8890625","prefecture":"宮崎県","prefecture_kana":"ミヤザキケン","city":"東臼杵郡門川町","city_kana":"ヒガシウスキグンカドガワチョウ","town":"平城東","town_kana":"ヒラジョウヒガシ","prefecture_code":45},"0613":{"zip_code":"8890613","prefecture":"宮崎県","prefecture_kana":"ミヤザキケン","city":"東臼杵郡門川町","city_kana":"ヒガシウスキグンカドガワチョウ","town":"本町","town_kana":"ホンマチ","prefecture_code":45},"0617":{"zip_code":"8890617","prefecture":"宮崎県","prefecture_kana":"ミヤザキケン","city":"東臼杵郡門川町","city_kana":"ヒガシウスキグンカドガワチョウ","town":"南ケ丘","town_kana":"ミナミガオカ","prefecture_code":45},"0616":{"zip_code":"8890616","prefecture":"宮崎県","prefecture_kana":"ミヤザキケン","city":"東臼杵郡門川町","city_kana":"ヒガシウスキグンカドガワチョウ","town":"南町","town_kana":"ミナミマチ","prefecture_code":45},"0623":{"zip_code":"8890623","prefecture":"宮崎県","prefecture_kana":"ミヤザキケン","city":"東臼杵郡門川町","city_kana":"ヒガシウスキグンカドガワチョウ","town":"宮ケ原","town_kana":"ミヤガハラ","prefecture_code":45},"0901":{"zip_code":"8890901","prefecture":"宮崎県","prefecture_kana":"ミヤザキケン","city":"東臼杵郡美郷町","city_kana":"ヒガシウスキグンミサトチョウ","town":"北郷宇納間","town_kana":"キタゴウウナマ","prefecture_code":45},"0903":{"zip_code":"8890903","prefecture":"宮崎県","prefecture_kana":"ミヤザキケン","city":"東臼杵郡美郷町","city_kana":"ヒガシウスキグンミサトチョウ","town":"北郷黒木","town_kana":"キタゴウクロギ","prefecture_code":45},"0902":{"zip_code":"8890902","prefecture":"宮崎県","prefecture_kana":"ミヤザキケン","city":"東臼杵郡美郷町","city_kana":"ヒガシウスキグンミサトチョウ","town":"北郷入下","town_kana":"キタゴウニュウシタ","prefecture_code":45}}