{"1545":{"zip_code":"8911545","prefecture":"鹿児島県","prefecture_kana":"カゴシマケン","city":"鹿児島市","city_kana":"カゴシマシ","town":"有村町","town_kana":"アリムラチョウ","prefecture_code":46},"1107":{"zip_code":"8911107","prefecture":"鹿児島県","prefecture_kana":"カゴシマケン","city":"鹿児島市","city_kana":"カゴシマシ","town":"有屋田町","town_kana":"アリヤダチョウ","prefecture_code":46},"1203":{"zip_code":"8911203","prefecture":"鹿児島県","prefecture_kana":"カゴシマケン","city":"鹿児島市","city_kana":"カゴシマシ","town":"伊敷町（４７１０〜４７４１、４７４７〜４７６１−３番地）","town_kana":"イシキチョウ(4710-4741、4747-4761-3バンチ)","prefecture_code":46},"1205":{"zip_code":"8911205","prefecture":"鹿児島県","prefecture_kana":"カゴシマケン","city":"鹿児島市","city_kana":"カゴシマシ","town":"犬迫町","town_kana":"イヌザコチョウ","prefecture_code":46},"0112":{"zip_code":"8910112","prefecture":"鹿児島県","prefecture_kana":"カゴシマケン","city":"鹿児島市","city_kana":"カゴシマシ","town":"魚見町","town_kana":"ウオミチョウ","prefecture_code":46},"1201":{"zip_code":"8911201","prefecture":"鹿児島県","prefecture_kana":"カゴシマケン","city":"鹿児島市","city_kana":"カゴシマシ","town":"岡之原町（その他）","town_kana":"オカノハラチョウ(ソノタ)","prefecture_code":46},"1222":{"zip_code":"8911222","prefecture":"鹿児島県","prefecture_kana":"カゴシマケン","city":"鹿児島市","city_kana":"カゴシマシ","town":"小野町（４７８４〜５１１８番地）","town_kana":"オノチョウ(4784-5118バンチ)","prefecture_code":46},"0111":{"zip_code":"8910111","prefecture":"鹿児島県","prefecture_kana":"カゴシマケン","city":"鹿児島市","city_kana":"カゴシマシ","town":"小原町","town_kana":"オバラチョウ","prefecture_code":46},"0123":{"zip_code":"8910123","prefecture":"鹿児島県","prefecture_kana":"カゴシマケン","city":"鹿児島市","city_kana":"カゴシマシ","town":"卸本町","town_kana":"オロシホンマチ","prefecture_code":46},"0116":{"zip_code":"8910116","prefecture":"鹿児島県","prefecture_kana":"カゴシマケン","city":"鹿児島市","city_kana":"カゴシマシ","town":"上福元町","town_kana":"カミフクモトチョウ","prefecture_code":46},"1275":[{"zip_code":"8911275","prefecture":"鹿児島県","prefecture_kana":"カゴシマケン","city":"鹿児島市","city_kana":"カゴシマシ","town":"川上町（３６４９、３６６１、３６６７、３６６９−４、３６７１、３６７２、３","town_kana":"カワカミチョウ(3649、3661、3667、3669-4、3671、3672、3","prefecture_code":46},{"zip_code":"8911275","prefecture":"鹿児島県","prefecture_kana":"カゴシマケン","city":"鹿児島市","city_kana":"カゴシマシ","town":"６７４、３７０１、３７０４、３７２３−３、４１２８、４１３２、４１３３、４","town_kana":"674、3701、3704、3723-3、4128、4132、4133、4","prefecture_code":46},{"zip_code":"8911275","prefecture":"鹿児島県","prefecture_kana":"カゴシマケン","city":"鹿児島市","city_kana":"カゴシマシ","town":"１３８、４２０３、４２０９、４２１５、４２３６−１、４２３８、４２４１、４","town_kana":"138、4203、4209、4215、4236-1、4238、4241、4","prefecture_code":46},{"zip_code":"8911275","prefecture":"鹿児島県","prefecture_kana":"カゴシマケン","city":"鹿児島市","city_kana":"カゴシマシ","town":"２４２、４２４４番地）","town_kana":"242、4244バンチ)","prefecture_code":46}],"1103":{"zip_code":"8911103","prefecture":"鹿児島県","prefecture_kana":"カゴシマケン","city":"鹿児島市","city_kana":"カゴシマシ","town":"川田町","town_kana":"カワダチョウ","prefecture_code":46},"0201":{"zip_code":"8910201","prefecture":"鹿児島県","prefecture_kana":"カゴシマケン","city":"鹿児島市","city_kana":"カゴシマシ","town":"喜入瀬々串町","town_kana":"キイレセセクシチョウ","prefecture_code":46},"0202":{"zip_code":"8910202","prefecture":"鹿児島県","prefecture_kana":"カゴシマケン","city":"鹿児島市","city_kana":"カゴシマシ","town":"喜入中名町","town_kana":"キイレナカミョウチョウ","prefecture_code":46},"0206":{"zip_code":"8910206","prefecture":"鹿児島県","prefecture_kana":"カゴシマケン","city":"鹿児島市","city_kana":"カゴシマシ","town":"喜入生見町","town_kana":"キイレヌクミチョウ","prefecture_code":46},"0204":{"zip_code":"8910204","prefecture":"鹿児島県","prefecture_kana":"カゴシマケン","city":"鹿児島市","city_kana":"カゴシマシ","town":"喜入一倉町","town_kana":"キイレヒトクラチョウ","prefecture_code":46},"0205":{"zip_code":"8910205","prefecture":"鹿児島県","prefecture_kana":"カゴシマケン","city":"鹿児島市","city_kana":"カゴシマシ","town":"喜入前之浜町","town_kana":"キイレマエノハマチョウ","prefecture_code":46},"0203":{"zip_code":"8910203","prefecture":"鹿児島県","prefecture_kana":"カゴシマケン","city":"鹿児島市","city_kana":"カゴシマシ","town":"喜入町","town_kana":"キイレチョウ","prefecture_code":46},"0107":{"zip_code":"8910107","prefecture":"鹿児島県","prefecture_kana":"カゴシマケン","city":"鹿児島市","city_kana":"カゴシマシ","town":"希望ケ丘町","town_kana":"キボウガオカチョウ","prefecture_code":46},"0145":{"zip_code":"8910145","prefecture":"鹿児島県","prefecture_kana":"カゴシマケン","city":"鹿児島市","city_kana":"カゴシマシ","town":"錦江台","town_kana":"キンコウダイ","prefecture_code":46},"1501":{"zip_code":"8911501","prefecture":"鹿児島県","prefecture_kana":"カゴシマケン","city":"鹿児島市","city_kana":"カゴシマシ","town":"黒神町（枦ノ木ケ谷）","town_kana":"クロカミチョウ(ハゼノキガダニ)","prefecture_code":46},"1401":{"zip_code":"8911401","prefecture":"鹿児島県","prefecture_kana":"カゴシマケン","city":"鹿児島市","city_kana":"カゴシマシ","town":"黒神町（その他）","town_kana":"クロカミチョウ(ソノタ)","prefecture_code":46},"1204":{"zip_code":"8911204","prefecture":"鹿児島県","prefecture_kana":"カゴシマケン","city":"鹿児島市","city_kana":"カゴシマシ","town":"花野光ケ丘","town_kana":"ケノヒカリガオカ","prefecture_code":46},"0103":{"zip_code":"8910103","prefecture":"鹿児島県","prefecture_kana":"カゴシマケン","city":"鹿児島市","city_kana":"カゴシマシ","town":"皇徳寺台","town_kana":"コウトクジダイ","prefecture_code":46},"1402":{"zip_code":"8911402","prefecture":"鹿児島県","prefecture_kana":"カゴシマケン","city":"鹿児島市","city_kana":"カゴシマシ","town":"高免町","town_kana":"コウメンチョウ","prefecture_code":46},"1108":{"zip_code":"8911108","prefecture":"鹿児島県","prefecture_kana":"カゴシマケン","city":"鹿児島市","city_kana":"カゴシマシ","town":"郡山岳町","town_kana":"コオリヤマタケマチ","prefecture_code":46},"1105":{"zip_code":"8911105","prefecture":"鹿児島県","prefecture_kana":"カゴシマケン","city":"鹿児島市","city_kana":"カゴシマシ","town":"郡山町","town_kana":"コオリヤマチョウ","prefecture_code":46},"0101":{"zip_code":"8910101","prefecture":"鹿児島県","prefecture_kana":"カゴシマケン","city":"鹿児島市","city_kana":"カゴシマシ","town":"五ケ別府町","town_kana":"ゴカベップチョウ","prefecture_code":46},"0114":{"zip_code":"8910114","prefecture":"鹿児島県","prefecture_kana":"カゴシマケン","city":"鹿児島市","city_kana":"カゴシマシ","town":"小松原","town_kana":"コマツバラ","prefecture_code":46},"1231":{"zip_code":"8911231","prefecture":"鹿児島県","prefecture_kana":"カゴシマケン","city":"鹿児島市","city_kana":"カゴシマシ","town":"小山田町（その他）","town_kana":"コヤマダチョウ(ソノタ)","prefecture_code":46},"0150":{"zip_code":"8910150","prefecture":"鹿児島県","prefecture_kana":"カゴシマケン","city":"鹿児島市","city_kana":"カゴシマシ","town":"坂之上","town_kana":"サカノウエ","prefecture_code":46},"0175":{"zip_code":"8910175","prefecture":"鹿児島県","prefecture_kana":"カゴシマケン","city":"鹿児島市","city_kana":"カゴシマシ","town":"桜ケ丘（１〜６丁目）","town_kana":"サクラガオカ(1-6チョウメ)","prefecture_code":46},"1420":{"zip_code":"8911420","prefecture":"鹿児島県","prefecture_kana":"カゴシマケン","city":"鹿児島市","city_kana":"カゴシマシ","town":"桜島赤水町","town_kana":"サクラジマアカミズチョウ","prefecture_code":46},"1417":{"zip_code":"8911417","prefecture":"鹿児島県","prefecture_kana":"カゴシマケン","city":"鹿児島市","city_kana":"カゴシマシ","town":"桜島赤生原町","town_kana":"サクラジマアコウバルチョウ","prefecture_code":46},"1418":{"zip_code":"8911418","prefecture":"鹿児島県","prefecture_kana":"カゴシマケン","city":"鹿児島市","city_kana":"カゴシマシ","town":"桜島小池町","town_kana":"サクラジマコイケチョウ","prefecture_code":46},"1414":{"zip_code":"8911414","prefecture":"鹿児島県","prefecture_kana":"カゴシマケン","city":"鹿児島市","city_kana":"カゴシマシ","town":"桜島西道町","town_kana":"サクラジマサイドウチョウ","prefecture_code":46},"1411":{"zip_code":"8911411","prefecture":"鹿児島県","prefecture_kana":"カゴシマケン","city":"鹿児島市","city_kana":"カゴシマシ","town":"桜島白浜町","town_kana":"サクラジマシラハマチョウ","prefecture_code":46},"1416":{"zip_code":"8911416","prefecture":"鹿児島県","prefecture_kana":"カゴシマケン","city":"鹿児島市","city_kana":"カゴシマシ","town":"桜島武町","town_kana":"サクラジマタケチョウ","prefecture_code":46},"1415":{"zip_code":"8911415","prefecture":"鹿児島県","prefecture_kana":"カゴシマケン","city":"鹿児島市","city_kana":"カゴシマシ","town":"桜島藤野町","town_kana":"サクラジマフジノチョウ","prefecture_code":46},"1412":{"zip_code":"8911412","prefecture":"鹿児島県","prefecture_kana":"カゴシマケン","city":"鹿児島市","city_kana":"カゴシマシ","town":"桜島二俣町","town_kana":"サクラジマフタマタチョウ","prefecture_code":46},"1413":{"zip_code":"8911413","prefecture":"鹿児島県","prefecture_kana":"カゴシマケン","city":"鹿児島市","city_kana":"カゴシマシ","town":"桜島松浦町","town_kana":"サクラジママツウラチョウ","prefecture_code":46},"1419":{"zip_code":"8911419","prefecture":"鹿児島県","prefecture_kana":"カゴシマケン","city":"鹿児島市","city_kana":"カゴシマシ","town":"桜島横山町","town_kana":"サクラジマヨコヤマチョウ","prefecture_code":46},"0146":{"zip_code":"8910146","prefecture":"鹿児島県","prefecture_kana":"カゴシマケン","city":"鹿児島市","city_kana":"カゴシマシ","town":"慈眼寺町","town_kana":"ジゲンジチョウ","prefecture_code":46},"0144":{"zip_code":"8910144","prefecture":"鹿児島県","prefecture_kana":"カゴシマケン","city":"鹿児島市","city_kana":"カゴシマシ","town":"下福元町","town_kana":"シモフクモトチョウ","prefecture_code":46},"0106":{"zip_code":"8910106","prefecture":"鹿児島県","prefecture_kana":"カゴシマケン","city":"鹿児島市","city_kana":"カゴシマシ","town":"自由ケ丘","town_kana":"ジユウガオカ","prefecture_code":46},"1403":{"zip_code":"8911403","prefecture":"鹿児島県","prefecture_kana":"カゴシマケン","city":"鹿児島市","city_kana":"カゴシマシ","town":"新島町","town_kana":"シンジマチョウ","prefecture_code":46},"0109":{"zip_code":"8910109","prefecture":"鹿児島県","prefecture_kana":"カゴシマケン","city":"鹿児島市","city_kana":"カゴシマシ","town":"清和","town_kana":"セイワ","prefecture_code":46},"0131":{"zip_code":"8910131","prefecture":"鹿児島県","prefecture_kana":"カゴシマケン","city":"鹿児島市","city_kana":"カゴシマシ","town":"谷山港","town_kana":"タニヤマコウ","prefecture_code":46},"0141":{"zip_code":"8910141","prefecture":"鹿児島県","prefecture_kana":"カゴシマケン","city":"鹿児島市","city_kana":"カゴシマシ","town":"谷山中央","town_kana":"タニヤマチュウオウ","prefecture_code":46},"0108":{"zip_code":"8910108","prefecture":"鹿児島県","prefecture_kana":"カゴシマケン","city":"鹿児島市","city_kana":"カゴシマシ","town":"中山","town_kana":"チュウザン","prefecture_code":46},"0105":{"zip_code":"8910105","prefecture":"鹿児島県","prefecture_kana":"カゴシマケン","city":"鹿児島市","city_kana":"カゴシマシ","town":"中山町","town_kana":"チュウザンチョウ","prefecture_code":46},"0115":{"zip_code":"8910115","prefecture":"鹿児島県","prefecture_kana":"カゴシマケン","city":"鹿児島市","city_kana":"カゴシマシ","town":"東開町","town_kana":"トウカイチョウ","prefecture_code":46},"0132":{"zip_code":"8910132","prefecture":"鹿児島県","prefecture_kana":"カゴシマケン","city":"鹿児島市","city_kana":"カゴシマシ","town":"七ツ島","town_kana":"ナナツジマ","prefecture_code":46},"0122":{"zip_code":"8910122","prefecture":"鹿児島県","prefecture_kana":"カゴシマケン","city":"鹿児島市","city_kana":"カゴシマシ","town":"南栄","town_kana":"ナンエイ","prefecture_code":46},"1202":{"zip_code":"8911202","prefecture":"鹿児島県","prefecture_kana":"カゴシマケン","city":"鹿児島市","city_kana":"カゴシマシ","town":"西伊敷（５〜７丁目）","town_kana":"ニシイシキ(5-7チョウメ)","prefecture_code":46},"1301":{"zip_code":"8911301","prefecture":"鹿児島県","prefecture_kana":"カゴシマケン","city":"鹿児島市","city_kana":"カゴシマシ","town":"西佐多町","town_kana":"ニシサタチョウ","prefecture_code":46},"0117":{"zip_code":"8910117","prefecture":"鹿児島県","prefecture_kana":"カゴシマケン","city":"鹿児島市","city_kana":"カゴシマシ","town":"西谷山","town_kana":"ニシタニヤマ","prefecture_code":46},"1106":{"zip_code":"8911106","prefecture":"鹿児島県","prefecture_kana":"カゴシマケン","city":"鹿児島市","city_kana":"カゴシマシ","town":"西俣町","town_kana":"ニシマタチョウ","prefecture_code":46},"1541":{"zip_code":"8911541","prefecture":"鹿児島県","prefecture_kana":"カゴシマケン","city":"鹿児島市","city_kana":"カゴシマシ","town":"野尻町","town_kana":"ノジリチョウ","prefecture_code":46},"1101":{"zip_code":"8911101","prefecture":"鹿児島県","prefecture_kana":"カゴシマケン","city":"鹿児島市","city_kana":"カゴシマシ","town":"花尾町","town_kana":"ハナオマチ","prefecture_code":46},"1543":{"zip_code":"8911543","prefecture":"鹿児島県","prefecture_kana":"カゴシマケン","city":"鹿児島市","city_kana":"カゴシマシ","town":"東桜島町","town_kana":"ヒガシサクラジマチョウ","prefecture_code":46},"1302":{"zip_code":"8911302","prefecture":"鹿児島県","prefecture_kana":"カゴシマケン","city":"鹿児島市","city_kana":"カゴシマシ","town":"東佐多町","town_kana":"ヒガシサタチョウ","prefecture_code":46},"0113":{"zip_code":"8910113","prefecture":"鹿児島県","prefecture_kana":"カゴシマケン","city":"鹿児島市","city_kana":"カゴシマシ","town":"東谷山","town_kana":"ヒガシタニヤマ","prefecture_code":46},"1102":{"zip_code":"8911102","prefecture":"鹿児島県","prefecture_kana":"カゴシマケン","city":"鹿児島市","city_kana":"カゴシマシ","town":"東俣町","town_kana":"ヒガシマタチョウ","prefecture_code":46},"0151":{"zip_code":"8910151","prefecture":"鹿児島県","prefecture_kana":"カゴシマケン","city":"鹿児島市","city_kana":"カゴシマシ","town":"光山","town_kana":"ヒカリヤマ","prefecture_code":46},"0133":{"zip_code":"8910133","prefecture":"鹿児島県","prefecture_kana":"カゴシマケン","city":"鹿児島市","city_kana":"カゴシマシ","town":"平川町","town_kana":"ヒラカワチョウ","prefecture_code":46},"1544":{"zip_code":"8911544","prefecture":"鹿児島県","prefecture_kana":"カゴシマケン","city":"鹿児島市","city_kana":"カゴシマシ","town":"古里町","town_kana":"フルサトチョウ","prefecture_code":46},"0102":{"zip_code":"8910102","prefecture":"鹿児島県","prefecture_kana":"カゴシマケン","city":"鹿児島市","city_kana":"カゴシマシ","town":"星ケ峯","town_kana":"ホシガミネ","prefecture_code":46},"1303":{"zip_code":"8911303","prefecture":"鹿児島県","prefecture_kana":"カゴシマケン","city":"鹿児島市","city_kana":"カゴシマシ","town":"本城町","town_kana":"ホンジョウチョウ","prefecture_code":46},"1304":{"zip_code":"8911304","prefecture":"鹿児島県","prefecture_kana":"カゴシマケン","city":"鹿児島市","city_kana":"カゴシマシ","town":"本名町","town_kana":"ホンミョウチョウ","prefecture_code":46},"1274":{"zip_code":"8911274","prefecture":"鹿児島県","prefecture_kana":"カゴシマケン","city":"鹿児島市","city_kana":"カゴシマシ","town":"緑ヶ丘町（３５番以降）","town_kana":"ミドリガオカチョウ(35バンイコウ)","prefecture_code":46},"1206":{"zip_code":"8911206","prefecture":"鹿児島県","prefecture_kana":"カゴシマケン","city":"鹿児島市","city_kana":"カゴシマシ","town":"皆与志町","town_kana":"ミナヨシチョウ","prefecture_code":46},"1305":{"zip_code":"8911305","prefecture":"鹿児島県","prefecture_kana":"カゴシマケン","city":"鹿児島市","city_kana":"カゴシマシ","town":"宮之浦町","town_kana":"ミヤノウラチョウ","prefecture_code":46},"1306":{"zip_code":"8911306","prefecture":"鹿児島県","prefecture_kana":"カゴシマケン","city":"鹿児島市","city_kana":"カゴシマシ","town":"牟礼岡","town_kana":"ムレガオカ","prefecture_code":46},"1542":{"zip_code":"8911542","prefecture":"鹿児島県","prefecture_kana":"カゴシマケン","city":"鹿児島市","city_kana":"カゴシマシ","town":"持木町","town_kana":"モチキチョウ","prefecture_code":46},"0104":{"zip_code":"8910104","prefecture":"鹿児島県","prefecture_kana":"カゴシマケン","city":"鹿児島市","city_kana":"カゴシマシ","town":"山田町","town_kana":"ヤマダチョウ","prefecture_code":46},"1104":{"zip_code":"8911104","prefecture":"鹿児島県","prefecture_kana":"カゴシマケン","city":"鹿児島市","city_kana":"カゴシマシ","town":"油須木町","town_kana":"ユスキチョウ","prefecture_code":46},"0143":{"zip_code":"8910143","prefecture":"鹿児島県","prefecture_kana":"カゴシマケン","city":"鹿児島市","city_kana":"カゴシマシ","town":"和田","town_kana":"ワダ","prefecture_code":46},"2301":{"zip_code":"8912301","prefecture":"鹿児島県","prefecture_kana":"カゴシマケン","city":"鹿屋市","city_kana":"カノヤシ","town":"有武町","town_kana":"アリタケチョウ","prefecture_code":46},"2302":{"zip_code":"8912302","prefecture":"鹿児島県","prefecture_kana":"カゴシマケン","city":"鹿屋市","city_kana":"カノヤシ","town":"小薄町","town_kana":"オスキチョウ","prefecture_code":46},"2312":{"zip_code":"8912312","prefecture":"鹿児島県","prefecture_kana":"カゴシマケン","city":"鹿屋市","city_kana":"カノヤシ","town":"小野原町","town_kana":"オノバルチョウ","prefecture_code":46},"2303":{"zip_code":"8912303","prefecture":"鹿児島県","prefecture_kana":"カゴシマケン","city":"鹿屋市","city_kana":"カノヤシ","town":"海道町","town_kana":"カイドウチョウ","prefecture_code":46},"2311":{"zip_code":"8912311","prefecture":"鹿児島県","prefecture_kana":"カゴシマケン","city":"鹿屋市","city_kana":"カノヤシ","town":"白水町","town_kana":"シロミズチョウ","prefecture_code":46},"2313":{"zip_code":"8912313","prefecture":"鹿児島県","prefecture_kana":"カゴシマケン","city":"鹿屋市","city_kana":"カノヤシ","town":"天神町","town_kana":"テンジンチョウ","prefecture_code":46},"2305":{"zip_code":"8912305","prefecture":"鹿児島県","prefecture_kana":"カゴシマケン","city":"鹿屋市","city_kana":"カノヤシ","town":"根木原町","town_kana":"ネギバルチョウ","prefecture_code":46},"2304":{"zip_code":"8912304","prefecture":"鹿児島県","prefecture_kana":"カゴシマケン","city":"鹿屋市","city_kana":"カノヤシ","town":"花岡町","town_kana":"ハナオカチョウ","prefecture_code":46},"2306":{"zip_code":"8912306","prefecture":"鹿児島県","prefecture_kana":"カゴシマケン","city":"鹿屋市","city_kana":"カノヤシ","town":"花里町","town_kana":"ハナザトチョウ","prefecture_code":46},"2314":{"zip_code":"8912314","prefecture":"鹿児島県","prefecture_kana":"カゴシマケン","city":"鹿屋市","city_kana":"カノヤシ","town":"船間町","town_kana":"フナマチョウ","prefecture_code":46},"2321":{"zip_code":"8912321","prefecture":"鹿児島県","prefecture_kana":"カゴシマケン","city":"鹿屋市","city_kana":"カノヤシ","town":"古江町","town_kana":"フルエチョウ","prefecture_code":46},"2322":{"zip_code":"8912322","prefecture":"鹿児島県","prefecture_kana":"カゴシマケン","city":"鹿屋市","city_kana":"カノヤシ","town":"古里町","town_kana":"フルサトチョウ","prefecture_code":46},"0400":{"zip_code":"8910400","prefecture":"鹿児島県","prefecture_kana":"カゴシマケン","city":"指宿市","city_kana":"イブスキシ","town":"以下に掲載がない場合","town_kana":"イカニケイサイガナイバアイ","prefecture_code":46},"0312":{"zip_code":"8910312","prefecture":"鹿児島県","prefecture_kana":"カゴシマケン","city":"指宿市","city_kana":"イブスキシ","town":"池田","town_kana":"イケダ","prefecture_code":46},"0315":{"zip_code":"8910315","prefecture":"鹿児島県","prefecture_kana":"カゴシマケン","city":"指宿市","city_kana":"イブスキシ","town":"岩本","town_kana":"イワモト","prefecture_code":46},"0401":{"zip_code":"8910401","prefecture":"鹿児島県","prefecture_kana":"カゴシマケン","city":"指宿市","city_kana":"イブスキシ","town":"大牟礼","town_kana":"オオムレ","prefecture_code":46},"0601":{"zip_code":"8910601","prefecture":"鹿児島県","prefecture_kana":"カゴシマケン","city":"指宿市","city_kana":"イブスキシ","town":"開聞上野","town_kana":"カイモンウエノ","prefecture_code":46},"0602":{"zip_code":"8910602","prefecture":"鹿児島県","prefecture_kana":"カゴシマケン","city":"指宿市","city_kana":"イブスキシ","town":"開聞川尻","town_kana":"カイモンカワシリ","prefecture_code":46},"0603":{"zip_code":"8910603","prefecture":"鹿児島県","prefecture_kana":"カゴシマケン","city":"指宿市","city_kana":"イブスキシ","town":"開聞十町","town_kana":"カイモンジュッチョウ","prefecture_code":46},"0604":{"zip_code":"8910604","prefecture":"鹿児島県","prefecture_kana":"カゴシマケン","city":"指宿市","city_kana":"イブスキシ","town":"開聞仙田","town_kana":"カイモンセンタ","prefecture_code":46},"0314":{"zip_code":"8910314","prefecture":"鹿児島県","prefecture_kana":"カゴシマケン","city":"指宿市","city_kana":"イブスキシ","town":"小牧","town_kana":"コマキ","prefecture_code":46},"0403":{"zip_code":"8910403","prefecture":"鹿児島県","prefecture_kana":"カゴシマケン","city":"指宿市","city_kana":"イブスキシ","town":"十二町","town_kana":"ジュウニチョウ","prefecture_code":46},"0402":{"zip_code":"8910402","prefecture":"鹿児島県","prefecture_kana":"カゴシマケン","city":"指宿市","city_kana":"イブスキシ","town":"十町","town_kana":"ジュッチョウ","prefecture_code":46},"0313":{"zip_code":"8910313","prefecture":"鹿児島県","prefecture_kana":"カゴシマケン","city":"指宿市","city_kana":"イブスキシ","town":"新西方","town_kana":"シンニシカタ","prefecture_code":46},"0311":{"zip_code":"8910311","prefecture":"鹿児島県","prefecture_kana":"カゴシマケン","city":"指宿市","city_kana":"イブスキシ","town":"西方","town_kana":"ニシカタ","prefecture_code":46},"0304":[{"zip_code":"8910304","prefecture":"鹿児島県","prefecture_kana":"カゴシマケン","city":"指宿市","city_kana":"イブスキシ","town":"東方（６００〜５９７４、５９７６〜７８１６、７８３３、７８３４、","town_kana":"ヒガシカタ(600-5974、5976-7816、7833、7834、","prefecture_code":46},{"zip_code":"8910304","prefecture":"鹿児島県","prefecture_kana":"カゴシマケン","city":"指宿市","city_kana":"イブスキシ","town":"１０６０３〜１１０１５）","town_kana":"10603-11015)","prefecture_code":46}],"0404":{"zip_code":"8910404","prefecture":"鹿児島県","prefecture_kana":"カゴシマケン","city":"指宿市","city_kana":"イブスキシ","town":"東方（その他）","town_kana":"ヒガシカタ(ソノタ)","prefecture_code":46},"0405":{"zip_code":"8910405","prefecture":"鹿児島県","prefecture_kana":"カゴシマケン","city":"指宿市","city_kana":"イブスキシ","town":"湊","town_kana":"ミナト","prefecture_code":46},"0502":{"zip_code":"8910502","prefecture":"鹿児島県","prefecture_kana":"カゴシマケン","city":"指宿市","city_kana":"イブスキシ","town":"山川朝日町","town_kana":"ヤマガワアサヒチョウ","prefecture_code":46},"0507":{"zip_code":"8910507","prefecture":"鹿児島県","prefecture_kana":"カゴシマケン","city":"指宿市","city_kana":"イブスキシ","town":"山川入船町","town_kana":"ヤマガワイリフネチョウ","prefecture_code":46},"0614":{"zip_code":"8910614","prefecture":"鹿児島県","prefecture_kana":"カゴシマケン","city":"指宿市","city_kana":"イブスキシ","town":"山川大山（１４００〜１７１７番）","town_kana":"ヤマガワオオヤマ(1400-1717バン)","prefecture_code":46},"0514":{"zip_code":"8910514","prefecture":"鹿児島県","prefecture_kana":"カゴシマケン","city":"指宿市","city_kana":"イブスキシ","town":"山川大山（その他）","town_kana":"ヤマガワオオヤマ(ソノタ)","prefecture_code":46},"0513":{"zip_code":"8910513","prefecture":"鹿児島県","prefecture_kana":"カゴシマケン","city":"指宿市","city_kana":"イブスキシ","town":"山川岡児ケ水","town_kana":"ヤマガワオカチヨガミズ","prefecture_code":46},"0515":{"zip_code":"8910515","prefecture":"鹿児島県","prefecture_kana":"カゴシマケン","city":"指宿市","city_kana":"イブスキシ","town":"山川小川","town_kana":"ヤマガワオガワ","prefecture_code":46},"0506":{"zip_code":"8910506","prefecture":"鹿児島県","prefecture_kana":"カゴシマケン","city":"指宿市","city_kana":"イブスキシ","town":"山川金生町","town_kana":"ヤマガワキンセイチョウ","prefecture_code":46},"0503":{"zip_code":"8910503","prefecture":"鹿児島県","prefecture_kana":"カゴシマケン","city":"指宿市","city_kana":"イブスキシ","town":"山川潮見町","town_kana":"ヤマガワシオミチョウ","prefecture_code":46},"0501":{"zip_code":"8910501","prefecture":"鹿児島県","prefecture_kana":"カゴシマケン","city":"指宿市","city_kana":"イブスキシ","town":"山川新栄町","town_kana":"ヤマガワシンエイチョウ","prefecture_code":46},"0504":{"zip_code":"8910504","prefecture":"鹿児島県","prefecture_kana":"カゴシマケン","city":"指宿市","city_kana":"イブスキシ","town":"山川新生町","town_kana":"ヤマガワシンセイチョウ","prefecture_code":46},"0621":{"zip_code":"8910621","prefecture":"鹿児島県","prefecture_kana":"カゴシマケン","city":"指宿市","city_kana":"イブスキシ","town":"山川利永","town_kana":"ヤマガワトシナガ","prefecture_code":46},"0516":{"zip_code":"8910516","prefecture":"鹿児島県","prefecture_kana":"カゴシマケン","city":"指宿市","city_kana":"イブスキシ","town":"山川成川","town_kana":"ヤマガワナリカワ","prefecture_code":46},"0512":{"zip_code":"8910512","prefecture":"鹿児島県","prefecture_kana":"カゴシマケン","city":"指宿市","city_kana":"イブスキシ","town":"山川浜児ケ水","town_kana":"ヤマガワハマチヨガミズ","prefecture_code":46},"0511":{"zip_code":"8910511","prefecture":"鹿児島県","prefecture_kana":"カゴシマケン","city":"指宿市","city_kana":"イブスキシ","town":"山川福元","town_kana":"ヤマガワフクモト","prefecture_code":46},"0505":{"zip_code":"8910505","prefecture":"鹿児島県","prefecture_kana":"カゴシマケン","city":"指宿市","city_kana":"イブスキシ","town":"山川山下町","town_kana":"ヤマガワヤマシタチョウ","prefecture_code":46},"0406":{"zip_code":"8910406","prefecture":"鹿児島県","prefecture_kana":"カゴシマケン","city":"指宿市","city_kana":"イブスキシ","town":"湯の浜","town_kana":"ユノハマ","prefecture_code":46},"3100":{"zip_code":"8913100","prefecture":"鹿児島県","prefecture_kana":"カゴシマケン","city":"西之表市","city_kana":"ニシノオモテシ","town":"以下に掲載がない場合","town_kana":"イカニケイサイガナイバアイ","prefecture_code":46},"3432":{"zip_code":"8913432","prefecture":"鹿児島県","prefecture_kana":"カゴシマケン","city":"西之表市","city_kana":"ニシノオモテシ","town":"安城","town_kana":"アンジョウ","prefecture_code":46},"3102":{"zip_code":"8913102","prefecture":"鹿児島県","prefecture_kana":"カゴシマケン","city":"西之表市","city_kana":"ニシノオモテシ","town":"安納（１〜３０４８、４９０１〜４９３０番地）","town_kana":"アンノウ(1-3048、4901-4930バンチ)","prefecture_code":46},"3202":{"zip_code":"8913202","prefecture":"鹿児島県","prefecture_kana":"カゴシマケン","city":"西之表市","city_kana":"ニシノオモテシ","town":"安納（その他）","town_kana":"アンノウ(ソノタ)","prefecture_code":46},"3114":{"zip_code":"8913114","prefecture":"鹿児島県","prefecture_kana":"カゴシマケン","city":"西之表市","city_kana":"ニシノオモテシ","town":"池田","town_kana":"イケダ","prefecture_code":46},"3221":{"zip_code":"8913221","prefecture":"鹿児島県","prefecture_kana":"カゴシマケン","city":"西之表市","city_kana":"ニシノオモテシ","town":"伊関","town_kana":"イセキ","prefecture_code":46},"3116":{"zip_code":"8913116","prefecture":"鹿児島県","prefecture_kana":"カゴシマケン","city":"西之表市","city_kana":"ニシノオモテシ","town":"鴨女町","town_kana":"カモメチョウ","prefecture_code":46},"3222":{"zip_code":"8913222","prefecture":"鹿児島県","prefecture_kana":"カゴシマケン","city":"西之表市","city_kana":"ニシノオモテシ","town":"国上","town_kana":"クニガミ","prefecture_code":46},"3103":{"zip_code":"8913103","prefecture":"鹿児島県","prefecture_kana":"カゴシマケン","city":"西之表市","city_kana":"ニシノオモテシ","town":"現和","town_kana":"ゲンナ","prefecture_code":46},"3112":{"zip_code":"8913112","prefecture":"鹿児島県","prefecture_kana":"カゴシマケン","city":"西之表市","city_kana":"ニシノオモテシ","town":"栄町","town_kana":"サカエマチ","prefecture_code":46},"3117":{"zip_code":"8913117","prefecture":"鹿児島県","prefecture_kana":"カゴシマケン","city":"西之表市","city_kana":"ニシノオモテシ","town":"桜が丘","town_kana":"サクラガオカ","prefecture_code":46},"3104":{"zip_code":"8913104","prefecture":"鹿児島県","prefecture_kana":"カゴシマケン","city":"西之表市","city_kana":"ニシノオモテシ","town":"住吉","town_kana":"スミヨシ","prefecture_code":46},"3115":{"zip_code":"8913115","prefecture":"鹿児島県","prefecture_kana":"カゴシマケン","city":"西之表市","city_kana":"ニシノオモテシ","town":"天神町","town_kana":"テンジンチョウ","prefecture_code":46},"3101":{"zip_code":"8913101","prefecture":"鹿児島県","prefecture_kana":"カゴシマケン","city":"西之表市","city_kana":"ニシノオモテシ","town":"西之表","town_kana":"ニシノオモテ","prefecture_code":46},"3111":{"zip_code":"8913111","prefecture":"鹿児島県","prefecture_kana":"カゴシマケン","city":"西之表市","city_kana":"ニシノオモテシ","town":"西町","town_kana":"ニシマチ","prefecture_code":46},"3113":{"zip_code":"8913113","prefecture":"鹿児島県","prefecture_kana":"カゴシマケン","city":"西之表市","city_kana":"ニシノオモテシ","town":"東町","town_kana":"ヒガシマチ","prefecture_code":46},"3431":{"zip_code":"8913431","prefecture":"鹿児島県","prefecture_kana":"カゴシマケン","city":"西之表市","city_kana":"ニシノオモテシ","town":"古田","town_kana":"フルタ","prefecture_code":46},"3118":{"zip_code":"8913118","prefecture":"鹿児島県","prefecture_kana":"カゴシマケン","city":"西之表市","city_kana":"ニシノオモテシ","town":"馬毛島","town_kana":"マゲシマ","prefecture_code":46},"2100":{"zip_code":"8912100","prefecture":"鹿児島県","prefecture_kana":"カゴシマケン","city":"垂水市","city_kana":"タルミズシ","town":"以下に掲載がない場合","town_kana":"イカニケイサイガナイバアイ","prefecture_code":46},"2125":{"zip_code":"8912125","prefecture":"鹿児島県","prefecture_kana":"カゴシマケン","city":"垂水市","city_kana":"タルミズシ","town":"旭町","town_kana":"アサヒマチ","prefecture_code":46},"2103":{"zip_code":"8912103","prefecture":"鹿児島県","prefecture_kana":"カゴシマケン","city":"垂水市","city_kana":"タルミズシ","town":"市木","town_kana":"イチキ","prefecture_code":46},"2101":{"zip_code":"8912101","prefecture":"鹿児島県","prefecture_kana":"カゴシマケン","city":"垂水市","city_kana":"タルミズシ","town":"海潟","town_kana":"カイガタ","prefecture_code":46},"2122":{"zip_code":"8912122","prefecture":"鹿児島県","prefecture_kana":"カゴシマケン","city":"垂水市","city_kana":"タルミズシ","town":"上町","town_kana":"カンマチ","prefecture_code":46},"2124":{"zip_code":"8912124","prefecture":"鹿児島県","prefecture_kana":"カゴシマケン","city":"垂水市","city_kana":"タルミズシ","town":"錦江町","town_kana":"キンコウチョウ","prefecture_code":46},"2116":{"zip_code":"8912116","prefecture":"鹿児島県","prefecture_kana":"カゴシマケン","city":"垂水市","city_kana":"タルミズシ","town":"柊原","town_kana":"クヌギバル","prefecture_code":46},"2121":{"zip_code":"8912121","prefecture":"鹿児島県","prefecture_kana":"カゴシマケン","city":"垂水市","city_kana":"タルミズシ","town":"栄町","town_kana":"サカエマチ","prefecture_code":46},"2117":{"zip_code":"8912117","prefecture":"鹿児島県","prefecture_kana":"カゴシマケン","city":"垂水市","city_kana":"タルミズシ","town":"潮彩町","town_kana":"シオサイチョウ","prefecture_code":46},"2127":{"zip_code":"8912127","prefecture":"鹿児島県","prefecture_kana":"カゴシマケン","city":"垂水市","city_kana":"タルミズシ","town":"下宮町","town_kana":"シモミヤチョウ","prefecture_code":46},"2114":{"zip_code":"8912114","prefecture":"鹿児島県","prefecture_kana":"カゴシマケン","city":"垂水市","city_kana":"タルミズシ","town":"新城","town_kana":"シンジョウ","prefecture_code":46},"2111":{"zip_code":"8912111","prefecture":"鹿児島県","prefecture_kana":"カゴシマケン","city":"垂水市","city_kana":"タルミズシ","town":"新御堂","town_kana":"シンミドウ","prefecture_code":46},"2113":{"zip_code":"8912113","prefecture":"鹿児島県","prefecture_kana":"カゴシマケン","city":"垂水市","city_kana":"タルミズシ","town":"高城","town_kana":"タカジョウ","prefecture_code":46},"2104":{"zip_code":"8912104","prefecture":"鹿児島県","prefecture_kana":"カゴシマケン","city":"垂水市","city_kana":"タルミズシ","town":"田神","town_kana":"タガミ","prefecture_code":46},"2106":{"zip_code":"8912106","prefecture":"鹿児島県","prefecture_kana":"カゴシマケン","city":"垂水市","city_kana":"タルミズシ","town":"中央町","town_kana":"チュウオウチョウ","prefecture_code":46},"2102":{"zip_code":"8912102","prefecture":"鹿児島県","prefecture_kana":"カゴシマケン","city":"垂水市","city_kana":"タルミズシ","town":"中俣","town_kana":"ナカマタ","prefecture_code":46},"2115":{"zip_code":"8912115","prefecture":"鹿児島県","prefecture_kana":"カゴシマケン","city":"垂水市","city_kana":"タルミズシ","town":"浜平","town_kana":"ハマビラ","prefecture_code":46},"2112":{"zip_code":"8912112","prefecture":"鹿児島県","prefecture_kana":"カゴシマケン","city":"垂水市","city_kana":"タルミズシ","town":"本城","town_kana":"ホンジョウ","prefecture_code":46},"2123":{"zip_code":"8912123","prefecture":"鹿児島県","prefecture_kana":"カゴシマケン","city":"垂水市","city_kana":"タルミズシ","town":"本町","town_kana":"ホンマチ","prefecture_code":46},"2105":{"zip_code":"8912105","prefecture":"鹿児島県","prefecture_kana":"カゴシマケン","city":"垂水市","city_kana":"タルミズシ","town":"松原町","town_kana":"マツバラチョウ","prefecture_code":46},"2126":{"zip_code":"8912126","prefecture":"鹿児島県","prefecture_kana":"カゴシマケン","city":"垂水市","city_kana":"タルミズシ","town":"南松原町","town_kana":"ミナミマツバラチョウ","prefecture_code":46},"0705":{"zip_code":"8910705","prefecture":"鹿児島県","prefecture_kana":"カゴシマケン","city":"南九州市","city_kana":"ミナミキュウシュウシ","town":"頴娃町上別府","town_kana":"エイチョウカミベップ","prefecture_code":46},"0701":{"zip_code":"8910701","prefecture":"鹿児島県","prefecture_kana":"カゴシマケン","city":"南九州市","city_kana":"ミナミキュウシュウシ","town":"頴娃町郡","town_kana":"エイチョウコオリ","prefecture_code":46},"0703":{"zip_code":"8910703","prefecture":"鹿児島県","prefecture_kana":"カゴシマケン","city":"南九州市","city_kana":"ミナミキュウシュウシ","town":"頴娃町御領","town_kana":"エイチョウゴリョウ","prefecture_code":46},"0704":{"zip_code":"8910704","prefecture":"鹿児島県","prefecture_kana":"カゴシマケン","city":"南九州市","city_kana":"ミナミキュウシュウシ","town":"頴娃町別府","town_kana":"エイチョウベップ","prefecture_code":46},"0702":{"zip_code":"8910702","prefecture":"鹿児島県","prefecture_kana":"カゴシマケン","city":"南九州市","city_kana":"ミナミキュウシュウシ","town":"頴娃町牧之内","town_kana":"エイチョウマキノウチ","prefecture_code":46},"0911":{"zip_code":"8910911","prefecture":"鹿児島県","prefecture_kana":"カゴシマケン","city":"南九州市","city_kana":"ミナミキュウシュウシ","town":"知覧町塩屋","town_kana":"チランチョウシオヤ","prefecture_code":46},"0912":{"zip_code":"8910912","prefecture":"鹿児島県","prefecture_kana":"カゴシマケン","city":"南九州市","city_kana":"ミナミキュウシュウシ","town":"知覧町南別府","town_kana":"チランチョウミナミベップ","prefecture_code":46},"5200":{"zip_code":"8915200","prefecture":"鹿児島県","prefecture_kana":"カゴシマケン","city":"鹿児島郡十島村","city_kana":"カゴシマグントシマムラ","town":"以下に掲載がない場合","town_kana":"イカニケイサイガナイバアイ","prefecture_code":46},"5204":{"zip_code":"8915204","prefecture":"鹿児島県","prefecture_kana":"カゴシマケン","city":"鹿児島郡十島村","city_kana":"カゴシマグントシマムラ","town":"悪石島","town_kana":"アクセキジマ","prefecture_code":46},"5101":{"zip_code":"8915101","prefecture":"鹿児島県","prefecture_kana":"カゴシマケン","city":"鹿児島郡十島村","city_kana":"カゴシマグントシマムラ","town":"口之島","town_kana":"クチノシマ","prefecture_code":46},"5205":{"zip_code":"8915205","prefecture":"鹿児島県","prefecture_kana":"カゴシマケン","city":"鹿児島郡十島村","city_kana":"カゴシマグントシマムラ","town":"小宝島","town_kana":"コダカラジマ","prefecture_code":46},"5203":{"zip_code":"8915203","prefecture":"鹿児島県","prefecture_kana":"カゴシマケン","city":"鹿児島郡十島村","city_kana":"カゴシマグントシマムラ","town":"諏訪之瀬島","town_kana":"スワノセジマ","prefecture_code":46},"5202":{"zip_code":"8915202","prefecture":"鹿児島県","prefecture_kana":"カゴシマケン","city":"鹿児島郡十島村","city_kana":"カゴシマグントシマムラ","town":"平島","town_kana":"タイラジマ","prefecture_code":46},"5301":{"zip_code":"8915301","prefecture":"鹿児島県","prefecture_kana":"カゴシマケン","city":"鹿児島郡十島村","city_kana":"カゴシマグントシマムラ","town":"宝島","town_kana":"タカラジマ","prefecture_code":46},"5201":{"zip_code":"8915201","prefecture":"鹿児島県","prefecture_kana":"カゴシマケン","city":"鹿児島郡十島村","city_kana":"カゴシマグントシマムラ","town":"中之島","town_kana":"ナカノシマ","prefecture_code":46},"3600":{"zip_code":"8913600","prefecture":"鹿児島県","prefecture_kana":"カゴシマケン","city":"熊毛郡中種子町","city_kana":"クマゲグンナカタネチョウ","town":"以下に掲載がない場合","town_kana":"イカニケイサイガナイバアイ","prefecture_code":46},"3606":{"zip_code":"8913606","prefecture":"鹿児島県","prefecture_kana":"カゴシマケン","city":"熊毛郡中種子町","city_kana":"クマゲグンナカタネチョウ","town":"坂井","town_kana":"サカイ","prefecture_code":46},"3607":{"zip_code":"8913607","prefecture":"鹿児島県","prefecture_kana":"カゴシマケン","city":"熊毛郡中種子町","city_kana":"クマゲグンナカタネチョウ","town":"田島","town_kana":"タシマ","prefecture_code":46},"3601":{"zip_code":"8913601","prefecture":"鹿児島県","prefecture_kana":"カゴシマケン","city":"熊毛郡中種子町","city_kana":"クマゲグンナカタネチョウ","town":"納官","town_kana":"ノウカン","prefecture_code":46},"3604":{"zip_code":"8913604","prefecture":"鹿児島県","prefecture_kana":"カゴシマケン","city":"熊毛郡中種子町","city_kana":"クマゲグンナカタネチョウ","town":"野間","town_kana":"ノマ","prefecture_code":46},"3602":{"zip_code":"8913602","prefecture":"鹿児島県","prefecture_kana":"カゴシマケン","city":"熊毛郡中種子町","city_kana":"クマゲグンナカタネチョウ","town":"牧川","town_kana":"マキガワ","prefecture_code":46},"3603":{"zip_code":"8913603","prefecture":"鹿児島県","prefecture_kana":"カゴシマケン","city":"熊毛郡中種子町","city_kana":"クマゲグンナカタネチョウ","town":"増田","town_kana":"マスダ","prefecture_code":46},"3605":{"zip_code":"8913605","prefecture":"鹿児島県","prefecture_kana":"カゴシマケン","city":"熊毛郡中種子町","city_kana":"クマゲグンナカタネチョウ","town":"油久","town_kana":"ユク","prefecture_code":46},"3700":{"zip_code":"8913700","prefecture":"鹿児島県","prefecture_kana":"カゴシマケン","city":"熊毛郡南種子町","city_kana":"クマゲグンミナミタネチョウ","town":"以下に掲載がない場合","town_kana":"イカニケイサイガナイバアイ","prefecture_code":46},"3703":{"zip_code":"8913703","prefecture":"鹿児島県","prefecture_kana":"カゴシマケン","city":"熊毛郡南種子町","city_kana":"クマゲグンミナミタネチョウ","town":"茎永","town_kana":"クキナガ","prefecture_code":46},"3706":{"zip_code":"8913706","prefecture":"鹿児島県","prefecture_kana":"カゴシマケン","city":"熊毛郡南種子町","city_kana":"クマゲグンミナミタネチョウ","town":"島間","town_kana":"シママ","prefecture_code":46},"3701":{"zip_code":"8913701","prefecture":"鹿児島県","prefecture_kana":"カゴシマケン","city":"熊毛郡南種子町","city_kana":"クマゲグンミナミタネチョウ","town":"中之上","town_kana":"ナカノカミ","prefecture_code":46},"3704":{"zip_code":"8913704","prefecture":"鹿児島県","prefecture_kana":"カゴシマケン","city":"熊毛郡南種子町","city_kana":"クマゲグンミナミタネチョウ","town":"中之下","town_kana":"ナカノシモ","prefecture_code":46},"3705":{"zip_code":"8913705","prefecture":"鹿児島県","prefecture_kana":"カゴシマケン","city":"熊毛郡南種子町","city_kana":"クマゲグンミナミタネチョウ","town":"西之","town_kana":"ニシノ","prefecture_code":46},"3702":{"zip_code":"8913702","prefecture":"鹿児島県","prefecture_kana":"カゴシマケン","city":"熊毛郡南種子町","city_kana":"クマゲグンミナミタネチョウ","town":"平山","town_kana":"ヒラヤマ","prefecture_code":46},"4200":{"zip_code":"8914200","prefecture":"鹿児島県","prefecture_kana":"カゴシマケン","city":"熊毛郡屋久島町","city_kana":"クマゲグンヤクシマチョウ","town":"以下に掲載がない場合","town_kana":"イカニケイサイガナイバアイ","prefecture_code":46},"4311":{"zip_code":"8914311","prefecture":"鹿児島県","prefecture_kana":"カゴシマケン","city":"熊毛郡屋久島町","city_kana":"クマゲグンヤクシマチョウ","town":"安房","town_kana":"アンボウ","prefecture_code":46},"4203":{"zip_code":"8914203","prefecture":"鹿児島県","prefecture_kana":"カゴシマケン","city":"熊毛郡屋久島町","city_kana":"クマゲグンヤクシマチョウ","town":"一湊","town_kana":"イッソウ","prefecture_code":46},"4404":{"zip_code":"8914404","prefecture":"鹿児島県","prefecture_kana":"カゴシマケン","city":"熊毛郡屋久島町","city_kana":"クマゲグンヤクシマチョウ","town":"尾之間","town_kana":"オノアイダ","prefecture_code":46},"4206":{"zip_code":"8914206","prefecture":"鹿児島県","prefecture_kana":"カゴシマケン","city":"熊毛郡屋久島町","city_kana":"クマゲグンヤクシマチョウ","town":"楠川","town_kana":"クスガワ","prefecture_code":46},"4208":{"zip_code":"8914208","prefecture":"鹿児島県","prefecture_kana":"カゴシマケン","city":"熊毛郡屋久島町","city_kana":"クマゲグンヤクシマチョウ","town":"口永良部島","town_kana":"クチエラブジマ","prefecture_code":46},"4409":{"zip_code":"8914409","prefecture":"鹿児島県","prefecture_kana":"カゴシマケン","city":"熊毛郡屋久島町","city_kana":"クマゲグンヤクシマチョウ","town":"栗生","town_kana":"クリオ","prefecture_code":46},"4405":{"zip_code":"8914405","prefecture":"鹿児島県","prefecture_kana":"カゴシマケン","city":"熊毛郡屋久島町","city_kana":"クマゲグンヤクシマチョウ","town":"小島","town_kana":"コシマ","prefecture_code":46},"4207":{"zip_code":"8914207","prefecture":"鹿児島県","prefecture_kana":"カゴシマケン","city":"熊毛郡屋久島町","city_kana":"クマゲグンヤクシマチョウ","town":"小瀬田","town_kana":"コセダ","prefecture_code":46},"4204":{"zip_code":"8914204","prefecture":"鹿児島県","prefecture_kana":"カゴシマケン","city":"熊毛郡屋久島町","city_kana":"クマゲグンヤクシマチョウ","town":"志戸子","town_kana":"シトゴ","prefecture_code":46},"4201":{"zip_code":"8914201","prefecture":"鹿児島県","prefecture_kana":"カゴシマケン","city":"熊毛郡屋久島町","city_kana":"クマゲグンヤクシマチョウ","town":"永田","town_kana":"ナガタ","prefecture_code":46},"4408":{"zip_code":"8914408","prefecture":"鹿児島県","prefecture_kana":"カゴシマケン","city":"熊毛郡屋久島町","city_kana":"クマゲグンヤクシマチョウ","town":"中間","town_kana":"ナカマ","prefecture_code":46},"4403":{"zip_code":"8914403","prefecture":"鹿児島県","prefecture_kana":"カゴシマケン","city":"熊毛郡屋久島町","city_kana":"クマゲグンヤクシマチョウ","town":"原","town_kana":"ハラ","prefecture_code":46},"4406":{"zip_code":"8914406","prefecture":"鹿児島県","prefecture_kana":"カゴシマケン","city":"熊毛郡屋久島町","city_kana":"クマゲグンヤクシマチョウ","town":"平内","town_kana":"ヒラウチ","prefecture_code":46},"4312":{"zip_code":"8914312","prefecture":"鹿児島県","prefecture_kana":"カゴシマケン","city":"熊毛郡屋久島町","city_kana":"クマゲグンヤクシマチョウ","town":"船行","town_kana":"フナユキ","prefecture_code":46},"4205":{"zip_code":"8914205","prefecture":"鹿児島県","prefecture_kana":"カゴシマケン","city":"熊毛郡屋久島町","city_kana":"クマゲグンヤクシマチョウ","town":"宮之浦","town_kana":"ミヤノウラ","prefecture_code":46},"4401":{"zip_code":"8914401","prefecture":"鹿児島県","prefecture_kana":"カゴシマケン","city":"熊毛郡屋久島町","city_kana":"クマゲグンヤクシマチョウ","town":"麦生（高平）","town_kana":"ムギオ(タカビラ)","prefecture_code":46},"4402":{"zip_code":"8914402","prefecture":"鹿児島県","prefecture_kana":"カゴシマケン","city":"熊毛郡屋久島町","city_kana":"クマゲグンヤクシマチョウ","town":"麦生（その他）","town_kana":"ムギオ(ソノタ)","prefecture_code":46},"4407":{"zip_code":"8914407","prefecture":"鹿児島県","prefecture_kana":"カゴシマケン","city":"熊毛郡屋久島町","city_kana":"クマゲグンヤクシマチョウ","town":"湯泊","town_kana":"ユドマリ","prefecture_code":46},"4202":{"zip_code":"8914202","prefecture":"鹿児島県","prefecture_kana":"カゴシマケン","city":"熊毛郡屋久島町","city_kana":"クマゲグンヤクシマチョウ","town":"吉田","town_kana":"ヨシダ","prefecture_code":46},"6200":{"zip_code":"8916200","prefecture":"鹿児島県","prefecture_kana":"カゴシマケン","city":"大島郡喜界町","city_kana":"オオシマグンキカイチョウ","town":"以下に掲載がない場合","town_kana":"イカニケイサイガナイバアイ","prefecture_code":46},"6201":{"zip_code":"8916201","prefecture":"鹿児島県","prefecture_kana":"カゴシマケン","city":"大島郡喜界町","city_kana":"オオシマグンキカイチョウ","town":"赤連","town_kana":"アカレン","prefecture_code":46},"6162":{"zip_code":"8916162","prefecture":"鹿児島県","prefecture_kana":"カゴシマケン","city":"大島郡喜界町","city_kana":"オオシマグンキカイチョウ","town":"阿伝","town_kana":"アデン","prefecture_code":46},"6231":{"zip_code":"8916231","prefecture":"鹿児島県","prefecture_kana":"カゴシマケン","city":"大島郡喜界町","city_kana":"オオシマグンキカイチョウ","town":"荒木","town_kana":"アラキ","prefecture_code":46},"6221":{"zip_code":"8916221","prefecture":"鹿児島県","prefecture_kana":"カゴシマケン","city":"大島郡喜界町","city_kana":"オオシマグンキカイチョウ","town":"池治","town_kana":"イケジ","prefecture_code":46},"6217":{"zip_code":"8916217","prefecture":"鹿児島県","prefecture_kana":"カゴシマケン","city":"大島郡喜界町","city_kana":"オオシマグンキカイチョウ","town":"伊砂","town_kana":"イサゴ","prefecture_code":46},"6141":{"zip_code":"8916141","prefecture":"鹿児島県","prefecture_kana":"カゴシマケン","city":"大島郡喜界町","city_kana":"オオシマグンキカイチョウ","town":"伊実久","town_kana":"イサネク","prefecture_code":46},"6228":{"zip_code":"8916228","prefecture":"鹿児島県","prefecture_kana":"カゴシマケン","city":"大島郡喜界町","city_kana":"オオシマグンキカイチョウ","town":"浦原","town_kana":"ウラハラ","prefecture_code":46},"6213":{"zip_code":"8916213","prefecture":"鹿児島県","prefecture_kana":"カゴシマケン","city":"大島郡喜界町","city_kana":"オオシマグンキカイチョウ","town":"大朝戸","town_kana":"オオアサト","prefecture_code":46},"6142":{"zip_code":"8916142","prefecture":"鹿児島県","prefecture_kana":"カゴシマケン","city":"大島郡喜界町","city_kana":"オオシマグンキカイチョウ","town":"小野津","town_kana":"オノツ","prefecture_code":46},"6161":{"zip_code":"8916161","prefecture":"鹿児島県","prefecture_kana":"カゴシマケン","city":"大島郡喜界町","city_kana":"オオシマグンキカイチョウ","town":"嘉鈍","town_kana":"カドン","prefecture_code":46},"6233":{"zip_code":"8916233","prefecture":"鹿児島県","prefecture_kana":"カゴシマケン","city":"大島郡喜界町","city_kana":"オオシマグンキカイチョウ","town":"上嘉鉄","town_kana":"カミカテツ","prefecture_code":46},"6227":{"zip_code":"8916227","prefecture":"鹿児島県","prefecture_kana":"カゴシマケン","city":"大島郡喜界町","city_kana":"オオシマグンキカイチョウ","town":"川嶺","town_kana":"カワミネ","prefecture_code":46},"6224":{"zip_code":"8916224","prefecture":"鹿児島県","prefecture_kana":"カゴシマケン","city":"大島郡喜界町","city_kana":"オオシマグンキカイチョウ","town":"城久","town_kana":"グスク","prefecture_code":46},"6164":{"zip_code":"8916164","prefecture":"鹿児島県","prefecture_kana":"カゴシマケン","city":"大島郡喜界町","city_kana":"オオシマグンキカイチョウ","town":"花良治","town_kana":"ケラジ","prefecture_code":46},"6163":{"zip_code":"8916163","prefecture":"鹿児島県","prefecture_kana":"カゴシマケン","city":"大島郡喜界町","city_kana":"オオシマグンキカイチョウ","town":"花良治（蒲生）","town_kana":"ケラジ(ガモウ)","prefecture_code":46},"6216":{"zip_code":"8916216","prefecture":"鹿児島県","prefecture_kana":"カゴシマケン","city":"大島郡喜界町","city_kana":"オオシマグンキカイチョウ","town":"坂嶺","town_kana":"サカミネ","prefecture_code":46},"6229":{"zip_code":"8916229","prefecture":"鹿児島県","prefecture_kana":"カゴシマケン","city":"大島郡喜界町","city_kana":"オオシマグンキカイチョウ","town":"先山","town_kana":"サキヤマ","prefecture_code":46},"6144":{"zip_code":"8916144","prefecture":"鹿児島県","prefecture_kana":"カゴシマケン","city":"大島郡喜界町","city_kana":"オオシマグンキカイチョウ","town":"佐手久","town_kana":"サデク","prefecture_code":46},"6151":{"zip_code":"8916151","prefecture":"鹿児島県","prefecture_kana":"カゴシマケン","city":"大島郡喜界町","city_kana":"オオシマグンキカイチョウ","town":"塩道","town_kana":"シオミチ","prefecture_code":46},"6143":{"zip_code":"8916143","prefecture":"鹿児島県","prefecture_kana":"カゴシマケン","city":"大島郡喜界町","city_kana":"オオシマグンキカイチョウ","town":"志戸桶","town_kana":"シトオケ","prefecture_code":46},"6222":{"zip_code":"8916222","prefecture":"鹿児島県","prefecture_kana":"カゴシマケン","city":"大島郡喜界町","city_kana":"オオシマグンキカイチョウ","town":"島中","town_kana":"シマナカ","prefecture_code":46},"6154":{"zip_code":"8916154","prefecture":"鹿児島県","prefecture_kana":"カゴシマケン","city":"大島郡喜界町","city_kana":"オオシマグンキカイチョウ","town":"白水","town_kana":"シラミズ","prefecture_code":46},"6152":{"zip_code":"8916152","prefecture":"鹿児島県","prefecture_kana":"カゴシマケン","city":"大島郡喜界町","city_kana":"オオシマグンキカイチョウ","town":"早町","town_kana":"ソウマチ","prefecture_code":46},"6223":{"zip_code":"8916223","prefecture":"鹿児島県","prefecture_kana":"カゴシマケン","city":"大島郡喜界町","city_kana":"オオシマグンキカイチョウ","town":"滝川","town_kana":"タキガワ","prefecture_code":46},"6232":{"zip_code":"8916232","prefecture":"鹿児島県","prefecture_kana":"カゴシマケン","city":"大島郡喜界町","city_kana":"オオシマグンキカイチョウ","town":"手久津久","town_kana":"テクヅク","prefecture_code":46},"6215":{"zip_code":"8916215","prefecture":"鹿児島県","prefecture_kana":"カゴシマケン","city":"大島郡喜界町","city_kana":"オオシマグンキカイチョウ","town":"中熊","town_kana":"ナカグマ","prefecture_code":46},"6212":{"zip_code":"8916212","prefecture":"鹿児島県","prefecture_kana":"カゴシマケン","city":"大島郡喜界町","city_kana":"オオシマグンキカイチョウ","town":"中熊（先内）","town_kana":"ナカグマ(サキナイ)","prefecture_code":46},"6203":{"zip_code":"8916203","prefecture":"鹿児島県","prefecture_kana":"カゴシマケン","city":"大島郡喜界町","city_kana":"オオシマグンキカイチョウ","town":"中里","town_kana":"ナカサト","prefecture_code":46},"6211":{"zip_code":"8916211","prefecture":"鹿児島県","prefecture_kana":"カゴシマケン","city":"大島郡喜界町","city_kana":"オオシマグンキカイチョウ","town":"中間","town_kana":"ナカマ","prefecture_code":46},"6153":{"zip_code":"8916153","prefecture":"鹿児島県","prefecture_kana":"カゴシマケン","city":"大島郡喜界町","city_kana":"オオシマグンキカイチョウ","town":"長嶺","town_kana":"ナガミネ","prefecture_code":46},"6214":{"zip_code":"8916214","prefecture":"鹿児島県","prefecture_kana":"カゴシマケン","city":"大島郡喜界町","city_kana":"オオシマグンキカイチョウ","town":"西目","town_kana":"ニシメ","prefecture_code":46},"6226":{"zip_code":"8916226","prefecture":"鹿児島県","prefecture_kana":"カゴシマケン","city":"大島郡喜界町","city_kana":"オオシマグンキカイチョウ","town":"羽里","town_kana":"ハサト","prefecture_code":46},"6225":{"zip_code":"8916225","prefecture":"鹿児島県","prefecture_kana":"カゴシマケン","city":"大島郡喜界町","city_kana":"オオシマグンキカイチョウ","town":"山田","town_kana":"ヤマダ","prefecture_code":46},"6202":{"zip_code":"8916202","prefecture":"鹿児島県","prefecture_kana":"カゴシマケン","city":"大島郡喜界町","city_kana":"オオシマグンキカイチョウ","town":"湾","town_kana":"ワン","prefecture_code":46},"7100":{"zip_code":"8917100","prefecture":"鹿児島県","prefecture_kana":"カゴシマケン","city":"大島郡徳之島町","city_kana":"オオシマグントクノシマチョウ","town":"以下に掲載がない場合","town_kana":"イカニケイサイガナイバアイ","prefecture_code":46},"7116":{"zip_code":"8917116","prefecture":"鹿児島県","prefecture_kana":"カゴシマケン","city":"大島郡徳之島町","city_kana":"オオシマグントクノシマチョウ","town":"旭ケ丘","town_kana":"アサヒガオカ","prefecture_code":46},"7114":{"zip_code":"8917114","prefecture":"鹿児島県","prefecture_kana":"カゴシマケン","city":"大島郡徳之島町","city_kana":"オオシマグントクノシマチョウ","town":"井之川","town_kana":"イノカワ","prefecture_code":46},"7104":{"zip_code":"8917104","prefecture":"鹿児島県","prefecture_kana":"カゴシマケン","city":"大島郡徳之島町","city_kana":"オオシマグントクノシマチョウ","town":"尾母","town_kana":"オモ","prefecture_code":46},"7422":{"zip_code":"8917422","prefecture":"鹿児島県","prefecture_kana":"カゴシマケン","city":"大島郡徳之島町","city_kana":"オオシマグントクノシマチョウ","town":"金見","town_kana":"カナミ","prefecture_code":46},"7113":{"zip_code":"8917113","prefecture":"鹿児島県","prefecture_kana":"カゴシマケン","city":"大島郡徳之島町","city_kana":"オオシマグントクノシマチョウ","town":"神之嶺","town_kana":"カミノミネ","prefecture_code":46},"7101":{"zip_code":"8917101","prefecture":"鹿児島県","prefecture_kana":"カゴシマケン","city":"大島郡徳之島町","city_kana":"オオシマグントクノシマチョウ","town":"亀津","town_kana":"カメツ","prefecture_code":46},"7102":{"zip_code":"8917102","prefecture":"鹿児島県","prefecture_kana":"カゴシマケン","city":"大島郡徳之島町","city_kana":"オオシマグントクノシマチョウ","town":"亀徳","town_kana":"カメトク","prefecture_code":46},"7425":{"zip_code":"8917425","prefecture":"鹿児島県","prefecture_kana":"カゴシマケン","city":"大島郡徳之島町","city_kana":"オオシマグントクノシマチョウ","town":"花徳","town_kana":"ケドク","prefecture_code":46},"7423":{"zip_code":"8917423","prefecture":"鹿児島県","prefecture_kana":"カゴシマケン","city":"大島郡徳之島町","city_kana":"オオシマグントクノシマチョウ","town":"山","town_kana":"サン","prefecture_code":46},"7115":{"zip_code":"8917115","prefecture":"鹿児島県","prefecture_kana":"カゴシマケン","city":"大島郡徳之島町","city_kana":"オオシマグントクノシマチョウ","town":"下久志","town_kana":"シモクシ","prefecture_code":46},"7112":{"zip_code":"8917112","prefecture":"鹿児島県","prefecture_kana":"カゴシマケン","city":"大島郡徳之島町","city_kana":"オオシマグントクノシマチョウ","town":"諸田","town_kana":"ショダ","prefecture_code":46},"7105":{"zip_code":"8917105","prefecture":"鹿児島県","prefecture_kana":"カゴシマケン","city":"大島郡徳之島町","city_kana":"オオシマグントクノシマチョウ","town":"白井","town_kana":"シライ","prefecture_code":46},"7421":{"zip_code":"8917421","prefecture":"鹿児島県","prefecture_kana":"カゴシマケン","city":"大島郡徳之島町","city_kana":"オオシマグントクノシマチョウ","town":"手々","town_kana":"テテ","prefecture_code":46},"7111":{"zip_code":"8917111","prefecture":"鹿児島県","prefecture_kana":"カゴシマケン","city":"大島郡徳之島町","city_kana":"オオシマグントクノシマチョウ","town":"徳和瀬","town_kana":"トクワセ","prefecture_code":46},"7424":{"zip_code":"8917424","prefecture":"鹿児島県","prefecture_kana":"カゴシマケン","city":"大島郡徳之島町","city_kana":"オオシマグントクノシマチョウ","town":"轟木","town_kana":"トドロキ","prefecture_code":46},"7426":{"zip_code":"8917426","prefecture":"鹿児島県","prefecture_kana":"カゴシマケン","city":"大島郡徳之島町","city_kana":"オオシマグントクノシマチョウ","town":"母間","town_kana":"ボマ","prefecture_code":46},"7103":{"zip_code":"8917103","prefecture":"鹿児島県","prefecture_kana":"カゴシマケン","city":"大島郡徳之島町","city_kana":"オオシマグントクノシマチョウ","town":"南原","town_kana":"ミナミハラ","prefecture_code":46},"7600":{"zip_code":"8917600","prefecture":"鹿児島県","prefecture_kana":"カゴシマケン","city":"大島郡天城町","city_kana":"オオシマグンアマギチョウ","town":"以下に掲載がない場合","town_kana":"イカニケイサイガナイバアイ","prefecture_code":46},"7605":{"zip_code":"8917605","prefecture":"鹿児島県","prefecture_kana":"カゴシマケン","city":"大島郡天城町","city_kana":"オオシマグンアマギチョウ","town":"浅間","town_kana":"アサマ","prefecture_code":46},"7611":{"zip_code":"8917611","prefecture":"鹿児島県","prefecture_kana":"カゴシマケン","city":"大島郡天城町","city_kana":"オオシマグンアマギチョウ","town":"天城","town_kana":"アマギ","prefecture_code":46},"7622":{"zip_code":"8917622","prefecture":"鹿児島県","prefecture_kana":"カゴシマケン","city":"大島郡天城町","city_kana":"オオシマグンアマギチョウ","town":"大津川","town_kana":"オオツカワ","prefecture_code":46},"7603":{"zip_code":"8917603","prefecture":"鹿児島県","prefecture_kana":"カゴシマケン","city":"大島郡天城町","city_kana":"オオシマグンアマギチョウ","town":"岡前","town_kana":"オカゼン","prefecture_code":46},"7621":{"zip_code":"8917621","prefecture":"鹿児島県","prefecture_kana":"カゴシマケン","city":"大島郡天城町","city_kana":"オオシマグンアマギチョウ","town":"兼久","town_kana":"カネク","prefecture_code":46},"7623":{"zip_code":"8917623","prefecture":"鹿児島県","prefecture_kana":"カゴシマケン","city":"大島郡天城町","city_kana":"オオシマグンアマギチョウ","town":"瀬滝","town_kana":"セタキ","prefecture_code":46},"7624":{"zip_code":"8917624","prefecture":"鹿児島県","prefecture_kana":"カゴシマケン","city":"大島郡天城町","city_kana":"オオシマグンアマギチョウ","town":"当部","town_kana":"トウベ","prefecture_code":46},"7731":{"zip_code":"8917731","prefecture":"鹿児島県","prefecture_kana":"カゴシマケン","city":"大島郡天城町","city_kana":"オオシマグンアマギチョウ","town":"西阿木名","town_kana":"ニシアギナ","prefecture_code":46},"7612":{"zip_code":"8917612","prefecture":"鹿児島県","prefecture_kana":"カゴシマケン","city":"大島郡天城町","city_kana":"オオシマグンアマギチョウ","town":"平土野","town_kana":"ヘトノ","prefecture_code":46},"7604":{"zip_code":"8917604","prefecture":"鹿児島県","prefecture_kana":"カゴシマケン","city":"大島郡天城町","city_kana":"オオシマグンアマギチョウ","town":"前野","town_kana":"マエノ","prefecture_code":46},"7602":{"zip_code":"8917602","prefecture":"鹿児島県","prefecture_kana":"カゴシマケン","city":"大島郡天城町","city_kana":"オオシマグンアマギチョウ","town":"松原","town_kana":"マツバラ","prefecture_code":46},"7601":{"zip_code":"8917601","prefecture":"鹿児島県","prefecture_kana":"カゴシマケン","city":"大島郡天城町","city_kana":"オオシマグンアマギチョウ","town":"与名間","town_kana":"ヨナマ","prefecture_code":46},"8300":{"zip_code":"8918300","prefecture":"鹿児島県","prefecture_kana":"カゴシマケン","city":"大島郡伊仙町","city_kana":"オオシマグンイセンチョウ","town":"以下に掲載がない場合","town_kana":"イカニケイサイガナイバアイ","prefecture_code":46},"8322":{"zip_code":"8918322","prefecture":"鹿児島県","prefecture_kana":"カゴシマケン","city":"大島郡伊仙町","city_kana":"オオシマグンイセンチョウ","town":"阿権","town_kana":"アゴン","prefecture_code":46},"8221":{"zip_code":"8918221","prefecture":"鹿児島県","prefecture_kana":"カゴシマケン","city":"大島郡伊仙町","city_kana":"オオシマグンイセンチョウ","town":"阿三（７９９の１〜８６７番地）","town_kana":"アサン(799ノ1-867バンチ)","prefecture_code":46},"8321":{"zip_code":"8918321","prefecture":"鹿児島県","prefecture_kana":"カゴシマケン","city":"大島郡伊仙町","city_kana":"オオシマグンイセンチョウ","town":"阿三（その他）","town_kana":"アサン(ソノタ)","prefecture_code":46},"8201":{"zip_code":"8918201","prefecture":"鹿児島県","prefecture_kana":"カゴシマケン","city":"大島郡伊仙町","city_kana":"オオシマグンイセンチョウ","town":"伊仙","town_kana":"イセン","prefecture_code":46},"8324":{"zip_code":"8918324","prefecture":"鹿児島県","prefecture_kana":"カゴシマケン","city":"大島郡伊仙町","city_kana":"オオシマグンイセンチョウ","town":"糸木名","town_kana":"イトキナ","prefecture_code":46},"8327":{"zip_code":"8918327","prefecture":"鹿児島県","prefecture_kana":"カゴシマケン","city":"大島郡伊仙町","city_kana":"オオシマグンイセンチョウ","town":"犬田布","town_kana":"イヌタブ","prefecture_code":46},"8114":{"zip_code":"8918114","prefecture":"鹿児島県","prefecture_kana":"カゴシマケン","city":"大島郡伊仙町","city_kana":"オオシマグンイセンチョウ","town":"面縄","town_kana":"オモナワ","prefecture_code":46},"8111":{"zip_code":"8918111","prefecture":"鹿児島県","prefecture_kana":"カゴシマケン","city":"大島郡伊仙町","city_kana":"オオシマグンイセンチョウ","town":"喜念","town_kana":"キネン","prefecture_code":46},"8323":{"zip_code":"8918323","prefecture":"鹿児島県","prefecture_kana":"カゴシマケン","city":"大島郡伊仙町","city_kana":"オオシマグンイセンチョウ","town":"木之香","town_kana":"キノコ","prefecture_code":46},"8216":{"zip_code":"8918216","prefecture":"鹿児島県","prefecture_kana":"カゴシマケン","city":"大島郡伊仙町","city_kana":"オオシマグンイセンチョウ","town":"検福（４１６〜５１６番地）","town_kana":"ケンブク(416-516バンチ)","prefecture_code":46},"8116":{"zip_code":"8918116","prefecture":"鹿児島県","prefecture_kana":"カゴシマケン","city":"大島郡伊仙町","city_kana":"オオシマグンイセンチョウ","town":"検福（その他）","town_kana":"ケンブク(ソノタ)","prefecture_code":46},"8329":{"zip_code":"8918329","prefecture":"鹿児島県","prefecture_kana":"カゴシマケン","city":"大島郡伊仙町","city_kana":"オオシマグンイセンチョウ","town":"小島","town_kana":"コジマ","prefecture_code":46},"8328":{"zip_code":"8918328","prefecture":"鹿児島県","prefecture_kana":"カゴシマケン","city":"大島郡伊仙町","city_kana":"オオシマグンイセンチョウ","town":"崎原","town_kana":"サキバル","prefecture_code":46},"8112":{"zip_code":"8918112","prefecture":"鹿児島県","prefecture_kana":"カゴシマケン","city":"大島郡伊仙町","city_kana":"オオシマグンイセンチョウ","town":"佐弁","town_kana":"サベン","prefecture_code":46},"8117":{"zip_code":"8918117","prefecture":"鹿児島県","prefecture_kana":"カゴシマケン","city":"大島郡伊仙町","city_kana":"オオシマグンイセンチョウ","town":"中山","town_kana":"ナカヤマ","prefecture_code":46},"8326":{"zip_code":"8918326","prefecture":"鹿児島県","prefecture_kana":"カゴシマケン","city":"大島郡伊仙町","city_kana":"オオシマグンイセンチョウ","town":"馬根","town_kana":"バネ","prefecture_code":46},"8115":{"zip_code":"8918115","prefecture":"鹿児島県","prefecture_kana":"カゴシマケン","city":"大島郡伊仙町","city_kana":"オオシマグンイセンチョウ","town":"古里","town_kana":"フルサト","prefecture_code":46},"8113":{"zip_code":"8918113","prefecture":"鹿児島県","prefecture_kana":"カゴシマケン","city":"大島郡伊仙町","city_kana":"オオシマグンイセンチョウ","town":"目手久","town_kana":"メテグ","prefecture_code":46},"8325":{"zip_code":"8918325","prefecture":"鹿児島県","prefecture_kana":"カゴシマケン","city":"大島郡伊仙町","city_kana":"オオシマグンイセンチョウ","town":"八重竿","town_kana":"ヤエザオ","prefecture_code":46},"9100":{"zip_code":"8919100","prefecture":"鹿児島県","prefecture_kana":"カゴシマケン","city":"大島郡和泊町","city_kana":"オオシマグンワドマリチョウ","town":"以下に掲載がない場合","town_kana":"イカニケイサイガナイバアイ","prefecture_code":46},"9114":{"zip_code":"8919114","prefecture":"鹿児島県","prefecture_kana":"カゴシマケン","city":"大島郡和泊町","city_kana":"オオシマグンワドマリチョウ","town":"畦布","town_kana":"アゼフ","prefecture_code":46},"9115":{"zip_code":"8919115","prefecture":"鹿児島県","prefecture_kana":"カゴシマケン","city":"大島郡和泊町","city_kana":"オオシマグンワドマリチョウ","town":"伊延","town_kana":"イノベ","prefecture_code":46},"9116":{"zip_code":"8919116","prefecture":"鹿児島県","prefecture_kana":"カゴシマケン","city":"大島郡和泊町","city_kana":"オオシマグンワドマリチョウ","town":"上手々知名","town_kana":"ウエテテチナ","prefecture_code":46},"9131":{"zip_code":"8919131","prefecture":"鹿児島県","prefecture_kana":"カゴシマケン","city":"大島郡和泊町","city_kana":"オオシマグンワドマリチョウ","town":"内城","town_kana":"ウチジロ","prefecture_code":46},"9125":{"zip_code":"8919125","prefecture":"鹿児島県","prefecture_kana":"カゴシマケン","city":"大島郡和泊町","city_kana":"オオシマグンワドマリチョウ","town":"大城","town_kana":"オオジロ","prefecture_code":46},"9102":{"zip_code":"8919102","prefecture":"鹿児島県","prefecture_kana":"カゴシマケン","city":"大島郡和泊町","city_kana":"オオシマグンワドマリチョウ","town":"喜美留","town_kana":"キビル","prefecture_code":46},"9101":{"zip_code":"8919101","prefecture":"鹿児島県","prefecture_kana":"カゴシマケン","city":"大島郡和泊町","city_kana":"オオシマグンワドマリチョウ","town":"国頭","town_kana":"クニガミ","prefecture_code":46},"9132":{"zip_code":"8919132","prefecture":"鹿児島県","prefecture_kana":"カゴシマケン","city":"大島郡和泊町","city_kana":"オオシマグンワドマリチョウ","town":"後蘭","town_kana":"ゴラン","prefecture_code":46},"9136":{"zip_code":"8919136","prefecture":"鹿児島県","prefecture_kana":"カゴシマケン","city":"大島郡和泊町","city_kana":"オオシマグンワドマリチョウ","town":"瀬名","town_kana":"セナ","prefecture_code":46},"9133":{"zip_code":"8919133","prefecture":"鹿児島県","prefecture_kana":"カゴシマケン","city":"大島郡和泊町","city_kana":"オオシマグンワドマリチョウ","town":"谷山","town_kana":"タニヤマ","prefecture_code":46},"9122":{"zip_code":"8919122","prefecture":"鹿児島県","prefecture_kana":"カゴシマケン","city":"大島郡和泊町","city_kana":"オオシマグンワドマリチョウ","town":"玉城","town_kana":"タマジロ","prefecture_code":46},"9103":{"zip_code":"8919103","prefecture":"鹿児島県","prefecture_kana":"カゴシマケン","city":"大島郡和泊町","city_kana":"オオシマグンワドマリチョウ","town":"出花","town_kana":"デギ","prefecture_code":46},"9111":{"zip_code":"8919111","prefecture":"鹿児島県","prefecture_kana":"カゴシマケン","city":"大島郡和泊町","city_kana":"オオシマグンワドマリチョウ","town":"手々知名","town_kana":"テデチナ","prefecture_code":46},"9135":{"zip_code":"8919135","prefecture":"鹿児島県","prefecture_kana":"カゴシマケン","city":"大島郡和泊町","city_kana":"オオシマグンワドマリチョウ","town":"永嶺","town_kana":"ナガミネ","prefecture_code":46},"9134":{"zip_code":"8919134","prefecture":"鹿児島県","prefecture_kana":"カゴシマケン","city":"大島郡和泊町","city_kana":"オオシマグンワドマリチョウ","town":"仁志","town_kana":"ニシ","prefecture_code":46},"9104":{"zip_code":"8919104","prefecture":"鹿児島県","prefecture_kana":"カゴシマケン","city":"大島郡和泊町","city_kana":"オオシマグンワドマリチョウ","town":"西原","town_kana":"ニシバル","prefecture_code":46},"9121":{"zip_code":"8919121","prefecture":"鹿児島県","prefecture_kana":"カゴシマケン","city":"大島郡和泊町","city_kana":"オオシマグンワドマリチョウ","town":"根折","town_kana":"ネオリ","prefecture_code":46},"9124":{"zip_code":"8919124","prefecture":"鹿児島県","prefecture_kana":"カゴシマケン","city":"大島郡和泊町","city_kana":"オオシマグンワドマリチョウ","town":"古里","town_kana":"フルサト","prefecture_code":46},"9123":{"zip_code":"8919123","prefecture":"鹿児島県","prefecture_kana":"カゴシマケン","city":"大島郡和泊町","city_kana":"オオシマグンワドマリチョウ","town":"皆川","town_kana":"ミナカワ","prefecture_code":46},"9113":{"zip_code":"8919113","prefecture":"鹿児島県","prefecture_kana":"カゴシマケン","city":"大島郡和泊町","city_kana":"オオシマグンワドマリチョウ","town":"和","town_kana":"ワ","prefecture_code":46},"9112":{"zip_code":"8919112","prefecture":"鹿児島県","prefecture_kana":"カゴシマケン","city":"大島郡和泊町","city_kana":"オオシマグンワドマリチョウ","town":"和泊","town_kana":"ワドマリ","prefecture_code":46},"9200":{"zip_code":"8919200","prefecture":"鹿児島県","prefecture_kana":"カゴシマケン","city":"大島郡知名町","city_kana":"オオシマグンチナチョウ","town":"以下に掲載がない場合","town_kana":"イカニケイサイガナイバアイ","prefecture_code":46},"9206":{"zip_code":"8919206","prefecture":"鹿児島県","prefecture_kana":"カゴシマケン","city":"大島郡知名町","city_kana":"オオシマグンチナチョウ","town":"赤嶺","town_kana":"アカミネ","prefecture_code":46},"9211":{"zip_code":"8919211","prefecture":"鹿児島県","prefecture_kana":"カゴシマケン","city":"大島郡知名町","city_kana":"オオシマグンチナチョウ","town":"芦清良","town_kana":"アシキヨウラ","prefecture_code":46},"9201":{"zip_code":"8919201","prefecture":"鹿児島県","prefecture_kana":"カゴシマケン","city":"大島郡知名町","city_kana":"オオシマグンチナチョウ","town":"余多","town_kana":"アマタ","prefecture_code":46},"9221":{"zip_code":"8919221","prefecture":"鹿児島県","prefecture_kana":"カゴシマケン","city":"大島郡知名町","city_kana":"オオシマグンチナチョウ","town":"大津勘","town_kana":"オオツカン","prefecture_code":46},"9234":{"zip_code":"8919234","prefecture":"鹿児島県","prefecture_kana":"カゴシマケン","city":"大島郡知名町","city_kana":"オオシマグンチナチョウ","town":"上城","town_kana":"カミシロ","prefecture_code":46},"9204":{"zip_code":"8919204","prefecture":"鹿児島県","prefecture_kana":"カゴシマケン","city":"大島郡知名町","city_kana":"オオシマグンチナチョウ","town":"上平川","town_kana":"カミヒラカワ","prefecture_code":46},"9205":{"zip_code":"8919205","prefecture":"鹿児島県","prefecture_kana":"カゴシマケン","city":"大島郡知名町","city_kana":"オオシマグンチナチョウ","town":"久志検","town_kana":"グシケン","prefecture_code":46},"9212":{"zip_code":"8919212","prefecture":"鹿児島県","prefecture_kana":"カゴシマケン","city":"大島郡知名町","city_kana":"オオシマグンチナチョウ","town":"黒貫","town_kana":"クロヌキ","prefecture_code":46},"9207":{"zip_code":"8919207","prefecture":"鹿児島県","prefecture_kana":"カゴシマケン","city":"大島郡知名町","city_kana":"オオシマグンチナチョウ","town":"竿津","town_kana":"サオヅ","prefecture_code":46},"9233":{"zip_code":"8919233","prefecture":"鹿児島県","prefecture_kana":"カゴシマケン","city":"大島郡知名町","city_kana":"オオシマグンチナチョウ","town":"下城","town_kana":"シモジロ","prefecture_code":46},"9203":{"zip_code":"8919203","prefecture":"鹿児島県","prefecture_kana":"カゴシマケン","city":"大島郡知名町","city_kana":"オオシマグンチナチョウ","town":"下平川","town_kana":"シモヒラカワ","prefecture_code":46},"9232":{"zip_code":"8919232","prefecture":"鹿児島県","prefecture_kana":"カゴシマケン","city":"大島郡知名町","city_kana":"オオシマグンチナチョウ","town":"新城","town_kana":"シンジョウ","prefecture_code":46},"9223":{"zip_code":"8919223","prefecture":"鹿児島県","prefecture_kana":"カゴシマケン","city":"大島郡知名町","city_kana":"オオシマグンチナチョウ","town":"住吉","town_kana":"スミヨシ","prefecture_code":46},"9213":{"zip_code":"8919213","prefecture":"鹿児島県","prefecture_kana":"カゴシマケン","city":"大島郡知名町","city_kana":"オオシマグンチナチョウ","town":"瀬利覚","town_kana":"セリカク","prefecture_code":46},"9231":{"zip_code":"8919231","prefecture":"鹿児島県","prefecture_kana":"カゴシマケン","city":"大島郡知名町","city_kana":"オオシマグンチナチョウ","town":"田皆","town_kana":"タミナ","prefecture_code":46},"9214":{"zip_code":"8919214","prefecture":"鹿児島県","prefecture_kana":"カゴシマケン","city":"大島郡知名町","city_kana":"オオシマグンチナチョウ","town":"知名","town_kana":"チナ","prefecture_code":46},"9222":{"zip_code":"8919222","prefecture":"鹿児島県","prefecture_kana":"カゴシマケン","city":"大島郡知名町","city_kana":"オオシマグンチナチョウ","town":"徳時","town_kana":"トクドキ","prefecture_code":46},"9224":{"zip_code":"8919224","prefecture":"鹿児島県","prefecture_kana":"カゴシマケン","city":"大島郡知名町","city_kana":"オオシマグンチナチョウ","town":"正名","town_kana":"マサナ","prefecture_code":46},"9215":{"zip_code":"8919215","prefecture":"鹿児島県","prefecture_kana":"カゴシマケン","city":"大島郡知名町","city_kana":"オオシマグンチナチョウ","town":"屋子母","town_kana":"ヤコモ","prefecture_code":46},"9202":{"zip_code":"8919202","prefecture":"鹿児島県","prefecture_kana":"カゴシマケン","city":"大島郡知名町","city_kana":"オオシマグンチナチョウ","town":"屋者","town_kana":"ヤジャ","prefecture_code":46},"9300":{"zip_code":"8919300","prefecture":"鹿児島県","prefecture_kana":"カゴシマケン","city":"大島郡与論町","city_kana":"オオシマグンヨロンチョウ","town":"以下に掲載がない場合","town_kana":"イカニケイサイガナイバアイ","prefecture_code":46},"9304":{"zip_code":"8919304","prefecture":"鹿児島県","prefecture_kana":"カゴシマケン","city":"大島郡与論町","city_kana":"オオシマグンヨロンチョウ","town":"朝戸","town_kana":"アサト","prefecture_code":46},"9309":{"zip_code":"8919309","prefecture":"鹿児島県","prefecture_kana":"カゴシマケン","city":"大島郡与論町","city_kana":"オオシマグンヨロンチョウ","town":"叶","town_kana":"カノウ","prefecture_code":46},"9303":{"zip_code":"8919303","prefecture":"鹿児島県","prefecture_kana":"カゴシマケン","city":"大島郡与論町","city_kana":"オオシマグンヨロンチョウ","town":"城","town_kana":"グスク","prefecture_code":46},"9301":{"zip_code":"8919301","prefecture":"鹿児島県","prefecture_kana":"カゴシマケン","city":"大島郡与論町","city_kana":"オオシマグンヨロンチョウ","town":"茶花","town_kana":"チャバナ","prefecture_code":46},"9308":{"zip_code":"8919308","prefecture":"鹿児島県","prefecture_kana":"カゴシマケン","city":"大島郡与論町","city_kana":"オオシマグンヨロンチョウ","town":"那間","town_kana":"ナマ","prefecture_code":46},"9305":{"zip_code":"8919305","prefecture":"鹿児島県","prefecture_kana":"カゴシマケン","city":"大島郡与論町","city_kana":"オオシマグンヨロンチョウ","town":"西区","town_kana":"ニシク","prefecture_code":46},"9306":{"zip_code":"8919306","prefecture":"鹿児島県","prefecture_kana":"カゴシマケン","city":"大島郡与論町","city_kana":"オオシマグンヨロンチョウ","town":"東区","town_kana":"ヒガシク","prefecture_code":46},"9307":{"zip_code":"8919307","prefecture":"鹿児島県","prefecture_kana":"カゴシマケン","city":"大島郡与論町","city_kana":"オオシマグンヨロンチョウ","town":"古里","town_kana":"フルサト","prefecture_code":46},"9302":{"zip_code":"8919302","prefecture":"鹿児島県","prefecture_kana":"カゴシマケン","city":"大島郡与論町","city_kana":"オオシマグンヨロンチョウ","town":"立長","town_kana":"リッチョウ","prefecture_code":46}}