{"0000":{"zip_code":"8930000","prefecture":"鹿児島県","prefecture_kana":"カゴシマケン","city":"鹿屋市","city_kana":"カノヤシ","town":"以下に掲載がない場合","town_kana":"イカニケイサイガナイバアイ","prefecture_code":46},"1101":{"zip_code":"8931101","prefecture":"鹿児島県","prefecture_kana":"カゴシマケン","city":"鹿屋市","city_kana":"カノヤシ","town":"吾平町上名","town_kana":"アイラチョウカミミョウ","prefecture_code":46},"1102":{"zip_code":"8931102","prefecture":"鹿児島県","prefecture_kana":"カゴシマケン","city":"鹿屋市","city_kana":"カノヤシ","town":"吾平町下名","town_kana":"アイラチョウシモミョウ","prefecture_code":46},"1103":{"zip_code":"8931103","prefecture":"鹿児島県","prefecture_kana":"カゴシマケン","city":"鹿屋市","city_kana":"カノヤシ","town":"吾平町麓","town_kana":"アイラチョウフモト","prefecture_code":46},"0022":{"zip_code":"8930022","prefecture":"鹿児島県","prefecture_kana":"カゴシマケン","city":"鹿屋市","city_kana":"カノヤシ","town":"旭原町","town_kana":"アサヒバルチョウ","prefecture_code":46},"0004":{"zip_code":"8930004","prefecture":"鹿児島県","prefecture_kana":"カゴシマケン","city":"鹿屋市","city_kana":"カノヤシ","town":"朝日町","town_kana":"アサヒマチ","prefecture_code":46},"0035":{"zip_code":"8930035","prefecture":"鹿児島県","prefecture_kana":"カゴシマケン","city":"鹿屋市","city_kana":"カノヤシ","town":"飯隈町","town_kana":"イイクマチョウ","prefecture_code":46},"0042":{"zip_code":"8930042","prefecture":"鹿児島県","prefecture_kana":"カゴシマケン","city":"鹿屋市","city_kana":"カノヤシ","town":"池園町","town_kana":"イケゾノチョウ","prefecture_code":46},"0057":{"zip_code":"8930057","prefecture":"鹿児島県","prefecture_kana":"カゴシマケン","city":"鹿屋市","city_kana":"カノヤシ","town":"今坂町","town_kana":"イマサカチョウ","prefecture_code":46},"0056":{"zip_code":"8930056","prefecture":"鹿児島県","prefecture_kana":"カゴシマケン","city":"鹿屋市","city_kana":"カノヤシ","town":"上野町","town_kana":"ウエノチョウ","prefecture_code":46},"0011":{"zip_code":"8930011","prefecture":"鹿児島県","prefecture_kana":"カゴシマケン","city":"鹿屋市","city_kana":"カノヤシ","town":"打馬","town_kana":"ウツマ","prefecture_code":46},"0012":{"zip_code":"8930012","prefecture":"鹿児島県","prefecture_kana":"カゴシマケン","city":"鹿屋市","city_kana":"カノヤシ","town":"王子町","town_kana":"オウジチョウ","prefecture_code":46},"0051":{"zip_code":"8930051","prefecture":"鹿児島県","prefecture_kana":"カゴシマケン","city":"鹿屋市","city_kana":"カノヤシ","town":"大姶良町","town_kana":"オオアイラチョウ","prefecture_code":46},"0067":{"zip_code":"8930067","prefecture":"鹿児島県","prefecture_kana":"カゴシマケン","city":"鹿屋市","city_kana":"カノヤシ","town":"大浦町","town_kana":"オオウラチョウ","prefecture_code":46},"0009":{"zip_code":"8930009","prefecture":"鹿児島県","prefecture_kana":"カゴシマケン","city":"鹿屋市","city_kana":"カノヤシ","town":"大手町","town_kana":"オオテマチ","prefecture_code":46},"0023":{"zip_code":"8930023","prefecture":"鹿児島県","prefecture_kana":"カゴシマケン","city":"鹿屋市","city_kana":"カノヤシ","town":"笠之原町","town_kana":"カサノハラチョウ","prefecture_code":46},"0131":{"zip_code":"8930131","prefecture":"鹿児島県","prefecture_kana":"カゴシマケン","city":"鹿屋市","city_kana":"カノヤシ","town":"上高隈町","town_kana":"カミタカクマチョウ","prefecture_code":46},"0061":{"zip_code":"8930061","prefecture":"鹿児島県","prefecture_kana":"カゴシマケン","city":"鹿屋市","city_kana":"カノヤシ","town":"上谷町","town_kana":"カミダニチョウ","prefecture_code":46},"0027":{"zip_code":"8930027","prefecture":"鹿児島県","prefecture_kana":"カゴシマケン","city":"鹿屋市","city_kana":"カノヤシ","town":"上祓川町","town_kana":"カミハライガワチョウ","prefecture_code":46},"0032":{"zip_code":"8930032","prefecture":"鹿児島県","prefecture_kana":"カゴシマケン","city":"鹿屋市","city_kana":"カノヤシ","town":"川西町","town_kana":"カワニシチョウ","prefecture_code":46},"0031":{"zip_code":"8930031","prefecture":"鹿児島県","prefecture_kana":"カゴシマケン","city":"鹿屋市","city_kana":"カノヤシ","town":"川東町","town_kana":"カワヒガシチョウ","prefecture_code":46},"0007":{"zip_code":"8930007","prefecture":"鹿児島県","prefecture_kana":"カゴシマケン","city":"鹿屋市","city_kana":"カノヤシ","town":"北田町","town_kana":"キタダチョウ","prefecture_code":46},"0201":{"zip_code":"8930201","prefecture":"鹿児島県","prefecture_kana":"カゴシマケン","city":"鹿屋市","city_kana":"カノヤシ","town":"輝北町上百引","town_kana":"キホクチョウカミモビキ","prefecture_code":46},"0202":{"zip_code":"8930202","prefecture":"鹿児島県","prefecture_kana":"カゴシマケン","city":"鹿屋市","city_kana":"カノヤシ","town":"輝北町下百引","town_kana":"キホクチョウシモモビキ","prefecture_code":46},"0203":{"zip_code":"8930203","prefecture":"鹿児島県","prefecture_kana":"カゴシマケン","city":"鹿屋市","city_kana":"カノヤシ","town":"輝北町平房","town_kana":"キホクチョウヒラボウ","prefecture_code":46},"0005":{"zip_code":"8930005","prefecture":"鹿児島県","prefecture_kana":"カゴシマケン","city":"鹿屋市","city_kana":"カノヤシ","town":"共栄町","town_kana":"キョウエイチョウ","prefecture_code":46},"1602":{"zip_code":"8931602","prefecture":"鹿児島県","prefecture_kana":"カゴシマケン","city":"鹿屋市","city_kana":"カノヤシ","town":"串良町有里","town_kana":"クシラチョウアリサト","prefecture_code":46},"1603":{"zip_code":"8931603","prefecture":"鹿児島県","prefecture_kana":"カゴシマケン","city":"鹿屋市","city_kana":"カノヤシ","town":"串良町岡崎","town_kana":"クシラチョウオカサキ","prefecture_code":46},"1605":{"zip_code":"8931605","prefecture":"鹿児島県","prefecture_kana":"カゴシマケン","city":"鹿屋市","city_kana":"カノヤシ","town":"串良町上小原","town_kana":"クシラチョウカミオバル","prefecture_code":46},"1604":{"zip_code":"8931604","prefecture":"鹿児島県","prefecture_kana":"カゴシマケン","city":"鹿屋市","city_kana":"カノヤシ","town":"串良町下小原","town_kana":"クシラチョウシモオバル","prefecture_code":46},"1601":{"zip_code":"8931601","prefecture":"鹿児島県","prefecture_kana":"カゴシマケン","city":"鹿屋市","city_kana":"カノヤシ","town":"串良町細山田","town_kana":"クシラチョウホソヤマダ","prefecture_code":46},"0065":{"zip_code":"8930065","prefecture":"鹿児島県","prefecture_kana":"カゴシマケン","city":"鹿屋市","city_kana":"カノヤシ","town":"郷之原町","town_kana":"ゴウノハラチョウ","prefecture_code":46},"0001":{"zip_code":"8930001","prefecture":"鹿児島県","prefecture_kana":"カゴシマケン","city":"鹿屋市","city_kana":"カノヤシ","town":"古前城町","town_kana":"コセンジョウチョウ","prefecture_code":46},"0014":{"zip_code":"8930014","prefecture":"鹿児島県","prefecture_kana":"カゴシマケン","city":"鹿屋市","city_kana":"カノヤシ","town":"寿","town_kana":"コトブキ","prefecture_code":46},"0044":{"zip_code":"8930044","prefecture":"鹿児島県","prefecture_kana":"カゴシマケン","city":"鹿屋市","city_kana":"カノヤシ","town":"獅子目町","town_kana":"シシメチョウ","prefecture_code":46},"0132":{"zip_code":"8930132","prefecture":"鹿児島県","prefecture_kana":"カゴシマケン","city":"鹿屋市","city_kana":"カノヤシ","town":"下高隈町","town_kana":"シモタカクマチョウ","prefecture_code":46},"0024":{"zip_code":"8930024","prefecture":"鹿児島県","prefecture_kana":"カゴシマケン","city":"鹿屋市","city_kana":"カノヤシ","town":"下祓川町","town_kana":"シモハライガワチョウ","prefecture_code":46},"0047":{"zip_code":"8930047","prefecture":"鹿児島県","prefecture_kana":"カゴシマケン","city":"鹿屋市","city_kana":"カノヤシ","town":"下堀町","town_kana":"シモホリチョウ","prefecture_code":46},"0016":{"zip_code":"8930016","prefecture":"鹿児島県","prefecture_kana":"カゴシマケン","city":"鹿屋市","city_kana":"カノヤシ","town":"白崎町","town_kana":"シラサキチョウ","prefecture_code":46},"0063":{"zip_code":"8930063","prefecture":"鹿児島県","prefecture_kana":"カゴシマケン","city":"鹿屋市","city_kana":"カノヤシ","town":"新栄町","town_kana":"シンエイチョウ","prefecture_code":46},"0015":{"zip_code":"8930015","prefecture":"鹿児島県","prefecture_kana":"カゴシマケン","city":"鹿屋市","city_kana":"カノヤシ","town":"新川町","town_kana":"シンカワチョウ","prefecture_code":46},"0062":{"zip_code":"8930062","prefecture":"鹿児島県","prefecture_kana":"カゴシマケン","city":"鹿屋市","city_kana":"カノヤシ","town":"新生町","town_kana":"シンセイチョウ","prefecture_code":46},"0003":{"zip_code":"8930003","prefecture":"鹿児島県","prefecture_kana":"カゴシマケン","city":"鹿屋市","city_kana":"カノヤシ","town":"曽田町","town_kana":"ソダチョウ","prefecture_code":46},"0054":{"zip_code":"8930054","prefecture":"鹿児島県","prefecture_kana":"カゴシマケン","city":"鹿屋市","city_kana":"カノヤシ","town":"高須町","town_kana":"タカスチョウ","prefecture_code":46},"0066":{"zip_code":"8930066","prefecture":"鹿児島県","prefecture_kana":"カゴシマケン","city":"鹿屋市","city_kana":"カノヤシ","town":"高牧町","town_kana":"タカマキチョウ","prefecture_code":46},"0037":{"zip_code":"8930037","prefecture":"鹿児島県","prefecture_kana":"カゴシマケン","city":"鹿屋市","city_kana":"カノヤシ","town":"田崎町","town_kana":"タサキチョウ","prefecture_code":46},"0045":{"zip_code":"8930045","prefecture":"鹿児島県","prefecture_kana":"カゴシマケン","city":"鹿屋市","city_kana":"カノヤシ","town":"田淵町","town_kana":"タブチチョウ","prefecture_code":46},"0052":{"zip_code":"8930052","prefecture":"鹿児島県","prefecture_kana":"カゴシマケン","city":"鹿屋市","city_kana":"カノヤシ","town":"永小原町","town_kana":"ナガオバルチョウ","prefecture_code":46},"0033":{"zip_code":"8930033","prefecture":"鹿児島県","prefecture_kana":"カゴシマケン","city":"鹿屋市","city_kana":"カノヤシ","town":"永野田町","town_kana":"ナガノダチョウ","prefecture_code":46},"0034":{"zip_code":"8930034","prefecture":"鹿児島県","prefecture_kana":"カゴシマケン","city":"鹿屋市","city_kana":"カノヤシ","town":"名貫町","town_kana":"ナヌキチョウ","prefecture_code":46},"0008":{"zip_code":"8930008","prefecture":"鹿児島県","prefecture_kana":"カゴシマケン","city":"鹿屋市","city_kana":"カノヤシ","town":"西大手町","town_kana":"ニシオオテマチ","prefecture_code":46},"0064":{"zip_code":"8930064","prefecture":"鹿児島県","prefecture_kana":"カゴシマケン","city":"鹿屋市","city_kana":"カノヤシ","town":"西原","town_kana":"ニシハラ","prefecture_code":46},"0025":{"zip_code":"8930025","prefecture":"鹿児島県","prefecture_kana":"カゴシマケン","city":"鹿屋市","city_kana":"カノヤシ","town":"西祓川町","town_kana":"ニシハライガワチョウ","prefecture_code":46},"0055":{"zip_code":"8930055","prefecture":"鹿児島県","prefecture_kana":"カゴシマケン","city":"鹿屋市","city_kana":"カノヤシ","town":"野里町","town_kana":"ノザトチョウ","prefecture_code":46},"0036":{"zip_code":"8930036","prefecture":"鹿児島県","prefecture_kana":"カゴシマケン","city":"鹿屋市","city_kana":"カノヤシ","town":"萩塚町","town_kana":"ハギツカチョウ","prefecture_code":46},"0053":{"zip_code":"8930053","prefecture":"鹿児島県","prefecture_kana":"カゴシマケン","city":"鹿屋市","city_kana":"カノヤシ","town":"浜田町","town_kana":"ハマダチョウ","prefecture_code":46},"0026":{"zip_code":"8930026","prefecture":"鹿児島県","prefecture_kana":"カゴシマケン","city":"鹿屋市","city_kana":"カノヤシ","town":"祓川町","town_kana":"ハライガワチョウ","prefecture_code":46},"0021":{"zip_code":"8930021","prefecture":"鹿児島県","prefecture_kana":"カゴシマケン","city":"鹿屋市","city_kana":"カノヤシ","town":"東原町","town_kana":"ヒガシバルチョウ","prefecture_code":46},"0013":{"zip_code":"8930013","prefecture":"鹿児島県","prefecture_kana":"カゴシマケン","city":"鹿屋市","city_kana":"カノヤシ","town":"札元","town_kana":"フダモト","prefecture_code":46},"0041":{"zip_code":"8930041","prefecture":"鹿児島県","prefecture_kana":"カゴシマケン","city":"鹿屋市","city_kana":"カノヤシ","town":"星塚町","town_kana":"ホシヅカチョウ","prefecture_code":46},"0002":{"zip_code":"8930002","prefecture":"鹿児島県","prefecture_kana":"カゴシマケン","city":"鹿屋市","city_kana":"カノヤシ","town":"本町","town_kana":"ホンマチ","prefecture_code":46},"0043":{"zip_code":"8930043","prefecture":"鹿児島県","prefecture_kana":"カゴシマケン","city":"鹿屋市","city_kana":"カノヤシ","town":"南町","town_kana":"ミナミチョウ","prefecture_code":46},"0006":{"zip_code":"8930006","prefecture":"鹿児島県","prefecture_kana":"カゴシマケン","city":"鹿屋市","city_kana":"カノヤシ","town":"向江町","town_kana":"ムカエチョウ","prefecture_code":46},"0046":{"zip_code":"8930046","prefecture":"鹿児島県","prefecture_kana":"カゴシマケン","city":"鹿屋市","city_kana":"カノヤシ","town":"横山町","town_kana":"ヨコヤマチョウ","prefecture_code":46},"1600":{"zip_code":"8931600","prefecture":"鹿児島県","prefecture_kana":"カゴシマケン","city":"肝属郡東串良町","city_kana":"キモツキグンヒガシクシラチョウ","town":"以下に掲載がない場合","town_kana":"イカニケイサイガナイバアイ","prefecture_code":46},"1612":{"zip_code":"8931612","prefecture":"鹿児島県","prefecture_kana":"カゴシマケン","city":"肝属郡東串良町","city_kana":"キモツキグンヒガシクシラチョウ","town":"池之原","town_kana":"イケノハラ","prefecture_code":46},"1611":{"zip_code":"8931611","prefecture":"鹿児島県","prefecture_kana":"カゴシマケン","city":"肝属郡東串良町","city_kana":"キモツキグンヒガシクシラチョウ","town":"岩弘","town_kana":"イワヒロ","prefecture_code":46},"1615":{"zip_code":"8931615","prefecture":"鹿児島県","prefecture_kana":"カゴシマケン","city":"肝属郡東串良町","city_kana":"キモツキグンヒガシクシラチョウ","town":"川東","town_kana":"カワヒガシ","prefecture_code":46},"1613":{"zip_code":"8931613","prefecture":"鹿児島県","prefecture_kana":"カゴシマケン","city":"肝属郡東串良町","city_kana":"キモツキグンヒガシクシラチョウ","town":"川西","town_kana":"カワニシ","prefecture_code":46},"1614":{"zip_code":"8931614","prefecture":"鹿児島県","prefecture_kana":"カゴシマケン","city":"肝属郡東串良町","city_kana":"キモツキグンヒガシクシラチョウ","town":"新川西","town_kana":"シンカワニシ","prefecture_code":46},"2300":{"zip_code":"8932300","prefecture":"鹿児島県","prefecture_kana":"カゴシマケン","city":"肝属郡錦江町","city_kana":"キモツキグンキンコウチョウ","town":"以下に掲載がない場合","town_kana":"イカニケイサイガナイバアイ","prefecture_code":46},"2301":{"zip_code":"8932301","prefecture":"鹿児島県","prefecture_kana":"カゴシマケン","city":"肝属郡錦江町","city_kana":"キモツキグンキンコウチョウ","town":"神川","town_kana":"カミカワ","prefecture_code":46},"2302":{"zip_code":"8932302","prefecture":"鹿児島県","prefecture_kana":"カゴシマケン","city":"肝属郡錦江町","city_kana":"キモツキグンキンコウチョウ","town":"城元","town_kana":"シロモト","prefecture_code":46},"2402":{"zip_code":"8932402","prefecture":"鹿児島県","prefecture_kana":"カゴシマケン","city":"肝属郡錦江町","city_kana":"キモツキグンキンコウチョウ","town":"田代川原","town_kana":"タシロカワハラ","prefecture_code":46},"2401":{"zip_code":"8932401","prefecture":"鹿児島県","prefecture_kana":"カゴシマケン","city":"肝属郡錦江町","city_kana":"キモツキグンキンコウチョウ","town":"田代麓","town_kana":"タシロフモト","prefecture_code":46},"2303":{"zip_code":"8932303","prefecture":"鹿児島県","prefecture_kana":"カゴシマケン","city":"肝属郡錦江町","city_kana":"キモツキグンキンコウチョウ","town":"馬場","town_kana":"ババ","prefecture_code":46},"2500":{"zip_code":"8932500","prefecture":"鹿児島県","prefecture_kana":"カゴシマケン","city":"肝属郡南大隅町","city_kana":"キモツキグンミナミオオスミチョウ","town":"以下に掲載がない場合","town_kana":"イカニケイサイガナイバアイ","prefecture_code":46},"2601":{"zip_code":"8932601","prefecture":"鹿児島県","prefecture_kana":"カゴシマケン","city":"肝属郡南大隅町","city_kana":"キモツキグンミナミオオスミチョウ","town":"佐多伊座敷","town_kana":"サタイザシキ","prefecture_code":46},"2603":{"zip_code":"8932603","prefecture":"鹿児島県","prefecture_kana":"カゴシマケン","city":"肝属郡南大隅町","city_kana":"キモツキグンミナミオオスミチョウ","town":"佐多郡","town_kana":"サタコオリ","prefecture_code":46},"2602":{"zip_code":"8932602","prefecture":"鹿児島県","prefecture_kana":"カゴシマケン","city":"肝属郡南大隅町","city_kana":"キモツキグンミナミオオスミチョウ","town":"佐多辺塚","town_kana":"サタヘツカ","prefecture_code":46},"2604":{"zip_code":"8932604","prefecture":"鹿児島県","prefecture_kana":"カゴシマケン","city":"肝属郡南大隅町","city_kana":"キモツキグンミナミオオスミチョウ","town":"佐多馬籠","town_kana":"サタマゴメ","prefecture_code":46},"2501":{"zip_code":"8932501","prefecture":"鹿児島県","prefecture_kana":"カゴシマケン","city":"肝属郡南大隅町","city_kana":"キモツキグンミナミオオスミチョウ","town":"根占川北","town_kana":"ネジメカワキタ","prefecture_code":46},"2502":{"zip_code":"8932502","prefecture":"鹿児島県","prefecture_kana":"カゴシマケン","city":"肝属郡南大隅町","city_kana":"キモツキグンミナミオオスミチョウ","town":"根占川南","town_kana":"ネジメカワミナミ","prefecture_code":46},"2505":{"zip_code":"8932505","prefecture":"鹿児島県","prefecture_kana":"カゴシマケン","city":"肝属郡南大隅町","city_kana":"キモツキグンミナミオオスミチョウ","town":"根占辺田","town_kana":"ネジメヘタ","prefecture_code":46},"2504":{"zip_code":"8932504","prefecture":"鹿児島県","prefecture_kana":"カゴシマケン","city":"肝属郡南大隅町","city_kana":"キモツキグンミナミオオスミチョウ","town":"根占山本","town_kana":"ネジメヤマモト","prefecture_code":46},"2503":{"zip_code":"8932503","prefecture":"鹿児島県","prefecture_kana":"カゴシマケン","city":"肝属郡南大隅町","city_kana":"キモツキグンミナミオオスミチョウ","town":"根占横別府","town_kana":"ネジメヨコベップ","prefecture_code":46},"1200":{"zip_code":"8931200","prefecture":"鹿児島県","prefecture_kana":"カゴシマケン","city":"肝属郡肝付町","city_kana":"キモツキグンキモツキチョウ","town":"以下に掲載がない場合","town_kana":"イカニケイサイガナイバアイ","prefecture_code":46},"1203":{"zip_code":"8931203","prefecture":"鹿児島県","prefecture_kana":"カゴシマケン","city":"肝属郡肝付町","city_kana":"キモツキグンキモツキチョウ","town":"後田","town_kana":"ウシロダ","prefecture_code":46},"1511":{"zip_code":"8931511","prefecture":"鹿児島県","prefecture_kana":"カゴシマケン","city":"肝属郡肝付町","city_kana":"キモツキグンキモツキチョウ","town":"岸良","town_kana":"キシラ","prefecture_code":46},"1401":{"zip_code":"8931401","prefecture":"鹿児島県","prefecture_kana":"カゴシマケン","city":"肝属郡肝付町","city_kana":"キモツキグンキモツキチョウ","town":"北方","town_kana":"キタカタ","prefecture_code":46},"1204":{"zip_code":"8931204","prefecture":"鹿児島県","prefecture_kana":"カゴシマケン","city":"肝属郡肝付町","city_kana":"キモツキグンキモツキチョウ","town":"富山","town_kana":"トミヤマ","prefecture_code":46},"1207":{"zip_code":"8931207","prefecture":"鹿児島県","prefecture_kana":"カゴシマケン","city":"肝属郡肝付町","city_kana":"キモツキグンキモツキチョウ","town":"新富","town_kana":"ニイトミ","prefecture_code":46},"1201":{"zip_code":"8931201","prefecture":"鹿児島県","prefecture_kana":"カゴシマケン","city":"肝属郡肝付町","city_kana":"キモツキグンキモツキチョウ","town":"野崎","town_kana":"ノサキ","prefecture_code":46},"1202":{"zip_code":"8931202","prefecture":"鹿児島県","prefecture_kana":"カゴシマケン","city":"肝属郡肝付町","city_kana":"キモツキグンキモツキチョウ","town":"波見","town_kana":"ハミ","prefecture_code":46},"1206":{"zip_code":"8931206","prefecture":"鹿児島県","prefecture_kana":"カゴシマケン","city":"肝属郡肝付町","city_kana":"キモツキグンキモツキチョウ","town":"前田","town_kana":"マエダ","prefecture_code":46},"1402":{"zip_code":"8931402","prefecture":"鹿児島県","prefecture_kana":"カゴシマケン","city":"肝属郡肝付町","city_kana":"キモツキグンキモツキチョウ","town":"南方","town_kana":"ミナミカタ","prefecture_code":46},"1205":{"zip_code":"8931205","prefecture":"鹿児島県","prefecture_kana":"カゴシマケン","city":"肝属郡肝付町","city_kana":"キモツキグンキモツキチョウ","town":"宮下","town_kana":"ミヤゲ","prefecture_code":46}}