{"0000":{"zip_code":"8940000","prefecture":"鹿児島県","prefecture_kana":"カゴシマケン","city":"奄美市","city_kana":"アマミシ","town":"","town_kana":"","prefecture_code":46},"0501":{"zip_code":"8940501","prefecture":"鹿児島県","prefecture_kana":"カゴシマケン","city":"奄美市","city_kana":"アマミシ","town":"笠利町宇宿","town_kana":"カサリチョウウシュク","prefecture_code":46},"0622":{"zip_code":"8940622","prefecture":"鹿児島県","prefecture_kana":"カゴシマケン","city":"奄美市","city_kana":"アマミシ","town":"笠利町笠利","town_kana":"カサリチョウカサリ","prefecture_code":46},"0625":{"zip_code":"8940625","prefecture":"鹿児島県","prefecture_kana":"カゴシマケン","city":"奄美市","city_kana":"アマミシ","town":"笠利町川上","town_kana":"カサリチョウカワカミ","prefecture_code":46},"0507":{"zip_code":"8940507","prefecture":"鹿児島県","prefecture_kana":"カゴシマケン","city":"奄美市","city_kana":"アマミシ","town":"笠利町喜瀬","town_kana":"カサリチョウキセ","prefecture_code":46},"0511":{"zip_code":"8940511","prefecture":"鹿児島県","prefecture_kana":"カゴシマケン","city":"奄美市","city_kana":"アマミシ","town":"笠利町里","town_kana":"カサリチョウサト","prefecture_code":46},"0627":{"zip_code":"8940627","prefecture":"鹿児島県","prefecture_kana":"カゴシマケン","city":"奄美市","city_kana":"アマミシ","town":"笠利町佐仁","town_kana":"カサリチョウサニ","prefecture_code":46},"0624":{"zip_code":"8940624","prefecture":"鹿児島県","prefecture_kana":"カゴシマケン","city":"奄美市","city_kana":"アマミシ","town":"笠利町須野","town_kana":"カサリチョウスノ","prefecture_code":46},"0504":{"zip_code":"8940504","prefecture":"鹿児島県","prefecture_kana":"カゴシマケン","city":"奄美市","city_kana":"アマミシ","town":"笠利町節田","town_kana":"カサリチョウセツタ","prefecture_code":46},"0513":{"zip_code":"8940513","prefecture":"鹿児島県","prefecture_kana":"カゴシマケン","city":"奄美市","city_kana":"アマミシ","town":"笠利町外金久","town_kana":"カサリチョウソトガネク","prefecture_code":46},"0505":{"zip_code":"8940505","prefecture":"鹿児島県","prefecture_kana":"カゴシマケン","city":"奄美市","city_kana":"アマミシ","town":"笠利町平","town_kana":"カサリチョウタイラ","prefecture_code":46},"0506":{"zip_code":"8940506","prefecture":"鹿児島県","prefecture_kana":"カゴシマケン","city":"奄美市","city_kana":"アマミシ","town":"笠利町手花部","town_kana":"カサリチョウテケブ","prefecture_code":46},"0512":{"zip_code":"8940512","prefecture":"鹿児島県","prefecture_kana":"カゴシマケン","city":"奄美市","city_kana":"アマミシ","town":"笠利町中金久","town_kana":"カサリチョウナカガネク","prefecture_code":46},"0623":{"zip_code":"8940623","prefecture":"鹿児島県","prefecture_kana":"カゴシマケン","city":"奄美市","city_kana":"アマミシ","town":"笠利町辺留","town_kana":"カサリチョウベル","prefecture_code":46},"0502":{"zip_code":"8940502","prefecture":"鹿児島県","prefecture_kana":"カゴシマケン","city":"奄美市","city_kana":"アマミシ","town":"笠利町万屋","town_kana":"カサリチョウマンヤ","prefecture_code":46},"0626":{"zip_code":"8940626","prefecture":"鹿児島県","prefecture_kana":"カゴシマケン","city":"奄美市","city_kana":"アマミシ","town":"笠利町屋仁","town_kana":"カサリチョウヤニ","prefecture_code":46},"0621":{"zip_code":"8940621","prefecture":"鹿児島県","prefecture_kana":"カゴシマケン","city":"奄美市","city_kana":"アマミシ","town":"笠利町用","town_kana":"カサリチョウヨウ","prefecture_code":46},"0508":{"zip_code":"8940508","prefecture":"鹿児島県","prefecture_kana":"カゴシマケン","city":"奄美市","city_kana":"アマミシ","town":"笠利町用安","town_kana":"カサリチョウヨウアン","prefecture_code":46},"0503":{"zip_code":"8940503","prefecture":"鹿児島県","prefecture_kana":"カゴシマケン","city":"奄美市","city_kana":"アマミシ","town":"笠利町和野","town_kana":"カサリチョウワノ","prefecture_code":46},"1201":{"zip_code":"8941201","prefecture":"鹿児島県","prefecture_kana":"カゴシマケン","city":"奄美市","city_kana":"アマミシ","town":"住用町石原","town_kana":"スミヨウチョウイシハラ","prefecture_code":46},"1321":{"zip_code":"8941321","prefecture":"鹿児島県","prefecture_kana":"カゴシマケン","city":"奄美市","city_kana":"アマミシ","town":"住用町市","town_kana":"スミヨウチョウイチ","prefecture_code":46},"1203":{"zip_code":"8941203","prefecture":"鹿児島県","prefecture_kana":"カゴシマケン","city":"奄美市","city_kana":"アマミシ","town":"住用町神屋","town_kana":"スミヨウチョウカミヤ","prefecture_code":46},"1115":{"zip_code":"8941115","prefecture":"鹿児島県","prefecture_kana":"カゴシマケン","city":"奄美市","city_kana":"アマミシ","town":"住用町川内","town_kana":"スミヨウチョウカワウチ","prefecture_code":46},"1111":{"zip_code":"8941111","prefecture":"鹿児島県","prefecture_kana":"カゴシマケン","city":"奄美市","city_kana":"アマミシ","town":"住用町城","town_kana":"スミヨウチョウグスク","prefecture_code":46},"1116":{"zip_code":"8941116","prefecture":"鹿児島県","prefecture_kana":"カゴシマケン","city":"奄美市","city_kana":"アマミシ","town":"住用町摺勝","town_kana":"スミヨウチョウスリガチ","prefecture_code":46},"1202":{"zip_code":"8941202","prefecture":"鹿児島県","prefecture_kana":"カゴシマケン","city":"奄美市","city_kana":"アマミシ","town":"住用町西仲間","town_kana":"スミヨウチョウニシナカマ","prefecture_code":46},"1114":{"zip_code":"8941114","prefecture":"鹿児島県","prefecture_kana":"カゴシマケン","city":"奄美市","city_kana":"アマミシ","town":"住用町東仲間","town_kana":"スミヨウチョウヒガシナカマ","prefecture_code":46},"1113":{"zip_code":"8941113","prefecture":"鹿児島県","prefecture_kana":"カゴシマケン","city":"奄美市","city_kana":"アマミシ","town":"住用町見里","town_kana":"スミヨウチョウミザト","prefecture_code":46},"1205":{"zip_code":"8941205","prefecture":"鹿児島県","prefecture_kana":"カゴシマケン","city":"奄美市","city_kana":"アマミシ","town":"住用町役勝","town_kana":"スミヨウチョウヤクガチ","prefecture_code":46},"1304":[{"zip_code":"8941304","prefecture":"鹿児島県","prefecture_kana":"カゴシマケン","city":"奄美市","city_kana":"アマミシ","town":"住用町山間","town_kana":"スミヨウチョウヤンマ","prefecture_code":46},{"zip_code":"8941304","prefecture":"鹿児島県","prefecture_kana":"カゴシマケン","city":"奄美市","city_kana":"アマミシ","town":"住用町山間戸玉","town_kana":"スミヨウチョウヤンマトダマ","prefecture_code":46}],"1204":{"zip_code":"8941204","prefecture":"鹿児島県","prefecture_kana":"カゴシマケン","city":"奄美市","city_kana":"アマミシ","town":"住用町山間","town_kana":"スミヨウチョウヤンマ","prefecture_code":46},"1112":{"zip_code":"8941112","prefecture":"鹿児島県","prefecture_kana":"カゴシマケン","city":"奄美市","city_kana":"アマミシ","town":"住用町和瀬","town_kana":"スミヨウチョウワセ","prefecture_code":46},"0773":{"zip_code":"8940773","prefecture":"鹿児島県","prefecture_kana":"カゴシマケン","city":"奄美市","city_kana":"アマミシ","town":"名瀬朝戸","town_kana":"ナゼアサト","prefecture_code":46},"0043":{"zip_code":"8940043","prefecture":"鹿児島県","prefecture_kana":"カゴシマケン","city":"奄美市","city_kana":"アマミシ","town":"名瀬朝仁","town_kana":"ナゼアサニ","prefecture_code":46},"0041":{"zip_code":"8940041","prefecture":"鹿児島県","prefecture_kana":"カゴシマケン","city":"奄美市","city_kana":"アマミシ","town":"名瀬朝仁新町","town_kana":"ナゼアサニシンマチ","prefecture_code":46},"0042":{"zip_code":"8940042","prefecture":"鹿児島県","prefecture_kana":"カゴシマケン","city":"奄美市","city_kana":"アマミシ","town":"名瀬朝仁町","town_kana":"ナゼアサニチョウ","prefecture_code":46},"0061":{"zip_code":"8940061","prefecture":"鹿児島県","prefecture_kana":"カゴシマケン","city":"奄美市","city_kana":"アマミシ","town":"名瀬朝日町","town_kana":"ナゼアサヒチョウ","prefecture_code":46},"0351":{"zip_code":"8940351","prefecture":"鹿児島県","prefecture_kana":"カゴシマケン","city":"奄美市","city_kana":"アマミシ","town":"名瀬芦花部","town_kana":"ナゼアシケブ","prefecture_code":46},"0002":{"zip_code":"8940002","prefecture":"鹿児島県","prefecture_kana":"カゴシマケン","city":"奄美市","city_kana":"アマミシ","town":"名瀬有屋","town_kana":"ナゼアリヤ","prefecture_code":46},"0062":{"zip_code":"8940062","prefecture":"鹿児島県","prefecture_kana":"カゴシマケン","city":"奄美市","city_kana":"アマミシ","town":"名瀬有屋町","town_kana":"ナゼアリヤチョウ","prefecture_code":46},"0352":{"zip_code":"8940352","prefecture":"鹿児島県","prefecture_kana":"カゴシマケン","city":"奄美市","city_kana":"アマミシ","town":"名瀬有良","town_kana":"ナゼアリラ","prefecture_code":46},"0011":{"zip_code":"8940011","prefecture":"鹿児島県","prefecture_kana":"カゴシマケン","city":"奄美市","city_kana":"アマミシ","town":"名瀬安勝町","town_kana":"ナゼアンガチチョウ","prefecture_code":46},"0017":{"zip_code":"8940017","prefecture":"鹿児島県","prefecture_kana":"カゴシマケン","city":"奄美市","city_kana":"アマミシ","town":"名瀬石橋町","town_kana":"ナゼイシバシチョウ","prefecture_code":46},"0774":{"zip_code":"8940774","prefecture":"鹿児島県","prefecture_kana":"カゴシマケン","city":"奄美市","city_kana":"アマミシ","town":"名瀬伊津部勝","town_kana":"ナゼイツブガチ","prefecture_code":46},"0021":{"zip_code":"8940021","prefecture":"鹿児島県","prefecture_kana":"カゴシマケン","city":"奄美市","city_kana":"アマミシ","town":"名瀬伊津部町","town_kana":"ナゼイツブチョウ","prefecture_code":46},"0024":{"zip_code":"8940024","prefecture":"鹿児島県","prefecture_kana":"カゴシマケン","city":"奄美市","city_kana":"アマミシ","town":"名瀬井根町","town_kana":"ナゼイネチョウ","prefecture_code":46},"0034":{"zip_code":"8940034","prefecture":"鹿児島県","prefecture_kana":"カゴシマケン","city":"奄美市","city_kana":"アマミシ","town":"名瀬入舟町","town_kana":"ナゼイリフネチョウ","prefecture_code":46},"0108":{"zip_code":"8940108","prefecture":"鹿児島県","prefecture_kana":"カゴシマケン","city":"奄美市","city_kana":"アマミシ","town":"名瀬浦上小又","town_kana":"ナゼウラガミコマタ","prefecture_code":46},"0008":{"zip_code":"8940008","prefecture":"鹿児島県","prefecture_kana":"カゴシマケン","city":"奄美市","city_kana":"アマミシ","town":"名瀬浦上","town_kana":"ナゼウラガミ","prefecture_code":46},"0068":{"zip_code":"8940068","prefecture":"鹿児島県","prefecture_kana":"カゴシマケン","city":"奄美市","city_kana":"アマミシ","town":"名瀬浦上町","town_kana":"ナゼウラガミチョウ","prefecture_code":46},"0013":{"zip_code":"8940013","prefecture":"鹿児島県","prefecture_kana":"カゴシマケン","city":"奄美市","city_kana":"アマミシ","town":"名瀬春日町","town_kana":"ナゼカスガチョウ","prefecture_code":46},"0031":{"zip_code":"8940031","prefecture":"鹿児島県","prefecture_kana":"カゴシマケン","city":"奄美市","city_kana":"アマミシ","town":"名瀬金久町","town_kana":"ナゼカネクチョウ","prefecture_code":46},"0022":{"zip_code":"8940022","prefecture":"鹿児島県","prefecture_kana":"カゴシマケン","city":"奄美市","city_kana":"アマミシ","town":"名瀬久里町","town_kana":"ナゼクサトチョウ","prefecture_code":46},"0046":{"zip_code":"8940046","prefecture":"鹿児島県","prefecture_kana":"カゴシマケン","city":"奄美市","city_kana":"アマミシ","town":"名瀬小宿","town_kana":"ナゼコシュク","prefecture_code":46},"0006":{"zip_code":"8940006","prefecture":"鹿児島県","prefecture_kana":"カゴシマケン","city":"奄美市","city_kana":"アマミシ","town":"名瀬小浜町","town_kana":"ナゼコハマチョウ","prefecture_code":46},"0012":{"zip_code":"8940012","prefecture":"鹿児島県","prefecture_kana":"カゴシマケン","city":"奄美市","city_kana":"アマミシ","town":"名瀬小俣町","town_kana":"ナゼコマタチョウ","prefecture_code":46},"0771":{"zip_code":"8940771","prefecture":"鹿児島県","prefecture_kana":"カゴシマケン","city":"奄美市","city_kana":"アマミシ","town":"名瀬小湊","town_kana":"ナゼコミナト","prefecture_code":46},"0025":{"zip_code":"8940025","prefecture":"鹿児島県","prefecture_kana":"カゴシマケン","city":"奄美市","city_kana":"アマミシ","town":"名瀬幸町","town_kana":"ナゼサイワイチョウ","prefecture_code":46},"0776":{"zip_code":"8940776","prefecture":"鹿児島県","prefecture_kana":"カゴシマケン","city":"奄美市","city_kana":"アマミシ","town":"名瀬崎原","town_kana":"ナゼサキバル","prefecture_code":46},"0005":{"zip_code":"8940005","prefecture":"鹿児島県","prefecture_kana":"カゴシマケン","city":"奄美市","city_kana":"アマミシ","town":"名瀬佐大熊町","town_kana":"ナゼサダイクマチョウ","prefecture_code":46},"0035":{"zip_code":"8940035","prefecture":"鹿児島県","prefecture_kana":"カゴシマケン","city":"奄美市","city_kana":"アマミシ","town":"名瀬塩浜町","town_kana":"ナゼシオハマチョウ","prefecture_code":46},"0027":{"zip_code":"8940027","prefecture":"鹿児島県","prefecture_kana":"カゴシマケン","city":"奄美市","city_kana":"アマミシ","town":"名瀬末広町","town_kana":"ナゼスエヒロチョウ","prefecture_code":46},"0001":{"zip_code":"8940001","prefecture":"鹿児島県","prefecture_kana":"カゴシマケン","city":"奄美市","city_kana":"アマミシ","town":"名瀬大熊","town_kana":"ナゼダイクマ","prefecture_code":46},"0009":{"zip_code":"8940009","prefecture":"鹿児島県","prefecture_kana":"カゴシマケン","city":"奄美市","city_kana":"アマミシ","town":"名瀬大熊町","town_kana":"ナゼダイクマチョウ","prefecture_code":46},"0047":{"zip_code":"8940047","prefecture":"鹿児島県","prefecture_kana":"カゴシマケン","city":"奄美市","city_kana":"アマミシ","town":"名瀬知名瀬","town_kana":"ナゼチナセ","prefecture_code":46},"0003":{"zip_code":"8940003","prefecture":"鹿児島県","prefecture_kana":"カゴシマケン","city":"奄美市","city_kana":"アマミシ","town":"名瀬仲勝","town_kana":"ナゼナカガチ","prefecture_code":46},"0063":{"zip_code":"8940063","prefecture":"鹿児島県","prefecture_kana":"カゴシマケン","city":"奄美市","city_kana":"アマミシ","town":"名瀬仲勝町","town_kana":"ナゼナカガチチョウ","prefecture_code":46},"0023":{"zip_code":"8940023","prefecture":"鹿児島県","prefecture_kana":"カゴシマケン","city":"奄美市","city_kana":"アマミシ","town":"名瀬永田町","town_kana":"ナゼナガタチョウ","prefecture_code":46},"0036":{"zip_code":"8940036","prefecture":"鹿児島県","prefecture_kana":"カゴシマケン","city":"奄美市","city_kana":"アマミシ","town":"名瀬長浜町","town_kana":"ナゼナガハマチョウ","prefecture_code":46},"0775":{"zip_code":"8940775","prefecture":"鹿児島県","prefecture_kana":"カゴシマケン","city":"奄美市","city_kana":"アマミシ","town":"名瀬名瀬勝","town_kana":"ナゼナゼガチ","prefecture_code":46},"0772":{"zip_code":"8940772","prefecture":"鹿児島県","prefecture_kana":"カゴシマケン","city":"奄美市","city_kana":"アマミシ","town":"名瀬西仲勝","town_kana":"ナゼニシナカガチ","prefecture_code":46},"0048":{"zip_code":"8940048","prefecture":"鹿児島県","prefecture_kana":"カゴシマケン","city":"奄美市","city_kana":"アマミシ","town":"名瀬根瀬部","town_kana":"ナゼネセブ","prefecture_code":46},"0004":{"zip_code":"8940004","prefecture":"鹿児島県","prefecture_kana":"カゴシマケン","city":"奄美市","city_kana":"アマミシ","town":"名瀬鳩浜町","town_kana":"ナゼハトハマチョウ","prefecture_code":46},"0044":{"zip_code":"8940044","prefecture":"鹿児島県","prefecture_kana":"カゴシマケン","city":"奄美市","city_kana":"アマミシ","town":"名瀬浜里町","town_kana":"ナゼハマサトチョウ","prefecture_code":46},"0014":{"zip_code":"8940014","prefecture":"鹿児島県","prefecture_kana":"カゴシマケン","city":"奄美市","city_kana":"アマミシ","town":"名瀬平田町","town_kana":"ナゼヒラタチョウ","prefecture_code":46},"0045":{"zip_code":"8940045","prefecture":"鹿児島県","prefecture_kana":"カゴシマケン","city":"奄美市","city_kana":"アマミシ","town":"名瀬平松町","town_kana":"ナゼヒラマツチョウ","prefecture_code":46},"0016":{"zip_code":"8940016","prefecture":"鹿児島県","prefecture_kana":"カゴシマケン","city":"奄美市","city_kana":"アマミシ","town":"名瀬古田町","town_kana":"ナゼフルタチョウ","prefecture_code":46},"0015":{"zip_code":"8940015","prefecture":"鹿児島県","prefecture_kana":"カゴシマケン","city":"奄美市","city_kana":"アマミシ","town":"名瀬真名津町","town_kana":"ナゼマナヅチョウ","prefecture_code":46},"0026":{"zip_code":"8940026","prefecture":"鹿児島県","prefecture_kana":"カゴシマケン","city":"奄美市","city_kana":"アマミシ","town":"名瀬港町","town_kana":"ナゼミナトマチ","prefecture_code":46},"0032":{"zip_code":"8940032","prefecture":"鹿児島県","prefecture_kana":"カゴシマケン","city":"奄美市","city_kana":"アマミシ","town":"名瀬柳町","town_kana":"ナゼヤナギマチ","prefecture_code":46},"0033":{"zip_code":"8940033","prefecture":"鹿児島県","prefecture_kana":"カゴシマケン","city":"奄美市","city_kana":"アマミシ","town":"名瀬矢之脇町","town_kana":"ナゼヤノワキチョウ","prefecture_code":46},"0007":{"zip_code":"8940007","prefecture":"鹿児島県","prefecture_kana":"カゴシマケン","city":"奄美市","city_kana":"アマミシ","town":"名瀬和光町","town_kana":"ナゼワコウチョウ","prefecture_code":46},"3100":{"zip_code":"8943100","prefecture":"鹿児島県","prefecture_kana":"カゴシマケン","city":"大島郡大和村","city_kana":"オオシマグンヤマトソン","town":"","town_kana":"","prefecture_code":46},"3214":{"zip_code":"8943214","prefecture":"鹿児島県","prefecture_kana":"カゴシマケン","city":"大島郡大和村","city_kana":"オオシマグンヤマトソン","town":"今里","town_kana":"イマザト","prefecture_code":46},"3107":{"zip_code":"8943107","prefecture":"鹿児島県","prefecture_kana":"カゴシマケン","city":"大島郡大和村","city_kana":"オオシマグンヤマトソン","town":"大金久","town_kana":"オオガネク","prefecture_code":46},"3106":{"zip_code":"8943106","prefecture":"鹿児島県","prefecture_kana":"カゴシマケン","city":"大島郡大和村","city_kana":"オオシマグンヤマトソン","town":"大棚","town_kana":"オオダナ","prefecture_code":46},"3104":{"zip_code":"8943104","prefecture":"鹿児島県","prefecture_kana":"カゴシマケン","city":"大島郡大和村","city_kana":"オオシマグンヤマトソン","town":"思勝","town_kana":"オンガチ","prefecture_code":46},"3101":{"zip_code":"8943101","prefecture":"鹿児島県","prefecture_kana":"カゴシマケン","city":"大島郡大和村","city_kana":"オオシマグンヤマトソン","town":"国直","town_kana":"クニナオ","prefecture_code":46},"3213":{"zip_code":"8943213","prefecture":"鹿児島県","prefecture_kana":"カゴシマケン","city":"大島郡大和村","city_kana":"オオシマグンヤマトソン","town":"志戸勘","town_kana":"シドカン","prefecture_code":46},"3103":{"zip_code":"8943103","prefecture":"鹿児島県","prefecture_kana":"カゴシマケン","city":"大島郡大和村","city_kana":"オオシマグンヤマトソン","town":"津名久","town_kana":"ツナグ","prefecture_code":46},"3211":{"zip_code":"8943211","prefecture":"鹿児島県","prefecture_kana":"カゴシマケン","city":"大島郡大和村","city_kana":"オオシマグンヤマトソン","town":"戸円","town_kana":"トエン","prefecture_code":46},"3212":{"zip_code":"8943212","prefecture":"鹿児島県","prefecture_kana":"カゴシマケン","city":"大島郡大和村","city_kana":"オオシマグンヤマトソン","town":"名音","town_kana":"ナオン","prefecture_code":46},"3105":{"zip_code":"8943105","prefecture":"鹿児島県","prefecture_kana":"カゴシマケン","city":"大島郡大和村","city_kana":"オオシマグンヤマトソン","town":"大和浜","town_kana":"ヤマトハマ","prefecture_code":46},"3102":{"zip_code":"8943102","prefecture":"鹿児島県","prefecture_kana":"カゴシマケン","city":"大島郡大和村","city_kana":"オオシマグンヤマトソン","town":"湯湾釜","town_kana":"ユワンガマ","prefecture_code":46},"3300":{"zip_code":"8943300","prefecture":"鹿児島県","prefecture_kana":"カゴシマケン","city":"大島郡宇検村","city_kana":"オオシマグンウケンソン","town":"","town_kana":"","prefecture_code":46},"3302":{"zip_code":"8943302","prefecture":"鹿児島県","prefecture_kana":"カゴシマケン","city":"大島郡宇検村","city_kana":"オオシマグンウケンソン","town":"芦検","town_kana":"アシケン","prefecture_code":46},"3632":{"zip_code":"8943632","prefecture":"鹿児島県","prefecture_kana":"カゴシマケン","city":"大島郡宇検村","city_kana":"オオシマグンウケンソン","town":"阿室","town_kana":"アムロ","prefecture_code":46},"3413":{"zip_code":"8943413","prefecture":"鹿児島県","prefecture_kana":"カゴシマケン","city":"大島郡宇検村","city_kana":"オオシマグンウケンソン","town":"生勝","town_kana":"イケガチ","prefecture_code":46},"3305":{"zip_code":"8943305","prefecture":"鹿児島県","prefecture_kana":"カゴシマケン","city":"大島郡宇検村","city_kana":"オオシマグンウケンソン","town":"石良","town_kana":"イシラ","prefecture_code":46},"3411":{"zip_code":"8943411","prefecture":"鹿児島県","prefecture_kana":"カゴシマケン","city":"大島郡宇検村","city_kana":"オオシマグンウケンソン","town":"宇検","town_kana":"ウケン","prefecture_code":46},"3412":{"zip_code":"8943412","prefecture":"鹿児島県","prefecture_kana":"カゴシマケン","city":"大島郡宇検村","city_kana":"オオシマグンウケンソン","town":"久志","town_kana":"クシ","prefecture_code":46},"3522":{"zip_code":"8943522","prefecture":"鹿児島県","prefecture_kana":"カゴシマケン","city":"大島郡宇検村","city_kana":"オオシマグンウケンソン","town":"佐念","town_kana":"サネン","prefecture_code":46},"3304":{"zip_code":"8943304","prefecture":"鹿児島県","prefecture_kana":"カゴシマケン","city":"大島郡宇検村","city_kana":"オオシマグンウケンソン","town":"須古","town_kana":"スコ","prefecture_code":46},"3303":{"zip_code":"8943303","prefecture":"鹿児島県","prefecture_kana":"カゴシマケン","city":"大島郡宇検村","city_kana":"オオシマグンウケンソン","town":"田検","town_kana":"タケン","prefecture_code":46},"3521":{"zip_code":"8943521","prefecture":"鹿児島県","prefecture_kana":"カゴシマケン","city":"大島郡宇検村","city_kana":"オオシマグンウケンソン","town":"名柄","town_kana":"ナガラ","prefecture_code":46},"3523":{"zip_code":"8943523","prefecture":"鹿児島県","prefecture_kana":"カゴシマケン","city":"大島郡宇検村","city_kana":"オオシマグンウケンソン","town":"部連","town_kana":"ブレン","prefecture_code":46},"3631":{"zip_code":"8943631","prefecture":"鹿児島県","prefecture_kana":"カゴシマケン","city":"大島郡宇検村","city_kana":"オオシマグンウケンソン","town":"平田","town_kana":"ヘダ","prefecture_code":46},"3633":{"zip_code":"8943633","prefecture":"鹿児島県","prefecture_kana":"カゴシマケン","city":"大島郡宇検村","city_kana":"オオシマグンウケンソン","town":"屋鈍","town_kana":"ヤドン","prefecture_code":46},"3301":{"zip_code":"8943301","prefecture":"鹿児島県","prefecture_kana":"カゴシマケン","city":"大島郡宇検村","city_kana":"オオシマグンウケンソン","town":"湯湾","town_kana":"ユワン","prefecture_code":46},"1500":{"zip_code":"8941500","prefecture":"鹿児島県","prefecture_kana":"カゴシマケン","city":"大島郡瀬戸内町","city_kana":"オオシマグンセトウチチョウ","town":"","town_kana":"","prefecture_code":46},"2234":{"zip_code":"8942234","prefecture":"鹿児島県","prefecture_kana":"カゴシマケン","city":"大島郡瀬戸内町","city_kana":"オオシマグンセトウチチョウ","town":"秋徳","town_kana":"アキトク","prefecture_code":46},"1511":{"zip_code":"8941511","prefecture":"鹿児島県","prefecture_kana":"カゴシマケン","city":"大島郡瀬戸内町","city_kana":"オオシマグンセトウチチョウ","town":"阿木名","town_kana":"アギナ","prefecture_code":46},"2411":{"zip_code":"8942411","prefecture":"鹿児島県","prefecture_kana":"カゴシマケン","city":"大島郡瀬戸内町","city_kana":"オオシマグンセトウチチョウ","town":"阿多地","town_kana":"アダチ","prefecture_code":46},"1744":{"zip_code":"8941744","prefecture":"鹿児島県","prefecture_kana":"カゴシマケン","city":"大島郡瀬戸内町","city_kana":"オオシマグンセトウチチョウ","town":"阿鉄","town_kana":"アテツ","prefecture_code":46},"1513":{"zip_code":"8941513","prefecture":"鹿児島県","prefecture_kana":"カゴシマケン","city":"大島郡瀬戸内町","city_kana":"オオシマグンセトウチチョウ","town":"網野子","town_kana":"アミノコ","prefecture_code":46},"1742":{"zip_code":"8941742","prefecture":"鹿児島県","prefecture_kana":"カゴシマケン","city":"大島郡瀬戸内町","city_kana":"オオシマグンセトウチチョウ","town":"阿室釜","town_kana":"アムロガマ","prefecture_code":46},"2501":{"zip_code":"8942501","prefecture":"鹿児島県","prefecture_kana":"カゴシマケン","city":"大島郡瀬戸内町","city_kana":"オオシマグンセトウチチョウ","town":"池地","town_kana":"イケジ","prefecture_code":46},"2142":{"zip_code":"8942142","prefecture":"鹿児島県","prefecture_kana":"カゴシマケン","city":"大島郡瀬戸内町","city_kana":"オオシマグンセトウチチョウ","town":"生間","town_kana":"イケンマ","prefecture_code":46},"2236":{"zip_code":"8942236","prefecture":"鹿児島県","prefecture_kana":"カゴシマケン","city":"大島郡瀬戸内町","city_kana":"オオシマグンセトウチチョウ","town":"伊子茂","town_kana":"イコモ","prefecture_code":46},"1524":{"zip_code":"8941524","prefecture":"鹿児島県","prefecture_kana":"カゴシマケン","city":"大島郡瀬戸内町","city_kana":"オオシマグンセトウチチョウ","town":"伊須","town_kana":"イス","prefecture_code":46},"2502":{"zip_code":"8942502","prefecture":"鹿児島県","prefecture_kana":"カゴシマケン","city":"大島郡瀬戸内町","city_kana":"オオシマグンセトウチチョウ","town":"請阿室","town_kana":"ウケアムロ","prefecture_code":46},"2235":{"zip_code":"8942235","prefecture":"鹿児島県","prefecture_kana":"カゴシマケン","city":"大島郡瀬戸内町","city_kana":"オオシマグンセトウチチョウ","town":"於斉","town_kana":"オサイ","prefecture_code":46},"2231":{"zip_code":"8942231","prefecture":"鹿児島県","prefecture_kana":"カゴシマケン","city":"大島郡瀬戸内町","city_kana":"オオシマグンセトウチチョウ","town":"押角","town_kana":"オシカク","prefecture_code":46},"1512":{"zip_code":"8941512","prefecture":"鹿児島県","prefecture_kana":"カゴシマケン","city":"大島郡瀬戸内町","city_kana":"オオシマグンセトウチチョウ","town":"勝浦","town_kana":"カチウラ","prefecture_code":46},"2232":{"zip_code":"8942232","prefecture":"鹿児島県","prefecture_kana":"カゴシマケン","city":"大島郡瀬戸内町","city_kana":"オオシマグンセトウチチョウ","town":"勝能","town_kana":"カチユキ","prefecture_code":46},"1522":{"zip_code":"8941522","prefecture":"鹿児島県","prefecture_kana":"カゴシマケン","city":"大島郡瀬戸内町","city_kana":"オオシマグンセトウチチョウ","town":"嘉鉄","town_kana":"カテツ","prefecture_code":46},"1515":{"zip_code":"8941515","prefecture":"鹿児島県","prefecture_kana":"カゴシマケン","city":"大島郡瀬戸内町","city_kana":"オオシマグンセトウチチョウ","town":"嘉徳","town_kana":"カトク","prefecture_code":46},"2413":{"zip_code":"8942413","prefecture":"鹿児島県","prefecture_kana":"カゴシマケン","city":"大島郡瀬戸内町","city_kana":"オオシマグンセトウチチョウ","town":"嘉入","town_kana":"カニュウ","prefecture_code":46},"2417":{"zip_code":"8942417","prefecture":"鹿児島県","prefecture_kana":"カゴシマケン","city":"大島郡瀬戸内町","city_kana":"オオシマグンセトウチチョウ","town":"木慈","town_kana":"キジ","prefecture_code":46},"1851":{"zip_code":"8941851","prefecture":"鹿児島県","prefecture_kana":"カゴシマケン","city":"大島郡瀬戸内町","city_kana":"オオシマグンセトウチチョウ","town":"久慈","town_kana":"クジ","prefecture_code":46},"1854":{"zip_code":"8941854","prefecture":"鹿児島県","prefecture_kana":"カゴシマケン","city":"大島郡瀬戸内町","city_kana":"オオシマグンセトウチチョウ","town":"管鈍","town_kana":"クダドン","prefecture_code":46},"1746":{"zip_code":"8941746","prefecture":"鹿児島県","prefecture_kana":"カゴシマケン","city":"大島郡瀬戸内町","city_kana":"オオシマグンセトウチチョウ","town":"久根津","town_kana":"クネツ","prefecture_code":46},"1853":{"zip_code":"8941853","prefecture":"鹿児島県","prefecture_kana":"カゴシマケン","city":"大島郡瀬戸内町","city_kana":"オオシマグンセトウチチョウ","town":"花天","town_kana":"ケテン","prefecture_code":46},"2237":{"zip_code":"8942237","prefecture":"鹿児島県","prefecture_kana":"カゴシマケン","city":"大島郡瀬戸内町","city_kana":"オオシマグンセトウチチョウ","town":"花富","town_kana":"ケドミ","prefecture_code":46},"1852":{"zip_code":"8941852","prefecture":"鹿児島県","prefecture_kana":"カゴシマケン","city":"大島郡瀬戸内町","city_kana":"オオシマグンセトウチチョウ","town":"古志","town_kana":"コシ","prefecture_code":46},"1743":{"zip_code":"8941743","prefecture":"鹿児島県","prefecture_kana":"カゴシマケン","city":"大島郡瀬戸内町","city_kana":"オオシマグンセトウチチョウ","town":"小名瀬","town_kana":"コナセ","prefecture_code":46},"1508":{"zip_code":"8941508","prefecture":"鹿児島県","prefecture_kana":"カゴシマケン","city":"大島郡瀬戸内町","city_kana":"オオシマグンセトウチチョウ","town":"古仁屋","town_kana":"コニヤ","prefecture_code":46},"1503":{"zip_code":"8941503","prefecture":"鹿児島県","prefecture_kana":"カゴシマケン","city":"大島郡瀬戸内町","city_kana":"オオシマグンセトウチチョウ","town":"古仁屋大湊","town_kana":"コニヤオオミナト","prefecture_code":46},"1504":{"zip_code":"8941504","prefecture":"鹿児島県","prefecture_kana":"カゴシマケン","city":"大島郡瀬戸内町","city_kana":"オオシマグンセトウチチョウ","town":"古仁屋春日","town_kana":"コニヤカスガ","prefecture_code":46},"1507":{"zip_code":"8941507","prefecture":"鹿児島県","prefecture_kana":"カゴシマケン","city":"大島郡瀬戸内町","city_kana":"オオシマグンセトウチチョウ","town":"古仁屋瀬久井","town_kana":"コニヤセクイ","prefecture_code":46},"1501":{"zip_code":"8941501","prefecture":"鹿児島県","prefecture_kana":"カゴシマケン","city":"大島郡瀬戸内町","city_kana":"オオシマグンセトウチチョウ","town":"古仁屋高丘","town_kana":"コニヤタカオカ","prefecture_code":46},"1506":{"zip_code":"8941506","prefecture":"鹿児島県","prefecture_kana":"カゴシマケン","city":"大島郡瀬戸内町","city_kana":"オオシマグンセトウチチョウ","town":"古仁屋船津","town_kana":"コニヤフナツ","prefecture_code":46},"1505":{"zip_code":"8941505","prefecture":"鹿児島県","prefecture_kana":"カゴシマケン","city":"大島郡瀬戸内町","city_kana":"オオシマグンセトウチチョウ","town":"古仁屋松江","town_kana":"コニヤマツエ","prefecture_code":46},"1502":{"zip_code":"8941502","prefecture":"鹿児島県","prefecture_kana":"カゴシマケン","city":"大島郡瀬戸内町","city_kana":"オオシマグンセトウチチョウ","town":"古仁屋宮前","town_kana":"コニヤミヤマエ","prefecture_code":46},"1510":{"zip_code":"8941510","prefecture":"鹿児島県","prefecture_kana":"カゴシマケン","city":"大島郡瀬戸内町","city_kana":"オオシマグンセトウチチョウ","town":"古仁屋瀬久井西","town_kana":"コニヤセクイニシ","prefecture_code":46},"1509":{"zip_code":"8941509","prefecture":"鹿児島県","prefecture_kana":"カゴシマケン","city":"大島郡瀬戸内町","city_kana":"オオシマグンセトウチチョウ","town":"古仁屋瀬久井東","town_kana":"コニヤセクイヒガシ","prefecture_code":46},"2402":{"zip_code":"8942402","prefecture":"鹿児島県","prefecture_kana":"カゴシマケン","city":"大島郡瀬戸内町","city_kana":"オオシマグンセトウチチョウ","town":"薩川","town_kana":"サツカワ","prefecture_code":46},"2403":{"zip_code":"8942403","prefecture":"鹿児島県","prefecture_kana":"カゴシマケン","city":"大島郡瀬戸内町","city_kana":"オオシマグンセトウチチョウ","town":"実久","town_kana":"サネク","prefecture_code":46},"1741":{"zip_code":"8941741","prefecture":"鹿児島県","prefecture_kana":"カゴシマケン","city":"大島郡瀬戸内町","city_kana":"オオシマグンセトウチチョウ","town":"篠川","town_kana":"シノカワ","prefecture_code":46},"2404":{"zip_code":"8942404","prefecture":"鹿児島県","prefecture_kana":"カゴシマケン","city":"大島郡瀬戸内町","city_kana":"オオシマグンセトウチチョウ","town":"芝","town_kana":"シバ","prefecture_code":46},"2144":{"zip_code":"8942144","prefecture":"鹿児島県","prefecture_kana":"カゴシマケン","city":"大島郡瀬戸内町","city_kana":"オオシマグンセトウチチョウ","town":"諸数","town_kana":"ショカズ","prefecture_code":46},"2141":{"zip_code":"8942141","prefecture":"鹿児島県","prefecture_kana":"カゴシマケン","city":"大島郡瀬戸内町","city_kana":"オオシマグンセトウチチョウ","town":"諸鈍","town_kana":"ショドン","prefecture_code":46},"2412":{"zip_code":"8942412","prefecture":"鹿児島県","prefecture_kana":"カゴシマケン","city":"大島郡瀬戸内町","city_kana":"オオシマグンセトウチチョウ","town":"須子茂","town_kana":"スコモ","prefecture_code":46},"1521":{"zip_code":"8941521","prefecture":"鹿児島県","prefecture_kana":"カゴシマケン","city":"大島郡瀬戸内町","city_kana":"オオシマグンセトウチチョウ","town":"清水","town_kana":"セイスイ","prefecture_code":46},"2322":{"zip_code":"8942322","prefecture":"鹿児島県","prefecture_kana":"カゴシマケン","city":"大島郡瀬戸内町","city_kana":"オオシマグンセトウチチョウ","town":"瀬相","town_kana":"セソウ","prefecture_code":46},"2401":{"zip_code":"8942401","prefecture":"鹿児島県","prefecture_kana":"カゴシマケン","city":"大島郡瀬戸内町","city_kana":"オオシマグンセトウチチョウ","town":"瀬武","town_kana":"セタケ","prefecture_code":46},"1514":{"zip_code":"8941514","prefecture":"鹿児島県","prefecture_kana":"カゴシマケン","city":"大島郡瀬戸内町","city_kana":"オオシマグンセトウチチョウ","town":"節子","town_kana":"セッコ","prefecture_code":46},"1523":{"zip_code":"8941523","prefecture":"鹿児島県","prefecture_kana":"カゴシマケン","city":"大島郡瀬戸内町","city_kana":"オオシマグンセトウチチョウ","town":"蘇刈","town_kana":"ソカル","prefecture_code":46},"2416":{"zip_code":"8942416","prefecture":"鹿児島県","prefecture_kana":"カゴシマケン","city":"大島郡瀬戸内町","city_kana":"オオシマグンセトウチチョウ","town":"武名","town_kana":"タケナ","prefecture_code":46},"2415":{"zip_code":"8942415","prefecture":"鹿児島県","prefecture_kana":"カゴシマケン","city":"大島郡瀬戸内町","city_kana":"オオシマグンセトウチチョウ","town":"知之浦","town_kana":"チノウラ","prefecture_code":46},"1531":{"zip_code":"8941531","prefecture":"鹿児島県","prefecture_kana":"カゴシマケン","city":"大島郡瀬戸内町","city_kana":"オオシマグンセトウチチョウ","town":"手安","town_kana":"テアン","prefecture_code":46},"2143":{"zip_code":"8942143","prefecture":"鹿児島県","prefecture_kana":"カゴシマケン","city":"大島郡瀬戸内町","city_kana":"オオシマグンセトウチチョウ","town":"渡連","town_kana":"ドレン","prefecture_code":46},"2321":{"zip_code":"8942321","prefecture":"鹿児島県","prefecture_kana":"カゴシマケン","city":"大島郡瀬戸内町","city_kana":"オオシマグンセトウチチョウ","town":"西阿室","town_kana":"ニシアムロ","prefecture_code":46},"1855":{"zip_code":"8941855","prefecture":"鹿児島県","prefecture_kana":"カゴシマケン","city":"大島郡瀬戸内町","city_kana":"オオシマグンセトウチチョウ","town":"西古見","town_kana":"ニシコミ","prefecture_code":46},"2233":{"zip_code":"8942233","prefecture":"鹿児島県","prefecture_kana":"カゴシマケン","city":"大島郡瀬戸内町","city_kana":"オオシマグンセトウチチョウ","town":"野見山","town_kana":"ノミヤマ","prefecture_code":46},"2323":{"zip_code":"8942323","prefecture":"鹿児島県","prefecture_kana":"カゴシマケン","city":"大島郡瀬戸内町","city_kana":"オオシマグンセトウチチョウ","town":"俵","town_kana":"ヒョウ","prefecture_code":46},"2414":{"zip_code":"8942414","prefecture":"鹿児島県","prefecture_kana":"カゴシマケン","city":"大島郡瀬戸内町","city_kana":"オオシマグンセトウチチョウ","town":"三浦","town_kana":"ミウラ","prefecture_code":46},"1745":{"zip_code":"8941745","prefecture":"鹿児島県","prefecture_kana":"カゴシマケン","city":"大島郡瀬戸内町","city_kana":"オオシマグンセトウチチョウ","town":"油井","town_kana":"ユイ","prefecture_code":46},"2601":{"zip_code":"8942601","prefecture":"鹿児島県","prefecture_kana":"カゴシマケン","city":"大島郡瀬戸内町","city_kana":"オオシマグンセトウチチョウ","town":"与路","town_kana":"ヨロ","prefecture_code":46},"0100":{"zip_code":"8940100","prefecture":"鹿児島県","prefecture_kana":"カゴシマケン","city":"大島郡龍郷町","city_kana":"オオシマグンタツゴウチョウ","town":"","town_kana":"","prefecture_code":46},"0411":{"zip_code":"8940411","prefecture":"鹿児島県","prefecture_kana":"カゴシマケン","city":"大島郡龍郷町","city_kana":"オオシマグンタツゴウチョウ","town":"赤尾木","town_kana":"アカオギ","prefecture_code":46},"0333":{"zip_code":"8940333","prefecture":"鹿児島県","prefecture_kana":"カゴシマケン","city":"大島郡龍郷町","city_kana":"オオシマグンタツゴウチョウ","town":"秋名","town_kana":"アキナ","prefecture_code":46},"0412":{"zip_code":"8940412","prefecture":"鹿児島県","prefecture_kana":"カゴシマケン","city":"大島郡龍郷町","city_kana":"オオシマグンタツゴウチョウ","town":"芦徳","town_kana":"アシトク","prefecture_code":46},"0323":{"zip_code":"8940323","prefecture":"鹿児島県","prefecture_kana":"カゴシマケン","city":"大島郡龍郷町","city_kana":"オオシマグンタツゴウチョウ","town":"安木屋場","town_kana":"アンキヤバ","prefecture_code":46},"0332":{"zip_code":"8940332","prefecture":"鹿児島県","prefecture_kana":"カゴシマケン","city":"大島郡龍郷町","city_kana":"オオシマグンタツゴウチョウ","town":"幾里","town_kana":"イクサト","prefecture_code":46},"0104":{"zip_code":"8940104","prefecture":"鹿児島県","prefecture_kana":"カゴシマケン","city":"大島郡龍郷町","city_kana":"オオシマグンタツゴウチョウ","town":"浦","town_kana":"ウラ","prefecture_code":46},"0324":{"zip_code":"8940324","prefecture":"鹿児島県","prefecture_kana":"カゴシマケン","city":"大島郡龍郷町","city_kana":"オオシマグンタツゴウチョウ","town":"円","town_kana":"エン","prefecture_code":46},"0105":{"zip_code":"8940105","prefecture":"鹿児島県","prefecture_kana":"カゴシマケン","city":"大島郡龍郷町","city_kana":"オオシマグンタツゴウチョウ","town":"大勝","town_kana":"オオガチ","prefecture_code":46},"0331":{"zip_code":"8940331","prefecture":"鹿児島県","prefecture_kana":"カゴシマケン","city":"大島郡龍郷町","city_kana":"オオシマグンタツゴウチョウ","town":"嘉渡","town_kana":"カド","prefecture_code":46},"0322":{"zip_code":"8940322","prefecture":"鹿児島県","prefecture_kana":"カゴシマケン","city":"大島郡龍郷町","city_kana":"オオシマグンタツゴウチョウ","town":"久場","town_kana":"クバ","prefecture_code":46},"0102":{"zip_code":"8940102","prefecture":"鹿児島県","prefecture_kana":"カゴシマケン","city":"大島郡龍郷町","city_kana":"オオシマグンタツゴウチョウ","town":"瀬留","town_kana":"セドメ","prefecture_code":46},"0321":{"zip_code":"8940321","prefecture":"鹿児島県","prefecture_kana":"カゴシマケン","city":"大島郡龍郷町","city_kana":"オオシマグンタツゴウチョウ","town":"龍郷","town_kana":"タツゴウ","prefecture_code":46},"0103":{"zip_code":"8940103","prefecture":"鹿児島県","prefecture_kana":"カゴシマケン","city":"大島郡龍郷町","city_kana":"オオシマグンタツゴウチョウ","town":"玉里","town_kana":"タマザト","prefecture_code":46},"0107":{"zip_code":"8940107","prefecture":"鹿児島県","prefecture_kana":"カゴシマケン","city":"大島郡龍郷町","city_kana":"オオシマグンタツゴウチョウ","town":"戸口","town_kana":"トグチ","prefecture_code":46},"0106":{"zip_code":"8940106","prefecture":"鹿児島県","prefecture_kana":"カゴシマケン","city":"大島郡龍郷町","city_kana":"オオシマグンタツゴウチョウ","town":"中勝","town_kana":"ナカガチ","prefecture_code":46},"0101":{"zip_code":"8940101","prefecture":"鹿児島県","prefecture_kana":"カゴシマケン","city":"大島郡龍郷町","city_kana":"オオシマグンタツゴウチョウ","town":"屋入","town_kana":"ヤニュウ","prefecture_code":46}}