{"0000":{"zip_code":"8950000","prefecture":"鹿児島県","prefecture_kana":"カゴシマケン","city":"薩摩川内市","city_kana":"サツマセンダイシ","town":"","town_kana":"","prefecture_code":46},"0044":{"zip_code":"8950044","prefecture":"鹿児島県","prefecture_kana":"カゴシマケン","city":"薩摩川内市","city_kana":"サツマセンダイシ","town":"青山町","town_kana":"アオヤマチョウ","prefecture_code":46},"0011":{"zip_code":"8950011","prefecture":"鹿児島県","prefecture_kana":"カゴシマケン","city":"薩摩川内市","city_kana":"サツマセンダイシ","town":"天辰町","town_kana":"アマタツチョウ","prefecture_code":46},"1402":{"zip_code":"8951402","prefecture":"鹿児島県","prefecture_kana":"カゴシマケン","city":"薩摩川内市","city_kana":"サツマセンダイシ","town":"入来町浦之名","town_kana":"イリキチョウウラノミョウ","prefecture_code":46},"1401":{"zip_code":"8951401","prefecture":"鹿児島県","prefecture_kana":"カゴシマケン","city":"薩摩川内市","city_kana":"サツマセンダイシ","town":"入来町副田","town_kana":"イリキチョウソエダ","prefecture_code":46},"0214":{"zip_code":"8950214","prefecture":"鹿児島県","prefecture_kana":"カゴシマケン","city":"薩摩川内市","city_kana":"サツマセンダイシ","town":"運動公園町","town_kana":"ウンドウコウエンチョウ","prefecture_code":46},"0077":{"zip_code":"8950077","prefecture":"鹿児島県","prefecture_kana":"カゴシマケン","city":"薩摩川内市","city_kana":"サツマセンダイシ","town":"運動公園町","town_kana":"ウンドウコウエンチョウ","prefecture_code":46},"0076":{"zip_code":"8950076","prefecture":"鹿児島県","prefecture_kana":"カゴシマケン","city":"薩摩川内市","city_kana":"サツマセンダイシ","town":"大小路町","town_kana":"オオショウジチョウ","prefecture_code":46},"0035":{"zip_code":"8950035","prefecture":"鹿児島県","prefecture_kana":"カゴシマケン","city":"薩摩川内市","city_kana":"サツマセンダイシ","town":"尾白江町","town_kana":"オジロエチョウ","prefecture_code":46},"0031":{"zip_code":"8950031","prefecture":"鹿児島県","prefecture_kana":"カゴシマケン","city":"薩摩川内市","city_kana":"サツマセンダイシ","town":"勝目町","town_kana":"カチメチョウ","prefecture_code":46},"0067":{"zip_code":"8950067","prefecture":"鹿児島県","prefecture_kana":"カゴシマケン","city":"薩摩川内市","city_kana":"サツマセンダイシ","town":"上川内町","town_kana":"カミセンダイチョウ","prefecture_code":46},"0033":{"zip_code":"8950033","prefecture":"鹿児島県","prefecture_kana":"カゴシマケン","city":"薩摩川内市","city_kana":"サツマセンダイシ","town":"川永野町","town_kana":"カワナガノチョウ","prefecture_code":46},"0052":{"zip_code":"8950052","prefecture":"鹿児島県","prefecture_kana":"カゴシマケン","city":"薩摩川内市","city_kana":"サツマセンダイシ","town":"神田町","town_kana":"カンダチョウ","prefecture_code":46},"0004":{"zip_code":"8950004","prefecture":"鹿児島県","prefecture_kana":"カゴシマケン","city":"薩摩川内市","city_kana":"サツマセンダイシ","town":"久住町","town_kana":"クジュウチョウ","prefecture_code":46},"0002":{"zip_code":"8950002","prefecture":"鹿児島県","prefecture_kana":"カゴシマケン","city":"薩摩川内市","city_kana":"サツマセンダイシ","town":"楠元町","town_kana":"クスモトチョウ","prefecture_code":46},"0041":{"zip_code":"8950041","prefecture":"鹿児島県","prefecture_kana":"カゴシマケン","city":"薩摩川内市","city_kana":"サツマセンダイシ","town":"隈之城町","town_kana":"クマノジョウチョウ","prefecture_code":46},"0132":{"zip_code":"8950132","prefecture":"鹿児島県","prefecture_kana":"カゴシマケン","city":"薩摩川内市","city_kana":"サツマセンダイシ","town":"久見崎町","town_kana":"グミサキチョウ","prefecture_code":46},"1502":{"zip_code":"8951502","prefecture":"鹿児島県","prefecture_kana":"カゴシマケン","city":"薩摩川内市","city_kana":"サツマセンダイシ","town":"祁答院町藺牟田","town_kana":"ケドウインチョウイムタ","prefecture_code":46},"1503":{"zip_code":"8951503","prefecture":"鹿児島県","prefecture_kana":"カゴシマケン","city":"薩摩川内市","city_kana":"サツマセンダイシ","town":"祁答院町上手","town_kana":"ケドウインチョウカミデ","prefecture_code":46},"1504":{"zip_code":"8951504","prefecture":"鹿児島県","prefecture_kana":"カゴシマケン","city":"薩摩川内市","city_kana":"サツマセンダイシ","town":"祁答院町黒木","town_kana":"ケドウインチョウクロキ","prefecture_code":46},"1501":{"zip_code":"8951501","prefecture":"鹿児島県","prefecture_kana":"カゴシマケン","city":"薩摩川内市","city_kana":"サツマセンダイシ","town":"祁答院町下手","town_kana":"ケドウインチョウシモデ","prefecture_code":46},"0073":{"zip_code":"8950073","prefecture":"鹿児島県","prefecture_kana":"カゴシマケン","city":"薩摩川内市","city_kana":"サツマセンダイシ","town":"国分寺町","town_kana":"コクブンジチョウ","prefecture_code":46},"0066":{"zip_code":"8950066","prefecture":"鹿児島県","prefecture_kana":"カゴシマケン","city":"薩摩川内市","city_kana":"サツマセンダイシ","town":"五代町","town_kana":"ゴダイチョウ","prefecture_code":46},"0034":{"zip_code":"8950034","prefecture":"鹿児島県","prefecture_kana":"カゴシマケン","city":"薩摩川内市","city_kana":"サツマセンダイシ","town":"木場茶屋町","town_kana":"コバンチャヤチョウ","prefecture_code":46},"0061":{"zip_code":"8950061","prefecture":"鹿児島県","prefecture_kana":"カゴシマケン","city":"薩摩川内市","city_kana":"サツマセンダイシ","town":"御陵下町","town_kana":"ゴリョウシタチョウ","prefecture_code":46},"0213":{"zip_code":"8950213","prefecture":"鹿児島県","prefecture_kana":"カゴシマケン","city":"薩摩川内市","city_kana":"サツマセンダイシ","town":"城上町","town_kana":"ジョウカミチョウ","prefecture_code":46},"0001":{"zip_code":"8950001","prefecture":"鹿児島県","prefecture_kana":"カゴシマケン","city":"薩摩川内市","city_kana":"サツマセンダイシ","town":"白浜町","town_kana":"シラハマチョウ","prefecture_code":46},"0022":{"zip_code":"8950022","prefecture":"鹿児島県","prefecture_kana":"カゴシマケン","city":"薩摩川内市","city_kana":"サツマセンダイシ","town":"白和町","town_kana":"シラワチョウ","prefecture_code":46},"0062":{"zip_code":"8950062","prefecture":"鹿児島県","prefecture_kana":"カゴシマケン","city":"薩摩川内市","city_kana":"サツマセンダイシ","town":"大王町","town_kana":"ダイオウチョウ","prefecture_code":46},"0071":{"zip_code":"8950071","prefecture":"鹿児島県","prefecture_kana":"カゴシマケン","city":"薩摩川内市","city_kana":"サツマセンダイシ","town":"田海町","town_kana":"タウミチョウ","prefecture_code":46},"0131":{"zip_code":"8950131","prefecture":"鹿児島県","prefecture_kana":"カゴシマケン","city":"薩摩川内市","city_kana":"サツマセンダイシ","town":"高江町","town_kana":"タカエチョウ","prefecture_code":46},"0211":{"zip_code":"8950211","prefecture":"鹿児島県","prefecture_kana":"カゴシマケン","city":"薩摩川内市","city_kana":"サツマセンダイシ","town":"高城町","town_kana":"タキチョウ","prefecture_code":46},"0006":{"zip_code":"8950006","prefecture":"鹿児島県","prefecture_kana":"カゴシマケン","city":"薩摩川内市","city_kana":"サツマセンダイシ","town":"田崎町","town_kana":"タサキチョウ","prefecture_code":46},"0072":{"zip_code":"8950072","prefecture":"鹿児島県","prefecture_kana":"カゴシマケン","city":"薩摩川内市","city_kana":"サツマセンダイシ","town":"中郷町","town_kana":"チュウゴウチョウ","prefecture_code":46},"1106":{"zip_code":"8951106","prefecture":"鹿児島県","prefecture_kana":"カゴシマケン","city":"薩摩川内市","city_kana":"サツマセンダイシ","town":"東郷町斧渕","town_kana":"トウゴウチョウオノブチ","prefecture_code":46},"1101":{"zip_code":"8951101","prefecture":"鹿児島県","prefecture_kana":"カゴシマケン","city":"薩摩川内市","city_kana":"サツマセンダイシ","town":"東郷町宍野","town_kana":"トウゴウチョウシシノ","prefecture_code":46},"1103":{"zip_code":"8951103","prefecture":"鹿児島県","prefecture_kana":"カゴシマケン","city":"薩摩川内市","city_kana":"サツマセンダイシ","town":"東郷町鳥丸","town_kana":"トウゴウチョウトリマル","prefecture_code":46},"1105":{"zip_code":"8951105","prefecture":"鹿児島県","prefecture_kana":"カゴシマケン","city":"薩摩川内市","city_kana":"サツマセンダイシ","town":"東郷町南瀬","town_kana":"トウゴウチョウノウゼ","prefecture_code":46},"1102":{"zip_code":"8951102","prefecture":"鹿児島県","prefecture_kana":"カゴシマケン","city":"薩摩川内市","city_kana":"サツマセンダイシ","town":"東郷町藤川","town_kana":"トウゴウチョウフジカワ","prefecture_code":46},"1104":{"zip_code":"8951104","prefecture":"鹿児島県","prefecture_kana":"カゴシマケン","city":"薩摩川内市","city_kana":"サツマセンダイシ","town":"東郷町山田","town_kana":"トウゴウチョウヤマダ","prefecture_code":46},"0024":{"zip_code":"8950024","prefecture":"鹿児島県","prefecture_kana":"カゴシマケン","city":"薩摩川内市","city_kana":"サツマセンダイシ","town":"鳥追町","town_kana":"トリオイチョウ","prefecture_code":46},"0005":{"zip_code":"8950005","prefecture":"鹿児島県","prefecture_kana":"カゴシマケン","city":"薩摩川内市","city_kana":"サツマセンダイシ","town":"永利町","town_kana":"ナガトシチョウ","prefecture_code":46},"0042":{"zip_code":"8950042","prefecture":"鹿児島県","prefecture_kana":"カゴシマケン","city":"薩摩川内市","city_kana":"サツマセンダイシ","town":"中福良町","town_kana":"ナカフクラチョウ","prefecture_code":46},"0003":{"zip_code":"8950003","prefecture":"鹿児島県","prefecture_kana":"カゴシマケン","city":"薩摩川内市","city_kana":"サツマセンダイシ","town":"中村町","town_kana":"ナカムラチョウ","prefecture_code":46},"0055":{"zip_code":"8950055","prefecture":"鹿児島県","prefecture_kana":"カゴシマケン","city":"薩摩川内市","city_kana":"サツマセンダイシ","town":"西開聞町","town_kana":"ニシカイモンチョウ","prefecture_code":46},"0027":{"zip_code":"8950027","prefecture":"鹿児島県","prefecture_kana":"カゴシマケン","city":"薩摩川内市","city_kana":"サツマセンダイシ","town":"西向田町","town_kana":"ニシムコウダチョウ","prefecture_code":46},"0064":{"zip_code":"8950064","prefecture":"鹿児島県","prefecture_kana":"カゴシマケン","city":"薩摩川内市","city_kana":"サツマセンダイシ","town":"花木町","town_kana":"ハナキチョウ","prefecture_code":46},"0074":{"zip_code":"8950074","prefecture":"鹿児島県","prefecture_kana":"カゴシマケン","city":"薩摩川内市","city_kana":"サツマセンダイシ","town":"原田町","town_kana":"ハラダチョウ","prefecture_code":46},"0075":{"zip_code":"8950075","prefecture":"鹿児島県","prefecture_kana":"カゴシマケン","city":"薩摩川内市","city_kana":"サツマセンダイシ","town":"東大小路町","town_kana":"ヒガシオオショウジチョウ","prefecture_code":46},"0051":{"zip_code":"8950051","prefecture":"鹿児島県","prefecture_kana":"カゴシマケン","city":"薩摩川内市","city_kana":"サツマセンダイシ","town":"東開聞町","town_kana":"ヒガシカイモンチョウ","prefecture_code":46},"0026":{"zip_code":"8950026","prefecture":"鹿児島県","prefecture_kana":"カゴシマケン","city":"薩摩川内市","city_kana":"サツマセンダイシ","town":"東向田町","town_kana":"ヒガシムコウダチョウ","prefecture_code":46},"0053":{"zip_code":"8950053","prefecture":"鹿児島県","prefecture_kana":"カゴシマケン","city":"薩摩川内市","city_kana":"サツマセンダイシ","town":"冷水町","town_kana":"ヒヤミズチョウ","prefecture_code":46},"0012":{"zip_code":"8950012","prefecture":"鹿児島県","prefecture_kana":"カゴシマケン","city":"薩摩川内市","city_kana":"サツマセンダイシ","town":"平佐町","town_kana":"ヒラサチョウ","prefecture_code":46},"1203":{"zip_code":"8951203","prefecture":"鹿児島県","prefecture_kana":"カゴシマケン","city":"薩摩川内市","city_kana":"サツマセンダイシ","town":"樋脇町市比野","town_kana":"ヒワキチョウイチヒノ","prefecture_code":46},"1201":{"zip_code":"8951201","prefecture":"鹿児島県","prefecture_kana":"カゴシマケン","city":"薩摩川内市","city_kana":"サツマセンダイシ","town":"樋脇町倉野","town_kana":"ヒワキチョウクラノ","prefecture_code":46},"1202":{"zip_code":"8951202","prefecture":"鹿児島県","prefecture_kana":"カゴシマケン","city":"薩摩川内市","city_kana":"サツマセンダイシ","town":"樋脇町塔之原","town_kana":"ヒワキチョウトウノハラ","prefecture_code":46},"0065":{"zip_code":"8950065","prefecture":"鹿児島県","prefecture_kana":"カゴシマケン","city":"薩摩川内市","city_kana":"サツマセンダイシ","town":"宮内町","town_kana":"ミヤウチチョウ","prefecture_code":46},"0043":{"zip_code":"8950043","prefecture":"鹿児島県","prefecture_kana":"カゴシマケン","city":"薩摩川内市","city_kana":"サツマセンダイシ","town":"都町","town_kana":"ミヤコチョウ","prefecture_code":46},"0013":{"zip_code":"8950013","prefecture":"鹿児島県","prefecture_kana":"カゴシマケン","city":"薩摩川内市","city_kana":"サツマセンダイシ","town":"宮崎町","town_kana":"ミヤザキチョウ","prefecture_code":46},"0056":{"zip_code":"8950056","prefecture":"鹿児島県","prefecture_kana":"カゴシマケン","city":"薩摩川内市","city_kana":"サツマセンダイシ","town":"宮里町","town_kana":"ミヤザトチョウ","prefecture_code":46},"0025":{"zip_code":"8950025","prefecture":"鹿児島県","prefecture_kana":"カゴシマケン","city":"薩摩川内市","city_kana":"サツマセンダイシ","town":"向田町","town_kana":"ムコウダチョウ","prefecture_code":46},"0021":{"zip_code":"8950021","prefecture":"鹿児島県","prefecture_kana":"カゴシマケン","city":"薩摩川内市","city_kana":"サツマセンダイシ","town":"向田本町","town_kana":"ムコウダホンマチ","prefecture_code":46},"0007":{"zip_code":"8950007","prefecture":"鹿児島県","prefecture_kana":"カゴシマケン","city":"薩摩川内市","city_kana":"サツマセンダイシ","town":"百次町","town_kana":"モモツギチョウ","prefecture_code":46},"0036":{"zip_code":"8950036","prefecture":"鹿児島県","prefecture_kana":"カゴシマケン","city":"薩摩川内市","city_kana":"サツマセンダイシ","town":"矢倉町","town_kana":"ヤグラチョウ","prefecture_code":46},"0032":{"zip_code":"8950032","prefecture":"鹿児島県","prefecture_kana":"カゴシマケン","city":"薩摩川内市","city_kana":"サツマセンダイシ","town":"山之口町","town_kana":"ヤマノクチチョウ","prefecture_code":46},"0212":{"zip_code":"8950212","prefecture":"鹿児島県","prefecture_kana":"カゴシマケン","city":"薩摩川内市","city_kana":"サツマセンダイシ","town":"陽成町","town_kana":"ヨウゼイチョウ","prefecture_code":46},"0023":{"zip_code":"8950023","prefecture":"鹿児島県","prefecture_kana":"カゴシマケン","city":"薩摩川内市","city_kana":"サツマセンダイシ","town":"横馬場町","town_kana":"ヨコババチョウ","prefecture_code":46},"0133":{"zip_code":"8950133","prefecture":"鹿児島県","prefecture_kana":"カゴシマケン","city":"薩摩川内市","city_kana":"サツマセンダイシ","town":"寄田町","town_kana":"ヨリタチョウ","prefecture_code":46},"0063":{"zip_code":"8950063","prefecture":"鹿児島県","prefecture_kana":"カゴシマケン","city":"薩摩川内市","city_kana":"サツマセンダイシ","town":"若葉町","town_kana":"ワカバチョウ","prefecture_code":46},"0054":{"zip_code":"8950054","prefecture":"鹿児島県","prefecture_kana":"カゴシマケン","city":"薩摩川内市","city_kana":"サツマセンダイシ","town":"若松町","town_kana":"ワカマツチョウ","prefecture_code":46},"2500":{"zip_code":"8952500","prefecture":"鹿児島県","prefecture_kana":"カゴシマケン","city":"伊佐市","city_kana":"イサシ","town":"","town_kana":"","prefecture_code":46},"2504":{"zip_code":"8952504","prefecture":"鹿児島県","prefecture_kana":"カゴシマケン","city":"伊佐市","city_kana":"イサシ","town":"大口青木","town_kana":"オオクチアオキ","prefecture_code":46},"2501":{"zip_code":"8952501","prefecture":"鹿児島県","prefecture_kana":"カゴシマケン","city":"伊佐市","city_kana":"イサシ","town":"大口牛尾","town_kana":"オオクチウシオ","prefecture_code":46},"2522":{"zip_code":"8952522","prefecture":"鹿児島県","prefecture_kana":"カゴシマケン","city":"伊佐市","city_kana":"イサシ","town":"大口大島","town_kana":"オオクチオオシマ","prefecture_code":46},"2507":{"zip_code":"8952507","prefecture":"鹿児島県","prefecture_kana":"カゴシマケン","city":"伊佐市","city_kana":"イサシ","town":"大口大田","town_kana":"オオクチオオタ","prefecture_code":46},"2523":{"zip_code":"8952523","prefecture":"鹿児島県","prefecture_kana":"カゴシマケン","city":"伊佐市","city_kana":"イサシ","town":"大口金波田","town_kana":"オオクチカナハダ","prefecture_code":46},"2513":{"zip_code":"8952513","prefecture":"鹿児島県","prefecture_kana":"カゴシマケン","city":"伊佐市","city_kana":"イサシ","town":"大口上町","town_kana":"オオクチカミマチ","prefecture_code":46},"2528":{"zip_code":"8952528","prefecture":"鹿児島県","prefecture_kana":"カゴシマケン","city":"伊佐市","city_kana":"イサシ","town":"大口川岩瀬","town_kana":"オオクチカワイワゼ","prefecture_code":46},"2502":{"zip_code":"8952502","prefecture":"鹿児島県","prefecture_kana":"カゴシマケン","city":"伊佐市","city_kana":"イサシ","town":"大口木ノ氏","town_kana":"オオクチキノウジ","prefecture_code":46},"2634":{"zip_code":"8952634","prefecture":"鹿児島県","prefecture_kana":"カゴシマケン","city":"伊佐市","city_kana":"イサシ","town":"大口小川内","town_kana":"オオクチコガワウチ","prefecture_code":46},"2631":{"zip_code":"8952631","prefecture":"鹿児島県","prefecture_kana":"カゴシマケン","city":"伊佐市","city_kana":"イサシ","town":"大口小木原","town_kana":"オオクチコギハラ","prefecture_code":46},"2511":{"zip_code":"8952511","prefecture":"鹿児島県","prefecture_kana":"カゴシマケン","city":"伊佐市","city_kana":"イサシ","town":"大口里","town_kana":"オオクチサト","prefecture_code":46},"2503":{"zip_code":"8952503","prefecture":"鹿児島県","prefecture_kana":"カゴシマケン","city":"伊佐市","city_kana":"イサシ","town":"大口篠原","town_kana":"オオクチシノハラ","prefecture_code":46},"2525":{"zip_code":"8952525","prefecture":"鹿児島県","prefecture_kana":"カゴシマケン","city":"伊佐市","city_kana":"イサシ","town":"大口下殿","town_kana":"オオクチシモトノ","prefecture_code":46},"2529":{"zip_code":"8952529","prefecture":"鹿児島県","prefecture_kana":"カゴシマケン","city":"伊佐市","city_kana":"イサシ","town":"大口白木","town_kana":"オオクチシラキ","prefecture_code":46},"2441":{"zip_code":"8952441","prefecture":"鹿児島県","prefecture_kana":"カゴシマケン","city":"伊佐市","city_kana":"イサシ","town":"大口曽木","town_kana":"オオクチソギ","prefecture_code":46},"2527":{"zip_code":"8952527","prefecture":"鹿児島県","prefecture_kana":"カゴシマケン","city":"伊佐市","city_kana":"イサシ","town":"大口田代","town_kana":"オオクチタシロ","prefecture_code":46},"2524":{"zip_code":"8952524","prefecture":"鹿児島県","prefecture_kana":"カゴシマケン","city":"伊佐市","city_kana":"イサシ","town":"大口堂崎","town_kana":"オオクチドウザキ","prefecture_code":46},"2521":{"zip_code":"8952521","prefecture":"鹿児島県","prefecture_kana":"カゴシマケン","city":"伊佐市","city_kana":"イサシ","town":"大口鳥巣","town_kana":"オオクチトリス","prefecture_code":46},"2506":{"zip_code":"8952506","prefecture":"鹿児島県","prefecture_kana":"カゴシマケン","city":"伊佐市","city_kana":"イサシ","town":"大口原田","town_kana":"オオクチハラダ","prefecture_code":46},"2442":{"zip_code":"8952442","prefecture":"鹿児島県","prefecture_kana":"カゴシマケン","city":"伊佐市","city_kana":"イサシ","town":"大口針持","town_kana":"オオクチハリモチ","prefecture_code":46},"2633":{"zip_code":"8952633","prefecture":"鹿児島県","prefecture_kana":"カゴシマケン","city":"伊佐市","city_kana":"イサシ","town":"大口平出水","town_kana":"オオクチヒライズミ","prefecture_code":46},"2632":{"zip_code":"8952632","prefecture":"鹿児島県","prefecture_kana":"カゴシマケン","city":"伊佐市","city_kana":"イサシ","town":"大口渕辺","town_kana":"オオクチフチベ","prefecture_code":46},"2526":{"zip_code":"8952526","prefecture":"鹿児島県","prefecture_kana":"カゴシマケン","city":"伊佐市","city_kana":"イサシ","town":"大口宮人","town_kana":"オオクチミヤヒト","prefecture_code":46},"2505":{"zip_code":"8952505","prefecture":"鹿児島県","prefecture_kana":"カゴシマケン","city":"伊佐市","city_kana":"イサシ","town":"大口目丸","town_kana":"オオクチメマル","prefecture_code":46},"2512":{"zip_code":"8952512","prefecture":"鹿児島県","prefecture_kana":"カゴシマケン","city":"伊佐市","city_kana":"イサシ","town":"大口元町","town_kana":"オオクチモトマチ","prefecture_code":46},"2635":{"zip_code":"8952635","prefecture":"鹿児島県","prefecture_kana":"カゴシマケン","city":"伊佐市","city_kana":"イサシ","town":"大口山野","town_kana":"オオクチヤマノ","prefecture_code":46},"2811":{"zip_code":"8952811","prefecture":"鹿児島県","prefecture_kana":"カゴシマケン","city":"伊佐市","city_kana":"イサシ","town":"菱刈荒田","town_kana":"ヒシカリアラタ","prefecture_code":46},"2704":{"zip_code":"8952704","prefecture":"鹿児島県","prefecture_kana":"カゴシマケン","city":"伊佐市","city_kana":"イサシ","town":"菱刈市山","town_kana":"ヒシカリイチヤマ","prefecture_code":46},"2708":{"zip_code":"8952708","prefecture":"鹿児島県","prefecture_kana":"カゴシマケン","city":"伊佐市","city_kana":"イサシ","town":"菱刈川北","town_kana":"ヒシカリカワキタ","prefecture_code":46},"2812":{"zip_code":"8952812","prefecture":"鹿児島県","prefecture_kana":"カゴシマケン","city":"伊佐市","city_kana":"イサシ","town":"菱刈川南","town_kana":"ヒシカリカワミナミ","prefecture_code":46},"2705":{"zip_code":"8952705","prefecture":"鹿児島県","prefecture_kana":"カゴシマケン","city":"伊佐市","city_kana":"イサシ","town":"菱刈重留","town_kana":"ヒシカリシゲトメ","prefecture_code":46},"2702":{"zip_code":"8952702","prefecture":"鹿児島県","prefecture_kana":"カゴシマケン","city":"伊佐市","city_kana":"イサシ","town":"菱刈下手","town_kana":"ヒシカリシモデ","prefecture_code":46},"2706":{"zip_code":"8952706","prefecture":"鹿児島県","prefecture_kana":"カゴシマケン","city":"伊佐市","city_kana":"イサシ","town":"菱刈田中","town_kana":"ヒシカリタナカ","prefecture_code":46},"2707":{"zip_code":"8952707","prefecture":"鹿児島県","prefecture_kana":"カゴシマケン","city":"伊佐市","city_kana":"イサシ","town":"菱刈徳辺","town_kana":"ヒシカリトクベ","prefecture_code":46},"2703":{"zip_code":"8952703","prefecture":"鹿児島県","prefecture_kana":"カゴシマケン","city":"伊佐市","city_kana":"イサシ","town":"菱刈花北","town_kana":"ヒシカリハナキタ","prefecture_code":46},"2701":{"zip_code":"8952701","prefecture":"鹿児島県","prefecture_kana":"カゴシマケン","city":"伊佐市","city_kana":"イサシ","town":"菱刈前目","town_kana":"ヒシカリマエメ","prefecture_code":46},"2813":{"zip_code":"8952813","prefecture":"鹿児島県","prefecture_kana":"カゴシマケン","city":"伊佐市","city_kana":"イサシ","town":"菱刈南浦","town_kana":"ヒシカリミナミウラ","prefecture_code":46},"1800":{"zip_code":"8951800","prefecture":"鹿児島県","prefecture_kana":"カゴシマケン","city":"薩摩郡さつま町","city_kana":"サツマグンサツマチョウ","town":"","town_kana":"","prefecture_code":46},"1814":{"zip_code":"8951814","prefecture":"鹿児島県","prefecture_kana":"カゴシマケン","city":"薩摩郡さつま町","city_kana":"サツマグンサツマチョウ","town":"旭町","town_kana":"アサヒマチ","prefecture_code":46},"2104":{"zip_code":"8952104","prefecture":"鹿児島県","prefecture_kana":"カゴシマケン","city":"薩摩郡さつま町","city_kana":"サツマグンサツマチョウ","town":"柏原","town_kana":"カシワバル","prefecture_code":46},"2131":{"zip_code":"8952131","prefecture":"鹿児島県","prefecture_kana":"カゴシマケン","city":"薩摩郡さつま町","city_kana":"サツマグンサツマチョウ","town":"柊野","town_kana":"クキノ","prefecture_code":46},"1722":{"zip_code":"8951722","prefecture":"鹿児島県","prefecture_kana":"カゴシマケン","city":"薩摩郡さつま町","city_kana":"サツマグンサツマチョウ","town":"久富木","town_kana":"クブキ","prefecture_code":46},"2201":{"zip_code":"8952201","prefecture":"鹿児島県","prefecture_kana":"カゴシマケン","city":"薩摩郡さつま町","city_kana":"サツマグンサツマチョウ","town":"求名","town_kana":"グミョウ","prefecture_code":46},"2102":{"zip_code":"8952102","prefecture":"鹿児島県","prefecture_kana":"カゴシマケン","city":"薩摩郡さつま町","city_kana":"サツマグンサツマチョウ","town":"神子","town_kana":"コウシ","prefecture_code":46},"2103":{"zip_code":"8952103","prefecture":"鹿児島県","prefecture_kana":"カゴシマケン","city":"薩摩郡さつま町","city_kana":"サツマグンサツマチョウ","town":"紫尾","town_kana":"シビ","prefecture_code":46},"1805":{"zip_code":"8951805","prefecture":"鹿児島県","prefecture_kana":"カゴシマケン","city":"薩摩郡さつま町","city_kana":"サツマグンサツマチョウ","town":"白男川","town_kana":"シラオガワ","prefecture_code":46},"1802":{"zip_code":"8951802","prefecture":"鹿児島県","prefecture_kana":"カゴシマケン","city":"薩摩郡さつま町","city_kana":"サツマグンサツマチョウ","town":"田原","town_kana":"タバル","prefecture_code":46},"2101":{"zip_code":"8952101","prefecture":"鹿児島県","prefecture_kana":"カゴシマケン","city":"薩摩郡さつま町","city_kana":"サツマグンサツマチョウ","town":"鶴田","town_kana":"ツルダ","prefecture_code":46},"1816":{"zip_code":"8951816","prefecture":"鹿児島県","prefecture_kana":"カゴシマケン","city":"薩摩郡さつま町","city_kana":"サツマグンサツマチョウ","town":"時吉","town_kana":"トキヨシ","prefecture_code":46},"1813":{"zip_code":"8951813","prefecture":"鹿児島県","prefecture_kana":"カゴシマケン","city":"薩摩郡さつま町","city_kana":"サツマグンサツマチョウ","town":"轟町","town_kana":"トドロマチ","prefecture_code":46},"1806":{"zip_code":"8951806","prefecture":"鹿児島県","prefecture_kana":"カゴシマケン","city":"薩摩郡さつま町","city_kana":"サツマグンサツマチョウ","town":"泊野","town_kana":"トマリノ","prefecture_code":46},"1811":{"zip_code":"8951811","prefecture":"鹿児島県","prefecture_kana":"カゴシマケン","city":"薩摩郡さつま町","city_kana":"サツマグンサツマチョウ","town":"虎居","town_kana":"トライ","prefecture_code":46},"1812":{"zip_code":"8951812","prefecture":"鹿児島県","prefecture_kana":"カゴシマケン","city":"薩摩郡さつま町","city_kana":"サツマグンサツマチョウ","town":"虎居町","town_kana":"トライマチ","prefecture_code":46},"2202":{"zip_code":"8952202","prefecture":"鹿児島県","prefecture_kana":"カゴシマケン","city":"薩摩郡さつま町","city_kana":"サツマグンサツマチョウ","town":"中津川","town_kana":"ナカツガワ","prefecture_code":46},"2203":{"zip_code":"8952203","prefecture":"鹿児島県","prefecture_kana":"カゴシマケン","city":"薩摩郡さつま町","city_kana":"サツマグンサツマチョウ","town":"永野","town_kana":"ナガノ","prefecture_code":46},"1815":{"zip_code":"8951815","prefecture":"鹿児島県","prefecture_kana":"カゴシマケン","city":"薩摩郡さつま町","city_kana":"サツマグンサツマチョウ","town":"西新町","town_kana":"ニシシンマチ","prefecture_code":46},"1807":{"zip_code":"8951807","prefecture":"鹿児島県","prefecture_kana":"カゴシマケン","city":"薩摩郡さつま町","city_kana":"サツマグンサツマチョウ","town":"平川","town_kana":"ヒラカワ","prefecture_code":46},"1801":{"zip_code":"8951801","prefecture":"鹿児島県","prefecture_kana":"カゴシマケン","city":"薩摩郡さつま町","city_kana":"サツマグンサツマチョウ","town":"広瀬","town_kana":"ヒロセ","prefecture_code":46},"1723":{"zip_code":"8951723","prefecture":"鹿児島県","prefecture_kana":"カゴシマケン","city":"薩摩郡さつま町","city_kana":"サツマグンサツマチョウ","town":"二渡","town_kana":"フタワタリ","prefecture_code":46},"1804":{"zip_code":"8951804","prefecture":"鹿児島県","prefecture_kana":"カゴシマケン","city":"薩摩郡さつま町","city_kana":"サツマグンサツマチョウ","town":"船木","town_kana":"フナキ","prefecture_code":46},"1803":{"zip_code":"8951803","prefecture":"鹿児島県","prefecture_kana":"カゴシマケン","city":"薩摩郡さつま町","city_kana":"サツマグンサツマチョウ","town":"宮之城屋地","town_kana":"ミヤノジョウヤチ","prefecture_code":46},"1721":{"zip_code":"8951721","prefecture":"鹿児島県","prefecture_kana":"カゴシマケン","city":"薩摩郡さつま町","city_kana":"サツマグンサツマチョウ","town":"山崎","town_kana":"ヤマサキ","prefecture_code":46},"1817":{"zip_code":"8951817","prefecture":"鹿児島県","prefecture_kana":"カゴシマケン","city":"薩摩郡さつま町","city_kana":"サツマグンサツマチョウ","town":"湯田","town_kana":"ユダ","prefecture_code":46}}