{"1301":{"zip_code":"8961301","prefecture":"鹿児島県","prefecture_kana":"カゴシマケン","city":"薩摩川内市","city_kana":"サツマセンダイシ","town":"鹿島町藺牟田","town_kana":"カシマチョウイムタ","prefecture_code":46},"1203":{"zip_code":"8961203","prefecture":"鹿児島県","prefecture_kana":"カゴシマケン","city":"薩摩川内市","city_kana":"サツマセンダイシ","town":"上甑町江石","town_kana":"カミコシキチョウエイシ","prefecture_code":46},"1204":{"zip_code":"8961204","prefecture":"鹿児島県","prefecture_kana":"カゴシマケン","city":"薩摩川内市","city_kana":"サツマセンダイシ","town":"上甑町小島","town_kana":"カミコシキチョウオシマ","prefecture_code":46},"1206":{"zip_code":"8961206","prefecture":"鹿児島県","prefecture_kana":"カゴシマケン","city":"薩摩川内市","city_kana":"サツマセンダイシ","town":"上甑町桑之浦","town_kana":"カミコシキチョウクワノウラ","prefecture_code":46},"1205":{"zip_code":"8961205","prefecture":"鹿児島県","prefecture_kana":"カゴシマケン","city":"薩摩川内市","city_kana":"サツマセンダイシ","town":"上甑町瀬上","town_kana":"カミコシキチョウセガミ","prefecture_code":46},"1281":{"zip_code":"8961281","prefecture":"鹿児島県","prefecture_kana":"カゴシマケン","city":"薩摩川内市","city_kana":"サツマセンダイシ","town":"上甑町平良","town_kana":"カミコシキチョウタイラ","prefecture_code":46},"1201":{"zip_code":"8961201","prefecture":"鹿児島県","prefecture_kana":"カゴシマケン","city":"薩摩川内市","city_kana":"サツマセンダイシ","town":"上甑町中甑","town_kana":"カミコシキチョウナカコシキ","prefecture_code":46},"1202":{"zip_code":"8961202","prefecture":"鹿児島県","prefecture_kana":"カゴシマケン","city":"薩摩川内市","city_kana":"サツマセンダイシ","town":"上甑町中野","town_kana":"カミコシキチョウナカノ","prefecture_code":46},"1101":{"zip_code":"8961101","prefecture":"鹿児島県","prefecture_kana":"カゴシマケン","city":"薩摩川内市","city_kana":"サツマセンダイシ","town":"里町里","town_kana":"サトチョウサト","prefecture_code":46},"1521":{"zip_code":"8961521","prefecture":"鹿児島県","prefecture_kana":"カゴシマケン","city":"薩摩川内市","city_kana":"サツマセンダイシ","town":"下甑町青瀬","town_kana":"シモコシキチョウアオセ","prefecture_code":46},"1602":{"zip_code":"8961602","prefecture":"鹿児島県","prefecture_kana":"カゴシマケン","city":"薩摩川内市","city_kana":"サツマセンダイシ","town":"下甑町片野浦","town_kana":"シモコシキチョウカタノウラ","prefecture_code":46},"1412":[{"zip_code":"8961412","prefecture":"鹿児島県","prefecture_kana":"カゴシマケン","city":"薩摩川内市","city_kana":"サツマセンダイシ","town":"下甑町瀬々野浦","town_kana":"シモコシキチョウセセノウラ","prefecture_code":46},{"zip_code":"8961412","prefecture":"鹿児島県","prefecture_kana":"カゴシマケン","city":"薩摩川内市","city_kana":"サツマセンダイシ","town":"下甑町瀬々野浦内川内","town_kana":"シモコシキチョウセセノウラウチカワウチ","prefecture_code":46}],"1512":{"zip_code":"8961512","prefecture":"鹿児島県","prefecture_kana":"カゴシマケン","city":"薩摩川内市","city_kana":"サツマセンダイシ","town":"下甑町瀬々野浦","town_kana":"シモコシキチョウセセノウラ","prefecture_code":46},"1601":{"zip_code":"8961601","prefecture":"鹿児島県","prefecture_kana":"カゴシマケン","city":"薩摩川内市","city_kana":"サツマセンダイシ","town":"下甑町手打","town_kana":"シモコシキチョウテウチ","prefecture_code":46},"1411":{"zip_code":"8961411","prefecture":"鹿児島県","prefecture_kana":"カゴシマケン","city":"薩摩川内市","city_kana":"サツマセンダイシ","town":"下甑町長浜","town_kana":"シモコシキチョウナガハマ","prefecture_code":46},"0000":{"zip_code":"8960000","prefecture":"鹿児島県","prefecture_kana":"カゴシマケン","city":"いちき串木野市","city_kana":"イチキクシキノシ","town":"","town_kana":"","prefecture_code":46},"0061":{"zip_code":"8960061","prefecture":"鹿児島県","prefecture_kana":"カゴシマケン","city":"いちき串木野市","city_kana":"イチキクシキノシ","town":"愛木町","town_kana":"アイギチョウ","prefecture_code":46},"0001":{"zip_code":"8960001","prefecture":"鹿児島県","prefecture_kana":"カゴシマケン","city":"いちき串木野市","city_kana":"イチキクシキノシ","town":"曙町","town_kana":"アケボノチョウ","prefecture_code":46},"0015":{"zip_code":"8960015","prefecture":"鹿児島県","prefecture_kana":"カゴシマケン","city":"いちき串木野市","city_kana":"イチキクシキノシ","town":"旭町","town_kana":"アサヒマチ","prefecture_code":46},"0065":{"zip_code":"8960065","prefecture":"鹿児島県","prefecture_kana":"カゴシマケン","city":"いちき串木野市","city_kana":"イチキクシキノシ","town":"荒川","town_kana":"アラカワ","prefecture_code":46},"0036":{"zip_code":"8960036","prefecture":"鹿児島県","prefecture_kana":"カゴシマケン","city":"いちき串木野市","city_kana":"イチキクシキノシ","town":"浦和町","town_kana":"ウラワチョウ","prefecture_code":46},"0027":{"zip_code":"8960027","prefecture":"鹿児島県","prefecture_kana":"カゴシマケン","city":"いちき串木野市","city_kana":"イチキクシキノシ","town":"恵比須町","town_kana":"エビスチョウ","prefecture_code":46},"0011":{"zip_code":"8960011","prefecture":"鹿児島県","prefecture_kana":"カゴシマケン","city":"いちき串木野市","city_kana":"イチキクシキノシ","town":"大原町","town_kana":"オオハルマチ","prefecture_code":46},"0025":{"zip_code":"8960025","prefecture":"鹿児島県","prefecture_kana":"カゴシマケン","city":"いちき串木野市","city_kana":"イチキクシキノシ","town":"御倉町","town_kana":"オクラチョウ","prefecture_code":46},"0057":{"zip_code":"8960057","prefecture":"鹿児島県","prefecture_kana":"カゴシマケン","city":"いちき串木野市","city_kana":"イチキクシキノシ","town":"海瀬","town_kana":"カイゼ","prefecture_code":46},"0002":{"zip_code":"8960002","prefecture":"鹿児島県","prefecture_kana":"カゴシマケン","city":"いちき串木野市","city_kana":"イチキクシキノシ","town":"春日町","town_kana":"カスガチョウ","prefecture_code":46},"0079":{"zip_code":"8960079","prefecture":"鹿児島県","prefecture_kana":"カゴシマケン","city":"いちき串木野市","city_kana":"イチキクシキノシ","town":"河内","town_kana":"カワウチ","prefecture_code":46},"0052":{"zip_code":"8960052","prefecture":"鹿児島県","prefecture_kana":"カゴシマケン","city":"いちき串木野市","city_kana":"イチキクシキノシ","town":"上名","town_kana":"カンミョウ","prefecture_code":46},"0051":{"zip_code":"8960051","prefecture":"鹿児島県","prefecture_kana":"カゴシマケン","city":"いちき串木野市","city_kana":"イチキクシキノシ","town":"冠嶽","town_kana":"カンムリダケ","prefecture_code":46},"0041":{"zip_code":"8960041","prefecture":"鹿児島県","prefecture_kana":"カゴシマケン","city":"いちき串木野市","city_kana":"イチキクシキノシ","town":"北浜町","town_kana":"キタハマチョウ","prefecture_code":46},"0003":{"zip_code":"8960003","prefecture":"鹿児島県","prefecture_kana":"カゴシマケン","city":"いちき串木野市","city_kana":"イチキクシキノシ","town":"京町","town_kana":"キョウマチ","prefecture_code":46},"0075":{"zip_code":"8960075","prefecture":"鹿児島県","prefecture_kana":"カゴシマケン","city":"いちき串木野市","city_kana":"イチキクシキノシ","town":"金山","town_kana":"キンザン","prefecture_code":46},"0074":{"zip_code":"8960074","prefecture":"鹿児島県","prefecture_kana":"カゴシマケン","city":"いちき串木野市","city_kana":"イチキクシキノシ","town":"金山下","town_kana":"キンザンシモ","prefecture_code":46},"0063":{"zip_code":"8960063","prefecture":"鹿児島県","prefecture_kana":"カゴシマケン","city":"いちき串木野市","city_kana":"イチキクシキノシ","town":"口之町","town_kana":"クチノマチ","prefecture_code":46},"0034":{"zip_code":"8960034","prefecture":"鹿児島県","prefecture_kana":"カゴシマケン","city":"いちき串木野市","city_kana":"イチキクシキノシ","town":"小瀬町","town_kana":"コゼチョウ","prefecture_code":46},"0013":{"zip_code":"8960013","prefecture":"鹿児島県","prefecture_kana":"カゴシマケン","city":"いちき串木野市","city_kana":"イチキクシキノシ","town":"栄町","town_kana":"サカエマチ","prefecture_code":46},"0016":{"zip_code":"8960016","prefecture":"鹿児島県","prefecture_kana":"カゴシマケン","city":"いちき串木野市","city_kana":"イチキクシキノシ","town":"桜町","town_kana":"サクラマチ","prefecture_code":46},"0072":{"zip_code":"8960072","prefecture":"鹿児島県","prefecture_kana":"カゴシマケン","city":"いちき串木野市","city_kana":"イチキクシキノシ","town":"薩摩山","town_kana":"サツマヤマ","prefecture_code":46},"0004":{"zip_code":"8960004","prefecture":"鹿児島県","prefecture_kana":"カゴシマケン","city":"いちき串木野市","city_kana":"イチキクシキノシ","town":"汐見町","town_kana":"シオミチョウ","prefecture_code":46},"0023":{"zip_code":"8960023","prefecture":"鹿児島県","prefecture_kana":"カゴシマケン","city":"いちき串木野市","city_kana":"イチキクシキノシ","town":"塩屋町","town_kana":"シオヤチョウ","prefecture_code":46},"0026":{"zip_code":"8960026","prefecture":"鹿児島県","prefecture_kana":"カゴシマケン","city":"いちき串木野市","city_kana":"イチキクシキノシ","town":"昭和通","town_kana":"ショウワドオリ","prefecture_code":46},"0035":{"zip_code":"8960035","prefecture":"鹿児島県","prefecture_kana":"カゴシマケン","city":"いちき串木野市","city_kana":"イチキクシキノシ","town":"新生町","town_kana":"シンセイチョウ","prefecture_code":46},"0021":{"zip_code":"8960021","prefecture":"鹿児島県","prefecture_kana":"カゴシマケン","city":"いちき串木野市","city_kana":"イチキクシキノシ","town":"住吉町","town_kana":"スミヨシチョウ","prefecture_code":46},"0046":{"zip_code":"8960046","prefecture":"鹿児島県","prefecture_kana":"カゴシマケン","city":"いちき串木野市","city_kana":"イチキクシキノシ","town":"西薩町","town_kana":"セイサツチョウ","prefecture_code":46},"0078":{"zip_code":"8960078","prefecture":"鹿児島県","prefecture_kana":"カゴシマケン","city":"いちき串木野市","city_kana":"イチキクシキノシ","town":"生福","town_kana":"セイフク","prefecture_code":46},"0076":{"zip_code":"8960076","prefecture":"鹿児島県","prefecture_kana":"カゴシマケン","city":"いちき串木野市","city_kana":"イチキクシキノシ","town":"芹ケ野","town_kana":"セリガノ","prefecture_code":46},"0017":{"zip_code":"8960017","prefecture":"鹿児島県","prefecture_kana":"カゴシマケン","city":"いちき串木野市","city_kana":"イチキクシキノシ","town":"高見町","town_kana":"タカミチョウ","prefecture_code":46},"0055":{"zip_code":"8960055","prefecture":"鹿児島県","prefecture_kana":"カゴシマケン","city":"いちき串木野市","city_kana":"イチキクシキノシ","town":"照島","town_kana":"テルシマ","prefecture_code":46},"0012":{"zip_code":"8960012","prefecture":"鹿児島県","prefecture_kana":"カゴシマケン","city":"いちき串木野市","city_kana":"イチキクシキノシ","town":"中尾町","town_kana":"ナカオチョウ","prefecture_code":46},"0033":{"zip_code":"8960033","prefecture":"鹿児島県","prefecture_kana":"カゴシマケン","city":"いちき串木野市","city_kana":"イチキクシキノシ","town":"長崎町","town_kana":"ナガサキチョウ","prefecture_code":46},"0005":{"zip_code":"8960005","prefecture":"鹿児島県","prefecture_kana":"カゴシマケン","city":"いちき串木野市","city_kana":"イチキクシキノシ","town":"西塩田町","town_kana":"ニシエンデンチョウ","prefecture_code":46},"0032":{"zip_code":"8960032","prefecture":"鹿児島県","prefecture_kana":"カゴシマケン","city":"いちき串木野市","city_kana":"イチキクシキノシ","town":"西島平町","town_kana":"ニシシマビラチョウ","prefecture_code":46},"0044":{"zip_code":"8960044","prefecture":"鹿児島県","prefecture_kana":"カゴシマケン","city":"いちき串木野市","city_kana":"イチキクシキノシ","town":"西浜町","town_kana":"ニシハマチョウ","prefecture_code":46},"0073":{"zip_code":"8960073","prefecture":"鹿児島県","prefecture_kana":"カゴシマケン","city":"いちき串木野市","city_kana":"イチキクシキノシ","town":"野下","town_kana":"ノシタ","prefecture_code":46},"0066":{"zip_code":"8960066","prefecture":"鹿児島県","prefecture_kana":"カゴシマケン","city":"いちき串木野市","city_kana":"イチキクシキノシ","town":"野元","town_kana":"ノモト","prefecture_code":46},"0058":{"zip_code":"8960058","prefecture":"鹿児島県","prefecture_kana":"カゴシマケン","city":"いちき串木野市","city_kana":"イチキクシキノシ","town":"袴田","town_kana":"ハカマダ","prefecture_code":46},"0064":{"zip_code":"8960064","prefecture":"鹿児島県","prefecture_kana":"カゴシマケン","city":"いちき串木野市","city_kana":"イチキクシキノシ","town":"羽島","town_kana":"ハシマ","prefecture_code":46},"0069":{"zip_code":"8960069","prefecture":"鹿児島県","prefecture_kana":"カゴシマケン","city":"いちき串木野市","city_kana":"イチキクシキノシ","town":"浜ケ城","town_kana":"ハマガジョウ","prefecture_code":46},"0062":{"zip_code":"8960062","prefecture":"鹿児島県","prefecture_kana":"カゴシマケン","city":"いちき串木野市","city_kana":"イチキクシキノシ","town":"浜田町","town_kana":"ハマダチョウ","prefecture_code":46},"0006":{"zip_code":"8960006","prefecture":"鹿児島県","prefecture_kana":"カゴシマケン","city":"いちき串木野市","city_kana":"イチキクシキノシ","town":"東塩田町","town_kana":"ヒガシエンデンチョウ","prefecture_code":46},"0031":{"zip_code":"8960031","prefecture":"鹿児島県","prefecture_kana":"カゴシマケン","city":"いちき串木野市","city_kana":"イチキクシキノシ","town":"東島平町","town_kana":"ヒガシシマビラチョウ","prefecture_code":46},"0054":{"zip_code":"8960054","prefecture":"鹿児島県","prefecture_kana":"カゴシマケン","city":"いちき串木野市","city_kana":"イチキクシキノシ","town":"日出町","town_kana":"ヒノデチョウ","prefecture_code":46},"0028":{"zip_code":"8960028","prefecture":"鹿児島県","prefecture_kana":"カゴシマケン","city":"いちき串木野市","city_kana":"イチキクシキノシ","town":"ひばりが丘","town_kana":"ヒバリガオカ","prefecture_code":46},"0067":{"zip_code":"8960067","prefecture":"鹿児島県","prefecture_kana":"カゴシマケン","city":"いちき串木野市","city_kana":"イチキクシキノシ","town":"平江","town_kana":"ヒラエ","prefecture_code":46},"0071":{"zip_code":"8960071","prefecture":"鹿児島県","prefecture_kana":"カゴシマケン","city":"いちき串木野市","city_kana":"イチキクシキノシ","town":"深田上","town_kana":"フカタカミ","prefecture_code":46},"0077":{"zip_code":"8960077","prefecture":"鹿児島県","prefecture_kana":"カゴシマケン","city":"いちき串木野市","city_kana":"イチキクシキノシ","town":"深田下","town_kana":"フカタシモ","prefecture_code":46},"0037":{"zip_code":"8960037","prefecture":"鹿児島県","prefecture_kana":"カゴシマケン","city":"いちき串木野市","city_kana":"イチキクシキノシ","town":"別府","town_kana":"ベップ","prefecture_code":46},"0045":{"zip_code":"8960045","prefecture":"鹿児島県","prefecture_kana":"カゴシマケン","city":"いちき串木野市","city_kana":"イチキクシキノシ","town":"まぐろ本町","town_kana":"マグロホンマチ","prefecture_code":46},"0024":{"zip_code":"8960024","prefecture":"鹿児島県","prefecture_kana":"カゴシマケン","city":"いちき串木野市","city_kana":"イチキクシキノシ","town":"美住町","town_kana":"ミスミチョウ","prefecture_code":46},"0068":{"zip_code":"8960068","prefecture":"鹿児島県","prefecture_kana":"カゴシマケン","city":"いちき串木野市","city_kana":"イチキクシキノシ","town":"三井","town_kana":"ミツイ","prefecture_code":46},"0022":{"zip_code":"8960022","prefecture":"鹿児島県","prefecture_kana":"カゴシマケン","city":"いちき串木野市","city_kana":"イチキクシキノシ","town":"緑町","town_kana":"ミドリマチ","prefecture_code":46},"0043":{"zip_code":"8960043","prefecture":"鹿児島県","prefecture_kana":"カゴシマケン","city":"いちき串木野市","city_kana":"イチキクシキノシ","town":"港町","town_kana":"ミナトマチ","prefecture_code":46},"0042":{"zip_code":"8960042","prefecture":"鹿児島県","prefecture_kana":"カゴシマケン","city":"いちき串木野市","city_kana":"イチキクシキノシ","town":"本浜町","town_kana":"モトハマチョウ","prefecture_code":46},"0014":{"zip_code":"8960014","prefecture":"鹿児島県","prefecture_kana":"カゴシマケン","city":"いちき串木野市","city_kana":"イチキクシキノシ","town":"元町","town_kana":"モトマチ","prefecture_code":46},"0056":{"zip_code":"8960056","prefecture":"鹿児島県","prefecture_kana":"カゴシマケン","city":"いちき串木野市","city_kana":"イチキクシキノシ","town":"八房","town_kana":"ヤフサ","prefecture_code":46}}