{"0000":{"zip_code":"8980000","prefecture":"鹿児島県","prefecture_kana":"カゴシマケン","city":"枕崎市","city_kana":"マクラザキシ","town":"","town_kana":"","prefecture_code":46},"0080":{"zip_code":"8980080","prefecture":"鹿児島県","prefecture_kana":"カゴシマケン","city":"枕崎市","city_kana":"マクラザキシ","town":"あけぼの町","town_kana":"アケボノチョウ","prefecture_code":46},"0008":{"zip_code":"8980008","prefecture":"鹿児島県","prefecture_kana":"カゴシマケン","city":"枕崎市","city_kana":"マクラザキシ","town":"旭町","town_kana":"アサヒマチ","prefecture_code":46},"0006":{"zip_code":"8980006","prefecture":"鹿児島県","prefecture_kana":"カゴシマケン","city":"枕崎市","city_kana":"マクラザキシ","town":"泉町","town_kana":"イズミマチ","prefecture_code":46},"0084":{"zip_code":"8980084","prefecture":"鹿児島県","prefecture_kana":"カゴシマケン","city":"枕崎市","city_kana":"マクラザキシ","town":"板敷西町","town_kana":"イタシキニシマチ","prefecture_code":46},"0082":{"zip_code":"8980082","prefecture":"鹿児島県","prefecture_kana":"カゴシマケン","city":"枕崎市","city_kana":"マクラザキシ","town":"板敷本町","town_kana":"イタシキホンマチ","prefecture_code":46},"0083":{"zip_code":"8980083","prefecture":"鹿児島県","prefecture_kana":"カゴシマケン","city":"枕崎市","city_kana":"マクラザキシ","town":"板敷南町","town_kana":"イタシキミナミマチ","prefecture_code":46},"0052":{"zip_code":"8980052","prefecture":"鹿児島県","prefecture_kana":"カゴシマケン","city":"枕崎市","city_kana":"マクラザキシ","town":"岩崎町","town_kana":"イワサキチョウ","prefecture_code":46},"0058":{"zip_code":"8980058","prefecture":"鹿児島県","prefecture_kana":"カゴシマケン","city":"枕崎市","city_kana":"マクラザキシ","town":"岩戸町","town_kana":"イワドチョウ","prefecture_code":46},"0009":{"zip_code":"8980009","prefecture":"鹿児島県","prefecture_kana":"カゴシマケン","city":"枕崎市","city_kana":"マクラザキシ","town":"恵比須町","town_kana":"エビスチョウ","prefecture_code":46},"0026":{"zip_code":"8980026","prefecture":"鹿児島県","prefecture_kana":"カゴシマケン","city":"枕崎市","city_kana":"マクラザキシ","town":"大塚北町","town_kana":"オオツカキタマチ","prefecture_code":46},"0028":{"zip_code":"8980028","prefecture":"鹿児島県","prefecture_kana":"カゴシマケン","city":"枕崎市","city_kana":"マクラザキシ","town":"大塚中町","town_kana":"オオツカナカマチ","prefecture_code":46},"0027":{"zip_code":"8980027","prefecture":"鹿児島県","prefecture_kana":"カゴシマケン","city":"枕崎市","city_kana":"マクラザキシ","town":"大塚西町","town_kana":"オオツカニシマチ","prefecture_code":46},"0029":{"zip_code":"8980029","prefecture":"鹿児島県","prefecture_kana":"カゴシマケン","city":"枕崎市","city_kana":"マクラザキシ","town":"大塚南町","town_kana":"オオツカミナミマチ","prefecture_code":46},"0003":{"zip_code":"8980003","prefecture":"鹿児島県","prefecture_kana":"カゴシマケン","city":"枕崎市","city_kana":"マクラザキシ","town":"折口町","town_kana":"オリグチチョウ","prefecture_code":46},"0054":{"zip_code":"8980054","prefecture":"鹿児島県","prefecture_kana":"カゴシマケン","city":"枕崎市","city_kana":"マクラザキシ","town":"鹿篭麓町","town_kana":"カゴフモトマチ","prefecture_code":46},"0044":{"zip_code":"8980044","prefecture":"鹿児島県","prefecture_kana":"カゴシマケン","city":"枕崎市","city_kana":"マクラザキシ","town":"春日町","town_kana":"カスガチョウ","prefecture_code":46},"0098":{"zip_code":"8980098","prefecture":"鹿児島県","prefecture_kana":"カゴシマケン","city":"枕崎市","city_kana":"マクラザキシ","town":"茅野町","town_kana":"カヤノチョウ","prefecture_code":46},"0057":{"zip_code":"8980057","prefecture":"鹿児島県","prefecture_kana":"カゴシマケン","city":"枕崎市","city_kana":"マクラザキシ","town":"木原町","town_kana":"キハラチョウ","prefecture_code":46},"0066":{"zip_code":"8980066","prefecture":"鹿児島県","prefecture_kana":"カゴシマケン","city":"枕崎市","city_kana":"マクラザキシ","town":"清水町","town_kana":"キヨミズマチ","prefecture_code":46},"0076":{"zip_code":"8980076","prefecture":"鹿児島県","prefecture_kana":"カゴシマケン","city":"枕崎市","city_kana":"マクラザキシ","town":"金山町","town_kana":"キンザンチョウ","prefecture_code":46},"0074":{"zip_code":"8980074","prefecture":"鹿児島県","prefecture_kana":"カゴシマケン","city":"枕崎市","city_kana":"マクラザキシ","town":"金山西町","town_kana":"キンザンニシマチ","prefecture_code":46},"0088":{"zip_code":"8980088","prefecture":"鹿児島県","prefecture_kana":"カゴシマケン","city":"枕崎市","city_kana":"マクラザキシ","town":"国見町","town_kana":"クニミチョウ","prefecture_code":46},"0099":{"zip_code":"8980099","prefecture":"鹿児島県","prefecture_kana":"カゴシマケン","city":"枕崎市","city_kana":"マクラザキシ","town":"小塚町","town_kana":"コツカチョウ","prefecture_code":46},"0062":{"zip_code":"8980062","prefecture":"鹿児島県","prefecture_kana":"カゴシマケン","city":"枕崎市","city_kana":"マクラザキシ","town":"寿町","town_kana":"コトブキチョウ","prefecture_code":46},"0053":{"zip_code":"8980053","prefecture":"鹿児島県","prefecture_kana":"カゴシマケン","city":"枕崎市","city_kana":"マクラザキシ","town":"木場町","town_kana":"コバチョウ","prefecture_code":46},"0094":{"zip_code":"8980094","prefecture":"鹿児島県","prefecture_kana":"カゴシマケン","city":"枕崎市","city_kana":"マクラザキシ","town":"駒水町","town_kana":"コマミズチョウ","prefecture_code":46},"0038":{"zip_code":"8980038","prefecture":"鹿児島県","prefecture_kana":"カゴシマケン","city":"枕崎市","city_kana":"マクラザキシ","town":"栄中町","town_kana":"サカエナカマチ","prefecture_code":46},"0037":{"zip_code":"8980037","prefecture":"鹿児島県","prefecture_kana":"カゴシマケン","city":"枕崎市","city_kana":"マクラザキシ","town":"栄本町","town_kana":"サカエホンマチ","prefecture_code":46},"0018":{"zip_code":"8980018","prefecture":"鹿児島県","prefecture_kana":"カゴシマケン","city":"枕崎市","city_kana":"マクラザキシ","town":"桜木町","town_kana":"サクラギチョウ","prefecture_code":46},"0073":{"zip_code":"8980073","prefecture":"鹿児島県","prefecture_kana":"カゴシマケン","city":"枕崎市","city_kana":"マクラザキシ","town":"桜山上町","town_kana":"サクラヤマカミマチ","prefecture_code":46},"0061":{"zip_code":"8980061","prefecture":"鹿児島県","prefecture_kana":"カゴシマケン","city":"枕崎市","city_kana":"マクラザキシ","town":"桜山町","town_kana":"サクラヤマチョウ","prefecture_code":46},"0055":{"zip_code":"8980055","prefecture":"鹿児島県","prefecture_kana":"カゴシマケン","city":"枕崎市","city_kana":"マクラザキシ","town":"桜山西町","town_kana":"サクラヤマニシマチ","prefecture_code":46},"0065":{"zip_code":"8980065","prefecture":"鹿児島県","prefecture_kana":"カゴシマケン","city":"枕崎市","city_kana":"マクラザキシ","town":"桜山東町","town_kana":"サクラヤマヒガシマチ","prefecture_code":46},"0064":{"zip_code":"8980064","prefecture":"鹿児島県","prefecture_kana":"カゴシマケン","city":"枕崎市","city_kana":"マクラザキシ","town":"桜山本町","town_kana":"サクラヤマホンマチ","prefecture_code":46},"0097":{"zip_code":"8980097","prefecture":"鹿児島県","prefecture_kana":"カゴシマケン","city":"枕崎市","city_kana":"マクラザキシ","town":"里町","town_kana":"サトマチ","prefecture_code":46},"0002":{"zip_code":"8980002","prefecture":"鹿児島県","prefecture_kana":"カゴシマケン","city":"枕崎市","city_kana":"マクラザキシ","town":"汐見町","town_kana":"シオミチョウ","prefecture_code":46},"0041":{"zip_code":"8980041","prefecture":"鹿児島県","prefecture_kana":"カゴシマケン","city":"枕崎市","city_kana":"マクラザキシ","town":"塩屋北町","town_kana":"シオヤキタマチ","prefecture_code":46},"0042":{"zip_code":"8980042","prefecture":"鹿児島県","prefecture_kana":"カゴシマケン","city":"枕崎市","city_kana":"マクラザキシ","town":"塩屋南町","town_kana":"シオヤミナミマチ","prefecture_code":46},"0095":{"zip_code":"8980095","prefecture":"鹿児島県","prefecture_kana":"カゴシマケン","city":"枕崎市","city_kana":"マクラザキシ","town":"下松町","town_kana":"シモマツチョウ","prefecture_code":46},"0089":{"zip_code":"8980089","prefecture":"鹿児島県","prefecture_kana":"カゴシマケン","city":"枕崎市","city_kana":"マクラザキシ","town":"白沢北町","town_kana":"シラサワキタマチ","prefecture_code":46},"0092":{"zip_code":"8980092","prefecture":"鹿児島県","prefecture_kana":"カゴシマケン","city":"枕崎市","city_kana":"マクラザキシ","town":"白沢西町","town_kana":"シラサワニシマチ","prefecture_code":46},"0091":{"zip_code":"8980091","prefecture":"鹿児島県","prefecture_kana":"カゴシマケン","city":"枕崎市","city_kana":"マクラザキシ","town":"白沢東町","town_kana":"シラサワヒガシマチ","prefecture_code":46},"0007":{"zip_code":"8980007","prefecture":"鹿児島県","prefecture_kana":"カゴシマケン","city":"枕崎市","city_kana":"マクラザキシ","town":"新町","town_kana":"シンマチ","prefecture_code":46},"0017":{"zip_code":"8980017","prefecture":"鹿児島県","prefecture_kana":"カゴシマケン","city":"枕崎市","city_kana":"マクラザキシ","town":"住吉町","town_kana":"スミヨシチョウ","prefecture_code":46},"0087":{"zip_code":"8980087","prefecture":"鹿児島県","prefecture_kana":"カゴシマケン","city":"枕崎市","city_kana":"マクラザキシ","town":"瀬戸町","town_kana":"セトチョウ","prefecture_code":46},"0047":{"zip_code":"8980047","prefecture":"鹿児島県","prefecture_kana":"カゴシマケン","city":"枕崎市","city_kana":"マクラザキシ","town":"園見西町","town_kana":"ソノミニシマチ","prefecture_code":46},"0046":{"zip_code":"8980046","prefecture":"鹿児島県","prefecture_kana":"カゴシマケン","city":"枕崎市","city_kana":"マクラザキシ","town":"園見本町","town_kana":"ソノミホンマチ","prefecture_code":46},"0016":{"zip_code":"8980016","prefecture":"鹿児島県","prefecture_kana":"カゴシマケン","city":"枕崎市","city_kana":"マクラザキシ","town":"高見町","town_kana":"タカミチョウ","prefecture_code":46},"0045":{"zip_code":"8980045","prefecture":"鹿児島県","prefecture_kana":"カゴシマケン","city":"枕崎市","city_kana":"マクラザキシ","town":"立神北町","town_kana":"タテガミキタマチ","prefecture_code":46},"0025":{"zip_code":"8980025","prefecture":"鹿児島県","prefecture_kana":"カゴシマケン","city":"枕崎市","city_kana":"マクラザキシ","town":"立神本町","town_kana":"タテガミホンマチ","prefecture_code":46},"0075":{"zip_code":"8980075","prefecture":"鹿児島県","prefecture_kana":"カゴシマケン","city":"枕崎市","city_kana":"マクラザキシ","town":"田布川町","town_kana":"タブガワチョウ","prefecture_code":46},"0051":{"zip_code":"8980051","prefecture":"鹿児島県","prefecture_kana":"カゴシマケン","city":"枕崎市","city_kana":"マクラザキシ","town":"中央町","town_kana":"チュウオウチョウ","prefecture_code":46},"0012":{"zip_code":"8980012","prefecture":"鹿児島県","prefecture_kana":"カゴシマケン","city":"枕崎市","city_kana":"マクラザキシ","town":"千代田町","town_kana":"チヨダチョウ","prefecture_code":46},"0081":{"zip_code":"8980081","prefecture":"鹿児島県","prefecture_kana":"カゴシマケン","city":"枕崎市","city_kana":"マクラザキシ","town":"豊留町","town_kana":"トヨトメマチ","prefecture_code":46},"0005":{"zip_code":"8980005","prefecture":"鹿児島県","prefecture_kana":"カゴシマケン","city":"枕崎市","city_kana":"マクラザキシ","town":"中町","town_kana":"ナカマチ","prefecture_code":46},"0024":{"zip_code":"8980024","prefecture":"鹿児島県","prefecture_kana":"カゴシマケン","city":"枕崎市","city_kana":"マクラザキシ","town":"西鹿篭","town_kana":"ニシカゴ","prefecture_code":46},"0015":{"zip_code":"8980015","prefecture":"鹿児島県","prefecture_kana":"カゴシマケン","city":"枕崎市","city_kana":"マクラザキシ","town":"西本町","town_kana":"ニシホンマチ","prefecture_code":46},"0093":{"zip_code":"8980093","prefecture":"鹿児島県","prefecture_kana":"カゴシマケン","city":"枕崎市","city_kana":"マクラザキシ","town":"仁田浦町","town_kana":"ニタウラチョウ","prefecture_code":46},"0021":{"zip_code":"8980021","prefecture":"鹿児島県","prefecture_kana":"カゴシマケン","city":"枕崎市","city_kana":"マクラザキシ","town":"東鹿篭","town_kana":"ヒガシカゴ","prefecture_code":46},"0014":{"zip_code":"8980014","prefecture":"鹿児島県","prefecture_kana":"カゴシマケン","city":"枕崎市","city_kana":"マクラザキシ","town":"東本町","town_kana":"ヒガシホンマチ","prefecture_code":46},"0043":{"zip_code":"8980043","prefecture":"鹿児島県","prefecture_kana":"カゴシマケン","city":"枕崎市","city_kana":"マクラザキシ","town":"火之神北町","town_kana":"ヒノカミキタマチ","prefecture_code":46},"0048":{"zip_code":"8980048","prefecture":"鹿児島県","prefecture_kana":"カゴシマケン","city":"枕崎市","city_kana":"マクラザキシ","town":"火之神町","town_kana":"ヒノカミチョウ","prefecture_code":46},"0049":{"zip_code":"8980049","prefecture":"鹿児島県","prefecture_kana":"カゴシマケン","city":"枕崎市","city_kana":"マクラザキシ","town":"火之神岬町","town_kana":"ヒノカミミサキチョウ","prefecture_code":46},"0034":{"zip_code":"8980034","prefecture":"鹿児島県","prefecture_kana":"カゴシマケン","city":"枕崎市","city_kana":"マクラザキシ","town":"日之出町","town_kana":"ヒノデチョウ","prefecture_code":46},"0035":{"zip_code":"8980035","prefecture":"鹿児島県","prefecture_kana":"カゴシマケン","city":"枕崎市","city_kana":"マクラザキシ","town":"平田町","town_kana":"ヒラタマチ","prefecture_code":46},"0032":{"zip_code":"8980032","prefecture":"鹿児島県","prefecture_kana":"カゴシマケン","city":"枕崎市","city_kana":"マクラザキシ","town":"別府","town_kana":"ベップ","prefecture_code":46},"0086":{"zip_code":"8980086","prefecture":"鹿児島県","prefecture_kana":"カゴシマケン","city":"枕崎市","city_kana":"マクラザキシ","town":"別府西町","town_kana":"ベップニシマチ","prefecture_code":46},"0085":{"zip_code":"8980085","prefecture":"鹿児島県","prefecture_kana":"カゴシマケン","city":"枕崎市","city_kana":"マクラザキシ","town":"別府東町","town_kana":"ベップヒガシマチ","prefecture_code":46},"0096":{"zip_code":"8980096","prefecture":"鹿児島県","prefecture_kana":"カゴシマケン","city":"枕崎市","city_kana":"マクラザキシ","town":"まかや町","town_kana":"マカヤマチ","prefecture_code":46},"0031":{"zip_code":"8980031","prefecture":"鹿児島県","prefecture_kana":"カゴシマケン","city":"枕崎市","city_kana":"マクラザキシ","town":"枕崎","town_kana":"マクラザキ","prefecture_code":46},"0001":{"zip_code":"8980001","prefecture":"鹿児島県","prefecture_kana":"カゴシマケン","city":"枕崎市","city_kana":"マクラザキシ","town":"松之尾町","town_kana":"マツノオチョウ","prefecture_code":46},"0072":{"zip_code":"8980072","prefecture":"鹿児島県","prefecture_kana":"カゴシマケン","city":"枕崎市","city_kana":"マクラザキシ","town":"道野町","town_kana":"ミチノチョウ","prefecture_code":46},"0011":{"zip_code":"8980011","prefecture":"鹿児島県","prefecture_kana":"カゴシマケン","city":"枕崎市","city_kana":"マクラザキシ","town":"緑町","town_kana":"ミドリマチ","prefecture_code":46},"0004":{"zip_code":"8980004","prefecture":"鹿児島県","prefecture_kana":"カゴシマケン","city":"枕崎市","city_kana":"マクラザキシ","town":"港町","town_kana":"ミナトマチ","prefecture_code":46},"0056":{"zip_code":"8980056","prefecture":"鹿児島県","prefecture_kana":"カゴシマケン","city":"枕崎市","city_kana":"マクラザキシ","town":"美原町","town_kana":"ミハラマチ","prefecture_code":46},"0022":{"zip_code":"8980022","prefecture":"鹿児島県","prefecture_kana":"カゴシマケン","city":"枕崎市","city_kana":"マクラザキシ","town":"宮田町","town_kana":"ミヤタチョウ","prefecture_code":46},"0033":{"zip_code":"8980033","prefecture":"鹿児島県","prefecture_kana":"カゴシマケン","city":"枕崎市","city_kana":"マクラザキシ","town":"宮前町","town_kana":"ミヤマエチョウ","prefecture_code":46},"0071":{"zip_code":"8980071","prefecture":"鹿児島県","prefecture_kana":"カゴシマケン","city":"枕崎市","city_kana":"マクラザキシ","town":"美山町","town_kana":"ミヤマチョウ","prefecture_code":46},"0063":{"zip_code":"8980063","prefecture":"鹿児島県","prefecture_kana":"カゴシマケン","city":"枕崎市","city_kana":"マクラザキシ","town":"妙見町","town_kana":"ミョウケンマチ","prefecture_code":46},"0036":{"zip_code":"8980036","prefecture":"鹿児島県","prefecture_kana":"カゴシマケン","city":"枕崎市","city_kana":"マクラザキシ","town":"明和町","town_kana":"メイワチョウ","prefecture_code":46},"0013":{"zip_code":"8980013","prefecture":"鹿児島県","prefecture_kana":"カゴシマケン","city":"枕崎市","city_kana":"マクラザキシ","town":"山手町","town_kana":"ヤマテチョウ","prefecture_code":46},"0023":{"zip_code":"8980023","prefecture":"鹿児島県","prefecture_kana":"カゴシマケン","city":"枕崎市","city_kana":"マクラザキシ","town":"若葉町","town_kana":"ワカバチョウ","prefecture_code":46},"0221":{"zip_code":"8980221","prefecture":"鹿児島県","prefecture_kana":"カゴシマケン","city":"南さつま市","city_kana":"ミナミサツマシ","town":"大浦町","town_kana":"オオウラチョウ","prefecture_code":46},"0212":{"zip_code":"8980212","prefecture":"鹿児島県","prefecture_kana":"カゴシマケン","city":"南さつま市","city_kana":"ミナミサツマシ","town":"坊津町秋目","town_kana":"ボウノツチョウアキメ","prefecture_code":46},"0211":{"zip_code":"8980211","prefecture":"鹿児島県","prefecture_kana":"カゴシマケン","city":"南さつま市","city_kana":"ミナミサツマシ","town":"坊津町久志","town_kana":"ボウノツチョウクシ","prefecture_code":46},"0102":{"zip_code":"8980102","prefecture":"鹿児島県","prefecture_kana":"カゴシマケン","city":"南さつま市","city_kana":"ミナミサツマシ","town":"坊津町泊","town_kana":"ボウノツチョウトマリ","prefecture_code":46},"0101":{"zip_code":"8980101","prefecture":"鹿児島県","prefecture_kana":"カゴシマケン","city":"南さつま市","city_kana":"ミナミサツマシ","town":"坊津町坊","town_kana":"ボウノツチョウボウ","prefecture_code":46}}