{"2701":{"zip_code":"8992701","prefecture":"鹿児島県","prefecture_kana":"カゴシマケン","city":"鹿児島市","city_kana":"カゴシマシ","town":"石谷町","town_kana":"イシダニチョウ","prefecture_code":46},"3206":{"zip_code":"8993206","prefecture":"鹿児島県","prefecture_kana":"カゴシマケン","city":"鹿児島市","city_kana":"カゴシマシ","town":"入佐町","town_kana":"イリサチョウ","prefecture_code":46},"2706":{"zip_code":"8992706","prefecture":"鹿児島県","prefecture_kana":"カゴシマケン","city":"鹿児島市","city_kana":"カゴシマシ","town":"入佐町","town_kana":"イリサチョウ","prefecture_code":46},"2703":{"zip_code":"8992703","prefecture":"鹿児島県","prefecture_kana":"カゴシマケン","city":"鹿児島市","city_kana":"カゴシマシ","town":"上谷口町","town_kana":"カミタニグチチョウ","prefecture_code":46},"2531":{"zip_code":"8992531","prefecture":"鹿児島県","prefecture_kana":"カゴシマケン","city":"鹿児島市","city_kana":"カゴシマシ","town":"小山田町","town_kana":"コヤマダチョウ","prefecture_code":46},"2707":{"zip_code":"8992707","prefecture":"鹿児島県","prefecture_kana":"カゴシマケン","city":"鹿児島市","city_kana":"カゴシマシ","town":"松陽台町","town_kana":"ショウヨウダイチョウ","prefecture_code":46},"2705":{"zip_code":"8992705","prefecture":"鹿児島県","prefecture_kana":"カゴシマケン","city":"鹿児島市","city_kana":"カゴシマシ","town":"直木町","town_kana":"ナオキチョウ","prefecture_code":46},"2704":{"zip_code":"8992704","prefecture":"鹿児島県","prefecture_kana":"カゴシマケン","city":"鹿児島市","city_kana":"カゴシマシ","town":"春山町","town_kana":"ハルヤマチョウ","prefecture_code":46},"2709":{"zip_code":"8992709","prefecture":"鹿児島県","prefecture_kana":"カゴシマケン","city":"鹿児島市","city_kana":"カゴシマシ","town":"平田町","town_kana":"ヒラタチョウ","prefecture_code":46},"2702":{"zip_code":"8992702","prefecture":"鹿児島県","prefecture_kana":"カゴシマケン","city":"鹿児島市","city_kana":"カゴシマシ","town":"福山町","town_kana":"フクヤマチョウ","prefecture_code":46},"2708":{"zip_code":"8992708","prefecture":"鹿児島県","prefecture_kana":"カゴシマケン","city":"鹿児島市","city_kana":"カゴシマシ","town":"四元町","town_kana":"ヨツモトチョウ","prefecture_code":46},"8511":{"zip_code":"8998511","prefecture":"鹿児島県","prefecture_kana":"カゴシマケン","city":"鹿屋市","city_kana":"カノヤシ","town":"輝北町市成","town_kana":"キホクチョウイチナリ","prefecture_code":46},"8512":{"zip_code":"8998512","prefecture":"鹿児島県","prefecture_kana":"カゴシマケン","city":"鹿屋市","city_kana":"カノヤシ","town":"輝北町諏訪原","town_kana":"キホクチョウスワバラ","prefecture_code":46},"1600":{"zip_code":"8991600","prefecture":"鹿児島県","prefecture_kana":"カゴシマケン","city":"阿久根市","city_kana":"アクネシ","town":"","town_kana":"","prefecture_code":46},"1611":{"zip_code":"8991611","prefecture":"鹿児島県","prefecture_kana":"カゴシマケン","city":"阿久根市","city_kana":"アクネシ","town":"赤瀬川","town_kana":"アカセガワ","prefecture_code":46},"1741":{"zip_code":"8991741","prefecture":"鹿児島県","prefecture_kana":"カゴシマケン","city":"阿久根市","city_kana":"アクネシ","town":"大川","town_kana":"オオカワ","prefecture_code":46},"1624":{"zip_code":"8991624","prefecture":"鹿児島県","prefecture_kana":"カゴシマケン","city":"阿久根市","city_kana":"アクネシ","town":"大丸町","town_kana":"オオマルチョウ","prefecture_code":46},"1601":{"zip_code":"8991601","prefecture":"鹿児島県","prefecture_kana":"カゴシマケン","city":"阿久根市","city_kana":"アクネシ","town":"折口","town_kana":"オリグチ","prefecture_code":46},"1615":{"zip_code":"8991615","prefecture":"鹿児島県","prefecture_kana":"カゴシマケン","city":"阿久根市","city_kana":"アクネシ","town":"琴平町","town_kana":"コトヒラチョウ","prefecture_code":46},"1616":{"zip_code":"8991616","prefecture":"鹿児島県","prefecture_kana":"カゴシマケン","city":"阿久根市","city_kana":"アクネシ","town":"栄町","town_kana":"サカエマチ","prefecture_code":46},"1628":{"zip_code":"8991628","prefecture":"鹿児島県","prefecture_kana":"カゴシマケン","city":"阿久根市","city_kana":"アクネシ","town":"塩鶴町","town_kana":"シオツルチョウ","prefecture_code":46},"1629":{"zip_code":"8991629","prefecture":"鹿児島県","prefecture_kana":"カゴシマケン","city":"阿久根市","city_kana":"アクネシ","town":"塩浜町","town_kana":"シオハマチョウ","prefecture_code":46},"1613":{"zip_code":"8991613","prefecture":"鹿児島県","prefecture_kana":"カゴシマケン","city":"阿久根市","city_kana":"アクネシ","town":"新町","town_kana":"シンマチ","prefecture_code":46},"1622":{"zip_code":"8991622","prefecture":"鹿児島県","prefecture_kana":"カゴシマケン","city":"阿久根市","city_kana":"アクネシ","town":"高松町","town_kana":"タカマツチョウ","prefecture_code":46},"1602":{"zip_code":"8991602","prefecture":"鹿児島県","prefecture_kana":"カゴシマケン","city":"阿久根市","city_kana":"アクネシ","town":"多田","town_kana":"タダ","prefecture_code":46},"1603":{"zip_code":"8991603","prefecture":"鹿児島県","prefecture_kana":"カゴシマケン","city":"阿久根市","city_kana":"アクネシ","town":"鶴川内","town_kana":"ツルガワウチ","prefecture_code":46},"1626":{"zip_code":"8991626","prefecture":"鹿児島県","prefecture_kana":"カゴシマケン","city":"阿久根市","city_kana":"アクネシ","town":"鶴見町","town_kana":"ツルミチョウ","prefecture_code":46},"1627":{"zip_code":"8991627","prefecture":"鹿児島県","prefecture_kana":"カゴシマケン","city":"阿久根市","city_kana":"アクネシ","town":"西目","town_kana":"ニシメ","prefecture_code":46},"1617":{"zip_code":"8991617","prefecture":"鹿児島県","prefecture_kana":"カゴシマケン","city":"阿久根市","city_kana":"アクネシ","town":"浜町","town_kana":"ハママチ","prefecture_code":46},"1625":{"zip_code":"8991625","prefecture":"鹿児島県","prefecture_kana":"カゴシマケン","city":"阿久根市","city_kana":"アクネシ","town":"波留","town_kana":"ハル","prefecture_code":46},"1614":{"zip_code":"8991614","prefecture":"鹿児島県","prefecture_kana":"カゴシマケン","city":"阿久根市","city_kana":"アクネシ","town":"晴海町","town_kana":"ハルミチョウ","prefecture_code":46},"1621":{"zip_code":"8991621","prefecture":"鹿児島県","prefecture_kana":"カゴシマケン","city":"阿久根市","city_kana":"アクネシ","town":"本町","town_kana":"ホンマチ","prefecture_code":46},"1612":{"zip_code":"8991612","prefecture":"鹿児島県","prefecture_kana":"カゴシマケン","city":"阿久根市","city_kana":"アクネシ","town":"丸尾町","town_kana":"マルオチョウ","prefecture_code":46},"1623":{"zip_code":"8991623","prefecture":"鹿児島県","prefecture_kana":"カゴシマケン","city":"阿久根市","city_kana":"アクネシ","town":"港町","town_kana":"ミナトマチ","prefecture_code":46},"1604":{"zip_code":"8991604","prefecture":"鹿児島県","prefecture_kana":"カゴシマケン","city":"阿久根市","city_kana":"アクネシ","town":"山下","town_kana":"ヤマシタ","prefecture_code":46},"1131":{"zip_code":"8991131","prefecture":"鹿児島県","prefecture_kana":"カゴシマケン","city":"阿久根市","city_kana":"アクネシ","town":"脇本","town_kana":"ワキモト","prefecture_code":46},"0200":{"zip_code":"8990200","prefecture":"鹿児島県","prefecture_kana":"カゴシマケン","city":"出水市","city_kana":"イズミシ","town":"","town_kana":"","prefecture_code":46},"0137":{"zip_code":"8990137","prefecture":"鹿児島県","prefecture_kana":"カゴシマケン","city":"出水市","city_kana":"イズミシ","town":"今釜町","town_kana":"イマガマチョウ","prefecture_code":46},"0134":{"zip_code":"8990134","prefecture":"鹿児島県","prefecture_kana":"カゴシマケン","city":"出水市","city_kana":"イズミシ","town":"浦田町","town_kana":"ウラタチョウ","prefecture_code":46},"0216":{"zip_code":"8990216","prefecture":"鹿児島県","prefecture_kana":"カゴシマケン","city":"出水市","city_kana":"イズミシ","town":"大野原町","town_kana":"オオノハラチョウ","prefecture_code":46},"0341":{"zip_code":"8990341","prefecture":"鹿児島県","prefecture_kana":"カゴシマケン","city":"出水市","city_kana":"イズミシ","town":"上大川内","town_kana":"カミオオカワウチ","prefecture_code":46},"0203":{"zip_code":"8990203","prefecture":"鹿児島県","prefecture_kana":"カゴシマケン","city":"出水市","city_kana":"イズミシ","town":"上鯖渕","town_kana":"カミサバブチ","prefecture_code":46},"0212":{"zip_code":"8990212","prefecture":"鹿児島県","prefecture_kana":"カゴシマケン","city":"出水市","city_kana":"イズミシ","town":"上知識町","town_kana":"カミチシキチョウ","prefecture_code":46},"0125":{"zip_code":"8990125","prefecture":"鹿児島県","prefecture_kana":"カゴシマケン","city":"出水市","city_kana":"イズミシ","town":"黄金町","town_kana":"コガネマチ","prefecture_code":46},"0214":{"zip_code":"8990214","prefecture":"鹿児島県","prefecture_kana":"カゴシマケン","city":"出水市","city_kana":"イズミシ","town":"五万石町","town_kana":"ゴマンゴクチョウ","prefecture_code":46},"0121":{"zip_code":"8990121","prefecture":"鹿児島県","prefecture_kana":"カゴシマケン","city":"出水市","city_kana":"イズミシ","town":"米ノ津町","town_kana":"コメノツマチ","prefecture_code":46},"0122":{"zip_code":"8990122","prefecture":"鹿児島県","prefecture_kana":"カゴシマケン","city":"出水市","city_kana":"イズミシ","town":"境町","town_kana":"サカイチョウ","prefecture_code":46},"0136":{"zip_code":"8990136","prefecture":"鹿児島県","prefecture_kana":"カゴシマケン","city":"出水市","city_kana":"イズミシ","town":"汐見町","town_kana":"シオミチョウ","prefecture_code":46},"0342":{"zip_code":"8990342","prefecture":"鹿児島県","prefecture_kana":"カゴシマケン","city":"出水市","city_kana":"イズミシ","town":"下大川内","town_kana":"シモオオカワウチ","prefecture_code":46},"0123":{"zip_code":"8990123","prefecture":"鹿児島県","prefecture_kana":"カゴシマケン","city":"出水市","city_kana":"イズミシ","town":"下鯖町","town_kana":"シモサバチョウ","prefecture_code":46},"0132":{"zip_code":"8990132","prefecture":"鹿児島県","prefecture_kana":"カゴシマケン","city":"出水市","city_kana":"イズミシ","town":"下知識町","town_kana":"シモチシキチョウ","prefecture_code":46},"0435":{"zip_code":"8990435","prefecture":"鹿児島県","prefecture_kana":"カゴシマケン","city":"出水市","city_kana":"イズミシ","town":"荘","town_kana":"ショウ","prefecture_code":46},"0202":{"zip_code":"8990202","prefecture":"鹿児島県","prefecture_kana":"カゴシマケン","city":"出水市","city_kana":"イズミシ","town":"昭和町","town_kana":"ショウワマチ","prefecture_code":46},"0138":{"zip_code":"8990138","prefecture":"鹿児島県","prefecture_kana":"カゴシマケン","city":"出水市","city_kana":"イズミシ","town":"住吉町","town_kana":"スミヨシチョウ","prefecture_code":46},"0407":{"zip_code":"8990407","prefecture":"鹿児島県","prefecture_kana":"カゴシマケン","city":"出水市","city_kana":"イズミシ","town":"高尾野町江内","town_kana":"タカオノマチエウチ","prefecture_code":46},"0401":{"zip_code":"8990401","prefecture":"鹿児島県","prefecture_kana":"カゴシマケン","city":"出水市","city_kana":"イズミシ","town":"高尾野町大久保","town_kana":"タカオノマチオオクボ","prefecture_code":46},"0406":{"zip_code":"8990406","prefecture":"鹿児島県","prefecture_kana":"カゴシマケン","city":"出水市","city_kana":"イズミシ","town":"高尾野町上水流","town_kana":"タカオノマチカミズル","prefecture_code":46},"0403":{"zip_code":"8990403","prefecture":"鹿児島県","prefecture_kana":"カゴシマケン","city":"出水市","city_kana":"イズミシ","town":"高尾野町唐笠木","town_kana":"タカオノマチカラガサキ","prefecture_code":46},"0402":{"zip_code":"8990402","prefecture":"鹿児島県","prefecture_kana":"カゴシマケン","city":"出水市","city_kana":"イズミシ","town":"高尾野町柴引","town_kana":"タカオノマチシバヒキ","prefecture_code":46},"0405":{"zip_code":"8990405","prefecture":"鹿児島県","prefecture_kana":"カゴシマケン","city":"出水市","city_kana":"イズミシ","town":"高尾野町下水流","town_kana":"タカオノマチシモズル","prefecture_code":46},"0404":{"zip_code":"8990404","prefecture":"鹿児島県","prefecture_kana":"カゴシマケン","city":"出水市","city_kana":"イズミシ","town":"高尾野町下高尾野","town_kana":"タカオノマチシモタカオノ","prefecture_code":46},"0215":{"zip_code":"8990215","prefecture":"鹿児島県","prefecture_kana":"カゴシマケン","city":"出水市","city_kana":"イズミシ","town":"武本","town_kana":"タケモト","prefecture_code":46},"0211":{"zip_code":"8990211","prefecture":"鹿児島県","prefecture_kana":"カゴシマケン","city":"出水市","city_kana":"イズミシ","town":"知識町","town_kana":"チシキチョウ","prefecture_code":46},"0207":{"zip_code":"8990207","prefecture":"鹿児島県","prefecture_kana":"カゴシマケン","city":"出水市","city_kana":"イズミシ","town":"中央町","town_kana":"チュウオウチョウ","prefecture_code":46},"0213":{"zip_code":"8990213","prefecture":"鹿児島県","prefecture_kana":"カゴシマケン","city":"出水市","city_kana":"イズミシ","town":"西出水町","town_kana":"ニシイズミチョウ","prefecture_code":46},"0501":{"zip_code":"8990501","prefecture":"鹿児島県","prefecture_kana":"カゴシマケン","city":"出水市","city_kana":"イズミシ","town":"野田町上名","town_kana":"ノダチョウカミミョウ","prefecture_code":46},"0502":{"zip_code":"8990502","prefecture":"鹿児島県","prefecture_kana":"カゴシマケン","city":"出水市","city_kana":"イズミシ","town":"野田町下名","town_kana":"ノダチョウシモミョウ","prefecture_code":46},"0133":{"zip_code":"8990133","prefecture":"鹿児島県","prefecture_kana":"カゴシマケン","city":"出水市","city_kana":"イズミシ","town":"福ノ江町","town_kana":"フクノエチョウ","prefecture_code":46},"0204":{"zip_code":"8990204","prefecture":"鹿児島県","prefecture_kana":"カゴシマケン","city":"出水市","city_kana":"イズミシ","town":"麓町","town_kana":"フモトチョウ","prefecture_code":46},"0208":{"zip_code":"8990208","prefecture":"鹿児島県","prefecture_kana":"カゴシマケン","city":"出水市","city_kana":"イズミシ","town":"文化町","town_kana":"ブンカチョウ","prefecture_code":46},"0217":{"zip_code":"8990217","prefecture":"鹿児島県","prefecture_kana":"カゴシマケン","city":"出水市","city_kana":"イズミシ","town":"平和町","town_kana":"ヘイワチョウ","prefecture_code":46},"0205":{"zip_code":"8990205","prefecture":"鹿児島県","prefecture_kana":"カゴシマケン","city":"出水市","city_kana":"イズミシ","town":"本町","town_kana":"ホンマチ","prefecture_code":46},"0201":{"zip_code":"8990201","prefecture":"鹿児島県","prefecture_kana":"カゴシマケン","city":"出水市","city_kana":"イズミシ","town":"緑町","town_kana":"ミドリマチ","prefecture_code":46},"0124":{"zip_code":"8990124","prefecture":"鹿児島県","prefecture_kana":"カゴシマケン","city":"出水市","city_kana":"イズミシ","town":"美原町","town_kana":"ミハラチョウ","prefecture_code":46},"0131":{"zip_code":"8990131","prefecture":"鹿児島県","prefecture_kana":"カゴシマケン","city":"出水市","city_kana":"イズミシ","town":"明神町","town_kana":"ミョウジンチョウ","prefecture_code":46},"0206":{"zip_code":"8990206","prefecture":"鹿児島県","prefecture_kana":"カゴシマケン","city":"出水市","city_kana":"イズミシ","town":"向江町","town_kana":"ムカエマチ","prefecture_code":46},"0126":{"zip_code":"8990126","prefecture":"鹿児島県","prefecture_kana":"カゴシマケン","city":"出水市","city_kana":"イズミシ","town":"六月田町","town_kana":"ロクガツダマチ","prefecture_code":46},"4631":{"zip_code":"8994631","prefecture":"鹿児島県","prefecture_kana":"カゴシマケン","city":"垂水市","city_kana":"タルミズシ","town":"牛根境","town_kana":"ウシネサカイ","prefecture_code":46},"4632":{"zip_code":"8994632","prefecture":"鹿児島県","prefecture_kana":"カゴシマケン","city":"垂水市","city_kana":"タルミズシ","town":"牛根麓","town_kana":"ウシネフモト","prefecture_code":46},"4633":{"zip_code":"8994633","prefecture":"鹿児島県","prefecture_kana":"カゴシマケン","city":"垂水市","city_kana":"タルミズシ","town":"二川","town_kana":"フタガワ","prefecture_code":46},"1925":{"zip_code":"8991925","prefecture":"鹿児島県","prefecture_kana":"カゴシマケン","city":"薩摩川内市","city_kana":"サツマセンダイシ","town":"網津町","town_kana":"オウヅチョウ","prefecture_code":46},"1922":{"zip_code":"8991922","prefecture":"鹿児島県","prefecture_kana":"カゴシマケン","city":"薩摩川内市","city_kana":"サツマセンダイシ","town":"小倉町","town_kana":"コクラチョウ","prefecture_code":46},"1801":{"zip_code":"8991801","prefecture":"鹿児島県","prefecture_kana":"カゴシマケン","city":"薩摩川内市","city_kana":"サツマセンダイシ","town":"西方町","town_kana":"ニシカタチョウ","prefecture_code":46},"1921":{"zip_code":"8991921","prefecture":"鹿児島県","prefecture_kana":"カゴシマケン","city":"薩摩川内市","city_kana":"サツマセンダイシ","town":"水引町","town_kana":"ミズヒキチョウ","prefecture_code":46},"1924":{"zip_code":"8991924","prefecture":"鹿児島県","prefecture_kana":"カゴシマケン","city":"薩摩川内市","city_kana":"サツマセンダイシ","town":"港町","town_kana":"ミナトチョウ","prefecture_code":46},"1923":{"zip_code":"8991923","prefecture":"鹿児島県","prefecture_kana":"カゴシマケン","city":"薩摩川内市","city_kana":"サツマセンダイシ","town":"湯島町","town_kana":"ユシマチョウ","prefecture_code":46},"1802":{"zip_code":"8991802","prefecture":"鹿児島県","prefecture_kana":"カゴシマケン","city":"薩摩川内市","city_kana":"サツマセンダイシ","town":"湯田町","town_kana":"ユダチョウ","prefecture_code":46},"2500":{"zip_code":"8992500","prefecture":"鹿児島県","prefecture_kana":"カゴシマケン","city":"日置市","city_kana":"ヒオキシ","town":"","town_kana":"","prefecture_code":46},"2522":{"zip_code":"8992522","prefecture":"鹿児島県","prefecture_kana":"カゴシマケン","city":"日置市","city_kana":"ヒオキシ","town":"伊集院町飯牟礼","town_kana":"イジュウインチョウイイムレ","prefecture_code":46},"2505":{"zip_code":"8992505","prefecture":"鹿児島県","prefecture_kana":"カゴシマケン","city":"日置市","city_kana":"ヒオキシ","town":"伊集院町猪鹿倉","town_kana":"イジュウインチョウイガクラ","prefecture_code":46},"3121":{"zip_code":"8993121","prefecture":"鹿児島県","prefecture_kana":"カゴシマケン","city":"日置市","city_kana":"ヒオキシ","town":"伊集院町大田久木野々石塚","town_kana":"イジュウインチョウオオタクキノノイシヅカ","prefecture_code":46},"2521":{"zip_code":"8992521","prefecture":"鹿児島県","prefecture_kana":"カゴシマケン","city":"日置市","city_kana":"ヒオキシ","town":"伊集院町大田","town_kana":"イジュウインチョウオオタ","prefecture_code":46},"2512":{"zip_code":"8992512","prefecture":"鹿児島県","prefecture_kana":"カゴシマケン","city":"日置市","city_kana":"ヒオキシ","town":"伊集院町上神殿","town_kana":"イジュウインチョウカミコウドノ","prefecture_code":46},"2506":{"zip_code":"8992506","prefecture":"鹿児島県","prefecture_kana":"カゴシマケン","city":"日置市","city_kana":"ヒオキシ","town":"伊集院町清藤","town_kana":"イジュウインチョウキヨフジ","prefecture_code":46},"2441":{"zip_code":"8992441","prefecture":"鹿児島県","prefecture_kana":"カゴシマケン","city":"日置市","city_kana":"ヒオキシ","town":"伊集院町桑畑","town_kana":"イジュウインチョウクワバタ","prefecture_code":46},"2524":{"zip_code":"8992524","prefecture":"鹿児島県","prefecture_kana":"カゴシマケン","city":"日置市","city_kana":"ヒオキシ","town":"伊集院町恋之原","town_kana":"イジュウインチョウコイノハラ","prefecture_code":46},"2504":{"zip_code":"8992504","prefecture":"鹿児島県","prefecture_kana":"カゴシマケン","city":"日置市","city_kana":"ヒオキシ","town":"伊集院町郡","town_kana":"イジュウインチョウコオリ","prefecture_code":46},"2511":{"zip_code":"8992511","prefecture":"鹿児島県","prefecture_kana":"カゴシマケン","city":"日置市","city_kana":"ヒオキシ","town":"伊集院町下神殿","town_kana":"イジュウインチョウシモコウドノ","prefecture_code":46},"2501":{"zip_code":"8992501","prefecture":"鹿児島県","prefecture_kana":"カゴシマケン","city":"日置市","city_kana":"ヒオキシ","town":"伊集院町下谷口","town_kana":"イジュウインチョウシモタニグチ","prefecture_code":46},"2515":{"zip_code":"8992515","prefecture":"鹿児島県","prefecture_kana":"カゴシマケン","city":"日置市","city_kana":"ヒオキシ","town":"伊集院町竹之山","town_kana":"イジュウインチョウタケノヤマ","prefecture_code":46},"2516":{"zip_code":"8992516","prefecture":"鹿児島県","prefecture_kana":"カゴシマケン","city":"日置市","city_kana":"ヒオキシ","town":"伊集院町土橋","town_kana":"イジュウインチョウツチバシ","prefecture_code":46},"2443":{"zip_code":"8992443","prefecture":"鹿児島県","prefecture_kana":"カゴシマケン","city":"日置市","city_kana":"ヒオキシ","town":"伊集院町寺脇","town_kana":"イジュウインチョウテラワキ","prefecture_code":46},"2502":{"zip_code":"8992502","prefecture":"鹿児島県","prefecture_kana":"カゴシマケン","city":"日置市","city_kana":"ヒオキシ","town":"伊集院町徳重","town_kana":"イジュウインチョウトクシゲ","prefecture_code":46},"2514":{"zip_code":"8992514","prefecture":"鹿児島県","prefecture_kana":"カゴシマケン","city":"日置市","city_kana":"ヒオキシ","town":"伊集院町中川","town_kana":"イジュウインチョウナカガワ","prefecture_code":46},"2442":{"zip_code":"8992442","prefecture":"鹿児島県","prefecture_kana":"カゴシマケン","city":"日置市","city_kana":"ヒオキシ","town":"伊集院町野田","town_kana":"イジュウインチョウノダ","prefecture_code":46},"2523":{"zip_code":"8992523","prefecture":"鹿児島県","prefecture_kana":"カゴシマケン","city":"日置市","city_kana":"ヒオキシ","town":"伊集院町古城","town_kana":"イジュウインチョウフルジョウ","prefecture_code":46},"2503":{"zip_code":"8992503","prefecture":"鹿児島県","prefecture_kana":"カゴシマケン","city":"日置市","city_kana":"ヒオキシ","town":"伊集院町妙円寺","town_kana":"イジュウインチョウミョウエンジ","prefecture_code":46},"2513":{"zip_code":"8992513","prefecture":"鹿児島県","prefecture_kana":"カゴシマケン","city":"日置市","city_kana":"ヒオキシ","town":"伊集院町麦生田","town_kana":"イジュウインチョウムギウダ","prefecture_code":46},"2203":{"zip_code":"8992203","prefecture":"鹿児島県","prefecture_kana":"カゴシマケン","city":"日置市","city_kana":"ヒオキシ","town":"東市来町伊作田","town_kana":"ヒガシイチキチョウイザクダ","prefecture_code":46},"2204":{"zip_code":"8992204","prefecture":"鹿児島県","prefecture_kana":"カゴシマケン","city":"日置市","city_kana":"ヒオキシ","town":"東市来町神之川","town_kana":"ヒガシイチキチョウカミノカワ","prefecture_code":46},"2432":{"zip_code":"8992432","prefecture":"鹿児島県","prefecture_kana":"カゴシマケン","city":"日置市","city_kana":"ヒオキシ","town":"東市来町寺脇","town_kana":"ヒガシイチキチョウテラワキ","prefecture_code":46},"2202":{"zip_code":"8992202","prefecture":"鹿児島県","prefecture_kana":"カゴシマケン","city":"日置市","city_kana":"ヒオキシ","town":"東市来町長里","town_kana":"ヒガシイチキチョウナガサト","prefecture_code":46},"2434":{"zip_code":"8992434","prefecture":"鹿児島県","prefecture_kana":"カゴシマケン","city":"日置市","city_kana":"ヒオキシ","town":"東市来町南神之川","town_kana":"ヒガシイチキチョウミナミカミノカワ","prefecture_code":46},"2433":{"zip_code":"8992433","prefecture":"鹿児島県","prefecture_kana":"カゴシマケン","city":"日置市","city_kana":"ヒオキシ","town":"東市来町宮田","town_kana":"ヒガシイチキチョウミヤタ","prefecture_code":46},"2431":{"zip_code":"8992431","prefecture":"鹿児島県","prefecture_kana":"カゴシマケン","city":"日置市","city_kana":"ヒオキシ","town":"東市来町美山","town_kana":"ヒガシイチキチョウミヤマ","prefecture_code":46},"2201":{"zip_code":"8992201","prefecture":"鹿児島県","prefecture_kana":"カゴシマケン","city":"日置市","city_kana":"ヒオキシ","town":"東市来町湯田","town_kana":"ヒガシイチキチョウユダ","prefecture_code":46},"2311":{"zip_code":"8992311","prefecture":"鹿児島県","prefecture_kana":"カゴシマケン","city":"日置市","city_kana":"ヒオキシ","town":"東市来町養母","town_kana":"ヒガシイチキチョウヨウボ","prefecture_code":46},"2421":{"zip_code":"8992421","prefecture":"鹿児島県","prefecture_kana":"カゴシマケン","city":"日置市","city_kana":"ヒオキシ","town":"日吉町神之川","town_kana":"ヒヨシチョウカミノカワ","prefecture_code":46},"3101":{"zip_code":"8993101","prefecture":"鹿児島県","prefecture_kana":"カゴシマケン","city":"日置市","city_kana":"ヒオキシ","town":"日吉町日置","town_kana":"ヒヨシチョウヒオキ","prefecture_code":46},"3102":{"zip_code":"8993102","prefecture":"鹿児島県","prefecture_kana":"カゴシマケン","city":"日置市","city_kana":"ヒオキシ","town":"日吉町山田","town_kana":"ヒヨシチョウヤマダ","prefecture_code":46},"3103":{"zip_code":"8993103","prefecture":"鹿児島県","prefecture_kana":"カゴシマケン","city":"日置市","city_kana":"ヒオキシ","town":"日吉町吉利","town_kana":"ヒヨシチョウヨシトシ","prefecture_code":46},"3203":{"zip_code":"8993203","prefecture":"鹿児島県","prefecture_kana":"カゴシマケン","city":"日置市","city_kana":"ヒオキシ","town":"日吉町吉利","town_kana":"ヒヨシチョウヨシトシ","prefecture_code":46},"3305":{"zip_code":"8993305","prefecture":"鹿児島県","prefecture_kana":"カゴシマケン","city":"日置市","city_kana":"ヒオキシ","town":"吹上町今田","town_kana":"フキアゲチョウイマダ","prefecture_code":46},"3304":{"zip_code":"8993304","prefecture":"鹿児島県","prefecture_kana":"カゴシマケン","city":"日置市","city_kana":"ヒオキシ","town":"吹上町入来","town_kana":"フキアゲチョウイリキ","prefecture_code":46},"3306":{"zip_code":"8993306","prefecture":"鹿児島県","prefecture_kana":"カゴシマケン","city":"日置市","city_kana":"ヒオキシ","town":"吹上町小野","town_kana":"フキアゲチョウオノ","prefecture_code":46},"3307":{"zip_code":"8993307","prefecture":"鹿児島県","prefecture_kana":"カゴシマケン","city":"日置市","city_kana":"ヒオキシ","town":"吹上町花熟里","town_kana":"フキアゲチョウケジュクリ","prefecture_code":46},"3308":{"zip_code":"8993308","prefecture":"鹿児島県","prefecture_kana":"カゴシマケン","city":"日置市","city_kana":"ヒオキシ","town":"吹上町田尻","town_kana":"フキアゲチョウタジリ","prefecture_code":46},"3302":{"zip_code":"8993302","prefecture":"鹿児島県","prefecture_kana":"カゴシマケン","city":"日置市","city_kana":"ヒオキシ","town":"吹上町中之里","town_kana":"フキアゲチョウナカノサト","prefecture_code":46},"3301":{"zip_code":"8993301","prefecture":"鹿児島県","prefecture_kana":"カゴシマケン","city":"日置市","city_kana":"ヒオキシ","town":"吹上町中原","town_kana":"フキアゲチョウナカハラ","prefecture_code":46},"3221":{"zip_code":"8993221","prefecture":"鹿児島県","prefecture_kana":"カゴシマケン","city":"日置市","city_kana":"ヒオキシ","town":"吹上町永吉","town_kana":"フキアゲチョウナガヨシ","prefecture_code":46},"3303":{"zip_code":"8993303","prefecture":"鹿児島県","prefecture_kana":"カゴシマケン","city":"日置市","city_kana":"ヒオキシ","town":"吹上町湯之浦","town_kana":"フキアゲチョウユノウラ","prefecture_code":46},"3309":{"zip_code":"8993309","prefecture":"鹿児島県","prefecture_kana":"カゴシマケン","city":"日置市","city_kana":"ヒオキシ","town":"吹上町与倉","town_kana":"フキアゲチョウヨクラ","prefecture_code":46},"3311":{"zip_code":"8993311","prefecture":"鹿児島県","prefecture_kana":"カゴシマケン","city":"日置市","city_kana":"ヒオキシ","town":"吹上町和田","town_kana":"フキアゲチョウワダ","prefecture_code":46},"8600":{"zip_code":"8998600","prefecture":"鹿児島県","prefecture_kana":"カゴシマケン","city":"曽於市","city_kana":"ソオシ","town":"","town_kana":"","prefecture_code":46},"8211":[{"zip_code":"8998211","prefecture":"鹿児島県","prefecture_kana":"カゴシマケン","city":"曽於市","city_kana":"ソオシ","town":"大隅町荒谷荒谷","town_kana":"オオスミチョウアラタニアラタニ","prefecture_code":46},{"zip_code":"8998211","prefecture":"鹿児島県","prefecture_kana":"カゴシマケン","city":"曽於市","city_kana":"ソオシ","town":"大隅町荒谷大迫","town_kana":"オオスミチョウアラタニオオサコ","prefecture_code":46},{"zip_code":"8998211","prefecture":"鹿児島県","prefecture_kana":"カゴシマケン","city":"曽於市","city_kana":"ソオシ","town":"大隅町荒谷中大迫","town_kana":"オオスミチョウアラタニナカオオサコ","prefecture_code":46}],"8311":{"zip_code":"8998311","prefecture":"鹿児島県","prefecture_kana":"カゴシマケン","city":"曽於市","city_kana":"ソオシ","town":"大隅町荒谷","town_kana":"オオスミチョウアラタニ","prefecture_code":46},"8102":{"zip_code":"8998102","prefecture":"鹿児島県","prefecture_kana":"カゴシマケン","city":"曽於市","city_kana":"ソオシ","town":"大隅町岩川","town_kana":"オオスミチョウイワガワ","prefecture_code":46},"8421":{"zip_code":"8998421","prefecture":"鹿児島県","prefecture_kana":"カゴシマケン","city":"曽於市","city_kana":"ソオシ","town":"大隅町大谷","town_kana":"オオスミチョウオオタニ","prefecture_code":46},"8213":{"zip_code":"8998213","prefecture":"鹿児島県","prefecture_kana":"カゴシマケン","city":"曽於市","city_kana":"ソオシ","town":"大隅町境木町","town_kana":"オオスミチョウサカイギマチ","prefecture_code":46},"8422":{"zip_code":"8998422","prefecture":"鹿児島県","prefecture_kana":"カゴシマケン","city":"曽於市","city_kana":"ソオシ","town":"大隅町坂元","town_kana":"オオスミチョウサカモト","prefecture_code":46},"8106":{"zip_code":"8998106","prefecture":"鹿児島県","prefecture_kana":"カゴシマケン","city":"曽於市","city_kana":"ソオシ","town":"大隅町下窪町","town_kana":"オオスミチョウシモクボマチ","prefecture_code":46},"8423":{"zip_code":"8998423","prefecture":"鹿児島県","prefecture_kana":"カゴシマケン","city":"曽於市","city_kana":"ソオシ","town":"大隅町須田木","town_kana":"オオスミチョウスダキ","prefecture_code":46},"8105":{"zip_code":"8998105","prefecture":"鹿児島県","prefecture_kana":"カゴシマケン","city":"曽於市","city_kana":"ソオシ","town":"大隅町段中町","town_kana":"オオスミチョウダンナカマチ","prefecture_code":46},"8212":{"zip_code":"8998212","prefecture":"鹿児島県","prefecture_kana":"カゴシマケン","city":"曽於市","city_kana":"ソオシ","town":"大隅町月野","town_kana":"オオスミチョウツキノ","prefecture_code":46},"8424":{"zip_code":"8998424","prefecture":"鹿児島県","prefecture_kana":"カゴシマケン","city":"曽於市","city_kana":"ソオシ","town":"大隅町恒吉","town_kana":"オオスミチョウツネヨシ","prefecture_code":46},"8103":{"zip_code":"8998103","prefecture":"鹿児島県","prefecture_kana":"カゴシマケン","city":"曽於市","city_kana":"ソオシ","town":"大隅町中之内","town_kana":"オオスミチョウナカノウチ","prefecture_code":46},"8104":{"zip_code":"8998104","prefecture":"鹿児島県","prefecture_kana":"カゴシマケン","city":"曽於市","city_kana":"ソオシ","town":"大隅町鳴神町","town_kana":"オオスミチョウナルガミマチ","prefecture_code":46},"8101":[{"zip_code":"8998101","prefecture":"鹿児島県","prefecture_kana":"カゴシマケン","city":"曽於市","city_kana":"ソオシ","town":"末吉町岩崎池原","town_kana":"スエヨシチョウイワサキイケハラ","prefecture_code":46},{"zip_code":"8998101","prefecture":"鹿児島県","prefecture_kana":"カゴシマケン","city":"曽於市","city_kana":"ソオシ","town":"末吉町岩崎岩之上","town_kana":"スエヨシチョウイワサキイワノウエ","prefecture_code":46},{"zip_code":"8998101","prefecture":"鹿児島県","prefecture_kana":"カゴシマケン","city":"曽於市","city_kana":"ソオシ","town":"末吉町岩崎岩南","town_kana":"スエヨシチョウイワサキイワミナミ","prefecture_code":46},{"zip_code":"8998101","prefecture":"鹿児島県","prefecture_kana":"カゴシマケン","city":"曽於市","city_kana":"ソオシ","town":"末吉町岩崎前田","town_kana":"スエヨシチョウイワサキマエダ","prefecture_code":46},{"zip_code":"8998101","prefecture":"鹿児島県","prefecture_kana":"カゴシマケン","city":"曽於市","city_kana":"ソオシ","town":"末吉町岩崎牧原","town_kana":"スエヨシチョウイワサキマキハラ","prefecture_code":46},{"zip_code":"8998101","prefecture":"鹿児島県","prefecture_kana":"カゴシマケン","city":"曽於市","city_kana":"ソオシ","town":"末吉町岩崎道添","town_kana":"スエヨシチョウイワサキミチゾイ","prefecture_code":46},{"zip_code":"8998101","prefecture":"鹿児島県","prefecture_kana":"カゴシマケン","city":"曽於市","city_kana":"ソオシ","town":"末吉町岩崎宮原","town_kana":"スエヨシチョウイワサキミヤバル","prefecture_code":46}],"8601":{"zip_code":"8998601","prefecture":"鹿児島県","prefecture_kana":"カゴシマケン","city":"曽於市","city_kana":"ソオシ","town":"末吉町岩崎","town_kana":"スエヨシチョウイワサキ","prefecture_code":46},"8609":{"zip_code":"8998609","prefecture":"鹿児島県","prefecture_kana":"カゴシマケン","city":"曽於市","city_kana":"ソオシ","town":"末吉町上町","town_kana":"スエヨシチョウカミマチ","prefecture_code":46},"8602":{"zip_code":"8998602","prefecture":"鹿児島県","prefecture_kana":"カゴシマケン","city":"曽於市","city_kana":"ソオシ","town":"末吉町栄町","town_kana":"スエヨシチョウサカエマチ","prefecture_code":46},"8603":{"zip_code":"8998603","prefecture":"鹿児島県","prefecture_kana":"カゴシマケン","city":"曽於市","city_kana":"ソオシ","town":"末吉町新町","town_kana":"スエヨシチョウシンマチ","prefecture_code":46},"8604":{"zip_code":"8998604","prefecture":"鹿児島県","prefecture_kana":"カゴシマケン","city":"曽於市","city_kana":"ソオシ","town":"末吉町諏訪方","town_kana":"スエヨシチョウスワカタ","prefecture_code":46},"8605":{"zip_code":"8998605","prefecture":"鹿児島県","prefecture_kana":"カゴシマケン","city":"曽於市","city_kana":"ソオシ","town":"末吉町二之方","town_kana":"スエヨシチョウニノカタ","prefecture_code":46},"8606":{"zip_code":"8998606","prefecture":"鹿児島県","prefecture_kana":"カゴシマケン","city":"曽於市","city_kana":"ソオシ","town":"末吉町深川","town_kana":"スエヨシチョウフカガワ","prefecture_code":46},"8607":{"zip_code":"8998607","prefecture":"鹿児島県","prefecture_kana":"カゴシマケン","city":"曽於市","city_kana":"ソオシ","town":"末吉町本町","town_kana":"スエヨシチョウホンマチ","prefecture_code":46},"8608":{"zip_code":"8998608","prefecture":"鹿児島県","prefecture_kana":"カゴシマケン","city":"曽於市","city_kana":"ソオシ","town":"末吉町南之郷","town_kana":"スエヨシチョウミナミノゴウ","prefecture_code":46},"4102":{"zip_code":"8994102","prefecture":"鹿児島県","prefecture_kana":"カゴシマケン","city":"曽於市","city_kana":"ソオシ","town":"財部町北俣","town_kana":"タカラベチョウキタマタ","prefecture_code":46},"4103":{"zip_code":"8994103","prefecture":"鹿児島県","prefecture_kana":"カゴシマケン","city":"曽於市","city_kana":"ソオシ","town":"財部町下財部","town_kana":"タカラベチョウシモタカラベ","prefecture_code":46},"4101":{"zip_code":"8994101","prefecture":"鹿児島県","prefecture_kana":"カゴシマケン","city":"曽於市","city_kana":"ソオシ","town":"財部町南俣","town_kana":"タカラベチョウミナミマタ","prefecture_code":46},"4300":{"zip_code":"8994300","prefecture":"鹿児島県","prefecture_kana":"カゴシマケン","city":"霧島市","city_kana":"キリシマシ","town":"","town_kana":"","prefecture_code":46},"4203":{"zip_code":"8994203","prefecture":"鹿児島県","prefecture_kana":"カゴシマケン","city":"霧島市","city_kana":"キリシマシ","town":"霧島大窪","town_kana":"キリシマオオクボ","prefecture_code":46},"4204":{"zip_code":"8994204","prefecture":"鹿児島県","prefecture_kana":"カゴシマケン","city":"霧島市","city_kana":"キリシマシ","town":"霧島川北","town_kana":"キリシマカワキタ","prefecture_code":46},"4201":{"zip_code":"8994201","prefecture":"鹿児島県","prefecture_kana":"カゴシマケン","city":"霧島市","city_kana":"キリシマシ","town":"霧島田口","town_kana":"キリシマタグチ","prefecture_code":46},"4202":{"zip_code":"8994202","prefecture":"鹿児島県","prefecture_kana":"カゴシマケン","city":"霧島市","city_kana":"キリシマシ","town":"霧島永水","town_kana":"キリシマナガミズ","prefecture_code":46},"4461":{"zip_code":"8994461","prefecture":"鹿児島県","prefecture_kana":"カゴシマケン","city":"霧島市","city_kana":"キリシマシ","town":"国分上之段","town_kana":"コクブウエノダン","prefecture_code":46},"4318":{"zip_code":"8994318","prefecture":"鹿児島県","prefecture_kana":"カゴシマケン","city":"霧島市","city_kana":"キリシマシ","town":"国分上野原縄文の森","town_kana":"コクブウエノハラジョウモンノモリ","prefecture_code":46},"4317":{"zip_code":"8994317","prefecture":"鹿児島県","prefecture_kana":"カゴシマケン","city":"霧島市","city_kana":"キリシマシ","town":"国分上野原テクノパーク","town_kana":"コクブウエノハラテクノパーク","prefecture_code":46},"4313":{"zip_code":"8994313","prefecture":"鹿児島県","prefecture_kana":"カゴシマケン","city":"霧島市","city_kana":"キリシマシ","town":"国分上井","town_kana":"コクブウワイ","prefecture_code":46},"4316":{"zip_code":"8994316","prefecture":"鹿児島県","prefecture_kana":"カゴシマケン","city":"霧島市","city_kana":"キリシマシ","town":"国分上小川","town_kana":"コクブカミコガワ","prefecture_code":46},"4314":{"zip_code":"8994314","prefecture":"鹿児島県","prefecture_kana":"カゴシマケン","city":"霧島市","city_kana":"キリシマシ","town":"国分川内","town_kana":"コクブカワウチ","prefecture_code":46},"4303":{"zip_code":"8994303","prefecture":"鹿児島県","prefecture_kana":"カゴシマケン","city":"霧島市","city_kana":"キリシマシ","town":"国分川原","town_kana":"コクブカワハラ","prefecture_code":46},"4304":{"zip_code":"8994304","prefecture":"鹿児島県","prefecture_kana":"カゴシマケン","city":"霧島市","city_kana":"キリシマシ","town":"国分清水","town_kana":"コクブキヨミズ","prefecture_code":46},"4355":{"zip_code":"8994355","prefecture":"鹿児島県","prefecture_kana":"カゴシマケン","city":"霧島市","city_kana":"キリシマシ","town":"国分剣之宇都町","town_kana":"コクブケンノウトチョウ","prefecture_code":46},"4305":{"zip_code":"8994305","prefecture":"鹿児島県","prefecture_kana":"カゴシマケン","city":"霧島市","city_kana":"キリシマシ","town":"国分郡田","town_kana":"コクブコオリダ","prefecture_code":46},"4462":{"zip_code":"8994462","prefecture":"鹿児島県","prefecture_kana":"カゴシマケン","city":"霧島市","city_kana":"キリシマシ","town":"国分敷根","town_kana":"コクブシキネ","prefecture_code":46},"4301":{"zip_code":"8994301","prefecture":"鹿児島県","prefecture_kana":"カゴシマケン","city":"霧島市","city_kana":"キリシマシ","town":"国分重久","town_kana":"コクブシゲヒサ","prefecture_code":46},"4463":{"zip_code":"8994463","prefecture":"鹿児島県","prefecture_kana":"カゴシマケン","city":"霧島市","city_kana":"キリシマシ","town":"国分下井","town_kana":"コクブシタイ","prefecture_code":46},"4331":{"zip_code":"8994331","prefecture":"鹿児島県","prefecture_kana":"カゴシマケン","city":"霧島市","city_kana":"キリシマシ","town":"国分城山町","town_kana":"コクブシロヤマチョウ","prefecture_code":46},"4351":{"zip_code":"8994351","prefecture":"鹿児島県","prefecture_kana":"カゴシマケン","city":"霧島市","city_kana":"キリシマシ","town":"国分新町","town_kana":"コクブシンマチ","prefecture_code":46},"4302":{"zip_code":"8994302","prefecture":"鹿児島県","prefecture_kana":"カゴシマケン","city":"霧島市","city_kana":"キリシマシ","town":"国分台明寺","town_kana":"コクブダイミョウジ","prefecture_code":46},"4332":{"zip_code":"8994332","prefecture":"鹿児島県","prefecture_kana":"カゴシマケン","city":"霧島市","city_kana":"キリシマシ","town":"国分中央","town_kana":"コクブチュウオウ","prefecture_code":46},"4311":{"zip_code":"8994311","prefecture":"鹿児島県","prefecture_kana":"カゴシマケン","city":"霧島市","city_kana":"キリシマシ","town":"国分名波町","town_kana":"コクブナバチョウ","prefecture_code":46},"4344":{"zip_code":"8994344","prefecture":"鹿児島県","prefecture_kana":"カゴシマケン","city":"霧島市","city_kana":"キリシマシ","town":"国分野口北","town_kana":"コクブノグチキタ","prefecture_code":46},"4342":{"zip_code":"8994342","prefecture":"鹿児島県","prefecture_kana":"カゴシマケン","city":"霧島市","city_kana":"キリシマシ","town":"国分野口町","town_kana":"コクブノグチチョウ","prefecture_code":46},"4343":{"zip_code":"8994343","prefecture":"鹿児島県","prefecture_kana":"カゴシマケン","city":"霧島市","city_kana":"キリシマシ","town":"国分野口西","town_kana":"コクブノグチニシ","prefecture_code":46},"4341":{"zip_code":"8994341","prefecture":"鹿児島県","prefecture_kana":"カゴシマケン","city":"霧島市","city_kana":"キリシマシ","town":"国分野口東","town_kana":"コクブノグチヒガシ","prefecture_code":46},"4354":{"zip_code":"8994354","prefecture":"鹿児島県","prefecture_kana":"カゴシマケン","city":"霧島市","city_kana":"キリシマシ","town":"国分姫城","town_kana":"コクブヒメギ","prefecture_code":46},"4356":{"zip_code":"8994356","prefecture":"鹿児島県","prefecture_kana":"カゴシマケン","city":"霧島市","city_kana":"キリシマシ","town":"国分姫城南","town_kana":"コクブヒメギミナミ","prefecture_code":46},"4321":{"zip_code":"8994321","prefecture":"鹿児島県","prefecture_kana":"カゴシマケン","city":"霧島市","city_kana":"キリシマシ","town":"国分広瀬","town_kana":"コクブヒロセ","prefecture_code":46},"4322":{"zip_code":"8994322","prefecture":"鹿児島県","prefecture_kana":"カゴシマケン","city":"霧島市","city_kana":"キリシマシ","town":"国分福島","town_kana":"コクブフクシマ","prefecture_code":46},"4345":{"zip_code":"8994345","prefecture":"鹿児島県","prefecture_kana":"カゴシマケン","city":"霧島市","city_kana":"キリシマシ","town":"国分府中","town_kana":"コクブフチュウ","prefecture_code":46},"4346":{"zip_code":"8994346","prefecture":"鹿児島県","prefecture_kana":"カゴシマケン","city":"霧島市","city_kana":"キリシマシ","town":"国分府中町","town_kana":"コクブフチュウチョウ","prefecture_code":46},"4323":{"zip_code":"8994323","prefecture":"鹿児島県","prefecture_kana":"カゴシマケン","city":"霧島市","city_kana":"キリシマシ","town":"国分松木","town_kana":"コクブマツキ","prefecture_code":46},"4325":{"zip_code":"8994325","prefecture":"鹿児島県","prefecture_kana":"カゴシマケン","city":"霧島市","city_kana":"キリシマシ","town":"国分松木町","town_kana":"コクブマツキチョウ","prefecture_code":46},"4324":{"zip_code":"8994324","prefecture":"鹿児島県","prefecture_kana":"カゴシマケン","city":"霧島市","city_kana":"キリシマシ","town":"国分松木東","town_kana":"コクブマツキヒガシ","prefecture_code":46},"4315":{"zip_code":"8994315","prefecture":"鹿児島県","prefecture_kana":"カゴシマケン","city":"霧島市","city_kana":"キリシマシ","town":"国分湊","town_kana":"コクブミナト","prefecture_code":46},"4352":{"zip_code":"8994352","prefecture":"鹿児島県","prefecture_kana":"カゴシマケン","city":"霧島市","city_kana":"キリシマシ","town":"国分向花","town_kana":"コクブムケ","prefecture_code":46},"4353":{"zip_code":"8994353","prefecture":"鹿児島県","prefecture_kana":"カゴシマケン","city":"霧島市","city_kana":"キリシマシ","town":"国分向花町","town_kana":"コクブムケチョウ","prefecture_code":46},"4312":{"zip_code":"8994312","prefecture":"鹿児島県","prefecture_kana":"カゴシマケン","city":"霧島市","city_kana":"キリシマシ","town":"国分山下町","town_kana":"コクブヤマシタチョウ","prefecture_code":46},"5118":{"zip_code":"8995118","prefecture":"鹿児島県","prefecture_kana":"カゴシマケン","city":"霧島市","city_kana":"キリシマシ","town":"隼人町朝日","town_kana":"ハヤトチョウアサヒ","prefecture_code":46},"5116":{"zip_code":"8995116","prefecture":"鹿児島県","prefecture_kana":"カゴシマケン","city":"霧島市","city_kana":"キリシマシ","town":"隼人町内","town_kana":"ハヤトチョウウチ","prefecture_code":46},"5106":{"zip_code":"8995106","prefecture":"鹿児島県","prefecture_kana":"カゴシマケン","city":"霧島市","city_kana":"キリシマシ","town":"隼人町内山田","town_kana":"ハヤトチョウウチヤマダ","prefecture_code":46},"5105":{"zip_code":"8995105","prefecture":"鹿児島県","prefecture_kana":"カゴシマケン","city":"霧島市","city_kana":"キリシマシ","town":"隼人町小田","town_kana":"ハヤトチョウオダ","prefecture_code":46},"5103":{"zip_code":"8995103","prefecture":"鹿児島県","prefecture_kana":"カゴシマケン","city":"霧島市","city_kana":"キリシマシ","town":"隼人町小浜","town_kana":"ハヤトチョウオハマ","prefecture_code":46},"5113":{"zip_code":"8995113","prefecture":"鹿児島県","prefecture_kana":"カゴシマケン","city":"霧島市","city_kana":"キリシマシ","town":"隼人町嘉例川","town_kana":"ハヤトチョウカレイガワ","prefecture_code":46},"5114":{"zip_code":"8995114","prefecture":"鹿児島県","prefecture_kana":"カゴシマケン","city":"霧島市","city_kana":"キリシマシ","town":"隼人町西光寺","town_kana":"ハヤトチョウサイコウジ","prefecture_code":46},"5121":{"zip_code":"8995121","prefecture":"鹿児島県","prefecture_kana":"カゴシマケン","city":"霧島市","city_kana":"キリシマシ","town":"隼人町神宮","town_kana":"ハヤトチョウジングウ","prefecture_code":46},"5102":{"zip_code":"8995102","prefecture":"鹿児島県","prefecture_kana":"カゴシマケン","city":"霧島市","city_kana":"キリシマシ","town":"隼人町真孝","town_kana":"ハヤトチョウシンコウ","prefecture_code":46},"5101":{"zip_code":"8995101","prefecture":"鹿児島県","prefecture_kana":"カゴシマケン","city":"霧島市","city_kana":"キリシマシ","town":"隼人町住吉","town_kana":"ハヤトチョウスミヨシ","prefecture_code":46},"5115":{"zip_code":"8995115","prefecture":"鹿児島県","prefecture_kana":"カゴシマケン","city":"霧島市","city_kana":"キリシマシ","town":"隼人町東郷","town_kana":"ハヤトチョウトウゴウ","prefecture_code":46},"5104":{"zip_code":"8995104","prefecture":"鹿児島県","prefecture_kana":"カゴシマケン","city":"霧島市","city_kana":"キリシマシ","town":"隼人町野久美田","town_kana":"ハヤトチョウノクミダ","prefecture_code":46},"5111":{"zip_code":"8995111","prefecture":"鹿児島県","prefecture_kana":"カゴシマケン","city":"霧島市","city_kana":"キリシマシ","town":"隼人町姫城","town_kana":"ハヤトチョウヒメギ","prefecture_code":46},"5112":{"zip_code":"8995112","prefecture":"鹿児島県","prefecture_kana":"カゴシマケン","city":"霧島市","city_kana":"キリシマシ","town":"隼人町松永","town_kana":"ハヤトチョウマツナガ","prefecture_code":46},"5117":{"zip_code":"8995117","prefecture":"鹿児島県","prefecture_kana":"カゴシマケン","city":"霧島市","city_kana":"キリシマシ","town":"隼人町見次","town_kana":"ハヤトチョウミツギ","prefecture_code":46},"4504":{"zip_code":"8994504","prefecture":"鹿児島県","prefecture_kana":"カゴシマケン","city":"霧島市","city_kana":"キリシマシ","town":"福山町佳例川","town_kana":"フクヤマチョウカレイガワ","prefecture_code":46},"4503":{"zip_code":"8994503","prefecture":"鹿児島県","prefecture_kana":"カゴシマケン","city":"霧島市","city_kana":"キリシマシ","town":"福山町福沢","town_kana":"フクヤマチョウフクザワ","prefecture_code":46},"4502":{"zip_code":"8994502","prefecture":"鹿児島県","prefecture_kana":"カゴシマケン","city":"霧島市","city_kana":"キリシマシ","town":"福山町福地","town_kana":"フクヤマチョウフクチ","prefecture_code":46},"4501":{"zip_code":"8994501","prefecture":"鹿児島県","prefecture_kana":"カゴシマケン","city":"霧島市","city_kana":"キリシマシ","town":"福山町福山","town_kana":"フクヤマチョウフクヤマ","prefecture_code":46},"6604":{"zip_code":"8996604","prefecture":"鹿児島県","prefecture_kana":"カゴシマケン","city":"霧島市","city_kana":"キリシマシ","town":"牧園町上中津川","town_kana":"マキゾノチョウカミナカツガワ","prefecture_code":46},"6504":{"zip_code":"8996504","prefecture":"鹿児島県","prefecture_kana":"カゴシマケン","city":"霧島市","city_kana":"キリシマシ","town":"牧園町上中津川","town_kana":"マキゾノチョウカミナカツガワ","prefecture_code":46},"6602":{"zip_code":"8996602","prefecture":"鹿児島県","prefecture_kana":"カゴシマケン","city":"霧島市","city_kana":"キリシマシ","town":"牧園町三体堂","town_kana":"マキゾノチョウサンタイドウ","prefecture_code":46},"6502":{"zip_code":"8996502","prefecture":"鹿児島県","prefecture_kana":"カゴシマケン","city":"霧島市","city_kana":"キリシマシ","town":"牧園町三体堂","town_kana":"マキゾノチョウサンタイドウ","prefecture_code":46},"6506":{"zip_code":"8996506","prefecture":"鹿児島県","prefecture_kana":"カゴシマケン","city":"霧島市","city_kana":"キリシマシ","town":"牧園町下中津川","town_kana":"マキゾノチョウシモナカツガワ","prefecture_code":46},"6507":{"zip_code":"8996507","prefecture":"鹿児島県","prefecture_kana":"カゴシマケン","city":"霧島市","city_kana":"キリシマシ","town":"牧園町宿窪田","town_kana":"マキゾノチョウシュククボタ","prefecture_code":46},"6503":{"zip_code":"8996503","prefecture":"鹿児島県","prefecture_kana":"カゴシマケン","city":"霧島市","city_kana":"キリシマシ","town":"牧園町高千穂","town_kana":"マキゾノチョウタカチホ","prefecture_code":46},"6603":{"zip_code":"8996603","prefecture":"鹿児島県","prefecture_kana":"カゴシマケン","city":"霧島市","city_kana":"キリシマシ","town":"牧園町高千穂","town_kana":"マキゾノチョウタカチホ","prefecture_code":46},"6601":{"zip_code":"8996601","prefecture":"鹿児島県","prefecture_kana":"カゴシマケン","city":"霧島市","city_kana":"キリシマシ","town":"牧園町万膳","town_kana":"マキゾノチョウマンゼン","prefecture_code":46},"6501":{"zip_code":"8996501","prefecture":"鹿児島県","prefecture_kana":"カゴシマケン","city":"霧島市","city_kana":"キリシマシ","town":"牧園町万膳","town_kana":"マキゾノチョウマンゼン","prefecture_code":46},"6505":{"zip_code":"8996505","prefecture":"鹿児島県","prefecture_kana":"カゴシマケン","city":"霧島市","city_kana":"キリシマシ","town":"牧園町持松","town_kana":"マキゾノチョウモチマツ","prefecture_code":46},"6401":{"zip_code":"8996401","prefecture":"鹿児島県","prefecture_kana":"カゴシマケン","city":"霧島市","city_kana":"キリシマシ","town":"溝辺町有川","town_kana":"ミゾベチョウアリカワ","prefecture_code":46},"6405":{"zip_code":"8996405","prefecture":"鹿児島県","prefecture_kana":"カゴシマケン","city":"霧島市","city_kana":"キリシマシ","town":"溝辺町崎森","town_kana":"ミゾベチョウサキモリ","prefecture_code":46},"6402":{"zip_code":"8996402","prefecture":"鹿児島県","prefecture_kana":"カゴシマケン","city":"霧島市","city_kana":"キリシマシ","town":"溝辺町竹子","town_kana":"ミゾベチョウタカゼ","prefecture_code":46},"6404":{"zip_code":"8996404","prefecture":"鹿児島県","prefecture_kana":"カゴシマケン","city":"霧島市","city_kana":"キリシマシ","town":"溝辺町麓","town_kana":"ミゾベチョウフモト","prefecture_code":46},"6403":{"zip_code":"8996403","prefecture":"鹿児島県","prefecture_kana":"カゴシマケン","city":"霧島市","city_kana":"キリシマシ","town":"溝辺町三縄","town_kana":"ミゾベチョウミナワ","prefecture_code":46},"6301":{"zip_code":"8996301","prefecture":"鹿児島県","prefecture_kana":"カゴシマケン","city":"霧島市","city_kana":"キリシマシ","town":"横川町上ノ","town_kana":"ヨコガワチョウカミノ","prefecture_code":46},"6302":{"zip_code":"8996302","prefecture":"鹿児島県","prefecture_kana":"カゴシマケン","city":"霧島市","city_kana":"キリシマシ","town":"横川町下ノ","town_kana":"ヨコガワチョウシモノ","prefecture_code":46},"6303":{"zip_code":"8996303","prefecture":"鹿児島県","prefecture_kana":"カゴシマケン","city":"霧島市","city_kana":"キリシマシ","town":"横川町中ノ","town_kana":"ヨコガワチョウナカノ","prefecture_code":46},"2103":{"zip_code":"8992103","prefecture":"鹿児島県","prefecture_kana":"カゴシマケン","city":"いちき串木野市","city_kana":"イチキクシキノシ","town":"大里","town_kana":"オオザト","prefecture_code":46},"2102":{"zip_code":"8992102","prefecture":"鹿児島県","prefecture_kana":"カゴシマケン","city":"いちき串木野市","city_kana":"イチキクシキノシ","town":"川上","town_kana":"カワカミ","prefecture_code":46},"2101":{"zip_code":"8992101","prefecture":"鹿児島県","prefecture_kana":"カゴシマケン","city":"いちき串木野市","city_kana":"イチキクシキノシ","town":"湊町","town_kana":"ミナトマチ","prefecture_code":46},"3611":{"zip_code":"8993611","prefecture":"鹿児島県","prefecture_kana":"カゴシマケン","city":"南さつま市","city_kana":"ミナミサツマシ","town":"加世田津貫","town_kana":"カセダツヌキ","prefecture_code":46},"3405":{"zip_code":"8993405","prefecture":"鹿児島県","prefecture_kana":"カゴシマケン","city":"南さつま市","city_kana":"ミナミサツマシ","town":"金峰町池辺","town_kana":"キンポウチョウイケベ","prefecture_code":46},"3516":{"zip_code":"8993516","prefecture":"鹿児島県","prefecture_kana":"カゴシマケン","city":"南さつま市","city_kana":"ミナミサツマシ","town":"金峰町浦之名","town_kana":"キンポウチョウウラノミョウ","prefecture_code":46},"3401":{"zip_code":"8993401","prefecture":"鹿児島県","prefecture_kana":"カゴシマケン","city":"南さつま市","city_kana":"ミナミサツマシ","town":"金峰町大野","town_kana":"キンポウチョウオオノ","prefecture_code":46},"3403":{"zip_code":"8993403","prefecture":"鹿児島県","prefecture_kana":"カゴシマケン","city":"南さつま市","city_kana":"ミナミサツマシ","town":"金峰町尾下","town_kana":"キンポウチョウオクダリ","prefecture_code":46},"3513":{"zip_code":"8993513","prefecture":"鹿児島県","prefecture_kana":"カゴシマケン","city":"南さつま市","city_kana":"ミナミサツマシ","town":"金峰町白川","town_kana":"キンポウチョウシラカワ","prefecture_code":46},"3402":{"zip_code":"8993402","prefecture":"鹿児島県","prefecture_kana":"カゴシマケン","city":"南さつま市","city_kana":"ミナミサツマシ","town":"金峰町大坂","town_kana":"キンポウチョウダイザカ","prefecture_code":46},"3404":{"zip_code":"8993404","prefecture":"鹿児島県","prefecture_kana":"カゴシマケン","city":"南さつま市","city_kana":"ミナミサツマシ","town":"金峰町高橋","town_kana":"キンポウチョウタカハシ","prefecture_code":46},"3515":{"zip_code":"8993515","prefecture":"鹿児島県","prefecture_kana":"カゴシマケン","city":"南さつま市","city_kana":"ミナミサツマシ","town":"金峰町中津野","town_kana":"キンポウチョウナカツノ","prefecture_code":46},"3514":{"zip_code":"8993514","prefecture":"鹿児島県","prefecture_kana":"カゴシマケン","city":"南さつま市","city_kana":"ミナミサツマシ","town":"金峰町新山","town_kana":"キンポウチョウニイヤマ","prefecture_code":46},"3512":{"zip_code":"8993512","prefecture":"鹿児島県","prefecture_kana":"カゴシマケン","city":"南さつま市","city_kana":"ミナミサツマシ","town":"金峰町花瀬","town_kana":"キンポウチョウハナゼ","prefecture_code":46},"3511":{"zip_code":"8993511","prefecture":"鹿児島県","prefecture_kana":"カゴシマケン","city":"南さつま市","city_kana":"ミナミサツマシ","town":"金峰町宮崎","town_kana":"キンポウチョウミヤザキ","prefecture_code":46},"7100":{"zip_code":"8997100","prefecture":"鹿児島県","prefecture_kana":"カゴシマケン","city":"志布志市","city_kana":"シブシシ","town":"","town_kana":"","prefecture_code":46},"7401":{"zip_code":"8997401","prefecture":"鹿児島県","prefecture_kana":"カゴシマケン","city":"志布志市","city_kana":"シブシシ","town":"有明町伊崎田","town_kana":"アリアケチョウイサキダ","prefecture_code":46},"7402":{"zip_code":"8997402","prefecture":"鹿児島県","prefecture_kana":"カゴシマケン","city":"志布志市","city_kana":"シブシシ","town":"有明町野井倉","town_kana":"アリアケチョウノイクラ","prefecture_code":46},"8312":[{"zip_code":"8998312","prefecture":"鹿児島県","prefecture_kana":"カゴシマケン","city":"志布志市","city_kana":"シブシシ","town":"有明町野神抜谷","town_kana":"アリアケチョウノガミヌキダニ","prefecture_code":46},{"zip_code":"8998312","prefecture":"鹿児島県","prefecture_kana":"カゴシマケン","city":"志布志市","city_kana":"シブシシ","town":"有明町野神塗木","town_kana":"アリアケチョウノガミヌルキ","prefecture_code":46},{"zip_code":"8998312","prefecture":"鹿児島県","prefecture_kana":"カゴシマケン","city":"志布志市","city_kana":"シブシシ","town":"有明町野神本地","town_kana":"アリアケチョウノガミホンジ","prefecture_code":46},{"zip_code":"8998312","prefecture":"鹿児島県","prefecture_kana":"カゴシマケン","city":"志布志市","city_kana":"シブシシ","town":"有明町野神曲","town_kana":"アリアケチョウノガミマガリ","prefecture_code":46},{"zip_code":"8998312","prefecture":"鹿児島県","prefecture_kana":"カゴシマケン","city":"志布志市","city_kana":"シブシシ","town":"有明町野神水ノ谷","town_kana":"アリアケチョウノガミミズノタニ","prefecture_code":46}],"7512":{"zip_code":"8997512","prefecture":"鹿児島県","prefecture_kana":"カゴシマケン","city":"志布志市","city_kana":"シブシシ","town":"有明町野神","town_kana":"アリアケチョウノガミ","prefecture_code":46},"7511":{"zip_code":"8997511","prefecture":"鹿児島県","prefecture_kana":"カゴシマケン","city":"志布志市","city_kana":"シブシシ","town":"有明町原田","town_kana":"アリアケチョウハラダ","prefecture_code":46},"7403":{"zip_code":"8997403","prefecture":"鹿児島県","prefecture_kana":"カゴシマケン","city":"志布志市","city_kana":"シブシシ","town":"有明町蓬原春日","town_kana":"アリアケチョウフツハラカスガ","prefecture_code":46},"7503":{"zip_code":"8997503","prefecture":"鹿児島県","prefecture_kana":"カゴシマケン","city":"志布志市","city_kana":"シブシシ","town":"有明町蓬原","town_kana":"アリアケチョウフツハラ","prefecture_code":46},"7513":{"zip_code":"8997513","prefecture":"鹿児島県","prefecture_kana":"カゴシマケン","city":"志布志市","city_kana":"シブシシ","town":"有明町山重","town_kana":"アリアケチョウヤマシゲ","prefecture_code":46},"7104":{"zip_code":"8997104","prefecture":"鹿児島県","prefecture_kana":"カゴシマケン","city":"志布志市","city_kana":"シブシシ","town":"志布志町安楽","town_kana":"シブシチョウアンラク","prefecture_code":46},"7211":{"zip_code":"8997211","prefecture":"鹿児島県","prefecture_kana":"カゴシマケン","city":"志布志市","city_kana":"シブシシ","town":"志布志町内之倉","town_kana":"シブシチョウウチノクラ","prefecture_code":46},"7103":{"zip_code":"8997103","prefecture":"鹿児島県","prefecture_kana":"カゴシマケン","city":"志布志市","city_kana":"シブシシ","town":"志布志町志布志","town_kana":"シブシチョウシブシ","prefecture_code":46},"7212":{"zip_code":"8997212","prefecture":"鹿児島県","prefecture_kana":"カゴシマケン","city":"志布志市","city_kana":"シブシシ","town":"志布志町田之浦","town_kana":"シブシチョウタノウラ","prefecture_code":46},"7102":{"zip_code":"8997102","prefecture":"鹿児島県","prefecture_kana":"カゴシマケン","city":"志布志市","city_kana":"シブシシ","town":"志布志町帖","town_kana":"シブシチョウチョウ","prefecture_code":46},"7101":{"zip_code":"8997101","prefecture":"鹿児島県","prefecture_kana":"カゴシマケン","city":"志布志市","city_kana":"シブシシ","town":"志布志町夏井","town_kana":"シブシチョウナツイ","prefecture_code":46},"7603":{"zip_code":"8997603","prefecture":"鹿児島県","prefecture_kana":"カゴシマケン","city":"志布志市","city_kana":"シブシシ","town":"松山町尾野見","town_kana":"マツヤマチョウオノミ","prefecture_code":46},"7601":{"zip_code":"8997601","prefecture":"鹿児島県","prefecture_kana":"カゴシマケン","city":"志布志市","city_kana":"シブシシ","town":"松山町新橋","town_kana":"マツヤマチョウシンバシ","prefecture_code":46},"7602":{"zip_code":"8997602","prefecture":"鹿児島県","prefecture_kana":"カゴシマケン","city":"志布志市","city_kana":"シブシシ","town":"松山町泰野","town_kana":"マツヤマチョウタイノ","prefecture_code":46},"5400":{"zip_code":"8995400","prefecture":"鹿児島県","prefecture_kana":"カゴシマケン","city":"姶良市","city_kana":"アイラシ","town":"","town_kana":"","prefecture_code":46},"5653":{"zip_code":"8995653","prefecture":"鹿児島県","prefecture_kana":"カゴシマケン","city":"姶良市","city_kana":"アイラシ","town":"池島町","town_kana":"イケジママチ","prefecture_code":46},"5544":{"zip_code":"8995544","prefecture":"鹿児島県","prefecture_kana":"カゴシマケン","city":"姶良市","city_kana":"アイラシ","town":"大山","town_kana":"オオヤマ","prefecture_code":46},"5213":{"zip_code":"8995213","prefecture":"鹿児島県","prefecture_kana":"カゴシマケン","city":"姶良市","city_kana":"アイラシ","town":"加治木町朝日町","town_kana":"カジキチョウアサヒマチ","prefecture_code":46},"5214":{"zip_code":"8995214","prefecture":"鹿児島県","prefecture_kana":"カゴシマケン","city":"姶良市","city_kana":"アイラシ","town":"加治木町仮屋町","town_kana":"カジキチョウカリヤマチ","prefecture_code":46},"5241":{"zip_code":"8995241","prefecture":"鹿児島県","prefecture_kana":"カゴシマケン","city":"姶良市","city_kana":"アイラシ","town":"加治木町木田","town_kana":"カジキチョウキダ","prefecture_code":46},"5222":{"zip_code":"8995222","prefecture":"鹿児島県","prefecture_kana":"カゴシマケン","city":"姶良市","city_kana":"アイラシ","town":"加治木町錦江町","town_kana":"カジキチョウキンコウマチ","prefecture_code":46},"5203":{"zip_code":"8995203","prefecture":"鹿児島県","prefecture_kana":"カゴシマケン","city":"姶良市","city_kana":"アイラシ","town":"加治木町小山田","town_kana":"カジキチョウコヤマダ","prefecture_code":46},"5223":{"zip_code":"8995223","prefecture":"鹿児島県","prefecture_kana":"カゴシマケン","city":"姶良市","city_kana":"アイラシ","town":"加治木町新生町","town_kana":"カジキチョウシンセイマチ","prefecture_code":46},"5211":{"zip_code":"8995211","prefecture":"鹿児島県","prefecture_kana":"カゴシマケン","city":"姶良市","city_kana":"アイラシ","town":"加治木町新富町","town_kana":"カジキチョウシントミマチ","prefecture_code":46},"5212":{"zip_code":"8995212","prefecture":"鹿児島県","prefecture_kana":"カゴシマケン","city":"姶良市","city_kana":"アイラシ","town":"加治木町諏訪町","town_kana":"カジキチョウスワマチ","prefecture_code":46},"5231":{"zip_code":"8995231","prefecture":"鹿児島県","prefecture_kana":"カゴシマケン","city":"姶良市","city_kana":"アイラシ","town":"加治木町反土","town_kana":"カジキチョウタンド","prefecture_code":46},"5201":{"zip_code":"8995201","prefecture":"鹿児島県","prefecture_kana":"カゴシマケン","city":"姶良市","city_kana":"アイラシ","town":"加治木町西別府","town_kana":"カジキチョウニシベップ","prefecture_code":46},"5204":{"zip_code":"8995204","prefecture":"鹿児島県","prefecture_kana":"カゴシマケン","city":"姶良市","city_kana":"アイラシ","town":"加治木町日木山","town_kana":"カジキチョウヒキヤマ","prefecture_code":46},"5202":{"zip_code":"8995202","prefecture":"鹿児島県","prefecture_kana":"カゴシマケン","city":"姶良市","city_kana":"アイラシ","town":"加治木町辺川","town_kana":"カジキチョウヘガワ","prefecture_code":46},"5221":{"zip_code":"8995221","prefecture":"鹿児島県","prefecture_kana":"カゴシマケン","city":"姶良市","city_kana":"アイラシ","town":"加治木町港町","town_kana":"カジキチョウミナトマチ","prefecture_code":46},"5215":{"zip_code":"8995215","prefecture":"鹿児島県","prefecture_kana":"カゴシマケン","city":"姶良市","city_kana":"アイラシ","town":"加治木町本町","town_kana":"カジキチョウモトマチ","prefecture_code":46},"5542":{"zip_code":"8995542","prefecture":"鹿児島県","prefecture_kana":"カゴシマケン","city":"姶良市","city_kana":"アイラシ","town":"上名","town_kana":"カミミョウ","prefecture_code":46},"5301":{"zip_code":"8995301","prefecture":"鹿児島県","prefecture_kana":"カゴシマケン","city":"姶良市","city_kana":"アイラシ","town":"蒲生町漆","town_kana":"カモウチョウウルシ","prefecture_code":46},"5302":{"zip_code":"8995302","prefecture":"鹿児島県","prefecture_kana":"カゴシマケン","city":"姶良市","city_kana":"アイラシ","town":"蒲生町上久徳","town_kana":"カモウチョウカミギュウトク","prefecture_code":46},"5303":{"zip_code":"8995303","prefecture":"鹿児島県","prefecture_kana":"カゴシマケン","city":"姶良市","city_kana":"アイラシ","town":"蒲生町北","town_kana":"カモウチョウキタ","prefecture_code":46},"5304":{"zip_code":"8995304","prefecture":"鹿児島県","prefecture_kana":"カゴシマケン","city":"姶良市","city_kana":"アイラシ","town":"蒲生町下久徳","town_kana":"カモウチョウシモギュウトク","prefecture_code":46},"5305":{"zip_code":"8995305","prefecture":"鹿児島県","prefecture_kana":"カゴシマケン","city":"姶良市","city_kana":"アイラシ","town":"蒲生町白男","town_kana":"カモウチョウシラオ","prefecture_code":46},"5306":{"zip_code":"8995306","prefecture":"鹿児島県","prefecture_kana":"カゴシマケン","city":"姶良市","city_kana":"アイラシ","town":"蒲生町西浦","town_kana":"カモウチョウニシウラ","prefecture_code":46},"5307":{"zip_code":"8995307","prefecture":"鹿児島県","prefecture_kana":"カゴシマケン","city":"姶良市","city_kana":"アイラシ","town":"蒲生町久末","town_kana":"カモウチョウヒサスエ","prefecture_code":46},"5308":{"zip_code":"8995308","prefecture":"鹿児島県","prefecture_kana":"カゴシマケン","city":"姶良市","city_kana":"アイラシ","town":"蒲生町米丸","town_kana":"カモウチョウヨネマル","prefecture_code":46},"5541":{"zip_code":"8995541","prefecture":"鹿児島県","prefecture_kana":"カゴシマケン","city":"姶良市","city_kana":"アイラシ","town":"北山","town_kana":"キタヤマ","prefecture_code":46},"5545":{"zip_code":"8995545","prefecture":"鹿児島県","prefecture_kana":"カゴシマケン","city":"姶良市","city_kana":"アイラシ","town":"木津志","town_kana":"キヅシ","prefecture_code":46},"5412":{"zip_code":"8995412","prefecture":"鹿児島県","prefecture_kana":"カゴシマケン","city":"姶良市","city_kana":"アイラシ","town":"三拾町","town_kana":"サンジュッチョウ","prefecture_code":46},"5543":{"zip_code":"8995543","prefecture":"鹿児島県","prefecture_kana":"カゴシマケン","city":"姶良市","city_kana":"アイラシ","town":"下名","town_kana":"シモミョウ","prefecture_code":46},"5405":{"zip_code":"8995405","prefecture":"鹿児島県","prefecture_kana":"カゴシマケン","city":"姶良市","city_kana":"アイラシ","town":"住吉","town_kana":"スミヨシ","prefecture_code":46},"5401":{"zip_code":"8995401","prefecture":"鹿児島県","prefecture_kana":"カゴシマケン","city":"姶良市","city_kana":"アイラシ","town":"寺師","town_kana":"テラシ","prefecture_code":46},"5413":{"zip_code":"8995413","prefecture":"鹿児島県","prefecture_kana":"カゴシマケン","city":"姶良市","city_kana":"アイラシ","town":"豊留","town_kana":"トヨドメ","prefecture_code":46},"5654":{"zip_code":"8995654","prefecture":"鹿児島県","prefecture_kana":"カゴシマケン","city":"姶良市","city_kana":"アイラシ","town":"永池町","town_kana":"ナガイケマチ","prefecture_code":46},"5404":{"zip_code":"8995404","prefecture":"鹿児島県","prefecture_kana":"カゴシマケン","city":"姶良市","city_kana":"アイラシ","town":"永瀬","town_kana":"ナガセ","prefecture_code":46},"5402":{"zip_code":"8995402","prefecture":"鹿児島県","prefecture_kana":"カゴシマケン","city":"姶良市","city_kana":"アイラシ","town":"中津野","town_kana":"ナカツノ","prefecture_code":46},"5411":{"zip_code":"8995411","prefecture":"鹿児島県","prefecture_kana":"カゴシマケン","city":"姶良市","city_kana":"アイラシ","town":"鍋倉","town_kana":"ナベクラ","prefecture_code":46},"5656":{"zip_code":"8995656","prefecture":"鹿児島県","prefecture_kana":"カゴシマケン","city":"姶良市","city_kana":"アイラシ","town":"西姶良","town_kana":"ニシアイラ","prefecture_code":46},"5433":{"zip_code":"8995433","prefecture":"鹿児島県","prefecture_kana":"カゴシマケン","city":"姶良市","city_kana":"アイラシ","town":"西宮島町","town_kana":"ニシミヤジママチ","prefecture_code":46},"5431":{"zip_code":"8995431","prefecture":"鹿児島県","prefecture_kana":"カゴシマケン","city":"姶良市","city_kana":"アイラシ","town":"西餠田","town_kana":"ニシモチダ","prefecture_code":46},"5421":{"zip_code":"8995421","prefecture":"鹿児島県","prefecture_kana":"カゴシマケン","city":"姶良市","city_kana":"アイラシ","town":"東餠田","town_kana":"ヒガシモチダ","prefecture_code":46},"5652":{"zip_code":"8995652","prefecture":"鹿児島県","prefecture_kana":"カゴシマケン","city":"姶良市","city_kana":"アイラシ","town":"平松","town_kana":"ヒラマツ","prefecture_code":46},"5414":{"zip_code":"8995414","prefecture":"鹿児島県","prefecture_kana":"カゴシマケン","city":"姶良市","city_kana":"アイラシ","town":"深水","town_kana":"フカミズ","prefecture_code":46},"5655":{"zip_code":"8995655","prefecture":"鹿児島県","prefecture_kana":"カゴシマケン","city":"姶良市","city_kana":"アイラシ","town":"船津","town_kana":"フナツ","prefecture_code":46},"5403":{"zip_code":"8995403","prefecture":"鹿児島県","prefecture_kana":"カゴシマケン","city":"姶良市","city_kana":"アイラシ","town":"増田","town_kana":"マスダ","prefecture_code":46},"5422":{"zip_code":"8995422","prefecture":"鹿児島県","prefecture_kana":"カゴシマケン","city":"姶良市","city_kana":"アイラシ","town":"松原町","town_kana":"マツバラマチ","prefecture_code":46},"5432":{"zip_code":"8995432","prefecture":"鹿児島県","prefecture_kana":"カゴシマケン","city":"姶良市","city_kana":"アイラシ","town":"宮島町","town_kana":"ミヤジママチ","prefecture_code":46},"5651":{"zip_code":"8995651","prefecture":"鹿児島県","prefecture_kana":"カゴシマケン","city":"姶良市","city_kana":"アイラシ","town":"脇元","town_kana":"ワキモト","prefecture_code":46},"1400":{"zip_code":"8991400","prefecture":"鹿児島県","prefecture_kana":"カゴシマケン","city":"出水郡長島町","city_kana":"イズミグンナガシマチョウ","town":"","town_kana":"","prefecture_code":46},"1402":{"zip_code":"8991402","prefecture":"鹿児島県","prefecture_kana":"カゴシマケン","city":"出水郡長島町","city_kana":"イズミグンナガシマチョウ","town":"浦底","town_kana":"ウラソコ","prefecture_code":46},"1212":{"zip_code":"8991212","prefecture":"鹿児島県","prefecture_kana":"カゴシマケン","city":"出水郡長島町","city_kana":"イズミグンナガシマチョウ","town":"川床","town_kana":"カワトコ","prefecture_code":46},"1301":{"zip_code":"8991301","prefecture":"鹿児島県","prefecture_kana":"カゴシマケン","city":"出水郡長島町","city_kana":"イズミグンナガシマチョウ","town":"蔵之元","town_kana":"クラノモト","prefecture_code":46},"1303":{"zip_code":"8991303","prefecture":"鹿児島県","prefecture_kana":"カゴシマケン","city":"出水郡長島町","city_kana":"イズミグンナガシマチョウ","town":"指江","town_kana":"サスエ","prefecture_code":46},"1501":{"zip_code":"8991501","prefecture":"鹿児島県","prefecture_kana":"カゴシマケン","city":"出水郡長島町","city_kana":"イズミグンナガシマチョウ","town":"獅子島","town_kana":"シシジマ","prefecture_code":46},"1321":{"zip_code":"8991321","prefecture":"鹿児島県","prefecture_kana":"カゴシマケン","city":"出水郡長島町","city_kana":"イズミグンナガシマチョウ","town":"下山門野","town_kana":"シモヤマドノ","prefecture_code":46},"1304":{"zip_code":"8991304","prefecture":"鹿児島県","prefecture_kana":"カゴシマケン","city":"出水郡長島町","city_kana":"イズミグンナガシマチョウ","town":"城川内","town_kana":"ジョウカワウチ","prefecture_code":46},"1403":{"zip_code":"8991403","prefecture":"鹿児島県","prefecture_kana":"カゴシマケン","city":"出水郡長島町","city_kana":"イズミグンナガシマチョウ","town":"諸浦","town_kana":"ショウラ","prefecture_code":46},"1401":{"zip_code":"8991401","prefecture":"鹿児島県","prefecture_kana":"カゴシマケン","city":"出水郡長島町","city_kana":"イズミグンナガシマチョウ","town":"鷹巣","town_kana":"タカノス","prefecture_code":46},"1302":{"zip_code":"8991302","prefecture":"鹿児島県","prefecture_kana":"カゴシマケン","city":"出水郡長島町","city_kana":"イズミグンナガシマチョウ","town":"平尾","town_kana":"ヒラオ","prefecture_code":46},"1211":{"zip_code":"8991211","prefecture":"鹿児島県","prefecture_kana":"カゴシマケン","city":"出水郡長島町","city_kana":"イズミグンナガシマチョウ","town":"山門野","town_kana":"ヤマドノ","prefecture_code":46},"6200":{"zip_code":"8996200","prefecture":"鹿児島県","prefecture_kana":"カゴシマケン","city":"姶良郡湧水町","city_kana":"アイラグンユウスイチョウ","town":"","town_kana":"","prefecture_code":46},"6204":{"zip_code":"8996204","prefecture":"鹿児島県","prefecture_kana":"カゴシマケン","city":"姶良郡湧水町","city_kana":"アイラグンユウスイチョウ","town":"稲葉崎","town_kana":"イナバサキ","prefecture_code":46},"6103":{"zip_code":"8996103","prefecture":"鹿児島県","prefecture_kana":"カゴシマケン","city":"姶良郡湧水町","city_kana":"アイラグンユウスイチョウ","town":"川添","town_kana":"カワソエ","prefecture_code":46},"6104":{"zip_code":"8996104","prefecture":"鹿児島県","prefecture_kana":"カゴシマケン","city":"姶良郡湧水町","city_kana":"アイラグンユウスイチョウ","town":"川西","town_kana":"カワニシ","prefecture_code":46},"6202":{"zip_code":"8996202","prefecture":"鹿児島県","prefecture_kana":"カゴシマケン","city":"姶良郡湧水町","city_kana":"アイラグンユウスイチョウ","town":"北方","town_kana":"キタカタ","prefecture_code":46},"6205":{"zip_code":"8996205","prefecture":"鹿児島県","prefecture_kana":"カゴシマケン","city":"姶良郡湧水町","city_kana":"アイラグンユウスイチョウ","town":"幸田","town_kana":"コウダ","prefecture_code":46},"6201":{"zip_code":"8996201","prefecture":"鹿児島県","prefecture_kana":"カゴシマケン","city":"姶良郡湧水町","city_kana":"アイラグンユウスイチョウ","town":"木場","town_kana":"コバ","prefecture_code":46},"6203":{"zip_code":"8996203","prefecture":"鹿児島県","prefecture_kana":"カゴシマケン","city":"姶良郡湧水町","city_kana":"アイラグンユウスイチョウ","town":"田尾原","town_kana":"タオバル","prefecture_code":46},"6206":{"zip_code":"8996206","prefecture":"鹿児島県","prefecture_kana":"カゴシマケン","city":"姶良郡湧水町","city_kana":"アイラグンユウスイチョウ","town":"恒次","town_kana":"ツネツグ","prefecture_code":46},"6101":{"zip_code":"8996101","prefecture":"鹿児島県","prefecture_kana":"カゴシマケン","city":"姶良郡湧水町","city_kana":"アイラグンユウスイチョウ","town":"鶴丸","town_kana":"ツルマル","prefecture_code":46},"6102":{"zip_code":"8996102","prefecture":"鹿児島県","prefecture_kana":"カゴシマケン","city":"姶良郡湧水町","city_kana":"アイラグンユウスイチョウ","town":"中津川","town_kana":"ナカツガワ","prefecture_code":46},"6105":{"zip_code":"8996105","prefecture":"鹿児島県","prefecture_kana":"カゴシマケン","city":"姶良郡湧水町","city_kana":"アイラグンユウスイチョウ","town":"般若寺","town_kana":"ハンニャジ","prefecture_code":46},"6207":{"zip_code":"8996207","prefecture":"鹿児島県","prefecture_kana":"カゴシマケン","city":"姶良郡湧水町","city_kana":"アイラグンユウスイチョウ","town":"米永","town_kana":"ヨネナガ","prefecture_code":46},"7300":{"zip_code":"8997300","prefecture":"鹿児島県","prefecture_kana":"カゴシマケン","city":"曽於郡大崎町","city_kana":"ソオグンオオサキチョウ","town":"","town_kana":"","prefecture_code":46},"7309":{"zip_code":"8997309","prefecture":"鹿児島県","prefecture_kana":"カゴシマケン","city":"曽於郡大崎町","city_kana":"ソオグンオオサキチョウ","town":"井俣","town_kana":"イマタ","prefecture_code":46},"7308":{"zip_code":"8997308","prefecture":"鹿児島県","prefecture_kana":"カゴシマケン","city":"曽於郡大崎町","city_kana":"ソオグンオオサキチョウ","town":"岡別府","town_kana":"オカベップ","prefecture_code":46},"7305":{"zip_code":"8997305","prefecture":"鹿児島県","prefecture_kana":"カゴシマケン","city":"曽於郡大崎町","city_kana":"ソオグンオオサキチョウ","town":"假宿","town_kana":"カリジュク","prefecture_code":46},"7302":{"zip_code":"8997302","prefecture":"鹿児島県","prefecture_kana":"カゴシマケン","city":"曽於郡大崎町","city_kana":"ソオグンオオサキチョウ","town":"神領","town_kana":"ジンリョウ","prefecture_code":46},"7306":{"zip_code":"8997306","prefecture":"鹿児島県","prefecture_kana":"カゴシマケン","city":"曽於郡大崎町","city_kana":"ソオグンオオサキチョウ","town":"永吉","town_kana":"ナガヨシ","prefecture_code":46},"8313":{"zip_code":"8998313","prefecture":"鹿児島県","prefecture_kana":"カゴシマケン","city":"曽於郡大崎町","city_kana":"ソオグンオオサキチョウ","town":"野方","town_kana":"ノガタ","prefecture_code":46},"7301":{"zip_code":"8997301","prefecture":"鹿児島県","prefecture_kana":"カゴシマケン","city":"曽於郡大崎町","city_kana":"ソオグンオオサキチョウ","town":"菱田","town_kana":"ヒシダ","prefecture_code":46},"7303":{"zip_code":"8997303","prefecture":"鹿児島県","prefecture_kana":"カゴシマケン","city":"曽於郡大崎町","city_kana":"ソオグンオオサキチョウ","town":"益丸","town_kana":"マスマル","prefecture_code":46},"7307":{"zip_code":"8997307","prefecture":"鹿児島県","prefecture_kana":"カゴシマケン","city":"曽於郡大崎町","city_kana":"ソオグンオオサキチョウ","town":"持留","town_kana":"モチドメ","prefecture_code":46},"7304":{"zip_code":"8997304","prefecture":"鹿児島県","prefecture_kana":"カゴシマケン","city":"曽於郡大崎町","city_kana":"ソオグンオオサキチョウ","town":"横瀬","town_kana":"ヨコセ","prefecture_code":46}}