{"0154":{"zip_code":"9010154","prefecture":"沖縄県","prefecture_kana":"オキナワケン","city":"那覇市","city_kana":"ナハシ","town":"赤嶺","town_kana":"アカミネ","prefecture_code":47},"0143":{"zip_code":"9010143","prefecture":"沖縄県","prefecture_kana":"オキナワケン","city":"那覇市","city_kana":"ナハシ","town":"安次嶺","town_kana":"アシミネ","prefecture_code":47},"0153":{"zip_code":"9010153","prefecture":"沖縄県","prefecture_kana":"オキナワケン","city":"那覇市","city_kana":"ナハシ","town":"宇栄原","town_kana":"ウエバル","prefecture_code":47},"0148":{"zip_code":"9010148","prefecture":"沖縄県","prefecture_kana":"オキナワケン","city":"那覇市","city_kana":"ナハシ","town":"大嶺","town_kana":"オオミネ","prefecture_code":47},"0152":{"zip_code":"9010152","prefecture":"沖縄県","prefecture_kana":"オキナワケン","city":"那覇市","city_kana":"ナハシ","town":"小禄","town_kana":"オロク","prefecture_code":47},"0142":{"zip_code":"9010142","prefecture":"沖縄県","prefecture_kana":"オキナワケン","city":"那覇市","city_kana":"ナハシ","town":"鏡水","town_kana":"カガミズ","prefecture_code":47},"0155":{"zip_code":"9010155","prefecture":"沖縄県","prefecture_kana":"オキナワケン","city":"那覇市","city_kana":"ナハシ","town":"金城","town_kana":"カナグスク","prefecture_code":47},"0151":{"zip_code":"9010151","prefecture":"沖縄県","prefecture_kana":"オキナワケン","city":"那覇市","city_kana":"ナハシ","town":"鏡原町","town_kana":"キョウハラチョウ","prefecture_code":47},"0146":{"zip_code":"9010146","prefecture":"沖縄県","prefecture_kana":"オキナワケン","city":"那覇市","city_kana":"ナハシ","town":"具志","town_kana":"グシ","prefecture_code":47},"0141":{"zip_code":"9010141","prefecture":"沖縄県","prefecture_kana":"オキナワケン","city":"那覇市","city_kana":"ナハシ","town":"住吉町","town_kana":"スミヨシチョウ","prefecture_code":47},"0145":{"zip_code":"9010145","prefecture":"沖縄県","prefecture_kana":"オキナワケン","city":"那覇市","city_kana":"ナハシ","town":"高良","town_kana":"タカラ","prefecture_code":47},"0156":{"zip_code":"9010156","prefecture":"沖縄県","prefecture_kana":"オキナワケン","city":"那覇市","city_kana":"ナハシ","town":"田原","town_kana":"タバル","prefecture_code":47},"0144":{"zip_code":"9010144","prefecture":"沖縄県","prefecture_kana":"オキナワケン","city":"那覇市","city_kana":"ナハシ","town":"当間","town_kana":"トウマ","prefecture_code":47},"0147":{"zip_code":"9010147","prefecture":"沖縄県","prefecture_kana":"オキナワケン","city":"那覇市","city_kana":"ナハシ","town":"宮城","town_kana":"ミヤグスク","prefecture_code":47},"2200":{"zip_code":"9012200","prefecture":"沖縄県","prefecture_kana":"オキナワケン","city":"宜野湾市","city_kana":"ギノワンシ","town":"以下に掲載がない場合","town_kana":"イカニケイサイガナイバアイ","prefecture_code":47},"2206":{"zip_code":"9012206","prefecture":"沖縄県","prefecture_kana":"オキナワケン","city":"宜野湾市","city_kana":"ギノワンシ","town":"愛知","town_kana":"アイチ","prefecture_code":47},"2205":{"zip_code":"9012205","prefecture":"沖縄県","prefecture_kana":"オキナワケン","city":"宜野湾市","city_kana":"ギノワンシ","town":"赤道","town_kana":"アカミチ","prefecture_code":47},"2201":{"zip_code":"9012201","prefecture":"沖縄県","prefecture_kana":"オキナワケン","city":"宜野湾市","city_kana":"ギノワンシ","town":"新城","town_kana":"アラグスク","prefecture_code":47},"2221":{"zip_code":"9012221","prefecture":"沖縄県","prefecture_kana":"オキナワケン","city":"宜野湾市","city_kana":"ギノワンシ","town":"伊佐","town_kana":"イサ","prefecture_code":47},"2204":{"zip_code":"9012204","prefecture":"沖縄県","prefecture_kana":"オキナワケン","city":"宜野湾市","city_kana":"ギノワンシ","town":"上原","town_kana":"ウエハラ","prefecture_code":47},"2227":{"zip_code":"9012227","prefecture":"沖縄県","prefecture_kana":"オキナワケン","city":"宜野湾市","city_kana":"ギノワンシ","town":"宇地泊","town_kana":"ウチドマリ","prefecture_code":47},"2225":{"zip_code":"9012225","prefecture":"沖縄県","prefecture_kana":"オキナワケン","city":"宜野湾市","city_kana":"ギノワンシ","town":"大謝名","town_kana":"オオジャナ","prefecture_code":47},"2223":{"zip_code":"9012223","prefecture":"沖縄県","prefecture_kana":"オキナワケン","city":"宜野湾市","city_kana":"ギノワンシ","town":"大山","town_kana":"オオヤマ","prefecture_code":47},"2226":{"zip_code":"9012226","prefecture":"沖縄県","prefecture_kana":"オキナワケン","city":"宜野湾市","city_kana":"ギノワンシ","town":"嘉数","town_kana":"カカズ","prefecture_code":47},"2214":{"zip_code":"9012214","prefecture":"沖縄県","prefecture_kana":"オキナワケン","city":"宜野湾市","city_kana":"ギノワンシ","town":"我如古","town_kana":"ガネコ","prefecture_code":47},"2207":{"zip_code":"9012207","prefecture":"沖縄県","prefecture_kana":"オキナワケン","city":"宜野湾市","city_kana":"ギノワンシ","town":"神山","town_kana":"カミヤマ","prefecture_code":47},"2211":{"zip_code":"9012211","prefecture":"沖縄県","prefecture_kana":"オキナワケン","city":"宜野湾市","city_kana":"ギノワンシ","town":"宜野湾","town_kana":"ギノワン","prefecture_code":47},"2222":{"zip_code":"9012222","prefecture":"沖縄県","prefecture_kana":"オキナワケン","city":"宜野湾市","city_kana":"ギノワンシ","town":"喜友名","town_kana":"キユウナ","prefecture_code":47},"2216":{"zip_code":"9012216","prefecture":"沖縄県","prefecture_kana":"オキナワケン","city":"宜野湾市","city_kana":"ギノワンシ","town":"佐真下","town_kana":"サマシタ","prefecture_code":47},"2213":{"zip_code":"9012213","prefecture":"沖縄県","prefecture_kana":"オキナワケン","city":"宜野湾市","city_kana":"ギノワンシ","town":"志真志","town_kana":"シマシ","prefecture_code":47},"2212":{"zip_code":"9012212","prefecture":"沖縄県","prefecture_kana":"オキナワケン","city":"宜野湾市","city_kana":"ギノワンシ","town":"長田","town_kana":"ナガタ","prefecture_code":47},"2203":{"zip_code":"9012203","prefecture":"沖縄県","prefecture_kana":"オキナワケン","city":"宜野湾市","city_kana":"ギノワンシ","town":"野嵩","town_kana":"ノダケ","prefecture_code":47},"2202":{"zip_code":"9012202","prefecture":"沖縄県","prefecture_kana":"オキナワケン","city":"宜野湾市","city_kana":"ギノワンシ","town":"普天間","town_kana":"フテンマ","prefecture_code":47},"2215":{"zip_code":"9012215","prefecture":"沖縄県","prefecture_kana":"オキナワケン","city":"宜野湾市","city_kana":"ギノワンシ","town":"真栄原","town_kana":"マエハラ","prefecture_code":47},"2224":{"zip_code":"9012224","prefecture":"沖縄県","prefecture_kana":"オキナワケン","city":"宜野湾市","city_kana":"ギノワンシ","town":"真志喜","town_kana":"マシキ","prefecture_code":47},"2100":{"zip_code":"9012100","prefecture":"沖縄県","prefecture_kana":"オキナワケン","city":"浦添市","city_kana":"ウラソエシ","town":"以下に掲載がない場合","town_kana":"イカニケイサイガナイバアイ","prefecture_code":47},"2114":{"zip_code":"9012114","prefecture":"沖縄県","prefecture_kana":"オキナワケン","city":"浦添市","city_kana":"ウラソエシ","town":"安波茶","town_kana":"アハチャ","prefecture_code":47},"2132":{"zip_code":"9012132","prefecture":"沖縄県","prefecture_kana":"オキナワケン","city":"浦添市","city_kana":"ウラソエシ","town":"伊祖","town_kana":"イソ","prefecture_code":47},"2128":{"zip_code":"9012128","prefecture":"沖縄県","prefecture_kana":"オキナワケン","city":"浦添市","city_kana":"ウラソエシ","town":"伊奈武瀬","town_kana":"イナンセ","prefecture_code":47},"2123":{"zip_code":"9012123","prefecture":"沖縄県","prefecture_kana":"オキナワケン","city":"浦添市","city_kana":"ウラソエシ","town":"西洲","town_kana":"イリジマ","prefecture_code":47},"2121":{"zip_code":"9012121","prefecture":"沖縄県","prefecture_kana":"オキナワケン","city":"浦添市","city_kana":"ウラソエシ","town":"内間","town_kana":"ウチマ","prefecture_code":47},"2113":{"zip_code":"9012113","prefecture":"沖縄県","prefecture_kana":"オキナワケン","city":"浦添市","city_kana":"ウラソエシ","town":"大平","town_kana":"オオヒラ","prefecture_code":47},"2111":{"zip_code":"9012111","prefecture":"沖縄県","prefecture_kana":"オキナワケン","city":"浦添市","city_kana":"ウラソエシ","town":"経塚","town_kana":"キョウヅカ","prefecture_code":47},"2133":{"zip_code":"9012133","prefecture":"沖縄県","prefecture_kana":"オキナワケン","city":"浦添市","city_kana":"ウラソエシ","town":"城間","town_kana":"グスクマ","prefecture_code":47},"2124":{"zip_code":"9012124","prefecture":"沖縄県","prefecture_kana":"オキナワケン","city":"浦添市","city_kana":"ウラソエシ","town":"小湾","town_kana":"コワン","prefecture_code":47},"2122":{"zip_code":"9012122","prefecture":"沖縄県","prefecture_kana":"オキナワケン","city":"浦添市","city_kana":"ウラソエシ","town":"勢理客","town_kana":"ジッチャク","prefecture_code":47},"2112":{"zip_code":"9012112","prefecture":"沖縄県","prefecture_kana":"オキナワケン","city":"浦添市","city_kana":"ウラソエシ","town":"沢岻","town_kana":"タクシ","prefecture_code":47},"2104":{"zip_code":"9012104","prefecture":"沖縄県","prefecture_kana":"オキナワケン","city":"浦添市","city_kana":"ウラソエシ","town":"当山","town_kana":"トウヤマ","prefecture_code":47},"2103":{"zip_code":"9012103","prefecture":"沖縄県","prefecture_kana":"オキナワケン","city":"浦添市","city_kana":"ウラソエシ","town":"仲間","town_kana":"ナカマ","prefecture_code":47},"2125":{"zip_code":"9012125","prefecture":"沖縄県","prefecture_kana":"オキナワケン","city":"浦添市","city_kana":"ウラソエシ","town":"仲西","town_kana":"ナカニシ","prefecture_code":47},"2101":{"zip_code":"9012101","prefecture":"沖縄県","prefecture_kana":"オキナワケン","city":"浦添市","city_kana":"ウラソエシ","town":"西原","town_kana":"ニシハラ","prefecture_code":47},"2102":{"zip_code":"9012102","prefecture":"沖縄県","prefecture_kana":"オキナワケン","city":"浦添市","city_kana":"ウラソエシ","town":"前田","town_kana":"マエダ","prefecture_code":47},"2131":{"zip_code":"9012131","prefecture":"沖縄県","prefecture_kana":"オキナワケン","city":"浦添市","city_kana":"ウラソエシ","town":"牧港","town_kana":"マキミナト","prefecture_code":47},"2134":{"zip_code":"9012134","prefecture":"沖縄県","prefecture_kana":"オキナワケン","city":"浦添市","city_kana":"ウラソエシ","town":"港川","town_kana":"ミナトガワ","prefecture_code":47},"2126":{"zip_code":"9012126","prefecture":"沖縄県","prefecture_kana":"オキナワケン","city":"浦添市","city_kana":"ウラソエシ","town":"宮城","town_kana":"ミヤギ","prefecture_code":47},"2127":{"zip_code":"9012127","prefecture":"沖縄県","prefecture_kana":"オキナワケン","city":"浦添市","city_kana":"ウラソエシ","town":"屋富祖","town_kana":"ヤフソ","prefecture_code":47},"0300":{"zip_code":"9010300","prefecture":"沖縄県","prefecture_kana":"オキナワケン","city":"糸満市","city_kana":"イトマンシ","town":"以下に掲載がない場合","town_kana":"イカニケイサイガナイバアイ","prefecture_code":47},"0301":{"zip_code":"9010301","prefecture":"沖縄県","prefecture_kana":"オキナワケン","city":"糸満市","city_kana":"イトマンシ","town":"阿波根","town_kana":"アハゴン","prefecture_code":47},"0323":{"zip_code":"9010323","prefecture":"沖縄県","prefecture_kana":"オキナワケン","city":"糸満市","city_kana":"イトマンシ","town":"新垣","town_kana":"アラカキ","prefecture_code":47},"0363":{"zip_code":"9010363","prefecture":"沖縄県","prefecture_kana":"オキナワケン","city":"糸満市","city_kana":"イトマンシ","town":"伊敷","town_kana":"イシキ","prefecture_code":47},"0342":{"zip_code":"9010342","prefecture":"沖縄県","prefecture_kana":"オキナワケン","city":"糸満市","city_kana":"イトマンシ","town":"糸洲","town_kana":"イトス","prefecture_code":47},"0361":{"zip_code":"9010361","prefecture":"沖縄県","prefecture_kana":"オキナワケン","city":"糸満市","city_kana":"イトマンシ","town":"糸満","town_kana":"イトマン","prefecture_code":47},"0344":{"zip_code":"9010344","prefecture":"沖縄県","prefecture_kana":"オキナワケン","city":"糸満市","city_kana":"イトマンシ","town":"伊原","town_kana":"イハラ","prefecture_code":47},"0332":{"zip_code":"9010332","prefecture":"沖縄県","prefecture_kana":"オキナワケン","city":"糸満市","city_kana":"イトマンシ","town":"宇江城","town_kana":"ウエグスク","prefecture_code":47},"0325":{"zip_code":"9010325","prefecture":"沖縄県","prefecture_kana":"オキナワケン","city":"糸満市","city_kana":"イトマンシ","town":"大里","town_kana":"オオザト","prefecture_code":47},"0334":{"zip_code":"9010334","prefecture":"沖縄県","prefecture_kana":"オキナワケン","city":"糸満市","city_kana":"イトマンシ","town":"大度","town_kana":"オオド","prefecture_code":47},"0313":{"zip_code":"9010313","prefecture":"沖縄県","prefecture_kana":"オキナワケン","city":"糸満市","city_kana":"イトマンシ","town":"賀数","town_kana":"カカズ","prefecture_code":47},"0303":{"zip_code":"9010303","prefecture":"沖縄県","prefecture_kana":"オキナワケン","city":"糸満市","city_kana":"イトマンシ","town":"兼城","town_kana":"カネグスク","prefecture_code":47},"0312":{"zip_code":"9010312","prefecture":"沖縄県","prefecture_kana":"オキナワケン","city":"糸満市","city_kana":"イトマンシ","town":"北波平","town_kana":"キタナミヒラ","prefecture_code":47},"0354":{"zip_code":"9010354","prefecture":"沖縄県","prefecture_kana":"オキナワケン","city":"糸満市","city_kana":"イトマンシ","town":"喜屋武","town_kana":"キャン","prefecture_code":47},"0324":{"zip_code":"9010324","prefecture":"沖縄県","prefecture_kana":"オキナワケン","city":"糸満市","city_kana":"イトマンシ","town":"国吉","town_kana":"クニヨシ","prefecture_code":47},"0341":{"zip_code":"9010341","prefecture":"沖縄県","prefecture_kana":"オキナワケン","city":"糸満市","city_kana":"イトマンシ","town":"小波蔵","town_kana":"コハグラ","prefecture_code":47},"0335":{"zip_code":"9010335","prefecture":"沖縄県","prefecture_kana":"オキナワケン","city":"糸満市","city_kana":"イトマンシ","town":"米須","town_kana":"コメス","prefecture_code":47},"0314":{"zip_code":"9010314","prefecture":"沖縄県","prefecture_kana":"オキナワケン","city":"糸満市","city_kana":"イトマンシ","town":"座波","town_kana":"ザハ","prefecture_code":47},"0364":{"zip_code":"9010364","prefecture":"沖縄県","prefecture_kana":"オキナワケン","city":"糸満市","city_kana":"イトマンシ","town":"潮崎町","town_kana":"シオザキチョウ","prefecture_code":47},"0302":{"zip_code":"9010302","prefecture":"沖縄県","prefecture_kana":"オキナワケン","city":"糸満市","city_kana":"イトマンシ","town":"潮平","town_kana":"シオヒラ","prefecture_code":47},"0311":{"zip_code":"9010311","prefecture":"沖縄県","prefecture_kana":"オキナワケン","city":"糸満市","city_kana":"イトマンシ","town":"武富","town_kana":"タケトミ","prefecture_code":47},"0353":{"zip_code":"9010353","prefecture":"沖縄県","prefecture_kana":"オキナワケン","city":"糸満市","city_kana":"イトマンシ","town":"束里","town_kana":"ツカザト","prefecture_code":47},"0315":{"zip_code":"9010315","prefecture":"沖縄県","prefecture_kana":"オキナワケン","city":"糸満市","city_kana":"イトマンシ","town":"照屋","town_kana":"テルヤ","prefecture_code":47},"0321":{"zip_code":"9010321","prefecture":"沖縄県","prefecture_kana":"オキナワケン","city":"糸満市","city_kana":"イトマンシ","town":"豊原","town_kana":"トヨハラ","prefecture_code":47},"0351":{"zip_code":"9010351","prefecture":"沖縄県","prefecture_kana":"オキナワケン","city":"糸満市","city_kana":"イトマンシ","town":"名城","town_kana":"ナシロ","prefecture_code":47},"0304":{"zip_code":"9010304","prefecture":"沖縄県","prefecture_kana":"オキナワケン","city":"糸満市","city_kana":"イトマンシ","town":"西川町","town_kana":"ニシカワチョウ","prefecture_code":47},"0305":{"zip_code":"9010305","prefecture":"沖縄県","prefecture_kana":"オキナワケン","city":"糸満市","city_kana":"イトマンシ","town":"西崎","town_kana":"ニシザキ","prefecture_code":47},"0306":{"zip_code":"9010306","prefecture":"沖縄県","prefecture_kana":"オキナワケン","city":"糸満市","city_kana":"イトマンシ","town":"西崎町","town_kana":"ニシザキチョウ","prefecture_code":47},"0345":{"zip_code":"9010345","prefecture":"沖縄県","prefecture_kana":"オキナワケン","city":"糸満市","city_kana":"イトマンシ","town":"福地","town_kana":"フクジ","prefecture_code":47},"0362":{"zip_code":"9010362","prefecture":"沖縄県","prefecture_kana":"オキナワケン","city":"糸満市","city_kana":"イトマンシ","town":"真栄里","town_kana":"マエザト","prefecture_code":47},"0331":{"zip_code":"9010331","prefecture":"沖縄県","prefecture_kana":"オキナワケン","city":"糸満市","city_kana":"イトマンシ","town":"真栄平","town_kana":"マエヒラ","prefecture_code":47},"0336":{"zip_code":"9010336","prefecture":"沖縄県","prefecture_kana":"オキナワケン","city":"糸満市","city_kana":"イトマンシ","town":"真壁","town_kana":"マカベ","prefecture_code":47},"0333":{"zip_code":"9010333","prefecture":"沖縄県","prefecture_kana":"オキナワケン","city":"糸満市","city_kana":"イトマンシ","town":"摩文仁","town_kana":"マブニ","prefecture_code":47},"0343":{"zip_code":"9010343","prefecture":"沖縄県","prefecture_kana":"オキナワケン","city":"糸満市","city_kana":"イトマンシ","town":"南波平","town_kana":"ミナミナミヒラ","prefecture_code":47},"0352":{"zip_code":"9010352","prefecture":"沖縄県","prefecture_kana":"オキナワケン","city":"糸満市","city_kana":"イトマンシ","town":"山城","town_kana":"ヤマグスク","prefecture_code":47},"0322":{"zip_code":"9010322","prefecture":"沖縄県","prefecture_kana":"オキナワケン","city":"糸満市","city_kana":"イトマンシ","town":"与座","town_kana":"ヨザ","prefecture_code":47},"0200":{"zip_code":"9010200","prefecture":"沖縄県","prefecture_kana":"オキナワケン","city":"豊見城市","city_kana":"トミグスクシ","town":"以下に掲載がない場合","town_kana":"イカニケイサイガナイバアイ","prefecture_code":47},"0232":{"zip_code":"9010232","prefecture":"沖縄県","prefecture_kana":"オキナワケン","city":"豊見城市","city_kana":"トミグスクシ","town":"伊良波","town_kana":"イラハ","prefecture_code":47},"0243":{"zip_code":"9010243","prefecture":"沖縄県","prefecture_kana":"オキナワケン","city":"豊見城市","city_kana":"トミグスクシ","town":"上田","town_kana":"ウエタ","prefecture_code":47},"0223":{"zip_code":"9010223","prefecture":"沖縄県","prefecture_kana":"オキナワケン","city":"豊見城市","city_kana":"トミグスクシ","town":"翁長","town_kana":"オナガ","prefecture_code":47},"0202":{"zip_code":"9010202","prefecture":"沖縄県","prefecture_kana":"オキナワケン","city":"豊見城市","city_kana":"トミグスクシ","town":"嘉数","town_kana":"カカズ","prefecture_code":47},"0231":{"zip_code":"9010231","prefecture":"沖縄県","prefecture_kana":"オキナワケン","city":"豊見城市","city_kana":"トミグスクシ","town":"我那覇","town_kana":"ガナハ","prefecture_code":47},"0204":{"zip_code":"9010204","prefecture":"沖縄県","prefecture_kana":"オキナワケン","city":"豊見城市","city_kana":"トミグスクシ","town":"金良","town_kana":"カネラ","prefecture_code":47},"0244":{"zip_code":"9010244","prefecture":"沖縄県","prefecture_kana":"オキナワケン","city":"豊見城市","city_kana":"トミグスクシ","town":"宜保","town_kana":"ギボ","prefecture_code":47},"0221":{"zip_code":"9010221","prefecture":"沖縄県","prefecture_kana":"オキナワケン","city":"豊見城市","city_kana":"トミグスクシ","town":"座安","town_kana":"ザヤス","prefecture_code":47},"0233":{"zip_code":"9010233","prefecture":"沖縄県","prefecture_kana":"オキナワケン","city":"豊見城市","city_kana":"トミグスクシ","town":"瀬長","town_kana":"セナガ","prefecture_code":47},"0212":{"zip_code":"9010212","prefecture":"沖縄県","prefecture_kana":"オキナワケン","city":"豊見城市","city_kana":"トミグスクシ","town":"平良","town_kana":"タイラ","prefecture_code":47},"0213":{"zip_code":"9010213","prefecture":"沖縄県","prefecture_kana":"オキナワケン","city":"豊見城市","city_kana":"トミグスクシ","town":"高嶺","town_kana":"タカミネ","prefecture_code":47},"0242":{"zip_code":"9010242","prefecture":"沖縄県","prefecture_kana":"オキナワケン","city":"豊見城市","city_kana":"トミグスクシ","town":"高安","town_kana":"タカヤス","prefecture_code":47},"0234":{"zip_code":"9010234","prefecture":"沖縄県","prefecture_kana":"オキナワケン","city":"豊見城市","city_kana":"トミグスクシ","town":"田頭","town_kana":"タガミ","prefecture_code":47},"0215":{"zip_code":"9010215","prefecture":"沖縄県","prefecture_kana":"オキナワケン","city":"豊見城市","city_kana":"トミグスクシ","town":"渡嘉敷","town_kana":"トカシキ","prefecture_code":47},"0222":{"zip_code":"9010222","prefecture":"沖縄県","prefecture_kana":"オキナワケン","city":"豊見城市","city_kana":"トミグスクシ","town":"渡橋名","town_kana":"トハシナ","prefecture_code":47},"0241":{"zip_code":"9010241","prefecture":"沖縄県","prefecture_kana":"オキナワケン","city":"豊見城市","city_kana":"トミグスクシ","town":"豊見城","town_kana":"トミグスク","prefecture_code":47},"0225":{"zip_code":"9010225","prefecture":"沖縄県","prefecture_kana":"オキナワケン","city":"豊見城市","city_kana":"トミグスクシ","town":"豊崎","town_kana":"トヨサキ","prefecture_code":47},"0235":{"zip_code":"9010235","prefecture":"沖縄県","prefecture_kana":"オキナワケン","city":"豊見城市","city_kana":"トミグスクシ","town":"名嘉地","town_kana":"ナカチ","prefecture_code":47},"0203":{"zip_code":"9010203","prefecture":"沖縄県","prefecture_kana":"オキナワケン","city":"豊見城市","city_kana":"トミグスクシ","town":"長堂","town_kana":"ナガドウ","prefecture_code":47},"0205":{"zip_code":"9010205","prefecture":"沖縄県","prefecture_kana":"オキナワケン","city":"豊見城市","city_kana":"トミグスクシ","town":"根差部","town_kana":"ネサブ","prefecture_code":47},"0211":{"zip_code":"9010211","prefecture":"沖縄県","prefecture_kana":"オキナワケン","city":"豊見城市","city_kana":"トミグスクシ","town":"饒波","town_kana":"ノハ","prefecture_code":47},"0214":{"zip_code":"9010214","prefecture":"沖縄県","prefecture_kana":"オキナワケン","city":"豊見城市","city_kana":"トミグスクシ","town":"保栄茂","town_kana":"ビン","prefecture_code":47},"0201":{"zip_code":"9010201","prefecture":"沖縄県","prefecture_kana":"オキナワケン","city":"豊見城市","city_kana":"トミグスクシ","town":"真玉橋","town_kana":"マダンバシ","prefecture_code":47},"0224":{"zip_code":"9010224","prefecture":"沖縄県","prefecture_kana":"オキナワケン","city":"豊見城市","city_kana":"トミグスクシ","town":"与根","town_kana":"ヨネ","prefecture_code":47},"1400":{"zip_code":"9011400","prefecture":"沖縄県","prefecture_kana":"オキナワケン","city":"南城市","city_kana":"ナンジョウシ","town":"以下に掲載がない場合","town_kana":"イカニケイサイガナイバアイ","prefecture_code":47},"1204":{"zip_code":"9011204","prefecture":"沖縄県","prefecture_kana":"オキナワケン","city":"南城市","city_kana":"ナンジョウシ","town":"大里稲嶺","town_kana":"オオザトイナミネ","prefecture_code":47},"1202":{"zip_code":"9011202","prefecture":"沖縄県","prefecture_kana":"オキナワケン","city":"南城市","city_kana":"ナンジョウシ","town":"大里大里","town_kana":"オオザトオオザト","prefecture_code":47},"1203":{"zip_code":"9011203","prefecture":"沖縄県","prefecture_kana":"オキナワケン","city":"南城市","city_kana":"ナンジョウシ","town":"大里大城","town_kana":"オオザトオオシロ","prefecture_code":47},"1208":{"zip_code":"9011208","prefecture":"沖縄県","prefecture_kana":"オキナワケン","city":"南城市","city_kana":"ナンジョウシ","town":"大里平良","town_kana":"オオザトタイラ","prefecture_code":47},"1205":{"zip_code":"9011205","prefecture":"沖縄県","prefecture_kana":"オキナワケン","city":"南城市","city_kana":"ナンジョウシ","town":"大里高平","town_kana":"オオザトタカヒラ","prefecture_code":47},"1206":{"zip_code":"9011206","prefecture":"沖縄県","prefecture_kana":"オキナワケン","city":"南城市","city_kana":"ナンジョウシ","town":"大里仲間","town_kana":"オオザトナカマ","prefecture_code":47},"1207":{"zip_code":"9011207","prefecture":"沖縄県","prefecture_kana":"オキナワケン","city":"南城市","city_kana":"ナンジョウシ","town":"大里古堅","town_kana":"オオザトフルゲン","prefecture_code":47},"1201":{"zip_code":"9011201","prefecture":"沖縄県","prefecture_kana":"オキナワケン","city":"南城市","city_kana":"ナンジョウシ","town":"大里嶺井","town_kana":"オオザトミネイ","prefecture_code":47},"1401":{"zip_code":"9011401","prefecture":"沖縄県","prefecture_kana":"オキナワケン","city":"南城市","city_kana":"ナンジョウシ","town":"佐敷伊原","town_kana":"サシキイバラ","prefecture_code":47},"1413":{"zip_code":"9011413","prefecture":"沖縄県","prefecture_kana":"オキナワケン","city":"南城市","city_kana":"ナンジョウシ","town":"佐敷小谷","town_kana":"サシキオコク","prefecture_code":47},"1411":{"zip_code":"9011411","prefecture":"沖縄県","prefecture_kana":"オキナワケン","city":"南城市","city_kana":"ナンジョウシ","town":"佐敷兼久","town_kana":"サシキカネク","prefecture_code":47},"1403":{"zip_code":"9011403","prefecture":"沖縄県","prefecture_kana":"オキナワケン","city":"南城市","city_kana":"ナンジョウシ","town":"佐敷佐敷","town_kana":"サシキサシキ","prefecture_code":47},"1415":{"zip_code":"9011415","prefecture":"沖縄県","prefecture_kana":"オキナワケン","city":"南城市","city_kana":"ナンジョウシ","town":"佐敷新開","town_kana":"サシキシンカイ","prefecture_code":47},"1412":{"zip_code":"9011412","prefecture":"沖縄県","prefecture_kana":"オキナワケン","city":"南城市","city_kana":"ナンジョウシ","town":"佐敷新里","town_kana":"サシキシンザト","prefecture_code":47},"1414":{"zip_code":"9011414","prefecture":"沖縄県","prefecture_kana":"オキナワケン","city":"南城市","city_kana":"ナンジョウシ","town":"佐敷津波古","town_kana":"サシキツハコ","prefecture_code":47},"1402":{"zip_code":"9011402","prefecture":"沖縄県","prefecture_kana":"オキナワケン","city":"南城市","city_kana":"ナンジョウシ","town":"佐敷手登根","town_kana":"サシキテドコン","prefecture_code":47},"1405":{"zip_code":"9011405","prefecture":"沖縄県","prefecture_kana":"オキナワケン","city":"南城市","city_kana":"ナンジョウシ","town":"佐敷仲伊保","town_kana":"サシキナカイホ","prefecture_code":47},"1404":{"zip_code":"9011404","prefecture":"沖縄県","prefecture_kana":"オキナワケン","city":"南城市","city_kana":"ナンジョウシ","town":"佐敷冨祖崎","town_kana":"サシキフソザキ","prefecture_code":47},"1406":{"zip_code":"9011406","prefecture":"沖縄県","prefecture_kana":"オキナワケン","city":"南城市","city_kana":"ナンジョウシ","town":"佐敷屋比久","town_kana":"サシキヤビク","prefecture_code":47},"0617":{"zip_code":"9010617","prefecture":"沖縄県","prefecture_kana":"オキナワケン","city":"南城市","city_kana":"ナンジョウシ","town":"玉城愛地","town_kana":"タマグスクアイチ","prefecture_code":47},"0606":{"zip_code":"9010606","prefecture":"沖縄県","prefecture_kana":"オキナワケン","city":"南城市","city_kana":"ナンジョウシ","town":"玉城糸数","town_kana":"タマグスクイトカズ","prefecture_code":47},"0614":{"zip_code":"9010614","prefecture":"沖縄県","prefecture_kana":"オキナワケン","city":"南城市","city_kana":"ナンジョウシ","town":"玉城奥武","town_kana":"タマグスクオウ","prefecture_code":47},"0608":{"zip_code":"9010608","prefecture":"沖縄県","prefecture_kana":"オキナワケン","city":"南城市","city_kana":"ナンジョウシ","town":"玉城親慶原","town_kana":"タマグスクオヤケバル","prefecture_code":47},"0601":{"zip_code":"9010601","prefecture":"沖縄県","prefecture_kana":"オキナワケン","city":"南城市","city_kana":"ナンジョウシ","town":"玉城垣花","town_kana":"タマグスクカキノハナ","prefecture_code":47},"0607":{"zip_code":"9010607","prefecture":"沖縄県","prefecture_kana":"オキナワケン","city":"南城市","city_kana":"ナンジョウシ","town":"玉城喜良原","town_kana":"タマグスクキラバル","prefecture_code":47},"0613":{"zip_code":"9010613","prefecture":"沖縄県","prefecture_kana":"オキナワケン","city":"南城市","city_kana":"ナンジョウシ","town":"玉城志堅原","town_kana":"タマグスクシケンバル","prefecture_code":47},"0604":{"zip_code":"9010604","prefecture":"沖縄県","prefecture_kana":"オキナワケン","city":"南城市","city_kana":"ナンジョウシ","town":"玉城玉城","town_kana":"タマグスクタマグスク","prefecture_code":47},"0612":{"zip_code":"9010612","prefecture":"沖縄県","prefecture_kana":"オキナワケン","city":"南城市","city_kana":"ナンジョウシ","town":"玉城當山","town_kana":"タマグスクトウヤマ","prefecture_code":47},"0605":{"zip_code":"9010605","prefecture":"沖縄県","prefecture_kana":"オキナワケン","city":"南城市","city_kana":"ナンジョウシ","town":"玉城中山","town_kana":"タマグスクナカヤマ","prefecture_code":47},"0602":{"zip_code":"9010602","prefecture":"沖縄県","prefecture_kana":"オキナワケン","city":"南城市","city_kana":"ナンジョウシ","town":"玉城仲村渠","town_kana":"タマグスクナカンダカリ","prefecture_code":47},"0603":{"zip_code":"9010603","prefecture":"沖縄県","prefecture_kana":"オキナワケン","city":"南城市","city_kana":"ナンジョウシ","town":"玉城百名","town_kana":"タマグスクヒャクナ","prefecture_code":47},"0611":{"zip_code":"9010611","prefecture":"沖縄県","prefecture_kana":"オキナワケン","city":"南城市","city_kana":"ナンジョウシ","town":"玉城富里","town_kana":"タマグスクフサト","prefecture_code":47},"0618":{"zip_code":"9010618","prefecture":"沖縄県","prefecture_kana":"オキナワケン","city":"南城市","city_kana":"ナンジョウシ","town":"玉城船越","town_kana":"タマグスクフナコシ","prefecture_code":47},"0615":{"zip_code":"9010615","prefecture":"沖縄県","prefecture_kana":"オキナワケン","city":"南城市","city_kana":"ナンジョウシ","town":"玉城堀川","town_kana":"タマグスクホリカワ","prefecture_code":47},"0616":{"zip_code":"9010616","prefecture":"沖縄県","prefecture_kana":"オキナワケン","city":"南城市","city_kana":"ナンジョウシ","town":"玉城前川","town_kana":"タマグスクマエカワ","prefecture_code":47},"0619":{"zip_code":"9010619","prefecture":"沖縄県","prefecture_kana":"オキナワケン","city":"南城市","city_kana":"ナンジョウシ","town":"玉城屋嘉部","town_kana":"タマグスクヤカブ","prefecture_code":47},"1502":{"zip_code":"9011502","prefecture":"沖縄県","prefecture_kana":"オキナワケン","city":"南城市","city_kana":"ナンジョウシ","town":"知念安座真","town_kana":"チネンアザマ","prefecture_code":47},"1504":{"zip_code":"9011504","prefecture":"沖縄県","prefecture_kana":"オキナワケン","city":"南城市","city_kana":"ナンジョウシ","town":"知念海野","town_kana":"チネンウミノ","prefecture_code":47},"1514":{"zip_code":"9011514","prefecture":"沖縄県","prefecture_kana":"オキナワケン","city":"南城市","city_kana":"ナンジョウシ","town":"知念具志堅","town_kana":"チネングシケン","prefecture_code":47},"1501":{"zip_code":"9011501","prefecture":"沖縄県","prefecture_kana":"オキナワケン","city":"南城市","city_kana":"ナンジョウシ","town":"知念久高","town_kana":"チネンクダカ","prefecture_code":47},"1511":{"zip_code":"9011511","prefecture":"沖縄県","prefecture_kana":"オキナワケン","city":"南城市","city_kana":"ナンジョウシ","town":"知念久手堅","town_kana":"チネンクデケン","prefecture_code":47},"1505":{"zip_code":"9011505","prefecture":"沖縄県","prefecture_kana":"オキナワケン","city":"南城市","city_kana":"ナンジョウシ","town":"知念久原","town_kana":"チネンクハラ","prefecture_code":47},"1516":{"zip_code":"9011516","prefecture":"沖縄県","prefecture_kana":"オキナワケン","city":"南城市","city_kana":"ナンジョウシ","town":"知念志喜屋","town_kana":"チネンシキヤ","prefecture_code":47},"1503":{"zip_code":"9011503","prefecture":"沖縄県","prefecture_kana":"オキナワケン","city":"南城市","city_kana":"ナンジョウシ","town":"知念知名","town_kana":"チネンチナ","prefecture_code":47},"1513":{"zip_code":"9011513","prefecture":"沖縄県","prefecture_kana":"オキナワケン","city":"南城市","city_kana":"ナンジョウシ","town":"知念知念","town_kana":"チネンチネン","prefecture_code":47},"1515":{"zip_code":"9011515","prefecture":"沖縄県","prefecture_kana":"オキナワケン","city":"南城市","city_kana":"ナンジョウシ","town":"知念山里","town_kana":"チネンヤマザト","prefecture_code":47},"1512":{"zip_code":"9011512","prefecture":"沖縄県","prefecture_kana":"オキナワケン","city":"南城市","city_kana":"ナンジョウシ","town":"知念吉富","town_kana":"チネンヨシトミ","prefecture_code":47},"1407":{"zip_code":"9011407","prefecture":"沖縄県","prefecture_kana":"オキナワケン","city":"南城市","city_kana":"ナンジョウシ","town":"つきしろ","town_kana":"ツキシロ","prefecture_code":47},"2300":{"zip_code":"9012300","prefecture":"沖縄県","prefecture_kana":"オキナワケン","city":"中頭郡北中城村","city_kana":"ナカガミグンキタナカグスクソン","town":"以下に掲載がない場合","town_kana":"イカニケイサイガナイバアイ","prefecture_code":47},"2316":{"zip_code":"9012316","prefecture":"沖縄県","prefecture_kana":"オキナワケン","city":"中頭郡北中城村","city_kana":"ナカガミグンキタナカグスクソン","town":"安谷屋","town_kana":"アダニヤ","prefecture_code":47},"2313":{"zip_code":"9012313","prefecture":"沖縄県","prefecture_kana":"オキナワケン","city":"中頭郡北中城村","city_kana":"ナカガミグンキタナカグスクソン","town":"熱田","town_kana":"アツタ","prefecture_code":47},"2314":{"zip_code":"9012314","prefecture":"沖縄県","prefecture_kana":"オキナワケン","city":"中頭郡北中城村","city_kana":"ナカガミグンキタナカグスクソン","town":"大城","town_kana":"オオグスク","prefecture_code":47},"2315":{"zip_code":"9012315","prefecture":"沖縄県","prefecture_kana":"オキナワケン","city":"中頭郡北中城村","city_kana":"ナカガミグンキタナカグスクソン","town":"荻道","town_kana":"オギドウ","prefecture_code":47},"2311":{"zip_code":"9012311","prefecture":"沖縄県","prefecture_kana":"オキナワケン","city":"中頭郡北中城村","city_kana":"ナカガミグンキタナカグスクソン","town":"喜舎場","town_kana":"キシャバ","prefecture_code":47},"2301":{"zip_code":"9012301","prefecture":"沖縄県","prefecture_kana":"オキナワケン","city":"中頭郡北中城村","city_kana":"ナカガミグンキタナカグスクソン","town":"島袋","town_kana":"シマブク","prefecture_code":47},"2317":{"zip_code":"9012317","prefecture":"沖縄県","prefecture_kana":"オキナワケン","city":"中頭郡北中城村","city_kana":"ナカガミグンキタナカグスクソン","town":"瑞慶覧","town_kana":"ズケラン","prefecture_code":47},"2303":{"zip_code":"9012303","prefecture":"沖縄県","prefecture_kana":"オキナワケン","city":"中頭郡北中城村","city_kana":"ナカガミグンキタナカグスクソン","town":"仲順","town_kana":"チュンジュン","prefecture_code":47},"2302":{"zip_code":"9012302","prefecture":"沖縄県","prefecture_kana":"オキナワケン","city":"中頭郡北中城村","city_kana":"ナカガミグンキタナカグスクソン","town":"渡口","town_kana":"トグチ","prefecture_code":47},"2305":{"zip_code":"9012305","prefecture":"沖縄県","prefecture_kana":"オキナワケン","city":"中頭郡北中城村","city_kana":"ナカガミグンキタナカグスクソン","town":"比嘉","town_kana":"ヒガ","prefecture_code":47},"2321":{"zip_code":"9012321","prefecture":"沖縄県","prefecture_kana":"オキナワケン","city":"中頭郡北中城村","city_kana":"ナカガミグンキタナカグスクソン","town":"美崎","town_kana":"ミサキ","prefecture_code":47},"2304":{"zip_code":"9012304","prefecture":"沖縄県","prefecture_kana":"オキナワケン","city":"中頭郡北中城村","city_kana":"ナカガミグンキタナカグスクソン","town":"屋宜原","town_kana":"ヤギバル","prefecture_code":47},"2312":{"zip_code":"9012312","prefecture":"沖縄県","prefecture_kana":"オキナワケン","city":"中頭郡北中城村","city_kana":"ナカガミグンキタナカグスクソン","town":"和仁屋","town_kana":"ワニヤ","prefecture_code":47},"2400":{"zip_code":"9012400","prefecture":"沖縄県","prefecture_kana":"オキナワケン","city":"中頭郡中城村","city_kana":"ナカガミグンナカグスクソン","town":"以下に掲載がない場合","town_kana":"イカニケイサイガナイバアイ","prefecture_code":47},"2407":{"zip_code":"9012407","prefecture":"沖縄県","prefecture_kana":"オキナワケン","city":"中頭郡中城村","city_kana":"ナカガミグンナカグスクソン","town":"安里","town_kana":"アサト","prefecture_code":47},"2422":{"zip_code":"9012422","prefecture":"沖縄県","prefecture_kana":"オキナワケン","city":"中頭郡中城村","city_kana":"ナカガミグンナカグスクソン","town":"新垣","town_kana":"アラカキ","prefecture_code":47},"2403":{"zip_code":"9012403","prefecture":"沖縄県","prefecture_kana":"オキナワケン","city":"中頭郡中城村","city_kana":"ナカガミグンナカグスクソン","town":"伊舎堂","town_kana":"イシャドウ","prefecture_code":47},"2417":{"zip_code":"9012417","prefecture":"沖縄県","prefecture_kana":"オキナワケン","city":"中頭郡中城村","city_kana":"ナカガミグンナカグスクソン","town":"伊集","town_kana":"イジュ","prefecture_code":47},"2412":{"zip_code":"9012412","prefecture":"沖縄県","prefecture_kana":"オキナワケン","city":"中頭郡中城村","city_kana":"ナカガミグンナカグスクソン","town":"奥間","town_kana":"オクマ","prefecture_code":47},"2423":{"zip_code":"9012423","prefecture":"沖縄県","prefecture_kana":"オキナワケン","city":"中頭郡中城村","city_kana":"ナカガミグンナカグスクソン","town":"北上原","town_kana":"キタウエバル","prefecture_code":47},"2414":{"zip_code":"9012414","prefecture":"沖縄県","prefecture_kana":"オキナワケン","city":"中頭郡中城村","city_kana":"ナカガミグンナカグスクソン","town":"北浜","town_kana":"キタハマ","prefecture_code":47},"2401":{"zip_code":"9012401","prefecture":"沖縄県","prefecture_kana":"オキナワケン","city":"中頭郡中城村","city_kana":"ナカガミグンナカグスクソン","town":"久場","town_kana":"クバ","prefecture_code":47},"2404":{"zip_code":"9012404","prefecture":"沖縄県","prefecture_kana":"オキナワケン","city":"中頭郡中城村","city_kana":"ナカガミグンナカグスクソン","town":"添石","town_kana":"ソエシ","prefecture_code":47},"2413":{"zip_code":"9012413","prefecture":"沖縄県","prefecture_kana":"オキナワケン","city":"中頭郡中城村","city_kana":"ナカガミグンナカグスクソン","town":"津覇","town_kana":"ツハ","prefecture_code":47},"2406":{"zip_code":"9012406","prefecture":"沖縄県","prefecture_kana":"オキナワケン","city":"中頭郡中城村","city_kana":"ナカガミグンナカグスクソン","town":"当間","town_kana":"トウマ","prefecture_code":47},"2402":{"zip_code":"9012402","prefecture":"沖縄県","prefecture_kana":"オキナワケン","city":"中頭郡中城村","city_kana":"ナカガミグンナカグスクソン","town":"泊","town_kana":"トマリ","prefecture_code":47},"2421":{"zip_code":"9012421","prefecture":"沖縄県","prefecture_kana":"オキナワケン","city":"中頭郡中城村","city_kana":"ナカガミグンナカグスクソン","town":"登又","town_kana":"ノボリマタ","prefecture_code":47},"2411":{"zip_code":"9012411","prefecture":"沖縄県","prefecture_kana":"オキナワケン","city":"中頭郡中城村","city_kana":"ナカガミグンナカグスクソン","town":"浜","town_kana":"ハマ","prefecture_code":47},"2424":{"zip_code":"9012424","prefecture":"沖縄県","prefecture_kana":"オキナワケン","city":"中頭郡中城村","city_kana":"ナカガミグンナカグスクソン","town":"南上原","town_kana":"ミナミウエバル","prefecture_code":47},"2415":{"zip_code":"9012415","prefecture":"沖縄県","prefecture_kana":"オキナワケン","city":"中頭郡中城村","city_kana":"ナカガミグンナカグスクソン","town":"南浜","town_kana":"ミナミハマ","prefecture_code":47},"2405":{"zip_code":"9012405","prefecture":"沖縄県","prefecture_kana":"オキナワケン","city":"中頭郡中城村","city_kana":"ナカガミグンナカグスクソン","town":"屋宜","town_kana":"ヤギ","prefecture_code":47},"2416":{"zip_code":"9012416","prefecture":"沖縄県","prefecture_kana":"オキナワケン","city":"中頭郡中城村","city_kana":"ナカガミグンナカグスクソン","town":"和宇慶","town_kana":"ワウケ","prefecture_code":47},"1300":{"zip_code":"9011300","prefecture":"沖縄県","prefecture_kana":"オキナワケン","city":"島尻郡与那原町","city_kana":"シマジリグンヨナバルチョウ","town":"以下に掲載がない場合","town_kana":"イカニケイサイガナイバアイ","prefecture_code":47},"1304":{"zip_code":"9011304","prefecture":"沖縄県","prefecture_kana":"オキナワケン","city":"島尻郡与那原町","city_kana":"シマジリグンヨナバルチョウ","town":"東浜","town_kana":"アガリハマ","prefecture_code":47},"1301":{"zip_code":"9011301","prefecture":"沖縄県","prefecture_kana":"オキナワケン","city":"島尻郡与那原町","city_kana":"シマジリグンヨナバルチョウ","town":"板良敷","town_kana":"イタラシキ","prefecture_code":47},"1302":{"zip_code":"9011302","prefecture":"沖縄県","prefecture_kana":"オキナワケン","city":"島尻郡与那原町","city_kana":"シマジリグンヨナバルチョウ","town":"上与那原","town_kana":"ウエヨナバル","prefecture_code":47},"1303":{"zip_code":"9011303","prefecture":"沖縄県","prefecture_kana":"オキナワケン","city":"島尻郡与那原町","city_kana":"シマジリグンヨナバルチョウ","town":"与那原","town_kana":"ヨナバル","prefecture_code":47},"1100":{"zip_code":"9011100","prefecture":"沖縄県","prefecture_kana":"オキナワケン","city":"島尻郡南風原町","city_kana":"シマジリグンハエバルチョウ","town":"以下に掲載がない場合","town_kana":"イカニケイサイガナイバアイ","prefecture_code":47},"1105":{"zip_code":"9011105","prefecture":"沖縄県","prefecture_kana":"オキナワケン","city":"島尻郡南風原町","city_kana":"シマジリグンハエバルチョウ","town":"新川","town_kana":"アラカワ","prefecture_code":47},"1101":{"zip_code":"9011101","prefecture":"沖縄県","prefecture_kana":"オキナワケン","city":"島尻郡南風原町","city_kana":"シマジリグンハエバルチョウ","town":"大名","town_kana":"オオナ","prefecture_code":47},"1111":{"zip_code":"9011111","prefecture":"沖縄県","prefecture_kana":"オキナワケン","city":"島尻郡南風原町","city_kana":"シマジリグンハエバルチョウ","town":"兼城","town_kana":"カネグスク","prefecture_code":47},"1114":{"zip_code":"9011114","prefecture":"沖縄県","prefecture_kana":"オキナワケン","city":"島尻郡南風原町","city_kana":"シマジリグンハエバルチョウ","town":"神里","town_kana":"カミザト","prefecture_code":47},"1113":{"zip_code":"9011113","prefecture":"沖縄県","prefecture_kana":"オキナワケン","city":"島尻郡南風原町","city_kana":"シマジリグンハエバルチョウ","town":"喜屋武","town_kana":"キャン","prefecture_code":47},"1117":{"zip_code":"9011117","prefecture":"沖縄県","prefecture_kana":"オキナワケン","city":"島尻郡南風原町","city_kana":"シマジリグンハエバルチョウ","town":"津嘉山","town_kana":"ツカザン","prefecture_code":47},"1116":{"zip_code":"9011116","prefecture":"沖縄県","prefecture_kana":"オキナワケン","city":"島尻郡南風原町","city_kana":"シマジリグンハエバルチョウ","town":"照屋","town_kana":"テルヤ","prefecture_code":47},"1102":{"zip_code":"9011102","prefecture":"沖縄県","prefecture_kana":"オキナワケン","city":"島尻郡南風原町","city_kana":"シマジリグンハエバルチョウ","town":"宮城","town_kana":"ミヤグスク","prefecture_code":47},"1104":{"zip_code":"9011104","prefecture":"沖縄県","prefecture_kana":"オキナワケン","city":"島尻郡南風原町","city_kana":"シマジリグンハエバルチョウ","town":"宮平","town_kana":"ミヤヒラ","prefecture_code":47},"1112":{"zip_code":"9011112","prefecture":"沖縄県","prefecture_kana":"オキナワケン","city":"島尻郡南風原町","city_kana":"シマジリグンハエバルチョウ","town":"本部","town_kana":"モトブ","prefecture_code":47},"1115":{"zip_code":"9011115","prefecture":"沖縄県","prefecture_kana":"オキナワケン","city":"島尻郡南風原町","city_kana":"シマジリグンハエバルチョウ","town":"山川","town_kana":"ヤマカワ","prefecture_code":47},"1103":{"zip_code":"9011103","prefecture":"沖縄県","prefecture_kana":"オキナワケン","city":"島尻郡南風原町","city_kana":"シマジリグンハエバルチョウ","town":"与那覇","town_kana":"ヨナハ","prefecture_code":47},"3500":{"zip_code":"9013500","prefecture":"沖縄県","prefecture_kana":"オキナワケン","city":"島尻郡渡嘉敷村","city_kana":"シマジリグントカシキソン","town":"以下に掲載がない場合","town_kana":"イカニケイサイガナイバアイ","prefecture_code":47},"3502":{"zip_code":"9013502","prefecture":"沖縄県","prefecture_kana":"オキナワケン","city":"島尻郡渡嘉敷村","city_kana":"シマジリグントカシキソン","town":"阿波連","town_kana":"アハレン","prefecture_code":47},"3501":{"zip_code":"9013501","prefecture":"沖縄県","prefecture_kana":"オキナワケン","city":"島尻郡渡嘉敷村","city_kana":"シマジリグントカシキソン","town":"渡嘉敷","town_kana":"トカシキ","prefecture_code":47},"3400":{"zip_code":"9013400","prefecture":"沖縄県","prefecture_kana":"オキナワケン","city":"島尻郡座間味村","city_kana":"シマジリグンザマミソン","town":"以下に掲載がない場合","town_kana":"イカニケイサイガナイバアイ","prefecture_code":47},"3311":{"zip_code":"9013311","prefecture":"沖縄県","prefecture_kana":"オキナワケン","city":"島尻郡座間味村","city_kana":"シマジリグンザマミソン","town":"阿嘉","town_kana":"アカ","prefecture_code":47},"3401":{"zip_code":"9013401","prefecture":"沖縄県","prefecture_kana":"オキナワケン","city":"島尻郡座間味村","city_kana":"シマジリグンザマミソン","town":"阿佐","town_kana":"アサ","prefecture_code":47},"3403":{"zip_code":"9013403","prefecture":"沖縄県","prefecture_kana":"オキナワケン","city":"島尻郡座間味村","city_kana":"シマジリグンザマミソン","town":"阿真","town_kana":"アマ","prefecture_code":47},"3312":{"zip_code":"9013312","prefecture":"沖縄県","prefecture_kana":"オキナワケン","city":"島尻郡座間味村","city_kana":"シマジリグンザマミソン","town":"慶留間","town_kana":"ゲルマ","prefecture_code":47},"3402":{"zip_code":"9013402","prefecture":"沖縄県","prefecture_kana":"オキナワケン","city":"島尻郡座間味村","city_kana":"シマジリグンザマミソン","town":"座間味","town_kana":"ザマミ","prefecture_code":47},"3700":{"zip_code":"9013700","prefecture":"沖縄県","prefecture_kana":"オキナワケン","city":"島尻郡粟国村","city_kana":"シマジリグンアグニソン","town":"以下に掲載がない場合","town_kana":"イカニケイサイガナイバアイ","prefecture_code":47},"3703":{"zip_code":"9013703","prefecture":"沖縄県","prefecture_kana":"オキナワケン","city":"島尻郡粟国村","city_kana":"シマジリグンアグニソン","town":"西","town_kana":"ニシ","prefecture_code":47},"3701":{"zip_code":"9013701","prefecture":"沖縄県","prefecture_kana":"オキナワケン","city":"島尻郡粟国村","city_kana":"シマジリグンアグニソン","town":"浜","town_kana":"ハマ","prefecture_code":47},"3702":{"zip_code":"9013702","prefecture":"沖縄県","prefecture_kana":"オキナワケン","city":"島尻郡粟国村","city_kana":"シマジリグンアグニソン","town":"東","town_kana":"ヒガシ","prefecture_code":47},"3601":{"zip_code":"9013601","prefecture":"沖縄県","prefecture_kana":"オキナワケン","city":"島尻郡渡名喜村","city_kana":"シマジリグントナキソン","town":"渡名喜村一円","town_kana":"トナキソンイチエン","prefecture_code":47},"3800":{"zip_code":"9013800","prefecture":"沖縄県","prefecture_kana":"オキナワケン","city":"島尻郡南大東村","city_kana":"シマジリグンミナミダイトウソン","town":"以下に掲載がない場合","town_kana":"イカニケイサイガナイバアイ","prefecture_code":47},"3806":{"zip_code":"9013806","prefecture":"沖縄県","prefecture_kana":"オキナワケン","city":"島尻郡南大東村","city_kana":"シマジリグンミナミダイトウソン","town":"池之沢","town_kana":"イケノサワ","prefecture_code":47},"3801":{"zip_code":"9013801","prefecture":"沖縄県","prefecture_kana":"オキナワケン","city":"島尻郡南大東村","city_kana":"シマジリグンミナミダイトウソン","town":"北","town_kana":"キタ","prefecture_code":47},"3803":{"zip_code":"9013803","prefecture":"沖縄県","prefecture_kana":"オキナワケン","city":"島尻郡南大東村","city_kana":"シマジリグンミナミダイトウソン","town":"旧東","town_kana":"キュウトウ","prefecture_code":47},"3805":{"zip_code":"9013805","prefecture":"沖縄県","prefecture_kana":"オキナワケン","city":"島尻郡南大東村","city_kana":"シマジリグンミナミダイトウソン","town":"在所","town_kana":"ザイショ","prefecture_code":47},"3802":{"zip_code":"9013802","prefecture":"沖縄県","prefecture_kana":"オキナワケン","city":"島尻郡南大東村","city_kana":"シマジリグンミナミダイトウソン","town":"新東","town_kana":"シントウ","prefecture_code":47},"3804":{"zip_code":"9013804","prefecture":"沖縄県","prefecture_kana":"オキナワケン","city":"島尻郡南大東村","city_kana":"シマジリグンミナミダイトウソン","town":"南","town_kana":"ミナミ","prefecture_code":47},"3900":{"zip_code":"9013900","prefecture":"沖縄県","prefecture_kana":"オキナワケン","city":"島尻郡北大東村","city_kana":"シマジリグンキタダイトウソン","town":"以下に掲載がない場合","town_kana":"イカニケイサイガナイバアイ","prefecture_code":47},"3902":{"zip_code":"9013902","prefecture":"沖縄県","prefecture_kana":"オキナワケン","city":"島尻郡北大東村","city_kana":"シマジリグンキタダイトウソン","town":"中野","town_kana":"ナカノ","prefecture_code":47},"3903":{"zip_code":"9013903","prefecture":"沖縄県","prefecture_kana":"オキナワケン","city":"島尻郡北大東村","city_kana":"シマジリグンキタダイトウソン","town":"港","town_kana":"ミナト","prefecture_code":47},"3901":{"zip_code":"9013901","prefecture":"沖縄県","prefecture_kana":"オキナワケン","city":"島尻郡北大東村","city_kana":"シマジリグンキタダイトウソン","town":"南","town_kana":"ミナミ","prefecture_code":47},"3100":{"zip_code":"9013100","prefecture":"沖縄県","prefecture_kana":"オキナワケン","city":"島尻郡久米島町","city_kana":"シマジリグンクメジマチョウ","town":"以下に掲載がない場合","town_kana":"イカニケイサイガナイバアイ","prefecture_code":47},"3103":{"zip_code":"9013103","prefecture":"沖縄県","prefecture_kana":"オキナワケン","city":"島尻郡久米島町","city_kana":"シマジリグンクメジマチョウ","town":"阿嘉","town_kana":"アカ","prefecture_code":47},"3101":{"zip_code":"9013101","prefecture":"沖縄県","prefecture_kana":"オキナワケン","city":"島尻郡久米島町","city_kana":"シマジリグンクメジマチョウ","town":"宇江城","town_kana":"ウエグスク","prefecture_code":47},"3138":{"zip_code":"9013138","prefecture":"沖縄県","prefecture_kana":"オキナワケン","city":"島尻郡久米島町","city_kana":"シマジリグンクメジマチョウ","town":"上江洲","town_kana":"ウエズ","prefecture_code":47},"3105":{"zip_code":"9013105","prefecture":"沖縄県","prefecture_kana":"オキナワケン","city":"島尻郡久米島町","city_kana":"シマジリグンクメジマチョウ","town":"宇根","town_kana":"ウネ","prefecture_code":47},"3106":{"zip_code":"9013106","prefecture":"沖縄県","prefecture_kana":"オキナワケン","city":"島尻郡久米島町","city_kana":"シマジリグンクメジマチョウ","town":"奥武","town_kana":"オウ","prefecture_code":47},"3123":{"zip_code":"9013123","prefecture":"沖縄県","prefecture_kana":"オキナワケン","city":"島尻郡久米島町","city_kana":"シマジリグンクメジマチョウ","town":"大田","town_kana":"オオタ","prefecture_code":47},"3132":{"zip_code":"9013132","prefecture":"沖縄県","prefecture_kana":"オキナワケン","city":"島尻郡久米島町","city_kana":"シマジリグンクメジマチョウ","town":"大原","town_kana":"オオハラ","prefecture_code":47},"3121":{"zip_code":"9013121","prefecture":"沖縄県","prefecture_kana":"オキナワケン","city":"島尻郡久米島町","city_kana":"シマジリグンクメジマチョウ","town":"嘉手苅","town_kana":"カデカル","prefecture_code":47},"3122":{"zip_code":"9013122","prefecture":"沖縄県","prefecture_kana":"オキナワケン","city":"島尻郡久米島町","city_kana":"シマジリグンクメジマチョウ","town":"兼城","town_kana":"カネグスク","prefecture_code":47},"3133":{"zip_code":"9013133","prefecture":"沖縄県","prefecture_kana":"オキナワケン","city":"島尻郡久米島町","city_kana":"シマジリグンクメジマチョウ","town":"北原","town_kana":"キタハラ","prefecture_code":47},"3115":{"zip_code":"9013115","prefecture":"沖縄県","prefecture_kana":"オキナワケン","city":"島尻郡久米島町","city_kana":"シマジリグンクメジマチョウ","town":"儀間","town_kana":"ギマ","prefecture_code":47},"3134":{"zip_code":"9013134","prefecture":"沖縄県","prefecture_kana":"オキナワケン","city":"島尻郡久米島町","city_kana":"シマジリグンクメジマチョウ","town":"具志川","town_kana":"グシカワ","prefecture_code":47},"3114":{"zip_code":"9013114","prefecture":"沖縄県","prefecture_kana":"オキナワケン","city":"島尻郡久米島町","city_kana":"シマジリグンクメジマチョウ","town":"島尻","town_kana":"シマジリ","prefecture_code":47},"3107":{"zip_code":"9013107","prefecture":"沖縄県","prefecture_kana":"オキナワケン","city":"島尻郡久米島町","city_kana":"シマジリグンクメジマチョウ","town":"謝名堂","town_kana":"ジャナドウ","prefecture_code":47},"3113":{"zip_code":"9013113","prefecture":"沖縄県","prefecture_kana":"オキナワケン","city":"島尻郡久米島町","city_kana":"シマジリグンクメジマチョウ","town":"銭田","town_kana":"ゼンダ","prefecture_code":47},"3125":{"zip_code":"9013125","prefecture":"沖縄県","prefecture_kana":"オキナワケン","city":"島尻郡久米島町","city_kana":"シマジリグンクメジマチョウ","town":"鳥島","town_kana":"トリシマ","prefecture_code":47},"3136":{"zip_code":"9013136","prefecture":"沖縄県","prefecture_kana":"オキナワケン","city":"島尻郡久米島町","city_kana":"シマジリグンクメジマチョウ","town":"仲地","town_kana":"ナカチ","prefecture_code":47},"3124":{"zip_code":"9013124","prefecture":"沖縄県","prefecture_kana":"オキナワケン","city":"島尻郡久米島町","city_kana":"シマジリグンクメジマチョウ","town":"仲泊","town_kana":"ナカドマリ","prefecture_code":47},"3135":{"zip_code":"9013135","prefecture":"沖縄県","prefecture_kana":"オキナワケン","city":"島尻郡久米島町","city_kana":"シマジリグンクメジマチョウ","town":"仲村渠","town_kana":"ナカンダカリ","prefecture_code":47},"3131":{"zip_code":"9013131","prefecture":"沖縄県","prefecture_kana":"オキナワケン","city":"島尻郡久米島町","city_kana":"シマジリグンクメジマチョウ","town":"西銘","town_kana":"ニシメ","prefecture_code":47},"3108":{"zip_code":"9013108","prefecture":"沖縄県","prefecture_kana":"オキナワケン","city":"島尻郡久米島町","city_kana":"シマジリグンクメジマチョウ","town":"比嘉","town_kana":"ヒガ","prefecture_code":47},"3102":{"zip_code":"9013102","prefecture":"沖縄県","prefecture_kana":"オキナワケン","city":"島尻郡久米島町","city_kana":"シマジリグンクメジマチョウ","town":"比屋定","town_kana":"ヒヤジョウ","prefecture_code":47},"3112":{"zip_code":"9013112","prefecture":"沖縄県","prefecture_kana":"オキナワケン","city":"島尻郡久米島町","city_kana":"シマジリグンクメジマチョウ","town":"真我里","town_kana":"マガリ","prefecture_code":47},"3104":{"zip_code":"9013104","prefecture":"沖縄県","prefecture_kana":"オキナワケン","city":"島尻郡久米島町","city_kana":"シマジリグンクメジマチョウ","town":"真謝","town_kana":"マジャ","prefecture_code":47},"3111":{"zip_code":"9013111","prefecture":"沖縄県","prefecture_kana":"オキナワケン","city":"島尻郡久米島町","city_kana":"シマジリグンクメジマチョウ","town":"山城","town_kana":"ヤマグスク","prefecture_code":47},"3137":{"zip_code":"9013137","prefecture":"沖縄県","prefecture_kana":"オキナワケン","city":"島尻郡久米島町","city_kana":"シマジリグンクメジマチョウ","town":"山里","town_kana":"ヤマザト","prefecture_code":47},"0400":{"zip_code":"9010400","prefecture":"沖縄県","prefecture_kana":"オキナワケン","city":"島尻郡八重瀬町","city_kana":"シマジリグンヤエセチョウ","town":"以下に掲載がない場合","town_kana":"イカニケイサイガナイバアイ","prefecture_code":47},"0514":{"zip_code":"9010514","prefecture":"沖縄県","prefecture_kana":"オキナワケン","city":"島尻郡八重瀬町","city_kana":"シマジリグンヤエセチョウ","town":"安里","town_kana":"アサト","prefecture_code":47},"0503":{"zip_code":"9010503","prefecture":"沖縄県","prefecture_kana":"オキナワケン","city":"島尻郡八重瀬町","city_kana":"シマジリグンヤエセチョウ","town":"新城","town_kana":"アラグスク","prefecture_code":47},"0405":{"zip_code":"9010405","prefecture":"沖縄県","prefecture_kana":"オキナワケン","city":"島尻郡八重瀬町","city_kana":"シマジリグンヤエセチョウ","town":"伊覇","town_kana":"イハ","prefecture_code":47},"0412":{"zip_code":"9010412","prefecture":"沖縄県","prefecture_kana":"オキナワケン","city":"島尻郡八重瀬町","city_kana":"シマジリグンヤエセチョウ","town":"上田原","town_kana":"ウエタバル","prefecture_code":47},"0502":{"zip_code":"9010502","prefecture":"沖縄県","prefecture_kana":"オキナワケン","city":"島尻郡八重瀬町","city_kana":"シマジリグンヤエセチョウ","town":"大頓","town_kana":"オオトン","prefecture_code":47},"0416":{"zip_code":"9010416","prefecture":"沖縄県","prefecture_kana":"オキナワケン","city":"島尻郡八重瀬町","city_kana":"シマジリグンヤエセチョウ","town":"宜次","town_kana":"ギシ","prefecture_code":47},"0512":{"zip_code":"9010512","prefecture":"沖縄県","prefecture_kana":"オキナワケン","city":"島尻郡八重瀬町","city_kana":"シマジリグンヤエセチョウ","town":"具志頭","town_kana":"グシチャン","prefecture_code":47},"0415":{"zip_code":"9010415","prefecture":"沖縄県","prefecture_kana":"オキナワケン","city":"島尻郡八重瀬町","city_kana":"シマジリグンヤエセチョウ","town":"小城","town_kana":"コグスク","prefecture_code":47},"0504":{"zip_code":"9010504","prefecture":"沖縄県","prefecture_kana":"オキナワケン","city":"島尻郡八重瀬町","city_kana":"シマジリグンヤエセチョウ","town":"後原","town_kana":"コシハラ","prefecture_code":47},"0401":{"zip_code":"9010401","prefecture":"沖縄県","prefecture_kana":"オキナワケン","city":"島尻郡八重瀬町","city_kana":"シマジリグンヤエセチョウ","town":"東風平","town_kana":"コチンダ","prefecture_code":47},"0413":{"zip_code":"9010413","prefecture":"沖縄県","prefecture_kana":"オキナワケン","city":"島尻郡八重瀬町","city_kana":"シマジリグンヤエセチョウ","town":"志多伯","town_kana":"シタハク","prefecture_code":47},"0404":{"zip_code":"9010404","prefecture":"沖縄県","prefecture_kana":"オキナワケン","city":"島尻郡八重瀬町","city_kana":"シマジリグンヤエセチョウ","town":"高良","town_kana":"タカラ","prefecture_code":47},"0414":{"zip_code":"9010414","prefecture":"沖縄県","prefecture_kana":"オキナワケン","city":"島尻郡八重瀬町","city_kana":"シマジリグンヤエセチョウ","town":"当銘","town_kana":"トウメ","prefecture_code":47},"0411":{"zip_code":"9010411","prefecture":"沖縄県","prefecture_kana":"オキナワケン","city":"島尻郡八重瀬町","city_kana":"シマジリグンヤエセチョウ","town":"友寄","town_kana":"トモヨセ","prefecture_code":47},"0402":{"zip_code":"9010402","prefecture":"沖縄県","prefecture_kana":"オキナワケン","city":"島尻郡八重瀬町","city_kana":"シマジリグンヤエセチョウ","town":"富盛","town_kana":"トモリ","prefecture_code":47},"0516":{"zip_code":"9010516","prefecture":"沖縄県","prefecture_kana":"オキナワケン","city":"島尻郡八重瀬町","city_kana":"シマジリグンヤエセチョウ","town":"仲座","town_kana":"ナカザ","prefecture_code":47},"0501":{"zip_code":"9010501","prefecture":"沖縄県","prefecture_kana":"オキナワケン","city":"島尻郡八重瀬町","city_kana":"シマジリグンヤエセチョウ","town":"長毛","town_kana":"ナガモウ","prefecture_code":47},"0513":{"zip_code":"9010513","prefecture":"沖縄県","prefecture_kana":"オキナワケン","city":"島尻郡八重瀬町","city_kana":"シマジリグンヤエセチョウ","town":"玻名城","town_kana":"ハナシロ","prefecture_code":47},"0417":{"zip_code":"9010417","prefecture":"沖縄県","prefecture_kana":"オキナワケン","city":"島尻郡八重瀬町","city_kana":"シマジリグンヤエセチョウ","town":"外間","town_kana":"ホカマ","prefecture_code":47},"0511":{"zip_code":"9010511","prefecture":"沖縄県","prefecture_kana":"オキナワケン","city":"島尻郡八重瀬町","city_kana":"シマジリグンヤエセチョウ","town":"港川","town_kana":"ミナトガワ","prefecture_code":47},"0406":{"zip_code":"9010406","prefecture":"沖縄県","prefecture_kana":"オキナワケン","city":"島尻郡八重瀬町","city_kana":"シマジリグンヤエセチョウ","town":"屋宜原","town_kana":"ヤギバル","prefecture_code":47},"0515":{"zip_code":"9010515","prefecture":"沖縄県","prefecture_kana":"オキナワケン","city":"島尻郡八重瀬町","city_kana":"シマジリグンヤエセチョウ","town":"与座","town_kana":"ヨザ","prefecture_code":47},"0403":{"zip_code":"9010403","prefecture":"沖縄県","prefecture_kana":"オキナワケン","city":"島尻郡八重瀬町","city_kana":"シマジリグンヤエセチョウ","town":"世名城","town_kana":"ヨナグスク","prefecture_code":47}}