{"0000":{"zip_code":"9040000","prefecture":"沖縄県","prefecture_kana":"オキナワケン","city":"沖縄市","city_kana":"オキナワシ","town":"","town_kana":"","prefecture_code":47},"2152":{"zip_code":"9042152","prefecture":"沖縄県","prefecture_kana":"オキナワケン","city":"沖縄市","city_kana":"オキナワシ","town":"明道","town_kana":"アケミチ","prefecture_code":47},"0012":{"zip_code":"9040012","prefecture":"沖縄県","prefecture_kana":"オキナワケン","city":"沖縄市","city_kana":"オキナワシ","town":"安慶田","town_kana":"アゲダ","prefecture_code":47},"2172":{"zip_code":"9042172","prefecture":"沖縄県","prefecture_kana":"オキナワケン","city":"沖縄市","city_kana":"オキナワシ","town":"泡瀬","town_kana":"アワセ","prefecture_code":47},"2141":{"zip_code":"9042141","prefecture":"沖縄県","prefecture_kana":"オキナワケン","city":"沖縄市","city_kana":"オキナワシ","town":"池原","town_kana":"イケハラ","prefecture_code":47},"0031":{"zip_code":"9040031","prefecture":"沖縄県","prefecture_kana":"オキナワケン","city":"沖縄市","city_kana":"オキナワシ","town":"上地","town_kana":"ウエチ","prefecture_code":47},"2163":{"zip_code":"9042163","prefecture":"沖縄県","prefecture_kana":"オキナワケン","city":"沖縄市","city_kana":"オキナワシ","town":"大里","town_kana":"オオザト","prefecture_code":47},"2162":[{"zip_code":"9042162","prefecture":"沖縄県","prefecture_kana":"オキナワケン","city":"沖縄市","city_kana":"オキナワシ","town":"海邦","town_kana":"カイホウ","prefecture_code":47},{"zip_code":"9042162","prefecture":"沖縄県","prefecture_kana":"オキナワケン","city":"沖縄市","city_kana":"オキナワシ","town":"海邦町","town_kana":"カイホウチョウ","prefecture_code":47}],"0005":{"zip_code":"9040005","prefecture":"沖縄県","prefecture_kana":"オキナワケン","city":"沖縄市","city_kana":"オキナワシ","town":"嘉間良","town_kana":"カマラ","prefecture_code":47},"0023":{"zip_code":"9040023","prefecture":"沖縄県","prefecture_kana":"オキナワケン","city":"沖縄市","city_kana":"オキナワシ","town":"久保田","town_kana":"クボタ","prefecture_code":47},"2145":{"zip_code":"9042145","prefecture":"沖縄県","prefecture_kana":"オキナワケン","city":"沖縄市","city_kana":"オキナワシ","town":"倉敷","town_kana":"クラシキ","prefecture_code":47},"2161":{"zip_code":"9042161","prefecture":"沖縄県","prefecture_kana":"オキナワケン","city":"沖縄市","city_kana":"オキナワシ","town":"古謝","town_kana":"コジャ","prefecture_code":47},"0001":{"zip_code":"9040001","prefecture":"沖縄県","prefecture_kana":"オキナワケン","city":"沖縄市","city_kana":"オキナワシ","town":"越来","town_kana":"ゴエク","prefecture_code":47},"0021":{"zip_code":"9040021","prefecture":"沖縄県","prefecture_kana":"オキナワケン","city":"沖縄市","city_kana":"オキナワシ","town":"胡屋","town_kana":"ゴヤ","prefecture_code":47},"2144":{"zip_code":"9042144","prefecture":"沖縄県","prefecture_kana":"オキナワケン","city":"沖縄市","city_kana":"オキナワシ","town":"白川","town_kana":"シラカワ","prefecture_code":47},"0002":{"zip_code":"9040002","prefecture":"沖縄県","prefecture_kana":"オキナワケン","city":"沖縄市","city_kana":"オキナワシ","town":"城前町","town_kana":"シロマエチョウ","prefecture_code":47},"0003":{"zip_code":"9040003","prefecture":"沖縄県","prefecture_kana":"オキナワケン","city":"沖縄市","city_kana":"オキナワシ","town":"住吉","town_kana":"スミヨシ","prefecture_code":47},"0022":{"zip_code":"9040022","prefecture":"沖縄県","prefecture_kana":"オキナワケン","city":"沖縄市","city_kana":"オキナワシ","town":"園田","town_kana":"ソノダ","prefecture_code":47},"2171":{"zip_code":"9042171","prefecture":"沖縄県","prefecture_kana":"オキナワケン","city":"沖縄市","city_kana":"オキナワシ","town":"高原","town_kana":"タカハラ","prefecture_code":47},"2143":{"zip_code":"9042143","prefecture":"沖縄県","prefecture_kana":"オキナワケン","city":"沖縄市","city_kana":"オキナワシ","town":"知花","town_kana":"チバナ","prefecture_code":47},"0004":{"zip_code":"9040004","prefecture":"沖縄県","prefecture_kana":"オキナワケン","city":"沖縄市","city_kana":"オキナワシ","town":"中央","town_kana":"チュウオウ","prefecture_code":47},"0011":{"zip_code":"9040011","prefecture":"沖縄県","prefecture_kana":"オキナワケン","city":"沖縄市","city_kana":"オキナワシ","town":"照屋","town_kana":"テルヤ","prefecture_code":47},"2164":{"zip_code":"9042164","prefecture":"沖縄県","prefecture_kana":"オキナワケン","city":"沖縄市","city_kana":"オキナワシ","town":"桃原","town_kana":"トウバル","prefecture_code":47},"0014":{"zip_code":"9040014","prefecture":"沖縄県","prefecture_kana":"オキナワケン","city":"沖縄市","city_kana":"オキナワシ","town":"仲宗根町","town_kana":"ナカソネチョウ","prefecture_code":47},"2142":{"zip_code":"9042142","prefecture":"沖縄県","prefecture_kana":"オキナワケン","city":"沖縄市","city_kana":"オキナワシ","town":"登川","town_kana":"ノボリカワ","prefecture_code":47},"2154":{"zip_code":"9042154","prefecture":"沖縄県","prefecture_kana":"オキナワケン","city":"沖縄市","city_kana":"オキナワシ","town":"東","town_kana":"ヒガシ","prefecture_code":47},"2173":{"zip_code":"9042173","prefecture":"沖縄県","prefecture_kana":"オキナワケン","city":"沖縄市","city_kana":"オキナワシ","town":"比屋根","town_kana":"ヒヤゴン","prefecture_code":47},"2151":{"zip_code":"9042151","prefecture":"沖縄県","prefecture_kana":"オキナワケン","city":"沖縄市","city_kana":"オキナワシ","town":"松本","town_kana":"マツモト","prefecture_code":47},"2153":{"zip_code":"9042153","prefecture":"沖縄県","prefecture_kana":"オキナワケン","city":"沖縄市","city_kana":"オキナワシ","town":"美里","town_kana":"ミサト","prefecture_code":47},"2156":{"zip_code":"9042156","prefecture":"沖縄県","prefecture_kana":"オキナワケン","city":"沖縄市","city_kana":"オキナワシ","town":"美里仲原町","town_kana":"ミサトナカハラチョウ","prefecture_code":47},"0035":{"zip_code":"9040035","prefecture":"沖縄県","prefecture_kana":"オキナワケン","city":"沖縄市","city_kana":"オキナワシ","town":"南桃原","town_kana":"ミナミトウバル","prefecture_code":47},"2155":{"zip_code":"9042155","prefecture":"沖縄県","prefecture_kana":"オキナワケン","city":"沖縄市","city_kana":"オキナワシ","town":"美原","town_kana":"ミハラ","prefecture_code":47},"2165":{"zip_code":"9042165","prefecture":"沖縄県","prefecture_kana":"オキナワケン","city":"沖縄市","city_kana":"オキナワシ","town":"宮里","town_kana":"ミヤザト","prefecture_code":47},"0013":{"zip_code":"9040013","prefecture":"沖縄県","prefecture_kana":"オキナワケン","city":"沖縄市","city_kana":"オキナワシ","town":"室川","town_kana":"ムロカワ","prefecture_code":47},"0032":{"zip_code":"9040032","prefecture":"沖縄県","prefecture_kana":"オキナワケン","city":"沖縄市","city_kana":"オキナワシ","town":"諸見里","town_kana":"モロミザト","prefecture_code":47},"0006":{"zip_code":"9040006","prefecture":"沖縄県","prefecture_kana":"オキナワケン","city":"沖縄市","city_kana":"オキナワシ","town":"八重島","town_kana":"ヤエシマ","prefecture_code":47},"0034":{"zip_code":"9040034","prefecture":"沖縄県","prefecture_kana":"オキナワケン","city":"沖縄市","city_kana":"オキナワシ","town":"山内","town_kana":"ヤマウチ","prefecture_code":47},"0033":{"zip_code":"9040033","prefecture":"沖縄県","prefecture_kana":"オキナワケン","city":"沖縄市","city_kana":"オキナワシ","town":"山里","town_kana":"ヤマザト","prefecture_code":47},"2174":{"zip_code":"9042174","prefecture":"沖縄県","prefecture_kana":"オキナワケン","city":"沖縄市","city_kana":"オキナワシ","town":"与儀","town_kana":"ヨギ","prefecture_code":47},"2200":{"zip_code":"9042200","prefecture":"沖縄県","prefecture_kana":"オキナワケン","city":"うるま市","city_kana":"ウルマシ","town":"","town_kana":"","prefecture_code":47},"2212":{"zip_code":"9042212","prefecture":"沖縄県","prefecture_kana":"オキナワケン","city":"うるま市","city_kana":"ウルマシ","town":"赤野","town_kana":"アカノ","prefecture_code":47},"2245":{"zip_code":"9042245","prefecture":"沖縄県","prefecture_kana":"オキナワケン","city":"うるま市","city_kana":"ウルマシ","town":"赤道","town_kana":"アカミチ","prefecture_code":47},"2214":{"zip_code":"9042214","prefecture":"沖縄県","prefecture_kana":"オキナワケン","city":"うるま市","city_kana":"ウルマシ","town":"安慶名","town_kana":"アゲナ","prefecture_code":47},"1106":{"zip_code":"9041106","prefecture":"沖縄県","prefecture_kana":"オキナワケン","city":"うるま市","city_kana":"ウルマシ","town":"石川","town_kana":"イシカワ","prefecture_code":47},"1103":{"zip_code":"9041103","prefecture":"沖縄県","prefecture_kana":"オキナワケン","city":"うるま市","city_kana":"ウルマシ","town":"石川赤崎","town_kana":"イシカワアカサキ","prefecture_code":47},"1102":{"zip_code":"9041102","prefecture":"沖縄県","prefecture_kana":"オキナワケン","city":"うるま市","city_kana":"ウルマシ","town":"石川東山","town_kana":"イシカワアガリヤマ","prefecture_code":47},"1101":{"zip_code":"9041101","prefecture":"沖縄県","prefecture_kana":"オキナワケン","city":"うるま市","city_kana":"ウルマシ","town":"石川東山本町","town_kana":"イシカワアガリヤマモトマチ","prefecture_code":47},"1107":{"zip_code":"9041107","prefecture":"沖縄県","prefecture_kana":"オキナワケン","city":"うるま市","city_kana":"ウルマシ","town":"石川曙","town_kana":"イシカワアケボノ","prefecture_code":47},"1104":{"zip_code":"9041104","prefecture":"沖縄県","prefecture_kana":"オキナワケン","city":"うるま市","city_kana":"ウルマシ","town":"石川石崎","town_kana":"イシカワイシザキ","prefecture_code":47},"1115":{"zip_code":"9041115","prefecture":"沖縄県","prefecture_kana":"オキナワケン","city":"うるま市","city_kana":"ウルマシ","town":"石川伊波","town_kana":"イシカワイハ","prefecture_code":47},"1114":{"zip_code":"9041114","prefecture":"沖縄県","prefecture_kana":"オキナワケン","city":"うるま市","city_kana":"ウルマシ","town":"石川嘉手苅","town_kana":"イシカワカデカル","prefecture_code":47},"1105":{"zip_code":"9041105","prefecture":"沖縄県","prefecture_kana":"オキナワケン","city":"うるま市","city_kana":"ウルマシ","town":"石川白浜","town_kana":"イシカワシラハマ","prefecture_code":47},"1112":{"zip_code":"9041112","prefecture":"沖縄県","prefecture_kana":"オキナワケン","city":"うるま市","city_kana":"ウルマシ","town":"石川楚南","town_kana":"イシカワソナン","prefecture_code":47},"1111":{"zip_code":"9041111","prefecture":"沖縄県","prefecture_kana":"オキナワケン","city":"うるま市","city_kana":"ウルマシ","town":"石川東恩納","town_kana":"イシカワヒガシオンナ","prefecture_code":47},"1108":{"zip_code":"9041108","prefecture":"沖縄県","prefecture_kana":"オキナワケン","city":"うるま市","city_kana":"ウルマシ","town":"石川東恩納崎","town_kana":"イシカワヒガシオンナザキ","prefecture_code":47},"1113":{"zip_code":"9041113","prefecture":"沖縄県","prefecture_kana":"オキナワケン","city":"うるま市","city_kana":"ウルマシ","town":"石川山城","town_kana":"イシカワヤマシロ","prefecture_code":47},"2204":{"zip_code":"9042204","prefecture":"沖縄県","prefecture_kana":"オキナワケン","city":"うるま市","city_kana":"ウルマシ","town":"西原","town_kana":"イリバル","prefecture_code":47},"2222":{"zip_code":"9042222","prefecture":"沖縄県","prefecture_kana":"オキナワケン","city":"うるま市","city_kana":"ウルマシ","town":"上江洲","town_kana":"ウエズ","prefecture_code":47},"2211":{"zip_code":"9042211","prefecture":"沖縄県","prefecture_kana":"オキナワケン","city":"うるま市","city_kana":"ウルマシ","town":"宇堅","town_kana":"ウケン","prefecture_code":47},"2244":{"zip_code":"9042244","prefecture":"沖縄県","prefecture_kana":"オキナワケン","city":"うるま市","city_kana":"ウルマシ","town":"江洲","town_kana":"エス","prefecture_code":47},"2205":{"zip_code":"9042205","prefecture":"沖縄県","prefecture_kana":"オキナワケン","city":"うるま市","city_kana":"ウルマシ","town":"栄野比","town_kana":"エノビ","prefecture_code":47},"2224":{"zip_code":"9042224","prefecture":"沖縄県","prefecture_kana":"オキナワケン","city":"うるま市","city_kana":"ウルマシ","town":"大田","town_kana":"オオタ","prefecture_code":47},"2313":{"zip_code":"9042313","prefecture":"沖縄県","prefecture_kana":"オキナワケン","city":"うるま市","city_kana":"ウルマシ","town":"勝連内間","town_kana":"カツレンウチマ","prefecture_code":47},"2317":{"zip_code":"9042317","prefecture":"沖縄県","prefecture_kana":"オキナワケン","city":"うるま市","city_kana":"ウルマシ","town":"勝連津堅","town_kana":"カツレンツケン","prefecture_code":47},"2311":{"zip_code":"9042311","prefecture":"沖縄県","prefecture_kana":"オキナワケン","city":"うるま市","city_kana":"ウルマシ","town":"勝連南風原","town_kana":"カツレンハエバル","prefecture_code":47},"2315":{"zip_code":"9042315","prefecture":"沖縄県","prefecture_kana":"オキナワケン","city":"うるま市","city_kana":"ウルマシ","town":"勝連浜","town_kana":"カツレンハマ","prefecture_code":47},"2316":{"zip_code":"9042316","prefecture":"沖縄県","prefecture_kana":"オキナワケン","city":"うるま市","city_kana":"ウルマシ","town":"勝連比嘉","town_kana":"カツレンヒガ","prefecture_code":47},"2314":{"zip_code":"9042314","prefecture":"沖縄県","prefecture_kana":"オキナワケン","city":"うるま市","city_kana":"ウルマシ","town":"勝連平敷屋","town_kana":"カツレンヘシキヤ","prefecture_code":47},"2312":{"zip_code":"9042312","prefecture":"沖縄県","prefecture_kana":"オキナワケン","city":"うるま市","city_kana":"ウルマシ","town":"勝連平安名","town_kana":"カツレンヘンナ","prefecture_code":47},"2241":{"zip_code":"9042241","prefecture":"沖縄県","prefecture_kana":"オキナワケン","city":"うるま市","city_kana":"ウルマシ","town":"兼箇段","town_kana":"カネカダン","prefecture_code":47},"2203":{"zip_code":"9042203","prefecture":"沖縄県","prefecture_kana":"オキナワケン","city":"うるま市","city_kana":"ウルマシ","town":"川崎","town_kana":"カワサキ","prefecture_code":47},"2232":{"zip_code":"9042232","prefecture":"沖縄県","prefecture_kana":"オキナワケン","city":"うるま市","city_kana":"ウルマシ","town":"川田","town_kana":"カワタ","prefecture_code":47},"2236":{"zip_code":"9042236","prefecture":"沖縄県","prefecture_kana":"オキナワケン","city":"うるま市","city_kana":"ウルマシ","town":"喜仲","town_kana":"キナカ","prefecture_code":47},"2225":{"zip_code":"9042225","prefecture":"沖縄県","prefecture_kana":"オキナワケン","city":"うるま市","city_kana":"ウルマシ","town":"喜屋武","town_kana":"キャン","prefecture_code":47},"2223":{"zip_code":"9042223","prefecture":"沖縄県","prefecture_kana":"オキナワケン","city":"うるま市","city_kana":"ウルマシ","town":"具志川","town_kana":"グシカワ","prefecture_code":47},"2201":{"zip_code":"9042201","prefecture":"沖縄県","prefecture_kana":"オキナワケン","city":"うるま市","city_kana":"ウルマシ","town":"昆布","town_kana":"コンブ","prefecture_code":47},"2231":{"zip_code":"9042231","prefecture":"沖縄県","prefecture_kana":"オキナワケン","city":"うるま市","city_kana":"ウルマシ","town":"塩屋","town_kana":"シオヤ","prefecture_code":47},"2234":{"zip_code":"9042234","prefecture":"沖縄県","prefecture_kana":"オキナワケン","city":"うるま市","city_kana":"ウルマシ","town":"州崎","town_kana":"スザキ","prefecture_code":47},"2221":{"zip_code":"9042221","prefecture":"沖縄県","prefecture_kana":"オキナワケン","city":"うるま市","city_kana":"ウルマシ","town":"平良川","town_kana":"タイラガワ","prefecture_code":47},"2242":{"zip_code":"9042242","prefecture":"沖縄県","prefecture_kana":"オキナワケン","city":"うるま市","city_kana":"ウルマシ","town":"高江洲","town_kana":"タカエス","prefecture_code":47},"2213":{"zip_code":"9042213","prefecture":"沖縄県","prefecture_kana":"オキナワケン","city":"うるま市","city_kana":"ウルマシ","town":"田場","town_kana":"タバ","prefecture_code":47},"2202":{"zip_code":"9042202","prefecture":"沖縄県","prefecture_kana":"オキナワケン","city":"うるま市","city_kana":"ウルマシ","town":"天願","town_kana":"テンガン","prefecture_code":47},"2233":{"zip_code":"9042233","prefecture":"沖縄県","prefecture_kana":"オキナワケン","city":"うるま市","city_kana":"ウルマシ","town":"豊原","town_kana":"トヨハラ","prefecture_code":47},"2226":{"zip_code":"9042226","prefecture":"沖縄県","prefecture_kana":"オキナワケン","city":"うるま市","city_kana":"ウルマシ","town":"仲嶺","town_kana":"ナカミネ","prefecture_code":47},"2235":{"zip_code":"9042235","prefecture":"沖縄県","prefecture_kana":"オキナワケン","city":"うるま市","city_kana":"ウルマシ","town":"前原","town_kana":"マエハラ","prefecture_code":47},"2215":{"zip_code":"9042215","prefecture":"沖縄県","prefecture_kana":"オキナワケン","city":"うるま市","city_kana":"ウルマシ","town":"みどり町","town_kana":"ミドリマチ","prefecture_code":47},"2243":{"zip_code":"9042243","prefecture":"沖縄県","prefecture_kana":"オキナワケン","city":"うるま市","city_kana":"ウルマシ","town":"宮里","town_kana":"ミヤザト","prefecture_code":47},"2303":{"zip_code":"9042303","prefecture":"沖縄県","prefecture_kana":"オキナワケン","city":"うるま市","city_kana":"ウルマシ","town":"与那城","town_kana":"ヨナシロ","prefecture_code":47},"2306":{"zip_code":"9042306","prefecture":"沖縄県","prefecture_kana":"オキナワケン","city":"うるま市","city_kana":"ウルマシ","town":"与那城安勢理","town_kana":"ヨナシロアセリ","prefecture_code":47},"2421":{"zip_code":"9042421","prefecture":"沖縄県","prefecture_kana":"オキナワケン","city":"うるま市","city_kana":"ウルマシ","town":"与那城伊計","town_kana":"ヨナシロイケイ","prefecture_code":47},"2422":{"zip_code":"9042422","prefecture":"沖縄県","prefecture_kana":"オキナワケン","city":"うるま市","city_kana":"ウルマシ","town":"与那城池味","town_kana":"ヨナシロイケミ","prefecture_code":47},"2424":{"zip_code":"9042424","prefecture":"沖縄県","prefecture_kana":"オキナワケン","city":"うるま市","city_kana":"ウルマシ","town":"与那城上原","town_kana":"ヨナシロウエハラ","prefecture_code":47},"2305":{"zip_code":"9042305","prefecture":"沖縄県","prefecture_kana":"オキナワケン","city":"うるま市","city_kana":"ウルマシ","town":"与那城中央","town_kana":"ヨナシロチュウオウ","prefecture_code":47},"2301":{"zip_code":"9042301","prefecture":"沖縄県","prefecture_kana":"オキナワケン","city":"うるま市","city_kana":"ウルマシ","town":"与那城照間","town_kana":"ヨナシロテルマ","prefecture_code":47},"2425":{"zip_code":"9042425","prefecture":"沖縄県","prefecture_kana":"オキナワケン","city":"うるま市","city_kana":"ウルマシ","town":"与那城桃原","town_kana":"ヨナシロトウバル","prefecture_code":47},"2302":{"zip_code":"9042302","prefecture":"沖縄県","prefecture_kana":"オキナワケン","city":"うるま市","city_kana":"ウルマシ","town":"与那城西原","town_kana":"ヨナシロニシハラ","prefecture_code":47},"2307":{"zip_code":"9042307","prefecture":"沖縄県","prefecture_kana":"オキナワケン","city":"うるま市","city_kana":"ウルマシ","town":"与那城饒辺","town_kana":"ヨナシロノヘン","prefecture_code":47},"2428":{"zip_code":"9042428","prefecture":"沖縄県","prefecture_kana":"オキナワケン","city":"うるま市","city_kana":"ウルマシ","town":"与那城平宮","town_kana":"ヨナシロヒラミヤ","prefecture_code":47},"2426":{"zip_code":"9042426","prefecture":"沖縄県","prefecture_kana":"オキナワケン","city":"うるま市","city_kana":"ウルマシ","town":"与那城平安座","town_kana":"ヨナシロヘンザ","prefecture_code":47},"2423":{"zip_code":"9042423","prefecture":"沖縄県","prefecture_kana":"オキナワケン","city":"うるま市","city_kana":"ウルマシ","town":"与那城宮城","town_kana":"ヨナシロミヤギ","prefecture_code":47},"2304":{"zip_code":"9042304","prefecture":"沖縄県","prefecture_kana":"オキナワケン","city":"うるま市","city_kana":"ウルマシ","town":"与那城屋慶名","town_kana":"ヨナシロヤケナ","prefecture_code":47},"2427":{"zip_code":"9042427","prefecture":"沖縄県","prefecture_kana":"オキナワケン","city":"うるま市","city_kana":"ウルマシ","town":"与那城屋平","town_kana":"ヨナシロヤヒラ","prefecture_code":47},"0400":{"zip_code":"9040400","prefecture":"沖縄県","prefecture_kana":"オキナワケン","city":"国頭郡恩納村","city_kana":"クニガミグンオンナソン","town":"","town_kana":"","prefecture_code":47},"0402":{"zip_code":"9040402","prefecture":"沖縄県","prefecture_kana":"オキナワケン","city":"国頭郡恩納村","city_kana":"クニガミグンオンナソン","town":"安富祖","town_kana":"アフソ","prefecture_code":47},"0411":{"zip_code":"9040411","prefecture":"沖縄県","prefecture_kana":"オキナワケン","city":"国頭郡恩納村","city_kana":"クニガミグンオンナソン","town":"恩納","town_kana":"オンナ","prefecture_code":47},"0403":{"zip_code":"9040403","prefecture":"沖縄県","prefecture_kana":"オキナワケン","city":"国頭郡恩納村","city_kana":"クニガミグンオンナソン","town":"喜瀬武原","town_kana":"キセンバル","prefecture_code":47},"0404":{"zip_code":"9040404","prefecture":"沖縄県","prefecture_kana":"オキナワケン","city":"国頭郡恩納村","city_kana":"クニガミグンオンナソン","town":"瀬良垣","town_kana":"セラカキ","prefecture_code":47},"0412":{"zip_code":"9040412","prefecture":"沖縄県","prefecture_kana":"オキナワケン","city":"国頭郡恩納村","city_kana":"クニガミグンオンナソン","town":"谷茶","town_kana":"タンチャ","prefecture_code":47},"0415":{"zip_code":"9040415","prefecture":"沖縄県","prefecture_kana":"オキナワケン","city":"国頭郡恩納村","city_kana":"クニガミグンオンナソン","town":"仲泊","town_kana":"ナカドマリ","prefecture_code":47},"0401":{"zip_code":"9040401","prefecture":"沖縄県","prefecture_kana":"オキナワケン","city":"国頭郡恩納村","city_kana":"クニガミグンオンナソン","town":"名嘉真","town_kana":"ナカマ","prefecture_code":47},"0413":{"zip_code":"9040413","prefecture":"沖縄県","prefecture_kana":"オキナワケン","city":"国頭郡恩納村","city_kana":"クニガミグンオンナソン","town":"冨着","town_kana":"フチャク","prefecture_code":47},"0414":{"zip_code":"9040414","prefecture":"沖縄県","prefecture_kana":"オキナワケン","city":"国頭郡恩納村","city_kana":"クニガミグンオンナソン","town":"前兼久","town_kana":"マエガネク","prefecture_code":47},"0417":{"zip_code":"9040417","prefecture":"沖縄県","prefecture_kana":"オキナワケン","city":"国頭郡恩納村","city_kana":"クニガミグンオンナソン","town":"真栄田","town_kana":"マエダ","prefecture_code":47},"0416":{"zip_code":"9040416","prefecture":"沖縄県","prefecture_kana":"オキナワケン","city":"国頭郡恩納村","city_kana":"クニガミグンオンナソン","town":"山田","town_kana":"ヤマダ","prefecture_code":47},"1300":{"zip_code":"9041300","prefecture":"沖縄県","prefecture_kana":"オキナワケン","city":"国頭郡宜野座村","city_kana":"クニガミグンギノザソン","town":"","town_kana":"","prefecture_code":47},"1304":{"zip_code":"9041304","prefecture":"沖縄県","prefecture_kana":"オキナワケン","city":"国頭郡宜野座村","city_kana":"クニガミグンギノザソン","town":"漢那","town_kana":"カンナ","prefecture_code":47},"1302":{"zip_code":"9041302","prefecture":"沖縄県","prefecture_kana":"オキナワケン","city":"国頭郡宜野座村","city_kana":"クニガミグンギノザソン","town":"宜野座","town_kana":"ギノザ","prefecture_code":47},"1303":{"zip_code":"9041303","prefecture":"沖縄県","prefecture_kana":"オキナワケン","city":"国頭郡宜野座村","city_kana":"クニガミグンギノザソン","town":"惣慶","town_kana":"ソケイ","prefecture_code":47},"1301":{"zip_code":"9041301","prefecture":"沖縄県","prefecture_kana":"オキナワケン","city":"国頭郡宜野座村","city_kana":"クニガミグンギノザソン","town":"松田","town_kana":"マツダ","prefecture_code":47},"1200":{"zip_code":"9041200","prefecture":"沖縄県","prefecture_kana":"オキナワケン","city":"国頭郡金武町","city_kana":"クニガミグンキンチョウ","town":"","town_kana":"","prefecture_code":47},"1202":{"zip_code":"9041202","prefecture":"沖縄県","prefecture_kana":"オキナワケン","city":"国頭郡金武町","city_kana":"クニガミグンキンチョウ","town":"伊芸","town_kana":"イゲイ","prefecture_code":47},"1201":{"zip_code":"9041201","prefecture":"沖縄県","prefecture_kana":"オキナワケン","city":"国頭郡金武町","city_kana":"クニガミグンキンチョウ","town":"金武","town_kana":"キン","prefecture_code":47},"1203":{"zip_code":"9041203","prefecture":"沖縄県","prefecture_kana":"オキナワケン","city":"国頭郡金武町","city_kana":"クニガミグンキンチョウ","town":"屋嘉","town_kana":"ヤカ","prefecture_code":47},"0300":{"zip_code":"9040300","prefecture":"沖縄県","prefecture_kana":"オキナワケン","city":"中頭郡読谷村","city_kana":"ナカガミグンヨミタンソン","town":"","town_kana":"","prefecture_code":47},"0303":{"zip_code":"9040303","prefecture":"沖縄県","prefecture_kana":"オキナワケン","city":"中頭郡読谷村","city_kana":"ナカガミグンヨミタンソン","town":"伊良皆","town_kana":"イラミナ","prefecture_code":47},"0321":{"zip_code":"9040321","prefecture":"沖縄県","prefecture_kana":"オキナワケン","city":"中頭郡読谷村","city_kana":"ナカガミグンヨミタンソン","town":"上地","town_kana":"ウエチ","prefecture_code":47},"0328":{"zip_code":"9040328","prefecture":"沖縄県","prefecture_kana":"オキナワケン","city":"中頭郡読谷村","city_kana":"ナカガミグンヨミタンソン","town":"宇座","town_kana":"ウザ","prefecture_code":47},"0316":{"zip_code":"9040316","prefecture":"沖縄県","prefecture_kana":"オキナワケン","city":"中頭郡読谷村","city_kana":"ナカガミグンヨミタンソン","town":"大木","town_kana":"オオキ","prefecture_code":47},"0313":{"zip_code":"9040313","prefecture":"沖縄県","prefecture_kana":"オキナワケン","city":"中頭郡読谷村","city_kana":"ナカガミグンヨミタンソン","town":"大湾","town_kana":"オオワン","prefecture_code":47},"0302":{"zip_code":"9040302","prefecture":"沖縄県","prefecture_kana":"オキナワケン","city":"中頭郡読谷村","city_kana":"ナカガミグンヨミタンソン","town":"喜名","town_kana":"キナ","prefecture_code":47},"0327":{"zip_code":"9040327","prefecture":"沖縄県","prefecture_kana":"オキナワケン","city":"中頭郡読谷村","city_kana":"ナカガミグンヨミタンソン","town":"儀間","town_kana":"ギマ","prefecture_code":47},"0301":{"zip_code":"9040301","prefecture":"沖縄県","prefecture_kana":"オキナワケン","city":"中頭郡読谷村","city_kana":"ナカガミグンヨミタンソン","town":"座喜味","town_kana":"ザキミ","prefecture_code":47},"0325":{"zip_code":"9040325","prefecture":"沖縄県","prefecture_kana":"オキナワケン","city":"中頭郡読谷村","city_kana":"ナカガミグンヨミタンソン","town":"瀬名波","town_kana":"セナハ","prefecture_code":47},"0304":{"zip_code":"9040304","prefecture":"沖縄県","prefecture_kana":"オキナワケン","city":"中頭郡読谷村","city_kana":"ナカガミグンヨミタンソン","town":"楚辺","town_kana":"ソベ","prefecture_code":47},"0323":{"zip_code":"9040323","prefecture":"沖縄県","prefecture_kana":"オキナワケン","city":"中頭郡読谷村","city_kana":"ナカガミグンヨミタンソン","town":"高志保","town_kana":"タカシホ","prefecture_code":47},"0315":{"zip_code":"9040315","prefecture":"沖縄県","prefecture_kana":"オキナワケン","city":"中頭郡読谷村","city_kana":"ナカガミグンヨミタンソン","town":"渡具知","town_kana":"トグチ","prefecture_code":47},"0326":{"zip_code":"9040326","prefecture":"沖縄県","prefecture_kana":"オキナワケン","city":"中頭郡読谷村","city_kana":"ナカガミグンヨミタンソン","town":"渡慶次","town_kana":"トケシ","prefecture_code":47},"0305":{"zip_code":"9040305","prefecture":"沖縄県","prefecture_kana":"オキナワケン","city":"中頭郡読谷村","city_kana":"ナカガミグンヨミタンソン","town":"都屋","town_kana":"トヤ","prefecture_code":47},"0324":{"zip_code":"9040324","prefecture":"沖縄県","prefecture_kana":"オキナワケン","city":"中頭郡読谷村","city_kana":"ナカガミグンヨミタンソン","town":"長浜","town_kana":"ナガハマ","prefecture_code":47},"0322":{"zip_code":"9040322","prefecture":"沖縄県","prefecture_kana":"オキナワケン","city":"中頭郡読谷村","city_kana":"ナカガミグンヨミタンソン","town":"波平","town_kana":"ナミヒラ","prefecture_code":47},"0311":{"zip_code":"9040311","prefecture":"沖縄県","prefecture_kana":"オキナワケン","city":"中頭郡読谷村","city_kana":"ナカガミグンヨミタンソン","town":"比謝","town_kana":"ヒジャ","prefecture_code":47},"0312":{"zip_code":"9040312","prefecture":"沖縄県","prefecture_kana":"オキナワケン","city":"中頭郡読谷村","city_kana":"ナカガミグンヨミタンソン","town":"比謝矼","town_kana":"ヒジャバシ","prefecture_code":47},"0314":{"zip_code":"9040314","prefecture":"沖縄県","prefecture_kana":"オキナワケン","city":"中頭郡読谷村","city_kana":"ナカガミグンヨミタンソン","town":"古堅","town_kana":"フルゲン","prefecture_code":47},"0200":{"zip_code":"9040200","prefecture":"沖縄県","prefecture_kana":"オキナワケン","city":"中頭郡嘉手納町","city_kana":"ナカガミグンカデナチョウ","town":"","town_kana":"","prefecture_code":47},"0203":{"zip_code":"9040203","prefecture":"沖縄県","prefecture_kana":"オキナワケン","city":"中頭郡嘉手納町","city_kana":"ナカガミグンカデナチョウ","town":"嘉手納","town_kana":"カデナ","prefecture_code":47},"0205":{"zip_code":"9040205","prefecture":"沖縄県","prefecture_kana":"オキナワケン","city":"中頭郡嘉手納町","city_kana":"ナカガミグンカデナチョウ","town":"兼久","town_kana":"カネク","prefecture_code":47},"0201":{"zip_code":"9040201","prefecture":"沖縄県","prefecture_kana":"オキナワケン","city":"中頭郡嘉手納町","city_kana":"ナカガミグンカデナチョウ","town":"久得","town_kana":"クドク","prefecture_code":47},"0204":{"zip_code":"9040204","prefecture":"沖縄県","prefecture_kana":"オキナワケン","city":"中頭郡嘉手納町","city_kana":"ナカガミグンカデナチョウ","town":"水釜","town_kana":"ミズガマ","prefecture_code":47},"0202":{"zip_code":"9040202","prefecture":"沖縄県","prefecture_kana":"オキナワケン","city":"中頭郡嘉手納町","city_kana":"ナカガミグンカデナチョウ","town":"屋良","town_kana":"ヤラ","prefecture_code":47},"0100":{"zip_code":"9040100","prefecture":"沖縄県","prefecture_kana":"オキナワケン","city":"中頭郡北谷町","city_kana":"ナカガミグンチャタンチョウ","town":"","town_kana":"","prefecture_code":47},"0102":{"zip_code":"9040102","prefecture":"沖縄県","prefecture_kana":"オキナワケン","city":"中頭郡北谷町","city_kana":"ナカガミグンチャタンチョウ","town":"伊平","town_kana":"イヘイ","prefecture_code":47},"0107":{"zip_code":"9040107","prefecture":"沖縄県","prefecture_kana":"オキナワケン","city":"中頭郡北谷町","city_kana":"ナカガミグンチャタンチョウ","town":"大村","town_kana":"オオムラ","prefecture_code":47},"0101":{"zip_code":"9040101","prefecture":"沖縄県","prefecture_kana":"オキナワケン","city":"中頭郡北谷町","city_kana":"ナカガミグンチャタンチョウ","town":"上勢頭","town_kana":"カミセド","prefecture_code":47},"0117":{"zip_code":"9040117","prefecture":"沖縄県","prefecture_kana":"オキナワケン","city":"中頭郡北谷町","city_kana":"ナカガミグンチャタンチョウ","town":"北前","town_kana":"キタマエ","prefecture_code":47},"0103":{"zip_code":"9040103","prefecture":"沖縄県","prefecture_kana":"オキナワケン","city":"中頭郡北谷町","city_kana":"ナカガミグンチャタンチョウ","town":"桑江","town_kana":"クワエ","prefecture_code":47},"0111":{"zip_code":"9040111","prefecture":"沖縄県","prefecture_kana":"オキナワケン","city":"中頭郡北谷町","city_kana":"ナカガミグンチャタンチョウ","town":"砂辺","town_kana":"スナベ","prefecture_code":47},"0106":{"zip_code":"9040106","prefecture":"沖縄県","prefecture_kana":"オキナワケン","city":"中頭郡北谷町","city_kana":"ナカガミグンチャタンチョウ","town":"玉上","town_kana":"タマガミ","prefecture_code":47},"0116":{"zip_code":"9040116","prefecture":"沖縄県","prefecture_kana":"オキナワケン","city":"中頭郡北谷町","city_kana":"ナカガミグンチャタンチョウ","town":"北谷","town_kana":"チャタン","prefecture_code":47},"0104":{"zip_code":"9040104","prefecture":"沖縄県","prefecture_kana":"オキナワケン","city":"中頭郡北谷町","city_kana":"ナカガミグンチャタンチョウ","town":"桃原","town_kana":"トウバル","prefecture_code":47},"0112":{"zip_code":"9040112","prefecture":"沖縄県","prefecture_kana":"オキナワケン","city":"中頭郡北谷町","city_kana":"ナカガミグンチャタンチョウ","town":"浜川","town_kana":"ハマガワ","prefecture_code":47},"0114":{"zip_code":"9040114","prefecture":"沖縄県","prefecture_kana":"オキナワケン","city":"中頭郡北谷町","city_kana":"ナカガミグンチャタンチョウ","town":"港","town_kana":"ミナト","prefecture_code":47},"0115":{"zip_code":"9040115","prefecture":"沖縄県","prefecture_kana":"オキナワケン","city":"中頭郡北谷町","city_kana":"ナカガミグンチャタンチョウ","town":"美浜","town_kana":"ミハマ","prefecture_code":47},"0113":{"zip_code":"9040113","prefecture":"沖縄県","prefecture_kana":"オキナワケン","city":"中頭郡北谷町","city_kana":"ナカガミグンチャタンチョウ","town":"宮城","town_kana":"ミヤギ","prefecture_code":47},"0105":{"zip_code":"9040105","prefecture":"沖縄県","prefecture_kana":"オキナワケン","city":"中頭郡北谷町","city_kana":"ナカガミグンチャタンチョウ","town":"吉原","town_kana":"ヨシハラ","prefecture_code":47}}