{"0000":{"zip_code":"9050000","prefecture":"沖縄県","prefecture_kana":"オキナワケン","city":"名護市","city_kana":"ナゴシ","town":"以下に掲載がない場合","town_kana":"イカニケイサイガナイバアイ","prefecture_code":47},"0021":{"zip_code":"9050021","prefecture":"沖縄県","prefecture_kana":"オキナワケン","city":"名護市","city_kana":"ナゴシ","town":"東江","town_kana":"アガリエ","prefecture_code":47},"0003":{"zip_code":"9050003","prefecture":"沖縄県","prefecture_kana":"オキナワケン","city":"名護市","city_kana":"ナゴシ","town":"旭川","town_kana":"アサヒカワ","prefecture_code":47},"2263":{"zip_code":"9052263","prefecture":"沖縄県","prefecture_kana":"オキナワケン","city":"名護市","city_kana":"ナゴシ","town":"安部","town_kana":"アブ","prefecture_code":47},"0001":{"zip_code":"9050001","prefecture":"沖縄県","prefecture_kana":"オキナワケン","city":"名護市","city_kana":"ナゴシ","town":"安和","town_kana":"アワ","prefecture_code":47},"1152":{"zip_code":"9051152","prefecture":"沖縄県","prefecture_kana":"オキナワケン","city":"名護市","city_kana":"ナゴシ","town":"伊差川","town_kana":"イサガワ","prefecture_code":47},"1142":{"zip_code":"9051142","prefecture":"沖縄県","prefecture_kana":"オキナワケン","city":"名護市","city_kana":"ナゴシ","town":"稲嶺","town_kana":"イナミネ","prefecture_code":47},"0006":{"zip_code":"9050006","prefecture":"沖縄県","prefecture_kana":"オキナワケン","city":"名護市","city_kana":"ナゴシ","town":"宇茂佐","town_kana":"ウムサ","prefecture_code":47},"0009":{"zip_code":"9050009","prefecture":"沖縄県","prefecture_kana":"オキナワケン","city":"名護市","city_kana":"ナゴシ","town":"宇茂佐の森","town_kana":"ウムサノモリ","prefecture_code":47},"1634":{"zip_code":"9051634","prefecture":"沖縄県","prefecture_kana":"オキナワケン","city":"名護市","city_kana":"ナゴシ","town":"運天原","town_kana":"ウンテンバル","prefecture_code":47},"2267":{"zip_code":"9052267","prefecture":"沖縄県","prefecture_kana":"オキナワケン","city":"名護市","city_kana":"ナゴシ","town":"大浦","town_kana":"オオウラ","prefecture_code":47},"2268":{"zip_code":"9052268","prefecture":"沖縄県","prefecture_kana":"オキナワケン","city":"名護市","city_kana":"ナゴシ","town":"大川","town_kana":"オオカワ","prefecture_code":47},"0019":{"zip_code":"9050019","prefecture":"沖縄県","prefecture_kana":"オキナワケン","city":"名護市","city_kana":"ナゴシ","town":"大北","town_kana":"オオキタ","prefecture_code":47},"0017":{"zip_code":"9050017","prefecture":"沖縄県","prefecture_kana":"オキナワケン","city":"名護市","city_kana":"ナゴシ","town":"大中","town_kana":"オオナカ","prefecture_code":47},"0018":{"zip_code":"9050018","prefecture":"沖縄県","prefecture_kana":"オキナワケン","city":"名護市","city_kana":"ナゴシ","town":"大西","town_kana":"オオニシ","prefecture_code":47},"0016":{"zip_code":"9050016","prefecture":"沖縄県","prefecture_kana":"オキナワケン","city":"名護市","city_kana":"ナゴシ","town":"大東","town_kana":"オオヒガシ","prefecture_code":47},"0015":{"zip_code":"9050015","prefecture":"沖縄県","prefecture_kana":"オキナワケン","city":"名護市","city_kana":"ナゴシ","town":"大南","town_kana":"オオミナミ","prefecture_code":47},"1146":{"zip_code":"9051146","prefecture":"沖縄県","prefecture_kana":"オキナワケン","city":"名護市","city_kana":"ナゴシ","town":"親川","town_kana":"オヤカワ","prefecture_code":47},"0002":{"zip_code":"9050002","prefecture":"沖縄県","prefecture_kana":"オキナワケン","city":"名護市","city_kana":"ナゴシ","town":"勝山","town_kana":"カツヤマ","prefecture_code":47},"1633":{"zip_code":"9051633","prefecture":"沖縄県","prefecture_kana":"オキナワケン","city":"名護市","city_kana":"ナゴシ","town":"我部","town_kana":"ガブ","prefecture_code":47},"1155":{"zip_code":"9051155","prefecture":"沖縄県","prefecture_kana":"オキナワケン","city":"名護市","city_kana":"ナゴシ","town":"我部祖河","town_kana":"ガブソカ","prefecture_code":47},"2262":{"zip_code":"9052262","prefecture":"沖縄県","prefecture_kana":"オキナワケン","city":"名護市","city_kana":"ナゴシ","town":"嘉陽","town_kana":"カヨウ","prefecture_code":47},"1145":{"zip_code":"9051145","prefecture":"沖縄県","prefecture_kana":"オキナワケン","city":"名護市","city_kana":"ナゴシ","town":"川上","town_kana":"カワカミ","prefecture_code":47},"0026":{"zip_code":"9050026","prefecture":"沖縄県","prefecture_kana":"オキナワケン","city":"名護市","city_kana":"ナゴシ","town":"喜瀬","town_kana":"キセ","prefecture_code":47},"0024":{"zip_code":"9050024","prefecture":"沖縄県","prefecture_kana":"オキナワケン","city":"名護市","city_kana":"ナゴシ","town":"許田","town_kana":"キョダ","prefecture_code":47},"2173":{"zip_code":"9052173","prefecture":"沖縄県","prefecture_kana":"オキナワケン","city":"名護市","city_kana":"ナゴシ","town":"久志","town_kana":"クシ","prefecture_code":47},"0013":{"zip_code":"9050013","prefecture":"沖縄県","prefecture_kana":"オキナワケン","city":"名護市","city_kana":"ナゴシ","town":"城","town_kana":"グスク","prefecture_code":47},"1141":{"zip_code":"9051141","prefecture":"沖縄県","prefecture_kana":"オキナワケン","city":"名護市","city_kana":"ナゴシ","town":"源河","town_kana":"ゲンカ","prefecture_code":47},"0025":{"zip_code":"9050025","prefecture":"沖縄県","prefecture_kana":"オキナワケン","city":"名護市","city_kana":"ナゴシ","town":"幸喜","town_kana":"コウキ","prefecture_code":47},"1154":{"zip_code":"9051154","prefecture":"沖縄県","prefecture_kana":"オキナワケン","city":"名護市","city_kana":"ナゴシ","town":"呉我","town_kana":"ゴガ","prefecture_code":47},"1156":{"zip_code":"9051156","prefecture":"沖縄県","prefecture_kana":"オキナワケン","city":"名護市","city_kana":"ナゴシ","town":"古我知","town_kana":"コガチ","prefecture_code":47},"0023":{"zip_code":"9050023","prefecture":"沖縄県","prefecture_kana":"オキナワケン","city":"名護市","city_kana":"ナゴシ","town":"数久田","town_kana":"スクタ","prefecture_code":47},"1635":{"zip_code":"9051635","prefecture":"沖縄県","prefecture_kana":"オキナワケン","city":"名護市","city_kana":"ナゴシ","town":"済井出","town_kana":"スムイデ","prefecture_code":47},"2266":{"zip_code":"9052266","prefecture":"沖縄県","prefecture_kana":"オキナワケン","city":"名護市","city_kana":"ナゴシ","town":"瀬嵩","town_kana":"セダケ","prefecture_code":47},"1147":{"zip_code":"9051147","prefecture":"沖縄県","prefecture_kana":"オキナワケン","city":"名護市","city_kana":"ナゴシ","town":"田井等","town_kana":"タイラ","prefecture_code":47},"2265":{"zip_code":"9052265","prefecture":"沖縄県","prefecture_kana":"オキナワケン","city":"名護市","city_kana":"ナゴシ","town":"汀間","town_kana":"テイマ","prefecture_code":47},"2261":{"zip_code":"9052261","prefecture":"沖縄県","prefecture_kana":"オキナワケン","city":"名護市","city_kana":"ナゴシ","town":"天仁屋","town_kana":"テニヤ","prefecture_code":47},"2172":{"zip_code":"9052172","prefecture":"沖縄県","prefecture_kana":"オキナワケン","city":"名護市","city_kana":"ナゴシ","town":"豊原","town_kana":"トヨハラ","prefecture_code":47},"1153":{"zip_code":"9051153","prefecture":"沖縄県","prefecture_kana":"オキナワケン","city":"名護市","city_kana":"ナゴシ","town":"仲尾","town_kana":"ナカオ","prefecture_code":47},"1144":{"zip_code":"9051144","prefecture":"沖縄県","prefecture_kana":"オキナワケン","city":"名護市","city_kana":"ナゴシ","town":"仲尾次","town_kana":"ナカオシ","prefecture_code":47},"0004":{"zip_code":"9050004","prefecture":"沖縄県","prefecture_kana":"オキナワケン","city":"名護市","city_kana":"ナゴシ","town":"中山","town_kana":"ナカヤマ","prefecture_code":47},"0012":{"zip_code":"9050012","prefecture":"沖縄県","prefecture_kana":"オキナワケン","city":"名護市","city_kana":"ナゴシ","town":"名護","town_kana":"ナゴ","prefecture_code":47},"0005":{"zip_code":"9050005","prefecture":"沖縄県","prefecture_kana":"オキナワケン","city":"名護市","city_kana":"ナゴシ","town":"為又","town_kana":"ビイマタ","prefecture_code":47},"2269":{"zip_code":"9052269","prefecture":"沖縄県","prefecture_kana":"オキナワケン","city":"名護市","city_kana":"ナゴシ","town":"二見","town_kana":"フタミ","prefecture_code":47},"1151":{"zip_code":"9051151","prefecture":"沖縄県","prefecture_kana":"オキナワケン","city":"名護市","city_kana":"ナゴシ","town":"振慶名","town_kana":"ブリケナ","prefecture_code":47},"2171":{"zip_code":"9052171","prefecture":"沖縄県","prefecture_kana":"オキナワケン","city":"名護市","city_kana":"ナゴシ","town":"辺野古","town_kana":"ヘノコ","prefecture_code":47},"1143":{"zip_code":"9051143","prefecture":"沖縄県","prefecture_kana":"オキナワケン","city":"名護市","city_kana":"ナゴシ","town":"真喜屋","town_kana":"マキヤ","prefecture_code":47},"0014":{"zip_code":"9050014","prefecture":"沖縄県","prefecture_kana":"オキナワケン","city":"名護市","city_kana":"ナゴシ","town":"港","town_kana":"ミナト","prefecture_code":47},"2264":{"zip_code":"9052264","prefecture":"沖縄県","prefecture_kana":"オキナワケン","city":"名護市","city_kana":"ナゴシ","town":"三原","town_kana":"ミハラ","prefecture_code":47},"0011":{"zip_code":"9050011","prefecture":"沖縄県","prefecture_kana":"オキナワケン","city":"名護市","city_kana":"ナゴシ","town":"宮里","town_kana":"ミヤザト","prefecture_code":47},"1631":{"zip_code":"9051631","prefecture":"沖縄県","prefecture_kana":"オキナワケン","city":"名護市","city_kana":"ナゴシ","town":"屋我","town_kana":"ヤガ","prefecture_code":47},"0007":{"zip_code":"9050007","prefecture":"沖縄県","prefecture_kana":"オキナワケン","city":"名護市","city_kana":"ナゴシ","town":"屋部","town_kana":"ヤブ","prefecture_code":47},"0008":{"zip_code":"9050008","prefecture":"沖縄県","prefecture_kana":"オキナワケン","city":"名護市","city_kana":"ナゴシ","town":"山入端","town_kana":"ヤマノハ","prefecture_code":47},"0022":{"zip_code":"9050022","prefecture":"沖縄県","prefecture_kana":"オキナワケン","city":"名護市","city_kana":"ナゴシ","town":"世冨慶","town_kana":"ヨフケ","prefecture_code":47},"1632":{"zip_code":"9051632","prefecture":"沖縄県","prefecture_kana":"オキナワケン","city":"名護市","city_kana":"ナゴシ","town":"饒平名","town_kana":"ヨヘナ","prefecture_code":47},"1400":{"zip_code":"9051400","prefecture":"沖縄県","prefecture_kana":"オキナワケン","city":"国頭郡国頭村","city_kana":"クニガミグンクニガミソン","town":"以下に掲載がない場合","town_kana":"イカニケイサイガナイバアイ","prefecture_code":47},"1503":{"zip_code":"9051503","prefecture":"沖縄県","prefecture_kana":"オキナワケン","city":"国頭郡国頭村","city_kana":"クニガミグンクニガミソン","town":"安田","town_kana":"アダ","prefecture_code":47},"1504":{"zip_code":"9051504","prefecture":"沖縄県","prefecture_kana":"オキナワケン","city":"国頭郡国頭村","city_kana":"クニガミグンクニガミソン","town":"安波","town_kana":"アハ","prefecture_code":47},"1428":{"zip_code":"9051428","prefecture":"沖縄県","prefecture_kana":"オキナワケン","city":"国頭郡国頭村","city_kana":"クニガミグンクニガミソン","town":"伊地","town_kana":"イジ","prefecture_code":47},"1423":{"zip_code":"9051423","prefecture":"沖縄県","prefecture_kana":"オキナワケン","city":"国頭郡国頭村","city_kana":"クニガミグンクニガミソン","town":"宇嘉","town_kana":"ウカ","prefecture_code":47},"1429":{"zip_code":"9051429","prefecture":"沖縄県","prefecture_kana":"オキナワケン","city":"国頭郡国頭村","city_kana":"クニガミグンクニガミソン","town":"宇良","town_kana":"ウラ","prefecture_code":47},"1501":{"zip_code":"9051501","prefecture":"沖縄県","prefecture_kana":"オキナワケン","city":"国頭郡国頭村","city_kana":"クニガミグンクニガミソン","town":"奥","town_kana":"オク","prefecture_code":47},"1412":{"zip_code":"9051412","prefecture":"沖縄県","prefecture_kana":"オキナワケン","city":"国頭郡国頭村","city_kana":"クニガミグンクニガミソン","town":"奥間","town_kana":"オクマ","prefecture_code":47},"1416":{"zip_code":"9051416","prefecture":"沖縄県","prefecture_kana":"オキナワケン","city":"国頭郡国頭村","city_kana":"クニガミグンクニガミソン","town":"鏡地","town_kana":"カガンジ","prefecture_code":47},"1422":{"zip_code":"9051422","prefecture":"沖縄県","prefecture_kana":"オキナワケン","city":"国頭郡国頭村","city_kana":"クニガミグンクニガミソン","town":"宜名真","town_kana":"ギナマ","prefecture_code":47},"1425":{"zip_code":"9051425","prefecture":"沖縄県","prefecture_kana":"オキナワケン","city":"国頭郡国頭村","city_kana":"クニガミグンクニガミソン","town":"佐手","town_kana":"サテ","prefecture_code":47},"1426":{"zip_code":"9051426","prefecture":"沖縄県","prefecture_kana":"オキナワケン","city":"国頭郡国頭村","city_kana":"クニガミグンクニガミソン","town":"謝敷","town_kana":"ジャシキ","prefecture_code":47},"1502":{"zip_code":"9051502","prefecture":"沖縄県","prefecture_kana":"オキナワケン","city":"国頭郡国頭村","city_kana":"クニガミグンクニガミソン","town":"楚洲","town_kana":"ソス","prefecture_code":47},"1417":{"zip_code":"9051417","prefecture":"沖縄県","prefecture_kana":"オキナワケン","city":"国頭郡国頭村","city_kana":"クニガミグンクニガミソン","town":"桃原","town_kana":"トウバル","prefecture_code":47},"1415":{"zip_code":"9051415","prefecture":"沖縄県","prefecture_kana":"オキナワケン","city":"国頭郡国頭村","city_kana":"クニガミグンクニガミソン","town":"浜","town_kana":"ハマ","prefecture_code":47},"1414":{"zip_code":"9051414","prefecture":"沖縄県","prefecture_kana":"オキナワケン","city":"国頭郡国頭村","city_kana":"クニガミグンクニガミソン","town":"半地","town_kana":"ハンジ","prefecture_code":47},"1413":{"zip_code":"9051413","prefecture":"沖縄県","prefecture_kana":"オキナワケン","city":"国頭郡国頭村","city_kana":"クニガミグンクニガミソン","town":"比地","town_kana":"ヒジ","prefecture_code":47},"1421":{"zip_code":"9051421","prefecture":"沖縄県","prefecture_kana":"オキナワケン","city":"国頭郡国頭村","city_kana":"クニガミグンクニガミソン","town":"辺戸","town_kana":"ヘド","prefecture_code":47},"1424":{"zip_code":"9051424","prefecture":"沖縄県","prefecture_kana":"オキナワケン","city":"国頭郡国頭村","city_kana":"クニガミグンクニガミソン","town":"辺野喜","town_kana":"ベノキ","prefecture_code":47},"1411":{"zip_code":"9051411","prefecture":"沖縄県","prefecture_kana":"オキナワケン","city":"国頭郡国頭村","city_kana":"クニガミグンクニガミソン","town":"辺土名","town_kana":"ヘントナ","prefecture_code":47},"1427":{"zip_code":"9051427","prefecture":"沖縄県","prefecture_kana":"オキナワケン","city":"国頭郡国頭村","city_kana":"クニガミグンクニガミソン","town":"与那","town_kana":"ヨナ","prefecture_code":47},"1300":{"zip_code":"9051300","prefecture":"沖縄県","prefecture_kana":"オキナワケン","city":"国頭郡大宜味村","city_kana":"クニガミグンオオギミソン","town":"以下に掲載がない場合","town_kana":"イカニケイサイガナイバアイ","prefecture_code":47},"1308":{"zip_code":"9051308","prefecture":"沖縄県","prefecture_kana":"オキナワケン","city":"国頭郡大宜味村","city_kana":"クニガミグンオオギミソン","town":"上原","town_kana":"ウエハラ","prefecture_code":47},"1317":{"zip_code":"9051317","prefecture":"沖縄県","prefecture_kana":"オキナワケン","city":"国頭郡大宜味村","city_kana":"クニガミグンオオギミソン","town":"江洲","town_kana":"エス","prefecture_code":47},"1305":{"zip_code":"9051305","prefecture":"沖縄県","prefecture_kana":"オキナワケン","city":"国頭郡大宜味村","city_kana":"クニガミグンオオギミソン","town":"大兼久","town_kana":"オオガネク","prefecture_code":47},"1306":{"zip_code":"9051306","prefecture":"沖縄県","prefecture_kana":"オキナワケン","city":"国頭郡大宜味村","city_kana":"クニガミグンオオギミソン","town":"大宜味","town_kana":"オオギミ","prefecture_code":47},"1313":{"zip_code":"9051313","prefecture":"沖縄県","prefecture_kana":"オキナワケン","city":"国頭郡大宜味村","city_kana":"クニガミグンオオギミソン","town":"押川","town_kana":"オシカワ","prefecture_code":47},"1303":{"zip_code":"9051303","prefecture":"沖縄県","prefecture_kana":"オキナワケン","city":"国頭郡大宜味村","city_kana":"クニガミグンオオギミソン","town":"喜如嘉","town_kana":"キジョカ","prefecture_code":47},"1311":{"zip_code":"9051311","prefecture":"沖縄県","prefecture_kana":"オキナワケン","city":"国頭郡大宜味村","city_kana":"クニガミグンオオギミソン","town":"塩屋","town_kana":"シオヤ","prefecture_code":47},"1302":{"zip_code":"9051302","prefecture":"沖縄県","prefecture_kana":"オキナワケン","city":"国頭郡大宜味村","city_kana":"クニガミグンオオギミソン","town":"謝名城","town_kana":"ジャナグスク","prefecture_code":47},"1316":{"zip_code":"9051316","prefecture":"沖縄県","prefecture_kana":"オキナワケン","city":"国頭郡大宜味村","city_kana":"クニガミグンオオギミソン","town":"白浜","town_kana":"シラハマ","prefecture_code":47},"1315":{"zip_code":"9051315","prefecture":"沖縄県","prefecture_kana":"オキナワケン","city":"国頭郡大宜味村","city_kana":"クニガミグンオオギミソン","town":"大保","town_kana":"タイホ","prefecture_code":47},"1301":{"zip_code":"9051301","prefecture":"沖縄県","prefecture_kana":"オキナワケン","city":"国頭郡大宜味村","city_kana":"クニガミグンオオギミソン","town":"田嘉里","town_kana":"タカザト","prefecture_code":47},"1314":{"zip_code":"9051314","prefecture":"沖縄県","prefecture_kana":"オキナワケン","city":"国頭郡大宜味村","city_kana":"クニガミグンオオギミソン","town":"田港","town_kana":"タミナト","prefecture_code":47},"1318":{"zip_code":"9051318","prefecture":"沖縄県","prefecture_kana":"オキナワケン","city":"国頭郡大宜味村","city_kana":"クニガミグンオオギミソン","town":"津波","town_kana":"ツハ","prefecture_code":47},"1304":{"zip_code":"9051304","prefecture":"沖縄県","prefecture_kana":"オキナワケン","city":"国頭郡大宜味村","city_kana":"クニガミグンオオギミソン","town":"饒波","town_kana":"ヌウハ","prefecture_code":47},"1307":{"zip_code":"9051307","prefecture":"沖縄県","prefecture_kana":"オキナワケン","city":"国頭郡大宜味村","city_kana":"クニガミグンオオギミソン","town":"根路銘","town_kana":"ネロメ","prefecture_code":47},"1319":{"zip_code":"9051319","prefecture":"沖縄県","prefecture_kana":"オキナワケン","city":"国頭郡大宜味村","city_kana":"クニガミグンオオギミソン","town":"宮城","town_kana":"ミヤギ","prefecture_code":47},"1312":{"zip_code":"9051312","prefecture":"沖縄県","prefecture_kana":"オキナワケン","city":"国頭郡大宜味村","city_kana":"クニガミグンオオギミソン","town":"屋古","town_kana":"ヤコ","prefecture_code":47},"1200":{"zip_code":"9051200","prefecture":"沖縄県","prefecture_kana":"オキナワケン","city":"国頭郡東村","city_kana":"クニガミグンヒガシソン","town":"以下に掲載がない場合","town_kana":"イカニケイサイガナイバアイ","prefecture_code":47},"1206":{"zip_code":"9051206","prefecture":"沖縄県","prefecture_kana":"オキナワケン","city":"国頭郡東村","city_kana":"クニガミグンヒガシソン","town":"有銘","town_kana":"アルメ","prefecture_code":47},"1203":{"zip_code":"9051203","prefecture":"沖縄県","prefecture_kana":"オキナワケン","city":"国頭郡東村","city_kana":"クニガミグンヒガシソン","town":"川田","town_kana":"カワタ","prefecture_code":47},"1205":{"zip_code":"9051205","prefecture":"沖縄県","prefecture_kana":"オキナワケン","city":"国頭郡東村","city_kana":"クニガミグンヒガシソン","town":"慶佐次","town_kana":"ゲサシ","prefecture_code":47},"1204":{"zip_code":"9051204","prefecture":"沖縄県","prefecture_kana":"オキナワケン","city":"国頭郡東村","city_kana":"クニガミグンヒガシソン","town":"平良","town_kana":"タイラ","prefecture_code":47},"1201":{"zip_code":"9051201","prefecture":"沖縄県","prefecture_kana":"オキナワケン","city":"国頭郡東村","city_kana":"クニガミグンヒガシソン","town":"高江","town_kana":"タカエ","prefecture_code":47},"1202":{"zip_code":"9051202","prefecture":"沖縄県","prefecture_kana":"オキナワケン","city":"国頭郡東村","city_kana":"クニガミグンヒガシソン","town":"宮城","town_kana":"ミヤギ","prefecture_code":47},"0400":{"zip_code":"9050400","prefecture":"沖縄県","prefecture_kana":"オキナワケン","city":"国頭郡今帰仁村","city_kana":"クニガミグンナキジンソン","town":"以下に掲載がない場合","town_kana":"イカニケイサイガナイバアイ","prefecture_code":47},"0411":{"zip_code":"9050411","prefecture":"沖縄県","prefecture_kana":"オキナワケン","city":"国頭郡今帰仁村","city_kana":"クニガミグンナキジンソン","town":"天底","town_kana":"アメソコ","prefecture_code":47},"0428":{"zip_code":"9050428","prefecture":"沖縄県","prefecture_kana":"オキナワケン","city":"国頭郡今帰仁村","city_kana":"クニガミグンナキジンソン","town":"今泊","town_kana":"イマドマリ","prefecture_code":47},"0403":{"zip_code":"9050403","prefecture":"沖縄県","prefecture_kana":"オキナワケン","city":"国頭郡今帰仁村","city_kana":"クニガミグンナキジンソン","town":"運天","town_kana":"ウンテン","prefecture_code":47},"0427":{"zip_code":"9050427","prefecture":"沖縄県","prefecture_kana":"オキナワケン","city":"国頭郡今帰仁村","city_kana":"クニガミグンナキジンソン","town":"兼次","town_kana":"カネシ","prefecture_code":47},"0404":{"zip_code":"9050404","prefecture":"沖縄県","prefecture_kana":"オキナワケン","city":"国頭郡今帰仁村","city_kana":"クニガミグンナキジンソン","town":"上運天","town_kana":"カミウンテン","prefecture_code":47},"0406":{"zip_code":"9050406","prefecture":"沖縄県","prefecture_kana":"オキナワケン","city":"国頭郡今帰仁村","city_kana":"クニガミグンナキジンソン","town":"古宇利","town_kana":"コウリ","prefecture_code":47},"0421":{"zip_code":"9050421","prefecture":"沖縄県","prefecture_kana":"オキナワケン","city":"国頭郡今帰仁村","city_kana":"クニガミグンナキジンソン","town":"越地","town_kana":"コエチ","prefecture_code":47},"0413":{"zip_code":"9050413","prefecture":"沖縄県","prefecture_kana":"オキナワケン","city":"国頭郡今帰仁村","city_kana":"クニガミグンナキジンソン","town":"呉我山","town_kana":"ゴガヤマ","prefecture_code":47},"0422":{"zip_code":"9050422","prefecture":"沖縄県","prefecture_kana":"オキナワケン","city":"国頭郡今帰仁村","city_kana":"クニガミグンナキジンソン","town":"崎山","town_kana":"サキヤマ","prefecture_code":47},"0414":{"zip_code":"9050414","prefecture":"沖縄県","prefecture_kana":"オキナワケン","city":"国頭郡今帰仁村","city_kana":"クニガミグンナキジンソン","town":"謝名","town_kana":"ジャナ","prefecture_code":47},"0426":{"zip_code":"9050426","prefecture":"沖縄県","prefecture_kana":"オキナワケン","city":"国頭郡今帰仁村","city_kana":"クニガミグンナキジンソン","town":"諸志","town_kana":"ショシ","prefecture_code":47},"0405":{"zip_code":"9050405","prefecture":"沖縄県","prefecture_kana":"オキナワケン","city":"国頭郡今帰仁村","city_kana":"クニガミグンナキジンソン","town":"勢理客","town_kana":"セリキャク","prefecture_code":47},"0415":{"zip_code":"9050415","prefecture":"沖縄県","prefecture_kana":"オキナワケン","city":"国頭郡今帰仁村","city_kana":"クニガミグンナキジンソン","town":"玉城","town_kana":"タマシロ","prefecture_code":47},"0402":{"zip_code":"9050402","prefecture":"沖縄県","prefecture_kana":"オキナワケン","city":"国頭郡今帰仁村","city_kana":"クニガミグンナキジンソン","town":"渡喜仁","town_kana":"トキジン","prefecture_code":47},"0424":{"zip_code":"9050424","prefecture":"沖縄県","prefecture_kana":"オキナワケン","city":"国頭郡今帰仁村","city_kana":"クニガミグンナキジンソン","town":"仲尾次","town_kana":"ナカオシ","prefecture_code":47},"0401":{"zip_code":"9050401","prefecture":"沖縄県","prefecture_kana":"オキナワケン","city":"国頭郡今帰仁村","city_kana":"クニガミグンナキジンソン","town":"仲宗根","town_kana":"ナカソネ","prefecture_code":47},"0423":{"zip_code":"9050423","prefecture":"沖縄県","prefecture_kana":"オキナワケン","city":"国頭郡今帰仁村","city_kana":"クニガミグンナキジンソン","town":"平敷","town_kana":"ヘシキ","prefecture_code":47},"0425":{"zip_code":"9050425","prefecture":"沖縄県","prefecture_kana":"オキナワケン","city":"国頭郡今帰仁村","city_kana":"クニガミグンナキジンソン","town":"与那嶺","town_kana":"ヨナミネ","prefecture_code":47},"0412":{"zip_code":"9050412","prefecture":"沖縄県","prefecture_kana":"オキナワケン","city":"国頭郡今帰仁村","city_kana":"クニガミグンナキジンソン","town":"湧川","town_kana":"ワクガワ","prefecture_code":47},"0200":{"zip_code":"9050200","prefecture":"沖縄県","prefecture_kana":"オキナワケン","city":"国頭郡本部町","city_kana":"クニガミグンモトブチョウ","town":"以下に掲載がない場合","town_kana":"イカニケイサイガナイバアイ","prefecture_code":47},"0206":{"zip_code":"9050206","prefecture":"沖縄県","prefecture_kana":"オキナワケン","city":"国頭郡本部町","city_kana":"クニガミグンモトブチョウ","town":"石川","town_kana":"イシカワ","prefecture_code":47},"0221":{"zip_code":"9050221","prefecture":"沖縄県","prefecture_kana":"オキナワケン","city":"国頭郡本部町","city_kana":"クニガミグンモトブチョウ","town":"伊豆味","town_kana":"イズミ","prefecture_code":47},"0228":{"zip_code":"9050228","prefecture":"沖縄県","prefecture_kana":"オキナワケン","city":"国頭郡本部町","city_kana":"クニガミグンモトブチョウ","town":"伊野波","town_kana":"イノハ","prefecture_code":47},"0229":{"zip_code":"9050229","prefecture":"沖縄県","prefecture_kana":"オキナワケン","city":"国頭郡本部町","city_kana":"クニガミグンモトブチョウ","town":"大堂","town_kana":"ウフドウ","prefecture_code":47},"0217":{"zip_code":"9050217","prefecture":"沖縄県","prefecture_kana":"オキナワケン","city":"国頭郡本部町","city_kana":"クニガミグンモトブチョウ","town":"浦崎","town_kana":"ウラサキ","prefecture_code":47},"0223":{"zip_code":"9050223","prefecture":"沖縄県","prefecture_kana":"オキナワケン","city":"国頭郡本部町","city_kana":"クニガミグンモトブチョウ","town":"大嘉陽","town_kana":"オオカヨウ","prefecture_code":47},"0212":{"zip_code":"9050212","prefecture":"沖縄県","prefecture_kana":"オキナワケン","city":"国頭郡本部町","city_kana":"クニガミグンモトブチョウ","town":"大浜","town_kana":"オオハマ","prefecture_code":47},"0202":{"zip_code":"9050202","prefecture":"沖縄県","prefecture_kana":"オキナワケン","city":"国頭郡本部町","city_kana":"クニガミグンモトブチョウ","town":"嘉津宇","town_kana":"カツウ","prefecture_code":47},"0209":{"zip_code":"9050209","prefecture":"沖縄県","prefecture_kana":"オキナワケン","city":"国頭郡本部町","city_kana":"クニガミグンモトブチョウ","town":"北里","town_kana":"キタザト","prefecture_code":47},"0201":{"zip_code":"9050201","prefecture":"沖縄県","prefecture_kana":"オキナワケン","city":"国頭郡本部町","city_kana":"クニガミグンモトブチョウ","town":"具志堅","town_kana":"グシケン","prefecture_code":47},"0226":{"zip_code":"9050226","prefecture":"沖縄県","prefecture_kana":"オキナワケン","city":"国頭郡本部町","city_kana":"クニガミグンモトブチョウ","town":"健堅","town_kana":"ケンケン","prefecture_code":47},"0225":{"zip_code":"9050225","prefecture":"沖縄県","prefecture_kana":"オキナワケン","city":"国頭郡本部町","city_kana":"クニガミグンモトブチョウ","town":"崎本部","town_kana":"サキモトブ","prefecture_code":47},"0203":{"zip_code":"9050203","prefecture":"沖縄県","prefecture_kana":"オキナワケン","city":"国頭郡本部町","city_kana":"クニガミグンモトブチョウ","town":"謝花","town_kana":"ジャハナ","prefecture_code":47},"0208":{"zip_code":"9050208","prefecture":"沖縄県","prefecture_kana":"オキナワケン","city":"国頭郡本部町","city_kana":"クニガミグンモトブチョウ","town":"新里","town_kana":"シンザト","prefecture_code":47},"0227":{"zip_code":"9050227","prefecture":"沖縄県","prefecture_kana":"オキナワケン","city":"国頭郡本部町","city_kana":"クニガミグンモトブチョウ","town":"瀬底","town_kana":"セソコ","prefecture_code":47},"0213":{"zip_code":"9050213","prefecture":"沖縄県","prefecture_kana":"オキナワケン","city":"国頭郡本部町","city_kana":"クニガミグンモトブチョウ","town":"谷茶","town_kana":"タンチャ","prefecture_code":47},"0214":{"zip_code":"9050214","prefecture":"沖縄県","prefecture_kana":"オキナワケン","city":"国頭郡本部町","city_kana":"クニガミグンモトブチョウ","town":"渡久地","town_kana":"トグチ","prefecture_code":47},"0204":{"zip_code":"9050204","prefecture":"沖縄県","prefecture_kana":"オキナワケン","city":"国頭郡本部町","city_kana":"クニガミグンモトブチョウ","town":"豊原","town_kana":"トヨハラ","prefecture_code":47},"0222":{"zip_code":"9050222","prefecture":"沖縄県","prefecture_kana":"オキナワケン","city":"国頭郡本部町","city_kana":"クニガミグンモトブチョウ","town":"並里","town_kana":"ナミザト","prefecture_code":47},"0215":{"zip_code":"9050215","prefecture":"沖縄県","prefecture_kana":"オキナワケン","city":"国頭郡本部町","city_kana":"クニガミグンモトブチョウ","town":"野原","town_kana":"ノバル","prefecture_code":47},"0216":{"zip_code":"9050216","prefecture":"沖縄県","prefecture_kana":"オキナワケン","city":"国頭郡本部町","city_kana":"クニガミグンモトブチョウ","town":"浜元","town_kana":"ハマモト","prefecture_code":47},"0211":{"zip_code":"9050211","prefecture":"沖縄県","prefecture_kana":"オキナワケン","city":"国頭郡本部町","city_kana":"クニガミグンモトブチョウ","town":"東","town_kana":"ヒガシ","prefecture_code":47},"0207":{"zip_code":"9050207","prefecture":"沖縄県","prefecture_kana":"オキナワケン","city":"国頭郡本部町","city_kana":"クニガミグンモトブチョウ","town":"備瀬","town_kana":"ビセ","prefecture_code":47},"0218":{"zip_code":"9050218","prefecture":"沖縄県","prefecture_kana":"オキナワケン","city":"国頭郡本部町","city_kana":"クニガミグンモトブチョウ","town":"古島","town_kana":"フルジマ","prefecture_code":47},"0224":{"zip_code":"9050224","prefecture":"沖縄県","prefecture_kana":"オキナワケン","city":"国頭郡本部町","city_kana":"クニガミグンモトブチョウ","town":"辺名地","town_kana":"ヘナジ","prefecture_code":47},"0205":{"zip_code":"9050205","prefecture":"沖縄県","prefecture_kana":"オキナワケン","city":"国頭郡本部町","city_kana":"クニガミグンモトブチョウ","town":"山川","town_kana":"ヤマカワ","prefecture_code":47},"0219":{"zip_code":"9050219","prefecture":"沖縄県","prefecture_kana":"オキナワケン","city":"国頭郡本部町","city_kana":"クニガミグンモトブチョウ","town":"山里","town_kana":"ヤマザト","prefecture_code":47},"0500":{"zip_code":"9050500","prefecture":"沖縄県","prefecture_kana":"オキナワケン","city":"国頭郡伊江村","city_kana":"クニガミグンイエソン","town":"以下に掲載がない場合","town_kana":"イカニケイサイガナイバアイ","prefecture_code":47},"0503":{"zip_code":"9050503","prefecture":"沖縄県","prefecture_kana":"オキナワケン","city":"国頭郡伊江村","city_kana":"クニガミグンイエソン","town":"川平","town_kana":"カワヒラ","prefecture_code":47},"0505":{"zip_code":"9050505","prefecture":"沖縄県","prefecture_kana":"オキナワケン","city":"国頭郡伊江村","city_kana":"クニガミグンイエソン","town":"西江上","town_kana":"ニシエウエ","prefecture_code":47},"0504":{"zip_code":"9050504","prefecture":"沖縄県","prefecture_kana":"オキナワケン","city":"国頭郡伊江村","city_kana":"クニガミグンイエソン","town":"西江前","town_kana":"ニシエマエ","prefecture_code":47},"0501":{"zip_code":"9050501","prefecture":"沖縄県","prefecture_kana":"オキナワケン","city":"国頭郡伊江村","city_kana":"クニガミグンイエソン","town":"東江上","town_kana":"ヒガシエウエ","prefecture_code":47},"0502":{"zip_code":"9050502","prefecture":"沖縄県","prefecture_kana":"オキナワケン","city":"国頭郡伊江村","city_kana":"クニガミグンイエソン","town":"東江前","town_kana":"ヒガシエマエ","prefecture_code":47},"0700":{"zip_code":"9050700","prefecture":"沖縄県","prefecture_kana":"オキナワケン","city":"島尻郡伊平屋村","city_kana":"シマジリグンイヘヤソン","town":"以下に掲載がない場合","town_kana":"イカニケイサイガナイバアイ","prefecture_code":47},"0703":{"zip_code":"9050703","prefecture":"沖縄県","prefecture_kana":"オキナワケン","city":"島尻郡伊平屋村","city_kana":"シマジリグンイヘヤソン","town":"我喜屋","town_kana":"ガキヤ","prefecture_code":47},"0704":{"zip_code":"9050704","prefecture":"沖縄県","prefecture_kana":"オキナワケン","city":"島尻郡伊平屋村","city_kana":"シマジリグンイヘヤソン","town":"島尻","town_kana":"シマジリ","prefecture_code":47},"0701":{"zip_code":"9050701","prefecture":"沖縄県","prefecture_kana":"オキナワケン","city":"島尻郡伊平屋村","city_kana":"シマジリグンイヘヤソン","town":"田名","town_kana":"ダナ","prefecture_code":47},"0705":{"zip_code":"9050705","prefecture":"沖縄県","prefecture_kana":"オキナワケン","city":"島尻郡伊平屋村","city_kana":"シマジリグンイヘヤソン","town":"野甫","town_kana":"ノホ","prefecture_code":47},"0702":{"zip_code":"9050702","prefecture":"沖縄県","prefecture_kana":"オキナワケン","city":"島尻郡伊平屋村","city_kana":"シマジリグンイヘヤソン","town":"前泊","town_kana":"マエドマリ","prefecture_code":47},"0600":{"zip_code":"9050600","prefecture":"沖縄県","prefecture_kana":"オキナワケン","city":"島尻郡伊是名村","city_kana":"シマジリグンイゼナソン","town":"以下に掲載がない場合","town_kana":"イカニケイサイガナイバアイ","prefecture_code":47},"0604":{"zip_code":"9050604","prefecture":"沖縄県","prefecture_kana":"オキナワケン","city":"島尻郡伊是名村","city_kana":"シマジリグンイゼナソン","town":"伊是名","town_kana":"イゼナ","prefecture_code":47},"0601":{"zip_code":"9050601","prefecture":"沖縄県","prefecture_kana":"オキナワケン","city":"島尻郡伊是名村","city_kana":"シマジリグンイゼナソン","town":"内花","town_kana":"ウチハナ","prefecture_code":47},"0602":{"zip_code":"9050602","prefecture":"沖縄県","prefecture_kana":"オキナワケン","city":"島尻郡伊是名村","city_kana":"シマジリグンイゼナソン","town":"諸見","town_kana":"ショミ","prefecture_code":47},"0605":{"zip_code":"9050605","prefecture":"沖縄県","prefecture_kana":"オキナワケン","city":"島尻郡伊是名村","city_kana":"シマジリグンイゼナソン","town":"勢理客","town_kana":"セリキャク","prefecture_code":47},"0603":{"zip_code":"9050603","prefecture":"沖縄県","prefecture_kana":"オキナワケン","city":"島尻郡伊是名村","city_kana":"シマジリグンイゼナソン","town":"仲田","town_kana":"ナカダ","prefecture_code":47}}