{"0000":[{"zip_code":"9070000","prefecture":"沖縄県","prefecture_kana":"オキナワケン","city":"石垣市","city_kana":"イシガキシ","town":"","town_kana":"","prefecture_code":47},{"zip_code":"9070000","prefecture":"沖縄県","prefecture_kana":"オキナワケン","city":"八重山郡竹富町","city_kana":"ヤエヤマグンタケトミチョウ","town":"","town_kana":"","prefecture_code":47}],"0024":{"zip_code":"9070024","prefecture":"沖縄県","prefecture_kana":"オキナワケン","city":"石垣市","city_kana":"イシガキシ","town":"新川","town_kana":"アラカワ","prefecture_code":47},"0023":{"zip_code":"9070023","prefecture":"沖縄県","prefecture_kana":"オキナワケン","city":"石垣市","city_kana":"イシガキシ","town":"石垣","town_kana":"イシガキ","prefecture_code":47},"0332":{"zip_code":"9070332","prefecture":"沖縄県","prefecture_kana":"オキナワケン","city":"石垣市","city_kana":"イシガキシ","town":"伊原間","town_kana":"イバルマ","prefecture_code":47},"0022":{"zip_code":"9070022","prefecture":"沖縄県","prefecture_kana":"オキナワケン","city":"石垣市","city_kana":"イシガキシ","town":"大川","town_kana":"オオカワ","prefecture_code":47},"0001":{"zip_code":"9070001","prefecture":"沖縄県","prefecture_kana":"オキナワケン","city":"石垣市","city_kana":"イシガキシ","town":"大浜","town_kana":"オオハマ","prefecture_code":47},"0453":{"zip_code":"9070453","prefecture":"沖縄県","prefecture_kana":"オキナワケン","city":"石垣市","city_kana":"イシガキシ","town":"川平","town_kana":"カビラ","prefecture_code":47},"0452":{"zip_code":"9070452","prefecture":"沖縄県","prefecture_kana":"オキナワケン","city":"石垣市","city_kana":"イシガキシ","town":"崎枝","town_kana":"サキエダ","prefecture_code":47},"0242":{"zip_code":"9070242","prefecture":"沖縄県","prefecture_kana":"オキナワケン","city":"石垣市","city_kana":"イシガキシ","town":"白保","town_kana":"シラホ","prefecture_code":47},"0014":{"zip_code":"9070014","prefecture":"沖縄県","prefecture_kana":"オキナワケン","city":"石垣市","city_kana":"イシガキシ","town":"新栄町","town_kana":"シンエイチョウ","prefecture_code":47},"0241":{"zip_code":"9070241","prefecture":"沖縄県","prefecture_kana":"オキナワケン","city":"石垣市","city_kana":"イシガキシ","town":"桃里","town_kana":"トウザト","prefecture_code":47},"0004":{"zip_code":"9070004","prefecture":"沖縄県","prefecture_kana":"オキナワケン","city":"石垣市","city_kana":"イシガキシ","town":"登野城","town_kana":"トノシロ","prefecture_code":47},"0021":{"zip_code":"9070021","prefecture":"沖縄県","prefecture_kana":"オキナワケン","city":"石垣市","city_kana":"イシガキシ","town":"名蔵","town_kana":"ナグラ","prefecture_code":47},"0333":{"zip_code":"9070333","prefecture":"沖縄県","prefecture_kana":"オキナワケン","city":"石垣市","city_kana":"イシガキシ","town":"野底","town_kana":"ノソコ","prefecture_code":47},"0013":{"zip_code":"9070013","prefecture":"沖縄県","prefecture_kana":"オキナワケン","city":"石垣市","city_kana":"イシガキシ","town":"浜崎町","town_kana":"ハマサキチョウ","prefecture_code":47},"0003":{"zip_code":"9070003","prefecture":"沖縄県","prefecture_kana":"オキナワケン","city":"石垣市","city_kana":"イシガキシ","town":"平得","town_kana":"ヒラエ","prefecture_code":47},"0331":{"zip_code":"9070331","prefecture":"沖縄県","prefecture_kana":"オキナワケン","city":"石垣市","city_kana":"イシガキシ","town":"平久保","town_kana":"ヒラクボ","prefecture_code":47},"0451":{"zip_code":"9070451","prefecture":"沖縄県","prefecture_kana":"オキナワケン","city":"石垣市","city_kana":"イシガキシ","town":"桴海","town_kana":"フカイ","prefecture_code":47},"0002":{"zip_code":"9070002","prefecture":"沖縄県","prefecture_kana":"オキナワケン","city":"石垣市","city_kana":"イシガキシ","town":"真栄里","town_kana":"マエザト","prefecture_code":47},"0012":{"zip_code":"9070012","prefecture":"沖縄県","prefecture_kana":"オキナワケン","city":"石垣市","city_kana":"イシガキシ","town":"美崎町","town_kana":"ミサキチョウ","prefecture_code":47},"0243":{"zip_code":"9070243","prefecture":"沖縄県","prefecture_kana":"オキナワケン","city":"石垣市","city_kana":"イシガキシ","town":"宮良","town_kana":"ミヤラ","prefecture_code":47},"0244":{"zip_code":"9070244","prefecture":"沖縄県","prefecture_kana":"オキナワケン","city":"石垣市","city_kana":"イシガキシ","town":"盛山","town_kana":"モリヤマ","prefecture_code":47},"0011":{"zip_code":"9070011","prefecture":"沖縄県","prefecture_kana":"オキナワケン","city":"石垣市","city_kana":"イシガキシ","town":"八島町","town_kana":"ヤシマチョウ","prefecture_code":47},"1435":{"zip_code":"9071435","prefecture":"沖縄県","prefecture_kana":"オキナワケン","city":"八重山郡竹富町","city_kana":"ヤエヤマグンタケトミチョウ","town":"新城","town_kana":"アラグスク","prefecture_code":47},"1542":{"zip_code":"9071542","prefecture":"沖縄県","prefecture_kana":"オキナワケン","city":"八重山郡竹富町","city_kana":"ヤエヤマグンタケトミチョウ","town":"西表","town_kana":"イリオモテ","prefecture_code":47},"1541":{"zip_code":"9071541","prefecture":"沖縄県","prefecture_kana":"オキナワケン","city":"八重山郡竹富町","city_kana":"ヤエヤマグンタケトミチョウ","town":"上原","town_kana":"ウエハラ","prefecture_code":47},"1311":{"zip_code":"9071311","prefecture":"沖縄県","prefecture_kana":"オキナワケン","city":"八重山郡竹富町","city_kana":"ヤエヤマグンタケトミチョウ","town":"黒島","town_kana":"クロシマ","prefecture_code":47},"1221":{"zip_code":"9071221","prefecture":"沖縄県","prefecture_kana":"オキナワケン","city":"八重山郡竹富町","city_kana":"ヤエヤマグンタケトミチョウ","town":"小浜","town_kana":"コハマ","prefecture_code":47},"1432":{"zip_code":"9071432","prefecture":"沖縄県","prefecture_kana":"オキナワケン","city":"八重山郡竹富町","city_kana":"ヤエヤマグンタケトミチョウ","town":"古見","town_kana":"コミ","prefecture_code":47},"1543":{"zip_code":"9071543","prefecture":"沖縄県","prefecture_kana":"オキナワケン","city":"八重山郡竹富町","city_kana":"ヤエヤマグンタケトミチョウ","town":"崎山","town_kana":"サキヤマ","prefecture_code":47},"1431":{"zip_code":"9071431","prefecture":"沖縄県","prefecture_kana":"オキナワケン","city":"八重山郡竹富町","city_kana":"ヤエヤマグンタケトミチョウ","town":"高那","town_kana":"タカナ","prefecture_code":47},"1101":{"zip_code":"9071101","prefecture":"沖縄県","prefecture_kana":"オキナワケン","city":"八重山郡竹富町","city_kana":"ヤエヤマグンタケトミチョウ","town":"竹富","town_kana":"タケトミ","prefecture_code":47},"1434":{"zip_code":"9071434","prefecture":"沖縄県","prefecture_kana":"オキナワケン","city":"八重山郡竹富町","city_kana":"ヤエヤマグンタケトミチョウ","town":"南風見","town_kana":"ハイミ","prefecture_code":47},"1433":{"zip_code":"9071433","prefecture":"沖縄県","prefecture_kana":"オキナワケン","city":"八重山郡竹富町","city_kana":"ヤエヤマグンタケトミチョウ","town":"南風見仲","town_kana":"ハイミナカ","prefecture_code":47},"1751":{"zip_code":"9071751","prefecture":"沖縄県","prefecture_kana":"オキナワケン","city":"八重山郡竹富町","city_kana":"ヤエヤマグンタケトミチョウ","town":"波照間","town_kana":"ハテルマ","prefecture_code":47},"1544":{"zip_code":"9071544","prefecture":"沖縄県","prefecture_kana":"オキナワケン","city":"八重山郡竹富町","city_kana":"ヤエヤマグンタケトミチョウ","town":"鳩間","town_kana":"ハトマ","prefecture_code":47},"1800":{"zip_code":"9071800","prefecture":"沖縄県","prefecture_kana":"オキナワケン","city":"八重山郡与那国町","city_kana":"ヤエヤマグンヨナグニチョウ","town":"","town_kana":"","prefecture_code":47},"1801":{"zip_code":"9071801","prefecture":"沖縄県","prefecture_kana":"オキナワケン","city":"八重山郡与那国町","city_kana":"ヤエヤマグンヨナグニチョウ","town":"与那国","town_kana":"ヨナグニ","prefecture_code":47}}