{"3614":{"zip_code":"9103614","prefecture":"福井県","prefecture_kana":"フクイケン","city":"福井市","city_kana":"フクイシ","town":"在田町","town_kana":"アイダチョウ","prefecture_code":18},"3556":{"zip_code":"9103556","prefecture":"福井県","prefecture_kana":"フクイケン","city":"福井市","city_kana":"フクイシ","town":"赤坂町","town_kana":"アカサカチョウ","prefecture_code":18},"2475":{"zip_code":"9102475","prefecture":"福井県","prefecture_kana":"フクイケン","city":"福井市","city_kana":"フクイシ","town":"赤谷町","town_kana":"アカダニチョウ","prefecture_code":18},"2357":{"zip_code":"9102357","prefecture":"福井県","prefecture_kana":"フクイケン","city":"福井市","city_kana":"フクイシ","town":"朝谷町","town_kana":"アサダニチョウ","prefecture_code":18},"3605":{"zip_code":"9103605","prefecture":"福井県","prefecture_kana":"フクイケン","city":"福井市","city_kana":"フクイシ","town":"朝宮町","town_kana":"アサミヤチョウ","prefecture_code":18},"3266":[{"zip_code":"9103266","prefecture":"福井県","prefecture_kana":"フクイケン","city":"福井市","city_kana":"フクイシ","town":"足谷町","town_kana":"アシタニチョウ","prefecture_code":18},{"zip_code":"9103266","prefecture":"福井県","prefecture_kana":"フクイケン","city":"福井市","city_kana":"フクイシ","town":"猫瀬町","town_kana":"ネコセチョウ","prefecture_code":18},{"zip_code":"9103266","prefecture":"福井県","prefecture_kana":"フクイケン","city":"福井市","city_kana":"フクイシ","town":"東平町","town_kana":"ヒガシダイラチョウ","prefecture_code":18}],"2463":{"zip_code":"9102463","prefecture":"福井県","prefecture_kana":"フクイケン","city":"福井市","city_kana":"フクイシ","town":"味見河内町","town_kana":"アジミコウチチョウ","prefecture_code":18},"0104":{"zip_code":"9100104","prefecture":"福井県","prefecture_kana":"フクイケン","city":"福井市","city_kana":"フクイシ","town":"網戸瀬町","town_kana":"アドセチョウ","prefecture_code":18},"2152":{"zip_code":"9102152","prefecture":"福井県","prefecture_kana":"フクイケン","city":"福井市","city_kana":"フクイシ","town":"安波賀町","town_kana":"アバカチョウ","prefecture_code":18},"2151":{"zip_code":"9102151","prefecture":"福井県","prefecture_kana":"フクイケン","city":"福井市","city_kana":"フクイシ","town":"安波賀中島町","town_kana":"アバカナカジマチョウ","prefecture_code":18},"0124":{"zip_code":"9100124","prefecture":"福井県","prefecture_kana":"フクイケン","city":"福井市","city_kana":"フクイシ","town":"天池町","town_kana":"アマイケチョウ","prefecture_code":18},"3525":{"zip_code":"9103525","prefecture":"福井県","prefecture_kana":"フクイケン","city":"福井市","city_kana":"フクイシ","town":"尼ケ谷町","town_kana":"アマガタニチョウ","prefecture_code":18},"0041":{"zip_code":"9100041","prefecture":"福井県","prefecture_kana":"フクイケン","city":"福井市","city_kana":"フクイシ","town":"天菅生町","town_kana":"アマスゴウチョウ","prefecture_code":18},"3402":{"zip_code":"9103402","prefecture":"福井県","prefecture_kana":"フクイケン","city":"福井市","city_kana":"フクイシ","town":"鮎川町","town_kana":"アユカワチョウ","prefecture_code":18},"2172":{"zip_code":"9102172","prefecture":"福井県","prefecture_kana":"フクイケン","city":"福井市","city_kana":"フクイシ","town":"荒木新保町","town_kana":"アラキシンボチョウ","prefecture_code":18},"2171":{"zip_code":"9102171","prefecture":"福井県","prefecture_kana":"フクイケン","city":"福井市","city_kana":"フクイシ","town":"荒木町","town_kana":"アラキチョウ","prefecture_code":18},"3251":{"zip_code":"9103251","prefecture":"福井県","prefecture_kana":"フクイケン","city":"福井市","city_kana":"フクイシ","town":"荒谷町","town_kana":"アラタニチョウ","prefecture_code":18},"0014":{"zip_code":"9100014","prefecture":"福井県","prefecture_kana":"フクイケン","city":"福井市","city_kana":"フクイシ","town":"幾久町","town_kana":"イクヒサチョウ","prefecture_code":18},"0013":{"zip_code":"9100013","prefecture":"福井県","prefecture_kana":"フクイケン","city":"福井市","city_kana":"フクイシ","town":"幾代","town_kana":"イクヨ","prefecture_code":18},"3555":{"zip_code":"9103555","prefecture":"福井県","prefecture_kana":"フクイケン","city":"福井市","city_kana":"フクイシ","town":"居倉町","town_kana":"イクラチョウ","prefecture_code":18},"3106":{"zip_code":"9103106","prefecture":"福井県","prefecture_kana":"フクイケン","city":"福井市","city_kana":"フクイシ","town":"池尻町","town_kana":"イケノシリチョウ","prefecture_code":18},"3133":{"zip_code":"9103133","prefecture":"福井県","prefecture_kana":"フクイケン","city":"福井市","city_kana":"フクイシ","town":"石新保町","town_kana":"イシシンボチョウ","prefecture_code":18},"3137":{"zip_code":"9103137","prefecture":"福井県","prefecture_kana":"フクイケン","city":"福井市","city_kana":"フクイシ","town":"石橋町","town_kana":"イシバシチョウ","prefecture_code":18},"3123":{"zip_code":"9103123","prefecture":"福井県","prefecture_kana":"フクイケン","city":"福井市","city_kana":"フクイシ","town":"石畠町","town_kana":"イシバタケチョウ","prefecture_code":18},"0122":{"zip_code":"9100122","prefecture":"福井県","prefecture_kana":"フクイケン","city":"福井市","city_kana":"フクイシ","town":"石盛町","town_kana":"イシモリチョウ","prefecture_code":18},"0817":{"zip_code":"9100817","prefecture":"福井県","prefecture_kana":"フクイケン","city":"福井市","city_kana":"フクイシ","town":"泉田町","town_kana":"イズミダチョウ","prefecture_code":18},"3262":{"zip_code":"9103262","prefecture":"福井県","prefecture_kana":"フクイケン","city":"福井市","city_kana":"フクイシ","town":"一王寺町","town_kana":"イチオウジチョウ","prefecture_code":18},"2222":{"zip_code":"9102222","prefecture":"福井県","prefecture_kana":"フクイケン","city":"福井市","city_kana":"フクイシ","town":"市波町","town_kana":"イチナミチョウ","prefecture_code":18},"3125":{"zip_code":"9103125","prefecture":"福井県","prefecture_kana":"フクイケン","city":"福井市","city_kana":"フクイシ","town":"市ノ瀬町","town_kana":"イチノセチョウ","prefecture_code":18},"3383":{"zip_code":"9103383","prefecture":"福井県","prefecture_kana":"フクイケン","city":"福井市","city_kana":"フクイシ","town":"糸崎町","town_kana":"イトサキチョウ","prefecture_code":18},"0156":{"zip_code":"9100156","prefecture":"福井県","prefecture_kana":"フクイケン","city":"福井市","city_kana":"フクイシ","town":"稲多新町","town_kana":"イナダシンマチ","prefecture_code":18},"0155":{"zip_code":"9100155","prefecture":"福井県","prefecture_kana":"フクイケン","city":"福井市","city_kana":"フクイシ","town":"稲多浜町","town_kana":"イナダハママチ","prefecture_code":18},"0154":{"zip_code":"9100154","prefecture":"福井県","prefecture_kana":"フクイケン","city":"福井市","city_kana":"フクイシ","town":"稲多元町","town_kana":"イナダモトマチ","prefecture_code":18},"2177":{"zip_code":"9102177","prefecture":"福井県","prefecture_kana":"フクイケン","city":"福井市","city_kana":"フクイシ","town":"稲津町","town_kana":"イナヅチョウ","prefecture_code":18},"3118":{"zip_code":"9103118","prefecture":"福井県","prefecture_kana":"フクイケン","city":"福井市","city_kana":"フクイシ","town":"上野町","town_kana":"ウエノチョウ","prefecture_code":18},"0134":{"zip_code":"9100134","prefecture":"福井県","prefecture_kana":"フクイケン","city":"福井市","city_kana":"フクイシ","town":"上野本町","town_kana":"ウエノホンマチ","prefecture_code":18},"0135":{"zip_code":"9100135","prefecture":"福井県","prefecture_kana":"フクイケン","city":"福井市","city_kana":"フクイシ","town":"上野本町新","town_kana":"ウエノホンマチシン","prefecture_code":18},"0055":{"zip_code":"9100055","prefecture":"福井県","prefecture_kana":"フクイケン","city":"福井市","city_kana":"フクイシ","town":"上伏町","town_kana":"ウエブセチョウ","prefecture_code":18},"2227":{"zip_code":"9102227","prefecture":"福井県","prefecture_kana":"フクイケン","city":"福井市","city_kana":"フクイシ","town":"宇坂大谷町","town_kana":"ウサカオオタニチョウ","prefecture_code":18},"2223":{"zip_code":"9102223","prefecture":"福井県","prefecture_kana":"フクイケン","city":"福井市","city_kana":"フクイシ","town":"宇坂別所町","town_kana":"ウサカベッショチョウ","prefecture_code":18},"2211":{"zip_code":"9102211","prefecture":"福井県","prefecture_kana":"フクイケン","city":"福井市","city_kana":"フクイシ","town":"獺ケ口町","town_kana":"ウソガグチチョウ","prefecture_code":18},"3522":{"zip_code":"9103522","prefecture":"福井県","prefecture_kana":"フクイケン","city":"福井市","city_kana":"フクイシ","town":"謡谷町","town_kana":"ウタイダニチョウ","prefecture_code":18},"3116":{"zip_code":"9103116","prefecture":"福井県","prefecture_kana":"フクイケン","city":"福井市","city_kana":"フクイシ","town":"内山梨子町","town_kana":"ウチヤマナシチョウ","prefecture_code":18},"0131":{"zip_code":"9100131","prefecture":"福井県","prefecture_kana":"フクイケン","city":"福井市","city_kana":"フクイシ","town":"漆原町","town_kana":"ウルシハラチョウ","prefecture_code":18},"3113":{"zip_code":"9103113","prefecture":"福井県","prefecture_kana":"フクイケン","city":"福井市","city_kana":"フクイシ","town":"江上町","town_kana":"エガミチョウ","prefecture_code":18},"0047":{"zip_code":"9100047","prefecture":"福井県","prefecture_kana":"フクイケン","city":"福井市","city_kana":"フクイシ","town":"海老助町","town_kana":"エビスケチョウ","prefecture_code":18},"2175":{"zip_code":"9102175","prefecture":"福井県","prefecture_kana":"フクイケン","city":"福井市","city_kana":"フクイシ","town":"円成寺町","town_kana":"エンジョウジチョウ","prefecture_code":18},"3371":{"zip_code":"9103371","prefecture":"福井県","prefecture_kana":"フクイケン","city":"福井市","city_kana":"フクイシ","town":"大窪町","town_kana":"オオクボチョウ","prefecture_code":18},"2213":{"zip_code":"9102213","prefecture":"福井県","prefecture_kana":"フクイケン","city":"福井市","city_kana":"フクイシ","town":"大久保町","town_kana":"オオクボチョウ","prefecture_code":18},"3253":{"zip_code":"9103253","prefecture":"福井県","prefecture_kana":"フクイケン","city":"福井市","city_kana":"フクイシ","town":"大谷町","town_kana":"オオタニチョウ","prefecture_code":18},"0005":{"zip_code":"9100005","prefecture":"福井県","prefecture_kana":"フクイケン","city":"福井市","city_kana":"フクイシ","town":"大手","town_kana":"オオテ","prefecture_code":18},"3255":{"zip_code":"9103255","prefecture":"福井県","prefecture_kana":"フクイケン","city":"福井市","city_kana":"フクイシ","town":"大年町","town_kana":"オオトシチョウ","prefecture_code":18},"3551":{"zip_code":"9103551","prefecture":"福井県","prefecture_kana":"フクイケン","city":"福井市","city_kana":"フクイシ","town":"大味町","town_kana":"オオミチョウ","prefecture_code":18},"0016":{"zip_code":"9100016","prefecture":"福井県","prefecture_kana":"フクイケン","city":"福井市","city_kana":"フクイシ","town":"大宮","town_kana":"オオミヤ","prefecture_code":18},"2334":{"zip_code":"9102334","prefecture":"福井県","prefecture_kana":"フクイケン","city":"福井市","city_kana":"フクイシ","town":"大宮町","town_kana":"オオミヤチョウ","prefecture_code":18},"3634":{"zip_code":"9103634","prefecture":"福井県","prefecture_kana":"フクイケン","city":"福井市","city_kana":"フクイシ","town":"大森町","town_kana":"オオモリチョウ","prefecture_code":18},"3515":{"zip_code":"9103515","prefecture":"福井県","prefecture_kana":"フクイケン","city":"福井市","city_kana":"フクイシ","town":"大矢町","town_kana":"オオヤチョウ","prefecture_code":18},"0836":{"zip_code":"9100836","prefecture":"福井県","prefecture_kana":"フクイケン","city":"福井市","city_kana":"フクイシ","town":"大和田","town_kana":"オオワダ","prefecture_code":18},"0802":{"zip_code":"9100802","prefecture":"福井県","prefecture_kana":"フクイケン","city":"福井市","city_kana":"フクイシ","town":"大和田町","town_kana":"オオワダチョウ","prefecture_code":18},"3268":[{"zip_code":"9103268","prefecture":"福井県","prefecture_kana":"フクイケン","city":"福井市","city_kana":"フクイシ","town":"奥平町","town_kana":"オクダイラチョウ","prefecture_code":18},{"zip_code":"9103268","prefecture":"福井県","prefecture_kana":"フクイケン","city":"福井市","city_kana":"フクイシ","town":"清水平町","town_kana":"シミズダイラチョウ","prefecture_code":18},{"zip_code":"9103268","prefecture":"福井県","prefecture_kana":"フクイケン","city":"福井市","city_kana":"フクイシ","town":"中平町","town_kana":"ナカダイラチョウ","prefecture_code":18}],"2465":{"zip_code":"9102465","prefecture":"福井県","prefecture_kana":"フクイケン","city":"福井市","city_kana":"フクイシ","town":"小当見町","town_kana":"オトミチョウ","prefecture_code":18},"3404":{"zip_code":"9103404","prefecture":"福井県","prefecture_kana":"フクイケン","city":"福井市","city_kana":"フクイシ","town":"大丹生町","town_kana":"オニュウチョウ","prefecture_code":18},"3621":{"zip_code":"9103621","prefecture":"福井県","prefecture_kana":"フクイケン","city":"福井市","city_kana":"フクイシ","town":"小羽町","town_kana":"オバチョウ","prefecture_code":18},"2474":{"zip_code":"9102474","prefecture":"福井県","prefecture_kana":"フクイケン","city":"福井市","city_kana":"フクイシ","town":"折立町","town_kana":"オリタテチョウ","prefecture_code":18},"0842":{"zip_code":"9100842","prefecture":"福井県","prefecture_kana":"フクイケン","city":"福井市","city_kana":"フクイシ","town":"開発","town_kana":"カイホツ","prefecture_code":18},"0841":{"zip_code":"9100841","prefecture":"福井県","prefecture_kana":"フクイケン","city":"福井市","city_kana":"フクイシ","town":"開発町","town_kana":"カイホツチョウ","prefecture_code":18},"3265":{"zip_code":"9103265","prefecture":"福井県","prefecture_kana":"フクイケン","city":"福井市","city_kana":"フクイシ","town":"柿谷町","town_kana":"カキダニチョウ","prefecture_code":18},"0028":{"zip_code":"9100028","prefecture":"福井県","prefecture_kana":"フクイケン","city":"福井市","city_kana":"フクイシ","town":"学園","town_kana":"ガクエン","prefecture_code":18},"0022":{"zip_code":"9100022","prefecture":"福井県","prefecture_kana":"フクイケン","city":"福井市","city_kana":"フクイシ","town":"花月","town_kana":"カゲツ","prefecture_code":18},"2205":{"zip_code":"9102205","prefecture":"福井県","prefecture_kana":"フクイケン","city":"福井市","city_kana":"フクイシ","town":"篭谷町","town_kana":"カゴヤチョウ","prefecture_code":18},"3516":{"zip_code":"9103516","prefecture":"福井県","prefecture_kana":"フクイケン","city":"福井市","city_kana":"フクイシ","town":"風尾町","town_kana":"カザオチョウ","prefecture_code":18},"3622":{"zip_code":"9103622","prefecture":"福井県","prefecture_kana":"フクイケン","city":"福井市","city_kana":"フクイシ","town":"風巻町","town_kana":"カザマキチョウ","prefecture_code":18},"3603":{"zip_code":"9103603","prefecture":"福井県","prefecture_kana":"フクイケン","city":"福井市","city_kana":"フクイシ","town":"片粕町","town_kana":"カタカスチョウ","prefecture_code":18},"3611":{"zip_code":"9103611","prefecture":"福井県","prefecture_kana":"フクイケン","city":"福井市","city_kana":"フクイシ","town":"片山町","town_kana":"カタヤマチョウ","prefecture_code":18},"0856":{"zip_code":"9100856","prefecture":"福井県","prefecture_kana":"フクイケン","city":"福井市","city_kana":"フクイシ","town":"勝見","town_kana":"カツミ","prefecture_code":18},"2156":{"zip_code":"9102156","prefecture":"福井県","prefecture_kana":"フクイケン","city":"福井市","city_kana":"フクイシ","town":"鹿俣町","town_kana":"カナマタチョウ","prefecture_code":18},"3633":{"zip_code":"9103633","prefecture":"福井県","prefecture_kana":"フクイケン","city":"福井市","city_kana":"フクイシ","town":"上天下町","town_kana":"カミテガチョウ","prefecture_code":18},"2174":{"zip_code":"9102174","prefecture":"福井県","prefecture_kana":"フクイケン","city":"福井市","city_kana":"フクイシ","town":"上東郷町","town_kana":"カミトウゴウチョウ","prefecture_code":18},"0826":{"zip_code":"9100826","prefecture":"福井県","prefecture_kana":"フクイケン","city":"福井市","city_kana":"フクイシ","town":"上中町","town_kana":"カミナカチョウ","prefecture_code":18},"2144":{"zip_code":"9102144","prefecture":"福井県","prefecture_kana":"フクイケン","city":"福井市","city_kana":"フクイシ","town":"上毘沙門町","town_kana":"カミビシャモンチョウ","prefecture_code":18},"0142":{"zip_code":"9100142","prefecture":"福井県","prefecture_kana":"フクイケン","city":"福井市","city_kana":"フクイシ","town":"上森田","town_kana":"カミモリダ","prefecture_code":18},"0141":{"zip_code":"9100141","prefecture":"福井県","prefecture_kana":"フクイケン","city":"福井市","city_kana":"フクイシ","town":"上森田町","town_kana":"カミモリダチョウ","prefecture_code":18},"3644":[{"zip_code":"9103644","prefecture":"福井県","prefecture_kana":"フクイケン","city":"福井市","city_kana":"フクイシ","town":"加茂内町","town_kana":"カモウチチョウ","prefecture_code":18},{"zip_code":"9103644","prefecture":"福井県","prefecture_kana":"フクイケン","city":"福井市","city_kana":"フクイシ","town":"加茂町","town_kana":"カモチョウ","prefecture_code":18}],"3553":{"zip_code":"9103553","prefecture":"福井県","prefecture_kana":"フクイケン","city":"福井市","city_kana":"フクイシ","town":"蒲生町","town_kana":"ガモウチョウ","prefecture_code":18},"0105":{"zip_code":"9100105","prefecture":"福井県","prefecture_kana":"フクイケン","city":"福井市","city_kana":"フクイシ","town":"河合勝見町","town_kana":"カワイカツミチョウ","prefecture_code":18},"0132":{"zip_code":"9100132","prefecture":"福井県","prefecture_kana":"フクイケン","city":"福井市","city_kana":"フクイシ","town":"河合寄安町","town_kana":"カワイヨリヤスチョウ","prefecture_code":18},"0102":{"zip_code":"9100102","prefecture":"福井県","prefecture_kana":"フクイケン","city":"福井市","city_kana":"フクイシ","town":"川合鷲塚町","town_kana":"カワイワシヅカチョウ","prefecture_code":18},"3136":{"zip_code":"9103136","prefecture":"福井県","prefecture_kana":"フクイケン","city":"福井市","city_kana":"フクイシ","town":"川尻町","town_kana":"カワシリチョウ","prefecture_code":18},"2462":{"zip_code":"9102462","prefecture":"福井県","prefecture_kana":"フクイケン","city":"福井市","city_kana":"フクイシ","town":"神当部町","town_kana":"カントベチョウ","prefecture_code":18},"0042":{"zip_code":"9100042","prefecture":"福井県","prefecture_kana":"フクイケン","city":"福井市","city_kana":"フクイシ","town":"岸水町","town_kana":"キシミズチョウ","prefecture_code":18},"3385":{"zip_code":"9103385","prefecture":"福井県","prefecture_kana":"フクイケン","city":"福井市","city_kana":"フクイシ","town":"北菅生町","town_kana":"キタスゴウチョウ","prefecture_code":18},"0045":{"zip_code":"9100045","prefecture":"福井県","prefecture_kana":"フクイケン","city":"福井市","city_kana":"フクイシ","town":"北楢原町","town_kana":"キタナラハラチョウ","prefecture_code":18},"0815":{"zip_code":"9100815","prefecture":"福井県","prefecture_kana":"フクイケン","city":"福井市","city_kana":"フクイシ","town":"北野上町","town_kana":"キタノカミチョウ","prefecture_code":18},"0814":{"zip_code":"9100814","prefecture":"福井県","prefecture_kana":"フクイケン","city":"福井市","city_kana":"フクイシ","town":"北野下町","town_kana":"キタノシモチョウ","prefecture_code":18},"2153":{"zip_code":"9102153","prefecture":"福井県","prefecture_kana":"フクイケン","city":"福井市","city_kana":"フクイシ","town":"城戸ノ内町","town_kana":"キドノウチチョウ","prefecture_code":18},"3147":{"zip_code":"9103147","prefecture":"福井県","prefecture_kana":"フクイケン","city":"福井市","city_kana":"フクイシ","town":"木下町","town_kana":"キノシタチョウ","prefecture_code":18},"0012":{"zip_code":"9100012","prefecture":"福井県","prefecture_kana":"フクイケン","city":"福井市","city_kana":"フクイシ","town":"経栄","town_kana":"キョウエイ","prefecture_code":18},"0011":{"zip_code":"9100011","prefecture":"福井県","prefecture_kana":"フクイケン","city":"福井市","city_kana":"フクイシ","town":"経田","town_kana":"キョウデン","prefecture_code":18},"3264":{"zip_code":"9103264","prefecture":"福井県","prefecture_kana":"フクイケン","city":"福井市","city_kana":"フクイシ","town":"木米町","town_kana":"キヨネチョウ","prefecture_code":18},"3145":{"zip_code":"9103145","prefecture":"福井県","prefecture_kana":"フクイケン","city":"福井市","city_kana":"フクイシ","town":"串野町","town_kana":"クシノチョウ","prefecture_code":18},"3401":{"zip_code":"9103401","prefecture":"福井県","prefecture_kana":"フクイケン","city":"福井市","city_kana":"フクイシ","town":"国見町","town_kana":"クニミチョウ","prefecture_code":18},"3518":{"zip_code":"9103518","prefecture":"福井県","prefecture_kana":"フクイケン","city":"福井市","city_kana":"フクイシ","town":"国山町","town_kana":"クニヤマチョウ","prefecture_code":18},"3552":{"zip_code":"9103552","prefecture":"福井県","prefecture_kana":"フクイケン","city":"福井市","city_kana":"フクイシ","town":"茱崎町","town_kana":"グミザキチョウ","prefecture_code":18},"2356":{"zip_code":"9102356","prefecture":"福井県","prefecture_kana":"フクイケン","city":"福井市","city_kana":"フクイシ","town":"蔵作町","town_kana":"クラツクリチョウ","prefecture_code":18},"3604":{"zip_code":"9103604","prefecture":"福井県","prefecture_kana":"フクイケン","city":"福井市","city_kana":"フクイシ","town":"グリーンハイツ","town_kana":"グリーンハイツ","prefecture_code":18},"0137":{"zip_code":"9100137","prefecture":"福井県","prefecture_kana":"フクイケン","city":"福井市","city_kana":"フクイシ","town":"栗森町","town_kana":"クリモリチョウ","prefecture_code":18},"0136":{"zip_code":"9100136","prefecture":"福井県","prefecture_kana":"フクイケン","city":"福井市","city_kana":"フクイシ","town":"栗森町浜","town_kana":"クリモリチョウハマ","prefecture_code":18},"3107":{"zip_code":"9103107","prefecture":"福井県","prefecture_kana":"フクイケン","city":"福井市","city_kana":"フクイシ","town":"黒丸城町","town_kana":"クロマルジョウチョウ","prefecture_code":18},"0052":{"zip_code":"9100052","prefecture":"福井県","prefecture_kana":"フクイケン","city":"福井市","city_kana":"フクイシ","town":"黒丸町","town_kana":"クロマルチョウ","prefecture_code":18},"0822":{"zip_code":"9100822","prefecture":"福井県","prefecture_kana":"フクイケン","city":"福井市","city_kana":"フクイシ","town":"玄正島町","town_kana":"ゲンショウジマチョウ","prefecture_code":18},"0021":{"zip_code":"9100021","prefecture":"福井県","prefecture_kana":"フクイケン","city":"福井市","city_kana":"フクイシ","town":"乾徳","town_kana":"ケントク","prefecture_code":18},"2353":{"zip_code":"9102353","prefecture":"福井県","prefecture_kana":"フクイケン","city":"福井市","city_kana":"フクイシ","town":"小宇坂島町","town_kana":"コウサカジマチョウ","prefecture_code":18},"2352":{"zip_code":"9102352","prefecture":"福井県","prefecture_kana":"フクイケン","city":"福井市","city_kana":"フクイシ","town":"小宇坂町","town_kana":"コウサカチョウ","prefecture_code":18},"3267":{"zip_code":"9103267","prefecture":"福井県","prefecture_kana":"フクイケン","city":"福井市","city_kana":"フクイシ","town":"河内町","town_kana":"コウチチョウ","prefecture_code":18},"0026":{"zip_code":"9100026","prefecture":"福井県","prefecture_kana":"フクイケン","city":"福井市","city_kana":"フクイシ","town":"光陽","town_kana":"コウヨウ","prefecture_code":18},"0051":{"zip_code":"9100051","prefecture":"福井県","prefecture_kana":"フクイケン","city":"福井市","city_kana":"フクイシ","town":"郡町","town_kana":"コオリチョウ","prefecture_code":18},"3613":{"zip_code":"9103613","prefecture":"福井県","prefecture_kana":"フクイケン","city":"福井市","city_kana":"フクイシ","town":"甑谷町","town_kana":"コシキダニチョウ","prefecture_code":18},"3102":{"zip_code":"9103102","prefecture":"福井県","prefecture_kana":"フクイケン","city":"福井市","city_kana":"フクイシ","town":"小尉町","town_kana":"コジョウチョウ","prefecture_code":18},"3112":{"zip_code":"9103112","prefecture":"福井県","prefecture_kana":"フクイケン","city":"福井市","city_kana":"フクイシ","town":"御所垣内町","town_kana":"ゴショガイチチョウ","prefecture_code":18},"3405":{"zip_code":"9103405","prefecture":"福井県","prefecture_kana":"フクイケン","city":"福井市","city_kana":"フクイシ","town":"小丹生町","town_kana":"コニュウチョウ","prefecture_code":18},"3122":{"zip_code":"9103122","prefecture":"福井県","prefecture_kana":"フクイケン","city":"福井市","city_kana":"フクイシ","town":"小野町","town_kana":"コノチョウ","prefecture_code":18},"3617":{"zip_code":"9103617","prefecture":"福井県","prefecture_kana":"フクイケン","city":"福井市","city_kana":"フクイシ","town":"御油町","town_kana":"ゴユチョウ","prefecture_code":18},"2212":{"zip_code":"9102212","prefecture":"福井県","prefecture_kana":"フクイケン","city":"福井市","city_kana":"フクイシ","town":"小和清水町","town_kana":"コワショウズチョウ","prefecture_code":18},"3146":{"zip_code":"9103146","prefecture":"福井県","prefecture_kana":"フクイケン","city":"福井市","city_kana":"フクイシ","town":"小幡町","town_kana":"コワタチョウ","prefecture_code":18},"2347":{"zip_code":"9102347","prefecture":"福井県","prefecture_kana":"フクイケン","city":"福井市","city_kana":"フクイシ","town":"境寺町","town_kana":"サカイデラチョウ","prefecture_code":18},"0151":{"zip_code":"9100151","prefecture":"福井県","prefecture_kana":"フクイケン","city":"福井市","city_kana":"フクイシ","town":"栄町","town_kana":"サカエチョウ","prefecture_code":18},"3645":{"zip_code":"9103645","prefecture":"福井県","prefecture_kana":"フクイケン","city":"福井市","city_kana":"フクイシ","town":"笹谷町","town_kana":"ササダニチョウ","prefecture_code":18},"0121":{"zip_code":"9100121","prefecture":"福井県","prefecture_kana":"フクイケン","city":"福井市","city_kana":"フクイシ","town":"定正町","town_kana":"サダマサチョウ","prefecture_code":18},"0056":{"zip_code":"9100056","prefecture":"福井県","prefecture_kana":"フクイケン","city":"福井市","city_kana":"フクイシ","town":"里別所新町","town_kana":"サトベッショシンマチ","prefecture_code":18},"0057":{"zip_code":"9100057","prefecture":"福井県","prefecture_kana":"フクイケン","city":"福井市","city_kana":"フクイシ","town":"里別所町","town_kana":"サトベッショチョウ","prefecture_code":18},"3121":{"zip_code":"9103121","prefecture":"福井県","prefecture_kana":"フクイケン","city":"福井市","city_kana":"フクイシ","town":"佐野町","town_kana":"サノチョウ","prefecture_code":18},"0033":{"zip_code":"9100033","prefecture":"福井県","prefecture_kana":"フクイケン","city":"福井市","city_kana":"フクイシ","town":"三郎丸","town_kana":"サブロウマル","prefecture_code":18},"0036":{"zip_code":"9100036","prefecture":"福井県","prefecture_kana":"フクイケン","city":"福井市","city_kana":"フクイシ","town":"三郎丸町","town_kana":"サブロウマルチョウ","prefecture_code":18},"2201":{"zip_code":"9102201","prefecture":"福井県","prefecture_kana":"フクイケン","city":"福井市","city_kana":"フクイシ","town":"皿谷町","town_kana":"サラダニチョウ","prefecture_code":18},"2224":{"zip_code":"9102224","prefecture":"福井県","prefecture_kana":"フクイケン","city":"福井市","city_kana":"フクイシ","town":"三万谷町","town_kana":"サンマンダニチョウ","prefecture_code":18},"2143":{"zip_code":"9102143","prefecture":"福井県","prefecture_kana":"フクイケン","city":"福井市","city_kana":"フクイシ","town":"宿布町","town_kana":"シクヌノチョウ","prefecture_code":18},"0823":{"zip_code":"9100823","prefecture":"福井県","prefecture_kana":"フクイケン","city":"福井市","city_kana":"フクイシ","town":"重立町","town_kana":"シゲタテチョウ","prefecture_code":18},"0043":{"zip_code":"9100043","prefecture":"福井県","prefecture_kana":"フクイケン","city":"福井市","city_kana":"フクイシ","town":"四十谷町","town_kana":"シジュウタニチョウ","prefecture_code":18},"0048":{"zip_code":"9100048","prefecture":"福井県","prefecture_kana":"フクイケン","city":"福井市","city_kana":"フクイシ","town":"地蔵堂町","town_kana":"ジゾウドウチョウ","prefecture_code":18},"3635":{"zip_code":"9103635","prefecture":"福井県","prefecture_kana":"フクイケン","city":"福井市","city_kana":"フクイシ","town":"志津が丘","town_kana":"シヅガオカ","prefecture_code":18},"2348":{"zip_code":"9102348","prefecture":"福井県","prefecture_kana":"フクイケン","city":"福井市","city_kana":"フクイシ","town":"品ケ瀬町","town_kana":"シナガセチョウ","prefecture_code":18},"2148":{"zip_code":"9102148","prefecture":"福井県","prefecture_kana":"フクイケン","city":"福井市","city_kana":"フクイシ","town":"篠尾町","town_kana":"シノオチョウ","prefecture_code":18},"0845":{"zip_code":"9100845","prefecture":"福井県","prefecture_kana":"フクイケン","city":"福井市","city_kana":"フクイシ","town":"志比口","town_kana":"シヒグチ","prefecture_code":18},"3623":{"zip_code":"9103623","prefecture":"福井県","prefecture_kana":"フクイケン","city":"福井市","city_kana":"フクイシ","town":"島寺町","town_kana":"シマデラチョウ","prefecture_code":18},"0821":{"zip_code":"9100821","prefecture":"福井県","prefecture_kana":"フクイケン","city":"福井市","city_kana":"フクイシ","town":"島橋町","town_kana":"シマバシチョウ","prefecture_code":18},"3111":{"zip_code":"9103111","prefecture":"福井県","prefecture_kana":"フクイケン","city":"福井市","city_kana":"フクイシ","town":"島山梨子町","town_kana":"シマヤマナシチョウ","prefecture_code":18},"3607":{"zip_code":"9103607","prefecture":"福井県","prefecture_kana":"フクイケン","city":"福井市","city_kana":"フクイシ","town":"清水杉谷町","town_kana":"シミズスギタニチョウ","prefecture_code":18},"3601":{"zip_code":"9103601","prefecture":"福井県","prefecture_kana":"フクイケン","city":"福井市","city_kana":"フクイシ","town":"清水町","town_kana":"シミズチョウ","prefecture_code":18},"3646":{"zip_code":"9103646","prefecture":"福井県","prefecture_kana":"フクイケン","city":"福井市","city_kana":"フクイシ","town":"清水畑町","town_kana":"シミズバタチョウ","prefecture_code":18},"3612":{"zip_code":"9103612","prefecture":"福井県","prefecture_kana":"フクイケン","city":"福井市","city_kana":"フクイシ","town":"清水山町","town_kana":"シミズヤマチョウ","prefecture_code":18},"3632":{"zip_code":"9103632","prefecture":"福井県","prefecture_kana":"フクイケン","city":"福井市","city_kana":"フクイシ","town":"下天下町","town_kana":"シモテガチョウ","prefecture_code":18},"2173":{"zip_code":"9102173","prefecture":"福井県","prefecture_kana":"フクイケン","city":"福井市","city_kana":"フクイシ","town":"下東郷町","town_kana":"シモトウゴウチョウ","prefecture_code":18},"2146":{"zip_code":"9102146","prefecture":"福井県","prefecture_kana":"フクイケン","city":"福井市","city_kana":"フクイシ","town":"下毘沙門町","town_kana":"シモビシャモンチョウ","prefecture_code":18},"0146":{"zip_code":"9100146","prefecture":"福井県","prefecture_kana":"フクイケン","city":"福井市","city_kana":"フクイシ","town":"下森田桜町","town_kana":"シモモリダサクラマチ","prefecture_code":18},"0143":{"zip_code":"9100143","prefecture":"福井県","prefecture_kana":"フクイケン","city":"福井市","city_kana":"フクイシ","town":"下森田新町","town_kana":"シモモリダシンマチ","prefecture_code":18},"0145":{"zip_code":"9100145","prefecture":"福井県","prefecture_kana":"フクイケン","city":"福井市","city_kana":"フクイシ","town":"下森田藤巻町","town_kana":"シモモリダフジマキチョウ","prefecture_code":18},"0144":{"zip_code":"9100144","prefecture":"福井県","prefecture_kana":"フクイケン","city":"福井市","city_kana":"フクイシ","town":"下森田本町","town_kana":"シモモリダホンマチ","prefecture_code":18},"0147":{"zip_code":"9100147","prefecture":"福井県","prefecture_kana":"フクイケン","city":"福井市","city_kana":"フクイシ","town":"下森田町","town_kana":"シモモリダチョウ","prefecture_code":18},"3513":{"zip_code":"9103513","prefecture":"福井県","prefecture_kana":"フクイケン","city":"福井市","city_kana":"フクイシ","town":"宿堂町","town_kana":"シュクドウチョウ","prefecture_code":18},"0023":{"zip_code":"9100023","prefecture":"福井県","prefecture_kana":"フクイケン","city":"福井市","city_kana":"フクイシ","town":"順化","town_kana":"ジュンカ","prefecture_code":18},"2147":{"zip_code":"9102147","prefecture":"福井県","prefecture_kana":"フクイケン","city":"福井市","city_kana":"フクイシ","town":"成願寺町","town_kana":"ジョウガンジチョウ","prefecture_code":18},"2155":{"zip_code":"9102155","prefecture":"福井県","prefecture_kana":"フクイケン","city":"福井市","city_kana":"フクイシ","town":"浄教寺町","town_kana":"ジョウキョウジチョウ","prefecture_code":18},"2166":{"zip_code":"9102166","prefecture":"福井県","prefecture_kana":"フクイケン","city":"福井市","city_kana":"フクイシ","town":"小路町","town_kana":"ショウジチョウ","prefecture_code":18},"0853":{"zip_code":"9100853","prefecture":"福井県","prefecture_kana":"フクイケン","city":"福井市","city_kana":"フクイシ","town":"城東","town_kana":"ジョウトウ","prefecture_code":18},"3117":{"zip_code":"9103117","prefecture":"福井県","prefecture_kana":"フクイケン","city":"福井市","city_kana":"フクイシ","town":"浄土寺町","town_kana":"ジョウドジチョウ","prefecture_code":18},"3148":{"zip_code":"9103148","prefecture":"福井県","prefecture_kana":"フクイケン","city":"福井市","city_kana":"フクイシ","town":"菖蒲谷町","town_kana":"ショウブダニチョウ","prefecture_code":18},"3101":{"zip_code":"9103101","prefecture":"福井県","prefecture_kana":"フクイケン","city":"福井市","city_kana":"フクイシ","town":"昭和新町","town_kana":"ショウワシンマチ","prefecture_code":18},"3131":{"zip_code":"9103131","prefecture":"福井県","prefecture_kana":"フクイケン","city":"福井市","city_kana":"フクイシ","town":"白方町","town_kana":"シラカタチョウ","prefecture_code":18},"3511":{"zip_code":"9103511","prefecture":"福井県","prefecture_kana":"フクイケン","city":"福井市","city_kana":"フクイシ","town":"白滝町","town_kana":"シラタキチョウ","prefecture_code":18},"3403":{"zip_code":"9103403","prefecture":"福井県","prefecture_kana":"フクイケン","city":"福井市","city_kana":"フクイシ","town":"白浜町","town_kana":"シラハマチョウ","prefecture_code":18},"3557":{"zip_code":"9103557","prefecture":"福井県","prefecture_kana":"フクイケン","city":"福井市","city_kana":"フクイシ","town":"城有町","town_kana":"シロアリチョウ","prefecture_code":18},"0812":{"zip_code":"9100812","prefecture":"福井県","prefecture_kana":"フクイケン","city":"福井市","city_kana":"フクイシ","town":"新田本町","town_kana":"シンデンホンマチ","prefecture_code":18},"0833":{"zip_code":"9100833","prefecture":"福井県","prefecture_kana":"フクイケン","city":"福井市","city_kana":"フクイシ","town":"新保","town_kana":"シンボ","prefecture_code":18},"0838":{"zip_code":"9100838","prefecture":"福井県","prefecture_kana":"フクイケン","city":"福井市","city_kana":"フクイシ","town":"新保北","town_kana":"シンボキタ","prefecture_code":18},"0832":{"zip_code":"9100832","prefecture":"福井県","prefecture_kana":"フクイケン","city":"福井市","city_kana":"フクイシ","town":"新保町","town_kana":"シンボチョウ","prefecture_code":18},"2346":{"zip_code":"9102346","prefecture":"福井県","prefecture_kana":"フクイケン","city":"福井市","city_kana":"フクイシ","town":"椙谷町","town_kana":"スイダニチョウ","prefecture_code":18},"0034":{"zip_code":"9100034","prefecture":"福井県","prefecture_kana":"フクイケン","city":"福井市","city_kana":"フクイシ","town":"菅谷","town_kana":"スガヤ","prefecture_code":18},"0035":{"zip_code":"9100035","prefecture":"福井県","prefecture_kana":"フクイケン","city":"福井市","city_kana":"フクイシ","town":"菅谷町","town_kana":"スガヤチョウ","prefecture_code":18},"3143":{"zip_code":"9103143","prefecture":"福井県","prefecture_kana":"フクイケン","city":"福井市","city_kana":"フクイシ","town":"砂子坂町","town_kana":"スナゴサカチョウ","prefecture_code":18},"3141":{"zip_code":"9103141","prefecture":"福井県","prefecture_kana":"フクイケン","city":"福井市","city_kana":"フクイシ","town":"砂子田町","town_kana":"スナゴダチョウ","prefecture_code":18},"3115":{"zip_code":"9103115","prefecture":"福井県","prefecture_kana":"フクイケン","city":"福井市","city_kana":"フクイシ","town":"仙町","town_kana":"センチョウ","prefecture_code":18},"0001":{"zip_code":"9100001","prefecture":"福井県","prefecture_kana":"フクイケン","city":"福井市","city_kana":"フクイシ","town":"大願寺","town_kana":"ダイガンジ","prefecture_code":18},"2141":{"zip_code":"9102141","prefecture":"福井県","prefecture_kana":"フクイケン","city":"福井市","city_kana":"フクイシ","town":"高尾町","town_kana":"タカオチョウ","prefecture_code":18},"0805":{"zip_code":"9100805","prefecture":"福井県","prefecture_kana":"フクイケン","city":"福井市","city_kana":"フクイシ","town":"高木","town_kana":"タカギ","prefecture_code":18},"0804":{"zip_code":"9100804","prefecture":"福井県","prefecture_kana":"フクイケン","city":"福井市","city_kana":"フクイシ","town":"高木中央","town_kana":"タカギチュウオウ","prefecture_code":18},"0806":{"zip_code":"9100806","prefecture":"福井県","prefecture_kana":"フクイケン","city":"福井市","city_kana":"フクイシ","town":"高木町","town_kana":"タカギチョウ","prefecture_code":18},"0807":{"zip_code":"9100807","prefecture":"福井県","prefecture_kana":"フクイケン","city":"福井市","city_kana":"フクイシ","town":"高木北","town_kana":"タカギキタ","prefecture_code":18},"0070":{"zip_code":"9100070","prefecture":"福井県","prefecture_kana":"フクイケン","city":"福井市","city_kana":"フクイシ","town":"高木西","town_kana":"タカギニシ","prefecture_code":18},"3374":{"zip_code":"9103374","prefecture":"福井県","prefecture_kana":"フクイケン","city":"福井市","city_kana":"フクイシ","town":"高須町","town_kana":"タカスチョウ","prefecture_code":18},"2226":{"zip_code":"9102226","prefecture":"福井県","prefecture_kana":"フクイケン","city":"福井市","city_kana":"フクイシ","town":"高田町","town_kana":"タカタチョウ","prefecture_code":18},"0107":{"zip_code":"9100107","prefecture":"福井県","prefecture_kana":"フクイケン","city":"福井市","city_kana":"フクイシ","town":"高屋町","town_kana":"タカヤチョウ","prefecture_code":18},"0837":{"zip_code":"9100837","prefecture":"福井県","prefecture_kana":"フクイケン","city":"福井市","city_kana":"フクイシ","town":"高柳","town_kana":"タカヤナギ","prefecture_code":18},"0803":{"zip_code":"9100803","prefecture":"福井県","prefecture_kana":"フクイケン","city":"福井市","city_kana":"フクイシ","town":"高柳町","town_kana":"タカヤナギチョウ","prefecture_code":18},"3643":{"zip_code":"9103643","prefecture":"福井県","prefecture_kana":"フクイケン","city":"福井市","city_kana":"フクイシ","town":"滝波町","town_kana":"タキナミチョウ","prefecture_code":18},"3602":{"zip_code":"9103602","prefecture":"福井県","prefecture_kana":"フクイケン","city":"福井市","city_kana":"フクイシ","town":"竹生町","town_kana":"タコオチョウ","prefecture_code":18},"2225":{"zip_code":"9102225","prefecture":"福井県","prefecture_kana":"フクイケン","city":"福井市","city_kana":"フクイシ","town":"田尻町","town_kana":"タジリチョウ","prefecture_code":18},"3606":{"zip_code":"9103606","prefecture":"福井県","prefecture_kana":"フクイケン","city":"福井市","city_kana":"フクイシ","town":"田尻栃谷町","town_kana":"タジリトチタニチョウ","prefecture_code":18},"3124":{"zip_code":"9103124","prefecture":"福井県","prefecture_kana":"フクイケン","city":"福井市","city_kana":"フクイシ","town":"田ノ頭町","town_kana":"タノカシラチョウ","prefecture_code":18},"0044":{"zip_code":"9100044","prefecture":"福井県","prefecture_kana":"フクイケン","city":"福井市","city_kana":"フクイシ","town":"田ノ谷町","town_kana":"タノタニチョウ","prefecture_code":18},"3128":{"zip_code":"9103128","prefecture":"福井県","prefecture_kana":"フクイケン","city":"福井市","city_kana":"フクイシ","town":"為寄町","town_kana":"タメヨリチョウ","prefecture_code":18},"0018":{"zip_code":"9100018","prefecture":"福井県","prefecture_kana":"フクイケン","city":"福井市","city_kana":"フクイシ","town":"田原","town_kana":"タワラ","prefecture_code":18},"3521":{"zip_code":"9103521","prefecture":"福井県","prefecture_kana":"フクイケン","city":"福井市","city_kana":"フクイシ","town":"千合町","town_kana":"チゴウチョウ","prefecture_code":18},"0006":{"zip_code":"9100006","prefecture":"福井県","prefecture_kana":"フクイケン","city":"福井市","city_kana":"フクイシ","town":"中央","town_kana":"チュウオウ","prefecture_code":18},"0101":{"zip_code":"9100101","prefecture":"福井県","prefecture_kana":"フクイケン","city":"福井市","city_kana":"フクイシ","town":"つくし野","town_kana":"ツクシノ","prefecture_code":18},"0053":{"zip_code":"9100053","prefecture":"福井県","prefecture_kana":"フクイケン","city":"福井市","city_kana":"フクイシ","town":"土橋町","town_kana":"ツチハシチョウ","prefecture_code":18},"3615":{"zip_code":"9103615","prefecture":"福井県","prefecture_kana":"フクイケン","city":"福井市","city_kana":"フクイシ","town":"坪谷町","town_kana":"ツボタニチョウ","prefecture_code":18},"3114":{"zip_code":"9103114","prefecture":"福井県","prefecture_kana":"フクイケン","city":"福井市","city_kana":"フクイシ","town":"剣大谷町","town_kana":"ツルギオオタニチョウ","prefecture_code":18},"3138":{"zip_code":"9103138","prefecture":"福井県","prefecture_kana":"フクイケン","city":"福井市","city_kana":"フクイシ","town":"テクノポート","town_kana":"テクノポート","prefecture_code":18},"0858":{"zip_code":"9100858","prefecture":"福井県","prefecture_kana":"フクイケン","city":"福井市","city_kana":"フクイシ","town":"手寄","town_kana":"テヨセ","prefecture_code":18},"0801":{"zip_code":"9100801","prefecture":"福井県","prefecture_kana":"フクイケン","city":"福井市","city_kana":"フクイシ","town":"寺前町","town_kana":"テラマエチョウ","prefecture_code":18},"0024":{"zip_code":"9100024","prefecture":"福井県","prefecture_kana":"フクイケン","city":"福井市","city_kana":"フクイシ","town":"照手","town_kana":"テルテ","prefecture_code":18},"0025":{"zip_code":"9100025","prefecture":"福井県","prefecture_kana":"フクイケン","city":"福井市","city_kana":"フクイシ","town":"照手町","town_kana":"テルテチョウ","prefecture_code":18},"2176":{"zip_code":"9102176","prefecture":"福井県","prefecture_kana":"フクイケン","city":"福井市","city_kana":"フクイシ","town":"東郷中島町","town_kana":"トウゴウナカジマチョウ","prefecture_code":18},"2165":{"zip_code":"9102165","prefecture":"福井県","prefecture_kana":"フクイケン","city":"福井市","city_kana":"フクイシ","town":"東郷二ケ町","town_kana":"トウゴウニカチョウ","prefecture_code":18},"0818":{"zip_code":"9100818","prefecture":"福井県","prefecture_kana":"フクイケン","city":"福井市","city_kana":"フクイシ","town":"堂島町","town_kana":"ドウジマチョウ","prefecture_code":18},"3252":{"zip_code":"9103252","prefecture":"福井県","prefecture_kana":"フクイケン","city":"福井市","city_kana":"フクイシ","town":"燈豊町","town_kana":"トウブチョウ","prefecture_code":18},"0063":{"zip_code":"9100063","prefecture":"福井県","prefecture_kana":"フクイケン","city":"福井市","city_kana":"フクイシ","town":"灯明寺","town_kana":"トウミョウジ","prefecture_code":18},"0062":{"zip_code":"9100062","prefecture":"福井県","prefecture_kana":"フクイケン","city":"福井市","city_kana":"フクイシ","town":"灯明寺町","town_kana":"トウミョウジチョウ","prefecture_code":18},"2178":{"zip_code":"9102178","prefecture":"福井県","prefecture_kana":"フクイケン","city":"福井市","city_kana":"フクイシ","town":"栂野町","town_kana":"トガノチョウ","prefecture_code":18},"2202":{"zip_code":"9102202","prefecture":"福井県","prefecture_kana":"フクイケン","city":"福井市","city_kana":"フクイシ","town":"所谷町","town_kana":"トコロダニチョウ","prefecture_code":18},"2163":{"zip_code":"9102163","prefecture":"福井県","prefecture_kana":"フクイケン","city":"福井市","city_kana":"フクイシ","town":"栃泉町","town_kana":"トチイズミチョウ","prefecture_code":18},"0027":{"zip_code":"9100027","prefecture":"福井県","prefecture_kana":"フクイケン","city":"福井市","city_kana":"フクイシ","town":"豊岡","town_kana":"トヨオカ","prefecture_code":18},"0857":{"zip_code":"9100857","prefecture":"福井県","prefecture_kana":"フクイケン","city":"福井市","city_kana":"フクイシ","town":"豊島","town_kana":"トヨシマ","prefecture_code":18},"3263":{"zip_code":"9103263","prefecture":"福井県","prefecture_kana":"フクイケン","city":"福井市","city_kana":"フクイシ","town":"中河内町","town_kana":"ナカコウチチョウ","prefecture_code":18},"0813":{"zip_code":"9100813","prefecture":"福井県","prefecture_kana":"フクイケン","city":"福井市","city_kana":"フクイシ","town":"中新田町","town_kana":"ナカシンデンチョウ","prefecture_code":18},"0103":{"zip_code":"9100103","prefecture":"福井県","prefecture_kana":"フクイケン","city":"福井市","city_kana":"フクイシ","town":"中角町","town_kana":"ナカツノチョウ","prefecture_code":18},"0816":{"zip_code":"9100816","prefecture":"福井県","prefecture_kana":"フクイケン","city":"福井市","city_kana":"フクイシ","town":"中ノ郷町","town_kana":"ナカノゴウチョウ","prefecture_code":18},"2145":{"zip_code":"9102145","prefecture":"福井県","prefecture_kana":"フクイケン","city":"福井市","city_kana":"フクイシ","town":"中毘沙門町","town_kana":"ナカビシャモンチョウ","prefecture_code":18},"0811":{"zip_code":"9100811","prefecture":"福井県","prefecture_kana":"フクイケン","city":"福井市","city_kana":"フクイシ","town":"中藤新保町","town_kana":"ナカフジシンボチョウ","prefecture_code":18},"3256":{"zip_code":"9103256","prefecture":"福井県","prefecture_kana":"フクイケン","city":"福井市","city_kana":"フクイシ","town":"中町","town_kana":"ナカマチ","prefecture_code":18},"3127":{"zip_code":"9103127","prefecture":"福井県","prefecture_kana":"フクイケン","city":"福井市","city_kana":"フクイシ","town":"中山町","town_kana":"ナカヤマチョウ","prefecture_code":18},"2464":{"zip_code":"9102464","prefecture":"福井県","prefecture_kana":"フクイケン","city":"福井市","city_kana":"フクイシ","town":"中手町","town_kana":"ナカンテチョウ","prefecture_code":18},"3384":{"zip_code":"9103384","prefecture":"福井県","prefecture_kana":"フクイケン","city":"福井市","city_kana":"フクイシ","town":"長橋町","town_kana":"ナガハシチョウ","prefecture_code":18},"0844":{"zip_code":"9100844","prefecture":"福井県","prefecture_kana":"フクイケン","city":"福井市","city_kana":"フクイシ","town":"長本町","town_kana":"ナガモトチョウ","prefecture_code":18},"3142":{"zip_code":"9103142","prefecture":"福井県","prefecture_kana":"フクイケン","city":"福井市","city_kana":"フクイシ","town":"波寄町","town_kana":"ナミヨセチョウ","prefecture_code":18},"2221":{"zip_code":"9102221","prefecture":"福井県","prefecture_kana":"フクイケン","city":"福井市","city_kana":"フクイシ","town":"奈良瀬町","town_kana":"ナラセチョウ","prefecture_code":18},"2336":{"zip_code":"9102336","prefecture":"福井県","prefecture_kana":"フクイケン","city":"福井市","city_kana":"フクイシ","town":"仁位町","town_kana":"ニイチョウ","prefecture_code":18},"2355":{"zip_code":"9102355","prefecture":"福井県","prefecture_kana":"フクイケン","city":"福井市","city_kana":"フクイシ","town":"西天田町","town_kana":"ニシアマダチョウ","prefecture_code":18},"3261":{"zip_code":"9103261","prefecture":"福井県","prefecture_kana":"フクイケン","city":"福井市","city_kana":"フクイシ","town":"西荒井町","town_kana":"ニシアライチョウ","prefecture_code":18},"2466":{"zip_code":"9102466","prefecture":"福井県","prefecture_kana":"フクイケン","city":"福井市","city_kana":"フクイシ","town":"西市布町","town_kana":"ニシイチヌノチョウ","prefecture_code":18},"0843":{"zip_code":"9100843","prefecture":"福井県","prefecture_kana":"フクイケン","city":"福井市","city_kana":"フクイシ","town":"西開発","town_kana":"ニシカイホツ","prefecture_code":18},"0855":{"zip_code":"9100855","prefecture":"福井県","prefecture_kana":"フクイケン","city":"福井市","city_kana":"フクイシ","town":"西方","town_kana":"ニシカタ","prefecture_code":18},"2471":{"zip_code":"9102471","prefecture":"福井県","prefecture_kana":"フクイケン","city":"福井市","city_kana":"フクイシ","town":"西河原町","town_kana":"ニシコウバラチョウ","prefecture_code":18},"2157":{"zip_code":"9102157","prefecture":"福井県","prefecture_kana":"フクイケン","city":"福井市","city_kana":"フクイシ","town":"西新町","town_kana":"ニシシンマチ","prefecture_code":18},"2203":{"zip_code":"9102203","prefecture":"福井県","prefecture_kana":"フクイケン","city":"福井市","city_kana":"フクイシ","town":"西中町","town_kana":"ニシナカチョウ","prefecture_code":18},"3105":{"zip_code":"9103105","prefecture":"福井県","prefecture_kana":"フクイケン","city":"福井市","city_kana":"フクイシ","town":"西中野町","town_kana":"ニシナカノチョウ","prefecture_code":18},"3373":{"zip_code":"9103373","prefecture":"福井県","prefecture_kana":"フクイケン","city":"福井市","city_kana":"フクイシ","town":"西畑町","town_kana":"ニシハタチョウ","prefecture_code":18},"3372":{"zip_code":"9103372","prefecture":"福井県","prefecture_kana":"フクイケン","city":"福井市","city_kana":"フクイシ","town":"西二ツ屋町","town_kana":"ニシフタツヤチョウ","prefecture_code":18},"3512":{"zip_code":"9103512","prefecture":"福井県","prefecture_kana":"フクイケン","city":"福井市","city_kana":"フクイシ","town":"西別所町","town_kana":"ニシベッショチョウ","prefecture_code":18},"0037":{"zip_code":"9100037","prefecture":"福井県","prefecture_kana":"フクイケン","city":"福井市","city_kana":"フクイシ","town":"西堀町","town_kana":"ニシボリチョウ","prefecture_code":18},"0029":{"zip_code":"9100029","prefecture":"福井県","prefecture_kana":"フクイケン","city":"福井市","city_kana":"フクイシ","town":"日光","town_kana":"ニッコウ","prefecture_code":18},"0067":{"zip_code":"9100067","prefecture":"福井県","prefecture_kana":"フクイケン","city":"福井市","city_kana":"フクイシ","town":"新田塚","town_kana":"ニッタヅカ","prefecture_code":18},"0064":{"zip_code":"9100064","prefecture":"福井県","prefecture_kana":"フクイケン","city":"福井市","city_kana":"フクイシ","town":"新田塚町","town_kana":"ニツタヅカチョウ","prefecture_code":18},"0015":{"zip_code":"9100015","prefecture":"福井県","prefecture_kana":"フクイケン","city":"福井市","city_kana":"フクイシ","town":"二の宮","town_kana":"ニノミヤ","prefecture_code":18},"2335":{"zip_code":"9102335","prefecture":"福井県","prefecture_kana":"フクイケン","city":"福井市","city_kana":"フクイシ","town":"縫原町","town_kana":"ヌイバラチョウ","prefecture_code":18},"2333":{"zip_code":"9102333","prefecture":"福井県","prefecture_kana":"フクイケン","city":"福井市","city_kana":"フクイシ","town":"野波町追分","town_kana":"ノナミチョウオイワケ","prefecture_code":18},"2332":{"zip_code":"9102332","prefecture":"福井県","prefecture_kana":"フクイケン","city":"福井市","city_kana":"フクイシ","town":"野波町","town_kana":"ノナミチョウ","prefecture_code":18},"2331":{"zip_code":"9102331","prefecture":"福井県","prefecture_kana":"フクイケン","city":"福井市","city_kana":"フクイシ","town":"計石町","town_kana":"ハカリイシチョウ","prefecture_code":18},"3517":{"zip_code":"9103517","prefecture":"福井県","prefecture_kana":"フクイケン","city":"福井市","city_kana":"フクイシ","town":"畠中町","town_kana":"ハタケナカチョウ","prefecture_code":18},"3554":{"zip_code":"9103554","prefecture":"福井県","prefecture_kana":"フクイケン","city":"福井市","city_kana":"フクイシ","town":"浜北山町","town_kana":"ハマキタヤマチョウ","prefecture_code":18},"3132":{"zip_code":"9103132","prefecture":"福井県","prefecture_kana":"フクイケン","city":"福井市","city_kana":"フクイシ","town":"浜島町","town_kana":"ハマシマチョウ","prefecture_code":18},"3377":{"zip_code":"9103377","prefecture":"福井県","prefecture_kana":"フクイケン","city":"福井市","city_kana":"フクイシ","town":"浜住町","town_kana":"ハマジュウチョウ","prefecture_code":18},"3134":{"zip_code":"9103134","prefecture":"福井県","prefecture_kana":"フクイケン","city":"福井市","city_kana":"フクイシ","town":"浜別所町","town_kana":"ハマベッショチョウ","prefecture_code":18},"0828":{"zip_code":"9100828","prefecture":"福井県","prefecture_kana":"フクイケン","city":"福井市","city_kana":"フクイシ","town":"林町","town_kana":"ハヤシチョウ","prefecture_code":18},"0829":{"zip_code":"9100829","prefecture":"福井県","prefecture_kana":"フクイケン","city":"福井市","city_kana":"フクイシ","town":"林藤島町","town_kana":"ハヤシフジシマチョウ","prefecture_code":18},"0825":{"zip_code":"9100825","prefecture":"福井県","prefecture_kana":"フクイケン","city":"福井市","city_kana":"フクイシ","town":"原目町","town_kana":"ハラメチョウ","prefecture_code":18},"0019":{"zip_code":"9100019","prefecture":"福井県","prefecture_kana":"フクイケン","city":"福井市","city_kana":"フクイシ","town":"春山","town_kana":"ハルヤマ","prefecture_code":18},"2354":{"zip_code":"9102354","prefecture":"福井県","prefecture_kana":"フクイケン","city":"福井市","city_kana":"フクイシ","town":"東天田町","town_kana":"ヒガシアマダチョウ","prefecture_code":18},"2341":{"zip_code":"9102341","prefecture":"福井県","prefecture_kana":"フクイケン","city":"福井市","city_kana":"フクイシ","town":"東川上町","town_kana":"ヒガシカワカミチョウ","prefecture_code":18},"2472":{"zip_code":"9102472","prefecture":"福井県","prefecture_kana":"フクイケン","city":"福井市","city_kana":"フクイシ","town":"東河原町","town_kana":"ヒガシコウバラチョウ","prefecture_code":18},"2154":{"zip_code":"9102154","prefecture":"福井県","prefecture_kana":"フクイケン","city":"福井市","city_kana":"フクイシ","town":"東新町","town_kana":"ヒガシシンマチ","prefecture_code":18},"2342":{"zip_code":"9102342","prefecture":"福井県","prefecture_kana":"フクイケン","city":"福井市","city_kana":"フクイシ","town":"東俣町","town_kana":"ヒガシマタチョウ","prefecture_code":18},"0859":{"zip_code":"9100859","prefecture":"福井県","prefecture_kana":"フクイケン","city":"福井市","city_kana":"フクイシ","town":"日之出","town_kana":"ヒノデ","prefecture_code":18},"3641":{"zip_code":"9103641","prefecture":"福井県","prefecture_kana":"フクイケン","city":"福井市","city_kana":"フクイシ","town":"平尾町","town_kana":"ヒラオチョウ","prefecture_code":18},"3126":{"zip_code":"9103126","prefecture":"福井県","prefecture_kana":"フクイケン","city":"福井市","city_kana":"フクイシ","town":"深坂町","town_kana":"フカサカチョウ","prefecture_code":18},"0049":{"zip_code":"9100049","prefecture":"福井県","prefecture_kana":"フクイケン","city":"福井市","city_kana":"フクイシ","town":"深谷町","town_kana":"フカタニチョウ","prefecture_code":18},"2164":{"zip_code":"9102164","prefecture":"福井県","prefecture_kana":"フクイケン","city":"福井市","city_kana":"フクイシ","town":"深見町","town_kana":"フカミチョウ","prefecture_code":18},"2214":{"zip_code":"9102214","prefecture":"福井県","prefecture_kana":"フクイケン","city":"福井市","city_kana":"フクイシ","town":"福島町","town_kana":"フクシマチョウ","prefecture_code":18},"0827":{"zip_code":"9100827","prefecture":"福井県","prefecture_kana":"フクイケン","city":"福井市","city_kana":"フクイシ","town":"藤島町","town_kana":"フジシマチョウ","prefecture_code":18},"3523":{"zip_code":"9103523","prefecture":"福井県","prefecture_kana":"フクイケン","city":"福井市","city_kana":"フクイシ","town":"武周町","town_kana":"ブシュウチョウ","prefecture_code":18},"3104":{"zip_code":"9103104","prefecture":"福井県","prefecture_kana":"フクイケン","city":"福井市","city_kana":"フクイシ","town":"布施田町","town_kana":"フセダチョウ","prefecture_code":18},"3526":{"zip_code":"9103526","prefecture":"福井県","prefecture_kana":"フクイケン","city":"福井市","city_kana":"フクイシ","town":"二ツ屋町","town_kana":"フタツヤチョウ","prefecture_code":18},"0109":{"zip_code":"9100109","prefecture":"福井県","prefecture_kana":"フクイケン","city":"福井市","city_kana":"フクイシ","town":"二日市町","town_kana":"フツカイチチョウ","prefecture_code":18},"0808":{"zip_code":"9100808","prefecture":"福井県","prefecture_kana":"フクイケン","city":"福井市","city_kana":"フクイシ","town":"舟橋","town_kana":"フナバシ","prefecture_code":18},"0069":{"zip_code":"9100069","prefecture":"福井県","prefecture_kana":"フクイケン","city":"福井市","city_kana":"フクイシ","town":"舟橋黒竜","town_kana":"フナバシクロタツ","prefecture_code":18},"0068":{"zip_code":"9100068","prefecture":"福井県","prefecture_kana":"フクイケン","city":"福井市","city_kana":"フクイシ","town":"舟橋新","town_kana":"フナバシシン","prefecture_code":18},"0061":{"zip_code":"9100061","prefecture":"福井県","prefecture_kana":"フクイケン","city":"福井市","city_kana":"フクイシ","town":"舟橋新町","town_kana":"フナバシシンマチ","prefecture_code":18},"0809":{"zip_code":"9100809","prefecture":"福井県","prefecture_kana":"フクイケン","city":"福井市","city_kana":"フクイシ","town":"舟橋町","town_kana":"フナバシチョウ","prefecture_code":18},"0152":{"zip_code":"9100152","prefecture":"福井県","prefecture_kana":"フクイケン","city":"福井市","city_kana":"フクイシ","town":"古市","town_kana":"フルイチ","prefecture_code":18},"0153":{"zip_code":"9100153","prefecture":"福井県","prefecture_kana":"フクイケン","city":"福井市","city_kana":"フクイシ","town":"古市町","town_kana":"フルイチチョウ","prefecture_code":18},"0017":{"zip_code":"9100017","prefecture":"福井県","prefecture_kana":"フクイケン","city":"福井市","city_kana":"フクイシ","town":"文京","town_kana":"ブンキョウ","prefecture_code":18},"3524":{"zip_code":"9103524","prefecture":"福井県","prefecture_kana":"フクイケン","city":"福井市","city_kana":"フクイシ","town":"別畑町","town_kana":"ベツバタチョウ","prefecture_code":18},"0004":{"zip_code":"9100004","prefecture":"福井県","prefecture_kana":"フクイケン","city":"福井市","city_kana":"フクイシ","town":"宝永","town_kana":"ホウエイ","prefecture_code":18},"0032":{"zip_code":"9100032","prefecture":"福井県","prefecture_kana":"フクイケン","city":"福井市","city_kana":"フクイシ","town":"堀ノ宮","town_kana":"ホリノミヤ","prefecture_code":18},"0031":{"zip_code":"9100031","prefecture":"福井県","prefecture_kana":"フクイケン","city":"福井市","city_kana":"フクイシ","town":"堀ノ宮町","town_kana":"ホリノミヤチョウ","prefecture_code":18},"2142":{"zip_code":"9102142","prefecture":"福井県","prefecture_kana":"フクイケン","city":"福井市","city_kana":"フクイシ","town":"前波町","town_kana":"マエバチョウ","prefecture_code":18},"3616":{"zip_code":"9103616","prefecture":"福井県","prefecture_kana":"フクイケン","city":"福井市","city_kana":"フクイシ","town":"真栗町","town_kana":"マクリチョウ","prefecture_code":18},"0002":{"zip_code":"9100002","prefecture":"福井県","prefecture_kana":"フクイケン","city":"福井市","city_kana":"フクイシ","town":"町屋","town_kana":"マチヤ","prefecture_code":18},"3382":{"zip_code":"9103382","prefecture":"福井県","prefecture_kana":"フクイケン","city":"福井市","city_kana":"フクイシ","town":"松蔭町","town_kana":"マツカゲチョウ","prefecture_code":18},"0852":{"zip_code":"9100852","prefecture":"福井県","prefecture_kana":"フクイケン","city":"福井市","city_kana":"フクイシ","town":"松城町","town_kana":"マツシロチョウ","prefecture_code":18},"0003":{"zip_code":"9100003","prefecture":"福井県","prefecture_kana":"フクイケン","city":"福井市","city_kana":"フクイシ","town":"松本","town_kana":"マツモト","prefecture_code":18},"2345":{"zip_code":"9102345","prefecture":"福井県","prefecture_kana":"フクイケン","city":"福井市","city_kana":"フクイシ","town":"間戸町","town_kana":"マトチョウ","prefecture_code":18},"0824":{"zip_code":"9100824","prefecture":"福井県","prefecture_kana":"フクイケン","city":"福井市","city_kana":"フクイシ","town":"間山町","town_kana":"マヤマチョウ","prefecture_code":18},"0834":{"zip_code":"9100834","prefecture":"福井県","prefecture_kana":"フクイケン","city":"福井市","city_kana":"フクイシ","town":"丸山","town_kana":"マルヤマ","prefecture_code":18},"0835":{"zip_code":"9100835","prefecture":"福井県","prefecture_kana":"フクイケン","city":"福井市","city_kana":"フクイシ","town":"丸山町","town_kana":"マルヤマチョウ","prefecture_code":18},"3144":{"zip_code":"9103144","prefecture":"福井県","prefecture_kana":"フクイケン","city":"福井市","city_kana":"フクイシ","town":"水切町","town_kana":"ミズキリチョウ","prefecture_code":18},"3514":{"zip_code":"9103514","prefecture":"福井県","prefecture_kana":"フクイケン","city":"福井市","city_kana":"フクイシ","town":"水谷町","town_kana":"ミズタニチョウ","prefecture_code":18},"0038":{"zip_code":"9100038","prefecture":"福井県","prefecture_kana":"フクイケン","city":"福井市","city_kana":"フクイシ","town":"三ツ屋","town_kana":"ミツヤ","prefecture_code":18},"0039":{"zip_code":"9100039","prefecture":"福井県","prefecture_kana":"フクイケン","city":"福井市","city_kana":"フクイシ","town":"三ツ屋町","town_kana":"ミツヤチョウ","prefecture_code":18},"3608":{"zip_code":"9103608","prefecture":"福井県","prefecture_kana":"フクイケン","city":"福井市","city_kana":"フクイシ","town":"三留町","town_kana":"ミトメチョウ","prefecture_code":18},"3386":{"zip_code":"9103386","prefecture":"福井県","prefecture_kana":"フクイケン","city":"福井市","city_kana":"フクイシ","town":"南菅生町","town_kana":"ミナミスゴウチョウ","prefecture_code":18},"0046":{"zip_code":"9100046","prefecture":"福井県","prefecture_kana":"フクイケン","city":"福井市","city_kana":"フクイシ","town":"南楢原町","town_kana":"ミナミナラハラチョウ","prefecture_code":18},"2343":{"zip_code":"9102343","prefecture":"福井県","prefecture_kana":"フクイケン","city":"福井市","city_kana":"フクイシ","town":"南西俣町","town_kana":"ミナミニシマタチョウ","prefecture_code":18},"2461":{"zip_code":"9102461","prefecture":"福井県","prefecture_kana":"フクイケン","city":"福井市","city_kana":"フクイシ","town":"南野津又町","town_kana":"ミナミノツマタチョウ","prefecture_code":18},"2344":{"zip_code":"9102344","prefecture":"福井県","prefecture_kana":"フクイケン","city":"福井市","city_kana":"フクイシ","town":"南宮地町","town_kana":"ミナミミヤジチョウ","prefecture_code":18},"2162":{"zip_code":"9102162","prefecture":"福井県","prefecture_kana":"フクイケン","city":"福井市","city_kana":"フクイシ","town":"南山町","town_kana":"ミナミヤマチョウ","prefecture_code":18},"3381":{"zip_code":"9103381","prefecture":"福井県","prefecture_kana":"フクイケン","city":"福井市","city_kana":"フクイシ","town":"蓑町","town_kana":"ミノチョウ","prefecture_code":18},"3103":{"zip_code":"9103103","prefecture":"福井県","prefecture_kana":"フクイケン","city":"福井市","city_kana":"フクイシ","town":"三宅町","town_kana":"ミヤケチョウ","prefecture_code":18},"3375":{"zip_code":"9103375","prefecture":"福井県","prefecture_kana":"フクイケン","city":"福井市","city_kana":"フクイシ","town":"宮郷町","town_kana":"ミヤゴウチョウ","prefecture_code":18},"2204":{"zip_code":"9102204","prefecture":"福井県","prefecture_kana":"フクイケン","city":"福井市","city_kana":"フクイシ","town":"美山大谷町","town_kana":"ミヤマオオタニチョウ","prefecture_code":18},"2351":{"zip_code":"9102351","prefecture":"福井県","prefecture_kana":"フクイケン","city":"福井市","city_kana":"フクイシ","town":"美山町","town_kana":"ミヤマチョウ","prefecture_code":18},"0854":{"zip_code":"9100854","prefecture":"福井県","prefecture_kana":"フクイケン","city":"福井市","city_kana":"フクイシ","town":"御幸","town_kana":"ミユキ","prefecture_code":18},"0106":{"zip_code":"9100106","prefecture":"福井県","prefecture_kana":"フクイケン","city":"福井市","city_kana":"フクイシ","town":"六日市町","town_kana":"ムイカイチチョウ","prefecture_code":18},"3376":{"zip_code":"9103376","prefecture":"福井県","prefecture_kana":"フクイケン","city":"福井市","city_kana":"フクイシ","town":"和布町","town_kana":"メラチョウ","prefecture_code":18},"3378":{"zip_code":"9103378","prefecture":"福井県","prefecture_kana":"フクイケン","city":"福井市","city_kana":"フクイシ","town":"免鳥町","town_kana":"メンドリチョウ","prefecture_code":18},"3642":{"zip_code":"9103642","prefecture":"福井県","prefecture_kana":"フクイケン","city":"福井市","city_kana":"フクイシ","town":"本折町","town_kana":"モトオリチョウ","prefecture_code":18},"0133":{"zip_code":"9100133","prefecture":"福井県","prefecture_kana":"フクイケン","city":"福井市","city_kana":"フクイシ","town":"森田新保町","town_kana":"モリタシンボチョウ","prefecture_code":18},"0158":{"zip_code":"9100158","prefecture":"福井県","prefecture_kana":"フクイケン","city":"福井市","city_kana":"フクイシ","town":"八重巻中町","town_kana":"ヤエマキナカチョウ","prefecture_code":18},"0157":{"zip_code":"9100157","prefecture":"福井県","prefecture_kana":"フクイケン","city":"福井市","city_kana":"フクイシ","town":"八重巻東町","town_kana":"ヤエマキヒガシチョウ","prefecture_code":18},"0123":{"zip_code":"9100123","prefecture":"福井県","prefecture_kana":"フクイケン","city":"福井市","city_kana":"フクイシ","town":"八重巻町","town_kana":"ヤエマキチョウ","prefecture_code":18},"2337":{"zip_code":"9102337","prefecture":"福井県","prefecture_kana":"フクイケン","city":"福井市","city_kana":"フクイシ","town":"薬師町上薬師","town_kana":"ヤクシチョウカミヤクシ","prefecture_code":18},"2338":{"zip_code":"9102338","prefecture":"福井県","prefecture_kana":"フクイケン","city":"福井市","city_kana":"フクイシ","town":"薬師町下薬師","town_kana":"ヤクシチョウシモヤクシ","prefecture_code":18},"2339":{"zip_code":"9102339","prefecture":"福井県","prefecture_kana":"フクイケン","city":"福井市","city_kana":"フクイシ","town":"薬師町","town_kana":"ヤクシチョウ","prefecture_code":18},"0054":{"zip_code":"9100054","prefecture":"福井県","prefecture_kana":"フクイケン","city":"福井市","city_kana":"フクイシ","town":"安竹町","town_kana":"ヤスタケチョウ","prefecture_code":18},"2167":{"zip_code":"9102167","prefecture":"福井県","prefecture_kana":"フクイケン","city":"福井市","city_kana":"フクイシ","town":"安原町","town_kana":"ヤスハラチョウ","prefecture_code":18},"0066":{"zip_code":"9100066","prefecture":"福井県","prefecture_kana":"フクイケン","city":"福井市","city_kana":"フクイシ","town":"八ツ島","town_kana":"ヤツシマ","prefecture_code":18},"0065":{"zip_code":"9100065","prefecture":"福井県","prefecture_kana":"フクイケン","city":"福井市","city_kana":"フクイシ","town":"八ツ島町","town_kana":"ヤツシマチョウ","prefecture_code":18},"3558":{"zip_code":"9103558","prefecture":"福井県","prefecture_kana":"フクイケン","city":"福井市","city_kana":"フクイシ","town":"八ツ俣町","town_kana":"ヤツマタチョウ","prefecture_code":18},"3636":{"zip_code":"9103636","prefecture":"福井県","prefecture_kana":"フクイケン","city":"福井市","city_kana":"フクイシ","town":"山内町","town_kana":"ヤマウチチョウ","prefecture_code":18},"0108":{"zip_code":"9100108","prefecture":"福井県","prefecture_kana":"フクイケン","city":"福井市","city_kana":"フクイシ","town":"山室町","town_kana":"ヤマムロチョウ","prefecture_code":18},"3254":{"zip_code":"9103254","prefecture":"福井県","prefecture_kana":"フクイケン","city":"福井市","city_kana":"フクイシ","town":"八幡町","town_kana":"ヤワタチョウ","prefecture_code":18},"2473":{"zip_code":"9102473","prefecture":"福井県","prefecture_kana":"フクイケン","city":"福井市","city_kana":"フクイシ","town":"横越町","town_kana":"ヨコゴシチョウ","prefecture_code":18},"2206":{"zip_code":"9102206","prefecture":"福井県","prefecture_kana":"フクイケン","city":"福井市","city_kana":"フクイシ","town":"吉山町上吉山","town_kana":"ヨシヤマチョウカミヨシヤマ","prefecture_code":18},"2207":{"zip_code":"9102207","prefecture":"福井県","prefecture_kana":"フクイケン","city":"福井市","city_kana":"フクイシ","town":"吉山町下吉山","town_kana":"ヨシヤマチョウシモヨシヤマ","prefecture_code":18},"2208":{"zip_code":"9102208","prefecture":"福井県","prefecture_kana":"フクイケン","city":"福井市","city_kana":"フクイシ","town":"吉山町","town_kana":"ヨシヤマチョウ","prefecture_code":18},"0846":{"zip_code":"9100846","prefecture":"福井県","prefecture_kana":"フクイケン","city":"福井市","city_kana":"フクイシ","town":"四ツ井","town_kana":"ヨツイ","prefecture_code":18},"0851":{"zip_code":"9100851","prefecture":"福井県","prefecture_kana":"フクイケン","city":"福井市","city_kana":"フクイシ","town":"米松","town_kana":"ヨネマツ","prefecture_code":18},"3135":{"zip_code":"9103135","prefecture":"福井県","prefecture_kana":"フクイケン","city":"福井市","city_kana":"フクイシ","town":"両橋屋町","town_kana":"リョウハシヤチョウ","prefecture_code":18},"0831":{"zip_code":"9100831","prefecture":"福井県","prefecture_kana":"フクイケン","city":"福井市","city_kana":"フクイシ","town":"若栄町","town_kana":"ワカエチョウ","prefecture_code":18},"2161":{"zip_code":"9102161","prefecture":"福井県","prefecture_kana":"フクイケン","city":"福井市","city_kana":"フクイシ","town":"脇三ケ町","town_kana":"ワキサンガチョウ","prefecture_code":18},"3631":{"zip_code":"9103631","prefecture":"福井県","prefecture_kana":"フクイケン","city":"福井市","city_kana":"フクイシ","town":"和田町","town_kana":"ワダチョウ","prefecture_code":18},"4273":{"zip_code":"9104273","prefecture":"福井県","prefecture_kana":"フクイケン","city":"あわら市","city_kana":"アワラシ","town":"赤尾","town_kana":"アカオ","prefecture_code":18},"4102":{"zip_code":"9104102","prefecture":"福井県","prefecture_kana":"フクイケン","city":"あわら市","city_kana":"アワラシ","town":"芦鶴","town_kana":"アシヅル","prefecture_code":18},"4112":{"zip_code":"9104112","prefecture":"福井県","prefecture_kana":"フクイケン","city":"あわら市","city_kana":"アワラシ","town":"井江葭","town_kana":"イエヨシ","prefecture_code":18},"4111":{"zip_code":"9104111","prefecture":"福井県","prefecture_kana":"フクイケン","city":"あわら市","city_kana":"アワラシ","town":"牛山","town_kana":"ウシヤマ","prefecture_code":18},"4104":{"zip_code":"9104104","prefecture":"福井県","prefecture_kana":"フクイケン","city":"あわら市","city_kana":"アワラシ","town":"温泉","town_kana":"オンセン","prefecture_code":18},"4134":{"zip_code":"9104134","prefecture":"福井県","prefecture_kana":"フクイケン","city":"あわら市","city_kana":"アワラシ","town":"上番","town_kana":"カミバン","prefecture_code":18},"4272":[{"zip_code":"9104272","prefecture":"福井県","prefecture_kana":"フクイケン","city":"あわら市","city_kana":"アワラシ","town":"北潟","town_kana":"キタガタ","prefecture_code":18},{"zip_code":"9104272","prefecture":"福井県","prefecture_kana":"フクイケン","city":"あわら市","city_kana":"アワラシ","town":"富津北潟","town_kana":"トミツキタガタ","prefecture_code":18}],"4146":{"zip_code":"9104146","prefecture":"福井県","prefecture_kana":"フクイケン","city":"あわら市","city_kana":"アワラシ","town":"北本堂","town_kana":"キタホンドウ","prefecture_code":18},"4115":{"zip_code":"9104115","prefecture":"福井県","prefecture_kana":"フクイケン","city":"あわら市","city_kana":"アワラシ","town":"国影","town_kana":"クニカゲ","prefecture_code":18},"4147":[{"zip_code":"9104147","prefecture":"福井県","prefecture_kana":"フクイケン","city":"あわら市","city_kana":"アワラシ","town":"公文","town_kana":"クモン","prefecture_code":18},{"zip_code":"9104147","prefecture":"福井県","prefecture_kana":"フクイケン","city":"あわら市","city_kana":"アワラシ","town":"宮前","town_kana":"ミヤマエ","prefecture_code":18}],"4142":{"zip_code":"9104142","prefecture":"福井県","prefecture_kana":"フクイケン","city":"あわら市","city_kana":"アワラシ","town":"河間","town_kana":"コウマ","prefecture_code":18},"4122":{"zip_code":"9104122","prefecture":"福井県","prefecture_kana":"フクイケン","city":"あわら市","city_kana":"アワラシ","town":"重義","town_kana":"シゲヨシ","prefecture_code":18},"4138":{"zip_code":"9104138","prefecture":"福井県","prefecture_kana":"フクイケン","city":"あわら市","city_kana":"アワラシ","town":"下番","town_kana":"シモバン","prefecture_code":18},"4276":[{"zip_code":"9104276","prefecture":"福井県","prefecture_kana":"フクイケン","city":"あわら市","city_kana":"アワラシ","town":"十三城","town_kana":"ジュウソウジョウ","prefecture_code":18},{"zip_code":"9104276","prefecture":"福井県","prefecture_kana":"フクイケン","city":"あわら市","city_kana":"アワラシ","town":"城","town_kana":"ジョウ","prefecture_code":18}],"4275":{"zip_code":"9104275","prefecture":"福井県","prefecture_kana":"フクイケン","city":"あわら市","city_kana":"アワラシ","town":"城新田","town_kana":"ジョウシンデン","prefecture_code":18},"4145":{"zip_code":"9104145","prefecture":"福井県","prefecture_kana":"フクイケン","city":"あわら市","city_kana":"アワラシ","town":"角屋","town_kana":"スミヤ","prefecture_code":18},"4124":{"zip_code":"9104124","prefecture":"福井県","prefecture_kana":"フクイケン","city":"あわら市","city_kana":"アワラシ","town":"田中々","town_kana":"タナカナカ","prefecture_code":18},"4141":{"zip_code":"9104141","prefecture":"福井県","prefecture_kana":"フクイケン","city":"あわら市","city_kana":"アワラシ","town":"玉木","town_kana":"タマキ","prefecture_code":18},"4132":{"zip_code":"9104132","prefecture":"福井県","prefecture_kana":"フクイケン","city":"あわら市","city_kana":"アワラシ","town":"谷畠","town_kana":"タンバク","prefecture_code":18},"4131":{"zip_code":"9104131","prefecture":"福井県","prefecture_kana":"フクイケン","city":"あわら市","city_kana":"アワラシ","town":"東善寺","town_kana":"トウゼンジ","prefecture_code":18},"4133":{"zip_code":"9104133","prefecture":"福井県","prefecture_kana":"フクイケン","city":"あわら市","city_kana":"アワラシ","town":"轟木","town_kana":"トドロキ","prefecture_code":18},"4144":{"zip_code":"9104144","prefecture":"福井県","prefecture_kana":"フクイケン","city":"あわら市","city_kana":"アワラシ","town":"中浜","town_kana":"ナカノハマ","prefecture_code":18},"4137":{"zip_code":"9104137","prefecture":"福井県","prefecture_kana":"フクイケン","city":"あわら市","city_kana":"アワラシ","town":"中番","town_kana":"ナカバン","prefecture_code":18},"4277":{"zip_code":"9104277","prefecture":"福井県","prefecture_kana":"フクイケン","city":"あわら市","city_kana":"アワラシ","town":"波松","town_kana":"ナミマツ","prefecture_code":18},"4127":{"zip_code":"9104127","prefecture":"福井県","prefecture_kana":"フクイケン","city":"あわら市","city_kana":"アワラシ","town":"西温泉","town_kana":"ニシオンセン","prefecture_code":18},"4126":{"zip_code":"9104126","prefecture":"福井県","prefecture_kana":"フクイケン","city":"あわら市","city_kana":"アワラシ","town":"布目","town_kana":"ヌノメ","prefecture_code":18},"4271":{"zip_code":"9104271","prefecture":"福井県","prefecture_kana":"フクイケン","city":"あわら市","city_kana":"アワラシ","town":"浜坂","town_kana":"ハマサカ","prefecture_code":18},"4123":{"zip_code":"9104123","prefecture":"福井県","prefecture_kana":"フクイケン","city":"あわら市","city_kana":"アワラシ","town":"番田","town_kana":"バンデン","prefecture_code":18},"4274":{"zip_code":"9104274","prefecture":"福井県","prefecture_kana":"フクイケン","city":"あわら市","city_kana":"アワラシ","town":"番堂野","town_kana":"バンドノ","prefecture_code":18},"4121":{"zip_code":"9104121","prefecture":"福井県","prefecture_kana":"フクイケン","city":"あわら市","city_kana":"アワラシ","town":"東温泉","town_kana":"ヒガシオンセン","prefecture_code":18},"4103":{"zip_code":"9104103","prefecture":"福井県","prefecture_kana":"フクイケン","city":"あわら市","city_kana":"アワラシ","town":"二面","town_kana":"フタオモテ","prefecture_code":18},"4105":{"zip_code":"9104105","prefecture":"福井県","prefecture_kana":"フクイケン","city":"あわら市","city_kana":"アワラシ","town":"舟津","town_kana":"フナツ","prefecture_code":18},"4125":{"zip_code":"9104125","prefecture":"福井県","prefecture_kana":"フクイケン","city":"あわら市","city_kana":"アワラシ","town":"堀江十楽","town_kana":"ホリエジュウラク","prefecture_code":18},"4113":{"zip_code":"9104113","prefecture":"福井県","prefecture_kana":"フクイケン","city":"あわら市","city_kana":"アワラシ","town":"横垣","town_kana":"ヨコガキ","prefecture_code":18},"0200":{"zip_code":"9100200","prefecture":"福井県","prefecture_kana":"フクイケン","city":"坂井市","city_kana":"サカイシ","town":"","town_kana":"","prefecture_code":18},"0212":{"zip_code":"9100212","prefecture":"福井県","prefecture_kana":"フクイケン","city":"坂井市","city_kana":"サカイシ","town":"丸岡町赤坂","town_kana":"マルオカチョウアカサカ","prefecture_code":18},"0265":{"zip_code":"9100265","prefecture":"福井県","prefecture_kana":"フクイケン","city":"坂井市","city_kana":"サカイシ","town":"丸岡町朝陽","town_kana":"マルオカチョウアサヒ","prefecture_code":18},"0301":{"zip_code":"9100301","prefecture":"福井県","prefecture_kana":"フクイケン","city":"坂井市","city_kana":"サカイシ","town":"丸岡町愛宕","town_kana":"マルオカチョウアタゴ","prefecture_code":18},"0324":{"zip_code":"9100324","prefecture":"福井県","prefecture_kana":"フクイケン","city":"坂井市","city_kana":"サカイシ","town":"丸岡町油為頭","town_kana":"マルオカチョウアブラタメトウ","prefecture_code":18},"0227":{"zip_code":"9100227","prefecture":"福井県","prefecture_kana":"フクイケン","city":"坂井市","city_kana":"サカイシ","town":"丸岡町荒町","town_kana":"マルオカチョウアラマチ","prefecture_code":18},"0317":{"zip_code":"9100317","prefecture":"福井県","prefecture_kana":"フクイケン","city":"坂井市","city_kana":"サカイシ","town":"丸岡町石上","town_kana":"マルオカチョウイシガミ","prefecture_code":18},"0243":{"zip_code":"9100243","prefecture":"福井県","prefecture_kana":"フクイケン","city":"坂井市","city_kana":"サカイシ","town":"丸岡町石城戸町","town_kana":"マルオカチョウイシキドチョウ","prefecture_code":18},"0346":{"zip_code":"9100346","prefecture":"福井県","prefecture_kana":"フクイケン","city":"坂井市","city_kana":"サカイシ","town":"丸岡町磯部島","town_kana":"マルオカチョウイソベシマ","prefecture_code":18},"0368":{"zip_code":"9100368","prefecture":"福井県","prefecture_kana":"フクイケン","city":"坂井市","city_kana":"サカイシ","town":"丸岡町磯部新保","town_kana":"マルオカチョウイソベシンボ","prefecture_code":18},"0365":{"zip_code":"9100365","prefecture":"福井県","prefecture_kana":"フクイケン","city":"坂井市","city_kana":"サカイシ","town":"丸岡町磯部福庄","town_kana":"マルオカチョウイソベフクショ","prefecture_code":18},"0325":{"zip_code":"9100325","prefecture":"福井県","prefecture_kana":"フクイケン","city":"坂井市","city_kana":"サカイシ","town":"丸岡町板倉","town_kana":"マルオカチョウイタクラ","prefecture_code":18},"0254":{"zip_code":"9100254","prefecture":"福井県","prefecture_kana":"フクイケン","city":"坂井市","city_kana":"サカイシ","town":"丸岡町一本田","town_kana":"マルオカチョウイッポンデン","prefecture_code":18},"0253":{"zip_code":"9100253","prefecture":"福井県","prefecture_kana":"フクイケン","city":"坂井市","city_kana":"サカイシ","town":"丸岡町一本田中","town_kana":"マルオカチョウイッポンデンナカ","prefecture_code":18},"0251":{"zip_code":"9100251","prefecture":"福井県","prefecture_kana":"フクイケン","city":"坂井市","city_kana":"サカイシ","town":"丸岡町一本田福所","town_kana":"マルオカチョウイッポンデンフクショ","prefecture_code":18},"0237":{"zip_code":"9100237","prefecture":"福井県","prefecture_kana":"フクイケン","city":"坂井市","city_kana":"サカイシ","town":"丸岡町乾","town_kana":"マルオカチョウイヌイ","prefecture_code":18},"0264":{"zip_code":"9100264","prefecture":"福井県","prefecture_kana":"フクイケン","city":"坂井市","city_kana":"サカイシ","town":"丸岡町乾下田","town_kana":"マルオカチョウイヌイシモダ","prefecture_code":18},"0303":{"zip_code":"9100303","prefecture":"福井県","prefecture_kana":"フクイケン","city":"坂井市","city_kana":"サカイシ","town":"丸岡町猪爪","town_kana":"マルオカチョウイノツメ","prefecture_code":18},"0234":{"zip_code":"9100234","prefecture":"福井県","prefecture_kana":"フクイケン","city":"坂井市","city_kana":"サカイシ","town":"丸岡町今市","town_kana":"マルオカチョウイマイチ","prefecture_code":18},"0304":{"zip_code":"9100304","prefecture":"福井県","prefecture_kana":"フクイケン","city":"坂井市","city_kana":"サカイシ","town":"丸岡町今福","town_kana":"マルオカチョウイマフク","prefecture_code":18},"0348":{"zip_code":"9100348","prefecture":"福井県","prefecture_kana":"フクイケン","city":"坂井市","city_kana":"サカイシ","town":"丸岡町今町","town_kana":"マルオカチョウイママチ","prefecture_code":18},"0263":{"zip_code":"9100263","prefecture":"福井県","prefecture_kana":"フクイケン","city":"坂井市","city_kana":"サカイシ","town":"丸岡町上田町","town_kana":"マルオカチョウウエダマチ","prefecture_code":18},"0356":{"zip_code":"9100356","prefecture":"福井県","prefecture_kana":"フクイケン","city":"坂井市","city_kana":"サカイシ","town":"丸岡町牛ケ島","town_kana":"マルオカチョウウシガシマ","prefecture_code":18},"0366":{"zip_code":"9100366","prefecture":"福井県","prefecture_kana":"フクイケン","city":"坂井市","city_kana":"サカイシ","town":"丸岡町宇随","town_kana":"マルオカチョウウズイ","prefecture_code":18},"0275":{"zip_code":"9100275","prefecture":"福井県","prefecture_kana":"フクイケン","city":"坂井市","city_kana":"サカイシ","town":"丸岡町宇田","town_kana":"マルオカチョウウダ","prefecture_code":18},"0313":{"zip_code":"9100313","prefecture":"福井県","prefecture_kana":"フクイケン","city":"坂井市","city_kana":"サカイシ","town":"丸岡町内田","town_kana":"マルオカチョウウチダ","prefecture_code":18},"0322":{"zip_code":"9100322","prefecture":"福井県","prefecture_kana":"フクイケン","city":"坂井市","city_kana":"サカイシ","town":"丸岡町大森","town_kana":"マルオカチョウオオモリ","prefecture_code":18},"0315":{"zip_code":"9100315","prefecture":"福井県","prefecture_kana":"フクイケン","city":"坂井市","city_kana":"サカイシ","town":"丸岡町小黒","town_kana":"マルオカチョウオグロ","prefecture_code":18},"0211":{"zip_code":"9100211","prefecture":"福井県","prefecture_kana":"フクイケン","city":"坂井市","city_kana":"サカイシ","town":"丸岡町女形谷","town_kana":"マルオカチョウオナガタニ","prefecture_code":18},"0232":{"zip_code":"9100232","prefecture":"福井県","prefecture_kana":"フクイケン","city":"坂井市","city_kana":"サカイシ","town":"丸岡町霞ケ丘","town_kana":"マルオカチョウカスミガオカ","prefecture_code":18},"0231":{"zip_code":"9100231","prefecture":"福井県","prefecture_kana":"フクイケン","city":"坂井市","city_kana":"サカイシ","town":"丸岡町霞町","town_kana":"マルオカチョウカスミチョウ","prefecture_code":18},"0333":{"zip_code":"9100333","prefecture":"福井県","prefecture_kana":"フクイケン","city":"坂井市","city_kana":"サカイシ","town":"丸岡町金元","town_kana":"マルオカチョウカネモト","prefecture_code":18},"0335":{"zip_code":"9100335","prefecture":"福井県","prefecture_kana":"フクイケン","city":"坂井市","city_kana":"サカイシ","town":"丸岡町上金屋","town_kana":"マルオカチョウカミカナヤ","prefecture_code":18},"0331":{"zip_code":"9100331","prefecture":"福井県","prefecture_kana":"フクイケン","city":"坂井市","city_kana":"サカイシ","town":"丸岡町上久米田","town_kana":"マルオカチョウカミクメダ","prefecture_code":18},"0202":{"zip_code":"9100202","prefecture":"福井県","prefecture_kana":"フクイケン","city":"坂井市","city_kana":"サカイシ","town":"丸岡町上竹田岡","town_kana":"マルオカチョウカミタケダオカ","prefecture_code":18},"0201":{"zip_code":"9100201","prefecture":"福井県","prefecture_kana":"フクイケン","city":"坂井市","city_kana":"サカイシ","town":"丸岡町上竹田曽谷","town_kana":"マルオカチョウカミタケダソタニ","prefecture_code":18},"0205":{"zip_code":"9100205","prefecture":"福井県","prefecture_kana":"フクイケン","city":"坂井市","city_kana":"サカイシ","town":"丸岡町上竹田","town_kana":"マルオカチョウカミタケダ","prefecture_code":18},"0362":{"zip_code":"9100362","prefecture":"福井県","prefecture_kana":"フクイケン","city":"坂井市","city_kana":"サカイシ","town":"丸岡町上安田","town_kana":"マルオカチョウカミヤスタ","prefecture_code":18},"0206":{"zip_code":"9100206","prefecture":"福井県","prefecture_kana":"フクイケン","city":"坂井市","city_kana":"サカイシ","town":"丸岡町川上","town_kana":"マルオカチョウカワカミ","prefecture_code":18},"0374":{"zip_code":"9100374","prefecture":"福井県","prefecture_kana":"フクイケン","city":"坂井市","city_kana":"サカイシ","town":"丸岡町北横地","town_kana":"マルオカチョウキタヨコジ","prefecture_code":18},"0357":{"zip_code":"9100357","prefecture":"福井県","prefecture_kana":"フクイケン","city":"坂井市","city_kana":"サカイシ","town":"丸岡町儀間","town_kana":"マルオカチョウギマ","prefecture_code":18},"0347":{"zip_code":"9100347","prefecture":"福井県","prefecture_kana":"フクイケン","city":"坂井市","city_kana":"サカイシ","town":"丸岡町熊堂","town_kana":"マルオカチョウクマンドウ","prefecture_code":18},"0276":{"zip_code":"9100276","prefecture":"福井県","prefecture_kana":"フクイケン","city":"坂井市","city_kana":"サカイシ","town":"丸岡町玄女","town_kana":"マルオカチョウゲンニョ","prefecture_code":18},"0262":{"zip_code":"9100262","prefecture":"福井県","prefecture_kana":"フクイケン","city":"坂井市","city_kana":"サカイシ","town":"丸岡町栄","town_kana":"マルオカチョウサカエ","prefecture_code":18},"0382":{"zip_code":"9100382","prefecture":"福井県","prefecture_kana":"フクイケン","city":"坂井市","city_kana":"サカイシ","town":"丸岡町笹和田","town_kana":"マルオカチョウササワダ","prefecture_code":18},"0277":{"zip_code":"9100277","prefecture":"福井県","prefecture_kana":"フクイケン","city":"坂井市","city_kana":"サカイシ","town":"丸岡町里竹田","town_kana":"マルオカチョウサトタケダ","prefecture_code":18},"0302":{"zip_code":"9100302","prefecture":"福井県","prefecture_kana":"フクイケン","city":"坂井市","city_kana":"サカイシ","town":"丸岡町里丸岡","town_kana":"マルオカチョウサトマルオカ","prefecture_code":18},"0223":{"zip_code":"9100223","prefecture":"福井県","prefecture_kana":"フクイケン","city":"坂井市","city_kana":"サカイシ","town":"丸岡町三本木","town_kana":"マルオカチョウサンボンギ","prefecture_code":18},"0316":{"zip_code":"9100316","prefecture":"福井県","prefecture_kana":"フクイケン","city":"坂井市","city_kana":"サカイシ","town":"丸岡町篠岡","town_kana":"マルオカチョウシノオカ","prefecture_code":18},"0332":{"zip_code":"9100332","prefecture":"福井県","prefecture_kana":"フクイケン","city":"坂井市","city_kana":"サカイシ","town":"丸岡町下久米田","town_kana":"マルオカチョウシモクメダ","prefecture_code":18},"0363":{"zip_code":"9100363","prefecture":"福井県","prefecture_kana":"フクイケン","city":"坂井市","city_kana":"サカイシ","town":"丸岡町下安田","town_kana":"マルオカチョウシモヤスタ","prefecture_code":18},"0221":{"zip_code":"9100221","prefecture":"福井県","prefecture_kana":"フクイケン","city":"坂井市","city_kana":"サカイシ","town":"丸岡町城北","town_kana":"マルオカチョウジョウホク","prefecture_code":18},"0345":{"zip_code":"9100345","prefecture":"福井県","prefecture_kana":"フクイケン","city":"坂井市","city_kana":"サカイシ","town":"丸岡町四郎丸","town_kana":"マルオカチョウシロウマル","prefecture_code":18},"0369":{"zip_code":"9100369","prefecture":"福井県","prefecture_kana":"フクイケン","city":"坂井市","city_kana":"サカイシ","town":"丸岡町新九頭竜","town_kana":"マルオカチョウシンクズリュウ","prefecture_code":18},"0337":{"zip_code":"9100337","prefecture":"福井県","prefecture_kana":"フクイケン","city":"坂井市","city_kana":"サカイシ","town":"丸岡町新鳴鹿","town_kana":"マルオカチョウシンナルカ","prefecture_code":18},"0352":{"zip_code":"9100352","prefecture":"福井県","prefecture_kana":"フクイケン","city":"坂井市","city_kana":"サカイシ","town":"丸岡町新間","town_kana":"マルオカチョウシンマ","prefecture_code":18},"0326":{"zip_code":"9100326","prefecture":"福井県","prefecture_kana":"フクイケン","city":"坂井市","city_kana":"サカイシ","town":"丸岡町末政","town_kana":"マルオカチョウスエマサ","prefecture_code":18},"0274":{"zip_code":"9100274","prefecture":"福井県","prefecture_kana":"フクイケン","city":"坂井市","city_kana":"サカイシ","town":"丸岡町千田","town_kana":"マルオカチョウセンダ","prefecture_code":18},"0312":{"zip_code":"9100312","prefecture":"福井県","prefecture_kana":"フクイケン","city":"坂井市","city_kana":"サカイシ","town":"丸岡町曽々木","town_kana":"マルオカチョウソソキ","prefecture_code":18},"0355":{"zip_code":"9100355","prefecture":"福井県","prefecture_kana":"フクイケン","city":"坂井市","city_kana":"サカイシ","town":"丸岡町高瀬","town_kana":"マルオカチョウタカセ","prefecture_code":18},"0342":{"zip_code":"9100342","prefecture":"福井県","prefecture_kana":"フクイケン","city":"坂井市","city_kana":"サカイシ","town":"丸岡町高田","town_kana":"マルオカチョウタカダ","prefecture_code":18},"0373":{"zip_code":"9100373","prefecture":"福井県","prefecture_kana":"フクイケン","city":"坂井市","city_kana":"サカイシ","town":"丸岡町高柳","town_kana":"マルオカチョウタカヤナギ","prefecture_code":18},"0235":{"zip_code":"9100235","prefecture":"福井県","prefecture_kana":"フクイケン","city":"坂井市","city_kana":"サカイシ","town":"丸岡町巽町","town_kana":"マルオカチョウタツミチョウ","prefecture_code":18},"0245":{"zip_code":"9100245","prefecture":"福井県","prefecture_kana":"フクイケン","city":"坂井市","city_kana":"サカイシ","town":"丸岡町谷町","town_kana":"マルオカチョウタニマチ","prefecture_code":18},"0338":{"zip_code":"9100338","prefecture":"福井県","prefecture_kana":"フクイケン","city":"坂井市","city_kana":"サカイシ","town":"丸岡町為安","town_kana":"マルオカチョウタメヤス","prefecture_code":18},"0213":{"zip_code":"9100213","prefecture":"福井県","prefecture_kana":"フクイケン","city":"坂井市","city_kana":"サカイシ","town":"丸岡町田屋","town_kana":"マルオカチョウタヤ","prefecture_code":18},"0349":{"zip_code":"9100349","prefecture":"福井県","prefecture_kana":"フクイケン","city":"坂井市","city_kana":"サカイシ","town":"丸岡町反保","town_kana":"マルオカチョウタンボ","prefecture_code":18},"0353":{"zip_code":"9100353","prefecture":"福井県","prefecture_kana":"フクイケン","city":"坂井市","city_kana":"サカイシ","town":"丸岡町筑後清水","town_kana":"マルオカチョウチクゴショウズ","prefecture_code":18},"0208":{"zip_code":"9100208","prefecture":"福井県","prefecture_kana":"フクイケン","city":"坂井市","city_kana":"サカイシ","town":"丸岡町坪江","town_kana":"マルオカチョウツボエ","prefecture_code":18},"0343":{"zip_code":"9100343","prefecture":"福井県","prefecture_kana":"フクイケン","city":"坂井市","city_kana":"サカイシ","town":"丸岡町坪ノ内","town_kana":"マルオカチョウツボノウチ","prefecture_code":18},"0233":{"zip_code":"9100233","prefecture":"福井県","prefecture_kana":"フクイケン","city":"坂井市","city_kana":"サカイシ","town":"丸岡町東陽","town_kana":"マルオカチョウトウヨウ","prefecture_code":18},"0244":{"zip_code":"9100244","prefecture":"福井県","prefecture_kana":"フクイケン","city":"坂井市","city_kana":"サカイシ","town":"丸岡町富田町","town_kana":"マルオカチョウトミタマチ","prefecture_code":18},"0344":{"zip_code":"9100344","prefecture":"福井県","prefecture_kana":"フクイケン","city":"坂井市","city_kana":"サカイシ","town":"丸岡町友末","town_kana":"マルオカチョウトモスエ","prefecture_code":18},"0311":{"zip_code":"9100311","prefecture":"福井県","prefecture_kana":"フクイケン","city":"坂井市","city_kana":"サカイシ","town":"丸岡町豊原","town_kana":"マルオカチョウトヨハラ","prefecture_code":18},"0354":{"zip_code":"9100354","prefecture":"福井県","prefecture_kana":"フクイケン","city":"坂井市","city_kana":"サカイシ","town":"丸岡町豊原高瀬","town_kana":"マルオカチョウトヨハラタカセ","prefecture_code":18},"0351":{"zip_code":"9100351","prefecture":"福井県","prefecture_kana":"フクイケン","city":"坂井市","city_kana":"サカイシ","town":"丸岡町寅国","town_kana":"マルオカチョウトラクニ","prefecture_code":18},"0383":{"zip_code":"9100383","prefecture":"福井県","prefecture_kana":"フクイケン","city":"坂井市","city_kana":"サカイシ","town":"丸岡町長崎","town_kana":"マルオカチョウナガサキ","prefecture_code":18},"0246":{"zip_code":"9100246","prefecture":"福井県","prefecture_kana":"フクイケン","city":"坂井市","city_kana":"サカイシ","town":"丸岡町西瓜屋","town_kana":"マルオカチョウニシウリヤ","prefecture_code":18},"0242":{"zip_code":"9100242","prefecture":"福井県","prefecture_kana":"フクイケン","city":"坂井市","city_kana":"サカイシ","town":"丸岡町西里丸岡","town_kana":"マルオカチョウニシサトマルオカ","prefecture_code":18},"0273":{"zip_code":"9100273","prefecture":"福井県","prefecture_kana":"フクイケン","city":"坂井市","city_kana":"サカイシ","town":"丸岡町長畝","town_kana":"マルオカチョウノウネ","prefecture_code":18},"0323":{"zip_code":"9100323","prefecture":"福井県","prefecture_kana":"フクイケン","city":"坂井市","city_kana":"サカイシ","town":"丸岡町野中山王","town_kana":"マルオカチョウノナカサンノウ","prefecture_code":18},"0272":{"zip_code":"9100272","prefecture":"福井県","prefecture_kana":"フクイケン","city":"坂井市","city_kana":"サカイシ","town":"丸岡町乗兼","town_kana":"マルオカチョウノリカネ","prefecture_code":18},"0367":{"zip_code":"9100367","prefecture":"福井県","prefecture_kana":"フクイケン","city":"坂井市","city_kana":"サカイシ","town":"丸岡町羽崎","town_kana":"マルオカチョウハサキ","prefecture_code":18},"0214":{"zip_code":"9100214","prefecture":"福井県","prefecture_kana":"フクイケン","city":"坂井市","city_kana":"サカイシ","town":"丸岡町畑中","town_kana":"マルオカチョウハタケナカ","prefecture_code":18},"0305":{"zip_code":"9100305","prefecture":"福井県","prefecture_kana":"フクイケン","city":"坂井市","city_kana":"サカイシ","town":"丸岡町八幡町","town_kana":"マルオカチョウハチマンチョウ","prefecture_code":18},"0224":{"zip_code":"9100224","prefecture":"福井県","prefecture_kana":"フクイケン","city":"坂井市","city_kana":"サカイシ","town":"丸岡町八ケ郷","town_kana":"マルオカチョウハッカゴウ","prefecture_code":18},"0364":{"zip_code":"9100364","prefecture":"福井県","prefecture_kana":"フクイケン","city":"坂井市","city_kana":"サカイシ","town":"丸岡町八丁","town_kana":"マルオカチョウハッチョウ","prefecture_code":18},"0261":{"zip_code":"9100261","prefecture":"福井県","prefecture_kana":"フクイケン","city":"坂井市","city_kana":"サカイシ","town":"丸岡町針ノ木","town_kana":"マルオカチョウハリノキ","prefecture_code":18},"0334":{"zip_code":"9100334","prefecture":"福井県","prefecture_kana":"フクイケン","city":"坂井市","city_kana":"サカイシ","town":"丸岡町東二ツ屋","town_kana":"マルオカチョウヒガシフタツヤ","prefecture_code":18},"0222":{"zip_code":"9100222","prefecture":"福井県","prefecture_kana":"フクイケン","city":"坂井市","city_kana":"サカイシ","town":"丸岡町伏屋","town_kana":"マルオカチョウフセヤ","prefecture_code":18},"0381":{"zip_code":"9100381","prefecture":"福井県","prefecture_kana":"フクイケン","city":"坂井市","city_kana":"サカイシ","town":"丸岡町舟寄","town_kana":"マルオカチョウフナヨセ","prefecture_code":18},"0271":{"zip_code":"9100271","prefecture":"福井県","prefecture_kana":"フクイケン","city":"坂井市","city_kana":"サカイシ","town":"丸岡町堀水","town_kana":"マルオカチョウホリミズ","prefecture_code":18},"0236":{"zip_code":"9100236","prefecture":"福井県","prefecture_kana":"フクイケン","city":"坂井市","city_kana":"サカイシ","town":"丸岡町本町","town_kana":"マルオカチョウホンマチ","prefecture_code":18},"0314":{"zip_code":"9100314","prefecture":"福井県","prefecture_kana":"フクイケン","city":"坂井市","city_kana":"サカイシ","town":"丸岡町舛田","town_kana":"マルオカチョウマスタ","prefecture_code":18},"0225":{"zip_code":"9100225","prefecture":"福井県","prefecture_kana":"フクイケン","city":"坂井市","city_kana":"サカイシ","town":"丸岡町松川","town_kana":"マルオカチョウマツカワ","prefecture_code":18},"0226":{"zip_code":"9100226","prefecture":"福井県","prefecture_kana":"フクイケン","city":"坂井市","city_kana":"サカイシ","town":"丸岡町松川町","town_kana":"マルオカチョウマツカワチョウ","prefecture_code":18},"0350":{"zip_code":"9100350","prefecture":"福井県","prefecture_kana":"フクイケン","city":"坂井市","city_kana":"サカイシ","town":"丸岡町南今市","town_kana":"マルオカチョウミナミイマイチ","prefecture_code":18},"0375":{"zip_code":"9100375","prefecture":"福井県","prefecture_kana":"フクイケン","city":"坂井市","city_kana":"サカイシ","town":"丸岡町南横地","town_kana":"マルオカチョウミナミヨコジ","prefecture_code":18},"0252":{"zip_code":"9100252","prefecture":"福井県","prefecture_kana":"フクイケン","city":"坂井市","city_kana":"サカイシ","town":"丸岡町御幸","town_kana":"マルオカチョウミユキ","prefecture_code":18},"0361":{"zip_code":"9100361","prefecture":"福井県","prefecture_kana":"フクイケン","city":"坂井市","city_kana":"サカイシ","town":"丸岡町安田新","town_kana":"マルオカチョウヤスタシン","prefecture_code":18},"0371":{"zip_code":"9100371","prefecture":"福井県","prefecture_kana":"フクイケン","city":"坂井市","city_kana":"サカイシ","town":"丸岡町八ツ口","town_kana":"マルオカチョウヤツクチ","prefecture_code":18},"0241":{"zip_code":"9100241","prefecture":"福井県","prefecture_kana":"フクイケン","city":"坂井市","city_kana":"サカイシ","town":"丸岡町柳町","town_kana":"マルオカチョウヤナギマチ","prefecture_code":18},"0203":{"zip_code":"9100203","prefecture":"福井県","prefecture_kana":"フクイケン","city":"坂井市","city_kana":"サカイシ","town":"丸岡町山口","town_kana":"マルオカチョウヤマグチ","prefecture_code":18},"0207":{"zip_code":"9100207","prefecture":"福井県","prefecture_kana":"フクイケン","city":"坂井市","city_kana":"サカイシ","town":"丸岡町山久保","town_kana":"マルオカチョウヤマクボ","prefecture_code":18},"0321":{"zip_code":"9100321","prefecture":"福井県","prefecture_kana":"フクイケン","city":"坂井市","city_kana":"サカイシ","town":"丸岡町山崎三ケ","town_kana":"マルオカチョウヤマサキサンガ","prefecture_code":18},"0204":{"zip_code":"9100204","prefecture":"福井県","prefecture_kana":"フクイケン","city":"坂井市","city_kana":"サカイシ","town":"丸岡町山竹田","town_kana":"マルオカチョウヤマタケダ","prefecture_code":18},"0215":{"zip_code":"9100215","prefecture":"福井県","prefecture_kana":"フクイケン","city":"坂井市","city_kana":"サカイシ","town":"丸岡町与河","town_kana":"マルオカチョウヨカワ","prefecture_code":18},"0372":{"zip_code":"9100372","prefecture":"福井県","prefecture_kana":"フクイケン","city":"坂井市","city_kana":"サカイシ","town":"丸岡町吉政","town_kana":"マルオカチョウヨシマサ","prefecture_code":18},"0384":{"zip_code":"9100384","prefecture":"福井県","prefecture_kana":"フクイケン","city":"坂井市","city_kana":"サカイシ","town":"丸岡町四ツ屋","town_kana":"マルオカチョウヨツヤ","prefecture_code":18},"0341":{"zip_code":"9100341","prefecture":"福井県","prefecture_kana":"フクイケン","city":"坂井市","city_kana":"サカイシ","town":"丸岡町四ツ柳","town_kana":"マルオカチョウヨツヤナギ","prefecture_code":18},"0339":{"zip_code":"9100339","prefecture":"福井県","prefecture_kana":"フクイケン","city":"坂井市","city_kana":"サカイシ","town":"丸岡町寄永","town_kana":"マルオカチョウヨリナガ","prefecture_code":18},"0336":{"zip_code":"9100336","prefecture":"福井県","prefecture_kana":"フクイケン","city":"坂井市","city_kana":"サカイシ","town":"丸岡町楽間","town_kana":"マルオカチョウラクマ","prefecture_code":18},"1100":{"zip_code":"9101100","prefecture":"福井県","prefecture_kana":"フクイケン","city":"吉田郡永平寺町","city_kana":"ヨシダグンエイヘイジチョウ","town":"","town_kana":"","prefecture_code":18},"1323":{"zip_code":"9101323","prefecture":"福井県","prefecture_kana":"フクイケン","city":"吉田郡永平寺町","city_kana":"ヨシダグンエイヘイジチョウ","town":"浅見","town_kana":"アザミ","prefecture_code":18},"1227":{"zip_code":"9101227","prefecture":"福井県","prefecture_kana":"フクイケン","city":"吉田郡永平寺町","city_kana":"ヨシダグンエイヘイジチョウ","town":"荒谷","town_kana":"アラタニ","prefecture_code":18},"1217":{"zip_code":"9101217","prefecture":"福井県","prefecture_kana":"フクイケン","city":"吉田郡永平寺町","city_kana":"ヨシダグンエイヘイジチョウ","town":"飯島","town_kana":"イイジマ","prefecture_code":18},"1313":{"zip_code":"9101313","prefecture":"福井県","prefecture_kana":"フクイケン","city":"吉田郡永平寺町","city_kana":"ヨシダグンエイヘイジチョウ","town":"石上","town_kana":"イシガミ","prefecture_code":18},"1302":{"zip_code":"9101302","prefecture":"福井県","prefecture_kana":"フクイケン","city":"吉田郡永平寺町","city_kana":"ヨシダグンエイヘイジチョウ","town":"市荒川","town_kana":"イチアラカワ","prefecture_code":18},"1316":{"zip_code":"9101316","prefecture":"福井県","prefecture_kana":"フクイケン","city":"吉田郡永平寺町","city_kana":"ヨシダグンエイヘイジチョウ","town":"市右エ門島","town_kana":"イチウエモンジマ","prefecture_code":18},"1226":{"zip_code":"9101226","prefecture":"福井県","prefecture_kana":"フクイケン","city":"吉田郡永平寺町","city_kana":"ヨシダグンエイヘイジチョウ","town":"市野々","town_kana":"イチノノ","prefecture_code":18},"1204":{"zip_code":"9101204","prefecture":"福井県","prefecture_kana":"フクイケン","city":"吉田郡永平寺町","city_kana":"ヨシダグンエイヘイジチョウ","town":"岩野","town_kana":"イワノ","prefecture_code":18},"1322":{"zip_code":"9101322","prefecture":"福井県","prefecture_kana":"フクイケン","city":"吉田郡永平寺町","city_kana":"ヨシダグンエイヘイジチョウ","town":"大月","town_kana":"オオツキ","prefecture_code":18},"1311":{"zip_code":"9101311","prefecture":"福井県","prefecture_kana":"フクイケン","city":"吉田郡永平寺町","city_kana":"ヨシダグンエイヘイジチョウ","town":"大野島","town_kana":"オオノジマ","prefecture_code":18},"1203":{"zip_code":"9101203","prefecture":"福井県","prefecture_kana":"フクイケン","city":"吉田郡永平寺町","city_kana":"ヨシダグンエイヘイジチョウ","town":"上浄法寺","town_kana":"カミジョホウジ","prefecture_code":18},"1325":{"zip_code":"9101325","prefecture":"福井県","prefecture_kana":"フクイケン","city":"吉田郡永平寺町","city_kana":"ヨシダグンエイヘイジチョウ","town":"北島","town_kana":"キタジマ","prefecture_code":18},"1225":{"zip_code":"9101225","prefecture":"福井県","prefecture_kana":"フクイケン","city":"吉田郡永平寺町","city_kana":"ヨシダグンエイヘイジチョウ","town":"京善","town_kana":"キョウゼン","prefecture_code":18},"1314":{"zip_code":"9101314","prefecture":"福井県","prefecture_kana":"フクイケン","city":"吉田郡永平寺町","city_kana":"ヨシダグンエイヘイジチョウ","town":"栗住波","town_kana":"クリスナミ","prefecture_code":18},"1223":{"zip_code":"9101223","prefecture":"福井県","prefecture_kana":"フクイケン","city":"吉田郡永平寺町","city_kana":"ヨシダグンエイヘイジチョウ","town":"けやき台","town_kana":"ケヤキダイ","prefecture_code":18},"1216":{"zip_code":"9101216","prefecture":"福井県","prefecture_kana":"フクイケン","city":"吉田郡永平寺町","city_kana":"ヨシダグンエイヘイジチョウ","town":"光明寺","town_kana":"コウミョウジ","prefecture_code":18},"1321":{"zip_code":"9101321","prefecture":"福井県","prefecture_kana":"フクイケン","city":"吉田郡永平寺町","city_kana":"ヨシダグンエイヘイジチョウ","town":"山王","town_kana":"サンノウ","prefecture_code":18},"1228":{"zip_code":"9101228","prefecture":"福井県","prefecture_kana":"フクイケン","city":"吉田郡永平寺町","city_kana":"ヨシダグンエイヘイジチョウ","town":"志比","town_kana":"シヒ","prefecture_code":18},"1312":{"zip_code":"9101312","prefecture":"福井県","prefecture_kana":"フクイケン","city":"吉田郡永平寺町","city_kana":"ヨシダグンエイヘイジチョウ","town":"清水","town_kana":"シミズ","prefecture_code":18},"1202":{"zip_code":"9101202","prefecture":"福井県","prefecture_kana":"フクイケン","city":"吉田郡永平寺町","city_kana":"ヨシダグンエイヘイジチョウ","town":"下浄法寺","town_kana":"シモジョホウジ","prefecture_code":18},"1222":{"zip_code":"9101222","prefecture":"福井県","prefecture_kana":"フクイケン","city":"吉田郡永平寺町","city_kana":"ヨシダグンエイヘイジチョウ","town":"諏訪間","town_kana":"スワマ","prefecture_code":18},"1315":{"zip_code":"9101315","prefecture":"福井県","prefecture_kana":"フクイケン","city":"吉田郡永平寺町","city_kana":"ヨシダグンエイヘイジチョウ","town":"せせらぎ","town_kana":"セセラギ","prefecture_code":18},"1213":{"zip_code":"9101213","prefecture":"福井県","prefecture_kana":"フクイケン","city":"吉田郡永平寺町","city_kana":"ヨシダグンエイヘイジチョウ","town":"高橋","town_kana":"タカハシ","prefecture_code":18},"1305":{"zip_code":"9101305","prefecture":"福井県","prefecture_kana":"フクイケン","city":"吉田郡永平寺町","city_kana":"ヨシダグンエイヘイジチョウ","town":"竹原","town_kana":"タケハラ","prefecture_code":18},"1214":{"zip_code":"9101214","prefecture":"福井県","prefecture_kana":"フクイケン","city":"吉田郡永平寺町","city_kana":"ヨシダグンエイヘイジチョウ","town":"谷口","town_kana":"タニグチ","prefecture_code":18},"1224":{"zip_code":"9101224","prefecture":"福井県","prefecture_kana":"フクイケン","city":"吉田郡永平寺町","city_kana":"ヨシダグンエイヘイジチョウ","town":"寺本","town_kana":"テラモト","prefecture_code":18},"1206":{"zip_code":"9101206","prefecture":"福井県","prefecture_kana":"フクイケン","city":"吉田郡永平寺町","city_kana":"ヨシダグンエイヘイジチョウ","town":"栃原","town_kana":"トチハラ","prefecture_code":18},"1218":{"zip_code":"9101218","prefecture":"福井県","prefecture_kana":"フクイケン","city":"吉田郡永平寺町","city_kana":"ヨシダグンエイヘイジチョウ","town":"轟","town_kana":"ドメキ","prefecture_code":18},"1301":{"zip_code":"9101301","prefecture":"福井県","prefecture_kana":"フクイケン","city":"吉田郡永平寺町","city_kana":"ヨシダグンエイヘイジチョウ","town":"中島","town_kana":"ナカジマ","prefecture_code":18},"1201":{"zip_code":"9101201","prefecture":"福井県","prefecture_kana":"フクイケン","city":"吉田郡永平寺町","city_kana":"ヨシダグンエイヘイジチョウ","town":"鳴鹿山鹿","town_kana":"ナルカサンガ","prefecture_code":18},"1324":{"zip_code":"9101324","prefecture":"福井県","prefecture_kana":"フクイケン","city":"吉田郡永平寺町","city_kana":"ヨシダグンエイヘイジチョウ","town":"野中","town_kana":"ノナカ","prefecture_code":18},"1215":{"zip_code":"9101215","prefecture":"福井県","prefecture_kana":"フクイケン","city":"吉田郡永平寺町","city_kana":"ヨシダグンエイヘイジチョウ","town":"花谷","town_kana":"ハナダニ","prefecture_code":18},"1212":{"zip_code":"9101212","prefecture":"福井県","prefecture_kana":"フクイケン","city":"吉田郡永平寺町","city_kana":"ヨシダグンエイヘイジチョウ","town":"東古市","town_kana":"ヒガシフルイチ","prefecture_code":18},"1303":{"zip_code":"9101303","prefecture":"福井県","prefecture_kana":"フクイケン","city":"吉田郡永平寺町","city_kana":"ヨシダグンエイヘイジチョウ","town":"藤巻","town_kana":"フジマキ","prefecture_code":18},"1211":{"zip_code":"9101211","prefecture":"福井県","prefecture_kana":"フクイケン","city":"吉田郡永平寺町","city_kana":"ヨシダグンエイヘイジチョウ","town":"法寺岡","town_kana":"ホウジオカ","prefecture_code":18},"1326":{"zip_code":"9101326","prefecture":"福井県","prefecture_kana":"フクイケン","city":"吉田郡永平寺町","city_kana":"ヨシダグンエイヘイジチョウ","town":"牧福島","town_kana":"マキフクシマ","prefecture_code":18},"1132":{"zip_code":"9101132","prefecture":"福井県","prefecture_kana":"フクイケン","city":"吉田郡永平寺町","city_kana":"ヨシダグンエイヘイジチョウ","town":"松岡葵","town_kana":"マツオカアオイ","prefecture_code":18},"1115":{"zip_code":"9101115","prefecture":"福井県","prefecture_kana":"フクイケン","city":"吉田郡永平寺町","city_kana":"ヨシダグンエイヘイジチョウ","town":"松岡石舟","town_kana":"マツオカイシフネ","prefecture_code":18},"1126":{"zip_code":"9101126","prefecture":"福井県","prefecture_kana":"フクイケン","city":"吉田郡永平寺町","city_kana":"ヨシダグンエイヘイジチョウ","town":"松岡小畑","town_kana":"マツオカオバタ","prefecture_code":18},"1102":{"zip_code":"9101102","prefecture":"福井県","prefecture_kana":"フクイケン","city":"吉田郡永平寺町","city_kana":"ヨシダグンエイヘイジチョウ","town":"松岡学園","town_kana":"マツオカガクエン","prefecture_code":18},"1133":{"zip_code":"9101133","prefecture":"福井県","prefecture_kana":"フクイケン","city":"吉田郡永平寺町","city_kana":"ヨシダグンエイヘイジチョウ","town":"松岡春日","town_kana":"マツオカカスガ","prefecture_code":18},"1103":{"zip_code":"9101103","prefecture":"福井県","prefecture_kana":"フクイケン","city":"吉田郡永平寺町","city_kana":"ヨシダグンエイヘイジチョウ","town":"松岡上合月","town_kana":"マツオカカミアイヅキ","prefecture_code":18},"1124":{"zip_code":"9101124","prefecture":"福井県","prefecture_kana":"フクイケン","city":"吉田郡永平寺町","city_kana":"ヨシダグンエイヘイジチョウ","town":"松岡上吉野","town_kana":"マツオカカミヨシノ","prefecture_code":18},"1137":{"zip_code":"9101137","prefecture":"福井県","prefecture_kana":"フクイケン","city":"吉田郡永平寺町","city_kana":"ヨシダグンエイヘイジチョウ","town":"松岡観音","town_kana":"マツオカカンノン","prefecture_code":18},"1131":{"zip_code":"9101131","prefecture":"福井県","prefecture_kana":"フクイケン","city":"吉田郡永平寺町","city_kana":"ヨシダグンエイヘイジチョウ","town":"松岡椚","town_kana":"マツオカクヌギ","prefecture_code":18},"1136":{"zip_code":"9101136","prefecture":"福井県","prefecture_kana":"フクイケン","city":"吉田郡永平寺町","city_kana":"ヨシダグンエイヘイジチョウ","town":"松岡窪","town_kana":"マツオカクボ","prefecture_code":18},"1142":{"zip_code":"9101142","prefecture":"福井県","prefecture_kana":"フクイケン","city":"吉田郡永平寺町","city_kana":"ヨシダグンエイヘイジチョウ","town":"松岡兼定島","town_kana":"マツオカケンジョウジマ","prefecture_code":18},"1112":{"zip_code":"9101112","prefecture":"福井県","prefecture_kana":"フクイケン","city":"吉田郡永平寺町","city_kana":"ヨシダグンエイヘイジチョウ","town":"松岡越坂","town_kana":"マツオカコイサカ","prefecture_code":18},"1106":{"zip_code":"9101106","prefecture":"福井県","prefecture_kana":"フクイケン","city":"吉田郡永平寺町","city_kana":"ヨシダグンエイヘイジチョウ","town":"松岡御公領","town_kana":"マツオカゴクリョウ","prefecture_code":18},"1139":{"zip_code":"9101139","prefecture":"福井県","prefecture_kana":"フクイケン","city":"吉田郡永平寺町","city_kana":"ヨシダグンエイヘイジチョウ","town":"松岡木ノ下","town_kana":"マツオカコノシタ","prefecture_code":18},"1134":{"zip_code":"9101134","prefecture":"福井県","prefecture_kana":"フクイケン","city":"吉田郡永平寺町","city_kana":"ヨシダグンエイヘイジチョウ","town":"松岡芝原","town_kana":"マツオカシバハラ","prefecture_code":18},"1111":{"zip_code":"9101111","prefecture":"福井県","prefecture_kana":"フクイケン","city":"吉田郡永平寺町","city_kana":"ヨシダグンエイヘイジチョウ","town":"松岡志比堺","town_kana":"マツオカシヒザカイ","prefecture_code":18},"1116":{"zip_code":"9101116","prefecture":"福井県","prefecture_kana":"フクイケン","city":"吉田郡永平寺町","city_kana":"ヨシダグンエイヘイジチョウ","town":"松岡清水","town_kana":"マツオカシミズ","prefecture_code":18},"1104":{"zip_code":"9101104","prefecture":"福井県","prefecture_kana":"フクイケン","city":"吉田郡永平寺町","city_kana":"ヨシダグンエイヘイジチョウ","town":"松岡下合月","town_kana":"マツオカシモアイヅキ","prefecture_code":18},"1114":{"zip_code":"9101114","prefecture":"福井県","prefecture_kana":"フクイケン","city":"吉田郡永平寺町","city_kana":"ヨシダグンエイヘイジチョウ","town":"松岡城東","town_kana":"マツオカジョウトウ","prefecture_code":18},"1117":{"zip_code":"9101117","prefecture":"福井県","prefecture_kana":"フクイケン","city":"吉田郡永平寺町","city_kana":"ヨシダグンエイヘイジチョウ","town":"松岡神明","town_kana":"マツオカシンメイ","prefecture_code":18},"1105":{"zip_code":"9101105","prefecture":"福井県","prefecture_kana":"フクイケン","city":"吉田郡永平寺町","city_kana":"ヨシダグンエイヘイジチョウ","town":"松岡末政","town_kana":"マツオカスエマサ","prefecture_code":18},"1125":{"zip_code":"9101125","prefecture":"福井県","prefecture_kana":"フクイケン","city":"吉田郡永平寺町","city_kana":"ヨシダグンエイヘイジチョウ","town":"松岡西野中","town_kana":"マツオカニシノナカ","prefecture_code":18},"1101":{"zip_code":"9101101","prefecture":"福井県","prefecture_kana":"フクイケン","city":"吉田郡永平寺町","city_kana":"ヨシダグンエイヘイジチョウ","town":"松岡樋爪","town_kana":"マツオカヒヅメ","prefecture_code":18},"1144":{"zip_code":"9101144","prefecture":"福井県","prefecture_kana":"フクイケン","city":"吉田郡永平寺町","city_kana":"ヨシダグンエイヘイジチョウ","town":"松岡平成","town_kana":"マツオカヘイセイ","prefecture_code":18},"1113":{"zip_code":"9101113","prefecture":"福井県","prefecture_kana":"フクイケン","city":"吉田郡永平寺町","city_kana":"ヨシダグンエイヘイジチョウ","town":"松岡松ケ丘","town_kana":"マツオカマツガオカ","prefecture_code":18},"1138":{"zip_code":"9101138","prefecture":"福井県","prefecture_kana":"フクイケン","city":"吉田郡永平寺町","city_kana":"ヨシダグンエイヘイジチョウ","town":"松岡松ケ原","town_kana":"マツオカマツガハラ","prefecture_code":18},"1122":{"zip_code":"9101122","prefecture":"福井県","prefecture_kana":"フクイケン","city":"吉田郡永平寺町","city_kana":"ヨシダグンエイヘイジチョウ","town":"松岡宮重","town_kana":"マツオカミヤシゲ","prefecture_code":18},"1135":{"zip_code":"9101135","prefecture":"福井県","prefecture_kana":"フクイケン","city":"吉田郡永平寺町","city_kana":"ヨシダグンエイヘイジチョウ","town":"松岡室","town_kana":"マツオカムロ","prefecture_code":18},"1118":{"zip_code":"9101118","prefecture":"福井県","prefecture_kana":"フクイケン","city":"吉田郡永平寺町","city_kana":"ヨシダグンエイヘイジチョウ","town":"松岡薬師","town_kana":"マツオカヤクシ","prefecture_code":18},"1123":{"zip_code":"9101123","prefecture":"福井県","prefecture_kana":"フクイケン","city":"吉田郡永平寺町","city_kana":"ヨシダグンエイヘイジチョウ","town":"松岡湯谷","town_kana":"マツオカユダニ","prefecture_code":18},"1121":{"zip_code":"9101121","prefecture":"福井県","prefecture_kana":"フクイケン","city":"吉田郡永平寺町","city_kana":"ヨシダグンエイヘイジチョウ","town":"松岡吉野","town_kana":"マツオカヨシノ","prefecture_code":18},"1127":{"zip_code":"9101127","prefecture":"福井県","prefecture_kana":"フクイケン","city":"吉田郡永平寺町","city_kana":"ヨシダグンエイヘイジチョウ","town":"松岡吉野堺","town_kana":"マツオカヨシノザカイ","prefecture_code":18},"1141":{"zip_code":"9101141","prefecture":"福井県","prefecture_kana":"フクイケン","city":"吉田郡永平寺町","city_kana":"ヨシダグンエイヘイジチョウ","town":"松岡領家","town_kana":"マツオカリョウケ","prefecture_code":18},"1143":{"zip_code":"9101143","prefecture":"福井県","prefecture_kana":"フクイケン","city":"吉田郡永平寺町","city_kana":"ヨシダグンエイヘイジチョウ","town":"松岡渡新田","town_kana":"マツオカワタリシンデン","prefecture_code":18},"1221":{"zip_code":"9101221","prefecture":"福井県","prefecture_kana":"フクイケン","city":"吉田郡永平寺町","city_kana":"ヨシダグンエイヘイジチョウ","town":"山","town_kana":"ヤマ","prefecture_code":18},"1205":{"zip_code":"9101205","prefecture":"福井県","prefecture_kana":"フクイケン","city":"吉田郡永平寺町","city_kana":"ヨシダグンエイヘイジチョウ","town":"吉波","town_kana":"ヨシナミ","prefecture_code":18},"1304":{"zip_code":"9101304","prefecture":"福井県","prefecture_kana":"フクイケン","city":"吉田郡永平寺町","city_kana":"ヨシダグンエイヘイジチョウ","town":"吉峰","town_kana":"ヨシミネ","prefecture_code":18},"2500":{"zip_code":"9102500","prefecture":"福井県","prefecture_kana":"フクイケン","city":"今立郡池田町","city_kana":"イマダテグンイケダチョウ","town":"","town_kana":"","prefecture_code":18},"2504":{"zip_code":"9102504","prefecture":"福井県","prefecture_kana":"フクイケン","city":"今立郡池田町","city_kana":"イマダテグンイケダチョウ","town":"安善寺","town_kana":"アンゼンジ","prefecture_code":18},"2515":{"zip_code":"9102515","prefecture":"福井県","prefecture_kana":"フクイケン","city":"今立郡池田町","city_kana":"イマダテグンイケダチョウ","town":"池田","town_kana":"イケダ","prefecture_code":18},"2527":{"zip_code":"9102527","prefecture":"福井県","prefecture_kana":"フクイケン","city":"今立郡池田町","city_kana":"イマダテグンイケダチョウ","town":"板垣","town_kana":"イタガキ","prefecture_code":18},"2525":{"zip_code":"9102525","prefecture":"福井県","prefecture_kana":"フクイケン","city":"今立郡池田町","city_kana":"イマダテグンイケダチョウ","town":"市","town_kana":"イチ","prefecture_code":18},"2512":{"zip_code":"9102512","prefecture":"福井県","prefecture_kana":"フクイケン","city":"今立郡池田町","city_kana":"イマダテグンイケダチョウ","town":"稲荷","town_kana":"イナリ","prefecture_code":18},"2534":{"zip_code":"9102534","prefecture":"福井県","prefecture_kana":"フクイケン","city":"今立郡池田町","city_kana":"イマダテグンイケダチョウ","town":"魚見","town_kana":"ウオミ","prefecture_code":18},"2552":{"zip_code":"9102552","prefecture":"福井県","prefecture_kana":"フクイケン","city":"今立郡池田町","city_kana":"イマダテグンイケダチョウ","town":"大本","town_kana":"オオモト","prefecture_code":18},"2551":{"zip_code":"9102551","prefecture":"福井県","prefecture_kana":"フクイケン","city":"今立郡池田町","city_kana":"イマダテグンイケダチョウ","town":"尾緩","town_kana":"オダルミ","prefecture_code":18},"2557":{"zip_code":"9102557","prefecture":"福井県","prefecture_kana":"フクイケン","city":"今立郡池田町","city_kana":"イマダテグンイケダチョウ","town":"小畑","town_kana":"オバタケ","prefecture_code":18},"2508":{"zip_code":"9102508","prefecture":"福井県","prefecture_kana":"フクイケン","city":"今立郡池田町","city_kana":"イマダテグンイケダチョウ","town":"柿ケ原","town_kana":"カキガハラ","prefecture_code":18},"2514":{"zip_code":"9102514","prefecture":"福井県","prefecture_kana":"フクイケン","city":"今立郡池田町","city_kana":"イマダテグンイケダチョウ","town":"学園","town_kana":"ガクエン","prefecture_code":18},"2553":{"zip_code":"9102553","prefecture":"福井県","prefecture_kana":"フクイケン","city":"今立郡池田町","city_kana":"イマダテグンイケダチョウ","town":"籠掛","town_kana":"カゴカケ","prefecture_code":18},"2554":{"zip_code":"9102554","prefecture":"福井県","prefecture_kana":"フクイケン","city":"今立郡池田町","city_kana":"イマダテグンイケダチョウ","town":"金見谷","town_kana":"カナミダニ","prefecture_code":18},"2526":{"zip_code":"9102526","prefecture":"福井県","prefecture_kana":"フクイケン","city":"今立郡池田町","city_kana":"イマダテグンイケダチョウ","town":"上荒谷","town_kana":"カミアラタニ","prefecture_code":18},"2523":[{"zip_code":"9102523","prefecture":"福井県","prefecture_kana":"フクイケン","city":"今立郡池田町","city_kana":"イマダテグンイケダチョウ","town":"河内","town_kana":"コウチ","prefecture_code":18},{"zip_code":"9102523","prefecture":"福井県","prefecture_kana":"フクイケン","city":"今立郡池田町","city_kana":"イマダテグンイケダチョウ","town":"志津原","town_kana":"シヅハラ","prefecture_code":18}],"2537":{"zip_code":"9102537","prefecture":"福井県","prefecture_kana":"フクイケン","city":"今立郡池田町","city_kana":"イマダテグンイケダチョウ","town":"定方","town_kana":"サダカタ","prefecture_code":18},"2507":{"zip_code":"9102507","prefecture":"福井県","prefecture_kana":"フクイケン","city":"今立郡池田町","city_kana":"イマダテグンイケダチョウ","town":"清水谷","town_kana":"シミズタニ","prefecture_code":18},"2556":[{"zip_code":"9102556","prefecture":"福井県","prefecture_kana":"フクイケン","city":"今立郡池田町","city_kana":"イマダテグンイケダチョウ","town":"白粟","town_kana":"シラワ","prefecture_code":18},{"zip_code":"9102556","prefecture":"福井県","prefecture_kana":"フクイケン","city":"今立郡池田町","city_kana":"イマダテグンイケダチョウ","town":"松ケ谷","town_kana":"マツガタニ","prefecture_code":18}],"2532":{"zip_code":"9102532","prefecture":"福井県","prefecture_kana":"フクイケン","city":"今立郡池田町","city_kana":"イマダテグンイケダチョウ","town":"新保","town_kana":"シンボ","prefecture_code":18},"2535":{"zip_code":"9102535","prefecture":"福井県","prefecture_kana":"フクイケン","city":"今立郡池田町","city_kana":"イマダテグンイケダチョウ","town":"菅生","town_kana":"スゴウ","prefecture_code":18},"2503":{"zip_code":"9102503","prefecture":"福井県","prefecture_kana":"フクイケン","city":"今立郡池田町","city_kana":"イマダテグンイケダチョウ","town":"谷口","town_kana":"タニグチ","prefecture_code":18},"2555":{"zip_code":"9102555","prefecture":"福井県","prefecture_kana":"フクイケン","city":"今立郡池田町","city_kana":"イマダテグンイケダチョウ","town":"千代谷","town_kana":"チヨダニ","prefecture_code":18},"2522":{"zip_code":"9102522","prefecture":"福井県","prefecture_kana":"フクイケン","city":"今立郡池田町","city_kana":"イマダテグンイケダチョウ","town":"月ケ瀬","town_kana":"ツキガセ","prefecture_code":18},"2521":{"zip_code":"9102521","prefecture":"福井県","prefecture_kana":"フクイケン","city":"今立郡池田町","city_kana":"イマダテグンイケダチョウ","town":"常安","town_kana":"ツネヤス","prefecture_code":18},"2513":{"zip_code":"9102513","prefecture":"福井県","prefecture_kana":"フクイケン","city":"今立郡池田町","city_kana":"イマダテグンイケダチョウ","town":"寺島","town_kana":"テラジマ","prefecture_code":18},"2517":{"zip_code":"9102517","prefecture":"福井県","prefecture_kana":"フクイケン","city":"今立郡池田町","city_kana":"イマダテグンイケダチョウ","town":"寺谷","town_kana":"テラダニ","prefecture_code":18},"2524":{"zip_code":"9102524","prefecture":"福井県","prefecture_kana":"フクイケン","city":"今立郡池田町","city_kana":"イマダテグンイケダチョウ","town":"土合皿尾","town_kana":"ドアイサラオ","prefecture_code":18},"2536":{"zip_code":"9102536","prefecture":"福井県","prefecture_kana":"フクイケン","city":"今立郡池田町","city_kana":"イマダテグンイケダチョウ","town":"西角間","town_kana":"ニシカクマ","prefecture_code":18},"2502":{"zip_code":"9102502","prefecture":"福井県","prefecture_kana":"フクイケン","city":"今立郡池田町","city_kana":"イマダテグンイケダチョウ","town":"野尻","town_kana":"ノジリ","prefecture_code":18},"2531":{"zip_code":"9102531","prefecture":"福井県","prefecture_kana":"フクイケン","city":"今立郡池田町","city_kana":"イマダテグンイケダチョウ","town":"東角間","town_kana":"ヒガシカクマ","prefecture_code":18},"2533":{"zip_code":"9102533","prefecture":"福井県","prefecture_kana":"フクイケン","city":"今立郡池田町","city_kana":"イマダテグンイケダチョウ","town":"東俣","town_kana":"ヒガシマタ","prefecture_code":18},"2506":{"zip_code":"9102506","prefecture":"福井県","prefecture_kana":"フクイケン","city":"今立郡池田町","city_kana":"イマダテグンイケダチョウ","town":"広瀬","town_kana":"ヒロセ","prefecture_code":18},"2505":{"zip_code":"9102505","prefecture":"福井県","prefecture_kana":"フクイケン","city":"今立郡池田町","city_kana":"イマダテグンイケダチョウ","town":"水海","town_kana":"ミズウミ","prefecture_code":18},"2501":{"zip_code":"9102501","prefecture":"福井県","prefecture_kana":"フクイケン","city":"今立郡池田町","city_kana":"イマダテグンイケダチョウ","town":"持越","town_kana":"モチコシ","prefecture_code":18},"2511":{"zip_code":"9102511","prefecture":"福井県","prefecture_kana":"フクイケン","city":"今立郡池田町","city_kana":"イマダテグンイケダチョウ","town":"薮田","town_kana":"ヤブタ","prefecture_code":18},"2516":{"zip_code":"9102516","prefecture":"福井県","prefecture_kana":"フクイケン","city":"今立郡池田町","city_kana":"イマダテグンイケダチョウ","town":"山田","town_kana":"ヤマダ","prefecture_code":18}}