{"0000":{"zip_code":"9110000","prefecture":"福井県","prefecture_kana":"フクイケン","city":"勝山市","city_kana":"カツヤマシ","town":"","town_kana":"","prefecture_code":18},"0817":{"zip_code":"9110817","prefecture":"福井県","prefecture_kana":"フクイケン","city":"勝山市","city_kana":"カツヤマシ","town":"旭毛屋町","town_kana":"アサヒケヤチョウ","prefecture_code":18},"0803":{"zip_code":"9110803","prefecture":"福井県","prefecture_kana":"フクイケン","city":"勝山市","city_kana":"カツヤマシ","town":"旭町","town_kana":"アサヒマチ","prefecture_code":18},"0045":[{"zip_code":"9110045","prefecture":"福井県","prefecture_kana":"フクイケン","city":"勝山市","city_kana":"カツヤマシ","town":"荒土町伊波","town_kana":"アラドチョウイナミ","prefecture_code":18},{"zip_code":"9110045","prefecture":"福井県","prefecture_kana":"フクイケン","city":"勝山市","city_kana":"カツヤマシ","town":"荒土町妙金島","town_kana":"アラドチョウミョウキンジマ","prefecture_code":18}],"0041":[{"zip_code":"9110041","prefecture":"福井県","prefecture_kana":"フクイケン","city":"勝山市","city_kana":"カツヤマシ","town":"荒土町北新在家","town_kana":"アラドチョウキタシンザイケ","prefecture_code":18},{"zip_code":"9110041","prefecture":"福井県","prefecture_kana":"フクイケン","city":"勝山市","city_kana":"カツヤマシ","town":"荒土町清水島","town_kana":"アラドチョウシミズシマ","prefecture_code":18},{"zip_code":"9110041","prefecture":"福井県","prefecture_kana":"フクイケン","city":"勝山市","city_kana":"カツヤマシ","town":"荒土町布市","town_kana":"アラドチョウヌノイチ","prefecture_code":18}],"0047":{"zip_code":"9110047","prefecture":"福井県","prefecture_kana":"フクイケン","city":"勝山市","city_kana":"カツヤマシ","town":"荒土町北宮地","town_kana":"アラドチョウキタミヤジ","prefecture_code":18},"0048":[{"zip_code":"9110048","prefecture":"福井県","prefecture_kana":"フクイケン","city":"勝山市","city_kana":"カツヤマシ","town":"荒土町境","town_kana":"アラドチョウサカイ","prefecture_code":18},{"zip_code":"9110048","prefecture":"福井県","prefecture_kana":"フクイケン","city":"勝山市","city_kana":"カツヤマシ","town":"荒土町新道","town_kana":"アラドチョウシンドウ","prefecture_code":18},{"zip_code":"9110048","prefecture":"福井県","prefecture_kana":"フクイケン","city":"勝山市","city_kana":"カツヤマシ","town":"荒土町戸倉","town_kana":"アラドチョウトクラ","prefecture_code":18},{"zip_code":"9110048","prefecture":"福井県","prefecture_kana":"フクイケン","city":"勝山市","city_kana":"カツヤマシ","town":"荒土町西ケ原","town_kana":"アラドチョウニシガハラ","prefecture_code":18},{"zip_code":"9110048","prefecture":"福井県","prefecture_kana":"フクイケン","city":"勝山市","city_kana":"カツヤマシ","town":"荒土町別所","town_kana":"アラドチョウベッショ","prefecture_code":18},{"zip_code":"9110048","prefecture":"福井県","prefecture_kana":"フクイケン","city":"勝山市","city_kana":"カツヤマシ","town":"荒土町細野","town_kana":"アラドチョウホソノ","prefecture_code":18},{"zip_code":"9110048","prefecture":"福井県","prefecture_kana":"フクイケン","city":"勝山市","city_kana":"カツヤマシ","town":"荒土町細野口","town_kana":"アラドチョウホソノグチ","prefecture_code":18}],"0043":{"zip_code":"9110043","prefecture":"福井県","prefecture_kana":"フクイケン","city":"勝山市","city_kana":"カツヤマシ","town":"荒土町新保","town_kana":"アラドチョウシンボ","prefecture_code":18},"0042":[{"zip_code":"9110042","prefecture":"福井県","prefecture_kana":"フクイケン","city":"勝山市","city_kana":"カツヤマシ","town":"荒土町田名部","town_kana":"アラドチョウタナベ","prefecture_code":18},{"zip_code":"9110042","prefecture":"福井県","prefecture_kana":"フクイケン","city":"勝山市","city_kana":"カツヤマシ","town":"荒土町松田","town_kana":"アラドチョウマツタ","prefecture_code":18}],"0046":[{"zip_code":"9110046","prefecture":"福井県","prefecture_kana":"フクイケン","city":"勝山市","city_kana":"カツヤマシ","town":"荒土町中清水","town_kana":"アラドチョウナカシミズ","prefecture_code":18},{"zip_code":"9110046","prefecture":"福井県","prefecture_kana":"フクイケン","city":"勝山市","city_kana":"カツヤマシ","town":"荒土町堀名","town_kana":"アラドチョウホリメ","prefecture_code":18},{"zip_code":"9110046","prefecture":"福井県","prefecture_kana":"フクイケン","city":"勝山市","city_kana":"カツヤマシ","town":"荒土町堀名中清水","town_kana":"アラドチョウホリメナカシミズ","prefecture_code":18}],"0044":{"zip_code":"9110044","prefecture":"福井県","prefecture_kana":"フクイケン","city":"勝山市","city_kana":"カツヤマシ","town":"荒土町松ケ崎","town_kana":"アラドチョウマツガサキ","prefecture_code":18},"0812":{"zip_code":"9110812","prefecture":"福井県","prefecture_kana":"フクイケン","city":"勝山市","city_kana":"カツヤマシ","town":"猪野","town_kana":"イノ","prefecture_code":18},"0813":{"zip_code":"9110813","prefecture":"福井県","prefecture_kana":"フクイケン","city":"勝山市","city_kana":"カツヤマシ","town":"猪野口","town_kana":"イノクチ","prefecture_code":18},"0816":[{"zip_code":"9110816","prefecture":"福井県","prefecture_kana":"フクイケン","city":"勝山市","city_kana":"カツヤマシ","town":"猪野毛屋","town_kana":"イノケヤ","prefecture_code":18},{"zip_code":"9110816","prefecture":"福井県","prefecture_kana":"フクイケン","city":"勝山市","city_kana":"カツヤマシ","town":"毛屋","town_kana":"ケヤ","prefecture_code":18},{"zip_code":"9110816","prefecture":"福井県","prefecture_kana":"フクイケン","city":"勝山市","city_kana":"カツヤマシ","town":"毛屋町","town_kana":"ケヤチョウ","prefecture_code":18},{"zip_code":"9110816","prefecture":"福井県","prefecture_kana":"フクイケン","city":"勝山市","city_kana":"カツヤマシ","town":"下毛屋","town_kana":"シモケヤ","prefecture_code":18}],"0834":[{"zip_code":"9110834","prefecture":"福井県","prefecture_kana":"フクイケン","city":"勝山市","city_kana":"カツヤマシ","town":"遅羽町大袋","town_kana":"オソワチョウオオブクロ","prefecture_code":18},{"zip_code":"9110834","prefecture":"福井県","prefecture_kana":"フクイケン","city":"勝山市","city_kana":"カツヤマシ","town":"遅羽町新道","town_kana":"オソワチョウシンドウ","prefecture_code":18}],"0833":{"zip_code":"9110833","prefecture":"福井県","prefecture_kana":"フクイケン","city":"勝山市","city_kana":"カツヤマシ","town":"遅羽町北山","town_kana":"オソワチョウキタヤマ","prefecture_code":18},"0836":{"zip_code":"9110836","prefecture":"福井県","prefecture_kana":"フクイケン","city":"勝山市","city_kana":"カツヤマシ","town":"遅羽町下荒井","town_kana":"オソワチョウシモアライ","prefecture_code":18},"0831":[{"zip_code":"9110831","prefecture":"福井県","prefecture_kana":"フクイケン","city":"勝山市","city_kana":"カツヤマシ","town":"遅羽町千代田","town_kana":"オソワチョウチヨダ","prefecture_code":18},{"zip_code":"9110831","prefecture":"福井県","prefecture_kana":"フクイケン","city":"勝山市","city_kana":"カツヤマシ","town":"遅羽町中島","town_kana":"オソワチョウナカジマ","prefecture_code":18},{"zip_code":"9110831","prefecture":"福井県","prefecture_kana":"フクイケン","city":"勝山市","city_kana":"カツヤマシ","town":"遅羽町比島","town_kana":"オソワチョウヒシマ","prefecture_code":18}],"0835":{"zip_code":"9110835","prefecture":"福井県","prefecture_kana":"フクイケン","city":"勝山市","city_kana":"カツヤマシ","town":"遅羽町ほう崎","town_kana":"オソワチョウホウキ","prefecture_code":18},"0832":{"zip_code":"9110832","prefecture":"福井県","prefecture_kana":"フクイケン","city":"勝山市","city_kana":"カツヤマシ","town":"遅羽町蓬生","town_kana":"オソワチョウヨモギ","prefecture_code":18},"0811":[{"zip_code":"9110811","prefecture":"福井県","prefecture_kana":"フクイケン","city":"勝山市","city_kana":"カツヤマシ","town":"片瀬","town_kana":"カタセ","prefecture_code":18},{"zip_code":"9110811","prefecture":"福井県","prefecture_kana":"フクイケン","city":"勝山市","city_kana":"カツヤマシ","town":"片瀬町","town_kana":"カタセチョウ","prefecture_code":18}],"0815":[{"zip_code":"9110815","prefecture":"福井県","prefecture_kana":"フクイケン","city":"勝山市","city_kana":"カツヤマシ","town":"上高島","town_kana":"カミタカジマ","prefecture_code":18},{"zip_code":"9110815","prefecture":"福井県","prefecture_kana":"フクイケン","city":"勝山市","city_kana":"カツヤマシ","town":"北市","town_kana":"キタイチ","prefecture_code":18},{"zip_code":"9110815","prefecture":"福井県","prefecture_kana":"フクイケン","city":"勝山市","city_kana":"カツヤマシ","town":"下高島","town_kana":"シモタカジマ","prefecture_code":18},{"zip_code":"9110815","prefecture":"福井県","prefecture_kana":"フクイケン","city":"勝山市","city_kana":"カツヤマシ","town":"高島","town_kana":"タカジマ","prefecture_code":18},{"zip_code":"9110815","prefecture":"福井県","prefecture_kana":"フクイケン","city":"勝山市","city_kana":"カツヤマシ","town":"西高島","town_kana":"ニシタカジマ","prefecture_code":18}],"0051":[{"zip_code":"9110051","prefecture":"福井県","prefecture_kana":"フクイケン","city":"勝山市","city_kana":"カツヤマシ","town":"北郷町新町","town_kana":"キタゴウチョウアラマチ","prefecture_code":18},{"zip_code":"9110051","prefecture":"福井県","prefecture_kana":"フクイケン","city":"勝山市","city_kana":"カツヤマシ","town":"北郷町志比原","town_kana":"キタゴウチョウシイワラ","prefecture_code":18},{"zip_code":"9110051","prefecture":"福井県","prefecture_kana":"フクイケン","city":"勝山市","city_kana":"カツヤマシ","town":"北郷町檜曽谷","town_kana":"キタゴウチョウヒソダニ","prefecture_code":18}],"0055":[{"zip_code":"9110055","prefecture":"福井県","prefecture_kana":"フクイケン","city":"勝山市","city_kana":"カツヤマシ","town":"北郷町伊知地","town_kana":"キタゴウチョウイジチ","prefecture_code":18},{"zip_code":"9110055","prefecture":"福井県","prefecture_kana":"フクイケン","city":"勝山市","city_kana":"カツヤマシ","town":"北郷町岩屋","town_kana":"キタゴウチョウイワヤ","prefecture_code":18},{"zip_code":"9110055","prefecture":"福井県","prefecture_kana":"フクイケン","city":"勝山市","city_kana":"カツヤマシ","town":"北郷町上野","town_kana":"キタゴウチョウウワノ","prefecture_code":18}],"0053":[{"zip_code":"9110053","prefecture":"福井県","prefecture_kana":"フクイケン","city":"勝山市","city_kana":"カツヤマシ","town":"北郷町上森川","town_kana":"キタゴウチョウカミモリカワ","prefecture_code":18},{"zip_code":"9110053","prefecture":"福井県","prefecture_kana":"フクイケン","city":"勝山市","city_kana":"カツヤマシ","town":"北郷町下森川","town_kana":"キタゴウチョウシモモリカワ","prefecture_code":18},{"zip_code":"9110053","prefecture":"福井県","prefecture_kana":"フクイケン","city":"勝山市","city_kana":"カツヤマシ","town":"北郷町森川","town_kana":"キタゴウチョウモリカワ","prefecture_code":18}],"0052":{"zip_code":"9110052","prefecture":"福井県","prefecture_kana":"フクイケン","city":"勝山市","city_kana":"カツヤマシ","town":"北郷町西妙金島","town_kana":"キタゴウチョウニシミョウキンジマ","prefecture_code":18},"0056":{"zip_code":"9110056","prefecture":"福井県","prefecture_kana":"フクイケン","city":"勝山市","city_kana":"カツヤマシ","town":"北郷町坂東島","town_kana":"キタゴウチョウバンドウジマ","prefecture_code":18},"0054":{"zip_code":"9110054","prefecture":"福井県","prefecture_kana":"フクイケン","city":"勝山市","city_kana":"カツヤマシ","town":"北郷町東野","town_kana":"キタゴウチョウヒガシノ","prefecture_code":18},"0001":{"zip_code":"9110001","prefecture":"福井県","prefecture_kana":"フクイケン","city":"勝山市","city_kana":"カツヤマシ","town":"北谷町小原","town_kana":"キタダニチョウオハラ","prefecture_code":18},"0004":[{"zip_code":"9110004","prefecture":"福井県","prefecture_kana":"フクイケン","city":"勝山市","city_kana":"カツヤマシ","town":"北谷町北六呂師","town_kana":"キタダニチョウキタロクロシ","prefecture_code":18},{"zip_code":"9110004","prefecture":"福井県","prefecture_kana":"フクイケン","city":"勝山市","city_kana":"カツヤマシ","town":"北谷町中尾","town_kana":"キタダニチョウナカオ","prefecture_code":18}],"0002":{"zip_code":"9110002","prefecture":"福井県","prefecture_kana":"フクイケン","city":"勝山市","city_kana":"カツヤマシ","town":"北谷町木根橋","town_kana":"キタダニチョウキネハシ","prefecture_code":18},"0003":{"zip_code":"9110003","prefecture":"福井県","prefecture_kana":"フクイケン","city":"勝山市","city_kana":"カツヤマシ","town":"北谷町河合","town_kana":"キタダニチョウコウゴ","prefecture_code":18},"0005":{"zip_code":"9110005","prefecture":"福井県","prefecture_kana":"フクイケン","city":"勝山市","city_kana":"カツヤマシ","town":"北谷町杉山","town_kana":"キタダニチョウスギヤマ","prefecture_code":18},"0006":{"zip_code":"9110006","prefecture":"福井県","prefecture_kana":"フクイケン","city":"勝山市","city_kana":"カツヤマシ","town":"北谷町谷","town_kana":"キタダニチョウタニ","prefecture_code":18},"0035":{"zip_code":"9110035","prefecture":"福井県","prefecture_kana":"フクイケン","city":"勝山市","city_kana":"カツヤマシ","town":"郡町","town_kana":"コオリマチ","prefecture_code":18},"0033":{"zip_code":"9110033","prefecture":"福井県","prefecture_kana":"フクイケン","city":"勝山市","city_kana":"カツヤマシ","town":"栄町","town_kana":"サカエマチ","prefecture_code":18},"0801":{"zip_code":"9110801","prefecture":"福井県","prefecture_kana":"フクイケン","city":"勝山市","city_kana":"カツヤマシ","town":"沢町","town_kana":"サワマチ","prefecture_code":18},"0846":{"zip_code":"9110846","prefecture":"福井県","prefecture_kana":"フクイケン","city":"勝山市","city_kana":"カツヤマシ","town":"鹿谷町北西俣","town_kana":"シカダニチョウキタニシマタ","prefecture_code":18},"0847":{"zip_code":"9110847","prefecture":"福井県","prefecture_kana":"フクイケン","city":"勝山市","city_kana":"カツヤマシ","town":"鹿谷町西光寺","town_kana":"シカダニチョウサイコウジ","prefecture_code":18},"0842":{"zip_code":"9110842","prefecture":"福井県","prefecture_kana":"フクイケン","city":"勝山市","city_kana":"カツヤマシ","town":"鹿谷町志田","town_kana":"シカダニチョウシダ","prefecture_code":18},"0843":[{"zip_code":"9110843","prefecture":"福井県","prefecture_kana":"フクイケン","city":"勝山市","city_kana":"カツヤマシ","town":"鹿谷町杉俣","town_kana":"シカダニチョウスギマタ","prefecture_code":18},{"zip_code":"9110843","prefecture":"福井県","prefecture_kana":"フクイケン","city":"勝山市","city_kana":"カツヤマシ","town":"鹿谷町本郷","town_kana":"シカダニチョウホンゴウ","prefecture_code":18}],"0848":[{"zip_code":"9110848","prefecture":"福井県","prefecture_kana":"フクイケン","city":"勝山市","city_kana":"カツヤマシ","town":"鹿谷町出村","town_kana":"シカダニチョウデムラ","prefecture_code":18},{"zip_code":"9110848","prefecture":"福井県","prefecture_kana":"フクイケン","city":"勝山市","city_kana":"カツヤマシ","town":"鹿谷町保田","town_kana":"シカダニチョウホタ","prefecture_code":18},{"zip_code":"9110848","prefecture":"福井県","prefecture_kana":"フクイケン","city":"勝山市","city_kana":"カツヤマシ","town":"鹿谷町保田出村","town_kana":"シカダニチョウホタデムラ","prefecture_code":18}],"0844":[{"zip_code":"9110844","prefecture":"福井県","prefecture_kana":"フクイケン","city":"勝山市","city_kana":"カツヤマシ","town":"鹿谷町東遅羽口","town_kana":"シカダニチョウヒガシオソワグチ","prefecture_code":18},{"zip_code":"9110844","prefecture":"福井県","prefecture_kana":"フクイケン","city":"勝山市","city_kana":"カツヤマシ","town":"鹿谷町西遅羽口","town_kana":"シカダニチョウニシオソワグチ","prefecture_code":18}],"0841":{"zip_code":"9110841","prefecture":"福井県","prefecture_kana":"フクイケン","city":"勝山市","city_kana":"カツヤマシ","town":"鹿谷町発坂","town_kana":"シカダニチョウホッサカ","prefecture_code":18},"0845":{"zip_code":"9110845","prefecture":"福井県","prefecture_kana":"フクイケン","city":"勝山市","city_kana":"カツヤマシ","town":"鹿谷町矢戸口","town_kana":"シカダニチョウヤトグチ","prefecture_code":18},"0802":{"zip_code":"9110802","prefecture":"福井県","prefecture_kana":"フクイケン","city":"勝山市","city_kana":"カツヤマシ","town":"昭和町","town_kana":"ショウワマチ","prefecture_code":18},"0034":{"zip_code":"9110034","prefecture":"福井県","prefecture_kana":"フクイケン","city":"勝山市","city_kana":"カツヤマシ","town":"滝波町","town_kana":"タキナミチョウ","prefecture_code":18},"0805":{"zip_code":"9110805","prefecture":"福井県","prefecture_kana":"フクイケン","city":"勝山市","city_kana":"カツヤマシ","town":"立川町","town_kana":"タテカワチョウ","prefecture_code":18},"0031":{"zip_code":"9110031","prefecture":"福井県","prefecture_kana":"フクイケン","city":"勝山市","city_kana":"カツヤマシ","town":"長山町","town_kana":"ナガヤマチョウ","prefecture_code":18},"0011":{"zip_code":"9110011","prefecture":"福井県","prefecture_kana":"フクイケン","city":"勝山市","city_kana":"カツヤマシ","town":"野向町牛ケ谷","town_kana":"ノムキチョウウシガタニ","prefecture_code":18},"0017":[{"zip_code":"9110017","prefecture":"福井県","prefecture_kana":"フクイケン","city":"勝山市","city_kana":"カツヤマシ","town":"野向町北野津又","town_kana":"ノムキチョウキタノツマタ","prefecture_code":18},{"zip_code":"9110017","prefecture":"福井県","prefecture_kana":"フクイケン","city":"勝山市","city_kana":"カツヤマシ","town":"野向町横倉","town_kana":"ノムキチョウヨコクラ","prefecture_code":18}],"0015":{"zip_code":"9110015","prefecture":"福井県","prefecture_kana":"フクイケン","city":"勝山市","city_kana":"カツヤマシ","town":"野向町竹林","town_kana":"ノムキチョウタケバヤシ","prefecture_code":18},"0014":{"zip_code":"9110014","prefecture":"福井県","prefecture_kana":"フクイケン","city":"勝山市","city_kana":"カツヤマシ","town":"野向町聖丸","town_kana":"ノムキチョウヒジリマル","prefecture_code":18},"0013":{"zip_code":"9110013","prefecture":"福井県","prefecture_kana":"フクイケン","city":"勝山市","city_kana":"カツヤマシ","town":"野向町深谷","town_kana":"ノムキチョウフカダニ","prefecture_code":18},"0012":{"zip_code":"9110012","prefecture":"福井県","prefecture_kana":"フクイケン","city":"勝山市","city_kana":"カツヤマシ","town":"野向町薬師神谷","town_kana":"ノムキチョウヤクシガミヤ","prefecture_code":18},"0016":{"zip_code":"9110016","prefecture":"福井県","prefecture_kana":"フクイケン","city":"勝山市","city_kana":"カツヤマシ","town":"野向町竜谷","town_kana":"ノムキチョウリュウダニ","prefecture_code":18},"0823":{"zip_code":"9110823","prefecture":"福井県","prefecture_kana":"フクイケン","city":"勝山市","city_kana":"カツヤマシ","town":"平泉寺町赤尾","town_kana":"ヘイセンジチョウアカオ","prefecture_code":18},"0824":[{"zip_code":"9110824","prefecture":"福井県","prefecture_kana":"フクイケン","city":"勝山市","city_kana":"カツヤマシ","town":"平泉寺町池ケ原","town_kana":"ヘイセンジチョウイケガハラ","prefecture_code":18},{"zip_code":"9110824","prefecture":"福井県","prefecture_kana":"フクイケン","city":"勝山市","city_kana":"カツヤマシ","town":"平泉寺町大矢谷","town_kana":"ヘイセンジチョウオオヤダニ","prefecture_code":18},{"zip_code":"9110824","prefecture":"福井県","prefecture_kana":"フクイケン","city":"勝山市","city_kana":"カツヤマシ","town":"平泉寺町小矢谷","town_kana":"ヘイセンジチョウコヤダニ","prefecture_code":18}],"0825":[{"zip_code":"9110825","prefecture":"福井県","prefecture_kana":"フクイケン","city":"勝山市","city_kana":"カツヤマシ","town":"平泉寺町岩ケ野","town_kana":"ヘイセンジチョウイワガノ","prefecture_code":18},{"zip_code":"9110825","prefecture":"福井県","prefecture_kana":"フクイケン","city":"勝山市","city_kana":"カツヤマシ","town":"平泉寺町上野","town_kana":"ヘイセンジチョウウエノ","prefecture_code":18}],"0828":[{"zip_code":"9110828","prefecture":"福井県","prefecture_kana":"フクイケン","city":"勝山市","city_kana":"カツヤマシ","town":"平泉寺町大渡","town_kana":"ヘイセンジチョウオオワタリ","prefecture_code":18},{"zip_code":"9110828","prefecture":"福井県","prefecture_kana":"フクイケン","city":"勝山市","city_kana":"カツヤマシ","town":"平泉寺町経塚","town_kana":"ヘイセンジチョウキョウヅカ","prefecture_code":18}],"0821":{"zip_code":"9110821","prefecture":"福井県","prefecture_kana":"フクイケン","city":"勝山市","city_kana":"カツヤマシ","town":"平泉寺町岡横江","town_kana":"ヘイセンジチョウオカヨコエ","prefecture_code":18},"0826":{"zip_code":"9110826","prefecture":"福井県","prefecture_kana":"フクイケン","city":"勝山市","city_kana":"カツヤマシ","town":"平泉寺町壁倉","town_kana":"ヘイセンジチョウカベクラ","prefecture_code":18},"0827":{"zip_code":"9110827","prefecture":"福井県","prefecture_kana":"フクイケン","city":"勝山市","city_kana":"カツヤマシ","town":"平泉寺町笹尾","town_kana":"ヘイセンジチョウササオ","prefecture_code":18},"0822":[{"zip_code":"9110822","prefecture":"福井県","prefecture_kana":"フクイケン","city":"勝山市","city_kana":"カツヤマシ","town":"平泉寺町神野","town_kana":"ヘイセンジチョウシンノ","prefecture_code":18},{"zip_code":"9110822","prefecture":"福井県","prefecture_kana":"フクイケン","city":"勝山市","city_kana":"カツヤマシ","town":"平泉寺町平泉寺","town_kana":"ヘイセンジチョウヘイセンジ","prefecture_code":18}],"0806":{"zip_code":"9110806","prefecture":"福井県","prefecture_kana":"フクイケン","city":"勝山市","city_kana":"カツヤマシ","town":"本町","town_kana":"ホンマチ","prefecture_code":18},"0022":[{"zip_code":"9110022","prefecture":"福井県","prefecture_kana":"フクイケン","city":"勝山市","city_kana":"カツヤマシ","town":"村岡町暮見","town_kana":"ムロコチョウクレミ","prefecture_code":18},{"zip_code":"9110022","prefecture":"福井県","prefecture_kana":"フクイケン","city":"勝山市","city_kana":"カツヤマシ","town":"芳野ケ原","town_kana":"ヨシノガハラ","prefecture_code":18}],"0026":{"zip_code":"9110026","prefecture":"福井県","prefecture_kana":"フクイケン","city":"勝山市","city_kana":"カツヤマシ","town":"村岡町黒原","town_kana":"ムロコチョウクロハラ","prefecture_code":18},"0025":{"zip_code":"9110025","prefecture":"福井県","prefecture_kana":"フクイケン","city":"勝山市","city_kana":"カツヤマシ","town":"村岡町五本寺","town_kana":"ムロコチョウゴホンジ","prefecture_code":18},"0024":{"zip_code":"9110024","prefecture":"福井県","prefecture_kana":"フクイケン","city":"勝山市","city_kana":"カツヤマシ","town":"村岡町浄土寺","town_kana":"ムロコチョウジョウドジ","prefecture_code":18},"0023":{"zip_code":"9110023","prefecture":"福井県","prefecture_kana":"フクイケン","city":"勝山市","city_kana":"カツヤマシ","town":"村岡町寺尾","town_kana":"ムロコチョウテラオ","prefecture_code":18},"0021":{"zip_code":"9110021","prefecture":"福井県","prefecture_kana":"フクイケン","city":"勝山市","city_kana":"カツヤマシ","town":"村岡町栃神谷","town_kana":"ムロコチョウトチガミヤ","prefecture_code":18},"0804":{"zip_code":"9110804","prefecture":"福井県","prefecture_kana":"フクイケン","city":"勝山市","city_kana":"カツヤマシ","town":"元町","town_kana":"モトマチ","prefecture_code":18},"0032":{"zip_code":"9110032","prefecture":"福井県","prefecture_kana":"フクイケン","city":"勝山市","city_kana":"カツヤマシ","town":"芳野町","town_kana":"ヨシノチョウ","prefecture_code":18},"0814":{"zip_code":"9110814","prefecture":"福井県","prefecture_kana":"フクイケン","city":"勝山市","city_kana":"カツヤマシ","town":"若猪野","town_kana":"ワカイノ","prefecture_code":18}}