{"0000":{"zip_code":"9120000","prefecture":"福井県","prefecture_kana":"フクイケン","city":"大野市","city_kana":"オオノシ","town":"","town_kana":"","prefecture_code":18},"0068":{"zip_code":"9120068","prefecture":"福井県","prefecture_kana":"フクイケン","city":"大野市","city_kana":"オオノシ","town":"茜町","town_kana":"アカネチョウ","prefecture_code":18},"0205":{"zip_code":"9120205","prefecture":"福井県","prefecture_kana":"フクイケン","city":"大野市","city_kana":"オオノシ","town":"朝日","town_kana":"アサヒ","prefecture_code":18},"0201":{"zip_code":"9120201","prefecture":"福井県","prefecture_kana":"フクイケン","city":"大野市","city_kana":"オオノシ","town":"朝日前坂","town_kana":"アサヒマエサカ","prefecture_code":18},"0063":{"zip_code":"9120063","prefecture":"福井県","prefecture_kana":"フクイケン","city":"大野市","city_kana":"オオノシ","town":"阿難祖領家","town_kana":"アドソリョウケ","prefecture_code":18},"0035":{"zip_code":"9120035","prefecture":"福井県","prefecture_kana":"フクイケン","city":"大野市","city_kana":"オオノシ","town":"有明町","town_kana":"アリアケチョウ","prefecture_code":18},"0134":{"zip_code":"9120134","prefecture":"福井県","prefecture_kana":"フクイケン","city":"大野市","city_kana":"オオノシ","town":"石谷","town_kana":"イシタニ","prefecture_code":18},"0086":{"zip_code":"9120086","prefecture":"福井県","prefecture_kana":"フクイケン","city":"大野市","city_kana":"オオノシ","town":"清水","town_kana":"ショウズ","prefecture_code":18},"0206":{"zip_code":"9120206","prefecture":"福井県","prefecture_kana":"フクイケン","city":"大野市","city_kana":"オオノシ","town":"板倉","town_kana":"イタクラ","prefecture_code":18},"0054":{"zip_code":"9120054","prefecture":"福井県","prefecture_kana":"フクイケン","city":"大野市","city_kana":"オオノシ","town":"糸魚町","town_kana":"イトヨチョウ","prefecture_code":18},"0091":{"zip_code":"9120091","prefecture":"福井県","prefecture_kana":"フクイケン","city":"大野市","city_kana":"オオノシ","town":"牛ケ原","town_kana":"ウシガハラ","prefecture_code":18},"0826":{"zip_code":"9120826","prefecture":"福井県","prefecture_kana":"フクイケン","city":"大野市","city_kana":"オオノシ","town":"井ノ口","town_kana":"イノクチ","prefecture_code":18},"0404":{"zip_code":"9120404","prefecture":"福井県","prefecture_kana":"フクイケン","city":"大野市","city_kana":"オオノシ","town":"猪島","town_kana":"イノシマ","prefecture_code":18},"0072":{"zip_code":"9120072","prefecture":"福井県","prefecture_kana":"フクイケン","city":"大野市","city_kana":"オオノシ","town":"飯降","town_kana":"イフリ","prefecture_code":18},"0424":{"zip_code":"9120424","prefecture":"福井県","prefecture_kana":"フクイケン","city":"大野市","city_kana":"オオノシ","town":"今井","town_kana":"イマイ","prefecture_code":18},"0067":{"zip_code":"9120067","prefecture":"福井県","prefecture_kana":"フクイケン","city":"大野市","city_kana":"オオノシ","town":"右近次郎","town_kana":"ウコンジロウ","prefecture_code":18},"0813":{"zip_code":"9120813","prefecture":"福井県","prefecture_kana":"フクイケン","city":"大野市","city_kana":"オオノシ","town":"上野","town_kana":"ウワノ","prefecture_code":18},"0435":{"zip_code":"9120435","prefecture":"福井県","prefecture_kana":"フクイケン","city":"大野市","city_kana":"オオノシ","town":"榎","town_kana":"エノキ","prefecture_code":18},"0005":{"zip_code":"9120005","prefecture":"福井県","prefecture_kana":"フクイケン","city":"大野市","city_kana":"オオノシ","town":"太田","town_kana":"オオタ","prefecture_code":18},"0132":{"zip_code":"9120132","prefecture":"福井県","prefecture_kana":"フクイケン","city":"大野市","city_kana":"オオノシ","town":"大月","town_kana":"オオツキ","prefecture_code":18},"0001":{"zip_code":"9120001","prefecture":"福井県","prefecture_kana":"フクイケン","city":"大野市","city_kana":"オオノシ","town":"大矢戸","town_kana":"オオヤト","prefecture_code":18},"0144":{"zip_code":"9120144","prefecture":"福井県","prefecture_kana":"フクイケン","city":"大野市","city_kana":"オオノシ","town":"小黒見","town_kana":"オグロミ","prefecture_code":18},"0146":{"zip_code":"9120146","prefecture":"福井県","prefecture_kana":"フクイケン","city":"大野市","city_kana":"オオノシ","town":"落合","town_kana":"オチアイ","prefecture_code":18},"0204":{"zip_code":"9120204","prefecture":"福井県","prefecture_kana":"フクイケン","city":"大野市","city_kana":"オオノシ","town":"貝皿","town_kana":"カイザラ","prefecture_code":18},"0416":{"zip_code":"9120416","prefecture":"福井県","prefecture_kana":"フクイケン","city":"大野市","city_kana":"オオノシ","town":"開発","town_kana":"カイホツ","prefecture_code":18},"0147":{"zip_code":"9120147","prefecture":"福井県","prefecture_kana":"フクイケン","city":"大野市","city_kana":"オオノシ","town":"柿ケ嶋","town_kana":"カキガシマ","prefecture_code":18},"0217":{"zip_code":"9120217","prefecture":"福井県","prefecture_kana":"フクイケン","city":"大野市","city_kana":"オオノシ","town":"角野","town_kana":"カクノ","prefecture_code":18},"0202":{"zip_code":"9120202","prefecture":"福井県","prefecture_kana":"フクイケン","city":"大野市","city_kana":"オオノシ","town":"角野前坂","town_kana":"カクノマエサカ","prefecture_code":18},"0053":{"zip_code":"9120053","prefecture":"福井県","prefecture_kana":"フクイケン","city":"大野市","city_kana":"オオノシ","town":"春日","town_kana":"カスガ","prefecture_code":18},"0026":{"zip_code":"9120026","prefecture":"福井県","prefecture_kana":"フクイケン","city":"大野市","city_kana":"オオノシ","town":"要町","town_kana":"カナメチョウ","prefecture_code":18},"0814":{"zip_code":"9120814","prefecture":"福井県","prefecture_kana":"フクイケン","city":"大野市","city_kana":"オオノシ","town":"川嶋","town_kana":"カワシマ","prefecture_code":18},"0074":{"zip_code":"9120074","prefecture":"福井県","prefecture_kana":"フクイケン","city":"大野市","city_kana":"オオノシ","town":"上荒井","town_kana":"カミアライ","prefecture_code":18},"0151":{"zip_code":"9120151","prefecture":"福井県","prefecture_kana":"フクイケン","city":"大野市","city_kana":"オオノシ","town":"上打波","town_kana":"カミウチナミ","prefecture_code":18},"0216":{"zip_code":"9120216","prefecture":"福井県","prefecture_kana":"フクイケン","city":"大野市","city_kana":"オオノシ","town":"上大納","town_kana":"カミオオノウ","prefecture_code":18},"0076":{"zip_code":"9120076","prefecture":"福井県","prefecture_kana":"フクイケン","city":"大野市","city_kana":"オオノシ","town":"上黒谷","town_kana":"カミクロダニ","prefecture_code":18},"0064":{"zip_code":"9120064","prefecture":"福井県","prefecture_kana":"フクイケン","city":"大野市","city_kana":"オオノシ","town":"上舌","town_kana":"カミシタ","prefecture_code":18},"0221":{"zip_code":"9120221","prefecture":"福井県","prefecture_kana":"フクイケン","city":"大野市","city_kana":"オオノシ","town":"上半原","town_kana":"カミハンバラ","prefecture_code":18},"0094":{"zip_code":"9120094","prefecture":"福井県","prefecture_kana":"フクイケン","city":"大野市","city_kana":"オオノシ","town":"上丁","town_kana":"カミヨウロ","prefecture_code":18},"0087":{"zip_code":"9120087","prefecture":"福井県","prefecture_kana":"フクイケン","city":"大野市","city_kana":"オオノシ","town":"城町","town_kana":"シロマチ","prefecture_code":18},"0218":{"zip_code":"9120218","prefecture":"福井県","prefecture_kana":"フクイケン","city":"大野市","city_kana":"オオノシ","town":"川合","town_kana":"カワイ","prefecture_code":18},"0824":{"zip_code":"9120824","prefecture":"福井県","prefecture_kana":"フクイケン","city":"大野市","city_kana":"オオノシ","town":"木落","town_kana":"キオトシ","prefecture_code":18},"0402":{"zip_code":"9120402","prefecture":"福井県","prefecture_kana":"フクイケン","city":"大野市","city_kana":"オオノシ","town":"北御門","town_kana":"キタミカド","prefecture_code":18},"0143":{"zip_code":"9120143","prefecture":"福井県","prefecture_kana":"フクイケン","city":"大野市","city_kana":"オオノシ","town":"金山","town_kana":"キンザン","prefecture_code":18},"0043":{"zip_code":"9120043","prefecture":"福井県","prefecture_kana":"フクイケン","city":"大野市","city_kana":"オオノシ","town":"国時町","town_kana":"クニトキチョウ","prefecture_code":18},"0071":{"zip_code":"9120071","prefecture":"福井県","prefecture_kana":"フクイケン","city":"大野市","city_kana":"オオノシ","town":"鍬掛","town_kana":"クワカケ","prefecture_code":18},"0412":{"zip_code":"9120412","prefecture":"福井県","prefecture_kana":"フクイケン","city":"大野市","city_kana":"オオノシ","town":"御給","town_kana":"ゴキュウ","prefecture_code":18},"0421":{"zip_code":"9120421","prefecture":"福井県","prefecture_kana":"フクイケン","city":"大野市","city_kana":"オオノシ","town":"五條方","town_kana":"ゴジョウホウ","prefecture_code":18},"0433":{"zip_code":"9120433","prefecture":"福井県","prefecture_kana":"フクイケン","city":"大野市","city_kana":"オオノシ","town":"木本","town_kana":"コノモト","prefecture_code":18},"0002":{"zip_code":"9120002","prefecture":"福井県","prefecture_kana":"フクイケン","city":"大野市","city_kana":"オオノシ","town":"小矢戸","town_kana":"コヤト","prefecture_code":18},"0133":{"zip_code":"9120133","prefecture":"福井県","prefecture_kana":"フクイケン","city":"大野市","city_kana":"オオノシ","town":"御領","town_kana":"ゴリョウ","prefecture_code":18},"0047":{"zip_code":"9120047","prefecture":"福井県","prefecture_kana":"フクイケン","city":"大野市","city_kana":"オオノシ","town":"幸町","town_kana":"サイワイチョウ","prefecture_code":18},"0044":{"zip_code":"9120044","prefecture":"福井県","prefecture_kana":"フクイケン","city":"大野市","city_kana":"オオノシ","town":"桜塚町","town_kana":"サクラヅカチョウ","prefecture_code":18},"0422":{"zip_code":"9120422","prefecture":"福井県","prefecture_kana":"フクイケン","city":"大野市","city_kana":"オオノシ","town":"佐開","town_kana":"サビラキ","prefecture_code":18},"0061":{"zip_code":"9120061","prefecture":"福井県","prefecture_kana":"フクイケン","city":"大野市","city_kana":"オオノシ","town":"篠座町","town_kana":"シノクラチョウ","prefecture_code":18},"0815":{"zip_code":"9120815","prefecture":"福井県","prefecture_kana":"フクイケン","city":"大野市","city_kana":"オオノシ","town":"下麻生嶋","town_kana":"シモアソウジマ","prefecture_code":18},"0152":{"zip_code":"9120152","prefecture":"福井県","prefecture_kana":"フクイケン","city":"大野市","city_kana":"オオノシ","town":"下打波","town_kana":"シモウチナミ","prefecture_code":18},"0215":{"zip_code":"9120215","prefecture":"福井県","prefecture_kana":"フクイケン","city":"大野市","city_kana":"オオノシ","town":"下大納","town_kana":"シモオオノウ","prefecture_code":18},"0075":{"zip_code":"9120075","prefecture":"福井県","prefecture_kana":"フクイケン","city":"大野市","city_kana":"オオノシ","town":"下黒谷","town_kana":"シモクロダニ","prefecture_code":18},"0432":{"zip_code":"9120432","prefecture":"福井県","prefecture_kana":"フクイケン","city":"大野市","city_kana":"オオノシ","town":"下郷","town_kana":"シモゴウ","prefecture_code":18},"0431":{"zip_code":"9120431","prefecture":"福井県","prefecture_kana":"フクイケン","city":"大野市","city_kana":"オオノシ","town":"西里","town_kana":"ニシサト","prefecture_code":18},"0065":{"zip_code":"9120065","prefecture":"福井県","prefecture_kana":"フクイケン","city":"大野市","city_kana":"オオノシ","town":"下舌","town_kana":"シモシタ","prefecture_code":18},"0211":{"zip_code":"9120211","prefecture":"福井県","prefecture_kana":"フクイケン","city":"大野市","city_kana":"オオノシ","town":"下半原","town_kana":"シモハンバラ","prefecture_code":18},"0207":{"zip_code":"9120207","prefecture":"福井県","prefecture_kana":"フクイケン","city":"大野市","city_kana":"オオノシ","town":"下山","town_kana":"シモヤマ","prefecture_code":18},"0822":{"zip_code":"9120822","prefecture":"福井県","prefecture_kana":"フクイケン","city":"大野市","city_kana":"オオノシ","town":"下唯野","town_kana":"シモユイノ","prefecture_code":18},"0095":{"zip_code":"9120095","prefecture":"福井県","prefecture_kana":"フクイケン","city":"大野市","city_kana":"オオノシ","town":"下丁","town_kana":"シモヨウロ","prefecture_code":18},"0423":{"zip_code":"9120423","prefecture":"福井県","prefecture_kana":"フクイケン","city":"大野市","city_kana":"オオノシ","town":"下若生子","town_kana":"シモワカゴ","prefecture_code":18},"0006":{"zip_code":"9120006","prefecture":"福井県","prefecture_kana":"フクイケン","city":"大野市","city_kana":"オオノシ","town":"庄林","town_kana":"ショウバヤシ","prefecture_code":18},"0041":{"zip_code":"9120041","prefecture":"福井県","prefecture_kana":"フクイケン","city":"大野市","city_kana":"オオノシ","town":"菖蒲池","town_kana":"ショウブイケ","prefecture_code":18},"0801":{"zip_code":"9120801","prefecture":"福井県","prefecture_kana":"フクイケン","city":"大野市","city_kana":"オオノシ","town":"新河原","town_kana":"シンカワラ","prefecture_code":18},"0085":{"zip_code":"9120085","prefecture":"福井県","prefecture_kana":"フクイケン","city":"大野市","city_kana":"オオノシ","town":"新庄","town_kana":"シンジョウ","prefecture_code":18},"0825":{"zip_code":"9120825","prefecture":"福井県","prefecture_kana":"フクイケン","city":"大野市","city_kana":"オオノシ","town":"塚原","town_kana":"ツカバラ","prefecture_code":18},"0802":{"zip_code":"9120802","prefecture":"福井県","prefecture_kana":"フクイケン","city":"大野市","city_kana":"オオノシ","town":"新田","town_kana":"シンデン","prefecture_code":18},"0027":{"zip_code":"9120027","prefecture":"福井県","prefecture_kana":"フクイケン","city":"大野市","city_kana":"オオノシ","town":"新町","town_kana":"シンマチ","prefecture_code":18},"0046":{"zip_code":"9120046","prefecture":"福井県","prefecture_kana":"フクイケン","city":"大野市","city_kana":"オオノシ","town":"神明町","town_kana":"シンメイチョウ","prefecture_code":18},"0092":{"zip_code":"9120092","prefecture":"福井県","prefecture_kana":"フクイケン","city":"大野市","city_kana":"オオノシ","town":"清瀧","town_kana":"セイリュウ","prefecture_code":18},"0032":{"zip_code":"9120032","prefecture":"福井県","prefecture_kana":"フクイケン","city":"大野市","city_kana":"オオノシ","town":"清和町","town_kana":"セイワチョウ","prefecture_code":18},"0055":{"zip_code":"9120055","prefecture":"福井県","prefecture_kana":"フクイケン","city":"大野市","city_kana":"オオノシ","town":"高砂町","town_kana":"タカサゴチョウ","prefecture_code":18},"0827":{"zip_code":"9120827","prefecture":"福井県","prefecture_kana":"フクイケン","city":"大野市","city_kana":"オオノシ","town":"田野","town_kana":"タノ","prefecture_code":18},"0062":{"zip_code":"9120062","prefecture":"福井県","prefecture_kana":"フクイケン","city":"大野市","city_kana":"オオノシ","town":"千歳","town_kana":"チトセ","prefecture_code":18},"0031":{"zip_code":"9120031","prefecture":"福井県","prefecture_kana":"フクイケン","city":"大野市","city_kana":"オオノシ","town":"月美町","town_kana":"ツキミチョウ","prefecture_code":18},"0811":{"zip_code":"9120811","prefecture":"福井県","prefecture_kana":"フクイケン","city":"大野市","city_kana":"オオノシ","town":"土打","town_kana":"ツチウチ","prefecture_code":18},"0805":{"zip_code":"9120805","prefecture":"福井県","prefecture_kana":"フクイケン","city":"大野市","city_kana":"オオノシ","town":"土布子","town_kana":"ツチフゴ","prefecture_code":18},"0084":{"zip_code":"9120084","prefecture":"福井県","prefecture_kana":"フクイケン","city":"大野市","city_kana":"オオノシ","town":"天神町","town_kana":"テンジンチョウ","prefecture_code":18},"0415":{"zip_code":"9120415","prefecture":"福井県","prefecture_kana":"フクイケン","city":"大野市","city_kana":"オオノシ","town":"稲郷","town_kana":"トウゴウ","prefecture_code":18},"0145":{"zip_code":"9120145","prefecture":"福井県","prefecture_kana":"フクイケン","city":"大野市","city_kana":"オオノシ","town":"堂嶋","town_kana":"ドウジマ","prefecture_code":18},"0013":{"zip_code":"9120013","prefecture":"福井県","prefecture_kana":"フクイケン","city":"大野市","city_kana":"オオノシ","town":"堂本","town_kana":"ドウモト","prefecture_code":18},"0803":{"zip_code":"9120803","prefecture":"福井県","prefecture_kana":"フクイケン","city":"大野市","city_kana":"オオノシ","town":"富嶋","town_kana":"トビシマ","prefecture_code":18},"0812":{"zip_code":"9120812","prefecture":"福井県","prefecture_kana":"フクイケン","city":"大野市","city_kana":"オオノシ","town":"富塚","town_kana":"トミヅカ","prefecture_code":18},"0016":{"zip_code":"9120016","prefecture":"福井県","prefecture_kana":"フクイケン","city":"大野市","city_kana":"オオノシ","town":"友江","town_kana":"トモエ","prefecture_code":18},"0411":{"zip_code":"9120411","prefecture":"福井県","prefecture_kana":"フクイケン","city":"大野市","city_kana":"オオノシ","town":"友兼","town_kana":"トモカネ","prefecture_code":18},"0023":{"zip_code":"9120023","prefecture":"福井県","prefecture_kana":"フクイケン","city":"大野市","city_kana":"オオノシ","town":"中荒井町","town_kana":"ナカアライチョウ","prefecture_code":18},"0437":{"zip_code":"9120437","prefecture":"福井県","prefecture_kana":"フクイケン","city":"大野市","city_kana":"オオノシ","town":"中据","town_kana":"ナカシガラミ","prefecture_code":18},"0004":{"zip_code":"9120004","prefecture":"福井県","prefecture_kana":"フクイケン","city":"大野市","city_kana":"オオノシ","town":"中津川","town_kana":"ナカツガワ","prefecture_code":18},"0021":{"zip_code":"9120021","prefecture":"福井県","prefecture_kana":"フクイケン","city":"大野市","city_kana":"オオノシ","town":"中野町","town_kana":"ナカノチョウ","prefecture_code":18},"0214":{"zip_code":"9120214","prefecture":"福井県","prefecture_kana":"フクイケン","city":"大野市","city_kana":"オオノシ","town":"長野","town_kana":"ナガノ","prefecture_code":18},"0015":{"zip_code":"9120015","prefecture":"福井県","prefecture_kana":"フクイケン","city":"大野市","city_kana":"オオノシ","town":"中挾","town_kana":"ナカバサミ","prefecture_code":18},"0014":{"zip_code":"9120014","prefecture":"福井県","prefecture_kana":"フクイケン","city":"大野市","city_kana":"オオノシ","town":"中保","town_kana":"ナカホ","prefecture_code":18},"0093":{"zip_code":"9120093","prefecture":"福井県","prefecture_kana":"フクイケン","city":"大野市","city_kana":"オオノシ","town":"中丁","town_kana":"ナカヨウロ","prefecture_code":18},"0821":{"zip_code":"9120821","prefecture":"福井県","prefecture_kana":"フクイケン","city":"大野市","city_kana":"オオノシ","town":"七板","town_kana":"ナナイタ","prefecture_code":18},"0007":{"zip_code":"9120007","prefecture":"福井県","prefecture_kana":"フクイケン","city":"大野市","city_kana":"オオノシ","town":"西市","town_kana":"ニシイチ","prefecture_code":18},"0003":{"zip_code":"9120003","prefecture":"福井県","prefecture_kana":"フクイケン","city":"大野市","city_kana":"オオノシ","town":"東大月","town_kana":"ヒガシオオツキ","prefecture_code":18},"0155":{"zip_code":"9120155","prefecture":"福井県","prefecture_kana":"フクイケン","city":"大野市","city_kana":"オオノシ","town":"西勝原","town_kana":"ニシカドハラ","prefecture_code":18},"0024":{"zip_code":"9120024","prefecture":"福井県","prefecture_kana":"フクイケン","city":"大野市","city_kana":"オオノシ","town":"錦町","town_kana":"ニシキチョウ","prefecture_code":18},"0436":{"zip_code":"9120436","prefecture":"福井県","prefecture_kana":"フクイケン","city":"大野市","city_kana":"オオノシ","town":"西据","town_kana":"ニシシガラミ","prefecture_code":18},"0426":{"zip_code":"9120426","prefecture":"福井県","prefecture_kana":"フクイケン","city":"大野市","city_kana":"オオノシ","town":"西山","town_kana":"ニシヤマ","prefecture_code":18},"0213":{"zip_code":"9120213","prefecture":"福井県","prefecture_kana":"フクイケン","city":"大野市","city_kana":"オオノシ","town":"野尻","town_kana":"ノジリ","prefecture_code":18},"0203":{"zip_code":"9120203","prefecture":"福井県","prefecture_kana":"フクイケン","city":"大野市","city_kana":"オオノシ","town":"後野","town_kana":"ノチノ","prefecture_code":18},"0414":{"zip_code":"9120414","prefecture":"福井県","prefecture_kana":"フクイケン","city":"大野市","city_kana":"オオノシ","town":"野中","town_kana":"ノナカ","prefecture_code":18},"0212":{"zip_code":"9120212","prefecture":"福井県","prefecture_kana":"フクイケン","city":"大野市","city_kana":"オオノシ","town":"箱ケ瀬","town_kana":"ハコガセ","prefecture_code":18},"0141":{"zip_code":"9120141","prefecture":"福井県","prefecture_kana":"フクイケン","city":"大野市","city_kana":"オオノシ","town":"橋爪","town_kana":"ハシヅメ","prefecture_code":18},"0138":{"zip_code":"9120138","prefecture":"福井県","prefecture_kana":"フクイケン","city":"大野市","city_kana":"オオノシ","town":"花房","town_kana":"ハナブサ","prefecture_code":18},"0137":{"zip_code":"9120137","prefecture":"福井県","prefecture_kana":"フクイケン","city":"大野市","city_kana":"オオノシ","town":"萩ケ野","town_kana":"ハンガノ","prefecture_code":18},"0222":{"zip_code":"9120222","prefecture":"福井県","prefecture_kana":"フクイケン","city":"大野市","city_kana":"オオノシ","town":"東市布","town_kana":"ヒガシイチヌノ","prefecture_code":18},"0154":{"zip_code":"9120154","prefecture":"福井県","prefecture_kana":"フクイケン","city":"大野市","city_kana":"オオノシ","town":"東勝原","town_kana":"ヒガシカドハラ","prefecture_code":18},"0042":{"zip_code":"9120042","prefecture":"福井県","prefecture_kana":"フクイケン","city":"大野市","city_kana":"オオノシ","town":"東中町","town_kana":"ヒガシナカチョウ","prefecture_code":18},"0017":{"zip_code":"9120017","prefecture":"福井県","prefecture_kana":"フクイケン","city":"大野市","city_kana":"オオノシ","town":"東中野","town_kana":"ヒガシナカノ","prefecture_code":18},"0413":{"zip_code":"9120413","prefecture":"福井県","prefecture_kana":"フクイケン","city":"大野市","city_kana":"オオノシ","town":"東山","town_kana":"ヒガシヤマ","prefecture_code":18},"0051":{"zip_code":"9120051","prefecture":"福井県","prefecture_kana":"フクイケン","city":"大野市","city_kana":"オオノシ","town":"日吉町","town_kana":"ヒヨシチョウ","prefecture_code":18},"0425":{"zip_code":"9120425","prefecture":"福井県","prefecture_kana":"フクイケン","city":"大野市","city_kana":"オオノシ","town":"平沢","town_kana":"ヒラサワ","prefecture_code":18},"0073":{"zip_code":"9120073","prefecture":"福井県","prefecture_kana":"フクイケン","city":"大野市","city_kana":"オオノシ","town":"深井","town_kana":"フカイ","prefecture_code":18},"0149":{"zip_code":"9120149","prefecture":"福井県","prefecture_kana":"フクイケン","city":"大野市","city_kana":"オオノシ","town":"伏石","town_kana":"ブクイシ","prefecture_code":18},"0139":{"zip_code":"9120139","prefecture":"福井県","prefecture_kana":"フクイケン","city":"大野市","city_kana":"オオノシ","town":"不動堂","town_kana":"フドウドウ","prefecture_code":18},"0434":{"zip_code":"9120434","prefecture":"福井県","prefecture_kana":"フクイケン","city":"大野市","city_kana":"オオノシ","town":"宝慶寺","town_kana":"ホウキョウジ","prefecture_code":18},"0153":{"zip_code":"9120153","prefecture":"福井県","prefecture_kana":"フクイケン","city":"大野市","city_kana":"オオノシ","town":"仏原","town_kana":"ホトケバラ","prefecture_code":18},"0025":{"zip_code":"9120025","prefecture":"福井県","prefecture_kana":"フクイケン","city":"大野市","city_kana":"オオノシ","town":"本町","town_kana":"ホンマチ","prefecture_code":18},"0136":{"zip_code":"9120136","prefecture":"福井県","prefecture_kana":"フクイケン","city":"大野市","city_kana":"オオノシ","town":"松丸","town_kana":"マツマル","prefecture_code":18},"0036":{"zip_code":"9120036","prefecture":"福井県","prefecture_kana":"フクイケン","city":"大野市","city_kana":"オオノシ","town":"美川町","town_kana":"ミカワチョウ","prefecture_code":18},"0033":{"zip_code":"9120033","prefecture":"福井県","prefecture_kana":"フクイケン","city":"大野市","city_kana":"オオノシ","town":"美里町","town_kana":"ミサトチョウ","prefecture_code":18},"0088":{"zip_code":"9120088","prefecture":"福井県","prefecture_kana":"フクイケン","city":"大野市","city_kana":"オオノシ","town":"水落町","town_kana":"ミズオトシチョウ","prefecture_code":18},"0066":{"zip_code":"9120066","prefecture":"福井県","prefecture_kana":"フクイケン","city":"大野市","city_kana":"オオノシ","town":"南春日野","town_kana":"ミナミカスガノ","prefecture_code":18},"0011":{"zip_code":"9120011","prefecture":"福井県","prefecture_kana":"フクイケン","city":"大野市","city_kana":"オオノシ","town":"南新在家","town_kana":"ミナミシンザイケ","prefecture_code":18},"0131":{"zip_code":"9120131","prefecture":"福井県","prefecture_kana":"フクイケン","city":"大野市","city_kana":"オオノシ","town":"南六呂師","town_kana":"ミナミロクロシ","prefecture_code":18},"0142":{"zip_code":"9120142","prefecture":"福井県","prefecture_kana":"フクイケン","city":"大野市","city_kana":"オオノシ","town":"蓑道","town_kana":"ミノミチ","prefecture_code":18},"0083":{"zip_code":"9120083","prefecture":"福井県","prefecture_kana":"フクイケン","city":"大野市","city_kana":"オオノシ","town":"明倫町","town_kana":"メイリンチョウ","prefecture_code":18},"0081":{"zip_code":"9120081","prefecture":"福井県","prefecture_kana":"フクイケン","city":"大野市","city_kana":"オオノシ","town":"元町","town_kana":"モトマチ","prefecture_code":18},"0405":{"zip_code":"9120405","prefecture":"福井県","prefecture_kana":"フクイケン","city":"大野市","city_kana":"オオノシ","town":"森政地頭","town_kana":"モリマサジトウ","prefecture_code":18},"0403":{"zip_code":"9120403","prefecture":"福井県","prefecture_kana":"フクイケン","city":"大野市","city_kana":"オオノシ","town":"森政領家","town_kana":"モリマサリョウケ","prefecture_code":18},"0804":{"zip_code":"9120804","prefecture":"福井県","prefecture_kana":"フクイケン","city":"大野市","city_kana":"オオノシ","town":"森目","town_kana":"モリメ","prefecture_code":18},"0135":{"zip_code":"9120135","prefecture":"福井県","prefecture_kana":"フクイケン","city":"大野市","city_kana":"オオノシ","town":"森本","town_kana":"モリモト","prefecture_code":18},"0427":{"zip_code":"9120427","prefecture":"福井県","prefecture_kana":"フクイケン","city":"大野市","city_kana":"オオノシ","town":"森山","town_kana":"モリヤマ","prefecture_code":18},"0008":{"zip_code":"9120008","prefecture":"福井県","prefecture_kana":"フクイケン","city":"大野市","city_kana":"オオノシ","town":"矢","town_kana":"ヤ","prefecture_code":18},"0148":{"zip_code":"9120148","prefecture":"福井県","prefecture_kana":"フクイケン","city":"大野市","city_kana":"オオノシ","town":"八町","town_kana":"ヤマチ","prefecture_code":18},"0082":{"zip_code":"9120082","prefecture":"福井県","prefecture_kana":"フクイケン","city":"大野市","city_kana":"オオノシ","town":"大和町","town_kana":"ヤマトチョウ","prefecture_code":18},"0052":{"zip_code":"9120052","prefecture":"福井県","prefecture_kana":"フクイケン","city":"大野市","city_kana":"オオノシ","town":"弥生町","town_kana":"ヤヨイチョウ","prefecture_code":18},"0022":{"zip_code":"9120022","prefecture":"福井県","prefecture_kana":"フクイケン","city":"大野市","city_kana":"オオノシ","town":"陽明町","town_kana":"ヨウメイチョウ","prefecture_code":18},"0012":{"zip_code":"9120012","prefecture":"福井県","prefecture_kana":"フクイケン","city":"大野市","city_kana":"オオノシ","town":"横枕","town_kana":"ヨコマクラ","prefecture_code":18},"0401":{"zip_code":"9120401","prefecture":"福井県","prefecture_kana":"フクイケン","city":"大野市","city_kana":"オオノシ","town":"吉","town_kana":"ヨシ","prefecture_code":18},"0034":{"zip_code":"9120034","prefecture":"福井県","prefecture_kana":"フクイケン","city":"大野市","city_kana":"オオノシ","town":"吉野町","town_kana":"ヨシノチョウ","prefecture_code":18},"0045":{"zip_code":"9120045","prefecture":"福井県","prefecture_kana":"フクイケン","city":"大野市","city_kana":"オオノシ","town":"若杉町","town_kana":"ワカスギチョウ","prefecture_code":18},"0823":{"zip_code":"9120823","prefecture":"福井県","prefecture_kana":"フクイケン","city":"大野市","city_kana":"オオノシ","town":"蕨生","town_kana":"ワラビョウ","prefecture_code":18}}