{"0053":{"zip_code":"9130053","prefecture":"福井県","prefecture_kana":"フクイケン","city":"坂井市","city_kana":"サカイシ","town":"三国町青葉台","town_kana":"ミクニチョウアオバダイ","prefecture_code":18},"0022":{"zip_code":"9130022","prefecture":"福井県","prefecture_kana":"フクイケン","city":"坂井市","city_kana":"サカイシ","town":"三国町油屋","town_kana":"ミクニチョウアブラヤ","prefecture_code":18},"0063":[{"zip_code":"9130063","prefecture":"福井県","prefecture_kana":"フクイケン","city":"坂井市","city_kana":"サカイシ","town":"三国町安島","town_kana":"ミクニチョウアントウ","prefecture_code":18},{"zip_code":"9130063","prefecture":"福井県","prefecture_kana":"フクイケン","city":"坂井市","city_kana":"サカイシ","town":"三国町安島東尋坊","town_kana":"ミクニチョウアントウトウジンボウ","prefecture_code":18}],"0064":{"zip_code":"9130064","prefecture":"福井県","prefecture_kana":"フクイケン","city":"坂井市","city_kana":"サカイシ","town":"三国町安島","town_kana":"ミクニチョウアントウ","prefecture_code":18},"0001":{"zip_code":"9130001","prefecture":"福井県","prefecture_kana":"フクイケン","city":"坂井市","city_kana":"サカイシ","town":"三国町池上","town_kana":"ミクニチョウイケガミ","prefecture_code":18},"0024":{"zip_code":"9130024","prefecture":"福井県","prefecture_kana":"フクイケン","city":"坂井市","city_kana":"サカイシ","town":"三国町池見","town_kana":"ミクニチョウイケミ","prefecture_code":18},"0023":{"zip_code":"9130023","prefecture":"福井県","prefecture_kana":"フクイケン","city":"坂井市","city_kana":"サカイシ","town":"三国町石丸","town_kana":"ミクニチョウイシマル","prefecture_code":18},"0052":{"zip_code":"9130052","prefecture":"福井県","prefecture_kana":"フクイケン","city":"坂井市","city_kana":"サカイシ","town":"三国町運動公園","town_kana":"ミクニチョウウンドウコウエン","prefecture_code":18},"0035":[{"zip_code":"9130035","prefecture":"福井県","prefecture_kana":"フクイケン","city":"坂井市","city_kana":"サカイシ","town":"三国町沖野々","town_kana":"ミクニチョウオキノノ","prefecture_code":18},{"zip_code":"9130035","prefecture":"福井県","prefecture_kana":"フクイケン","city":"坂井市","city_kana":"サカイシ","town":"三国町横越","town_kana":"ミクニチョウヨコゴシ","prefecture_code":18}],"0041":{"zip_code":"9130041","prefecture":"福井県","prefecture_kana":"フクイケン","city":"坂井市","city_kana":"サカイシ","town":"三国町覚善","town_kana":"ミクニチョウカクゼン","prefecture_code":18},"0061":{"zip_code":"9130061","prefecture":"福井県","prefecture_kana":"フクイケン","city":"坂井市","city_kana":"サカイシ","town":"三国町梶","town_kana":"ミクニチョウカジ","prefecture_code":18},"0002":{"zip_code":"9130002","prefecture":"福井県","prefecture_kana":"フクイケン","city":"坂井市","city_kana":"サカイシ","town":"三国町加戸","town_kana":"ミクニチョウカド","prefecture_code":18},"0025":{"zip_code":"9130025","prefecture":"福井県","prefecture_kana":"フクイケン","city":"坂井市","city_kana":"サカイシ","town":"三国町川崎","town_kana":"ミクニチョウカワサキ","prefecture_code":18},"0046":{"zip_code":"9130046","prefecture":"福井県","prefecture_kana":"フクイケン","city":"坂井市","city_kana":"サカイシ","town":"三国町北本町","town_kana":"ミクニチョウキタホンマチ","prefecture_code":18},"0038":[{"zip_code":"9130038","prefecture":"福井県","prefecture_kana":"フクイケン","city":"坂井市","city_kana":"サカイシ","town":"三国町黒目","town_kana":"ミクニチョウクロメ","prefecture_code":18},{"zip_code":"9130038","prefecture":"福井県","prefecture_kana":"フクイケン","city":"坂井市","city_kana":"サカイシ","town":"三国町黒目テクノポート","town_kana":"ミクニチョウクロメテクノポート","prefecture_code":18},{"zip_code":"9130038","prefecture":"福井県","prefecture_kana":"フクイケン","city":"坂井市","city_kana":"サカイシ","town":"三国町新保","town_kana":"ミクニチョウシンボ","prefecture_code":18},{"zip_code":"9130038","prefecture":"福井県","prefecture_kana":"フクイケン","city":"坂井市","city_kana":"サカイシ","town":"三国町新保テクノポート","town_kana":"ミクニチョウシンボテクノポート","prefecture_code":18},{"zip_code":"9130038","prefecture":"福井県","prefecture_kana":"フクイケン","city":"坂井市","city_kana":"サカイシ","town":"三国町山岸","town_kana":"ミクニチョウヤマギシ","prefecture_code":18},{"zip_code":"9130038","prefecture":"福井県","prefecture_kana":"フクイケン","city":"坂井市","city_kana":"サカイシ","town":"三国町山岸テクノポート","town_kana":"ミクニチョウヤマギシテクノポート","prefecture_code":18},{"zip_code":"9130038","prefecture":"福井県","prefecture_kana":"フクイケン","city":"坂井市","city_kana":"サカイシ","town":"三国町米納津","town_kana":"ミクニチョウヨノヅ","prefecture_code":18},{"zip_code":"9130038","prefecture":"福井県","prefecture_kana":"フクイケン","city":"坂井市","city_kana":"サカイシ","town":"三国町米納津テクノポート","town_kana":"ミクニチョウヨノヅテクノポート","prefecture_code":18}],"0037":{"zip_code":"9130037","prefecture":"福井県","prefecture_kana":"フクイケン","city":"坂井市","city_kana":"サカイシ","town":"三国町黒目","town_kana":"ミクニチョウクロメ","prefecture_code":18},"0057":{"zip_code":"9130057","prefecture":"福井県","prefecture_kana":"フクイケン","city":"坂井市","city_kana":"サカイシ","town":"三国町米ケ脇","town_kana":"ミクニチョウコメガワキ","prefecture_code":18},"0065":{"zip_code":"9130065","prefecture":"福井県","prefecture_kana":"フクイケン","city":"坂井市","city_kana":"サカイシ","town":"三国町崎","town_kana":"ミクニチョウサキ","prefecture_code":18},"0044":{"zip_code":"9130044","prefecture":"福井県","prefecture_kana":"フクイケン","city":"坂井市","city_kana":"サカイシ","town":"三国町山王","town_kana":"ミクニチョウサンノウ","prefecture_code":18},"0027":{"zip_code":"9130027","prefecture":"福井県","prefecture_kana":"フクイケン","city":"坂井市","city_kana":"サカイシ","town":"三国町汐見","town_kana":"ミクニチョウシオミ","prefecture_code":18},"0033":{"zip_code":"9130033","prefecture":"福井県","prefecture_kana":"フクイケン","city":"坂井市","city_kana":"サカイシ","town":"三国町下野","town_kana":"ミクニチョウシモノ","prefecture_code":18},"0056":{"zip_code":"9130056","prefecture":"福井県","prefecture_kana":"フクイケン","city":"坂井市","city_kana":"サカイシ","town":"三国町宿","town_kana":"ミクニチョウシュク","prefecture_code":18},"0062":{"zip_code":"9130062","prefecture":"福井県","prefecture_kana":"フクイケン","city":"坂井市","city_kana":"サカイシ","town":"三国町陣ケ岡","town_kana":"ミクニチョウジンガオカ","prefecture_code":18},"0058":{"zip_code":"9130058","prefecture":"福井県","prefecture_kana":"フクイケン","city":"坂井市","city_kana":"サカイシ","town":"三国町新宿","town_kana":"ミクニチョウシンシュク","prefecture_code":18},"0031":{"zip_code":"9130031","prefecture":"福井県","prefecture_kana":"フクイケン","city":"坂井市","city_kana":"サカイシ","town":"三国町新保","town_kana":"ミクニチョウシンボ","prefecture_code":18},"0047":{"zip_code":"9130047","prefecture":"福井県","prefecture_kana":"フクイケン","city":"坂井市","city_kana":"サカイシ","town":"三国町神明","town_kana":"ミクニチョウシンメイ","prefecture_code":18},"0054":{"zip_code":"9130054","prefecture":"福井県","prefecture_kana":"フクイケン","city":"坂井市","city_kana":"サカイシ","town":"三国町滝谷","town_kana":"ミクニチョウタキダニ","prefecture_code":18},"0051":{"zip_code":"9130051","prefecture":"福井県","prefecture_kana":"フクイケン","city":"坂井市","city_kana":"サカイシ","town":"三国町嵩","town_kana":"ミクニチョウダケ","prefecture_code":18},"0017":{"zip_code":"9130017","prefecture":"福井県","prefecture_kana":"フクイケン","city":"坂井市","city_kana":"サカイシ","town":"三国町竹松","town_kana":"ミクニチョウタケマツ","prefecture_code":18},"0042":{"zip_code":"9130042","prefecture":"福井県","prefecture_kana":"フクイケン","city":"坂井市","city_kana":"サカイシ","town":"三国町中央","town_kana":"ミクニチョウチュウオウ","prefecture_code":18},"0055":{"zip_code":"9130055","prefecture":"福井県","prefecture_kana":"フクイケン","city":"坂井市","city_kana":"サカイシ","town":"三国町つつじが丘","town_kana":"ミクニチョウツツジガオカ","prefecture_code":18},"0014":{"zip_code":"9130014","prefecture":"福井県","prefecture_kana":"フクイケン","city":"坂井市","city_kana":"サカイシ","town":"三国町玉江","town_kana":"ミクニチョウトウノエ","prefecture_code":18},"0026":{"zip_code":"9130026","prefecture":"福井県","prefecture_kana":"フクイケン","city":"坂井市","city_kana":"サカイシ","town":"三国町殿島","town_kana":"ミクニチョウトノシマ","prefecture_code":18},"0012":{"zip_code":"9130012","prefecture":"福井県","prefecture_kana":"フクイケン","city":"坂井市","city_kana":"サカイシ","town":"三国町西今市","town_kana":"ミクニチョウニシイマイチ","prefecture_code":18},"0043":{"zip_code":"9130043","prefecture":"福井県","prefecture_kana":"フクイケン","city":"坂井市","city_kana":"サカイシ","town":"三国町錦","town_kana":"ミクニチョウニシキ","prefecture_code":18},"0003":{"zip_code":"9130003","prefecture":"福井県","prefecture_kana":"フクイケン","city":"坂井市","city_kana":"サカイシ","town":"三国町西谷","town_kana":"ミクニチョウニシタニ","prefecture_code":18},"0034":{"zip_code":"9130034","prefecture":"福井県","prefecture_kana":"フクイケン","city":"坂井市","city_kana":"サカイシ","town":"三国町西野中","town_kana":"ミクニチョウニシノナカ","prefecture_code":18},"0015":{"zip_code":"9130015","prefecture":"福井県","prefecture_kana":"フクイケン","city":"坂井市","city_kana":"サカイシ","town":"三国町野中","town_kana":"ミクニチョウノナカ","prefecture_code":18},"0005":{"zip_code":"9130005","prefecture":"福井県","prefecture_kana":"フクイケン","city":"坂井市","city_kana":"サカイシ","town":"三国町浜地","town_kana":"ミクニチョウハマジ","prefecture_code":18},"0004":{"zip_code":"9130004","prefecture":"福井県","prefecture_kana":"フクイケン","city":"坂井市","city_kana":"サカイシ","town":"三国町平山","town_kana":"ミクニチョウヒラヤマ","prefecture_code":18},"0013":{"zip_code":"9130013","prefecture":"福井県","prefecture_kana":"フクイケン","city":"坂井市","city_kana":"サカイシ","town":"三国町藤沢","town_kana":"ミクニチョウフジサワ","prefecture_code":18},"0016":{"zip_code":"9130016","prefecture":"福井県","prefecture_kana":"フクイケン","city":"坂井市","city_kana":"サカイシ","town":"三国町三国東","town_kana":"ミクニチョウミクニヒガシ","prefecture_code":18},"0011":{"zip_code":"9130011","prefecture":"福井県","prefecture_kana":"フクイケン","city":"坂井市","city_kana":"サカイシ","town":"三国町水居","town_kana":"ミクニチョウミズイ","prefecture_code":18},"0048":{"zip_code":"9130048","prefecture":"福井県","prefecture_kana":"フクイケン","city":"坂井市","city_kana":"サカイシ","town":"三国町緑ケ丘","town_kana":"ミクニチョウミドリガオカ","prefecture_code":18},"0045":{"zip_code":"9130045","prefecture":"福井県","prefecture_kana":"フクイケン","city":"坂井市","city_kana":"サカイシ","town":"三国町南本町","town_kana":"ミクニチョウミナミホンマチ","prefecture_code":18},"0032":{"zip_code":"9130032","prefecture":"福井県","prefecture_kana":"フクイケン","city":"坂井市","city_kana":"サカイシ","town":"三国町山岸","town_kana":"ミクニチョウヤマギシ","prefecture_code":18},"0036":{"zip_code":"9130036","prefecture":"福井県","prefecture_kana":"フクイケン","city":"坂井市","city_kana":"サカイシ","town":"三国町米納津","town_kana":"ミクニチョウヨノヅ","prefecture_code":18},"0021":{"zip_code":"9130021","prefecture":"福井県","prefecture_kana":"フクイケン","city":"坂井市","city_kana":"サカイシ","town":"三国町楽円","town_kana":"ミクニチョウラクエン","prefecture_code":18}}