{"0000":{"zip_code":"9140000","prefecture":"福井県","prefecture_kana":"フクイケン","city":"敦賀市","city_kana":"ツルガシ","town":"","town_kana":"","prefecture_code":18},"0062":{"zip_code":"9140062","prefecture":"福井県","prefecture_kana":"フクイケン","city":"敦賀市","city_kana":"ツルガシ","town":"相生町","town_kana":"アイオイチョウ","prefecture_code":18},"0272":{"zip_code":"9140272","prefecture":"福井県","prefecture_kana":"フクイケン","city":"敦賀市","city_kana":"ツルガシ","town":"赤崎","town_kana":"アカサキ","prefecture_code":18},"0075":{"zip_code":"9140075","prefecture":"福井県","prefecture_kana":"フクイケン","city":"敦賀市","city_kana":"ツルガシ","town":"曙町","town_kana":"アケボノチョウ","prefecture_code":18},"0266":{"zip_code":"9140266","prefecture":"福井県","prefecture_kana":"フクイケン","city":"敦賀市","city_kana":"ツルガシ","town":"挙野","town_kana":"アゲノ","prefecture_code":18},"0315":{"zip_code":"9140315","prefecture":"福井県","prefecture_kana":"フクイケン","city":"敦賀市","city_kana":"ツルガシ","town":"麻生口","town_kana":"アソウグチ","prefecture_code":18},"0265":{"zip_code":"9140265","prefecture":"福井県","prefecture_kana":"フクイケン","city":"敦賀市","city_kana":"ツルガシ","town":"阿曽","town_kana":"アゾ","prefecture_code":18},"0141":{"zip_code":"9140141","prefecture":"福井県","prefecture_kana":"フクイケン","city":"敦賀市","city_kana":"ツルガシ","town":"莇生野","town_kana":"アゾノ","prefecture_code":18},"0014":{"zip_code":"9140014","prefecture":"福井県","prefecture_kana":"フクイケン","city":"敦賀市","city_kana":"ツルガシ","town":"井川","town_kana":"イガワ","prefecture_code":18},"0004":{"zip_code":"9140004","prefecture":"福井県","prefecture_kana":"フクイケン","city":"敦賀市","city_kana":"ツルガシ","town":"池河内","town_kana":"イケノコウチ","prefecture_code":18},"0042":{"zip_code":"9140042","prefecture":"福井県","prefecture_kana":"フクイケン","city":"敦賀市","city_kana":"ツルガシ","town":"石ケ町","town_kana":"イシガチョウ","prefecture_code":18},"0021":{"zip_code":"9140021","prefecture":"福井県","prefecture_kana":"フクイケン","city":"敦賀市","city_kana":"ツルガシ","town":"泉ケ丘町","town_kana":"イズミガオカチョウ","prefecture_code":18},"0124":[{"zip_code":"9140124","prefecture":"福井県","prefecture_kana":"フクイケン","city":"敦賀市","city_kana":"ツルガシ","town":"市野々","town_kana":"イチノノ","prefecture_code":18},{"zip_code":"9140124","prefecture":"福井県","prefecture_kana":"フクイケン","city":"敦賀市","city_kana":"ツルガシ","town":"市野々町","town_kana":"イチノノチョウ","prefecture_code":18}],"0301":{"zip_code":"9140301","prefecture":"福井県","prefecture_kana":"フクイケン","city":"敦賀市","city_kana":"ツルガシ","town":"市橋","town_kana":"イチハシ","prefecture_code":18},"0267":{"zip_code":"9140267","prefecture":"福井県","prefecture_kana":"フクイケン","city":"敦賀市","city_kana":"ツルガシ","town":"五幡","town_kana":"イツハタ","prefecture_code":18},"0805":{"zip_code":"9140805","prefecture":"福井県","prefecture_kana":"フクイケン","city":"敦賀市","city_kana":"ツルガシ","town":"鋳物師町","town_kana":"イモジチョウ","prefecture_code":18},"0844":{"zip_code":"9140844","prefecture":"福井県","prefecture_kana":"フクイケン","city":"敦賀市","city_kana":"ツルガシ","town":"色浜","town_kana":"イロハマ","prefecture_code":18},"0003":{"zip_code":"9140003","prefecture":"福井県","prefecture_kana":"フクイケン","city":"敦賀市","city_kana":"ツルガシ","town":"獺河内","town_kana":"ウソゴウチ","prefecture_code":18},"0843":{"zip_code":"9140843","prefecture":"福井県","prefecture_kana":"フクイケン","city":"敦賀市","city_kana":"ツルガシ","town":"浦底","town_kana":"ウラソコ","prefecture_code":18},"0825":{"zip_code":"9140825","prefecture":"福井県","prefecture_kana":"フクイケン","city":"敦賀市","city_kana":"ツルガシ","town":"永大町","town_kana":"エイダイチョウ","prefecture_code":18},"0268":{"zip_code":"9140268","prefecture":"福井県","prefecture_kana":"フクイケン","city":"敦賀市","city_kana":"ツルガシ","town":"江良","town_kana":"エラ","prefecture_code":18},"0303":{"zip_code":"9140303","prefecture":"福井県","prefecture_kana":"フクイケン","city":"敦賀市","city_kana":"ツルガシ","town":"追分","town_kana":"オイワケ","prefecture_code":18},"0018":{"zip_code":"9140018","prefecture":"福井県","prefecture_kana":"フクイケン","city":"敦賀市","city_kana":"ツルガシ","town":"大蔵","town_kana":"オオクラ","prefecture_code":18},"0262":{"zip_code":"9140262","prefecture":"福井県","prefecture_kana":"フクイケン","city":"敦賀市","city_kana":"ツルガシ","town":"大比田","town_kana":"オオヒダ","prefecture_code":18},"0044":{"zip_code":"9140044","prefecture":"福井県","prefecture_kana":"フクイケン","city":"敦賀市","city_kana":"ツルガシ","town":"岡山町","town_kana":"オカヤマチョウ","prefecture_code":18},"0316":{"zip_code":"9140316","prefecture":"福井県","prefecture_kana":"フクイケン","city":"敦賀市","city_kana":"ツルガシ","town":"奥麻生","town_kana":"オクアソウ","prefecture_code":18},"0311":{"zip_code":"9140311","prefecture":"福井県","prefecture_kana":"フクイケン","city":"敦賀市","city_kana":"ツルガシ","town":"奥野","town_kana":"オクノ","prefecture_code":18},"0032":{"zip_code":"9140032","prefecture":"福井県","prefecture_kana":"フクイケン","city":"敦賀市","city_kana":"ツルガシ","town":"小河","town_kana":"オゴ","prefecture_code":18},"0034":{"zip_code":"9140034","prefecture":"福井県","prefecture_kana":"フクイケン","city":"敦賀市","city_kana":"ツルガシ","town":"小河口","town_kana":"オゴグチ","prefecture_code":18},"0006":{"zip_code":"9140006","prefecture":"福井県","prefecture_kana":"フクイケン","city":"敦賀市","city_kana":"ツルガシ","town":"越坂","town_kana":"オッサカ","prefecture_code":18},"0063":{"zip_code":"9140063","prefecture":"福井県","prefecture_kana":"フクイケン","city":"敦賀市","city_kana":"ツルガシ","town":"神楽町","town_kana":"カグラチョウ","prefecture_code":18},"0005":{"zip_code":"9140005","prefecture":"福井県","prefecture_kana":"フクイケン","city":"敦賀市","city_kana":"ツルガシ","town":"樫曲","town_kana":"カシマガリ","prefecture_code":18},"0146":{"zip_code":"9140146","prefecture":"福井県","prefecture_kana":"フクイケン","city":"敦賀市","city_kana":"ツルガシ","town":"金山","town_kana":"カナヤマ","prefecture_code":18},"0055":{"zip_code":"9140055","prefecture":"福井県","prefecture_kana":"フクイケン","city":"敦賀市","city_kana":"ツルガシ","town":"鉄輪町","town_kana":"カナワチョウ","prefecture_code":18},"0072":{"zip_code":"9140072","prefecture":"福井県","prefecture_kana":"フクイケン","city":"敦賀市","city_kana":"ツルガシ","town":"金ケ崎町","town_kana":"カネガサキチョウ","prefecture_code":18},"0066":{"zip_code":"9140066","prefecture":"福井県","prefecture_kana":"フクイケン","city":"敦賀市","city_kana":"ツルガシ","town":"川崎町","town_kana":"カワサキチョウ","prefecture_code":18},"0012":{"zip_code":"9140012","prefecture":"福井県","prefecture_kana":"フクイケン","city":"敦賀市","city_kana":"ツルガシ","town":"川北","town_kana":"カワキタ","prefecture_code":18},"0015":{"zip_code":"9140015","prefecture":"福井県","prefecture_kana":"フクイケン","city":"敦賀市","city_kana":"ツルガシ","town":"河原町","town_kana":"カワハラチョウ","prefecture_code":18},"0039":[{"zip_code":"9140039","prefecture":"福井県","prefecture_kana":"フクイケン","city":"敦賀市","city_kana":"ツルガシ","town":"観音町","town_kana":"カンノンチョウ","prefecture_code":18},{"zip_code":"9140039","prefecture":"福井県","prefecture_kana":"フクイケン","city":"敦賀市","city_kana":"ツルガシ","town":"羽織町","town_kana":"ハオリチョウ","prefecture_code":18}],"0814":{"zip_code":"9140814","prefecture":"福井県","prefecture_kana":"フクイケン","city":"敦賀市","city_kana":"ツルガシ","town":"木崎","town_kana":"キザキ","prefecture_code":18},"0043":{"zip_code":"9140043","prefecture":"福井県","prefecture_kana":"フクイケン","city":"敦賀市","city_kana":"ツルガシ","town":"衣掛町","town_kana":"キヌカケチョウ","prefecture_code":18},"0026":{"zip_code":"9140026","prefecture":"福井県","prefecture_kana":"フクイケン","city":"敦賀市","city_kana":"ツルガシ","town":"木ノ芽町","town_kana":"キノメチョウ","prefecture_code":18},"0052":{"zip_code":"9140052","prefecture":"福井県","prefecture_kana":"フクイケン","city":"敦賀市","city_kana":"ツルガシ","town":"清水町","town_kana":"キヨミズチョウ","prefecture_code":18},"0821":{"zip_code":"9140821","prefecture":"福井県","prefecture_kana":"フクイケン","city":"敦賀市","city_kana":"ツルガシ","town":"櫛川","town_kana":"クシカワ","prefecture_code":18},"0822":{"zip_code":"9140822","prefecture":"福井県","prefecture_kana":"フクイケン","city":"敦賀市","city_kana":"ツルガシ","town":"櫛川町","town_kana":"クシカワチョウ","prefecture_code":18},"0138":{"zip_code":"9140138","prefecture":"福井県","prefecture_kana":"フクイケン","city":"敦賀市","city_kana":"ツルガシ","town":"櫛林","town_kana":"クシバヤシ","prefecture_code":18},"0831":{"zip_code":"9140831","prefecture":"福井県","prefecture_kana":"フクイケン","city":"敦賀市","city_kana":"ツルガシ","town":"沓","town_kana":"クツ","prefecture_code":18},"0823":{"zip_code":"9140823","prefecture":"福井県","prefecture_kana":"フクイケン","city":"敦賀市","city_kana":"ツルガシ","town":"沓見","town_kana":"クツミ","prefecture_code":18},"0059":{"zip_code":"9140059","prefecture":"福井県","prefecture_kana":"フクイケン","city":"敦賀市","city_kana":"ツルガシ","town":"国広町","town_kana":"クニヒロチョウ","prefecture_code":18},"0131":{"zip_code":"9140131","prefecture":"福井県","prefecture_kana":"フクイケン","city":"敦賀市","city_kana":"ツルガシ","town":"公文名","town_kana":"クモンミョウ","prefecture_code":18},"0802":{"zip_code":"9140802","prefecture":"福井県","prefecture_kana":"フクイケン","city":"敦賀市","city_kana":"ツルガシ","town":"呉竹町","town_kana":"クレタケチョウ","prefecture_code":18},"0813":{"zip_code":"9140813","prefecture":"福井県","prefecture_kana":"フクイケン","city":"敦賀市","city_kana":"ツルガシ","town":"呉羽町","town_kana":"クレハチョウ","prefecture_code":18},"0045":{"zip_code":"9140045","prefecture":"福井県","prefecture_kana":"フクイケン","city":"敦賀市","city_kana":"ツルガシ","town":"古田刈","town_kana":"コタカリ","prefecture_code":18},"0132":{"zip_code":"9140132","prefecture":"福井県","prefecture_kana":"フクイケン","city":"敦賀市","city_kana":"ツルガシ","town":"御名","town_kana":"ゴミョウ","prefecture_code":18},"0077":{"zip_code":"9140077","prefecture":"福井県","prefecture_kana":"フクイケン","city":"敦賀市","city_kana":"ツルガシ","town":"栄新町","town_kana":"サカエシンマチ","prefecture_code":18},"0038":{"zip_code":"9140038","prefecture":"福井県","prefecture_kana":"フクイケン","city":"敦賀市","city_kana":"ツルガシ","town":"坂下","town_kana":"サカノシタ","prefecture_code":18},"0144":{"zip_code":"9140144","prefecture":"福井県","prefecture_kana":"フクイケン","city":"敦賀市","city_kana":"ツルガシ","town":"桜ケ丘町","town_kana":"サクラガオカチョウ","prefecture_code":18},"0078":{"zip_code":"9140078","prefecture":"福井県","prefecture_kana":"フクイケン","city":"敦賀市","city_kana":"ツルガシ","town":"桜町","town_kana":"サクラチョウ","prefecture_code":18},"0143":{"zip_code":"9140143","prefecture":"福井県","prefecture_kana":"フクイケン","city":"敦賀市","city_kana":"ツルガシ","town":"沢","town_kana":"サワ","prefecture_code":18},"0071":{"zip_code":"9140071","prefecture":"福井県","prefecture_kana":"フクイケン","city":"敦賀市","city_kana":"ツルガシ","town":"泉","town_kana":"シミズ","prefecture_code":18},"0271":{"zip_code":"9140271","prefecture":"福井県","prefecture_kana":"フクイケン","city":"敦賀市","city_kana":"ツルガシ","town":"泉東浦","town_kana":"シミズヒガシウラ","prefecture_code":18},"0832":{"zip_code":"9140832","prefecture":"福井県","prefecture_kana":"フクイケン","city":"敦賀市","city_kana":"ツルガシ","town":"常宮","town_kana":"ジョウグウ","prefecture_code":18},"0812":{"zip_code":"9140812","prefecture":"福井県","prefecture_kana":"フクイケン","city":"敦賀市","city_kana":"ツルガシ","town":"昭和町","town_kana":"ショウワチョウ","prefecture_code":18},"0054":{"zip_code":"9140054","prefecture":"福井県","prefecture_kana":"フクイケン","city":"敦賀市","city_kana":"ツルガシ","town":"白銀町","town_kana":"シロガネチョウ","prefecture_code":18},"0317":{"zip_code":"9140317","prefecture":"福井県","prefecture_kana":"フクイケン","city":"敦賀市","city_kana":"ツルガシ","town":"新道","town_kana":"シンドウ","prefecture_code":18},"0001":{"zip_code":"9140001","prefecture":"福井県","prefecture_kana":"フクイケン","city":"敦賀市","city_kana":"ツルガシ","town":"新保","town_kana":"シンボ","prefecture_code":18},"0803":{"zip_code":"9140803","prefecture":"福井県","prefecture_kana":"フクイケン","city":"敦賀市","city_kana":"ツルガシ","town":"新松島町","town_kana":"シンマツシマチョウ","prefecture_code":18},"0122":{"zip_code":"9140122","prefecture":"福井県","prefecture_kana":"フクイケン","city":"敦賀市","city_kana":"ツルガシ","town":"新和町","town_kana":"シンワチョウ","prefecture_code":18},"0264":{"zip_code":"9140264","prefecture":"福井県","prefecture_kana":"フクイケン","city":"敦賀市","city_kana":"ツルガシ","town":"杉津","town_kana":"スイヅ","prefecture_code":18},"0314":{"zip_code":"9140314","prefecture":"福井県","prefecture_kana":"フクイケン","city":"敦賀市","city_kana":"ツルガシ","town":"杉箸","town_kana":"スギハシ","prefecture_code":18},"0136":{"zip_code":"9140136","prefecture":"福井県","prefecture_kana":"フクイケン","city":"敦賀市","city_kana":"ツルガシ","town":"砂流","town_kana":"スナガレ","prefecture_code":18},"0147":{"zip_code":"9140147","prefecture":"福井県","prefecture_kana":"フクイケン","city":"敦賀市","city_kana":"ツルガシ","town":"関","town_kana":"セキ","prefecture_code":18},"0312":{"zip_code":"9140312","prefecture":"福井県","prefecture_kana":"フクイケン","city":"敦賀市","city_kana":"ツルガシ","town":"曽々木","town_kana":"ソソギ","prefecture_code":18},"0273":{"zip_code":"9140273","prefecture":"福井県","prefecture_kana":"フクイケン","city":"敦賀市","city_kana":"ツルガシ","town":"田結","town_kana":"タイ","prefecture_code":18},"0022":{"zip_code":"9140022","prefecture":"福井県","prefecture_kana":"フクイケン","city":"敦賀市","city_kana":"ツルガシ","town":"高野","town_kana":"タカノ","prefecture_code":18},"0305":{"zip_code":"9140305","prefecture":"福井県","prefecture_kana":"フクイケン","city":"敦賀市","city_kana":"ツルガシ","town":"駄口","town_kana":"ダグチ","prefecture_code":18},"0007":{"zip_code":"9140007","prefecture":"福井県","prefecture_kana":"フクイケン","city":"敦賀市","city_kana":"ツルガシ","town":"田尻","town_kana":"タジリ","prefecture_code":18},"0841":{"zip_code":"9140841","prefecture":"福井県","prefecture_kana":"フクイケン","city":"敦賀市","city_kana":"ツルガシ","town":"立石","town_kana":"タテイシ","prefecture_code":18},"0031":{"zip_code":"9140031","prefecture":"福井県","prefecture_kana":"フクイケン","city":"敦賀市","city_kana":"ツルガシ","town":"谷","town_kana":"タニ","prefecture_code":18},"0013":{"zip_code":"9140013","prefecture":"福井県","prefecture_kana":"フクイケン","city":"敦賀市","city_kana":"ツルガシ","town":"谷口","town_kana":"タニグチ","prefecture_code":18},"0811":{"zip_code":"9140811","prefecture":"福井県","prefecture_kana":"フクイケン","city":"敦賀市","city_kana":"ツルガシ","town":"中央町","town_kana":"チュウオウチョウ","prefecture_code":18},"0056":{"zip_code":"9140056","prefecture":"福井県","prefecture_kana":"フクイケン","city":"敦賀市","city_kana":"ツルガシ","town":"津内町","town_kana":"ツナイチョウ","prefecture_code":18},"0074":{"zip_code":"9140074","prefecture":"福井県","prefecture_kana":"フクイケン","city":"敦賀市","city_kana":"ツルガシ","town":"角鹿町","town_kana":"ツノガチョウ","prefecture_code":18},"0845":{"zip_code":"9140845","prefecture":"福井県","prefecture_kana":"フクイケン","city":"敦賀市","city_kana":"ツルガシ","town":"手","town_kana":"テ","prefecture_code":18},"0073":{"zip_code":"9140073","prefecture":"福井県","prefecture_kana":"フクイケン","city":"敦賀市","city_kana":"ツルガシ","town":"天筒町","town_kana":"テヅツチョウ","prefecture_code":18},"0036":{"zip_code":"9140036","prefecture":"福井県","prefecture_kana":"フクイケン","city":"敦賀市","city_kana":"ツルガシ","town":"堂","town_kana":"ドウ","prefecture_code":18},"0047":{"zip_code":"9140047","prefecture":"福井県","prefecture_kana":"フクイケン","city":"敦賀市","city_kana":"ツルガシ","town":"東洋町","town_kana":"トウヨウチョウ","prefecture_code":18},"0313":{"zip_code":"9140313","prefecture":"福井県","prefecture_kana":"フクイケン","city":"敦賀市","city_kana":"ツルガシ","town":"刀根","town_kana":"トネ","prefecture_code":18},"0028":{"zip_code":"9140028","prefecture":"福井県","prefecture_kana":"フクイケン","city":"敦賀市","city_kana":"ツルガシ","town":"中","town_kana":"ナカ","prefecture_code":18},"0046":{"zip_code":"9140046","prefecture":"福井県","prefecture_kana":"フクイケン","city":"敦賀市","city_kana":"ツルガシ","town":"長沢","town_kana":"ナガソ","prefecture_code":18},"0135":{"zip_code":"9140135","prefecture":"福井県","prefecture_kana":"フクイケン","city":"敦賀市","city_kana":"ツルガシ","town":"長谷","town_kana":"ナガタニ","prefecture_code":18},"0834":{"zip_code":"9140834","prefecture":"福井県","prefecture_kana":"フクイケン","city":"敦賀市","city_kana":"ツルガシ","town":"名子","town_kana":"ナゴ","prefecture_code":18},"0041":{"zip_code":"9140041","prefecture":"福井県","prefecture_kana":"フクイケン","city":"敦賀市","city_kana":"ツルガシ","town":"布田町","town_kana":"ヌノダチョウ","prefecture_code":18},"0833":{"zip_code":"9140833","prefecture":"福井県","prefecture_kana":"フクイケン","city":"敦賀市","city_kana":"ツルガシ","town":"縄間","town_kana":"ノウマ","prefecture_code":18},"0121":{"zip_code":"9140121","prefecture":"福井県","prefecture_kana":"フクイケン","city":"敦賀市","city_kana":"ツルガシ","town":"野神","town_kana":"ノガミ","prefecture_code":18},"0145":{"zip_code":"9140145","prefecture":"福井県","prefecture_kana":"フクイケン","city":"敦賀市","city_kana":"ツルガシ","town":"野坂","town_kana":"ノサカ","prefecture_code":18},"0142":{"zip_code":"9140142","prefecture":"福井県","prefecture_kana":"フクイケン","city":"敦賀市","city_kana":"ツルガシ","town":"萩野町","town_kana":"ハギノチョウ","prefecture_code":18},"0033":{"zip_code":"9140033","prefecture":"福井県","prefecture_kana":"フクイケン","city":"敦賀市","city_kana":"ツルガシ","town":"鳩原","town_kana":"ハトハラ","prefecture_code":18},"0002":{"zip_code":"9140002","prefecture":"福井県","prefecture_kana":"フクイケン","city":"敦賀市","city_kana":"ツルガシ","town":"葉原","town_kana":"ハバラ","prefecture_code":18},"0824":{"zip_code":"9140824","prefecture":"福井県","prefecture_kana":"フクイケン","city":"敦賀市","city_kana":"ツルガシ","town":"原","town_kana":"ハラ","prefecture_code":18},"0302":{"zip_code":"9140302","prefecture":"福井県","prefecture_kana":"フクイケン","city":"敦賀市","city_kana":"ツルガシ","town":"疋田","town_kana":"ヒキダ","prefecture_code":18},"0025":{"zip_code":"9140025","prefecture":"福井県","prefecture_kana":"フクイケン","city":"敦賀市","city_kana":"ツルガシ","town":"樋ノ水町","town_kana":"ヒノミズチョウ","prefecture_code":18},"0137":{"zip_code":"9140137","prefecture":"福井県","prefecture_kana":"フクイケン","city":"敦賀市","city_kana":"ツルガシ","town":"ひばりケ丘町","town_kana":"ヒバリガオカチョウ","prefecture_code":18},"0057":{"zip_code":"9140057","prefecture":"福井県","prefecture_kana":"フクイケン","city":"敦賀市","city_kana":"ツルガシ","town":"開町","town_kana":"ヒラキチョウ","prefecture_code":18},"0023":{"zip_code":"9140023","prefecture":"福井県","prefecture_kana":"フクイケン","city":"敦賀市","city_kana":"ツルガシ","town":"深川町","town_kana":"フカガワチョウ","prefecture_code":18},"0304":{"zip_code":"9140304","prefecture":"福井県","prefecture_kana":"フクイケン","city":"敦賀市","city_kana":"ツルガシ","town":"深坂","town_kana":"フカサカ","prefecture_code":18},"0017":{"zip_code":"9140017","prefecture":"福井県","prefecture_kana":"フクイケン","city":"敦賀市","city_kana":"ツルガシ","town":"藤ケ丘町","town_kana":"フジガオカチョウ","prefecture_code":18},"0835":{"zip_code":"9140835","prefecture":"福井県","prefecture_kana":"フクイケン","city":"敦賀市","city_kana":"ツルガシ","town":"二村","town_kana":"フタムラ","prefecture_code":18},"0815":{"zip_code":"9140815","prefecture":"福井県","prefecture_kana":"フクイケン","city":"敦賀市","city_kana":"ツルガシ","town":"平和町","town_kana":"ヘイワチョウ","prefecture_code":18},"0061":{"zip_code":"9140061","prefecture":"福井県","prefecture_kana":"フクイケン","city":"敦賀市","city_kana":"ツルガシ","town":"蓬莱町","town_kana":"ホウライチョウ","prefecture_code":18},"0051":{"zip_code":"9140051","prefecture":"福井県","prefecture_kana":"フクイケン","city":"敦賀市","city_kana":"ツルガシ","town":"本町","town_kana":"ホンマチ","prefecture_code":18},"0053":{"zip_code":"9140053","prefecture":"福井県","prefecture_kana":"フクイケン","city":"敦賀市","city_kana":"ツルガシ","town":"舞崎町","town_kana":"マイザキチョウ","prefecture_code":18},"0065":{"zip_code":"9140065","prefecture":"福井県","prefecture_kana":"フクイケン","city":"敦賀市","city_kana":"ツルガシ","town":"松栄町","town_kana":"マツエチョウ","prefecture_code":18},"0801":{"zip_code":"9140801","prefecture":"福井県","prefecture_kana":"フクイケン","city":"敦賀市","city_kana":"ツルガシ","town":"松島町","town_kana":"マツシマチョウ","prefecture_code":18},"0807":{"zip_code":"9140807","prefecture":"福井県","prefecture_kana":"フクイケン","city":"敦賀市","city_kana":"ツルガシ","town":"松葉町","town_kana":"マツバチョウ","prefecture_code":18},"0806":{"zip_code":"9140806","prefecture":"福井県","prefecture_kana":"フクイケン","city":"敦賀市","city_kana":"ツルガシ","town":"松原町","town_kana":"マツバラチョウ","prefecture_code":18},"0274":{"zip_code":"9140274","prefecture":"福井県","prefecture_kana":"フクイケン","city":"敦賀市","city_kana":"ツルガシ","town":"鞠山","town_kana":"マルヤマ","prefecture_code":18},"0058":{"zip_code":"9140058","prefecture":"福井県","prefecture_kana":"フクイケン","city":"敦賀市","city_kana":"ツルガシ","town":"三島町","town_kana":"ミシマチョウ","prefecture_code":18},"0037":{"zip_code":"9140037","prefecture":"福井県","prefecture_kana":"フクイケン","city":"敦賀市","city_kana":"ツルガシ","town":"道口","town_kana":"ミチノクチ","prefecture_code":18},"0133":{"zip_code":"9140133","prefecture":"福井県","prefecture_kana":"フクイケン","city":"敦賀市","city_kana":"ツルガシ","town":"みどりケ丘町","town_kana":"ミドリガオカチョウ","prefecture_code":18},"0079":{"zip_code":"9140079","prefecture":"福井県","prefecture_kana":"フクイケン","city":"敦賀市","city_kana":"ツルガシ","town":"港町","town_kana":"ミナトマチ","prefecture_code":18},"0011":{"zip_code":"9140011","prefecture":"福井県","prefecture_kana":"フクイケン","city":"敦賀市","city_kana":"ツルガシ","town":"深山寺","town_kana":"ミヤマデラ","prefecture_code":18},"0842":{"zip_code":"9140842","prefecture":"福井県","prefecture_kana":"フクイケン","city":"敦賀市","city_kana":"ツルガシ","town":"明神町","town_kana":"ミョウジンチョウ","prefecture_code":18},"0261":{"zip_code":"9140261","prefecture":"福井県","prefecture_kana":"フクイケン","city":"敦賀市","city_kana":"ツルガシ","town":"元比田","town_kana":"モトヒダ","prefecture_code":18},"0076":{"zip_code":"9140076","prefecture":"福井県","prefecture_kana":"フクイケン","city":"敦賀市","city_kana":"ツルガシ","town":"元町","town_kana":"モトマチ","prefecture_code":18},"0134":{"zip_code":"9140134","prefecture":"福井県","prefecture_kana":"フクイケン","city":"敦賀市","city_kana":"ツルガシ","town":"山","town_kana":"ヤマ","prefecture_code":18},"0035":{"zip_code":"9140035","prefecture":"福井県","prefecture_kana":"フクイケン","city":"敦賀市","city_kana":"ツルガシ","town":"山泉","town_kana":"ヤマシミズ","prefecture_code":18},"0306":{"zip_code":"9140306","prefecture":"福井県","prefecture_kana":"フクイケン","city":"敦賀市","city_kana":"ツルガシ","town":"山中","town_kana":"ヤマナカ","prefecture_code":18},"0064":{"zip_code":"9140064","prefecture":"福井県","prefecture_kana":"フクイケン","city":"敦賀市","city_kana":"ツルガシ","town":"結城町","town_kana":"ユウキチョウ","prefecture_code":18},"0263":{"zip_code":"9140263","prefecture":"福井県","prefecture_kana":"フクイケン","city":"敦賀市","city_kana":"ツルガシ","town":"横浜","town_kana":"ヨコハマ","prefecture_code":18},"0016":{"zip_code":"9140016","prefecture":"福井県","prefecture_kana":"フクイケン","city":"敦賀市","city_kana":"ツルガシ","town":"余座","town_kana":"ヨザ","prefecture_code":18},"0024":{"zip_code":"9140024","prefecture":"福井県","prefecture_kana":"フクイケン","city":"敦賀市","city_kana":"ツルガシ","town":"吉河","town_kana":"ヨシコ","prefecture_code":18},"0027":{"zip_code":"9140027","prefecture":"福井県","prefecture_kana":"フクイケン","city":"敦賀市","city_kana":"ツルガシ","town":"若泉町","town_kana":"ワカイズミチョウ","prefecture_code":18},"0125":{"zip_code":"9140125","prefecture":"福井県","prefecture_kana":"フクイケン","city":"敦賀市","city_kana":"ツルガシ","town":"若葉町","town_kana":"ワカバチョウ","prefecture_code":18},"0123":{"zip_code":"9140123","prefecture":"福井県","prefecture_kana":"フクイケン","city":"敦賀市","city_kana":"ツルガシ","town":"和久野","town_kana":"ワクノ","prefecture_code":18}}