{"0000":{"zip_code":"9150000","prefecture":"福井県","prefecture_kana":"フクイケン","city":"越前市","city_kana":"エチゼンシ","town":"以下に掲載がない場合","town_kana":"イカニケイサイガナイバアイ","prefecture_code":18},"0202":{"zip_code":"9150202","prefecture":"福井県","prefecture_kana":"フクイケン","city":"越前市","city_kana":"エチゼンシ","town":"相木町","town_kana":"アイノキチョウ","prefecture_code":18},"0064":{"zip_code":"9150064","prefecture":"福井県","prefecture_kana":"フクイケン","city":"越前市","city_kana":"エチゼンシ","town":"あおば町","town_kana":"アオバチョウ","prefecture_code":18},"0256":{"zip_code":"9150256","prefecture":"福井県","prefecture_kana":"フクイケン","city":"越前市","city_kana":"エチゼンシ","town":"赤坂町","town_kana":"アカサカチョウ","prefecture_code":18},"0214":{"zip_code":"9150214","prefecture":"福井県","prefecture_kana":"フクイケン","city":"越前市","city_kana":"エチゼンシ","town":"赤谷町","town_kana":"アカタニチョウ","prefecture_code":18},"0025":{"zip_code":"9150025","prefecture":"福井県","prefecture_kana":"フクイケン","city":"越前市","city_kana":"エチゼンシ","town":"味真野町","town_kana":"アジマノチョウ","prefecture_code":18},"0069":{"zip_code":"9150069","prefecture":"福井県","prefecture_kana":"フクイケン","city":"越前市","city_kana":"エチゼンシ","town":"吾妻町","town_kana":"アヅマチョウ","prefecture_code":18},"0045":{"zip_code":"9150045","prefecture":"福井県","prefecture_kana":"フクイケン","city":"越前市","city_kana":"エチゼンシ","town":"荒谷町","town_kana":"アラタニチョウ","prefecture_code":18},"0242":{"zip_code":"9150242","prefecture":"福井県","prefecture_kana":"フクイケン","city":"越前市","city_kana":"エチゼンシ","town":"粟田部町","town_kana":"アワタベチョウ","prefecture_code":18},"0241":{"zip_code":"9150241","prefecture":"福井県","prefecture_kana":"フクイケン","city":"越前市","city_kana":"エチゼンシ","town":"粟田部町中央","town_kana":"アワタベチョウチュウオウ","prefecture_code":18},"1242":{"zip_code":"9151242","prefecture":"福井県","prefecture_kana":"フクイケン","city":"越前市","city_kana":"エチゼンシ","town":"粟野町","town_kana":"アワノチョウ","prefecture_code":18},"1201":{"zip_code":"9151201","prefecture":"福井県","prefecture_kana":"フクイケン","city":"越前市","city_kana":"エチゼンシ","town":"安養寺町","town_kana":"アンヨウジチョウ","prefecture_code":18},"0801":{"zip_code":"9150801","prefecture":"福井県","prefecture_kana":"フクイケン","city":"越前市","city_kana":"エチゼンシ","town":"家久町","town_kana":"イエヒサチョウ","prefecture_code":18},"0023":{"zip_code":"9150023","prefecture":"福井県","prefecture_kana":"フクイケン","city":"越前市","city_kana":"エチゼンシ","town":"池泉町","town_kana":"イケイズミチョウ","prefecture_code":18},"0873":{"zip_code":"9150873","prefecture":"福井県","prefecture_kana":"フクイケン","city":"越前市","city_kana":"エチゼンシ","town":"池ノ上町","town_kana":"イケノカミチョウ","prefecture_code":18},"0216":{"zip_code":"9150216","prefecture":"福井県","prefecture_kana":"フクイケン","city":"越前市","city_kana":"エチゼンシ","town":"市野々町","town_kana":"イチノノチョウ","prefecture_code":18},"0095":{"zip_code":"9150095","prefecture":"福井県","prefecture_kana":"フクイケン","city":"越前市","city_kana":"エチゼンシ","town":"稲寄町","town_kana":"イナヨセチョウ","prefecture_code":18},"0861":{"zip_code":"9150861","prefecture":"福井県","prefecture_kana":"フクイケン","city":"越前市","city_kana":"エチゼンシ","town":"今宿町","town_kana":"イマジュクチョウ","prefecture_code":18},"0035":{"zip_code":"9150035","prefecture":"福井県","prefecture_kana":"フクイケン","city":"越前市","city_kana":"エチゼンシ","town":"入谷町","town_kana":"イリタニチョウ","prefecture_code":18},"0016":{"zip_code":"9150016","prefecture":"福井県","prefecture_kana":"フクイケン","city":"越前市","city_kana":"エチゼンシ","town":"岩内町","town_kana":"イワウチチョウ","prefecture_code":18},"0233":{"zip_code":"9150233","prefecture":"福井県","prefecture_kana":"フクイケン","city":"越前市","city_kana":"エチゼンシ","town":"岩本町","town_kana":"イワモトチョウ","prefecture_code":18},"0096":{"zip_code":"9150096","prefecture":"福井県","prefecture_kana":"フクイケン","city":"越前市","city_kana":"エチゼンシ","town":"瓜生町","town_kana":"ウリュウチョウ","prefecture_code":18},"0865":[{"zip_code":"9150865","prefecture":"福井県","prefecture_kana":"フクイケン","city":"越前市","city_kana":"エチゼンシ","town":"瓜生野町","town_kana":"ウリュウノチョウ","prefecture_code":18},{"zip_code":"9150865","prefecture":"福井県","prefecture_kana":"フクイケン","city":"越前市","city_kana":"エチゼンシ","town":"森久町","town_kana":"モリヒサチョウ","prefecture_code":18}],"0235":{"zip_code":"9150235","prefecture":"福井県","prefecture_kana":"フクイケン","city":"越前市","city_kana":"エチゼンシ","town":"不老町","town_kana":"オイズチョウ","prefecture_code":18},"0863":{"zip_code":"9150863","prefecture":"福井県","prefecture_kana":"フクイケン","city":"越前市","city_kana":"エチゼンシ","town":"大塩町","town_kana":"オオシオチョウ","prefecture_code":18},"0234":{"zip_code":"9150234","prefecture":"福井県","prefecture_kana":"フクイケン","city":"越前市","city_kana":"エチゼンシ","town":"大滝町","town_kana":"オオタキチョウ","prefecture_code":18},"0218":{"zip_code":"9150218","prefecture":"福井県","prefecture_kana":"フクイケン","city":"越前市","city_kana":"エチゼンシ","town":"大谷町","town_kana":"オオタニチョウ","prefecture_code":18},"0015":{"zip_code":"9150015","prefecture":"福井県","prefecture_kana":"フクイケン","city":"越前市","city_kana":"エチゼンシ","town":"大手町","town_kana":"オオデチョウ","prefecture_code":18},"0228":{"zip_code":"9150228","prefecture":"福井県","prefecture_kana":"フクイケン","city":"越前市","city_kana":"エチゼンシ","town":"大平町","town_kana":"オオヒラチョウ","prefecture_code":18},"0885":{"zip_code":"9150885","prefecture":"福井県","prefecture_kana":"フクイケン","city":"越前市","city_kana":"エチゼンシ","town":"大虫町","town_kana":"オオムシチョウ","prefecture_code":18},"0884":{"zip_code":"9150884","prefecture":"福井県","prefecture_kana":"フクイケン","city":"越前市","city_kana":"エチゼンシ","town":"大虫本町","town_kana":"オオムシホンチョウ","prefecture_code":18},"0042":{"zip_code":"9150042","prefecture":"福井県","prefecture_kana":"フクイケン","city":"越前市","city_kana":"エチゼンシ","town":"大屋町","town_kana":"オオヤチョウ","prefecture_code":18},"0835":{"zip_code":"9150835","prefecture":"福井県","prefecture_kana":"フクイケン","city":"越前市","city_kana":"エチゼンシ","town":"岡本町","town_kana":"オカモトチョウ","prefecture_code":18},"0083":{"zip_code":"9150083","prefecture":"福井県","prefecture_kana":"フクイケン","city":"越前市","city_kana":"エチゼンシ","town":"押田","town_kana":"オシダ","prefecture_code":18},"0054":{"zip_code":"9150054","prefecture":"福井県","prefecture_kana":"フクイケン","city":"越前市","city_kana":"エチゼンシ","town":"小野谷町","town_kana":"オノダニチョウ","prefecture_code":18},"0877":{"zip_code":"9150877","prefecture":"福井県","prefecture_kana":"フクイケン","city":"越前市","city_kana":"エチゼンシ","town":"春日野町","town_kana":"カスガノチョウ","prefecture_code":18},"0893":{"zip_code":"9150893","prefecture":"福井県","prefecture_kana":"フクイケン","city":"越前市","city_kana":"エチゼンシ","town":"片屋町","town_kana":"カタヤチョウ","prefecture_code":18},"0812":{"zip_code":"9150812","prefecture":"福井県","prefecture_kana":"フクイケン","city":"越前市","city_kana":"エチゼンシ","town":"桂町","town_kana":"カツラチョウ","prefecture_code":18},"0011":[{"zip_code":"9150011","prefecture":"福井県","prefecture_kana":"フクイケン","city":"越前市","city_kana":"エチゼンシ","town":"金屋町","town_kana":"カナヤチョウ","prefecture_code":18},{"zip_code":"9150011","prefecture":"福井県","prefecture_kana":"フクイケン","city":"越前市","city_kana":"エチゼンシ","town":"上真柄町","town_kana":"カミマカラチョウ","prefecture_code":18}],"0882":{"zip_code":"9150882","prefecture":"福井県","prefecture_kana":"フクイケン","city":"越前市","city_kana":"エチゼンシ","town":"上太田町","town_kana":"カミオオダチョウ","prefecture_code":18},"0024":{"zip_code":"9150024","prefecture":"福井県","prefecture_kana":"フクイケン","city":"越前市","city_kana":"エチゼンシ","town":"上大坪町","town_kana":"カミオオツボチョウ","prefecture_code":18},"0864":{"zip_code":"9150864","prefecture":"福井県","prefecture_kana":"フクイケン","city":"越前市","city_kana":"エチゼンシ","town":"上小松町","town_kana":"カミコマツチョウ","prefecture_code":18},"0886":{"zip_code":"9150886","prefecture":"福井県","prefecture_kana":"フクイケン","city":"越前市","city_kana":"エチゼンシ","town":"上四目町","town_kana":"カミシメチョウ","prefecture_code":18},"1203":{"zip_code":"9151203","prefecture":"福井県","prefecture_kana":"フクイケン","city":"越前市","city_kana":"エチゼンシ","town":"上杉本町","town_kana":"カミスギモトチョウ","prefecture_code":18},"0013":[{"zip_code":"9150013","prefecture":"福井県","prefecture_kana":"フクイケン","city":"越前市","city_kana":"エチゼンシ","town":"上真柄宮谷入会地","town_kana":"カミマカラミヤダニイリアイチ","prefecture_code":18},{"zip_code":"9150013","prefecture":"福井県","prefecture_kana":"フクイケン","city":"越前市","city_kana":"エチゼンシ","town":"宮谷町","town_kana":"ミヤダニチョウ","prefecture_code":18}],"0037":{"zip_code":"9150037","prefecture":"福井県","prefecture_kana":"フクイケン","city":"越前市","city_kana":"エチゼンシ","town":"萱谷町","town_kana":"カヤダニチョウ","prefecture_code":18},"0021":{"zip_code":"9150021","prefecture":"福井県","prefecture_kana":"フクイケン","city":"越前市","city_kana":"エチゼンシ","town":"北小山町","town_kana":"キタオヤマチョウ","prefecture_code":18},"0802":[{"zip_code":"9150802","prefecture":"福井県","prefecture_kana":"フクイケン","city":"越前市","city_kana":"エチゼンシ","town":"北府","town_kana":"キタゴ","prefecture_code":18},{"zip_code":"9150802","prefecture":"福井県","prefecture_kana":"フクイケン","city":"越前市","city_kana":"エチゼンシ","town":"北府本町","town_kana":"キタゴホンマチ","prefecture_code":18}],"0219":[{"zip_code":"9150219","prefecture":"福井県","prefecture_kana":"フクイケン","city":"越前市","city_kana":"エチゼンシ","town":"北坂下町","town_kana":"キタサカシタチョウ","prefecture_code":18},{"zip_code":"9150219","prefecture":"福井県","prefecture_kana":"フクイケン","city":"越前市","city_kana":"エチゼンシ","town":"殿町","town_kana":"トノチョウ","prefecture_code":18}],"0834":{"zip_code":"9150834","prefecture":"福井県","prefecture_kana":"フクイケン","city":"越前市","city_kana":"エチゼンシ","town":"北千福町","town_kana":"キタセンプクチョウ","prefecture_code":18},"0004":{"zip_code":"9150004","prefecture":"福井県","prefecture_kana":"フクイケン","city":"越前市","city_kana":"エチゼンシ","town":"北町","town_kana":"キタチョウ","prefecture_code":18},"0897":{"zip_code":"9150897","prefecture":"福井県","prefecture_kana":"フクイケン","city":"越前市","city_kana":"エチゼンシ","town":"北山町","town_kana":"キタヤマチョウ","prefecture_code":18},"0813":{"zip_code":"9150813","prefecture":"福井県","prefecture_kana":"フクイケン","city":"越前市","city_kana":"エチゼンシ","town":"京町","town_kana":"キョウマチ","prefecture_code":18},"0203":[{"zip_code":"9150203","prefecture":"福井県","prefecture_kana":"フクイケン","city":"越前市","city_kana":"エチゼンシ","town":"清根町","town_kana":"キヨネチョウ","prefecture_code":18},{"zip_code":"9150203","prefecture":"福井県","prefecture_kana":"フクイケン","city":"越前市","city_kana":"エチゼンシ","town":"横住町","town_kana":"ヨコズミチョウ","prefecture_code":18}],"0041":{"zip_code":"9150041","prefecture":"福井県","prefecture_kana":"フクイケン","city":"越前市","city_kana":"エチゼンシ","town":"葛岡町","town_kana":"クズオカチョウ","prefecture_code":18},"0261":{"zip_code":"9150261","prefecture":"福井県","prefecture_kana":"フクイケン","city":"越前市","city_kana":"エチゼンシ","town":"朽飯町","town_kana":"クダシチョウ","prefecture_code":18},"0862":{"zip_code":"9150862","prefecture":"福井県","prefecture_kana":"フクイケン","city":"越前市","city_kana":"エチゼンシ","town":"国兼町","town_kana":"クニカネチョウ","prefecture_code":18},"0082":{"zip_code":"9150082","prefecture":"福井県","prefecture_kana":"フクイケン","city":"越前市","city_kana":"エチゼンシ","town":"国高","town_kana":"クニタカ","prefecture_code":18},"0254":{"zip_code":"9150254","prefecture":"福井県","prefecture_kana":"フクイケン","city":"越前市","city_kana":"エチゼンシ","town":"国中町","town_kana":"クニナカチョウ","prefecture_code":18},"1202":{"zip_code":"9151202","prefecture":"福井県","prefecture_kana":"フクイケン","city":"越前市","city_kana":"エチゼンシ","town":"黒川町","town_kana":"クロカワチョウ","prefecture_code":18},"1221":{"zip_code":"9151221","prefecture":"福井県","prefecture_kana":"フクイケン","city":"越前市","city_kana":"エチゼンシ","town":"勾当原町","town_kana":"コウトウガハラチョウ","prefecture_code":18},"0874":{"zip_code":"9150874","prefecture":"福井県","prefecture_kana":"フクイケン","city":"越前市","city_kana":"エチゼンシ","town":"向陽町","town_kana":"コウヨウチョウ","prefecture_code":18},"0076":{"zip_code":"9150076","prefecture":"福井県","prefecture_kana":"フクイケン","city":"越前市","city_kana":"エチゼンシ","town":"国府","town_kana":"コクフ","prefecture_code":18},"1243":{"zip_code":"9151243","prefecture":"福井県","prefecture_kana":"フクイケン","city":"越前市","city_kana":"エチゼンシ","town":"小杉町","town_kana":"コスギチョウ","prefecture_code":18},"1234":[{"zip_code":"9151234","prefecture":"福井県","prefecture_kana":"フクイケン","city":"越前市","city_kana":"エチゼンシ","town":"小谷町","town_kana":"コダニチョウ","prefecture_code":18},{"zip_code":"9151234","prefecture":"福井県","prefecture_kana":"フクイケン","city":"越前市","city_kana":"エチゼンシ","town":"土山町","town_kana":"ツチヤマチョウ","prefecture_code":18}],"1215":{"zip_code":"9151215","prefecture":"福井県","prefecture_kana":"フクイケン","city":"越前市","city_kana":"エチゼンシ","town":"小野町","town_kana":"コノチョウ","prefecture_code":18},"0026":{"zip_code":"9150026","prefecture":"福井県","prefecture_kana":"フクイケン","city":"越前市","city_kana":"エチゼンシ","town":"五分市町","town_kana":"ゴブイチチョウ","prefecture_code":18},"0816":{"zip_code":"9150816","prefecture":"福井県","prefecture_kana":"フクイケン","city":"越前市","city_kana":"エチゼンシ","town":"小松","town_kana":"コマツ","prefecture_code":18},"1212":[{"zip_code":"9151212","prefecture":"福井県","prefecture_kana":"フクイケン","city":"越前市","city_kana":"エチゼンシ","town":"米口町","town_kana":"コメグチチョウ","prefecture_code":18},{"zip_code":"9151212","prefecture":"福井県","prefecture_kana":"フクイケン","city":"越前市","city_kana":"エチゼンシ","town":"仏谷町","town_kana":"ホトケダニチョウ","prefecture_code":18}],"0075":{"zip_code":"9150075","prefecture":"福井県","prefecture_kana":"フクイケン","city":"越前市","city_kana":"エチゼンシ","town":"幸町","town_kana":"サイワイチョウ","prefecture_code":18},"0231":{"zip_code":"9150231","prefecture":"福井県","prefecture_kana":"フクイケン","city":"越前市","city_kana":"エチゼンシ","town":"定友町","town_kana":"サダトモチョウ","prefecture_code":18},"0833":{"zip_code":"9150833","prefecture":"福井県","prefecture_kana":"フクイケン","city":"越前市","city_kana":"エチゼンシ","town":"沢町","town_kana":"サワチョウ","prefecture_code":18},"0805":{"zip_code":"9150805","prefecture":"福井県","prefecture_kana":"フクイケン","city":"越前市","city_kana":"エチゼンシ","town":"芝原","town_kana":"シバハラ","prefecture_code":18},"0223":[{"zip_code":"9150223","prefecture":"福井県","prefecture_kana":"フクイケン","city":"越前市","city_kana":"エチゼンシ","town":"島町","town_kana":"シマチョウ","prefecture_code":18},{"zip_code":"9150223","prefecture":"福井県","prefecture_kana":"フクイケン","city":"越前市","city_kana":"エチゼンシ","town":"長五町","town_kana":"チョウゴチョウ","prefecture_code":18}],"0012":{"zip_code":"9150012","prefecture":"福井県","prefecture_kana":"フクイケン","city":"越前市","city_kana":"エチゼンシ","town":"清水頭町","town_kana":"シミズガシラチョウ","prefecture_code":18},"0881":{"zip_code":"9150881","prefecture":"福井県","prefecture_kana":"フクイケン","city":"越前市","city_kana":"エチゼンシ","town":"下太田町","town_kana":"シモオオダチョウ","prefecture_code":18},"0887":{"zip_code":"9150887","prefecture":"福井県","prefecture_kana":"フクイケン","city":"越前市","city_kana":"エチゼンシ","town":"下四目町","town_kana":"シモシメチョウ","prefecture_code":18},"1222":{"zip_code":"9151222","prefecture":"福井県","prefecture_kana":"フクイケン","city":"越前市","city_kana":"エチゼンシ","town":"下中津原町","town_kana":"シモナカツハラチョウ","prefecture_code":18},"0855":{"zip_code":"9150855","prefecture":"福井県","prefecture_kana":"フクイケン","city":"越前市","city_kana":"エチゼンシ","town":"下平吹町","town_kana":"シモヒラブキチョウ","prefecture_code":18},"1224":{"zip_code":"9151224","prefecture":"福井県","prefecture_kana":"フクイケン","city":"越前市","city_kana":"エチゼンシ","town":"下別所町","town_kana":"シモベッシヨチョウ","prefecture_code":18},"0093":{"zip_code":"9150093","prefecture":"福井県","prefecture_kana":"フクイケン","city":"越前市","city_kana":"エチゼンシ","town":"庄町","town_kana":"ショウチョウ","prefecture_code":18},"0043":{"zip_code":"9150043","prefecture":"福井県","prefecture_kana":"フクイケン","city":"越前市","city_kana":"エチゼンシ","town":"庄田町","town_kana":"ショウデンチョウ","prefecture_code":18},"1233":{"zip_code":"9151233","prefecture":"福井県","prefecture_kana":"フクイケン","city":"越前市","city_kana":"エチゼンシ","town":"菖蒲谷町","town_kana":"ショウブダニチョウ","prefecture_code":18},"1214":{"zip_code":"9151214","prefecture":"福井県","prefecture_kana":"フクイケン","city":"越前市","city_kana":"エチゼンシ","town":"勝蓮花町","town_kana":"ショウレンゲチョウ","prefecture_code":18},"0857":{"zip_code":"9150857","prefecture":"福井県","prefecture_kana":"フクイケン","city":"越前市","city_kana":"エチゼンシ","town":"四郎丸町","town_kana":"シロウマルチョウ","prefecture_code":18},"0876":{"zip_code":"9150876","prefecture":"福井県","prefecture_kana":"フクイケン","city":"越前市","city_kana":"エチゼンシ","town":"白崎町","town_kana":"シロサキチョウ","prefecture_code":18},"0232":{"zip_code":"9150232","prefecture":"福井県","prefecture_kana":"フクイケン","city":"越前市","city_kana":"エチゼンシ","town":"新在家町","town_kana":"シンザイケチョウ","prefecture_code":18},"0883":{"zip_code":"9150883","prefecture":"福井県","prefecture_kana":"フクイケン","city":"越前市","city_kana":"エチゼンシ","town":"新町","town_kana":"シンチョウ","prefecture_code":18},"0255":{"zip_code":"9150255","prefecture":"福井県","prefecture_kana":"フクイケン","city":"越前市","city_kana":"エチゼンシ","town":"新堂町","town_kana":"シンドウチョウ","prefecture_code":18},"0804":[{"zip_code":"9150804","prefecture":"福井県","prefecture_kana":"フクイケン","city":"越前市","city_kana":"エチゼンシ","town":"新保","town_kana":"シンボ","prefecture_code":18},{"zip_code":"9150804","prefecture":"福井県","prefecture_kana":"フクイケン","city":"越前市","city_kana":"エチゼンシ","town":"新保町","town_kana":"シンボチョウ","prefecture_code":18}],"0066":{"zip_code":"9150066","prefecture":"福井県","prefecture_kana":"フクイケン","city":"越前市","city_kana":"エチゼンシ","town":"神明町","town_kana":"シンメイチョウ","prefecture_code":18},"0221":{"zip_code":"9150221","prefecture":"福井県","prefecture_kana":"フクイケン","city":"越前市","city_kana":"エチゼンシ","town":"杉尾町","town_kana":"スギオチョウ","prefecture_code":18},"0006":{"zip_code":"9150006","prefecture":"福井県","prefecture_kana":"フクイケン","city":"越前市","city_kana":"エチゼンシ","town":"杉崎町","town_kana":"スギサキチョウ","prefecture_code":18},"1235":[{"zip_code":"9151235","prefecture":"福井県","prefecture_kana":"フクイケン","city":"越前市","city_kana":"エチゼンシ","town":"菅町","town_kana":"スゲチョウ","prefecture_code":18},{"zip_code":"9151235","prefecture":"福井県","prefecture_kana":"フクイケン","city":"越前市","city_kana":"エチゼンシ","town":"安戸町","town_kana":"ヤスドチョウ","prefecture_code":18}],"0067":{"zip_code":"9150067","prefecture":"福井県","prefecture_kana":"フクイケン","city":"越前市","city_kana":"エチゼンシ","town":"住吉町","town_kana":"スミヨシチョウ","prefecture_code":18},"1231":{"zip_code":"9151231","prefecture":"福井県","prefecture_kana":"フクイケン","city":"越前市","city_kana":"エチゼンシ","town":"千合谷町","town_kana":"センゴウダニチョウ","prefecture_code":18},"0846":{"zip_code":"9150846","prefecture":"福井県","prefecture_kana":"フクイケン","city":"越前市","city_kana":"エチゼンシ","town":"千福町","town_kana":"センプクチョウ","prefecture_code":18},"1241":{"zip_code":"9151241","prefecture":"福井県","prefecture_kana":"フクイケン","city":"越前市","city_kana":"エチゼンシ","town":"曽原町","town_kana":"ソハラチョウ","prefecture_code":18},"0262":{"zip_code":"9150262","prefecture":"福井県","prefecture_kana":"フクイケン","city":"越前市","city_kana":"エチゼンシ","town":"高岡町","town_kana":"タカオカチョウ","prefecture_code":18},"0091":{"zip_code":"9150091","prefecture":"福井県","prefecture_kana":"フクイケン","city":"越前市","city_kana":"エチゼンシ","town":"高木町","town_kana":"タカギチョウ","prefecture_code":18},"0832":{"zip_code":"9150832","prefecture":"福井県","prefecture_kana":"フクイケン","city":"越前市","city_kana":"エチゼンシ","town":"高瀬","town_kana":"タカセ","prefecture_code":18},"0888":{"zip_code":"9150888","prefecture":"福井県","prefecture_kana":"フクイケン","city":"越前市","city_kana":"エチゼンシ","town":"高森町","town_kana":"タカモリチョウ","prefecture_code":18},"0824":{"zip_code":"9150824","prefecture":"福井県","prefecture_kana":"フクイケン","city":"越前市","city_kana":"エチゼンシ","town":"武生柳町","town_kana":"タケフヤナギチョウ","prefecture_code":18},"0243":{"zip_code":"9150243","prefecture":"福井県","prefecture_kana":"フクイケン","city":"越前市","city_kana":"エチゼンシ","town":"千原町","town_kana":"チハラチョウ","prefecture_code":18},"0814":{"zip_code":"9150814","prefecture":"福井県","prefecture_kana":"フクイケン","city":"越前市","city_kana":"エチゼンシ","town":"中央","town_kana":"チュウオウ","prefecture_code":18},"0092":{"zip_code":"9150092","prefecture":"福井県","prefecture_kana":"フクイケン","city":"越前市","city_kana":"エチゼンシ","town":"塚町","town_kana":"ツカチョウ","prefecture_code":18},"0875":{"zip_code":"9150875","prefecture":"福井県","prefecture_kana":"フクイケン","city":"越前市","city_kana":"エチゼンシ","town":"塚原町","town_kana":"ツカバラチョウ","prefecture_code":18},"0843":{"zip_code":"9150843","prefecture":"福井県","prefecture_kana":"フクイケン","city":"越前市","city_kana":"エチゼンシ","town":"月見町","town_kana":"ツキミチョウ","prefecture_code":18},"0842":{"zip_code":"9150842","prefecture":"福井県","prefecture_kana":"フクイケン","city":"越前市","city_kana":"エチゼンシ","town":"常久町","town_kana":"ツネヒサチョウ","prefecture_code":18},"0204":{"zip_code":"9150204","prefecture":"福井県","prefecture_kana":"フクイケン","city":"越前市","city_kana":"エチゼンシ","town":"寺地町","town_kana":"テラジチョウ","prefecture_code":18},"0068":{"zip_code":"9150068","prefecture":"福井県","prefecture_kana":"フクイケン","city":"越前市","city_kana":"エチゼンシ","town":"天王町","town_kana":"テンノウチョウ","prefecture_code":18},"0003":{"zip_code":"9150003","prefecture":"福井県","prefecture_kana":"フクイケン","city":"越前市","city_kana":"エチゼンシ","town":"戸谷町","town_kana":"トタニチョウ","prefecture_code":18},"0222":{"zip_code":"9150222","prefecture":"福井県","prefecture_kana":"フクイケン","city":"越前市","city_kana":"エチゼンシ","town":"轟井町","town_kana":"トドロイチョウ","prefecture_code":18},"1204":{"zip_code":"9151204","prefecture":"福井県","prefecture_kana":"フクイケン","city":"越前市","city_kana":"エチゼンシ","town":"都辺町","town_kana":"トベチョウ","prefecture_code":18},"0053":{"zip_code":"9150053","prefecture":"福井県","prefecture_kana":"フクイケン","city":"越前市","city_kana":"エチゼンシ","town":"問屋町","town_kana":"トンヤマチ","prefecture_code":18},"0034":{"zip_code":"9150034","prefecture":"福井県","prefecture_kana":"フクイケン","city":"越前市","city_kana":"エチゼンシ","town":"中居町","town_kana":"ナカイチョウ","prefecture_code":18},"0227":{"zip_code":"9150227","prefecture":"福井県","prefecture_kana":"フクイケン","city":"越前市","city_kana":"エチゼンシ","town":"中印町","town_kana":"ナカインチョウ","prefecture_code":18},"0002":{"zip_code":"9150002","prefecture":"福井県","prefecture_kana":"フクイケン","city":"越前市","city_kana":"エチゼンシ","town":"長尾町","town_kana":"ナガオチョウ","prefecture_code":18},"0001":{"zip_code":"9150001","prefecture":"福井県","prefecture_kana":"フクイケン","city":"越前市","city_kana":"エチゼンシ","town":"中新庄町","town_kana":"ナカシンジョウチョウ","prefecture_code":18},"0212":{"zip_code":"9150212","prefecture":"福井県","prefecture_kana":"フクイケン","city":"越前市","city_kana":"エチゼンシ","town":"長谷町","town_kana":"ナガタニチョウ","prefecture_code":18},"1223":{"zip_code":"9151223","prefecture":"福井県","prefecture_kana":"フクイケン","city":"越前市","city_kana":"エチゼンシ","town":"中津原町","town_kana":"ナカツハラチョウ","prefecture_code":18},"0253":{"zip_code":"9150253","prefecture":"福井県","prefecture_kana":"フクイケン","city":"越前市","city_kana":"エチゼンシ","town":"中津山町","town_kana":"ナカツヤマチョウ","prefecture_code":18},"0097":{"zip_code":"9150097","prefecture":"福井県","prefecture_kana":"フクイケン","city":"越前市","city_kana":"エチゼンシ","town":"長土呂町","town_kana":"ナガトロチョウ","prefecture_code":18},"1246":{"zip_code":"9151246","prefecture":"福井県","prefecture_kana":"フクイケン","city":"越前市","city_kana":"エチゼンシ","town":"中野町","town_kana":"ナカノチョウ","prefecture_code":18},"0856":{"zip_code":"9150856","prefecture":"福井県","prefecture_kana":"フクイケン","city":"越前市","city_kana":"エチゼンシ","town":"中平吹町","town_kana":"ナカヒラブキチョウ","prefecture_code":18},"0265":{"zip_code":"9150265","prefecture":"福井県","prefecture_kana":"フクイケン","city":"越前市","city_kana":"エチゼンシ","town":"仲山","town_kana":"ナカヤマ","prefecture_code":18},"1226":{"zip_code":"9151226","prefecture":"福井県","prefecture_kana":"フクイケン","city":"越前市","city_kana":"エチゼンシ","town":"中山町","town_kana":"ナカヤマチョウ","prefecture_code":18},"0205":{"zip_code":"9150205","prefecture":"福井県","prefecture_kana":"フクイケン","city":"越前市","city_kana":"エチゼンシ","town":"波垣町","town_kana":"ナミガキチョウ","prefecture_code":18},"0851":{"zip_code":"9150851","prefecture":"福井県","prefecture_kana":"フクイケン","city":"越前市","city_kana":"エチゼンシ","town":"畷町","town_kana":"ナワテチョウ","prefecture_code":18},"1232":{"zip_code":"9151232","prefecture":"福井県","prefecture_kana":"フクイケン","city":"越前市","city_kana":"エチゼンシ","town":"二階堂町","town_kana":"ニカイドウチョウ","prefecture_code":18},"0014":{"zip_code":"9150014","prefecture":"福井県","prefecture_kana":"フクイケン","city":"越前市","city_kana":"エチゼンシ","town":"西尾町","town_kana":"ニシオチョウ","prefecture_code":18},"0244":{"zip_code":"9150244","prefecture":"福井県","prefecture_kana":"フクイケン","city":"越前市","city_kana":"エチゼンシ","town":"西樫尾町","town_kana":"ニシカシオチョウ","prefecture_code":18},"0073":{"zip_code":"9150073","prefecture":"福井県","prefecture_kana":"フクイケン","city":"越前市","city_kana":"エチゼンシ","town":"錦町","town_kana":"ニシキチョウ","prefecture_code":18},"0201":{"zip_code":"9150201","prefecture":"福井県","prefecture_kana":"フクイケン","city":"越前市","city_kana":"エチゼンシ","town":"西河内町","town_kana":"ニシコウチチョウ","prefecture_code":18},"0252":{"zip_code":"9150252","prefecture":"福井県","prefecture_kana":"フクイケン","city":"越前市","city_kana":"エチゼンシ","town":"西庄境町","town_kana":"ニシショウザカイチョウ","prefecture_code":18},"0046":{"zip_code":"9150046","prefecture":"福井県","prefecture_kana":"フクイケン","city":"越前市","city_kana":"エチゼンシ","town":"西谷町","town_kana":"ニシタニチョウ","prefecture_code":18},"0894":{"zip_code":"9150894","prefecture":"福井県","prefecture_kana":"フクイケン","city":"越前市","city_kana":"エチゼンシ","town":"丹生郷町","town_kana":"ニュウノゴウチョウ","prefecture_code":18},"0264":{"zip_code":"9150264","prefecture":"福井県","prefecture_kana":"フクイケン","city":"越前市","city_kana":"エチゼンシ","town":"野岡町","town_kana":"ノオカチョウ","prefecture_code":18},"0836":{"zip_code":"9150836","prefecture":"福井県","prefecture_kana":"フクイケン","city":"越前市","city_kana":"エチゼンシ","town":"野上町","town_kana":"ノガミマチ","prefecture_code":18},"1205":{"zip_code":"9151205","prefecture":"福井県","prefecture_kana":"フクイケン","city":"越前市","city_kana":"エチゼンシ","town":"萩原町","town_kana":"ハギワラチョウ","prefecture_code":18},"0891":{"zip_code":"9150891","prefecture":"福井県","prefecture_kana":"フクイケン","city":"越前市","city_kana":"エチゼンシ","town":"余田町","town_kana":"ハグリチョウ","prefecture_code":18},"0081":{"zip_code":"9150081","prefecture":"福井県","prefecture_kana":"フクイケン","city":"越前市","city_kana":"エチゼンシ","town":"馬上免町","town_kana":"バジョウメチョウ","prefecture_code":18},"0055":{"zip_code":"9150055","prefecture":"福井県","prefecture_kana":"フクイケン","city":"越前市","city_kana":"エチゼンシ","town":"畑町","town_kana":"ハタチョウ","prefecture_code":18},"0224":{"zip_code":"9150224","prefecture":"福井県","prefecture_kana":"フクイケン","city":"越前市","city_kana":"エチゼンシ","town":"八石町","town_kana":"ハチコクチョウ","prefecture_code":18},"0085":{"zip_code":"9150085","prefecture":"福井県","prefecture_kana":"フクイケン","city":"越前市","city_kana":"エチゼンシ","town":"八幡","town_kana":"ハチマン","prefecture_code":18},"0206":{"zip_code":"9150206","prefecture":"福井県","prefecture_kana":"フクイケン","city":"越前市","city_kana":"エチゼンシ","town":"春山町","town_kana":"ハルヤマチョウ","prefecture_code":18},"0072":{"zip_code":"9150072","prefecture":"福井県","prefecture_kana":"フクイケン","city":"越前市","city_kana":"エチゼンシ","town":"万代町","town_kana":"バンダイチョウ","prefecture_code":18},"0032":{"zip_code":"9150032","prefecture":"福井県","prefecture_kana":"フクイケン","city":"越前市","city_kana":"エチゼンシ","town":"檜尾谷町","town_kana":"ヒオダニチョウ","prefecture_code":18},"0207":{"zip_code":"9150207","prefecture":"福井県","prefecture_kana":"フクイケン","city":"越前市","city_kana":"エチゼンシ","town":"東樫尾町","town_kana":"ヒガシカシオチョウ","prefecture_code":18},"0251":{"zip_code":"9150251","prefecture":"福井県","prefecture_kana":"フクイケン","city":"越前市","city_kana":"エチゼンシ","town":"東庄境町","town_kana":"ヒガシショウザカイチョウ","prefecture_code":18},"0847":{"zip_code":"9150847","prefecture":"福井県","prefecture_kana":"フクイケン","city":"越前市","city_kana":"エチゼンシ","town":"東千福町","town_kana":"ヒガシセンプクチョウ","prefecture_code":18},"0892":{"zip_code":"9150892","prefecture":"福井県","prefecture_kana":"フクイケン","city":"越前市","city_kana":"エチゼンシ","town":"氷坂町","town_kana":"ヒサカチョウ","prefecture_code":18},"0831":{"zip_code":"9150831","prefecture":"福井県","prefecture_kana":"フクイケン","city":"越前市","city_kana":"エチゼンシ","town":"日野美","town_kana":"ヒノミ","prefecture_code":18},"0062":{"zip_code":"9150062","prefecture":"福井県","prefecture_kana":"フクイケン","city":"越前市","city_kana":"エチゼンシ","town":"姫川","town_kana":"ヒメカワ","prefecture_code":18},"0803":{"zip_code":"9150803","prefecture":"福井県","prefecture_kana":"フクイケン","city":"越前市","city_kana":"エチゼンシ","town":"平出","town_kana":"ヒライデ","prefecture_code":18},"0044":{"zip_code":"9150044","prefecture":"福井県","prefecture_kana":"フクイケン","city":"越前市","city_kana":"エチゼンシ","town":"平林町","town_kana":"ヒラバヤシチョウ","prefecture_code":18},"0872":{"zip_code":"9150872","prefecture":"福井県","prefecture_kana":"フクイケン","city":"越前市","city_kana":"エチゼンシ","town":"広瀬町","town_kana":"ヒロセチョウ","prefecture_code":18},"0815":{"zip_code":"9150815","prefecture":"福井県","prefecture_kana":"フクイケン","city":"越前市","city_kana":"エチゼンシ","town":"深草","town_kana":"フカクサ","prefecture_code":18},"0209":{"zip_code":"9150209","prefecture":"福井県","prefecture_kana":"フクイケン","city":"越前市","city_kana":"エチゼンシ","town":"藤木町","town_kana":"フジノキチョウ","prefecture_code":18},"0854":{"zip_code":"9150854","prefecture":"福井県","prefecture_kana":"フクイケン","city":"越前市","city_kana":"エチゼンシ","town":"富士見が丘","town_kana":"フジミガオカ","prefecture_code":18},"0071":{"zip_code":"9150071","prefecture":"福井県","prefecture_kana":"フクイケン","city":"越前市","city_kana":"エチゼンシ","town":"府中","town_kana":"フチュウ","prefecture_code":18},"0036":{"zip_code":"9150036","prefecture":"福井県","prefecture_kana":"フクイケン","city":"越前市","city_kana":"エチゼンシ","town":"文室町","town_kana":"フムロチョウ","prefecture_code":18},"0841":{"zip_code":"9150841","prefecture":"福井県","prefecture_kana":"フクイケン","city":"越前市","city_kana":"エチゼンシ","town":"文京","town_kana":"ブンキョウ","prefecture_code":18},"0827":{"zip_code":"9150827","prefecture":"福井県","prefecture_kana":"フクイケン","city":"越前市","city_kana":"エチゼンシ","town":"平和町","town_kana":"ヘイワチョウ","prefecture_code":18},"0225":{"zip_code":"9150225","prefecture":"福井県","prefecture_kana":"フクイケン","city":"越前市","city_kana":"エチゼンシ","town":"別印町","town_kana":"ベツインチョウ","prefecture_code":18},"0074":{"zip_code":"9150074","prefecture":"福井県","prefecture_kana":"フクイケン","city":"越前市","city_kana":"エチゼンシ","town":"蓬莱町","town_kana":"ホウライチョウ","prefecture_code":18},"0051":{"zip_code":"9150051","prefecture":"福井県","prefecture_kana":"フクイケン","city":"越前市","city_kana":"エチゼンシ","town":"帆山町","town_kana":"ホヤマチョウ","prefecture_code":18},"0061":{"zip_code":"9150061","prefecture":"福井県","prefecture_kana":"フクイケン","city":"越前市","city_kana":"エチゼンシ","town":"堀川町","town_kana":"ホリカワチョウ","prefecture_code":18},"1211":{"zip_code":"9151211","prefecture":"福井県","prefecture_kana":"フクイケン","city":"越前市","city_kana":"エチゼンシ","town":"堀町","town_kana":"ホリチョウ","prefecture_code":18},"0811":{"zip_code":"9150811","prefecture":"福井県","prefecture_kana":"フクイケン","city":"越前市","city_kana":"エチゼンシ","town":"本多","town_kana":"ホンダ","prefecture_code":18},"0806":{"zip_code":"9150806","prefecture":"福井県","prefecture_kana":"フクイケン","city":"越前市","city_kana":"エチゼンシ","town":"本保町","town_kana":"ホンボチョウ","prefecture_code":18},"0823":{"zip_code":"9150823","prefecture":"福井県","prefecture_kana":"フクイケン","city":"越前市","city_kana":"エチゼンシ","town":"本町","town_kana":"ホンマチ","prefecture_code":18},"0005":{"zip_code":"9150005","prefecture":"福井県","prefecture_kana":"フクイケン","city":"越前市","city_kana":"エチゼンシ","town":"真柄町","town_kana":"マカラチョウ","prefecture_code":18},"1244":{"zip_code":"9151244","prefecture":"福井県","prefecture_kana":"フクイケン","city":"越前市","city_kana":"エチゼンシ","town":"牧町","town_kana":"マキチョウ","prefecture_code":18},"0852":{"zip_code":"9150852","prefecture":"福井県","prefecture_kana":"フクイケン","city":"越前市","city_kana":"エチゼンシ","town":"松森町","town_kana":"マツモリチョウ","prefecture_code":18},"1213":{"zip_code":"9151213","prefecture":"福井県","prefecture_kana":"フクイケン","city":"越前市","city_kana":"エチゼンシ","town":"丸岡町","town_kana":"マルカチョウ","prefecture_code":18},"0217":{"zip_code":"9150217","prefecture":"福井県","prefecture_kana":"フクイケン","city":"越前市","city_kana":"エチゼンシ","town":"水間町","town_kana":"ミズマチョウ","prefecture_code":18},"0845":{"zip_code":"9150845","prefecture":"福井県","prefecture_kana":"フクイケン","city":"越前市","city_kana":"エチゼンシ","town":"三ツ口町","town_kana":"ミツクチチョウ","prefecture_code":18},"0895":{"zip_code":"9150895","prefecture":"福井県","prefecture_kana":"フクイケン","city":"越前市","city_kana":"エチゼンシ","town":"三ツ俣町","town_kana":"ミツマタチョウ","prefecture_code":18},"0007":{"zip_code":"9150007","prefecture":"福井県","prefecture_kana":"フクイケン","city":"越前市","city_kana":"エチゼンシ","town":"三ツ屋町","town_kana":"ミツヤチョウ","prefecture_code":18},"0825":{"zip_code":"9150825","prefecture":"福井県","prefecture_kana":"フクイケン","city":"越前市","city_kana":"エチゼンシ","town":"南","town_kana":"ミナミ","prefecture_code":18},"0022":{"zip_code":"9150022","prefecture":"福井県","prefecture_kana":"フクイケン","city":"越前市","city_kana":"エチゼンシ","town":"南小山町","town_kana":"ミナミオヤマチョウ","prefecture_code":18},"0226":{"zip_code":"9150226","prefecture":"福井県","prefecture_kana":"フクイケン","city":"越前市","city_kana":"エチゼンシ","town":"南坂下町","town_kana":"ミナミサカシタチョウ","prefecture_code":18},"0213":{"zip_code":"9150213","prefecture":"福井県","prefecture_kana":"フクイケン","city":"越前市","city_kana":"エチゼンシ","town":"南中町","town_kana":"ミナミナカチョウ","prefecture_code":18},"0033":{"zip_code":"9150033","prefecture":"福井県","prefecture_kana":"フクイケン","city":"越前市","city_kana":"エチゼンシ","town":"蓑脇町","town_kana":"ミノワキチョウ","prefecture_code":18},"0826":{"zip_code":"9150826","prefecture":"福井県","prefecture_kana":"フクイケン","city":"越前市","city_kana":"エチゼンシ","town":"御幸町","town_kana":"ミユキチョウ","prefecture_code":18},"0844":{"zip_code":"9150844","prefecture":"福井県","prefecture_kana":"フクイケン","city":"越前市","city_kana":"エチゼンシ","town":"妙法寺町","town_kana":"ミョウホウジチョウ","prefecture_code":18},"0871":{"zip_code":"9150871","prefecture":"福井県","prefecture_kana":"フクイケン","city":"越前市","city_kana":"エチゼンシ","town":"向が丘町","town_kana":"ムカイガオカチョウ","prefecture_code":18},"0056":{"zip_code":"9150056","prefecture":"福井県","prefecture_kana":"フクイケン","city":"越前市","city_kana":"エチゼンシ","town":"向新保町","town_kana":"ムカイシンボチョウ","prefecture_code":18},"0084":{"zip_code":"9150084","prefecture":"福井県","prefecture_kana":"フクイケン","city":"越前市","city_kana":"エチゼンシ","town":"村国","town_kana":"ムラクニ","prefecture_code":18},"0211":{"zip_code":"9150211","prefecture":"福井県","prefecture_kana":"フクイケン","city":"越前市","city_kana":"エチゼンシ","town":"室谷町","town_kana":"ムロタニチョウ","prefecture_code":18},"0822":{"zip_code":"9150822","prefecture":"福井県","prefecture_kana":"フクイケン","city":"越前市","city_kana":"エチゼンシ","town":"元町","town_kana":"モトマチ","prefecture_code":18},"0215":{"zip_code":"9150215","prefecture":"福井県","prefecture_kana":"フクイケン","city":"越前市","city_kana":"エチゼンシ","town":"柳元町","town_kana":"ヤナギモトマチ","prefecture_code":18},"0052":{"zip_code":"9150052","prefecture":"福井県","prefecture_kana":"フクイケン","city":"越前市","city_kana":"エチゼンシ","town":"矢放町","town_kana":"ヤハナシチョウ","prefecture_code":18},"0057":{"zip_code":"9150057","prefecture":"福井県","prefecture_kana":"フクイケン","city":"越前市","city_kana":"エチゼンシ","town":"矢船町","town_kana":"ヤフネチョウ","prefecture_code":18},"0263":{"zip_code":"9150263","prefecture":"福井県","prefecture_kana":"フクイケン","city":"越前市","city_kana":"エチゼンシ","town":"山室町","town_kana":"ヤマムロチョウ","prefecture_code":18},"0853":{"zip_code":"9150853","prefecture":"福井県","prefecture_kana":"フクイケン","city":"越前市","city_kana":"エチゼンシ","town":"行松町","town_kana":"ユキマツチョウ","prefecture_code":18},"0065":{"zip_code":"9150065","prefecture":"福井県","prefecture_kana":"フクイケン","city":"越前市","city_kana":"エチゼンシ","town":"豊町","town_kana":"ユタカチョウ","prefecture_code":18},"1225":{"zip_code":"9151225","prefecture":"福井県","prefecture_kana":"フクイケン","city":"越前市","city_kana":"エチゼンシ","town":"湯谷町","town_kana":"ユヤチョウ","prefecture_code":18},"0031":{"zip_code":"9150031","prefecture":"福井県","prefecture_kana":"フクイケン","city":"越前市","city_kana":"エチゼンシ","town":"余川町","town_kana":"ヨカワチョウ","prefecture_code":18},"0094":{"zip_code":"9150094","prefecture":"福井県","prefecture_kana":"フクイケン","city":"越前市","city_kana":"エチゼンシ","town":"横市町","town_kana":"ヨコイチチョウ","prefecture_code":18},"0896":{"zip_code":"9150896","prefecture":"福井県","prefecture_kana":"フクイケン","city":"越前市","city_kana":"エチゼンシ","town":"横根町","town_kana":"ヨコネチョウ","prefecture_code":18},"0208":{"zip_code":"9150208","prefecture":"福井県","prefecture_kana":"フクイケン","city":"越前市","city_kana":"エチゼンシ","town":"領家町","town_kana":"リョウケチョウ","prefecture_code":18},"1245":{"zip_code":"9151245","prefecture":"福井県","prefecture_kana":"フクイケン","city":"越前市","city_kana":"エチゼンシ","town":"若須町","town_kana":"ワガスチョウ","prefecture_code":18},"0063":{"zip_code":"9150063","prefecture":"福井県","prefecture_kana":"フクイケン","city":"越前市","city_kana":"エチゼンシ","town":"若竹町","town_kana":"ワカタケチョウ","prefecture_code":18},"0821":{"zip_code":"9150821","prefecture":"福井県","prefecture_kana":"フクイケン","city":"越前市","city_kana":"エチゼンシ","town":"若松町","town_kana":"ワカマツチョウ","prefecture_code":18},"1105":{"zip_code":"9151105","prefecture":"福井県","prefecture_kana":"フクイケン","city":"南条郡南越前町","city_kana":"ナンジョウグンミナミエチゼンチョウ","town":"赤萩","town_kana":"アカハギ","prefecture_code":18},"1112":{"zip_code":"9151112","prefecture":"福井県","prefecture_kana":"フクイケン","city":"南条郡南越前町","city_kana":"ナンジョウグンミナミエチゼンチョウ","town":"今泉","town_kana":"イマイズミ","prefecture_code":18},"1103":{"zip_code":"9151103","prefecture":"福井県","prefecture_kana":"フクイケン","city":"南条郡南越前町","city_kana":"ナンジョウグンミナミエチゼンチョウ","town":"大谷","town_kana":"オオタニ","prefecture_code":18},"1113":{"zip_code":"9151113","prefecture":"福井県","prefecture_kana":"フクイケン","city":"南条郡南越前町","city_kana":"ナンジョウグンミナミエチゼンチョウ","town":"甲楽城","town_kana":"カブラキ","prefecture_code":18},"1101":{"zip_code":"9151101","prefecture":"福井県","prefecture_kana":"フクイケン","city":"南条郡南越前町","city_kana":"ナンジョウグンミナミエチゼンチョウ","town":"具谷","town_kana":"グダニ","prefecture_code":18},"1106":{"zip_code":"9151106","prefecture":"福井県","prefecture_kana":"フクイケン","city":"南条郡南越前町","city_kana":"ナンジョウグンミナミエチゼンチョウ","town":"河内","town_kana":"コウチ","prefecture_code":18},"1111":{"zip_code":"9151111","prefecture":"福井県","prefecture_kana":"フクイケン","city":"南条郡南越前町","city_kana":"ナンジョウグンミナミエチゼンチョウ","town":"河野","town_kana":"コウノ","prefecture_code":18},"1102":{"zip_code":"9151102","prefecture":"福井県","prefecture_kana":"フクイケン","city":"南条郡南越前町","city_kana":"ナンジョウグンミナミエチゼンチョウ","town":"菅谷","town_kana":"スゲノタニ","prefecture_code":18},"1104":{"zip_code":"9151104","prefecture":"福井県","prefecture_kana":"フクイケン","city":"南条郡南越前町","city_kana":"ナンジョウグンミナミエチゼンチョウ","town":"大良","town_kana":"ダイラ","prefecture_code":18},"1114":[{"zip_code":"9151114","prefecture":"福井県","prefecture_kana":"フクイケン","city":"南条郡南越前町","city_kana":"ナンジョウグンミナミエチゼンチョウ","town":"糠","town_kana":"ヌカ","prefecture_code":18},{"zip_code":"9151114","prefecture":"福井県","prefecture_kana":"フクイケン","city":"南条郡南越前町","city_kana":"ナンジョウグンミナミエチゼンチョウ","town":"糠（神土）","town_kana":"ヌカ(ジンド)","prefecture_code":18},{"zip_code":"9151114","prefecture":"福井県","prefecture_kana":"フクイケン","city":"南条郡南越前町","city_kana":"ナンジョウグンミナミエチゼンチョウ","town":"糠（杉山）","town_kana":"ヌカ(スギヤマ)","prefecture_code":18},{"zip_code":"9151114","prefecture":"福井県","prefecture_kana":"フクイケン","city":"南条郡南越前町","city_kana":"ナンジョウグンミナミエチゼンチョウ","town":"八田","town_kana":"ハッタ","prefecture_code":18}]}