{"0000":{"zip_code":"9170000","prefecture":"福井県","prefecture_kana":"フクイケン","city":"小浜市","city_kana":"オバマシ","town":"","town_kana":"","prefecture_code":18},"0037":[{"zip_code":"9170037","prefecture":"福井県","prefecture_kana":"フクイケン","city":"小浜市","city_kana":"オバマシ","town":"相生","town_kana":"アイオイ","prefecture_code":18},{"zip_code":"9170037","prefecture":"福井県","prefecture_kana":"フクイケン","city":"小浜市","city_kana":"オバマシ","town":"西相生","town_kana":"ニシアイオイ","prefecture_code":18},{"zip_code":"9170037","prefecture":"福井県","prefecture_kana":"フクイケン","city":"小浜市","city_kana":"オバマシ","town":"東相生","town_kana":"ヒガシアイオイ","prefecture_code":18}],"0041":{"zip_code":"9170041","prefecture":"福井県","prefecture_kana":"フクイケン","city":"小浜市","city_kana":"オバマシ","town":"青井","town_kana":"アオイ","prefecture_code":18},"0105":{"zip_code":"9170105","prefecture":"福井県","prefecture_kana":"フクイケン","city":"小浜市","city_kana":"オバマシ","town":"阿納","town_kana":"アノ","prefecture_code":18},"0106":{"zip_code":"9170106","prefecture":"福井県","prefecture_kana":"フクイケン","city":"小浜市","city_kana":"オバマシ","town":"阿納尻","town_kana":"アノジリ","prefecture_code":18},"0044":[{"zip_code":"9170044","prefecture":"福井県","prefecture_kana":"フクイケン","city":"小浜市","city_kana":"オバマシ","town":"荒木","town_kana":"アラキ","prefecture_code":18},{"zip_code":"9170044","prefecture":"福井県","prefecture_kana":"フクイケン","city":"小浜市","city_kana":"オバマシ","town":"黒駒","town_kana":"クロコマ","prefecture_code":18},{"zip_code":"9170044","prefecture":"福井県","prefecture_kana":"フクイケン","city":"小浜市","city_kana":"オバマシ","town":"法海","town_kana":"ノリカイ","prefecture_code":18},{"zip_code":"9170044","prefecture":"福井県","prefecture_kana":"フクイケン","city":"小浜市","city_kana":"オバマシ","town":"飯盛","town_kana":"ハンセイ","prefecture_code":18}],"0238":{"zip_code":"9170238","prefecture":"福井県","prefecture_kana":"フクイケン","city":"小浜市","city_kana":"オバマシ","town":"池河内","town_kana":"イケノコウチ","prefecture_code":18},"0241":[{"zip_code":"9170241","prefecture":"福井県","prefecture_kana":"フクイケン","city":"小浜市","city_kana":"オバマシ","town":"池田","town_kana":"イケダ","prefecture_code":18},{"zip_code":"9170241","prefecture":"福井県","prefecture_kana":"フクイケン","city":"小浜市","city_kana":"オバマシ","town":"市場","town_kana":"イチバ","prefecture_code":18},{"zip_code":"9170241","prefecture":"福井県","prefecture_kana":"フクイケン","city":"小浜市","city_kana":"オバマシ","town":"遠敷","town_kana":"オニュウ","prefecture_code":18},{"zip_code":"9170241","prefecture":"福井県","prefecture_kana":"フクイケン","city":"小浜市","city_kana":"オバマシ","town":"検見坂","town_kana":"ケンミザカ","prefecture_code":18},{"zip_code":"9170241","prefecture":"福井県","prefecture_kana":"フクイケン","city":"小浜市","city_kana":"オバマシ","town":"島","town_kana":"シマ","prefecture_code":18},{"zip_code":"9170241","prefecture":"福井県","prefecture_kana":"フクイケン","city":"小浜市","city_kana":"オバマシ","town":"中村","town_kana":"ナカムラ","prefecture_code":18}],"0027":[{"zip_code":"9170027","prefecture":"福井県","prefecture_kana":"フクイケン","city":"小浜市","city_kana":"オバマシ","town":"生守","town_kana":"イゴモリ","prefecture_code":18},{"zip_code":"9170027","prefecture":"福井県","prefecture_kana":"フクイケン","city":"小浜市","city_kana":"オバマシ","town":"生守団地","town_kana":"イゴモリダンチ","prefecture_code":18}],"0005":{"zip_code":"9170005","prefecture":"福井県","prefecture_kana":"フクイケン","city":"小浜市","city_kana":"オバマシ","town":"板屋町","town_kana":"イタヤマチ","prefecture_code":18},"0071":{"zip_code":"9170071","prefecture":"福井県","prefecture_kana":"フクイケン","city":"小浜市","city_kana":"オバマシ","town":"一番町","town_kana":"イチバンチョウ","prefecture_code":18},"0104":{"zip_code":"9170104","prefecture":"福井県","prefecture_kana":"フクイケン","city":"小浜市","city_kana":"オバマシ","town":"犬熊","town_kana":"イノクマ","prefecture_code":18},"0234":{"zip_code":"9170234","prefecture":"福井県","prefecture_kana":"フクイケン","city":"小浜市","city_kana":"オバマシ","town":"上野","town_kana":"ウエノ","prefecture_code":18},"0113":{"zip_code":"9170113","prefecture":"福井県","prefecture_kana":"フクイケン","city":"小浜市","city_kana":"オバマシ","town":"宇久","town_kana":"ウグ","prefecture_code":18},"0096":{"zip_code":"9170096","prefecture":"福井県","prefecture_kana":"フクイケン","city":"小浜市","city_kana":"オバマシ","town":"雲浜","town_kana":"ウンピン","prefecture_code":18},"0077":{"zip_code":"9170077","prefecture":"福井県","prefecture_kana":"フクイケン","city":"小浜市","city_kana":"オバマシ","town":"駅前町","town_kana":"エキマエチョウ","prefecture_code":18},"0017":[{"zip_code":"9170017","prefecture":"福井県","prefecture_kana":"フクイケン","city":"小浜市","city_kana":"オバマシ","town":"江古川","town_kana":"エゴガワ","prefecture_code":18},{"zip_code":"9170017","prefecture":"福井県","prefecture_kana":"フクイケン","city":"小浜市","city_kana":"オバマシ","town":"羽賀","town_kana":"ハガ","prefecture_code":18}],"0221":{"zip_code":"9170221","prefecture":"福井県","prefecture_kana":"フクイケン","city":"小浜市","city_kana":"オバマシ","town":"大谷","town_kana":"オオタニ","prefecture_code":18},"0078":{"zip_code":"9170078","prefecture":"福井県","prefecture_kana":"フクイケン","city":"小浜市","city_kana":"オバマシ","town":"大手町","town_kana":"オオテチョウ","prefecture_code":18},"0223":[{"zip_code":"9170223","prefecture":"福井県","prefecture_kana":"フクイケン","city":"小浜市","city_kana":"オバマシ","town":"大戸","town_kana":"オオド","prefecture_code":18},{"zip_code":"9170223","prefecture":"福井県","prefecture_kana":"フクイケン","city":"小浜市","city_kana":"オバマシ","town":"加茂","town_kana":"カモ","prefecture_code":18}],"0004":[{"zip_code":"9170004","prefecture":"福井県","prefecture_kana":"フクイケン","city":"小浜市","city_kana":"オバマシ","town":"大湊","town_kana":"オオミナト","prefecture_code":18},{"zip_code":"9170004","prefecture":"福井県","prefecture_kana":"フクイケン","city":"小浜市","city_kana":"オバマシ","town":"小湊","town_kana":"コミナト","prefecture_code":18},{"zip_code":"9170004","prefecture":"福井県","prefecture_kana":"フクイケン","city":"小浜市","city_kana":"オバマシ","town":"湊","town_kana":"ミナト","prefecture_code":18}],"0034":{"zip_code":"9170034","prefecture":"福井県","prefecture_kana":"フクイケン","city":"小浜市","city_kana":"オバマシ","town":"奥田縄","town_kana":"オクダノ","prefecture_code":18},"0046":{"zip_code":"9170046","prefecture":"福井県","prefecture_kana":"フクイケン","city":"小浜市","city_kana":"オバマシ","town":"岡津","town_kana":"オコヅ","prefecture_code":18},"0032":{"zip_code":"9170032","prefecture":"福井県","prefecture_kana":"フクイケン","city":"小浜市","city_kana":"オバマシ","town":"尾崎","town_kana":"オザキ","prefecture_code":18},"0055":{"zip_code":"9170055","prefecture":"福井県","prefecture_kana":"フクイケン","city":"小浜市","city_kana":"オバマシ","town":"小浜浅間","town_kana":"オバマアサマ","prefecture_code":18},"0057":{"zip_code":"9170057","prefecture":"福井県","prefecture_kana":"フクイケン","city":"小浜市","city_kana":"オバマシ","town":"小浜飛鳥","town_kana":"オバマアスカ","prefecture_code":18},"0085":{"zip_code":"9170085","prefecture":"福井県","prefecture_kana":"フクイケン","city":"小浜市","city_kana":"オバマシ","town":"小浜生玉","town_kana":"オバマイクダマ","prefecture_code":18},"0062":{"zip_code":"9170062","prefecture":"福井県","prefecture_kana":"フクイケン","city":"小浜市","city_kana":"オバマシ","town":"小浜今宮","town_kana":"オバマイマミヤ","prefecture_code":18},"0056":{"zip_code":"9170056","prefecture":"福井県","prefecture_kana":"フクイケン","city":"小浜市","city_kana":"オバマシ","town":"小浜大原","town_kana":"オバマオオハラ","prefecture_code":18},"0053":{"zip_code":"9170053","prefecture":"福井県","prefecture_kana":"フクイケン","city":"小浜市","city_kana":"オバマシ","town":"小浜大宮","town_kana":"オバマオオミヤ","prefecture_code":18},"0052":{"zip_code":"9170052","prefecture":"福井県","prefecture_kana":"フクイケン","city":"小浜市","city_kana":"オバマシ","town":"小浜男山","town_kana":"オバマオトコヤマ","prefecture_code":18},"0067":{"zip_code":"9170067","prefecture":"福井県","prefecture_kana":"フクイケン","city":"小浜市","city_kana":"オバマシ","town":"小浜鹿島","town_kana":"オバマカシマ","prefecture_code":18},"0058":{"zip_code":"9170058","prefecture":"福井県","prefecture_kana":"フクイケン","city":"小浜市","city_kana":"オバマシ","town":"小浜香取","town_kana":"オバマカトリ","prefecture_code":18},"0066":{"zip_code":"9170066","prefecture":"福井県","prefecture_kana":"フクイケン","city":"小浜市","city_kana":"オバマシ","town":"小浜神田","town_kana":"オバマカンダ","prefecture_code":18},"0059":{"zip_code":"9170059","prefecture":"福井県","prefecture_kana":"フクイケン","city":"小浜市","city_kana":"オバマシ","town":"小浜貴船","town_kana":"オバマキフネ","prefecture_code":18},"0083":{"zip_code":"9170083","prefecture":"福井県","prefecture_kana":"フクイケン","city":"小浜市","city_kana":"オバマシ","town":"小浜清滝","town_kana":"オバマキヨタキ","prefecture_code":18},"0063":{"zip_code":"9170063","prefecture":"福井県","prefecture_kana":"フクイケン","city":"小浜市","city_kana":"オバマシ","town":"小浜酒井","town_kana":"オバマサカイ","prefecture_code":18},"0086":{"zip_code":"9170086","prefecture":"福井県","prefecture_kana":"フクイケン","city":"小浜市","city_kana":"オバマシ","town":"小浜塩竈","town_kana":"オバマシオガマ","prefecture_code":18},"0051":{"zip_code":"9170051","prefecture":"福井県","prefecture_kana":"フクイケン","city":"小浜市","city_kana":"オバマシ","town":"小浜白鳥","town_kana":"オバマシラトリ","prefecture_code":18},"0069":{"zip_code":"9170069","prefecture":"福井県","prefecture_kana":"フクイケン","city":"小浜市","city_kana":"オバマシ","town":"小浜白鬚","town_kana":"オバマシラヒゲ","prefecture_code":18},"0087":{"zip_code":"9170087","prefecture":"福井県","prefecture_kana":"フクイケン","city":"小浜市","city_kana":"オバマシ","town":"小浜鈴鹿","town_kana":"オバマスズカ","prefecture_code":18},"0065":{"zip_code":"9170065","prefecture":"福井県","prefecture_kana":"フクイケン","city":"小浜市","city_kana":"オバマシ","town":"小浜住吉","town_kana":"オバマスミヨシ","prefecture_code":18},"0088":{"zip_code":"9170088","prefecture":"福井県","prefecture_kana":"フクイケン","city":"小浜市","city_kana":"オバマシ","town":"小浜多賀","town_kana":"オバマタガ","prefecture_code":18},"0064":{"zip_code":"9170064","prefecture":"福井県","prefecture_kana":"フクイケン","city":"小浜市","city_kana":"オバマシ","town":"小浜竜田","town_kana":"オバマタツタ","prefecture_code":18},"0061":{"zip_code":"9170061","prefecture":"福井県","prefecture_kana":"フクイケン","city":"小浜市","city_kana":"オバマシ","town":"小浜玉前","town_kana":"オバマタママエ","prefecture_code":18},"0082":{"zip_code":"9170082","prefecture":"福井県","prefecture_kana":"フクイケン","city":"小浜市","city_kana":"オバマシ","town":"小浜津島","town_kana":"オバマツシマ","prefecture_code":18},"0068":{"zip_code":"9170068","prefecture":"福井県","prefecture_kana":"フクイケン","city":"小浜市","city_kana":"オバマシ","town":"小浜日吉","town_kana":"オバマヒヨシ","prefecture_code":18},"0084":{"zip_code":"9170084","prefecture":"福井県","prefecture_kana":"フクイケン","city":"小浜市","city_kana":"オバマシ","town":"小浜広峰","town_kana":"オバマヒロミネ","prefecture_code":18},"0357":{"zip_code":"9170357","prefecture":"福井県","prefecture_kana":"フクイケン","city":"小浜市","city_kana":"オバマシ","town":"小屋","town_kana":"オヤ","prefecture_code":18},"0112":{"zip_code":"9170112","prefecture":"福井県","prefecture_kana":"フクイケン","city":"小浜市","city_kana":"オバマシ","town":"加尾","town_kana":"カオ","prefecture_code":18},"0003":{"zip_code":"9170003","prefecture":"福井県","prefecture_kana":"フクイケン","city":"小浜市","city_kana":"オバマシ","town":"学園町","town_kana":"ガクエンチョウ","prefecture_code":18},"0116":{"zip_code":"9170116","prefecture":"福井県","prefecture_kana":"フクイケン","city":"小浜市","city_kana":"オバマシ","town":"堅海","town_kana":"カツミ","prefecture_code":18},"0045":[{"zip_code":"9170045","prefecture":"福井県","prefecture_kana":"フクイケン","city":"小浜市","city_kana":"オバマシ","town":"加斗","town_kana":"カド","prefecture_code":18},{"zip_code":"9170045","prefecture":"福井県","prefecture_kana":"フクイケン","city":"小浜市","city_kana":"オバマシ","town":"上加斗","town_kana":"カミカド","prefecture_code":18},{"zip_code":"9170045","prefecture":"福井県","prefecture_kana":"フクイケン","city":"小浜市","city_kana":"オバマシ","town":"下加斗","town_kana":"シモカド","prefecture_code":18}],"0242":[{"zip_code":"9170242","prefecture":"福井県","prefecture_kana":"フクイケン","city":"小浜市","city_kana":"オバマシ","town":"金屋","town_kana":"カナヤ","prefecture_code":18},{"zip_code":"9170242","prefecture":"福井県","prefecture_kana":"フクイケン","city":"小浜市","city_kana":"オバマシ","town":"中の宮","town_kana":"ナカノミヤ","prefecture_code":18}],"0356":{"zip_code":"9170356","prefecture":"福井県","prefecture_kana":"フクイケン","city":"小浜市","city_kana":"オバマシ","town":"上田","town_kana":"カミタ","prefecture_code":18},"0022":{"zip_code":"9170022","prefecture":"福井県","prefecture_kana":"フクイケン","city":"小浜市","city_kana":"オバマシ","town":"上竹原","town_kana":"カミタワラ","prefecture_code":18},"0036":[{"zip_code":"9170036","prefecture":"福井県","prefecture_kana":"フクイケン","city":"小浜市","city_kana":"オバマシ","town":"上中井","town_kana":"カミナカイ","prefecture_code":18},{"zip_code":"9170036","prefecture":"福井県","prefecture_kana":"フクイケン","city":"小浜市","city_kana":"オバマシ","town":"下中井","town_kana":"シモナカイ","prefecture_code":18},{"zip_code":"9170036","prefecture":"福井県","prefecture_kana":"フクイケン","city":"小浜市","city_kana":"オバマシ","town":"新滝","town_kana":"シンタキ","prefecture_code":18},{"zip_code":"9170036","prefecture":"福井県","prefecture_kana":"フクイケン","city":"小浜市","city_kana":"オバマシ","town":"滝谷","town_kana":"タキダニ","prefecture_code":18},{"zip_code":"9170036","prefecture":"福井県","prefecture_kana":"フクイケン","city":"小浜市","city_kana":"オバマシ","town":"中井","town_kana":"ナカイ","prefecture_code":18}],"0248":{"zip_code":"9170248","prefecture":"福井県","prefecture_kana":"フクイケン","city":"小浜市","city_kana":"オバマシ","town":"上根来","town_kana":"カミネゴリ","prefecture_code":18},"0081":{"zip_code":"9170081","prefecture":"福井県","prefecture_kana":"フクイケン","city":"小浜市","city_kana":"オバマシ","town":"川崎","town_kana":"カワサキ","prefecture_code":18},"0025":{"zip_code":"9170025","prefecture":"福井県","prefecture_kana":"フクイケン","city":"小浜市","city_kana":"オバマシ","town":"木崎","town_kana":"キザキ","prefecture_code":18},"0014":[{"zip_code":"9170014","prefecture":"福井県","prefecture_kana":"フクイケン","city":"小浜市","city_kana":"オバマシ","town":"北川","town_kana":"キタガワ","prefecture_code":18},{"zip_code":"9170014","prefecture":"福井県","prefecture_kana":"フクイケン","city":"小浜市","city_kana":"オバマシ","town":"高塚","town_kana":"タカツカ","prefecture_code":18}],"0002":[{"zip_code":"9170002","prefecture":"福井県","prefecture_kana":"フクイケン","city":"小浜市","city_kana":"オバマシ","town":"北長町","town_kana":"キタナガマチ","prefecture_code":18},{"zip_code":"9170002","prefecture":"福井県","prefecture_kana":"フクイケン","city":"小浜市","city_kana":"オバマシ","town":"北塩屋","town_kana":"キタシオヤ","prefecture_code":18}],"0035":{"zip_code":"9170035","prefecture":"福井県","prefecture_kana":"フクイケン","city":"小浜市","city_kana":"オバマシ","town":"口田縄","town_kana":"クチダノ","prefecture_code":18},"0012":{"zip_code":"9170012","prefecture":"福井県","prefecture_kana":"フクイケン","city":"小浜市","city_kana":"オバマシ","town":"熊野","town_kana":"クマノ","prefecture_code":18},"0015":{"zip_code":"9170015","prefecture":"福井県","prefecture_kana":"フクイケン","city":"小浜市","city_kana":"オバマシ","town":"栗田","town_kana":"クリタ","prefecture_code":18},"0047":{"zip_code":"9170047","prefecture":"福井県","prefecture_kana":"フクイケン","city":"小浜市","city_kana":"オバマシ","town":"鯉川","town_kana":"コイガワ","prefecture_code":18},"0107":{"zip_code":"9170107","prefecture":"福井県","prefecture_kana":"フクイケン","city":"小浜市","city_kana":"オバマシ","town":"甲ケ崎","town_kana":"コガサキ","prefecture_code":18},"0231":{"zip_code":"9170231","prefecture":"福井県","prefecture_kana":"フクイケン","city":"小浜市","city_kana":"オバマシ","town":"国分","town_kana":"コクブ","prefecture_code":18},"0006":{"zip_code":"9170006","prefecture":"福井県","prefecture_kana":"フクイケン","city":"小浜市","city_kana":"オバマシ","town":"小松原","town_kana":"コマツバラ","prefecture_code":18},"0019":{"zip_code":"9170019","prefecture":"福井県","prefecture_kana":"フクイケン","city":"小浜市","city_kana":"オバマシ","town":"山王前","town_kana":"サンノウマエ","prefecture_code":18},"0236":{"zip_code":"9170236","prefecture":"福井県","prefecture_kana":"フクイケン","city":"小浜市","city_kana":"オバマシ","town":"三分一","town_kana":"サンブイチ","prefecture_code":18},"0103":{"zip_code":"9170103","prefecture":"福井県","prefecture_kana":"フクイケン","city":"小浜市","city_kana":"オバマシ","town":"志積","town_kana":"シツミ","prefecture_code":18},"0235":{"zip_code":"9170235","prefecture":"福井県","prefecture_kana":"フクイケン","city":"小浜市","city_kana":"オバマシ","town":"四分一","town_kana":"シブイチ","prefecture_code":18},"0355":{"zip_code":"9170355","prefecture":"福井県","prefecture_kana":"フクイケン","city":"小浜市","city_kana":"オバマシ","town":"下田","town_kana":"シモタ","prefecture_code":18},"0007":[{"zip_code":"9170007","prefecture":"福井県","prefecture_kana":"フクイケン","city":"小浜市","city_kana":"オバマシ","town":"下竹原","town_kana":"シモダワラ","prefecture_code":18},{"zip_code":"9170007","prefecture":"福井県","prefecture_kana":"フクイケン","city":"小浜市","city_kana":"オバマシ","town":"西長町","town_kana":"ニシナガマチ","prefecture_code":18}],"0246":{"zip_code":"9170246","prefecture":"福井県","prefecture_kana":"フクイケン","city":"小浜市","city_kana":"オバマシ","town":"下根来","town_kana":"シモネゴリ","prefecture_code":18},"0095":{"zip_code":"9170095","prefecture":"福井県","prefecture_kana":"フクイケン","city":"小浜市","city_kana":"オバマシ","town":"城内","town_kana":"ジョウナイ","prefecture_code":18},"0244":{"zip_code":"9170244","prefecture":"福井県","prefecture_kana":"フクイケン","city":"小浜市","city_kana":"オバマシ","town":"神宮寺","town_kana":"ジングウジ","prefecture_code":18},"0008":{"zip_code":"9170008","prefecture":"福井県","prefecture_kana":"フクイケン","city":"小浜市","city_kana":"オバマシ","town":"新小松原","town_kana":"シンコマツバラ","prefecture_code":18},"0222":{"zip_code":"9170222","prefecture":"福井県","prefecture_kana":"フクイケン","city":"小浜市","city_kana":"オバマシ","town":"新保","town_kana":"シンボ","prefecture_code":18},"0033":{"zip_code":"9170033","prefecture":"福井県","prefecture_kana":"フクイケン","city":"小浜市","city_kana":"オバマシ","town":"須縄","town_kana":"スノ","prefecture_code":18},"0021":[{"zip_code":"9170021","prefecture":"福井県","prefecture_kana":"フクイケン","city":"小浜市","city_kana":"オバマシ","town":"関","town_kana":"セキ","prefecture_code":18},{"zip_code":"9170021","prefecture":"福井県","prefecture_kana":"フクイケン","city":"小浜市","city_kana":"オバマシ","town":"竹原","town_kana":"タワラ","prefecture_code":18}],"0233":{"zip_code":"9170233","prefecture":"福井県","prefecture_kana":"フクイケン","city":"小浜市","city_kana":"オバマシ","town":"太興寺","town_kana":"タイコウジ","prefecture_code":18},"0351":{"zip_code":"9170351","prefecture":"福井県","prefecture_kana":"フクイケン","city":"小浜市","city_kana":"オバマシ","town":"田茂谷","town_kana":"タモタニ","prefecture_code":18},"0101":{"zip_code":"9170101","prefecture":"福井県","prefecture_kana":"フクイケン","city":"小浜市","city_kana":"オバマシ","town":"田烏","town_kana":"タガラス","prefecture_code":18},"0224":{"zip_code":"9170224","prefecture":"福井県","prefecture_kana":"フクイケン","city":"小浜市","city_kana":"オバマシ","town":"竹長","town_kana":"タケナガ","prefecture_code":18},"0026":{"zip_code":"9170026","prefecture":"福井県","prefecture_kana":"フクイケン","city":"小浜市","city_kana":"オバマシ","town":"多田","town_kana":"タダ","prefecture_code":18},"0013":{"zip_code":"9170013","prefecture":"福井県","prefecture_kana":"フクイケン","city":"小浜市","city_kana":"オバマシ","town":"太良庄","town_kana":"タラノショウ","prefecture_code":18},"0072":{"zip_code":"9170072","prefecture":"福井県","prefecture_kana":"フクイケン","city":"小浜市","city_kana":"オバマシ","town":"千種","town_kana":"チグサ","prefecture_code":18},"0245":{"zip_code":"9170245","prefecture":"福井県","prefecture_kana":"フクイケン","city":"小浜市","city_kana":"オバマシ","town":"忠野","town_kana":"チュウノ","prefecture_code":18},"0016":{"zip_code":"9170016","prefecture":"福井県","prefecture_kana":"フクイケン","city":"小浜市","city_kana":"オバマシ","town":"次吉","town_kana":"ツギヨシ","prefecture_code":18},"0232":{"zip_code":"9170232","prefecture":"福井県","prefecture_kana":"フクイケン","city":"小浜市","city_kana":"オバマシ","town":"東市場","town_kana":"トイチバ","prefecture_code":18},"0117":{"zip_code":"9170117","prefecture":"福井県","prefecture_kana":"フクイケン","city":"小浜市","city_kana":"オバマシ","town":"泊","town_kana":"トマリ","prefecture_code":18},"0247":{"zip_code":"9170247","prefecture":"福井県","prefecture_kana":"フクイケン","city":"小浜市","city_kana":"オバマシ","town":"中ノ畑","town_kana":"ナカノハタ","prefecture_code":18},"0011":{"zip_code":"9170011","prefecture":"福井県","prefecture_kana":"フクイケン","city":"小浜市","city_kana":"オバマシ","town":"奈胡","town_kana":"ナゴ","prefecture_code":18},"0111":{"zip_code":"9170111","prefecture":"福井県","prefecture_kana":"フクイケン","city":"小浜市","city_kana":"オバマシ","town":"西小川","town_kana":"ニシオガワ","prefecture_code":18},"0043":{"zip_code":"9170043","prefecture":"福井県","prefecture_kana":"フクイケン","city":"小浜市","city_kana":"オバマシ","town":"西勢","town_kana":"ニシセイ","prefecture_code":18},"0091":{"zip_code":"9170091","prefecture":"福井県","prefecture_kana":"フクイケン","city":"小浜市","city_kana":"オバマシ","town":"西津","town_kana":"ニシヅ","prefecture_code":18},"0028":{"zip_code":"9170028","prefecture":"福井県","prefecture_kana":"フクイケン","city":"小浜市","city_kana":"オバマシ","town":"野代","town_kana":"ノダイ","prefecture_code":18},"0074":{"zip_code":"9170074","prefecture":"福井県","prefecture_kana":"フクイケン","city":"小浜市","city_kana":"オバマシ","town":"後瀬町","town_kana":"ノチセチョウ","prefecture_code":18},"0042":{"zip_code":"9170042","prefecture":"福井県","prefecture_kana":"フクイケン","city":"小浜市","city_kana":"オバマシ","town":"東勢","town_kana":"ヒガシセイ","prefecture_code":18},"0226":{"zip_code":"9170226","prefecture":"福井県","prefecture_kana":"フクイケン","city":"小浜市","city_kana":"オバマシ","town":"平野","town_kana":"ヒラノ","prefecture_code":18},"0352":{"zip_code":"9170352","prefecture":"福井県","prefecture_kana":"フクイケン","city":"小浜市","city_kana":"オバマシ","town":"深谷","town_kana":"フカタニ","prefecture_code":18},"0353":{"zip_code":"9170353","prefecture":"福井県","prefecture_kana":"フクイケン","city":"小浜市","city_kana":"オバマシ","town":"深野","town_kana":"フカノ","prefecture_code":18},"0001":{"zip_code":"9170001","prefecture":"福井県","prefecture_kana":"フクイケン","city":"小浜市","city_kana":"オバマシ","town":"福谷","town_kana":"フクタニ","prefecture_code":18},"0054":{"zip_code":"9170054","prefecture":"福井県","prefecture_kana":"フクイケン","city":"小浜市","city_kana":"オバマシ","town":"伏原","town_kana":"フシワラ","prefecture_code":18},"0023":{"zip_code":"9170023","prefecture":"福井県","prefecture_kana":"フクイケン","city":"小浜市","city_kana":"オバマシ","town":"府中","town_kana":"フチュウ","prefecture_code":18},"0115":{"zip_code":"9170115","prefecture":"福井県","prefecture_kana":"フクイケン","city":"小浜市","city_kana":"オバマシ","town":"仏谷","town_kana":"ホトケダニ","prefecture_code":18},"0097":{"zip_code":"9170097","prefecture":"福井県","prefecture_kana":"フクイケン","city":"小浜市","city_kana":"オバマシ","town":"堀屋敷","town_kana":"ホリヤシキ","prefecture_code":18},"0225":{"zip_code":"9170225","prefecture":"福井県","prefecture_kana":"フクイケン","city":"小浜市","city_kana":"オバマシ","town":"本保","town_kana":"ホンボ","prefecture_code":18},"0018":{"zip_code":"9170018","prefecture":"福井県","prefecture_kana":"フクイケン","city":"小浜市","city_kana":"オバマシ","town":"松ケ崎","town_kana":"マツガサキ","prefecture_code":18},"0094":{"zip_code":"9170094","prefecture":"福井県","prefecture_kana":"フクイケン","city":"小浜市","city_kana":"オバマシ","town":"丸山","town_kana":"マルヤマ","prefecture_code":18},"0093":{"zip_code":"9170093","prefecture":"福井県","prefecture_kana":"フクイケン","city":"小浜市","city_kana":"オバマシ","town":"水取","town_kana":"ミズトリ","prefecture_code":18},"0075":{"zip_code":"9170075","prefecture":"福井県","prefecture_kana":"フクイケン","city":"小浜市","city_kana":"オバマシ","town":"南川町","town_kana":"ミナミガワチョウ","prefecture_code":18},"0249":{"zip_code":"9170249","prefecture":"福井県","prefecture_kana":"フクイケン","city":"小浜市","city_kana":"オバマシ","town":"宮の前","town_kana":"ミヤノマエ","prefecture_code":18},"0237":{"zip_code":"9170237","prefecture":"福井県","prefecture_kana":"フクイケン","city":"小浜市","city_kana":"オバマシ","town":"門前","town_kana":"モンゼン","prefecture_code":18},"0102":{"zip_code":"9170102","prefecture":"福井県","prefecture_kana":"フクイケン","city":"小浜市","city_kana":"オバマシ","town":"矢代","town_kana":"ヤシロ","prefecture_code":18},"0031":{"zip_code":"9170031","prefecture":"福井県","prefecture_kana":"フクイケン","city":"小浜市","city_kana":"オバマシ","town":"谷田部","town_kana":"ヤタベ","prefecture_code":18},"0092":{"zip_code":"9170092","prefecture":"福井県","prefecture_kana":"フクイケン","city":"小浜市","city_kana":"オバマシ","town":"山手","town_kana":"ヤマテ","prefecture_code":18},"0076":{"zip_code":"9170076","prefecture":"福井県","prefecture_kana":"フクイケン","city":"小浜市","city_kana":"オバマシ","town":"湯岡","town_kana":"ユノオカ","prefecture_code":18},"0073":{"zip_code":"9170073","prefecture":"福井県","prefecture_kana":"フクイケン","city":"小浜市","city_kana":"オバマシ","town":"四谷町","town_kana":"ヨツヤチョウ","prefecture_code":18},"0243":{"zip_code":"9170243","prefecture":"福井県","prefecture_kana":"フクイケン","city":"小浜市","city_kana":"オバマシ","town":"竜前","town_kana":"リュウゼン","prefecture_code":18},"0114":{"zip_code":"9170114","prefecture":"福井県","prefecture_kana":"フクイケン","city":"小浜市","city_kana":"オバマシ","town":"若狭","town_kana":"ワカサ","prefecture_code":18},"0024":{"zip_code":"9170024","prefecture":"福井県","prefecture_kana":"フクイケン","city":"小浜市","city_kana":"オバマシ","town":"和久里","town_kana":"ワクリ","prefecture_code":18},"0354":{"zip_code":"9170354","prefecture":"福井県","prefecture_kana":"フクイケン","city":"小浜市","city_kana":"オバマシ","town":"和多田","town_kana":"ワダタ","prefecture_code":18},"0363":{"zip_code":"9170363","prefecture":"福井県","prefecture_kana":"フクイケン","city":"大飯郡おおい町","city_kana":"オオイグンオオイチョウ","town":"名田庄挙野","town_kana":"ナタショウアゲノ","prefecture_code":18},"0361":[{"zip_code":"9170361","prefecture":"福井県","prefecture_kana":"フクイケン","city":"大飯郡おおい町","city_kana":"オオイグンオオイチョウ","town":"名田庄挙原","town_kana":"ナタショウアゲハラ","prefecture_code":18},{"zip_code":"9170361","prefecture":"福井県","prefecture_kana":"フクイケン","city":"大飯郡おおい町","city_kana":"オオイグンオオイチョウ","town":"名田庄木谷","town_kana":"ナタショウキダニ","prefecture_code":18},{"zip_code":"9170361","prefecture":"福井県","prefecture_kana":"フクイケン","city":"大飯郡おおい町","city_kana":"オオイグンオオイチョウ","town":"名田庄出合","town_kana":"ナタショウデアイ","prefecture_code":18},{"zip_code":"9170361","prefecture":"福井県","prefecture_kana":"フクイケン","city":"大飯郡おおい町","city_kana":"オオイグンオオイチョウ","town":"名田庄虫谷","town_kana":"ナタショウムシダニ","prefecture_code":18}],"0385":{"zip_code":"9170385","prefecture":"福井県","prefecture_kana":"フクイケン","city":"大飯郡おおい町","city_kana":"オオイグンオオイチョウ","town":"名田庄井上","town_kana":"ナタショウイガミ","prefecture_code":18},"0387":{"zip_code":"9170387","prefecture":"福井県","prefecture_kana":"フクイケン","city":"大飯郡おおい町","city_kana":"オオイグンオオイチョウ","town":"名田庄奥坂本","town_kana":"ナタショウオクサカモト","prefecture_code":18},"0371":{"zip_code":"9170371","prefecture":"福井県","prefecture_kana":"フクイケン","city":"大飯郡おおい町","city_kana":"オオイグンオオイチョウ","town":"名田庄小倉","town_kana":"ナタショウオグラ","prefecture_code":18},"0365":{"zip_code":"9170365","prefecture":"福井県","prefecture_kana":"フクイケン","city":"大飯郡おおい町","city_kana":"オオイグンオオイチョウ","town":"名田庄小倉畑","town_kana":"ナタショウオグラハタ","prefecture_code":18},"0386":{"zip_code":"9170386","prefecture":"福井県","prefecture_kana":"フクイケン","city":"大飯郡おおい町","city_kana":"オオイグンオオイチョウ","town":"名田庄口坂本","town_kana":"ナタショウクチサカモト","prefecture_code":18},"0383":{"zip_code":"9170383","prefecture":"福井県","prefecture_kana":"フクイケン","city":"大飯郡おおい町","city_kana":"オオイグンオオイチョウ","town":"名田庄下","town_kana":"ナタショウシモ","prefecture_code":18},"0373":[{"zip_code":"9170373","prefecture":"福井県","prefecture_kana":"フクイケン","city":"大飯郡おおい町","city_kana":"オオイグンオオイチョウ","town":"名田庄染ケ谷","town_kana":"ナタショウソメガタニ","prefecture_code":18},{"zip_code":"9170373","prefecture":"福井県","prefecture_kana":"フクイケン","city":"大飯郡おおい町","city_kana":"オオイグンオオイチョウ","town":"名田庄槇谷","town_kana":"ナタショウマキダニ","prefecture_code":18}],"0372":{"zip_code":"9170372","prefecture":"福井県","prefecture_kana":"フクイケン","city":"大飯郡おおい町","city_kana":"オオイグンオオイチョウ","town":"名田庄堂本","town_kana":"ナタショウドウモト","prefecture_code":18},"0374":{"zip_code":"9170374","prefecture":"福井県","prefecture_kana":"フクイケン","city":"大飯郡おおい町","city_kana":"オオイグンオオイチョウ","town":"名田庄中","town_kana":"ナタショウナカ","prefecture_code":18},"0362":{"zip_code":"9170362","prefecture":"福井県","prefecture_kana":"フクイケン","city":"大飯郡おおい町","city_kana":"オオイグンオオイチョウ","town":"名田庄永谷","town_kana":"ナタショウナガタニ","prefecture_code":18},"0384":{"zip_code":"9170384","prefecture":"福井県","prefecture_kana":"フクイケン","city":"大飯郡おおい町","city_kana":"オオイグンオオイチョウ","town":"名田庄西谷","town_kana":"ナタショウニシダニ","prefecture_code":18},"0375":{"zip_code":"9170375","prefecture":"福井県","prefecture_kana":"フクイケン","city":"大飯郡おおい町","city_kana":"オオイグンオオイチョウ","town":"名田庄納田終","town_kana":"ナタショウノタオイ","prefecture_code":18},"0382":{"zip_code":"9170382","prefecture":"福井県","prefecture_kana":"フクイケン","city":"大飯郡おおい町","city_kana":"オオイグンオオイチョウ","town":"名田庄久坂","town_kana":"ナタショウヒササカ","prefecture_code":18},"0381":{"zip_code":"9170381","prefecture":"福井県","prefecture_kana":"フクイケン","city":"大飯郡おおい町","city_kana":"オオイグンオオイチョウ","town":"名田庄三重","town_kana":"ナタショウミエ","prefecture_code":18},"0364":{"zip_code":"9170364","prefecture":"福井県","prefecture_kana":"フクイケン","city":"大飯郡おおい町","city_kana":"オオイグンオオイチョウ","town":"名田庄虫鹿野","town_kana":"ナタショウムシガノ","prefecture_code":18}}