{"0000":{"zip_code":"9180000","prefecture":"福井県","prefecture_kana":"フクイケン","city":"福井市","city_kana":"フクイシ","town":"","town_kana":"","prefecture_code":18},"8052":{"zip_code":"9188052","prefecture":"福井県","prefecture_kana":"フクイケン","city":"福井市","city_kana":"フクイシ","town":"明里町","town_kana":"アカリチョウ","prefecture_code":18},"8007":{"zip_code":"9188007","prefecture":"福井県","prefecture_kana":"フクイケン","city":"福井市","city_kana":"フクイシ","town":"足羽","town_kana":"アスワ","prefecture_code":18},"8006":{"zip_code":"9188006","prefecture":"福井県","prefecture_kana":"フクイケン","city":"福井市","city_kana":"フクイシ","town":"足羽上町","town_kana":"アスワカミチョウ","prefecture_code":18},"8183":{"zip_code":"9188183","prefecture":"福井県","prefecture_kana":"フクイケン","city":"福井市","city_kana":"フクイシ","town":"浅水三ケ町","town_kana":"アソウズサンガチョウ","prefecture_code":18},"8181":{"zip_code":"9188181","prefecture":"福井県","prefecture_kana":"フクイケン","city":"福井市","city_kana":"フクイシ","town":"浅水町","town_kana":"アソウズチョウ","prefecture_code":18},"8182":{"zip_code":"9188182","prefecture":"福井県","prefecture_kana":"フクイケン","city":"福井市","city_kana":"フクイシ","town":"浅水二日町","town_kana":"アソウズフツカマチ","prefecture_code":18},"8153":{"zip_code":"9188153","prefecture":"福井県","prefecture_kana":"フクイケン","city":"福井市","city_kana":"フクイシ","town":"安保町","town_kana":"アボチョウ","prefecture_code":18},"8232":{"zip_code":"9188232","prefecture":"福井県","prefecture_kana":"フクイケン","city":"福井市","city_kana":"フクイシ","town":"荒木別所町","town_kana":"アラキベッシヨチョウ","prefecture_code":18},"8067":{"zip_code":"9188067","prefecture":"福井県","prefecture_kana":"フクイケン","city":"福井市","city_kana":"フクイシ","town":"飯塚町","town_kana":"イイヅカチョウ","prefecture_code":18},"8104":{"zip_code":"9188104","prefecture":"福井県","prefecture_kana":"フクイケン","city":"福井市","city_kana":"フクイシ","town":"板垣","town_kana":"イタガキ","prefecture_code":18},"8103":{"zip_code":"9188103","prefecture":"福井県","prefecture_kana":"フクイケン","city":"福井市","city_kana":"フクイシ","town":"板垣町","town_kana":"イタガキチョウ","prefecture_code":18},"8101":{"zip_code":"9188101","prefecture":"福井県","prefecture_kana":"フクイケン","city":"福井市","city_kana":"フクイシ","town":"一本木町","town_kana":"イッポンギチョウ","prefecture_code":18},"8213":{"zip_code":"9188213","prefecture":"福井県","prefecture_kana":"フクイケン","city":"福井市","city_kana":"フクイシ","town":"今泉町","town_kana":"イマイズミチョウ","prefecture_code":18},"8152":{"zip_code":"9188152","prefecture":"福井県","prefecture_kana":"フクイケン","city":"福井市","city_kana":"フクイシ","town":"今市町","town_kana":"イマイチチョウ","prefecture_code":18},"8217":{"zip_code":"9188217","prefecture":"福井県","prefecture_kana":"フクイケン","city":"福井市","city_kana":"フクイシ","town":"印田町","town_kana":"インデンチョウ","prefecture_code":18},"8114":{"zip_code":"9188114","prefecture":"福井県","prefecture_kana":"フクイケン","city":"福井市","city_kana":"フクイシ","town":"羽水","town_kana":"ウスイ","prefecture_code":18},"8111":{"zip_code":"9188111","prefecture":"福井県","prefecture_kana":"フクイケン","city":"福井市","city_kana":"フクイシ","town":"馬垣町","town_kana":"ウマガキチョウ","prefecture_code":18},"8046":{"zip_code":"9188046","prefecture":"福井県","prefecture_kana":"フクイケン","city":"福井市","city_kana":"フクイシ","town":"運動公園","town_kana":"ウンドウコウエン","prefecture_code":18},"8175":{"zip_code":"9188175","prefecture":"福井県","prefecture_kana":"フクイケン","city":"福井市","city_kana":"フクイシ","town":"江尻ケ丘町","town_kana":"エジリガオカチョウ","prefecture_code":18},"8016":{"zip_code":"9188016","prefecture":"福井県","prefecture_kana":"フクイケン","city":"福井市","city_kana":"フクイシ","town":"江端町","town_kana":"エバタチョウ","prefecture_code":18},"8025":[{"zip_code":"9188025","prefecture":"福井県","prefecture_kana":"フクイケン","city":"福井市","city_kana":"フクイシ","town":"江守中","town_kana":"エモリナカ","prefecture_code":18},{"zip_code":"9188025","prefecture":"福井県","prefecture_kana":"フクイケン","city":"福井市","city_kana":"フクイシ","town":"江守中町","town_kana":"エモリナカチョウ","prefecture_code":18}],"8035":{"zip_code":"9188035","prefecture":"福井県","prefecture_kana":"フクイケン","city":"福井市","city_kana":"フクイシ","town":"江守の里","town_kana":"エモリノサト","prefecture_code":18},"8207":{"zip_code":"9188207","prefecture":"福井県","prefecture_kana":"フクイケン","city":"福井市","city_kana":"フクイシ","town":"円山","town_kana":"エンザン","prefecture_code":18},"8018":{"zip_code":"9188018","prefecture":"福井県","prefecture_kana":"フクイケン","city":"福井市","city_kana":"フクイシ","town":"大島町","town_kana":"オオシマチョウ","prefecture_code":18},"8063":{"zip_code":"9188063","prefecture":"福井県","prefecture_kana":"フクイケン","city":"福井市","city_kana":"フクイシ","town":"大瀬町","town_kana":"オオセチョウ","prefecture_code":18},"8116":{"zip_code":"9188116","prefecture":"福井県","prefecture_kana":"フクイケン","city":"福井市","city_kana":"フクイシ","town":"大町","town_kana":"オオマチ","prefecture_code":18},"8228":{"zip_code":"9188228","prefecture":"福井県","prefecture_kana":"フクイケン","city":"福井市","city_kana":"フクイシ","town":"岡西谷町","town_kana":"オカニシタニチョウ","prefecture_code":18},"8071":{"zip_code":"9188071","prefecture":"福井県","prefecture_kana":"フクイケン","city":"福井市","city_kana":"フクイシ","town":"恐神町","town_kana":"オソガミチョウ","prefecture_code":18},"8226":{"zip_code":"9188226","prefecture":"福井県","prefecture_kana":"フクイケン","city":"福井市","city_kana":"フクイシ","town":"大畑町","town_kana":"オバタケチョウ","prefecture_code":18},"8053":{"zip_code":"9188053","prefecture":"福井県","prefecture_kana":"フクイケン","city":"福井市","city_kana":"フクイシ","town":"小山谷町","town_kana":"オヤマダニチョウ","prefecture_code":18},"8108":{"zip_code":"9188108","prefecture":"福井県","prefecture_kana":"フクイケン","city":"福井市","city_kana":"フクイシ","town":"春日","town_kana":"カスガ","prefecture_code":18},"8107":{"zip_code":"9188107","prefecture":"福井県","prefecture_kana":"フクイケン","city":"福井市","city_kana":"フクイシ","town":"春日町","town_kana":"カスガチョウ","prefecture_code":18},"8166":{"zip_code":"9188166","prefecture":"福井県","prefecture_kana":"フクイケン","city":"福井市","city_kana":"フクイシ","town":"主計中町","town_kana":"カズエナカチョウ","prefecture_code":18},"8061":{"zip_code":"9188061","prefecture":"福井県","prefecture_kana":"フクイケン","city":"福井市","city_kana":"フクイシ","town":"金屋町","town_kana":"カナヤチョウ","prefecture_code":18},"8133":{"zip_code":"9188133","prefecture":"福井県","prefecture_kana":"フクイケン","city":"福井市","city_kana":"フクイシ","town":"上莇生田町","town_kana":"カミアゾウダチョウ","prefecture_code":18},"8081":{"zip_code":"9188081","prefecture":"福井県","prefecture_kana":"フクイケン","city":"福井市","city_kana":"フクイシ","town":"上一光町","town_kana":"カミイカリチョウ","prefecture_code":18},"8174":{"zip_code":"9188174","prefecture":"福井県","prefecture_kana":"フクイケン","city":"福井市","city_kana":"フクイシ","town":"上江尻町","town_kana":"カミエジリチョウ","prefecture_code":18},"8203":{"zip_code":"9188203","prefecture":"福井県","prefecture_kana":"フクイケン","city":"福井市","city_kana":"フクイシ","town":"上北野","town_kana":"カミキタノ","prefecture_code":18},"8132":{"zip_code":"9188132","prefecture":"福井県","prefecture_kana":"フクイケン","city":"福井市","city_kana":"フクイシ","town":"上六条町","town_kana":"カミロクジョウチョウ","prefecture_code":18},"8057":{"zip_code":"9188057","prefecture":"福井県","prefecture_kana":"フクイケン","city":"福井市","city_kana":"フクイシ","town":"加茂河原","town_kana":"カモガワラ","prefecture_code":18},"8054":{"zip_code":"9188054","prefecture":"福井県","prefecture_kana":"フクイケン","city":"福井市","city_kana":"フクイシ","town":"加茂河原町","town_kana":"カモガワラチョウ","prefecture_code":18},"8058":{"zip_code":"9188058","prefecture":"福井県","prefecture_kana":"フクイケン","city":"福井市","city_kana":"フクイシ","town":"加茂緑苑町","town_kana":"カモリョクエンチョウ","prefecture_code":18},"8212":{"zip_code":"9188212","prefecture":"福井県","prefecture_kana":"フクイケン","city":"福井市","city_kana":"フクイシ","town":"北今泉町","town_kana":"キタイマイズミチョウ","prefecture_code":18},"8072":{"zip_code":"9188072","prefecture":"福井県","prefecture_kana":"フクイケン","city":"福井市","city_kana":"フクイシ","town":"北堀町","town_kana":"キタホリチョウ","prefecture_code":18},"8205":{"zip_code":"9188205","prefecture":"福井県","prefecture_kana":"フクイケン","city":"福井市","city_kana":"フクイシ","town":"北四ツ居","town_kana":"キタヨツイ","prefecture_code":18},"8206":{"zip_code":"9188206","prefecture":"福井県","prefecture_kana":"フクイケン","city":"福井市","city_kana":"フクイシ","town":"北四ツ居町","town_kana":"キタヨツイチョウ","prefecture_code":18},"8105":{"zip_code":"9188105","prefecture":"福井県","prefecture_kana":"フクイケン","city":"福井市","city_kana":"フクイシ","town":"木田","town_kana":"キダ","prefecture_code":18},"8106":{"zip_code":"9188106","prefecture":"福井県","prefecture_kana":"フクイケン","city":"福井市","city_kana":"フクイシ","town":"木田町","town_kana":"キダチョウ","prefecture_code":18},"8043":{"zip_code":"9188043","prefecture":"福井県","prefecture_kana":"フクイケン","city":"福井市","city_kana":"フクイシ","town":"狐橋","town_kana":"キツネバシ","prefecture_code":18},"8047":{"zip_code":"9188047","prefecture":"福井県","prefecture_kana":"フクイケン","city":"福井市","city_kana":"フクイシ","town":"久喜津町","town_kana":"クキヅチョウ","prefecture_code":18},"8112":{"zip_code":"9188112","prefecture":"福井県","prefecture_kana":"フクイケン","city":"福井市","city_kana":"フクイシ","town":"下馬","town_kana":"ゲバ","prefecture_code":18},"8113":{"zip_code":"9188113","prefecture":"福井県","prefecture_kana":"フクイケン","city":"福井市","city_kana":"フクイシ","town":"下馬町","town_kana":"ゲバチョウ","prefecture_code":18},"8003":{"zip_code":"9188003","prefecture":"福井県","prefecture_kana":"フクイケン","city":"福井市","city_kana":"フクイシ","town":"毛矢","town_kana":"ケヤ","prefecture_code":18},"8221":{"zip_code":"9188221","prefecture":"福井県","prefecture_kana":"フクイケン","city":"福井市","city_kana":"フクイシ","town":"堅達町","town_kana":"ゲンダツチョウ","prefecture_code":18},"8131":{"zip_code":"9188131","prefecture":"福井県","prefecture_kana":"フクイケン","city":"福井市","city_kana":"フクイシ","town":"小稲津町","town_kana":"コイナヅチョウ","prefecture_code":18},"8233":{"zip_code":"9188233","prefecture":"福井県","prefecture_kana":"フクイケン","city":"福井市","city_kana":"フクイシ","town":"合島町","town_kana":"ゴウシマチョウ","prefecture_code":18},"8223":{"zip_code":"9188223","prefecture":"福井県","prefecture_kana":"フクイケン","city":"福井市","city_kana":"フクイシ","town":"河水町","town_kana":"コウスイチョウ","prefecture_code":18},"8033":{"zip_code":"9188033","prefecture":"福井県","prefecture_kana":"フクイケン","city":"福井市","city_kana":"フクイシ","town":"合谷町","town_kana":"ゴウダニチョウ","prefecture_code":18},"8218":{"zip_code":"9188218","prefecture":"福井県","prefecture_kana":"フクイケン","city":"福井市","city_kana":"フクイシ","town":"河増町","town_kana":"コウマスチョウ","prefecture_code":18},"8083":{"zip_code":"9188083","prefecture":"福井県","prefecture_kana":"フクイケン","city":"福井市","city_kana":"フクイシ","town":"五太子町","town_kana":"ゴタイシチョウ","prefecture_code":18},"8222":{"zip_code":"9188222","prefecture":"福井県","prefecture_kana":"フクイケン","city":"福井市","city_kana":"フクイシ","town":"坂下町","town_kana":"サカシタチョウ","prefecture_code":18},"8002":{"zip_code":"9188002","prefecture":"福井県","prefecture_kana":"フクイケン","city":"福井市","city_kana":"フクイシ","town":"左内町","town_kana":"サナイチョウ","prefecture_code":18},"8078":{"zip_code":"9188078","prefecture":"福井県","prefecture_kana":"フクイケン","city":"福井市","city_kana":"フクイシ","town":"更毛町","town_kana":"サラゲチョウ","prefecture_code":18},"8176":{"zip_code":"9188176","prefecture":"福井県","prefecture_kana":"フクイケン","city":"福井市","city_kana":"フクイシ","town":"三十八社町","town_kana":"サンジュウハッシャチョウ","prefecture_code":18},"8164":{"zip_code":"9188164","prefecture":"福井県","prefecture_kana":"フクイケン","city":"福井市","city_kana":"フクイシ","town":"三本木町","town_kana":"サンボンギチョウ","prefecture_code":18},"8134":{"zip_code":"9188134","prefecture":"福井県","prefecture_kana":"フクイケン","city":"福井市","city_kana":"フクイシ","town":"下莇生田町","town_kana":"シモアゾウダチョウ","prefecture_code":18},"8017":{"zip_code":"9188017","prefecture":"福井県","prefecture_kana":"フクイケン","city":"福井市","city_kana":"フクイシ","town":"下荒井町","town_kana":"シモアライチョウ","prefecture_code":18},"8082":{"zip_code":"9188082","prefecture":"福井県","prefecture_kana":"フクイケン","city":"福井市","city_kana":"フクイシ","town":"下一光町","town_kana":"シモイカリチョウ","prefecture_code":18},"8062":{"zip_code":"9188062","prefecture":"福井県","prefecture_kana":"フクイケン","city":"福井市","city_kana":"フクイシ","town":"下市町","town_kana":"シモイチチョウ","prefecture_code":18},"8173":{"zip_code":"9188173","prefecture":"福井県","prefecture_kana":"フクイケン","city":"福井市","city_kana":"フクイシ","town":"下江尻町","town_kana":"シモエジリチョウ","prefecture_code":18},"8037":{"zip_code":"9188037","prefecture":"福井県","prefecture_kana":"フクイケン","city":"福井市","city_kana":"フクイシ","town":"下江守町","town_kana":"シモエモリチョウ","prefecture_code":18},"8211":{"zip_code":"9188211","prefecture":"福井県","prefecture_kana":"フクイケン","city":"福井市","city_kana":"フクイシ","town":"下中町","town_kana":"シモナカチョウ","prefecture_code":18},"8135":{"zip_code":"9188135","prefecture":"福井県","prefecture_kana":"フクイケン","city":"福井市","city_kana":"フクイシ","town":"下六条町","town_kana":"シモロクジョウチョウ","prefecture_code":18},"8163":{"zip_code":"9188163","prefecture":"福井県","prefecture_kana":"フクイケン","city":"福井市","city_kana":"フクイシ","town":"生野町","town_kana":"ショウノチョウ","prefecture_code":18},"8227":{"zip_code":"9188227","prefecture":"福井県","prefecture_kana":"フクイケン","city":"福井市","city_kana":"フクイシ","town":"次郎丸町","town_kana":"ジロウマルチョウ","prefecture_code":18},"8036":{"zip_code":"9188036","prefecture":"福井県","prefecture_kana":"フクイケン","city":"福井市","city_kana":"フクイシ","town":"新下江守町","town_kana":"シンシモエモリチョウ","prefecture_code":18},"8172":{"zip_code":"9188172","prefecture":"福井県","prefecture_kana":"フクイケン","city":"福井市","city_kana":"フクイシ","town":"末広町","town_kana":"スエヒロマチ","prefecture_code":18},"8077":{"zip_code":"9188077","prefecture":"福井県","prefecture_kana":"フクイケン","city":"福井市","city_kana":"フクイシ","town":"末町","town_kana":"スエマチ","prefecture_code":18},"8155":{"zip_code":"9188155","prefecture":"福井県","prefecture_kana":"フクイケン","city":"福井市","city_kana":"フクイシ","town":"杉谷町","town_kana":"スギタニチョウ","prefecture_code":18},"8239":{"zip_code":"9188239","prefecture":"福井県","prefecture_kana":"フクイケン","city":"福井市","city_kana":"フクイシ","town":"成和","town_kana":"セイワ","prefecture_code":18},"8234":{"zip_code":"9188234","prefecture":"福井県","prefecture_kana":"フクイケン","city":"福井市","city_kana":"フクイシ","town":"曽万布町","town_kana":"ソンボチョウ","prefecture_code":18},"8202":{"zip_code":"9188202","prefecture":"福井県","prefecture_kana":"フクイケン","city":"福井市","city_kana":"フクイシ","town":"大東","town_kana":"ダイトウ","prefecture_code":18},"8044":{"zip_code":"9188044","prefecture":"福井県","prefecture_kana":"フクイケン","city":"福井市","city_kana":"フクイシ","town":"高塚町","town_kana":"タカツカチョウ","prefecture_code":18},"8031":[{"zip_code":"9188031","prefecture":"福井県","prefecture_kana":"フクイケン","city":"福井市","city_kana":"フクイシ","town":"種池","town_kana":"タナイケ","prefecture_code":18},{"zip_code":"9188031","prefecture":"福井県","prefecture_kana":"フクイケン","city":"福井市","city_kana":"フクイシ","town":"種池町","town_kana":"タナイケチョウ","prefecture_code":18}],"8011":{"zip_code":"9188011","prefecture":"福井県","prefecture_kana":"フクイケン","city":"福井市","city_kana":"フクイシ","town":"月見","town_kana":"ツキミ","prefecture_code":18},"8001":{"zip_code":"9188001","prefecture":"福井県","prefecture_kana":"フクイケン","city":"福井市","city_kana":"フクイシ","town":"つくも","town_kana":"ツクモ","prefecture_code":18},"8068":{"zip_code":"9188068","prefecture":"福井県","prefecture_kana":"フクイケン","city":"福井市","city_kana":"フクイシ","town":"角折町","town_kana":"ツノオリチョウ","prefecture_code":18},"8162":{"zip_code":"9188162","prefecture":"福井県","prefecture_kana":"フクイケン","city":"福井市","city_kana":"フクイシ","town":"角原町","town_kana":"ツノハラチョウ","prefecture_code":18},"8216":{"zip_code":"9188216","prefecture":"福井県","prefecture_kana":"フクイケン","city":"福井市","city_kana":"フクイシ","town":"殿下町","town_kana":"テンガチョウ","prefecture_code":18},"8136":{"zip_code":"9188136","prefecture":"福井県","prefecture_kana":"フクイケン","city":"福井市","city_kana":"フクイシ","town":"天王町","town_kana":"テンノウチョウ","prefecture_code":18},"8231":{"zip_code":"9188231","prefecture":"福井県","prefecture_kana":"フクイケン","city":"福井市","city_kana":"フクイシ","town":"問屋町","town_kana":"トイヤチョウ","prefecture_code":18},"8165":{"zip_code":"9188165","prefecture":"福井県","prefecture_kana":"フクイケン","city":"福井市","city_kana":"フクイシ","town":"徳尾町","town_kana":"トクオチョウ","prefecture_code":18},"8151":{"zip_code":"9188151","prefecture":"福井県","prefecture_kana":"フクイケン","city":"福井市","city_kana":"フクイシ","town":"中荒井町","town_kana":"ナカアライマチ","prefecture_code":18},"8186":{"zip_code":"9188186","prefecture":"福井県","prefecture_kana":"フクイケン","city":"福井市","city_kana":"フクイシ","town":"中野","town_kana":"ナカノ","prefecture_code":18},"8185":{"zip_code":"9188185","prefecture":"福井県","prefecture_kana":"フクイケン","city":"福井市","city_kana":"フクイシ","town":"中野町","town_kana":"ナカノチョウ","prefecture_code":18},"8034":{"zip_code":"9188034","prefecture":"福井県","prefecture_kana":"フクイケン","city":"福井市","city_kana":"フクイシ","town":"南居町","town_kana":"ナゴチョウ","prefecture_code":18},"8102":{"zip_code":"9188102","prefecture":"福井県","prefecture_kana":"フクイケン","city":"福井市","city_kana":"フクイシ","town":"西板垣町","town_kana":"ニシイタガキチョウ","prefecture_code":18},"8064":{"zip_code":"9188064","prefecture":"福井県","prefecture_kana":"フクイケン","city":"福井市","city_kana":"フクイシ","town":"西学園","town_kana":"ニシガクエン","prefecture_code":18},"8004":{"zip_code":"9188004","prefecture":"福井県","prefecture_kana":"フクイケン","city":"福井市","city_kana":"フクイシ","town":"西木田","town_kana":"ニシキダ","prefecture_code":18},"8041":{"zip_code":"9188041","prefecture":"福井県","prefecture_kana":"フクイケン","city":"福井市","city_kana":"フクイシ","town":"西下野町","town_kana":"ニシシモノチョウ","prefecture_code":18},"8023":{"zip_code":"9188023","prefecture":"福井県","prefecture_kana":"フクイケン","city":"福井市","city_kana":"フクイシ","town":"西谷","town_kana":"ニシタニ","prefecture_code":18},"8022":{"zip_code":"9188022","prefecture":"福井県","prefecture_kana":"フクイケン","city":"福井市","city_kana":"フクイシ","town":"西谷町","town_kana":"ニシタニチョウ","prefecture_code":18},"8075":{"zip_code":"9188075","prefecture":"福井県","prefecture_kana":"フクイケン","city":"福井市","city_kana":"フクイシ","town":"羽坂町","town_kana":"ハザカチョウ","prefecture_code":18},"8224":{"zip_code":"9188224","prefecture":"福井県","prefecture_kana":"フクイケン","city":"福井市","city_kana":"フクイシ","town":"花野谷町","town_kana":"ハナノタニチョウ","prefecture_code":18},"8187":{"zip_code":"9188187","prefecture":"福井県","prefecture_kana":"フクイケン","city":"福井市","city_kana":"フクイシ","town":"花守町","town_kana":"ハナモリチョウ","prefecture_code":18},"8014":{"zip_code":"9188014","prefecture":"福井県","prefecture_kana":"フクイケン","city":"福井市","city_kana":"フクイシ","town":"花堂中","town_kana":"ハナンドウナカ","prefecture_code":18},"8013":{"zip_code":"9188013","prefecture":"福井県","prefecture_kana":"フクイケン","city":"福井市","city_kana":"フクイシ","town":"花堂東","town_kana":"ハナンドウヒガシ","prefecture_code":18},"8015":{"zip_code":"9188015","prefecture":"福井県","prefecture_kana":"フクイケン","city":"福井市","city_kana":"フクイシ","town":"花堂南","town_kana":"ハナンドウミナミ","prefecture_code":18},"8012":{"zip_code":"9188012","prefecture":"福井県","prefecture_kana":"フクイケン","city":"福井市","city_kana":"フクイシ","town":"花堂北","town_kana":"ハナンドウキタ","prefecture_code":18},"8214":{"zip_code":"9188214","prefecture":"福井県","prefecture_kana":"フクイケン","city":"福井市","city_kana":"フクイシ","town":"東今泉町","town_kana":"ヒガシイマイズミチョウ","prefecture_code":18},"8042":{"zip_code":"9188042","prefecture":"福井県","prefecture_kana":"フクイケン","city":"福井市","city_kana":"フクイシ","town":"東下野町","town_kana":"ヒガシシモノチョウ","prefecture_code":18},"8156":{"zip_code":"9188156","prefecture":"福井県","prefecture_kana":"フクイケン","city":"福井市","city_kana":"フクイシ","town":"引目町","town_kana":"ヒキメチョウ","prefecture_code":18},"8045":{"zip_code":"9188045","prefecture":"福井県","prefecture_kana":"フクイケン","city":"福井市","city_kana":"フクイシ","town":"福新町","town_kana":"フクシンマチ","prefecture_code":18},"8027":[{"zip_code":"9188027","prefecture":"福井県","prefecture_kana":"フクイケン","city":"福井市","city_kana":"フクイシ","town":"福","town_kana":"フク","prefecture_code":18},{"zip_code":"9188027","prefecture":"福井県","prefecture_kana":"フクイケン","city":"福井市","city_kana":"フクイシ","town":"福町","town_kana":"フクマチ","prefecture_code":18}],"8026":[{"zip_code":"9188026","prefecture":"福井県","prefecture_kana":"フクイケン","city":"福井市","city_kana":"フクイシ","town":"渕","town_kana":"フチ","prefecture_code":18},{"zip_code":"9188026","prefecture":"福井県","prefecture_kana":"フクイケン","city":"福井市","city_kana":"フクイシ","town":"渕町","town_kana":"フチマチ","prefecture_code":18}],"8154":{"zip_code":"9188154","prefecture":"福井県","prefecture_kana":"フクイケン","city":"福井市","city_kana":"フクイシ","town":"冬野町","town_kana":"フユノチョウ","prefecture_code":18},"8115":{"zip_code":"9188115","prefecture":"福井県","prefecture_kana":"フクイケン","city":"福井市","city_kana":"フクイシ","town":"別所町","town_kana":"ベッショチョウ","prefecture_code":18},"8161":{"zip_code":"9188161","prefecture":"福井県","prefecture_kana":"フクイケン","city":"福井市","city_kana":"フクイシ","town":"鉾ケ崎町","town_kana":"ホコガサキチョウ","prefecture_code":18},"8074":{"zip_code":"9188074","prefecture":"福井県","prefecture_kana":"フクイケン","city":"福井市","city_kana":"フクイシ","town":"細坂町","town_kana":"ホソサカチョウ","prefecture_code":18},"8076":{"zip_code":"9188076","prefecture":"福井県","prefecture_kana":"フクイケン","city":"福井市","city_kana":"フクイシ","town":"本堂町","town_kana":"ホンドウチョウ","prefecture_code":18},"8024":{"zip_code":"9188024","prefecture":"福井県","prefecture_kana":"フクイケン","city":"福井市","city_kana":"フクイシ","town":"舞屋町","town_kana":"マイヤチョウ","prefecture_code":18},"8184":{"zip_code":"9188184","prefecture":"福井県","prefecture_kana":"フクイケン","city":"福井市","city_kana":"フクイシ","town":"真木町","town_kana":"マキチョウ","prefecture_code":18},"8188":{"zip_code":"9188188","prefecture":"福井県","prefecture_kana":"フクイケン","city":"福井市","city_kana":"フクイシ","town":"三尾野町","town_kana":"ミオノチョウ","prefecture_code":18},"8065":{"zip_code":"9188065","prefecture":"福井県","prefecture_kana":"フクイケン","city":"福井市","city_kana":"フクイシ","town":"水越","town_kana":"ミズコシ","prefecture_code":18},"8032":{"zip_code":"9188032","prefecture":"福井県","prefecture_kana":"フクイケン","city":"福井市","city_kana":"フクイシ","town":"南江守町","town_kana":"ミナミエモリチョウ","prefecture_code":18},"8204":{"zip_code":"9188204","prefecture":"福井県","prefecture_kana":"フクイケン","city":"福井市","city_kana":"フクイシ","town":"南四ツ居","town_kana":"ミナミヨツイ","prefecture_code":18},"8201":{"zip_code":"9188201","prefecture":"福井県","prefecture_kana":"フクイケン","city":"福井市","city_kana":"フクイシ","town":"南四ツ居町","town_kana":"ミナミヨツイチョウ","prefecture_code":18},"8005":{"zip_code":"9188005","prefecture":"福井県","prefecture_kana":"フクイケン","city":"福井市","city_kana":"フクイシ","town":"みのり","town_kana":"ミノリ","prefecture_code":18},"8225":{"zip_code":"9188225","prefecture":"福井県","prefecture_kana":"フクイケン","city":"福井市","city_kana":"フクイシ","town":"宮地町","town_kana":"ミヤジチョウ","prefecture_code":18},"8051":{"zip_code":"9188051","prefecture":"福井県","prefecture_kana":"フクイケン","city":"福井市","city_kana":"フクイシ","town":"桃園","town_kana":"モモゾノ","prefecture_code":18},"8171":{"zip_code":"9188171","prefecture":"福井県","prefecture_kana":"フクイケン","city":"福井市","city_kana":"フクイシ","town":"森行町","town_kana":"モリユキチョウ","prefecture_code":18},"8021":[{"zip_code":"9188021","prefecture":"福井県","prefecture_kana":"フクイケン","city":"福井市","city_kana":"フクイシ","town":"門前","town_kana":"モンゼン","prefecture_code":18},{"zip_code":"9188021","prefecture":"福井県","prefecture_kana":"フクイケン","city":"福井市","city_kana":"フクイシ","town":"門前町","town_kana":"モンゼンチョウ","prefecture_code":18}],"8073":{"zip_code":"9188073","prefecture":"福井県","prefecture_kana":"フクイケン","city":"福井市","city_kana":"フクイシ","town":"安田町","town_kana":"ヤスダチョウ","prefecture_code":18},"8009":{"zip_code":"9188009","prefecture":"福井県","prefecture_kana":"フクイケン","city":"福井市","city_kana":"フクイシ","town":"山奥町","town_kana":"ヤマオクチョウ","prefecture_code":18},"8008":{"zip_code":"9188008","prefecture":"福井県","prefecture_kana":"フクイケン","city":"福井市","city_kana":"フクイシ","town":"有楽町","town_kana":"ユウラクチョウ","prefecture_code":18},"8215":{"zip_code":"9188215","prefecture":"福井県","prefecture_kana":"フクイケン","city":"福井市","city_kana":"フクイシ","town":"寮町","town_kana":"リョウマチ","prefecture_code":18},"8055":[{"zip_code":"9188055","prefecture":"福井県","prefecture_kana":"フクイケン","city":"福井市","city_kana":"フクイシ","town":"若杉","town_kana":"ワカスギ","prefecture_code":18},{"zip_code":"9188055","prefecture":"福井県","prefecture_kana":"フクイケン","city":"福井市","city_kana":"フクイシ","town":"若杉町","town_kana":"ワカスギチョウ","prefecture_code":18}],"8056":{"zip_code":"9188056","prefecture":"福井県","prefecture_kana":"フクイケン","city":"福井市","city_kana":"フクイシ","town":"若杉浜","town_kana":"ワカスギハマ","prefecture_code":18},"8066":{"zip_code":"9188066","prefecture":"福井県","prefecture_kana":"フクイケン","city":"福井市","city_kana":"フクイシ","town":"渡町","town_kana":"ワタリチョウ","prefecture_code":18},"8238":{"zip_code":"9188238","prefecture":"福井県","prefecture_kana":"フクイケン","city":"福井市","city_kana":"フクイシ","town":"和田","town_kana":"ワダ","prefecture_code":18},"8236":{"zip_code":"9188236","prefecture":"福井県","prefecture_kana":"フクイケン","city":"福井市","city_kana":"フクイシ","town":"和田中","town_kana":"ワダナカ","prefecture_code":18},"8235":{"zip_code":"9188235","prefecture":"福井県","prefecture_kana":"フクイケン","city":"福井市","city_kana":"フクイシ","town":"和田中町","town_kana":"ワダナカチョウ","prefecture_code":18},"8237":{"zip_code":"9188237","prefecture":"福井県","prefecture_kana":"フクイケン","city":"福井市","city_kana":"フクイシ","town":"和田東","town_kana":"ワダヒガシ","prefecture_code":18}}