{"0314":{"zip_code":"9190314","prefecture":"福井県","prefecture_kana":"フクイケン","city":"福井市","city_kana":"フクイシ","town":"生部町","town_kana":"イケブチョウ","prefecture_code":18},"0303":{"zip_code":"9190303","prefecture":"福井県","prefecture_kana":"フクイケン","city":"福井市","city_kana":"フクイシ","town":"岩倉町","town_kana":"イワクラチョウ","prefecture_code":18},"0323":{"zip_code":"9190323","prefecture":"福井県","prefecture_kana":"フクイケン","city":"福井市","city_kana":"フクイシ","town":"太田町","town_kana":"オオタチョウ","prefecture_code":18},"0327":{"zip_code":"9190327","prefecture":"福井県","prefecture_kana":"フクイケン","city":"福井市","city_kana":"フクイシ","town":"大土呂町","town_kana":"オオドロチョウ","prefecture_code":18},"0316":{"zip_code":"9190316","prefecture":"福井県","prefecture_kana":"フクイケン","city":"福井市","city_kana":"フクイシ","town":"大村町","town_kana":"オオムラチョウ","prefecture_code":18},"0322":{"zip_code":"9190322","prefecture":"福井県","prefecture_kana":"フクイケン","city":"福井市","city_kana":"フクイシ","town":"上河北町","town_kana":"カミコギタチョウ","prefecture_code":18},"0302":{"zip_code":"9190302","prefecture":"福井県","prefecture_kana":"フクイケン","city":"福井市","city_kana":"フクイシ","town":"上細江町","town_kana":"カミホソエチョウ","prefecture_code":18},"0318":{"zip_code":"9190318","prefecture":"福井県","prefecture_kana":"フクイケン","city":"福井市","city_kana":"フクイシ","town":"北山新保町","town_kana":"キタヤマシンボチョウ","prefecture_code":18},"0317":{"zip_code":"9190317","prefecture":"福井県","prefecture_kana":"フクイケン","city":"福井市","city_kana":"フクイシ","town":"北山町","town_kana":"キタヤマチョウ","prefecture_code":18},"0321":{"zip_code":"9190321","prefecture":"福井県","prefecture_kana":"フクイケン","city":"福井市","city_kana":"フクイシ","town":"下河北町","town_kana":"シモコギタチョウ","prefecture_code":18},"0373":[{"zip_code":"9190373","prefecture":"福井県","prefecture_kana":"フクイケン","city":"福井市","city_kana":"フクイシ","town":"下東郷町","town_kana":"シモトウゴウチョウ","prefecture_code":18},{"zip_code":"9190373","prefecture":"福井県","prefecture_kana":"フクイケン","city":"福井市","city_kana":"フクイシ","town":"下東郷町新村","town_kana":"シモトウゴウチョウシンムラ","prefecture_code":18}],"0301":{"zip_code":"9190301","prefecture":"福井県","prefecture_kana":"フクイケン","city":"福井市","city_kana":"フクイシ","town":"下細江町","town_kana":"シモホソエチョウ","prefecture_code":18},"0328":{"zip_code":"9190328","prefecture":"福井県","prefecture_kana":"フクイケン","city":"福井市","city_kana":"フクイシ","town":"新開町","town_kana":"シンビラキチョウ","prefecture_code":18},"0311":{"zip_code":"9190311","prefecture":"福井県","prefecture_kana":"フクイケン","city":"福井市","city_kana":"フクイシ","town":"田治島町","town_kana":"タジシマチョウ","prefecture_code":18},"0304":{"zip_code":"9190304","prefecture":"福井県","prefecture_kana":"フクイケン","city":"福井市","city_kana":"フクイシ","town":"田中町","town_kana":"タナカチョウ","prefecture_code":18},"0305":{"zip_code":"9190305","prefecture":"福井県","prefecture_kana":"フクイケン","city":"福井市","city_kana":"フクイシ","town":"徳光町","town_kana":"トクミツチョウ","prefecture_code":18},"0313":{"zip_code":"9190313","prefecture":"福井県","prefecture_kana":"フクイケン","city":"福井市","city_kana":"フクイシ","town":"西大味町","town_kana":"ニシオオミチョウ","prefecture_code":18},"0315":{"zip_code":"9190315","prefecture":"福井県","prefecture_kana":"フクイケン","city":"福井市","city_kana":"フクイシ","town":"西袋町","town_kana":"ニシブクロチョウ","prefecture_code":18},"0326":{"zip_code":"9190326","prefecture":"福井県","prefecture_kana":"フクイケン","city":"福井市","city_kana":"フクイシ","town":"半田町","town_kana":"ハンダチョウ","prefecture_code":18},"0312":{"zip_code":"9190312","prefecture":"福井県","prefecture_kana":"フクイケン","city":"福井市","city_kana":"フクイシ","town":"東大味町","town_kana":"ヒガシオオミチョウ","prefecture_code":18},"0325":{"zip_code":"9190325","prefecture":"福井県","prefecture_kana":"フクイケン","city":"福井市","city_kana":"フクイシ","town":"二上町","town_kana":"フタガミチョウ","prefecture_code":18},"0324":{"zip_code":"9190324","prefecture":"福井県","prefecture_kana":"フクイケン","city":"福井市","city_kana":"フクイシ","town":"帆谷町","town_kana":"ホダニチョウ","prefecture_code":18},"1279":{"zip_code":"9191279","prefecture":"福井県","prefecture_kana":"フクイケン","city":"敦賀市","city_kana":"ツルガシ","town":"白木","town_kana":"シラキ","prefecture_code":18},"0600":{"zip_code":"9190600","prefecture":"福井県","prefecture_kana":"フクイケン","city":"あわら市","city_kana":"アワラシ","town":"","town_kana":"","prefecture_code":18},"0814":{"zip_code":"9190814","prefecture":"福井県","prefecture_kana":"フクイケン","city":"あわら市","city_kana":"アワラシ","town":"青ノ木","town_kana":"アオノキ","prefecture_code":18},"0614":{"zip_code":"9190614","prefecture":"福井県","prefecture_kana":"フクイケン","city":"あわら市","city_kana":"アワラシ","town":"伊井","town_kana":"イイ","prefecture_code":18},"0615":{"zip_code":"9190615","prefecture":"福井県","prefecture_kana":"フクイケン","city":"あわら市","city_kana":"アワラシ","town":"池口","town_kana":"イケグチ","prefecture_code":18},"0621":{"zip_code":"9190621","prefecture":"福井県","prefecture_kana":"フクイケン","city":"あわら市","city_kana":"アワラシ","town":"市姫","town_kana":"イチヒメ","prefecture_code":18},"0623":{"zip_code":"9190623","prefecture":"福井県","prefecture_kana":"フクイケン","city":"あわら市","city_kana":"アワラシ","town":"稲越","town_kana":"イナゴエ","prefecture_code":18},"0721":{"zip_code":"9190721","prefecture":"福井県","prefecture_kana":"フクイケン","city":"あわら市","city_kana":"アワラシ","town":"牛ノ谷","town_kana":"ウシノヤ","prefecture_code":18},"0735":{"zip_code":"9190735","prefecture":"福井県","prefecture_kana":"フクイケン","city":"あわら市","city_kana":"アワラシ","town":"後山","town_kana":"ウシロヤマ","prefecture_code":18},"0722":{"zip_code":"9190722","prefecture":"福井県","prefecture_kana":"フクイケン","city":"あわら市","city_kana":"アワラシ","town":"畝市野々","town_kana":"ウネイチノノ","prefecture_code":18},"0742":{"zip_code":"9190742","prefecture":"福井県","prefecture_kana":"フクイケン","city":"あわら市","city_kana":"アワラシ","town":"瓜生","town_kana":"ウリュウ","prefecture_code":18},"0724":{"zip_code":"9190724","prefecture":"福井県","prefecture_kana":"フクイケン","city":"あわら市","city_kana":"アワラシ","town":"上野","town_kana":"ウワノ","prefecture_code":18},"0628":{"zip_code":"9190628","prefecture":"福井県","prefecture_kana":"フクイケン","city":"あわら市","city_kana":"アワラシ","town":"大溝","town_kana":"オオミゾ","prefecture_code":18},"0812":{"zip_code":"9190812","prefecture":"福井県","prefecture_kana":"フクイケン","city":"あわら市","city_kana":"アワラシ","town":"柿原","town_kana":"カキバラ","prefecture_code":18},"0732":{"zip_code":"9190732","prefecture":"福井県","prefecture_kana":"フクイケン","city":"あわら市","city_kana":"アワラシ","town":"鎌谷","town_kana":"カマダニ","prefecture_code":18},"0616":{"zip_code":"9190616","prefecture":"福井県","prefecture_kana":"フクイケン","city":"あわら市","city_kana":"アワラシ","town":"河原井手","town_kana":"カワライデ","prefecture_code":18},"0749":{"zip_code":"9190749","prefecture":"福井県","prefecture_kana":"フクイケン","city":"あわら市","city_kana":"アワラシ","town":"北","town_kana":"キタ","prefecture_code":18},"0634":{"zip_code":"9190634","prefecture":"福井県","prefecture_kana":"フクイケン","city":"あわら市","city_kana":"アワラシ","town":"北金津","town_kana":"キタカナヅ","prefecture_code":18},"0748":{"zip_code":"9190748","prefecture":"福井県","prefecture_kana":"フクイケン","city":"あわら市","city_kana":"アワラシ","town":"北野","town_kana":"キタノ","prefecture_code":18},"0744":{"zip_code":"9190744","prefecture":"福井県","prefecture_kana":"フクイケン","city":"あわら市","city_kana":"アワラシ","town":"北疋田","town_kana":"キタヒキダ","prefecture_code":18},"0733":{"zip_code":"9190733","prefecture":"福井県","prefecture_kana":"フクイケン","city":"あわら市","city_kana":"アワラシ","town":"清滝","town_kana":"キヨタキ","prefecture_code":18},"0736":{"zip_code":"9190736","prefecture":"福井県","prefecture_kana":"フクイケン","city":"あわら市","city_kana":"アワラシ","town":"椚","town_kana":"クヌギ","prefecture_code":18},"0723":{"zip_code":"9190723","prefecture":"福井県","prefecture_kana":"フクイケン","city":"あわら市","city_kana":"アワラシ","town":"熊坂","town_kana":"クマサカ","prefecture_code":18},"0612":{"zip_code":"9190612","prefecture":"福井県","prefecture_kana":"フクイケン","city":"あわら市","city_kana":"アワラシ","town":"桑原","town_kana":"クワバラ","prefecture_code":18},"0737":{"zip_code":"9190737","prefecture":"福井県","prefecture_kana":"フクイケン","city":"あわら市","city_kana":"アワラシ","town":"権世","town_kana":"ゴンゼ","prefecture_code":18},"0731":{"zip_code":"9190731","prefecture":"福井県","prefecture_kana":"フクイケン","city":"あわら市","city_kana":"アワラシ","town":"権世市野々","town_kana":"ゴンゼイチノノ","prefecture_code":18},"0817":{"zip_code":"9190817","prefecture":"福井県","prefecture_kana":"フクイケン","city":"あわら市","city_kana":"アワラシ","town":"坂口","town_kana":"サカグチ","prefecture_code":18},"0726":{"zip_code":"9190726","prefecture":"福井県","prefecture_kana":"フクイケン","city":"あわら市","city_kana":"アワラシ","town":"笹岡","town_kana":"ササオカ","prefecture_code":18},"0804":{"zip_code":"9190804","prefecture":"福井県","prefecture_kana":"フクイケン","city":"あわら市","city_kana":"アワラシ","town":"沢","town_kana":"サワ","prefecture_code":18},"0727":{"zip_code":"9190727","prefecture":"福井県","prefecture_kana":"フクイケン","city":"あわら市","city_kana":"アワラシ","town":"下金屋","town_kana":"シモカナヤ","prefecture_code":18},"0604":{"zip_code":"9190604","prefecture":"福井県","prefecture_kana":"フクイケン","city":"あわら市","city_kana":"アワラシ","town":"自由ケ丘","town_kana":"ジユウガオカ","prefecture_code":18},"0745":{"zip_code":"9190745","prefecture":"福井県","prefecture_kana":"フクイケン","city":"あわら市","city_kana":"アワラシ","town":"次郎丸","town_kana":"ジロウマル","prefecture_code":18},"0602":{"zip_code":"9190602","prefecture":"福井県","prefecture_kana":"フクイケン","city":"あわら市","city_kana":"アワラシ","town":"菅野","town_kana":"スガノ","prefecture_code":18},"0815":{"zip_code":"9190815","prefecture":"福井県","prefecture_kana":"フクイケン","city":"あわら市","city_kana":"アワラシ","town":"清王","town_kana":"セイオウ","prefecture_code":18},"0611":{"zip_code":"9190611","prefecture":"福井県","prefecture_kana":"フクイケン","city":"あわら市","city_kana":"アワラシ","town":"清間","town_kana":"セイマ","prefecture_code":18},"0631":{"zip_code":"9190631","prefecture":"福井県","prefecture_kana":"フクイケン","city":"あわら市","city_kana":"アワラシ","town":"高塚","town_kana":"タカツカ","prefecture_code":18},"0805":{"zip_code":"9190805","prefecture":"福井県","prefecture_kana":"フクイケン","city":"あわら市","city_kana":"アワラシ","town":"滝","town_kana":"タキ","prefecture_code":18},"0741":{"zip_code":"9190741","prefecture":"福井県","prefecture_kana":"フクイケン","city":"あわら市","city_kana":"アワラシ","town":"中川","town_kana":"ナカガワ","prefecture_code":18},"0802":{"zip_code":"9190802","prefecture":"福井県","prefecture_kana":"フクイケン","city":"あわら市","city_kana":"アワラシ","town":"橋屋","town_kana":"ハシヤ","prefecture_code":18},"0811":{"zip_code":"9190811","prefecture":"福井県","prefecture_kana":"フクイケン","city":"あわら市","city_kana":"アワラシ","town":"蓮ケ浦","town_kana":"ハスガウラ","prefecture_code":18},"0633":{"zip_code":"9190633","prefecture":"福井県","prefecture_kana":"フクイケン","city":"あわら市","city_kana":"アワラシ","town":"花乃杜","town_kana":"ハナノモリ","prefecture_code":18},"0632":{"zip_code":"9190632","prefecture":"福井県","prefecture_kana":"フクイケン","city":"あわら市","city_kana":"アワラシ","town":"春宮","town_kana":"ハルミヤ","prefecture_code":18},"0746":{"zip_code":"9190746","prefecture":"福井県","prefecture_kana":"フクイケン","city":"あわら市","city_kana":"アワラシ","town":"東田中","town_kana":"ヒガシタナカ","prefecture_code":18},"0734":{"zip_code":"9190734","prefecture":"福井県","prefecture_kana":"フクイケン","city":"あわら市","city_kana":"アワラシ","town":"東山","town_kana":"ヒガシヤマ","prefecture_code":18},"0803":{"zip_code":"9190803","prefecture":"福井県","prefecture_kana":"フクイケン","city":"あわら市","city_kana":"アワラシ","town":"樋山","town_kana":"ヒヤマ","prefecture_code":18},"0613":{"zip_code":"9190613","prefecture":"福井県","prefecture_kana":"フクイケン","city":"あわら市","city_kana":"アワラシ","town":"古屋石塚","town_kana":"フルヤイシヅカ","prefecture_code":18},"0801":{"zip_code":"9190801","prefecture":"福井県","prefecture_kana":"フクイケン","city":"あわら市","city_kana":"アワラシ","town":"細呂木","town_kana":"ホソロギ","prefecture_code":18},"0725":{"zip_code":"9190725","prefecture":"福井県","prefecture_kana":"フクイケン","city":"あわら市","city_kana":"アワラシ","town":"前谷","town_kana":"マエダニ","prefecture_code":18},"0747":{"zip_code":"9190747","prefecture":"福井県","prefecture_kana":"フクイケン","city":"あわら市","city_kana":"アワラシ","town":"御簾尾","town_kana":"ミスノオ","prefecture_code":18},"0743":{"zip_code":"9190743","prefecture":"福井県","prefecture_kana":"フクイケン","city":"あわら市","city_kana":"アワラシ","town":"南疋田","town_kana":"ミナミヒキダ","prefecture_code":18},"0806":{"zip_code":"9190806","prefecture":"福井県","prefecture_kana":"フクイケン","city":"あわら市","city_kana":"アワラシ","town":"宮谷","town_kana":"ミヤダニ","prefecture_code":18},"0603":{"zip_code":"9190603","prefecture":"福井県","prefecture_kana":"フクイケン","city":"あわら市","city_kana":"アワラシ","town":"矢地","town_kana":"ヤチ","prefecture_code":18},"0813":{"zip_code":"9190813","prefecture":"福井県","prefecture_kana":"フクイケン","city":"あわら市","city_kana":"アワラシ","town":"山西方寺","town_kana":"ヤマサイホウジ","prefecture_code":18},"0816":{"zip_code":"9190816","prefecture":"福井県","prefecture_kana":"フクイケン","city":"あわら市","city_kana":"アワラシ","town":"山十楽","town_kana":"ヤマジュウラク","prefecture_code":18},"0601":{"zip_code":"9190601","prefecture":"福井県","prefecture_kana":"フクイケン","city":"あわら市","city_kana":"アワラシ","town":"山室","town_kana":"ヤマムロ","prefecture_code":18},"0807":{"zip_code":"9190807","prefecture":"福井県","prefecture_kana":"フクイケン","city":"あわら市","city_kana":"アワラシ","town":"指中","town_kana":"ユビナカ","prefecture_code":18},"0517":{"zip_code":"9190517","prefecture":"福井県","prefecture_kana":"フクイケン","city":"坂井市","city_kana":"サカイシ","town":"坂井町朝日","town_kana":"サカイチョウアサヒ","prefecture_code":18},"0531":{"zip_code":"9190531","prefecture":"福井県","prefecture_kana":"フクイケン","city":"坂井市","city_kana":"サカイシ","town":"坂井町今井","town_kana":"サカイチョウイマイ","prefecture_code":18},"0547":{"zip_code":"9190547","prefecture":"福井県","prefecture_kana":"フクイケン","city":"坂井市","city_kana":"サカイシ","town":"坂井町大味","town_kana":"サカイチョウオオミ","prefecture_code":18},"0537":{"zip_code":"9190537","prefecture":"福井県","prefecture_kana":"フクイケン","city":"坂井市","city_kana":"サカイシ","town":"坂井町折戸","town_kana":"サカイチョウオリト","prefecture_code":18},"0522":{"zip_code":"9190522","prefecture":"福井県","prefecture_kana":"フクイケン","city":"坂井市","city_kana":"サカイシ","town":"坂井町上新庄","town_kana":"サカイチョウカミシンジョウ","prefecture_code":18},"0502":{"zip_code":"9190502","prefecture":"福井県","prefecture_kana":"フクイケン","city":"坂井市","city_kana":"サカイシ","town":"坂井町上関","town_kana":"サカイチョウカミゼキ","prefecture_code":18},"0526":{"zip_code":"9190526","prefecture":"福井県","prefecture_kana":"フクイケン","city":"坂井市","city_kana":"サカイシ","town":"坂井町上兵庫","town_kana":"サカイチョウカミヒョウゴ","prefecture_code":18},"0505":{"zip_code":"9190505","prefecture":"福井県","prefecture_kana":"フクイケン","city":"坂井市","city_kana":"サカイシ","town":"坂井町河和田","town_kana":"サカイチョウカワダ","prefecture_code":18},"0536":{"zip_code":"9190536","prefecture":"福井県","prefecture_kana":"フクイケン","city":"坂井市","city_kana":"サカイシ","town":"坂井町木部新保","town_kana":"サカイチョウキベシンボ","prefecture_code":18},"0533":{"zip_code":"9190533","prefecture":"福井県","prefecture_kana":"フクイケン","city":"坂井市","city_kana":"サカイシ","town":"坂井町木部東","town_kana":"サカイチョウキベヒガシ","prefecture_code":18},"0534":{"zip_code":"9190534","prefecture":"福井県","prefecture_kana":"フクイケン","city":"坂井市","city_kana":"サカイシ","town":"坂井町清永","town_kana":"サカイチョウキヨナガ","prefecture_code":18},"0542":{"zip_code":"9190542","prefecture":"福井県","prefecture_kana":"フクイケン","city":"坂井市","city_kana":"サカイシ","town":"坂井町蔵垣内","town_kana":"サカイチョウクラガイチ","prefecture_code":18},"0507":{"zip_code":"9190507","prefecture":"福井県","prefecture_kana":"フクイケン","city":"坂井市","city_kana":"サカイシ","town":"坂井町五本","town_kana":"サカイチョウゴホン","prefecture_code":18},"0504":{"zip_code":"9190504","prefecture":"福井県","prefecture_kana":"フクイケン","city":"坂井市","city_kana":"サカイシ","town":"坂井町御油田","town_kana":"サカイチョウゴユウデン","prefecture_code":18},"0506":{"zip_code":"9190506","prefecture":"福井県","prefecture_kana":"フクイケン","city":"坂井市","city_kana":"サカイシ","town":"坂井町定旨","town_kana":"サカイチョウサダムネ","prefecture_code":18},"0535":{"zip_code":"9190535","prefecture":"福井県","prefecture_kana":"フクイケン","city":"坂井市","city_kana":"サカイシ","town":"坂井町島","town_kana":"サカイチョウシマ","prefecture_code":18},"0521":{"zip_code":"9190521","prefecture":"福井県","prefecture_kana":"フクイケン","city":"坂井市","city_kana":"サカイシ","town":"坂井町下新庄","town_kana":"サカイチョウシモシンジョウ","prefecture_code":18},"0501":{"zip_code":"9190501","prefecture":"福井県","prefecture_kana":"フクイケン","city":"坂井市","city_kana":"サカイシ","town":"坂井町下関","town_kana":"サカイチョウシモゼキ","prefecture_code":18},"0527":{"zip_code":"9190527","prefecture":"福井県","prefecture_kana":"フクイケン","city":"坂井市","city_kana":"サカイシ","town":"坂井町下兵庫","town_kana":"サカイチョウシモヒョウゴ","prefecture_code":18},"0523":{"zip_code":"9190523","prefecture":"福井県","prefecture_kana":"フクイケン","city":"坂井市","city_kana":"サカイシ","town":"坂井町新庄","town_kana":"サカイチョウシンジョウ","prefecture_code":18},"0532":{"zip_code":"9190532","prefecture":"福井県","prefecture_kana":"フクイケン","city":"坂井市","city_kana":"サカイシ","town":"坂井町高柳","town_kana":"サカイチョウタカヤナギ","prefecture_code":18},"0546":{"zip_code":"9190546","prefecture":"福井県","prefecture_kana":"フクイケン","city":"坂井市","city_kana":"サカイシ","town":"坂井町蛸","town_kana":"サカイチョウタコ","prefecture_code":18},"0513":{"zip_code":"9190513","prefecture":"福井県","prefecture_kana":"フクイケン","city":"坂井市","city_kana":"サカイシ","town":"坂井町田島","town_kana":"サカイチョウタジマ","prefecture_code":18},"0514":{"zip_code":"9190514","prefecture":"福井県","prefecture_kana":"フクイケン","city":"坂井市","city_kana":"サカイシ","town":"坂井町田島窪","town_kana":"サカイチョウタジマクボ","prefecture_code":18},"0525":{"zip_code":"9190525","prefecture":"福井県","prefecture_kana":"フクイケン","city":"坂井市","city_kana":"サカイシ","town":"坂井町徳分田","town_kana":"サカイチョウトクブンデン","prefecture_code":18},"0511":{"zip_code":"9190511","prefecture":"福井県","prefecture_kana":"フクイケン","city":"坂井市","city_kana":"サカイシ","town":"坂井町長畑","town_kana":"サカイチョウナガバタケ","prefecture_code":18},"0503":{"zip_code":"9190503","prefecture":"福井県","prefecture_kana":"フクイケン","city":"坂井市","city_kana":"サカイシ","town":"坂井町長屋","town_kana":"サカイチョウナガヤ","prefecture_code":18},"0543":{"zip_code":"9190543","prefecture":"福井県","prefecture_kana":"フクイケン","city":"坂井市","city_kana":"サカイシ","town":"坂井町西","town_kana":"サカイチョウニシ","prefecture_code":18},"0541":{"zip_code":"9190541","prefecture":"福井県","prefecture_kana":"フクイケン","city":"坂井市","city_kana":"サカイシ","town":"坂井町東","town_kana":"サカイチョウヒガシ","prefecture_code":18},"0545":{"zip_code":"9190545","prefecture":"福井県","prefecture_kana":"フクイケン","city":"坂井市","city_kana":"サカイシ","town":"坂井町東荒井","town_kana":"サカイチョウヒガシアライ","prefecture_code":18},"0524":{"zip_code":"9190524","prefecture":"福井県","prefecture_kana":"フクイケン","city":"坂井市","city_kana":"サカイシ","town":"坂井町東長田","town_kana":"サカイチョウヒガシナガタ","prefecture_code":18},"0544":{"zip_code":"9190544","prefecture":"福井県","prefecture_kana":"フクイケン","city":"坂井市","city_kana":"サカイシ","town":"坂井町東中野","town_kana":"サカイチョウヒガシナカノ","prefecture_code":18},"0516":{"zip_code":"9190516","prefecture":"福井県","prefecture_kana":"フクイケン","city":"坂井市","city_kana":"サカイシ","town":"坂井町福島","town_kana":"サカイチョウフクシマ","prefecture_code":18},"0512":{"zip_code":"9190512","prefecture":"福井県","prefecture_kana":"フクイケン","city":"坂井市","city_kana":"サカイシ","town":"坂井町宮領","town_kana":"サカイチョウミヤリョウ","prefecture_code":18},"0515":{"zip_code":"9190515","prefecture":"福井県","prefecture_kana":"フクイケン","city":"坂井市","city_kana":"サカイシ","town":"坂井町若宮","town_kana":"サカイチョウワカミヤ","prefecture_code":18},"0483":{"zip_code":"9190483","prefecture":"福井県","prefecture_kana":"フクイケン","city":"坂井市","city_kana":"サカイシ","town":"春江町石塚","town_kana":"ハルエチョウイシヅカ","prefecture_code":18},"0423":{"zip_code":"9190423","prefecture":"福井県","prefecture_kana":"フクイケン","city":"坂井市","city_kana":"サカイシ","town":"春江町石仏","town_kana":"ハルエチョウイシボトケ","prefecture_code":18},"0424":{"zip_code":"9190424","prefecture":"福井県","prefecture_kana":"フクイケン","city":"坂井市","city_kana":"サカイシ","town":"春江町いちい野","town_kana":"ハルエチョウイチイノ","prefecture_code":18},"0425":{"zip_code":"9190425","prefecture":"福井県","prefecture_kana":"フクイケン","city":"坂井市","city_kana":"サカイシ","town":"春江町いちい野北","town_kana":"ハルエチョウイチイノキタ","prefecture_code":18},"0426":{"zip_code":"9190426","prefecture":"福井県","prefecture_kana":"フクイケン","city":"坂井市","city_kana":"サカイシ","town":"春江町いちい野中央","town_kana":"ハルエチョウイチイノチュウオウ","prefecture_code":18},"0403":{"zip_code":"9190403","prefecture":"福井県","prefecture_kana":"フクイケン","city":"坂井市","city_kana":"サカイシ","town":"春江町井向","town_kana":"ハルエチョウイノムカイ","prefecture_code":18},"0455":{"zip_code":"9190455","prefecture":"福井県","prefecture_kana":"フクイケン","city":"坂井市","city_kana":"サカイシ","town":"春江町江留上","town_kana":"ハルエチョウエドメカミ","prefecture_code":18},"0451":{"zip_code":"9190451","prefecture":"福井県","prefecture_kana":"フクイケン","city":"坂井市","city_kana":"サカイシ","town":"春江町江留上旭","town_kana":"ハルエチョウエドメカミアサヒ","prefecture_code":18},"0463":{"zip_code":"9190463","prefecture":"福井県","prefecture_kana":"フクイケン","city":"坂井市","city_kana":"サカイシ","town":"春江町江留上昭和","town_kana":"ハルエチョウエドメカミショウワ","prefecture_code":18},"0465":{"zip_code":"9190465","prefecture":"福井県","prefecture_kana":"フクイケン","city":"坂井市","city_kana":"サカイシ","town":"春江町江留上新町","town_kana":"ハルエチョウエドメカミシンマチ","prefecture_code":18},"0453":{"zip_code":"9190453","prefecture":"福井県","prefecture_kana":"フクイケン","city":"坂井市","city_kana":"サカイシ","town":"春江町江留上中央","town_kana":"ハルエチョウエドメカミチュウオウ","prefecture_code":18},"0464":{"zip_code":"9190464","prefecture":"福井県","prefecture_kana":"フクイケン","city":"坂井市","city_kana":"サカイシ","town":"春江町江留上錦","town_kana":"ハルエチョウエドメカミニシキ","prefecture_code":18},"0454":{"zip_code":"9190454","prefecture":"福井県","prefecture_kana":"フクイケン","city":"坂井市","city_kana":"サカイシ","town":"春江町江留上日の出","town_kana":"ハルエチョウエドメカミヒノデ","prefecture_code":18},"0452":{"zip_code":"9190452","prefecture":"福井県","prefecture_kana":"フクイケン","city":"坂井市","city_kana":"サカイシ","town":"春江町江留上本町","town_kana":"ハルエチョウエドメカミホンマチ","prefecture_code":18},"0461":{"zip_code":"9190461","prefecture":"福井県","prefecture_kana":"フクイケン","city":"坂井市","city_kana":"サカイシ","town":"春江町江留上緑","town_kana":"ハルエチョウエドメカミミドリ","prefecture_code":18},"0462":{"zip_code":"9190462","prefecture":"福井県","prefecture_kana":"フクイケン","city":"坂井市","city_kana":"サカイシ","town":"春江町江留上大和","town_kana":"ハルエチョウエドメカミヤマト","prefecture_code":18},"0415":{"zip_code":"9190415","prefecture":"福井県","prefecture_kana":"フクイケン","city":"坂井市","city_kana":"サカイシ","town":"春江町江留下","town_kana":"ハルエチョウエドメシモ","prefecture_code":18},"0417":{"zip_code":"9190417","prefecture":"福井県","prefecture_kana":"フクイケン","city":"坂井市","city_kana":"サカイシ","town":"春江町江留下相田","town_kana":"ハルエチョウエドメシモアイデン","prefecture_code":18},"0416":{"zip_code":"9190416","prefecture":"福井県","prefecture_kana":"フクイケン","city":"坂井市","city_kana":"サカイシ","town":"春江町江留下宇和江","town_kana":"ハルエチョウエドメシモウワエ","prefecture_code":18},"0418":{"zip_code":"9190418","prefecture":"福井県","prefecture_kana":"フクイケン","city":"坂井市","city_kana":"サカイシ","town":"春江町江留下高道","town_kana":"ハルエチョウエドメシモタカミチ","prefecture_code":18},"0414":{"zip_code":"9190414","prefecture":"福井県","prefecture_kana":"フクイケン","city":"坂井市","city_kana":"サカイシ","town":"春江町江留下屋敷","town_kana":"ハルエチョウエドメシモヤシキ","prefecture_code":18},"0412":{"zip_code":"9190412","prefecture":"福井県","prefecture_kana":"フクイケン","city":"坂井市","city_kana":"サカイシ","town":"春江町江留中","town_kana":"ハルエチョウエドメナカ","prefecture_code":18},"0421":{"zip_code":"9190421","prefecture":"福井県","prefecture_kana":"フクイケン","city":"坂井市","city_kana":"サカイシ","town":"春江町大針","town_kana":"ハルエチョウオオバリ","prefecture_code":18},"0402":{"zip_code":"9190402","prefecture":"福井県","prefecture_kana":"フクイケン","city":"坂井市","city_kana":"サカイシ","town":"春江町大牧","town_kana":"ハルエチョウオオマキ","prefecture_code":18},"0422":{"zip_code":"9190422","prefecture":"福井県","prefecture_kana":"フクイケン","city":"坂井市","city_kana":"サカイシ","town":"春江町沖布目","town_kana":"ハルエチョウオキヌノメ","prefecture_code":18},"0405":{"zip_code":"9190405","prefecture":"福井県","prefecture_kana":"フクイケン","city":"坂井市","city_kana":"サカイシ","town":"春江町上小森","town_kana":"ハルエチョウカミコモリ","prefecture_code":18},"0408":{"zip_code":"9190408","prefecture":"福井県","prefecture_kana":"フクイケン","city":"坂井市","city_kana":"サカイシ","town":"春江町木部西方寺","town_kana":"ハルエチョウキベサイホウジ","prefecture_code":18},"0471":{"zip_code":"9190471","prefecture":"福井県","prefecture_kana":"フクイケン","city":"坂井市","city_kana":"サカイシ","town":"春江町金剛寺","town_kana":"ハルエチョウコンゴウジ","prefecture_code":18},"0434":[{"zip_code":"9190434","prefecture":"福井県","prefecture_kana":"フクイケン","city":"坂井市","city_kana":"サカイシ","town":"春江町境","town_kana":"ハルエチョウサカイ","prefecture_code":18},{"zip_code":"9190434","prefecture":"福井県","prefecture_kana":"フクイケン","city":"坂井市","city_kana":"サカイシ","town":"春江町境上町","town_kana":"ハルエチョウサカイカミチョウ","prefecture_code":18},{"zip_code":"9190434","prefecture":"福井県","prefecture_kana":"フクイケン","city":"坂井市","city_kana":"サカイシ","town":"春江町境元町","town_kana":"ハルエチョウサカイモトマチ","prefecture_code":18}],"0441":{"zip_code":"9190441","prefecture":"福井県","prefecture_kana":"フクイケン","city":"坂井市","city_kana":"サカイシ","town":"春江町定重","town_kana":"ハルエチョウサダシゲ","prefecture_code":18},"0409":{"zip_code":"9190409","prefecture":"福井県","prefecture_kana":"フクイケン","city":"坂井市","city_kana":"サカイシ","town":"春江町定広","town_kana":"ハルエチョウサダヒロ","prefecture_code":18},"0406":{"zip_code":"9190406","prefecture":"福井県","prefecture_kana":"フクイケン","city":"坂井市","city_kana":"サカイシ","town":"春江町下小森","town_kana":"ハルエチョウシモコモリ","prefecture_code":18},"0487":{"zip_code":"9190487","prefecture":"福井県","prefecture_kana":"フクイケン","city":"坂井市","city_kana":"サカイシ","town":"春江町正善","town_kana":"ハルエチョウショウゼン","prefecture_code":18},"0443":{"zip_code":"9190443","prefecture":"福井県","prefecture_kana":"フクイケン","city":"坂井市","city_kana":"サカイシ","town":"春江町正蓮花","town_kana":"ハルエチョウショウレンゲ","prefecture_code":18},"0413":{"zip_code":"9190413","prefecture":"福井県","prefecture_kana":"フクイケン","city":"坂井市","city_kana":"サカイシ","town":"春江町随応寺","town_kana":"ハルエチョウズイオウジ","prefecture_code":18},"0481":{"zip_code":"9190481","prefecture":"福井県","prefecture_kana":"フクイケン","city":"坂井市","city_kana":"サカイシ","town":"春江町千歩寺","town_kana":"ハルエチョウセンボウジ","prefecture_code":18},"0479":{"zip_code":"9190479","prefecture":"福井県","prefecture_kana":"フクイケン","city":"坂井市","city_kana":"サカイシ","town":"春江町高江","town_kana":"ハルエチョウタカエ","prefecture_code":18},"0477":{"zip_code":"9190477","prefecture":"福井県","prefecture_kana":"フクイケン","city":"坂井市","city_kana":"サカイシ","town":"春江町田端","town_kana":"ハルエチョウタバタ","prefecture_code":18},"0431":{"zip_code":"9190431","prefecture":"福井県","prefecture_kana":"フクイケン","city":"坂井市","city_kana":"サカイシ","town":"春江町為国","town_kana":"ハルエチョウタメクニ","prefecture_code":18},"0432":{"zip_code":"9190432","prefecture":"福井県","prefecture_kana":"フクイケン","city":"坂井市","city_kana":"サカイシ","town":"春江町為国亀ケ久保","town_kana":"ハルエチョウタメクニカメガクボ","prefecture_code":18},"0435":{"zip_code":"9190435","prefecture":"福井県","prefecture_kana":"フクイケン","city":"坂井市","city_kana":"サカイシ","town":"春江町為国幸","town_kana":"ハルエチョウタメクニサイワイ","prefecture_code":18},"0436":{"zip_code":"9190436","prefecture":"福井県","prefecture_kana":"フクイケン","city":"坂井市","city_kana":"サカイシ","town":"春江町為国中区","town_kana":"ハルエチョウタメクニナカク","prefecture_code":18},"0437":{"zip_code":"9190437","prefecture":"福井県","prefecture_kana":"フクイケン","city":"坂井市","city_kana":"サカイシ","town":"春江町為国西の宮","town_kana":"ハルエチョウタメクニニシノミヤ","prefecture_code":18},"0433":{"zip_code":"9190433","prefecture":"福井県","prefecture_kana":"フクイケン","city":"坂井市","city_kana":"サカイシ","town":"春江町為国平成","town_kana":"ハルエチョウタメクニヘイセイ","prefecture_code":18},"0407":{"zip_code":"9190407","prefecture":"福井県","prefecture_kana":"フクイケン","city":"坂井市","city_kana":"サカイシ","town":"春江町辻","town_kana":"ハルエチョウツジ","prefecture_code":18},"0485":{"zip_code":"9190485","prefecture":"福井県","prefecture_kana":"フクイケン","city":"坂井市","city_kana":"サカイシ","town":"春江町取次","town_kana":"ハルエチョウトリツギ","prefecture_code":18},"0449":{"zip_code":"9190449","prefecture":"福井県","prefecture_kana":"フクイケン","city":"坂井市","city_kana":"サカイシ","town":"春江町中筋","town_kana":"ハルエチョウナカスジ","prefecture_code":18},"0447":{"zip_code":"9190447","prefecture":"福井県","prefecture_kana":"フクイケン","city":"坂井市","city_kana":"サカイシ","town":"春江町中筋大手","town_kana":"ハルエチョウナカスジオオテ","prefecture_code":18},"0446":{"zip_code":"9190446","prefecture":"福井県","prefecture_kana":"フクイケン","city":"坂井市","city_kana":"サカイシ","town":"春江町中筋春日","town_kana":"ハルエチョウナカスジカスガ","prefecture_code":18},"0448":{"zip_code":"9190448","prefecture":"福井県","prefecture_kana":"フクイケン","city":"坂井市","city_kana":"サカイシ","town":"春江町中筋北浦","town_kana":"ハルエチョウナカスジキタウラ","prefecture_code":18},"0445":{"zip_code":"9190445","prefecture":"福井県","prefecture_kana":"フクイケン","city":"坂井市","city_kana":"サカイシ","town":"春江町中筋高田","town_kana":"ハルエチョウナカスジタカダ","prefecture_code":18},"0444":{"zip_code":"9190444","prefecture":"福井県","prefecture_kana":"フクイケン","city":"坂井市","city_kana":"サカイシ","town":"春江町中筋三ツ屋","town_kana":"ハルエチョウナカスジミツヤ","prefecture_code":18},"0482":{"zip_code":"9190482","prefecture":"福井県","prefecture_kana":"フクイケン","city":"坂井市","city_kana":"サカイシ","town":"春江町中庄","town_kana":"ハルエチョウナカノショウ","prefecture_code":18},"0474":{"zip_code":"9190474","prefecture":"福井県","prefecture_kana":"フクイケン","city":"坂井市","city_kana":"サカイシ","town":"春江町西太郎丸","town_kana":"ハルエチョウニシタロウマル","prefecture_code":18},"0404":{"zip_code":"9190404","prefecture":"福井県","prefecture_kana":"フクイケン","city":"坂井市","city_kana":"サカイシ","town":"春江町西長田","town_kana":"ハルエチョウニシナガタ","prefecture_code":18},"0476":{"zip_code":"9190476","prefecture":"福井県","prefecture_kana":"フクイケン","city":"坂井市","city_kana":"サカイシ","town":"春江町針原","town_kana":"ハルエチョウハリバラ","prefecture_code":18},"0475":{"zip_code":"9190475","prefecture":"福井県","prefecture_kana":"フクイケン","city":"坂井市","city_kana":"サカイシ","town":"春江町東太郎丸","town_kana":"ハルエチョウヒガシタロウマル","prefecture_code":18},"0488":{"zip_code":"9190488","prefecture":"福井県","prefecture_kana":"フクイケン","city":"坂井市","city_kana":"サカイシ","town":"春江町姫王","town_kana":"ハルエチョウヒメオウ","prefecture_code":18},"0411":{"zip_code":"9190411","prefecture":"福井県","prefecture_kana":"フクイケン","city":"坂井市","city_kana":"サカイシ","town":"春江町藤鷲塚","town_kana":"ハルエチョウフジワシヅカ","prefecture_code":18},"0486":{"zip_code":"9190486","prefecture":"福井県","prefecture_kana":"フクイケン","city":"坂井市","city_kana":"サカイシ","town":"春江町布施田新","town_kana":"ハルエチョウフセダシン","prefecture_code":18},"0401":{"zip_code":"9190401","prefecture":"福井県","prefecture_kana":"フクイケン","city":"坂井市","city_kana":"サカイシ","town":"春江町堀越","town_kana":"ハルエチョウホリコシ","prefecture_code":18},"0473":{"zip_code":"9190473","prefecture":"福井県","prefecture_kana":"フクイケン","city":"坂井市","city_kana":"サカイシ","town":"春江町本堂","town_kana":"ハルエチョウホンドウ","prefecture_code":18},"0472":{"zip_code":"9190472","prefecture":"福井県","prefecture_kana":"フクイケン","city":"坂井市","city_kana":"サカイシ","town":"春江町松木","town_kana":"ハルエチョウマツキ","prefecture_code":18},"0484":{"zip_code":"9190484","prefecture":"福井県","prefecture_kana":"フクイケン","city":"坂井市","city_kana":"サカイシ","town":"春江町安沢","town_kana":"ハルエチョウヤスザワ","prefecture_code":18},"0442":{"zip_code":"9190442","prefecture":"福井県","prefecture_kana":"フクイケン","city":"坂井市","city_kana":"サカイシ","town":"春江町寄安","town_kana":"ハルエチョウヨリヤス","prefecture_code":18},"0200":{"zip_code":"9190200","prefecture":"福井県","prefecture_kana":"フクイケン","city":"南条郡南越前町","city_kana":"ナンジョウグンミナミエチゼンチョウ","town":"","town_kana":"","prefecture_code":18},"0121":{"zip_code":"9190121","prefecture":"福井県","prefecture_kana":"フクイケン","city":"南条郡南越前町","city_kana":"ナンジョウグンミナミエチゼンチョウ","town":"合波","town_kana":"アイバ","prefecture_code":18},"0213":{"zip_code":"9190213","prefecture":"福井県","prefecture_kana":"フクイケン","city":"南条郡南越前町","city_kana":"ナンジョウグンミナミエチゼンチョウ","town":"阿久和","town_kana":"アクワ","prefecture_code":18},"0123":{"zip_code":"9190123","prefecture":"福井県","prefecture_kana":"フクイケン","city":"南条郡南越前町","city_kana":"ナンジョウグンミナミエチゼンチョウ","town":"荒井","town_kana":"アライ","prefecture_code":18},"0128":{"zip_code":"9190128","prefecture":"福井県","prefecture_kana":"フクイケン","city":"南条郡南越前町","city_kana":"ナンジョウグンミナミエチゼンチョウ","town":"板取","town_kana":"イタドリ","prefecture_code":18},"0131":{"zip_code":"9190131","prefecture":"福井県","prefecture_kana":"フクイケン","city":"南条郡南越前町","city_kana":"ナンジョウグンミナミエチゼンチョウ","town":"今庄","town_kana":"イマジョウ","prefecture_code":18},"0202":{"zip_code":"9190202","prefecture":"福井県","prefecture_kana":"フクイケン","city":"南条郡南越前町","city_kana":"ナンジョウグンミナミエチゼンチョウ","town":"鋳物師","town_kana":"イモノシ","prefecture_code":18},"0204":{"zip_code":"9190204","prefecture":"福井県","prefecture_kana":"フクイケン","city":"南条郡南越前町","city_kana":"ナンジョウグンミナミエチゼンチョウ","town":"上野","town_kana":"ウエノ","prefecture_code":18},"0125":{"zip_code":"9190125","prefecture":"福井県","prefecture_kana":"フクイケン","city":"南条郡南越前町","city_kana":"ナンジョウグンミナミエチゼンチョウ","town":"宇津尾","town_kana":"ウツオ","prefecture_code":18},"0136":{"zip_code":"9190136","prefecture":"福井県","prefecture_kana":"フクイケン","city":"南条郡南越前町","city_kana":"ナンジョウグンミナミエチゼンチョウ","town":"大桐","town_kana":"オオギリ","prefecture_code":18},"0215":{"zip_code":"9190215","prefecture":"福井県","prefecture_kana":"フクイケン","city":"南条郡南越前町","city_kana":"ナンジョウグンミナミエチゼンチョウ","town":"奥野々","town_kana":"オクノノ","prefecture_code":18},"0114":{"zip_code":"9190114","prefecture":"福井県","prefecture_kana":"フクイケン","city":"南条郡南越前町","city_kana":"ナンジョウグンミナミエチゼンチョウ","town":"小倉谷","town_kana":"オグラタニ","prefecture_code":18},"0206":{"zip_code":"9190206","prefecture":"福井県","prefecture_kana":"フクイケン","city":"南条郡南越前町","city_kana":"ナンジョウグンミナミエチゼンチョウ","town":"金粕","town_kana":"カネガス","prefecture_code":18},"0115":{"zip_code":"9190115","prefecture":"福井県","prefecture_kana":"フクイケン","city":"南条郡南越前町","city_kana":"ナンジョウグンミナミエチゼンチョウ","town":"上温谷","town_kana":"カミヌクダニ","prefecture_code":18},"0201":{"zip_code":"9190201","prefecture":"福井県","prefecture_kana":"フクイケン","city":"南条郡南越前町","city_kana":"ナンジョウグンミナミエチゼンチョウ","town":"上平吹","town_kana":"カミヒラブキ","prefecture_code":18},"0216":{"zip_code":"9190216","prefecture":"福井県","prefecture_kana":"フクイケン","city":"南条郡南越前町","city_kana":"ナンジョウグンミナミエチゼンチョウ","town":"上別所","town_kana":"カミベッショ","prefecture_code":18},"0119":{"zip_code":"9190119","prefecture":"福井県","prefecture_kana":"フクイケン","city":"南条郡南越前町","city_kana":"ナンジョウグンミナミエチゼンチョウ","town":"久喜","town_kana":"クキ","prefecture_code":18},"0212":{"zip_code":"9190212","prefecture":"福井県","prefecture_kana":"フクイケン","city":"南条郡南越前町","city_kana":"ナンジョウグンミナミエチゼンチョウ","town":"鯖波","town_kana":"サバナミ","prefecture_code":18},"0221":{"zip_code":"9190221","prefecture":"福井県","prefecture_kana":"フクイケン","city":"南条郡南越前町","city_kana":"ナンジョウグンミナミエチゼンチョウ","town":"島","town_kana":"シマ","prefecture_code":18},"0226":{"zip_code":"9190226","prefecture":"福井県","prefecture_kana":"フクイケン","city":"南条郡南越前町","city_kana":"ナンジョウグンミナミエチゼンチョウ","town":"清水","town_kana":"シミズ","prefecture_code":18},"0133":{"zip_code":"9190133","prefecture":"福井県","prefecture_kana":"フクイケン","city":"南条郡南越前町","city_kana":"ナンジョウグンミナミエチゼンチョウ","town":"新道","town_kana":"シンドウ","prefecture_code":18},"0111":{"zip_code":"9190111","prefecture":"福井県","prefecture_kana":"フクイケン","city":"南条郡南越前町","city_kana":"ナンジョウグンミナミエチゼンチョウ","town":"杉谷","town_kana":"スギタニ","prefecture_code":18},"0211":{"zip_code":"9190211","prefecture":"福井県","prefecture_kana":"フクイケン","city":"南条郡南越前町","city_kana":"ナンジョウグンミナミエチゼンチョウ","town":"関ケ鼻","town_kana":"セキガハナ","prefecture_code":18},"0113":{"zip_code":"9190113","prefecture":"福井県","prefecture_kana":"フクイケン","city":"南条郡南越前町","city_kana":"ナンジョウグンミナミエチゼンチョウ","town":"瀬戸","town_kana":"セト","prefecture_code":18},"0112":{"zip_code":"9190112","prefecture":"福井県","prefecture_kana":"フクイケン","city":"南条郡南越前町","city_kana":"ナンジョウグンミナミエチゼンチョウ","town":"杣木俣","town_kana":"ソマキマタ","prefecture_code":18},"0217":{"zip_code":"9190217","prefecture":"福井県","prefecture_kana":"フクイケン","city":"南条郡南越前町","city_kana":"ナンジョウグンミナミエチゼンチョウ","town":"杣山","town_kana":"ソマヤマ","prefecture_code":18},"0122":{"zip_code":"9190122","prefecture":"福井県","prefecture_kana":"フクイケン","city":"南条郡南越前町","city_kana":"ナンジョウグンミナミエチゼンチョウ","town":"大門","town_kana":"ダイモン","prefecture_code":18},"0205":{"zip_code":"9190205","prefecture":"福井県","prefecture_kana":"フクイケン","city":"南条郡南越前町","city_kana":"ナンジョウグンミナミエチゼンチョウ","town":"堂宮","town_kana":"ドウミヤ","prefecture_code":18},"0214":{"zip_code":"9190214","prefecture":"福井県","prefecture_kana":"フクイケン","city":"南条郡南越前町","city_kana":"ナンジョウグンミナミエチゼンチョウ","town":"中小屋","town_kana":"ナカゴヤ","prefecture_code":18},"0118":{"zip_code":"9190118","prefecture":"福井県","prefecture_kana":"フクイケン","city":"南条郡南越前町","city_kana":"ナンジョウグンミナミエチゼンチョウ","town":"長沢","town_kana":"ナガサワ","prefecture_code":18},"0224":{"zip_code":"9190224","prefecture":"福井県","prefecture_kana":"フクイケン","city":"南条郡南越前町","city_kana":"ナンジョウグンミナミエチゼンチョウ","town":"西大道","town_kana":"ニシダイドウ","prefecture_code":18},"0126":{"zip_code":"9190126","prefecture":"福井県","prefecture_kana":"フクイケン","city":"南条郡南越前町","city_kana":"ナンジョウグンミナミエチゼンチョウ","town":"橋立","town_kana":"ハシタテ","prefecture_code":18},"0117":{"zip_code":"9190117","prefecture":"福井県","prefecture_kana":"フクイケン","city":"南条郡南越前町","city_kana":"ナンジョウグンミナミエチゼンチョウ","town":"馬上免","town_kana":"バジョウメン","prefecture_code":18},"0104":{"zip_code":"9190104","prefecture":"福井県","prefecture_kana":"フクイケン","city":"南条郡南越前町","city_kana":"ナンジョウグンミナミエチゼンチョウ","town":"燧","town_kana":"ヒウチ","prefecture_code":18},"0223":{"zip_code":"9190223","prefecture":"福井県","prefecture_kana":"フクイケン","city":"南条郡南越前町","city_kana":"ナンジョウグンミナミエチゼンチョウ","town":"東大道","town_kana":"ヒガシダイドウ","prefecture_code":18},"0225":{"zip_code":"9190225","prefecture":"福井県","prefecture_kana":"フクイケン","city":"南条郡南越前町","city_kana":"ナンジョウグンミナミエチゼンチョウ","town":"東谷","town_kana":"ヒガシダニ","prefecture_code":18},"0222":{"zip_code":"9190222","prefecture":"福井県","prefecture_kana":"フクイケン","city":"南条郡南越前町","city_kana":"ナンジョウグンミナミエチゼンチョウ","town":"日野","town_kana":"ヒノ","prefecture_code":18},"0127":{"zip_code":"9190127","prefecture":"福井県","prefecture_kana":"フクイケン","city":"南条郡南越前町","city_kana":"ナンジョウグンミナミエチゼンチョウ","town":"広野","town_kana":"ヒロノ","prefecture_code":18},"0135":{"zip_code":"9190135","prefecture":"福井県","prefecture_kana":"フクイケン","city":"南条郡南越前町","city_kana":"ナンジョウグンミナミエチゼンチョウ","town":"二ツ屋","town_kana":"フタツヤ","prefecture_code":18},"0116":{"zip_code":"9190116","prefecture":"福井県","prefecture_kana":"フクイケン","city":"南条郡南越前町","city_kana":"ナンジョウグンミナミエチゼンチョウ","town":"古木","town_kana":"フルキ","prefecture_code":18},"0203":{"zip_code":"9190203","prefecture":"福井県","prefecture_kana":"フクイケン","city":"南条郡南越前町","city_kana":"ナンジョウグンミナミエチゼンチョウ","town":"牧谷","town_kana":"マキダニ","prefecture_code":18},"0129":{"zip_code":"9190129","prefecture":"福井県","prefecture_kana":"フクイケン","city":"南条郡南越前町","city_kana":"ナンジョウグンミナミエチゼンチョウ","town":"孫谷","town_kana":"マゴタニ","prefecture_code":18},"0132":{"zip_code":"9190132","prefecture":"福井県","prefecture_kana":"フクイケン","city":"南条郡南越前町","city_kana":"ナンジョウグンミナミエチゼンチョウ","town":"南今庄","town_kana":"ミナミイマジョウ","prefecture_code":18},"0124":{"zip_code":"9190124","prefecture":"福井県","prefecture_kana":"フクイケン","city":"南条郡南越前町","city_kana":"ナンジョウグンミナミエチゼンチョウ","town":"八飯","town_kana":"ヤイ","prefecture_code":18},"0102":{"zip_code":"9190102","prefecture":"福井県","prefecture_kana":"フクイケン","city":"南条郡南越前町","city_kana":"ナンジョウグンミナミエチゼンチョウ","town":"八乙女","town_kana":"ヤオトメ","prefecture_code":18},"0103":{"zip_code":"9190103","prefecture":"福井県","prefecture_kana":"フクイケン","city":"南条郡南越前町","city_kana":"ナンジョウグンミナミエチゼンチョウ","town":"社谷","town_kana":"ヤシロダニ","prefecture_code":18},"0101":{"zip_code":"9190101","prefecture":"福井県","prefecture_kana":"フクイケン","city":"南条郡南越前町","city_kana":"ナンジョウグンミナミエチゼンチョウ","town":"湯尾","town_kana":"ユノオ","prefecture_code":18},"0227":{"zip_code":"9190227","prefecture":"福井県","prefecture_kana":"フクイケン","city":"南条郡南越前町","city_kana":"ナンジョウグンミナミエチゼンチョウ","town":"脇本","town_kana":"ワキモト","prefecture_code":18},"1100":{"zip_code":"9191100","prefecture":"福井県","prefecture_kana":"フクイケン","city":"三方郡美浜町","city_kana":"ミカタグンミハマチョウ","town":"","town_kana":"","prefecture_code":18},"1133":{"zip_code":"9191133","prefecture":"福井県","prefecture_kana":"フクイケン","city":"三方郡美浜町","city_kana":"ミカタグンミハマチョウ","town":"麻生","town_kana":"アソ","prefecture_code":18},"1135":[{"zip_code":"9191135","prefecture":"福井県","prefecture_kana":"フクイケン","city":"三方郡美浜町","city_kana":"ミカタグンミハマチョウ","town":"五十谷","town_kana":"イサダニ","prefecture_code":18},{"zip_code":"9191135","prefecture":"福井県","prefecture_kana":"フクイケン","city":"三方郡美浜町","city_kana":"ミカタグンミハマチョウ","town":"安江","town_kana":"ヤスエ","prefecture_code":18},{"zip_code":"9191135","prefecture":"福井県","prefecture_kana":"フクイケン","city":"三方郡美浜町","city_kana":"ミカタグンミハマチョウ","town":"寄戸","town_kana":"ヨリト","prefecture_code":18}],"1206":{"zip_code":"9191206","prefecture":"福井県","prefecture_kana":"フクイケン","city":"三方郡美浜町","city_kana":"ミカタグンミハマチョウ","town":"太田","town_kana":"オオタ","prefecture_code":18},"1146":{"zip_code":"9191146","prefecture":"福井県","prefecture_kana":"フクイケン","city":"三方郡美浜町","city_kana":"ミカタグンミハマチョウ","town":"大薮","town_kana":"オオヤブ","prefecture_code":18},"1145":{"zip_code":"9191145","prefecture":"福井県","prefecture_kana":"フクイケン","city":"三方郡美浜町","city_kana":"ミカタグンミハマチョウ","town":"金山","town_kana":"カナヤマ","prefecture_code":18},"1138":{"zip_code":"9191138","prefecture":"福井県","prefecture_kana":"フクイケン","city":"三方郡美浜町","city_kana":"ミカタグンミハマチョウ","town":"河原市","town_kana":"カワライチ","prefecture_code":18},"1204":{"zip_code":"9191204","prefecture":"福井県","prefecture_kana":"フクイケン","city":"三方郡美浜町","city_kana":"ミカタグンミハマチョウ","town":"北田","town_kana":"キタダ","prefecture_code":18},"1131":{"zip_code":"9191131","prefecture":"福井県","prefecture_kana":"フクイケン","city":"三方郡美浜町","city_kana":"ミカタグンミハマチョウ","town":"木野","town_kana":"キノ","prefecture_code":18},"1147":{"zip_code":"9191147","prefecture":"福井県","prefecture_kana":"フクイケン","city":"三方郡美浜町","city_kana":"ミカタグンミハマチョウ","town":"気山","town_kana":"キヤマ","prefecture_code":18},"1123":{"zip_code":"9191123","prefecture":"福井県","prefecture_kana":"フクイケン","city":"三方郡美浜町","city_kana":"ミカタグンミハマチョウ","town":"久々子","town_kana":"クグシ","prefecture_code":18},"1141":{"zip_code":"9191141","prefecture":"福井県","prefecture_kana":"フクイケン","city":"三方郡美浜町","city_kana":"ミカタグンミハマチョウ","town":"郷市","town_kana":"ゴイチ","prefecture_code":18},"1142":{"zip_code":"9191142","prefecture":"福井県","prefecture_kana":"フクイケン","city":"三方郡美浜町","city_kana":"ミカタグンミハマチョウ","town":"興道寺","town_kana":"コウドウジ","prefecture_code":18},"1208":{"zip_code":"9191208","prefecture":"福井県","prefecture_kana":"フクイケン","city":"三方郡美浜町","city_kana":"ミカタグンミハマチョウ","town":"坂尻","town_kana":"サカジリ","prefecture_code":18},"1132":{"zip_code":"9191132","prefecture":"福井県","prefecture_kana":"フクイケン","city":"三方郡美浜町","city_kana":"ミカタグンミハマチョウ","town":"佐柿","town_kana":"サガキ","prefecture_code":18},"1125":{"zip_code":"9191125","prefecture":"福井県","prefecture_kana":"フクイケン","city":"三方郡美浜町","city_kana":"ミカタグンミハマチョウ","town":"笹田","town_kana":"ササダ","prefecture_code":18},"1205":{"zip_code":"9191205","prefecture":"福井県","prefecture_kana":"フクイケン","city":"三方郡美浜町","city_kana":"ミカタグンミハマチョウ","town":"佐田","town_kana":"サタ","prefecture_code":18},"1143":{"zip_code":"9191143","prefecture":"福井県","prefecture_kana":"フクイケン","city":"三方郡美浜町","city_kana":"ミカタグンミハマチョウ","town":"佐野","town_kana":"サノ","prefecture_code":18},"1144":{"zip_code":"9191144","prefecture":"福井県","prefecture_kana":"フクイケン","city":"三方郡美浜町","city_kana":"ミカタグンミハマチョウ","town":"新庄","town_kana":"シンジョウ","prefecture_code":18},"1203":{"zip_code":"9191203","prefecture":"福井県","prefecture_kana":"フクイケン","city":"三方郡美浜町","city_kana":"ミカタグンミハマチョウ","town":"菅浜","town_kana":"スガハマ","prefecture_code":18},"1202":{"zip_code":"9191202","prefecture":"福井県","prefecture_kana":"フクイケン","city":"三方郡美浜町","city_kana":"ミカタグンミハマチョウ","town":"竹波","town_kana":"タケナミ","prefecture_code":18},"1136":{"zip_code":"9191136","prefecture":"福井県","prefecture_kana":"フクイケン","city":"三方郡美浜町","city_kana":"ミカタグンミハマチョウ","town":"中寺","town_kana":"ナカデラ","prefecture_code":18},"1201":{"zip_code":"9191201","prefecture":"福井県","prefecture_kana":"フクイケン","city":"三方郡美浜町","city_kana":"ミカタグンミハマチョウ","town":"丹生","town_kana":"ニュウ","prefecture_code":18},"1124":{"zip_code":"9191124","prefecture":"福井県","prefecture_kana":"フクイケン","city":"三方郡美浜町","city_kana":"ミカタグンミハマチョウ","town":"早瀬","town_kana":"ハヤセ","prefecture_code":18},"1126":{"zip_code":"9191126","prefecture":"福井県","prefecture_kana":"フクイケン","city":"三方郡美浜町","city_kana":"ミカタグンミハマチョウ","town":"日向","town_kana":"ヒルガ","prefecture_code":18},"1122":{"zip_code":"9191122","prefecture":"福井県","prefecture_kana":"フクイケン","city":"三方郡美浜町","city_kana":"ミカタグンミハマチョウ","town":"松原","town_kana":"マツバラ","prefecture_code":18},"1137":{"zip_code":"9191137","prefecture":"福井県","prefecture_kana":"フクイケン","city":"三方郡美浜町","city_kana":"ミカタグンミハマチョウ","town":"南市","town_kana":"ミナミイチ","prefecture_code":18},"1134":{"zip_code":"9191134","prefecture":"福井県","prefecture_kana":"フクイケン","city":"三方郡美浜町","city_kana":"ミカタグンミハマチョウ","town":"宮代","town_kana":"ミヤシロ","prefecture_code":18},"1207":{"zip_code":"9191207","prefecture":"福井県","prefecture_kana":"フクイケン","city":"三方郡美浜町","city_kana":"ミカタグンミハマチョウ","town":"山上","town_kana":"ヤマガミ","prefecture_code":18},"1121":{"zip_code":"9191121","prefecture":"福井県","prefecture_kana":"フクイケン","city":"三方郡美浜町","city_kana":"ミカタグンミハマチョウ","town":"和田","town_kana":"ワダ","prefecture_code":18},"2200":{"zip_code":"9192200","prefecture":"福井県","prefecture_kana":"フクイケン","city":"大飯郡高浜町","city_kana":"オオイグンタカハマチョウ","town":"","town_kana":"","prefecture_code":18},"2384":{"zip_code":"9192384","prefecture":"福井県","prefecture_kana":"フクイケン","city":"大飯郡高浜町","city_kana":"オオイグンタカハマチョウ","town":"青","town_kana":"アオ","prefecture_code":18},"2204":{"zip_code":"9192204","prefecture":"福井県","prefecture_kana":"フクイケン","city":"大飯郡高浜町","city_kana":"オオイグンタカハマチョウ","town":"青戸","town_kana":"アオト","prefecture_code":18},"2375":[{"zip_code":"9192375","prefecture":"福井県","prefecture_kana":"フクイケン","city":"大飯郡高浜町","city_kana":"オオイグンタカハマチョウ","town":"旭ケ丘","town_kana":"アサヒガオカ","prefecture_code":18},{"zip_code":"9192375","prefecture":"福井県","prefecture_kana":"フクイケン","city":"大飯郡高浜町","city_kana":"オオイグンタカハマチョウ","town":"蒜畠","town_kana":"ヒルバタケ","prefecture_code":18}],"2202":{"zip_code":"9192202","prefecture":"福井県","prefecture_kana":"フクイケン","city":"大飯郡高浜町","city_kana":"オオイグンタカハマチョウ","town":"安土","town_kana":"アヅチ","prefecture_code":18},"2376":{"zip_code":"9192376","prefecture":"福井県","prefecture_kana":"フクイケン","city":"大飯郡高浜町","city_kana":"オオイグンタカハマチョウ","town":"今寺","town_kana":"イマデラ","prefecture_code":18},"2222":{"zip_code":"9192222","prefecture":"福井県","prefecture_kana":"フクイケン","city":"大飯郡高浜町","city_kana":"オオイグンタカハマチョウ","town":"岩神","town_kana":"イワガミ","prefecture_code":18},"2356":{"zip_code":"9192356","prefecture":"福井県","prefecture_kana":"フクイケン","city":"大飯郡高浜町","city_kana":"オオイグンタカハマチョウ","town":"上瀬","town_kana":"ウワセ","prefecture_code":18},"2363":{"zip_code":"9192363","prefecture":"福井県","prefecture_kana":"フクイケン","city":"大飯郡高浜町","city_kana":"オオイグンタカハマチョウ","town":"小黒飯","town_kana":"オグルイ","prefecture_code":18},"2361":{"zip_code":"9192361","prefecture":"福井県","prefecture_kana":"フクイケン","city":"大飯郡高浜町","city_kana":"オオイグンタカハマチョウ","town":"音海","town_kana":"オトミ","prefecture_code":18},"2216":[{"zip_code":"9192216","prefecture":"福井県","prefecture_kana":"フクイケン","city":"大飯郡高浜町","city_kana":"オオイグンタカハマチョウ","town":"笠原","town_kana":"カサハラ","prefecture_code":18},{"zip_code":"9192216","prefecture":"福井県","prefecture_kana":"フクイケン","city":"大飯郡高浜町","city_kana":"オオイグンタカハマチョウ","town":"子生","town_kana":"コビ","prefecture_code":18},{"zip_code":"9192216","prefecture":"福井県","prefecture_kana":"フクイケン","city":"大飯郡高浜町","city_kana":"オオイグンタカハマチョウ","town":"坂田","town_kana":"サカタ","prefecture_code":18}],"2212":{"zip_code":"9192212","prefecture":"福井県","prefecture_kana":"フクイケン","city":"大飯郡高浜町","city_kana":"オオイグンタカハマチョウ","town":"鐘寄","town_kana":"カネヨリ","prefecture_code":18},"2352":{"zip_code":"9192352","prefecture":"福井県","prefecture_kana":"フクイケン","city":"大飯郡高浜町","city_kana":"オオイグンタカハマチョウ","town":"鎌倉","town_kana":"カマクラ","prefecture_code":18},"2206":{"zip_code":"9192206","prefecture":"福井県","prefecture_kana":"フクイケン","city":"大飯郡高浜町","city_kana":"オオイグンタカハマチョウ","town":"上車持","town_kana":"カミクラモチ","prefecture_code":18},"2365":{"zip_code":"9192365","prefecture":"福井県","prefecture_kana":"フクイケン","city":"大飯郡高浜町","city_kana":"オオイグンタカハマチョウ","town":"神野","town_kana":"コウノ","prefecture_code":18},"2366":{"zip_code":"9192366","prefecture":"福井県","prefecture_kana":"フクイケン","city":"大飯郡高浜町","city_kana":"オオイグンタカハマチョウ","town":"神野浦","town_kana":"コウノウラ","prefecture_code":18},"2221":{"zip_code":"9192221","prefecture":"福井県","prefecture_kana":"フクイケン","city":"大飯郡高浜町","city_kana":"オオイグンタカハマチョウ","town":"事代","town_kana":"コトシロ","prefecture_code":18},"2373":{"zip_code":"9192373","prefecture":"福井県","prefecture_kana":"フクイケン","city":"大飯郡高浜町","city_kana":"オオイグンタカハマチョウ","town":"小和田","town_kana":"コワダ","prefecture_code":18},"2229":{"zip_code":"9192229","prefecture":"福井県","prefecture_kana":"フクイケン","city":"大飯郡高浜町","city_kana":"オオイグンタカハマチョウ","town":"三明","town_kana":"サンメイ","prefecture_code":18},"2228":{"zip_code":"9192228","prefecture":"福井県","prefecture_kana":"フクイケン","city":"大飯郡高浜町","city_kana":"オオイグンタカハマチョウ","town":"塩土","town_kana":"シオド","prefecture_code":18},"2223":{"zip_code":"9192223","prefecture":"福井県","prefecture_kana":"フクイケン","city":"大飯郡高浜町","city_kana":"オオイグンタカハマチョウ","town":"紫水ケ丘","town_kana":"シスイガオカ","prefecture_code":18},"2353":{"zip_code":"9192353","prefecture":"福井県","prefecture_kana":"フクイケン","city":"大飯郡高浜町","city_kana":"オオイグンタカハマチョウ","town":"下","town_kana":"シモ","prefecture_code":18},"2205":{"zip_code":"9192205","prefecture":"福井県","prefecture_kana":"フクイケン","city":"大飯郡高浜町","city_kana":"オオイグンタカハマチョウ","town":"下車持","town_kana":"シモクラモチ","prefecture_code":18},"2203":{"zip_code":"9192203","prefecture":"福井県","prefecture_kana":"フクイケン","city":"大飯郡高浜町","city_kana":"オオイグンタカハマチョウ","town":"水明","town_kana":"スイメイ","prefecture_code":18},"2386":{"zip_code":"9192386","prefecture":"福井県","prefecture_kana":"フクイケン","city":"大飯郡高浜町","city_kana":"オオイグンタカハマチョウ","town":"関屋","town_kana":"セキヤ","prefecture_code":18},"2224":{"zip_code":"9192224","prefecture":"福井県","prefecture_kana":"フクイケン","city":"大飯郡高浜町","city_kana":"オオイグンタカハマチョウ","town":"薗部","town_kana":"ソノベ","prefecture_code":18},"2374":{"zip_code":"9192374","prefecture":"福井県","prefecture_kana":"フクイケン","city":"大飯郡高浜町","city_kana":"オオイグンタカハマチョウ","town":"高野","town_kana":"タカノ","prefecture_code":18},"2372":[{"zip_code":"9192372","prefecture":"福井県","prefecture_kana":"フクイケン","city":"大飯郡高浜町","city_kana":"オオイグンタカハマチョウ","town":"高屋","town_kana":"タカヤ","prefecture_code":18},{"zip_code":"9192372","prefecture":"福井県","prefecture_kana":"フクイケン","city":"大飯郡高浜町","city_kana":"オオイグンタカハマチョウ","town":"緑ケ丘","town_kana":"ミドリガオカ","prefecture_code":18}],"2226":{"zip_code":"9192226","prefecture":"福井県","prefecture_kana":"フクイケン","city":"大飯郡高浜町","city_kana":"オオイグンタカハマチョウ","town":"立石","town_kana":"タテイシ","prefecture_code":18},"2362":{"zip_code":"9192362","prefecture":"福井県","prefecture_kana":"フクイケン","city":"大飯郡高浜町","city_kana":"オオイグンタカハマチョウ","town":"田ノ浦","town_kana":"タノウラ","prefecture_code":18},"2211":{"zip_code":"9192211","prefecture":"福井県","prefecture_kana":"フクイケン","city":"大飯郡高浜町","city_kana":"オオイグンタカハマチョウ","town":"中津海","town_kana":"ナカツミ","prefecture_code":18},"2371":{"zip_code":"9192371","prefecture":"福井県","prefecture_kana":"フクイケン","city":"大飯郡高浜町","city_kana":"オオイグンタカハマチョウ","town":"中山","town_kana":"ナカヤマ","prefecture_code":18},"2364":{"zip_code":"9192364","prefecture":"福井県","prefecture_kana":"フクイケン","city":"大飯郡高浜町","city_kana":"オオイグンタカハマチョウ","town":"難波江","town_kana":"ナバエ","prefecture_code":18},"2381":{"zip_code":"9192381","prefecture":"福井県","prefecture_kana":"フクイケン","city":"大飯郡高浜町","city_kana":"オオイグンタカハマチョウ","town":"西三松","town_kana":"ニシミツマツ","prefecture_code":18},"2213":{"zip_code":"9192213","prefecture":"福井県","prefecture_kana":"フクイケン","city":"大飯郡高浜町","city_kana":"オオイグンタカハマチョウ","town":"畑","town_kana":"ハタ","prefecture_code":18},"2382":{"zip_code":"9192382","prefecture":"福井県","prefecture_kana":"フクイケン","city":"大飯郡高浜町","city_kana":"オオイグンタカハマチョウ","town":"東三松","town_kana":"ヒガシミツマツ","prefecture_code":18},"2383":{"zip_code":"9192383","prefecture":"福井県","prefecture_kana":"フクイケン","city":"大飯郡高浜町","city_kana":"オオイグンタカハマチョウ","town":"日置","town_kana":"ヒキ","prefecture_code":18},"2355":{"zip_code":"9192355","prefecture":"福井県","prefecture_kana":"フクイケン","city":"大飯郡高浜町","city_kana":"オオイグンタカハマチョウ","town":"日引","town_kana":"ヒビキ","prefecture_code":18},"2207":{"zip_code":"9192207","prefecture":"福井県","prefecture_kana":"フクイケン","city":"大飯郡高浜町","city_kana":"オオイグンタカハマチョウ","town":"馬居寺","town_kana":"マゴジ","prefecture_code":18},"2215":{"zip_code":"9192215","prefecture":"福井県","prefecture_kana":"フクイケン","city":"大飯郡高浜町","city_kana":"オオイグンタカハマチョウ","town":"南団地","town_kana":"ミナミダンチ","prefecture_code":18},"2354":{"zip_code":"9192354","prefecture":"福井県","prefecture_kana":"フクイケン","city":"大飯郡高浜町","city_kana":"オオイグンタカハマチョウ","town":"宮尾","town_kana":"ミヤオ","prefecture_code":18},"2225":{"zip_code":"9192225","prefecture":"福井県","prefecture_kana":"フクイケン","city":"大飯郡高浜町","city_kana":"オオイグンタカハマチョウ","town":"宮崎","town_kana":"ミヤザキ","prefecture_code":18},"2351":{"zip_code":"9192351","prefecture":"福井県","prefecture_kana":"フクイケン","city":"大飯郡高浜町","city_kana":"オオイグンタカハマチョウ","town":"山中","town_kana":"ヤマナカ","prefecture_code":18},"2214":{"zip_code":"9192214","prefecture":"福井県","prefecture_kana":"フクイケン","city":"大飯郡高浜町","city_kana":"オオイグンタカハマチョウ","town":"湯谷","town_kana":"ユタニ","prefecture_code":18},"2385":{"zip_code":"9192385","prefecture":"福井県","prefecture_kana":"フクイケン","city":"大飯郡高浜町","city_kana":"オオイグンタカハマチョウ","town":"横津海","town_kana":"ヨコツミ","prefecture_code":18},"2387":{"zip_code":"9192387","prefecture":"福井県","prefecture_kana":"フクイケン","city":"大飯郡高浜町","city_kana":"オオイグンタカハマチョウ","town":"六路谷","town_kana":"ロクロダニ","prefecture_code":18},"2227":{"zip_code":"9192227","prefecture":"福井県","prefecture_kana":"フクイケン","city":"大飯郡高浜町","city_kana":"オオイグンタカハマチョウ","town":"若宮","town_kana":"ワカミヤ","prefecture_code":18},"2201":{"zip_code":"9192201","prefecture":"福井県","prefecture_kana":"フクイケン","city":"大飯郡高浜町","city_kana":"オオイグンタカハマチョウ","town":"和田","town_kana":"ワダ","prefecture_code":18},"2100":{"zip_code":"9192100","prefecture":"福井県","prefecture_kana":"フクイケン","city":"大飯郡おおい町","city_kana":"オオイグンオオイチョウ","town":"","town_kana":"","prefecture_code":18},"2125":{"zip_code":"9192125","prefecture":"福井県","prefecture_kana":"フクイケン","city":"大飯郡おおい町","city_kana":"オオイグンオオイチョウ","town":"石山","town_kana":"イシヤマ","prefecture_code":18},"2106":{"zip_code":"9192106","prefecture":"福井県","prefecture_kana":"フクイケン","city":"大飯郡おおい町","city_kana":"オオイグンオオイチョウ","town":"犬見","town_kana":"イヌミ","prefecture_code":18},"2101":{"zip_code":"9192101","prefecture":"福井県","prefecture_kana":"フクイケン","city":"大飯郡おおい町","city_kana":"オオイグンオオイチョウ","town":"大島","town_kana":"オオシマ","prefecture_code":18},"2116":{"zip_code":"9192116","prefecture":"福井県","prefecture_kana":"フクイケン","city":"大飯郡おおい町","city_kana":"オオイグンオオイチョウ","town":"岡田","town_kana":"オカタ","prefecture_code":18},"2128":{"zip_code":"9192128","prefecture":"福井県","prefecture_kana":"フクイケン","city":"大飯郡おおい町","city_kana":"オオイグンオオイチョウ","town":"岡安","town_kana":"オカヤス","prefecture_code":18},"2103":{"zip_code":"9192103","prefecture":"福井県","prefecture_kana":"フクイケン","city":"大飯郡おおい町","city_kana":"オオイグンオオイチョウ","town":"尾内","town_kana":"オナイ","prefecture_code":18},"2134":{"zip_code":"9192134","prefecture":"福井県","prefecture_kana":"フクイケン","city":"大飯郡おおい町","city_kana":"オオイグンオオイチョウ","town":"川上","town_kana":"カワカミ","prefecture_code":18},"2133":{"zip_code":"9192133","prefecture":"福井県","prefecture_kana":"フクイケン","city":"大飯郡おおい町","city_kana":"オオイグンオオイチョウ","town":"久保","town_kana":"クボ","prefecture_code":18},"2122":{"zip_code":"9192122","prefecture":"福井県","prefecture_kana":"フクイケン","city":"大飯郡おおい町","city_kana":"オオイグンオオイチョウ","town":"神崎","town_kana":"コウザキ","prefecture_code":18},"2124":{"zip_code":"9192124","prefecture":"福井県","prefecture_kana":"フクイケン","city":"大飯郡おおい町","city_kana":"オオイグンオオイチョウ","town":"小車田","town_kana":"コシヤタ","prefecture_code":18},"2105":{"zip_code":"9192105","prefecture":"福井県","prefecture_kana":"フクイケン","city":"大飯郡おおい町","city_kana":"オオイグンオオイチョウ","town":"小堀","town_kana":"コホリ","prefecture_code":18},"2127":{"zip_code":"9192127","prefecture":"福井県","prefecture_kana":"フクイケン","city":"大飯郡おおい町","city_kana":"オオイグンオオイチョウ","town":"笹谷","town_kana":"ササダニ","prefecture_code":18},"2126":{"zip_code":"9192126","prefecture":"福井県","prefecture_kana":"フクイケン","city":"大飯郡おおい町","city_kana":"オオイグンオオイチョウ","town":"佐畑","town_kana":"サバタ","prefecture_code":18},"2123":{"zip_code":"9192123","prefecture":"福井県","prefecture_kana":"フクイケン","city":"大飯郡おおい町","city_kana":"オオイグンオオイチョウ","town":"鹿野","town_kana":"シカノ","prefecture_code":18},"2113":{"zip_code":"9192113","prefecture":"福井県","prefecture_kana":"フクイケン","city":"大飯郡おおい町","city_kana":"オオイグンオオイチョウ","town":"芝崎","town_kana":"シバサキ","prefecture_code":18},"2104":{"zip_code":"9192104","prefecture":"福井県","prefecture_kana":"フクイケン","city":"大飯郡おおい町","city_kana":"オオイグンオオイチョウ","town":"成和","town_kana":"セイワ","prefecture_code":18},"2115":{"zip_code":"9192115","prefecture":"福井県","prefecture_kana":"フクイケン","city":"大飯郡おおい町","city_kana":"オオイグンオオイチョウ","town":"父子","town_kana":"チチシ","prefecture_code":18},"2102":{"zip_code":"9192102","prefecture":"福井県","prefecture_kana":"フクイケン","city":"大飯郡おおい町","city_kana":"オオイグンオオイチョウ","town":"長井","town_kana":"ナガイ","prefecture_code":18},"2107":{"zip_code":"9192107","prefecture":"福井県","prefecture_kana":"フクイケン","city":"大飯郡おおい町","city_kana":"オオイグンオオイチョウ","town":"成海","town_kana":"ナルミ","prefecture_code":18},"2114":{"zip_code":"9192114","prefecture":"福井県","prefecture_kana":"フクイケン","city":"大飯郡おおい町","city_kana":"オオイグンオオイチョウ","town":"野尻","town_kana":"ノジリ","prefecture_code":18},"2129":{"zip_code":"9192129","prefecture":"福井県","prefecture_kana":"フクイケン","city":"大飯郡おおい町","city_kana":"オオイグンオオイチョウ","town":"広岡","town_kana":"ヒロオカ","prefecture_code":18},"2131":{"zip_code":"9192131","prefecture":"福井県","prefecture_kana":"フクイケン","city":"大飯郡おおい町","city_kana":"オオイグンオオイチョウ","town":"福谷","town_kana":"フクタニ","prefecture_code":18},"2111":{"zip_code":"9192111","prefecture":"福井県","prefecture_kana":"フクイケン","city":"大飯郡おおい町","city_kana":"オオイグンオオイチョウ","town":"本郷","town_kana":"ホンゴウ","prefecture_code":18},"2121":{"zip_code":"9192121","prefecture":"福井県","prefecture_kana":"フクイケン","city":"大飯郡おおい町","city_kana":"オオイグンオオイチョウ","town":"万願寺","town_kana":"マンガンジ","prefecture_code":18},"2135":{"zip_code":"9192135","prefecture":"福井県","prefecture_kana":"フクイケン","city":"大飯郡おおい町","city_kana":"オオイグンオオイチョウ","town":"三森","town_kana":"ミツモリ","prefecture_code":18},"2132":{"zip_code":"9192132","prefecture":"福井県","prefecture_kana":"フクイケン","city":"大飯郡おおい町","city_kana":"オオイグンオオイチョウ","town":"安川","town_kana":"ヤスカワ","prefecture_code":18},"2112":{"zip_code":"9192112","prefecture":"福井県","prefecture_kana":"フクイケン","city":"大飯郡おおい町","city_kana":"オオイグンオオイチョウ","town":"山田","town_kana":"ヤマダ","prefecture_code":18},"1300":{"zip_code":"9191300","prefecture":"福井県","prefecture_kana":"フクイケン","city":"三方上中郡若狭町","city_kana":"ミカタカミナカグンワカサチョウ","town":"","town_kana":"","prefecture_code":18},"1312":{"zip_code":"9191312","prefecture":"福井県","prefecture_kana":"フクイケン","city":"三方上中郡若狭町","city_kana":"ミカタカミナカグンワカサチョウ","town":"相田","town_kana":"アイダ","prefecture_code":18},"1523":{"zip_code":"9191523","prefecture":"福井県","prefecture_kana":"フクイケン","city":"三方上中郡若狭町","city_kana":"ミカタカミナカグンワカサチョウ","town":"安賀里","town_kana":"アガリ","prefecture_code":18},"1502":{"zip_code":"9191502","prefecture":"福井県","prefecture_kana":"フクイケン","city":"三方上中郡若狭町","city_kana":"ミカタカミナカグンワカサチョウ","town":"麻生野","town_kana":"アソノ","prefecture_code":18},"1501":{"zip_code":"9191501","prefecture":"福井県","prefecture_kana":"フクイケン","city":"三方上中郡若狭町","city_kana":"ミカタカミナカグンワカサチョウ","town":"海士坂","town_kana":"アマサカ","prefecture_code":18},"1507":{"zip_code":"9191507","prefecture":"福井県","prefecture_kana":"フクイケン","city":"三方上中郡若狭町","city_kana":"ミカタカミナカグンワカサチョウ","town":"有田","town_kana":"アリダ","prefecture_code":18},"1304":{"zip_code":"9191304","prefecture":"福井県","prefecture_kana":"フクイケン","city":"三方上中郡若狭町","city_kana":"ミカタカミナカグンワカサチョウ","town":"生倉","town_kana":"イクラ","prefecture_code":18},"1316":{"zip_code":"9191316","prefecture":"福井県","prefecture_kana":"フクイケン","city":"三方上中郡若狭町","city_kana":"ミカタカミナカグンワカサチョウ","town":"井崎","town_kana":"イザキ","prefecture_code":18},"1541":{"zip_code":"9191541","prefecture":"福井県","prefecture_kana":"フクイケン","city":"三方上中郡若狭町","city_kana":"ミカタカミナカグンワカサチョウ","town":"市場","town_kana":"イチバ","prefecture_code":18},"1542":{"zip_code":"9191542","prefecture":"福井県","prefecture_kana":"フクイケン","city":"三方上中郡若狭町","city_kana":"ミカタカミナカグンワカサチョウ","town":"井ノ口","town_kana":"イノクチ","prefecture_code":18},"1325":{"zip_code":"9191325","prefecture":"福井県","prefecture_kana":"フクイケン","city":"三方上中郡若狭町","city_kana":"ミカタカミナカグンワカサチョウ","town":"岩屋","town_kana":"イワヤ","prefecture_code":18},"1321":{"zip_code":"9191321","prefecture":"福井県","prefecture_kana":"フクイケン","city":"三方上中郡若狭町","city_kana":"ミカタカミナカグンワカサチョウ","town":"上野","town_kana":"ウエノ","prefecture_code":18},"1461":{"zip_code":"9191461","prefecture":"福井県","prefecture_kana":"フクイケン","city":"三方上中郡若狭町","city_kana":"ミカタカミナカグンワカサチョウ","town":"海山","town_kana":"ウミヤマ","prefecture_code":18},"1525":{"zip_code":"9191525","prefecture":"福井県","prefecture_kana":"フクイケン","city":"三方上中郡若狭町","city_kana":"ミカタカミナカグンワカサチョウ","town":"瓜生","town_kana":"ウリュウ","prefecture_code":18},"1302":{"zip_code":"9191302","prefecture":"福井県","prefecture_kana":"フクイケン","city":"三方上中郡若狭町","city_kana":"ミカタカミナカグンワカサチョウ","town":"上瀬","town_kana":"ウワセ","prefecture_code":18},"1504":{"zip_code":"9191504","prefecture":"福井県","prefecture_kana":"フクイケン","city":"三方上中郡若狭町","city_kana":"ミカタカミナカグンワカサチョウ","town":"大鳥羽","town_kana":"オオトバ","prefecture_code":18},"1453":{"zip_code":"9191453","prefecture":"福井県","prefecture_kana":"フクイケン","city":"三方上中郡若狭町","city_kana":"ミカタカミナカグンワカサチョウ","town":"小川","town_kana":"オガワ","prefecture_code":18},"1514":{"zip_code":"9191514","prefecture":"福井県","prefecture_kana":"フクイケン","city":"三方上中郡若狭町","city_kana":"ミカタカミナカグンワカサチョウ","town":"小原","town_kana":"オハラ","prefecture_code":18},"1554":{"zip_code":"9191554","prefecture":"福井県","prefecture_kana":"フクイケン","city":"三方上中郡若狭町","city_kana":"ミカタカミナカグンワカサチョウ","town":"兼田","town_kana":"カネダ","prefecture_code":18},"1503":{"zip_code":"9191503","prefecture":"福井県","prefecture_kana":"フクイケン","city":"三方上中郡若狭町","city_kana":"ミカタカミナカグンワカサチョウ","town":"上黒田","town_kana":"カミクロダ","prefecture_code":18},"1557":{"zip_code":"9191557","prefecture":"福井県","prefecture_kana":"フクイケン","city":"三方上中郡若狭町","city_kana":"ミカタカミナカグンワカサチョウ","town":"上野木","town_kana":"カミノギ","prefecture_code":18},"1527":{"zip_code":"9191527","prefecture":"福井県","prefecture_kana":"フクイケン","city":"三方上中郡若狭町","city_kana":"ミカタカミナカグンワカサチョウ","town":"上吉田","town_kana":"カミヨシダ","prefecture_code":18},"1534":{"zip_code":"9191534","prefecture":"福井県","prefecture_kana":"フクイケン","city":"三方上中郡若狭町","city_kana":"ミカタカミナカグンワカサチョウ","town":"仮屋","town_kana":"カリヤ","prefecture_code":18},"1305":{"zip_code":"9191305","prefecture":"福井県","prefecture_kana":"フクイケン","city":"三方上中郡若狭町","city_kana":"ミカタカミナカグンワカサチョウ","town":"北前川","town_kana":"キタマエガワ","prefecture_code":18},"1301":{"zip_code":"9191301","prefecture":"福井県","prefecture_kana":"フクイケン","city":"三方上中郡若狭町","city_kana":"ミカタカミナカグンワカサチョウ","town":"気山","town_kana":"キヤマ","prefecture_code":18},"1532":{"zip_code":"9191532","prefecture":"福井県","prefecture_kana":"フクイケン","city":"三方上中郡若狭町","city_kana":"ミカタカミナカグンワカサチョウ","town":"熊川","town_kana":"クマガワ","prefecture_code":18},"1323":{"zip_code":"9191323","prefecture":"福井県","prefecture_kana":"フクイケン","city":"三方上中郡若狭町","city_kana":"ミカタカミナカグンワカサチョウ","town":"倉見","town_kana":"クラミ","prefecture_code":18},"1544":{"zip_code":"9191544","prefecture":"福井県","prefecture_kana":"フクイケン","city":"三方上中郡若狭町","city_kana":"ミカタカミナカグンワカサチョウ","town":"神谷","town_kana":"コウダニ","prefecture_code":18},"1533":{"zip_code":"9191533","prefecture":"福井県","prefecture_kana":"フクイケン","city":"三方上中郡若狭町","city_kana":"ミカタカミナカグンワカサチョウ","town":"河内","town_kana":"コウチ","prefecture_code":18},"1512":{"zip_code":"9191512","prefecture":"福井県","prefecture_kana":"フクイケン","city":"三方上中郡若狭町","city_kana":"ミカタカミナカグンワカサチョウ","town":"無悪","town_kana":"サカナシ","prefecture_code":18},"1335":{"zip_code":"9191335","prefecture":"福井県","prefecture_kana":"フクイケン","city":"三方上中郡若狭町","city_kana":"ミカタカミナカグンワカサチョウ","town":"佐古","town_kana":"サコ","prefecture_code":18},"1521":{"zip_code":"9191521","prefecture":"福井県","prefecture_kana":"フクイケン","city":"三方上中郡若狭町","city_kana":"ミカタカミナカグンワカサチョウ","town":"下タ中","town_kana":"シタナカ","prefecture_code":18},"1462":[{"zip_code":"9191462","prefecture":"福井県","prefecture_kana":"フクイケン","city":"三方上中郡若狭町","city_kana":"ミカタカミナカグンワカサチョウ","town":"島の内","town_kana":"シマノウチ","prefecture_code":18},{"zip_code":"9191462","prefecture":"福井県","prefecture_kana":"フクイケン","city":"三方上中郡若狭町","city_kana":"ミカタカミナカグンワカサチョウ","town":"田井","town_kana":"タイ","prefecture_code":18}],"1559":{"zip_code":"9191559","prefecture":"福井県","prefecture_kana":"フクイケン","city":"三方上中郡若狭町","city_kana":"ミカタカミナカグンワカサチョウ","town":"下野木","town_kana":"シモノギ","prefecture_code":18},"1528":{"zip_code":"9191528","prefecture":"福井県","prefecture_kana":"フクイケン","city":"三方上中郡若狭町","city_kana":"ミカタカミナカグンワカサチョウ","town":"下吉田","town_kana":"シモヨシダ","prefecture_code":18},"1455":{"zip_code":"9191455","prefecture":"福井県","prefecture_kana":"フクイケン","city":"三方上中郡若狭町","city_kana":"ミカタカミナカグンワカサチョウ","town":"塩坂越","town_kana":"シャクシ","prefecture_code":18},"1322":{"zip_code":"9191322","prefecture":"福井県","prefecture_kana":"フクイケン","city":"三方上中郡若狭町","city_kana":"ミカタカミナカグンワカサチョウ","town":"成願寺","town_kana":"ジョウガンジ","prefecture_code":18},"1324":{"zip_code":"9191324","prefecture":"福井県","prefecture_kana":"フクイケン","city":"三方上中郡若狭町","city_kana":"ミカタカミナカグンワカサチョウ","town":"白屋","town_kana":"シロヤ","prefecture_code":18},"1531":{"zip_code":"9191531","prefecture":"福井県","prefecture_kana":"フクイケン","city":"三方上中郡若狭町","city_kana":"ミカタカミナカグンワカサチョウ","town":"新道","town_kana":"シンドウ","prefecture_code":18},"1522":{"zip_code":"9191522","prefecture":"福井県","prefecture_kana":"フクイケン","city":"三方上中郡若狭町","city_kana":"ミカタカミナカグンワカサチョウ","town":"末野","town_kana":"スエノ","prefecture_code":18},"1551":{"zip_code":"9191551","prefecture":"福井県","prefecture_kana":"フクイケン","city":"三方上中郡若狭町","city_kana":"ミカタカミナカグンワカサチョウ","town":"杉山","town_kana":"スギヤマ","prefecture_code":18},"1526":{"zip_code":"9191526","prefecture":"福井県","prefecture_kana":"フクイケン","city":"三方上中郡若狭町","city_kana":"ミカタカミナカグンワカサチョウ","town":"関","town_kana":"セキ","prefecture_code":18},"1464":{"zip_code":"9191464","prefecture":"福井県","prefecture_kana":"フクイケン","city":"三方上中郡若狭町","city_kana":"ミカタカミナカグンワカサチョウ","town":"世久見","town_kana":"セクミ","prefecture_code":18},"1315":{"zip_code":"9191315","prefecture":"福井県","prefecture_kana":"フクイケン","city":"三方上中郡若狭町","city_kana":"ミカタカミナカグンワカサチョウ","town":"高岸","town_kana":"タカギシ","prefecture_code":18},"1326":{"zip_code":"9191326","prefecture":"福井県","prefecture_kana":"フクイケン","city":"三方上中郡若狭町","city_kana":"ミカタカミナカグンワカサチョウ","town":"田上","town_kana":"タガミ","prefecture_code":18},"1332":{"zip_code":"9191332","prefecture":"福井県","prefecture_kana":"フクイケン","city":"三方上中郡若狭町","city_kana":"ミカタカミナカグンワカサチョウ","town":"館川","town_kana":"タチカワ","prefecture_code":18},"1334":{"zip_code":"9191334","prefecture":"福井県","prefecture_kana":"フクイケン","city":"三方上中郡若狭町","city_kana":"ミカタカミナカグンワカサチョウ","town":"田名","town_kana":"タナ","prefecture_code":18},"1556":{"zip_code":"9191556","prefecture":"福井県","prefecture_kana":"フクイケン","city":"三方上中郡若狭町","city_kana":"ミカタカミナカグンワカサチョウ","town":"玉置","town_kana":"タマキ","prefecture_code":18},"1333":{"zip_code":"9191333","prefecture":"福井県","prefecture_kana":"フクイケン","city":"三方上中郡若狭町","city_kana":"ミカタカミナカグンワカサチョウ","town":"中央","town_kana":"チュウオウ","prefecture_code":18},"1553":{"zip_code":"9191553","prefecture":"福井県","prefecture_kana":"フクイケン","city":"三方上中郡若狭町","city_kana":"ミカタカミナカグンワカサチョウ","town":"堤","town_kana":"ツツミ","prefecture_code":18},"1451":{"zip_code":"9191451","prefecture":"福井県","prefecture_kana":"フクイケン","city":"三方上中郡若狭町","city_kana":"ミカタカミナカグンワカサチョウ","town":"常神","town_kana":"ツネカミ","prefecture_code":18},"1543":{"zip_code":"9191543","prefecture":"福井県","prefecture_kana":"フクイケン","city":"三方上中郡若狭町","city_kana":"ミカタカミナカグンワカサチョウ","town":"天徳寺","town_kana":"テントクジ","prefecture_code":18},"1331":{"zip_code":"9191331","prefecture":"福井県","prefecture_kana":"フクイケン","city":"三方上中郡若狭町","city_kana":"ミカタカミナカグンワカサチョウ","town":"鳥浜","town_kana":"トリハマ","prefecture_code":18},"1505":{"zip_code":"9191505","prefecture":"福井県","prefecture_kana":"フクイケン","city":"三方上中郡若狭町","city_kana":"ミカタカミナカグンワカサチョウ","town":"長江","town_kana":"ナガエ","prefecture_code":18},"1558":{"zip_code":"9191558","prefecture":"福井県","prefecture_kana":"フクイケン","city":"三方上中郡若狭町","city_kana":"ミカタカミナカグンワカサチョウ","town":"中野木","town_kana":"ナカノギ","prefecture_code":18},"1463":{"zip_code":"9191463","prefecture":"福井県","prefecture_kana":"フクイケン","city":"三方上中郡若狭町","city_kana":"ミカタカミナカグンワカサチョウ","town":"成出","town_kana":"ナルデ","prefecture_code":18},"1314":{"zip_code":"9191314","prefecture":"福井県","prefecture_kana":"フクイケン","city":"三方上中郡若狭町","city_kana":"ミカタカミナカグンワカサチョウ","town":"能登野","town_kana":"ノトノ","prefecture_code":18},"1545":{"zip_code":"9191545","prefecture":"福井県","prefecture_kana":"フクイケン","city":"三方上中郡若狭町","city_kana":"ミカタカミナカグンワカサチョウ","town":"日笠","town_kana":"ヒカサ","prefecture_code":18},"1327":{"zip_code":"9191327","prefecture":"福井県","prefecture_kana":"フクイケン","city":"三方上中郡若狭町","city_kana":"ミカタカミナカグンワカサチョウ","town":"東黒田","town_kana":"ヒガシクロタ","prefecture_code":18},"1311":{"zip_code":"9191311","prefecture":"福井県","prefecture_kana":"フクイケン","city":"三方上中郡若狭町","city_kana":"ミカタカミナカグンワカサチョウ","town":"藤井","town_kana":"フジイ","prefecture_code":18},"1303":{"zip_code":"9191303","prefecture":"福井県","prefecture_kana":"フクイケン","city":"三方上中郡若狭町","city_kana":"ミカタカミナカグンワカサチョウ","town":"三方","town_kana":"ミカタ","prefecture_code":18},"1452":{"zip_code":"9191452","prefecture":"福井県","prefecture_kana":"フクイケン","city":"三方上中郡若狭町","city_kana":"ミカタカミナカグンワカサチョウ","town":"神子","town_kana":"ミコ","prefecture_code":18},"1511":{"zip_code":"9191511","prefecture":"福井県","prefecture_kana":"フクイケン","city":"三方上中郡若狭町","city_kana":"ミカタカミナカグンワカサチョウ","town":"三生野","town_kana":"ミショウノ","prefecture_code":18},"1328":{"zip_code":"9191328","prefecture":"福井県","prefecture_kana":"フクイケン","city":"三方上中郡若狭町","city_kana":"ミカタカミナカグンワカサチョウ","town":"三十三団地","town_kana":"ミソミダンチ","prefecture_code":18},"1513":{"zip_code":"9191513","prefecture":"福井県","prefecture_kana":"フクイケン","city":"三方上中郡若狭町","city_kana":"ミカタカミナカグンワカサチョウ","town":"三田","town_kana":"ミタ","prefecture_code":18},"1515":{"zip_code":"9191515","prefecture":"福井県","prefecture_kana":"フクイケン","city":"三方上中郡若狭町","city_kana":"ミカタカミナカグンワカサチョウ","town":"南","town_kana":"ミナミ","prefecture_code":18},"1306":{"zip_code":"9191306","prefecture":"福井県","prefecture_kana":"フクイケン","city":"三方上中郡若狭町","city_kana":"ミカタカミナカグンワカサチョウ","town":"南前川","town_kana":"ミナミマエガワ","prefecture_code":18},"1536":{"zip_code":"9191536","prefecture":"福井県","prefecture_kana":"フクイケン","city":"三方上中郡若狭町","city_kana":"ミカタカミナカグンワカサチョウ","town":"三宅","town_kana":"ミヤケ","prefecture_code":18},"1336":{"zip_code":"9191336","prefecture":"福井県","prefecture_kana":"フクイケン","city":"三方上中郡若狭町","city_kana":"ミカタカミナカグンワカサチョウ","town":"向笠","town_kana":"ムカサ","prefecture_code":18},"1555":{"zip_code":"9191555","prefecture":"福井県","prefecture_kana":"フクイケン","city":"三方上中郡若狭町","city_kana":"ミカタカミナカグンワカサチョウ","town":"武生","town_kana":"ムシュウ","prefecture_code":18},"1506":{"zip_code":"9191506","prefecture":"福井県","prefecture_kana":"フクイケン","city":"三方上中郡若狭町","city_kana":"ミカタカミナカグンワカサチョウ","town":"持田","town_kana":"モチダ","prefecture_code":18},"1516":{"zip_code":"9191516","prefecture":"福井県","prefecture_kana":"フクイケン","city":"三方上中郡若狭町","city_kana":"ミカタカミナカグンワカサチョウ","town":"山内","town_kana":"ヤマウチ","prefecture_code":18},"1454":{"zip_code":"9191454","prefecture":"福井県","prefecture_kana":"フクイケン","city":"三方上中郡若狭町","city_kana":"ミカタカミナカグンワカサチョウ","town":"遊子","town_kana":"ユウシ","prefecture_code":18},"1313":{"zip_code":"9191313","prefecture":"福井県","prefecture_kana":"フクイケン","city":"三方上中郡若狭町","city_kana":"ミカタカミナカグンワカサチョウ","town":"横渡","town_kana":"ヨコワタリ","prefecture_code":18},"1535":{"zip_code":"9191535","prefecture":"福井県","prefecture_kana":"フクイケン","city":"三方上中郡若狭町","city_kana":"ミカタカミナカグンワカサチョウ","town":"若王子","town_kana":"ワカオウジ","prefecture_code":18},"1552":{"zip_code":"9191552","prefecture":"福井県","prefecture_kana":"フクイケン","city":"三方上中郡若狭町","city_kana":"ミカタカミナカグンワカサチョウ","town":"若狭テクノバレー","town_kana":"ワカサテクノバレー","prefecture_code":18},"1524":{"zip_code":"9191524","prefecture":"福井県","prefecture_kana":"フクイケン","city":"三方上中郡若狭町","city_kana":"ミカタカミナカグンワカサチョウ","town":"脇袋","town_kana":"ワキブクロ","prefecture_code":18}}