{"0000":{"zip_code":"9200000","prefecture":"石川県","prefecture_kana":"イシカワケン","city":"金沢市","city_kana":"カナザワシ","town":"","town_kana":"","prefecture_code":17},"0907":{"zip_code":"9200907","prefecture":"石川県","prefecture_kana":"イシカワケン","city":"金沢市","city_kana":"カナザワシ","town":"青草町","town_kana":"アオクサマチ","prefecture_code":17},"1322":{"zip_code":"9201322","prefecture":"石川県","prefecture_kana":"イシカワケン","city":"金沢市","city_kana":"カナザワシ","town":"相合谷町","town_kana":"アオダニマチ","prefecture_code":17},"0926":{"zip_code":"9200926","prefecture":"石川県","prefecture_kana":"イシカワケン","city":"金沢市","city_kana":"カナザワシ","town":"暁町","town_kana":"アカツキマチ","prefecture_code":17},"0353":{"zip_code":"9200353","prefecture":"石川県","prefecture_kana":"イシカワケン","city":"金沢市","city_kana":"カナザワシ","town":"赤土町","town_kana":"アカツチマチ","prefecture_code":17},"0111":{"zip_code":"9200111","prefecture":"石川県","prefecture_kana":"イシカワケン","city":"金沢市","city_kana":"カナザワシ","town":"浅丘町","town_kana":"アサオカマチ","prefecture_code":17},"1132":{"zip_code":"9201132","prefecture":"石川県","prefecture_kana":"イシカワケン","city":"金沢市","city_kana":"カナザワシ","town":"朝加屋町","town_kana":"アサカヤマチ","prefecture_code":17},"1145":{"zip_code":"9201145","prefecture":"石川県","prefecture_kana":"イシカワケン","city":"金沢市","city_kana":"カナザワシ","town":"浅川町","town_kana":"アサカワマチ","prefecture_code":17},"1158":{"zip_code":"9201158","prefecture":"石川県","prefecture_kana":"イシカワケン","city":"金沢市","city_kana":"カナザワシ","town":"朝霧台","town_kana":"アサギリダイ","prefecture_code":17},"0841":{"zip_code":"9200841","prefecture":"石川県","prefecture_kana":"イシカワケン","city":"金沢市","city_kana":"カナザワシ","town":"浅野本町","town_kana":"アサノホンマチ","prefecture_code":17},"0126":{"zip_code":"9200126","prefecture":"石川県","prefecture_kana":"イシカワケン","city":"金沢市","city_kana":"カナザワシ","town":"朝日牧町","town_kana":"アサヒマキマチ","prefecture_code":17},"0941":{"zip_code":"9200941","prefecture":"石川県","prefecture_kana":"イシカワケン","city":"金沢市","city_kana":"カナザワシ","town":"旭町","town_kana":"アサヒマチ","prefecture_code":17},"1107":{"zip_code":"9201107","prefecture":"石川県","prefecture_kana":"イシカワケン","city":"金沢市","city_kana":"カナザワシ","town":"小豆沢町","town_kana":"アズキザワマチ","prefecture_code":17},"0996":{"zip_code":"9200996","prefecture":"石川県","prefecture_kana":"イシカワケン","city":"金沢市","city_kana":"カナザワシ","town":"油車","town_kana":"アブラグルマ","prefecture_code":17},"1331":{"zip_code":"9201331","prefecture":"石川県","prefecture_kana":"イシカワケン","city":"金沢市","city_kana":"カナザワシ","town":"天池町","town_kana":"アマイケマチ","prefecture_code":17},"3124":{"zip_code":"9203124","prefecture":"石川県","prefecture_kana":"イシカワケン","city":"金沢市","city_kana":"カナザワシ","town":"荒屋","town_kana":"アラヤ","prefecture_code":17},"3125":{"zip_code":"9203125","prefecture":"石川県","prefecture_kana":"イシカワケン","city":"金沢市","city_kana":"カナザワシ","town":"荒屋町","town_kana":"アラヤマチ","prefecture_code":17},"1101":[{"zip_code":"9201101","prefecture":"石川県","prefecture_kana":"イシカワケン","city":"金沢市","city_kana":"カナザワシ","town":"荒山町","town_kana":"アラヤママチ","prefecture_code":17},{"zip_code":"9201101","prefecture":"石川県","prefecture_kana":"イシカワケン","city":"金沢市","city_kana":"カナザワシ","town":"奥新保町","town_kana":"オクシンボマチ","prefecture_code":17},{"zip_code":"9201101","prefecture":"石川県","prefecture_kana":"イシカワケン","city":"金沢市","city_kana":"カナザワシ","town":"砂子坂町","town_kana":"スナゴザカマチ","prefecture_code":17}],"0226":{"zip_code":"9200226","prefecture":"石川県","prefecture_kana":"イシカワケン","city":"金沢市","city_kana":"カナザワシ","town":"粟崎町","town_kana":"アワガサキマチ","prefecture_code":17},"0227":{"zip_code":"9200227","prefecture":"石川県","prefecture_kana":"イシカワケン","city":"金沢市","city_kana":"カナザワシ","town":"粟崎浜町","town_kana":"アワガサキハママチ","prefecture_code":17},"0983":{"zip_code":"9200983","prefecture":"石川県","prefecture_kana":"イシカワケン","city":"金沢市","city_kana":"カナザワシ","town":"池田町一番丁","town_kana":"イケダマチ1バンチョウ","prefecture_code":17},"0984":{"zip_code":"9200984","prefecture":"石川県","prefecture_kana":"イシカワケン","city":"金沢市","city_kana":"カナザワシ","town":"池田町二番丁","town_kana":"イケダマチ2バンチョウ","prefecture_code":17},"0985":{"zip_code":"9200985","prefecture":"石川県","prefecture_kana":"イシカワケン","city":"金沢市","city_kana":"カナザワシ","town":"池田町三番丁","town_kana":"イケダマチ3バンチョウ","prefecture_code":17},"0986":{"zip_code":"9200986","prefecture":"石川県","prefecture_kana":"イシカワケン","city":"金沢市","city_kana":"カナザワシ","town":"池田町四番丁","town_kana":"イケダマチ4バンチョウ","prefecture_code":17},"0987":{"zip_code":"9200987","prefecture":"石川県","prefecture_kana":"イシカワケン","city":"金沢市","city_kana":"カナザワシ","town":"池田町立丁","town_kana":"イケダマチタテチョウ","prefecture_code":17},"1115":{"zip_code":"9201115","prefecture":"石川県","prefecture_kana":"イシカワケン","city":"金沢市","city_kana":"カナザワシ","town":"石黒町","town_kana":"イシグロマチ","prefecture_code":17},"0935":{"zip_code":"9200935","prefecture":"石川県","prefecture_kana":"イシカワケン","city":"金沢市","city_kana":"カナザワシ","town":"石引","town_kana":"イシビキ","prefecture_code":17},"0056":{"zip_code":"9200056","prefecture":"石川県","prefecture_kana":"イシカワケン","city":"金沢市","city_kana":"カナザワシ","town":"出雲町","town_kana":"イズモマチ","prefecture_code":17},"0012":{"zip_code":"9200012","prefecture":"石川県","prefecture_kana":"イシカワケン","city":"金沢市","city_kana":"カナザワシ","town":"磯部町","town_kana":"イソベマチ","prefecture_code":17},"1116":{"zip_code":"9201116","prefecture":"石川県","prefecture_kana":"イシカワケン","city":"金沢市","city_kana":"カナザワシ","town":"板ケ谷町","town_kana":"イタガヤマチ","prefecture_code":17},"0145":{"zip_code":"9200145","prefecture":"石川県","prefecture_kana":"イシカワケン","city":"金沢市","city_kana":"カナザワシ","town":"市瀬町","town_kana":"イチノセマチ","prefecture_code":17},"0378":{"zip_code":"9200378","prefecture":"石川県","prefecture_kana":"イシカワケン","city":"金沢市","city_kana":"カナザワシ","town":"いなほ","town_kana":"イナホ","prefecture_code":17},"0994":{"zip_code":"9200994","prefecture":"石川県","prefecture_kana":"イシカワケン","city":"金沢市","city_kana":"カナザワシ","town":"茨木町","town_kana":"イバラギチョウ","prefecture_code":17},"0125":{"zip_code":"9200125","prefecture":"石川県","prefecture_kana":"イシカワケン","city":"金沢市","city_kana":"カナザワシ","town":"今泉町","town_kana":"イマイズミマチ","prefecture_code":17},"0008":{"zip_code":"9200008","prefecture":"石川県","prefecture_kana":"イシカワケン","city":"金沢市","city_kana":"カナザワシ","town":"今昭町","town_kana":"イマショウマチ","prefecture_code":17},"0106":{"zip_code":"9200106","prefecture":"石川県","prefecture_kana":"イシカワケン","city":"金沢市","city_kana":"カナザワシ","town":"今町","town_kana":"イママチ","prefecture_code":17},"0171":{"zip_code":"9200171","prefecture":"石川県","prefecture_kana":"イシカワケン","city":"金沢市","city_kana":"カナザワシ","town":"岩出町","town_kana":"イワデマチ","prefecture_code":17},"0943":{"zip_code":"9200943","prefecture":"石川県","prefecture_kana":"イシカワケン","city":"金沢市","city_kana":"カナザワシ","town":"上野本町","town_kana":"ウエノホンマチ","prefecture_code":17},"1113":{"zip_code":"9201113","prefecture":"石川県","prefecture_kana":"イシカワケン","city":"金沢市","city_kana":"カナザワシ","town":"上山町","town_kana":"ウエヤママチ","prefecture_code":17},"1111":[{"zip_code":"9201111","prefecture":"石川県","prefecture_kana":"イシカワケン","city":"金沢市","city_kana":"カナザワシ","town":"魚帰町","town_kana":"ウオガエリマチ","prefecture_code":17},{"zip_code":"9201111","prefecture":"石川県","prefecture_kana":"イシカワケン","city":"金沢市","city_kana":"カナザワシ","town":"大菱池町","town_kana":"オビシケマチ","prefecture_code":17},{"zip_code":"9201111","prefecture":"石川県","prefecture_kana":"イシカワケン","city":"金沢市","city_kana":"カナザワシ","town":"小菱池町","town_kana":"コビシケマチ","prefecture_code":17},{"zip_code":"9201111","prefecture":"石川県","prefecture_kana":"イシカワケン","city":"金沢市","city_kana":"カナザワシ","town":"菱池小原町","town_kana":"ヒシイケオハラマチ","prefecture_code":17}],"0837":{"zip_code":"9200837","prefecture":"石川県","prefecture_kana":"イシカワケン","city":"金沢市","city_kana":"カナザワシ","town":"鶯町","town_kana":"ウグイスマチ","prefecture_code":17},"0832":{"zip_code":"9200832","prefecture":"石川県","prefecture_kana":"イシカワケン","city":"金沢市","city_kana":"カナザワシ","town":"卯辰町","town_kana":"ウタツマチ","prefecture_code":17},"1149":{"zip_code":"9201149","prefecture":"石川県","prefecture_kana":"イシカワケン","city":"金沢市","city_kana":"カナザワシ","town":"打尾町","town_kana":"ウチオマチ","prefecture_code":17},"0377":{"zip_code":"9200377","prefecture":"石川県","prefecture_kana":"イシカワケン","city":"金沢市","city_kana":"カナザワシ","town":"打木町","town_kana":"ウツギマチ","prefecture_code":17},"0343":{"zip_code":"9200343","prefecture":"石川県","prefecture_kana":"イシカワケン","city":"金沢市","city_kana":"カナザワシ","town":"畝田中","town_kana":"ウネダナカ","prefecture_code":17},"0342":[{"zip_code":"9200342","prefecture":"石川県","prefecture_kana":"イシカワケン","city":"金沢市","city_kana":"カナザワシ","town":"畝田町","town_kana":"ウネダマチ","prefecture_code":17},{"zip_code":"9200342","prefecture":"石川県","prefecture_kana":"イシカワケン","city":"金沢市","city_kana":"カナザワシ","town":"畝田西","town_kana":"ウネダニシ","prefecture_code":17}],"0344":{"zip_code":"9200344","prefecture":"石川県","prefecture_kana":"イシカワケン","city":"金沢市","city_kana":"カナザワシ","town":"畝田東","town_kana":"ウネダヒガシ","prefecture_code":17},"3111":{"zip_code":"9203111","prefecture":"石川県","prefecture_kana":"イシカワケン","city":"金沢市","city_kana":"カナザワシ","town":"梅田町","town_kana":"ウメダマチ","prefecture_code":17},"0971":{"zip_code":"9200971","prefecture":"石川県","prefecture_kana":"イシカワケン","city":"金沢市","city_kana":"カナザワシ","town":"鱗町","town_kana":"ウロコマチ","prefecture_code":17},"0122":{"zip_code":"9200122","prefecture":"石川県","prefecture_kana":"イシカワケン","city":"金沢市","city_kana":"カナザワシ","town":"上平町","town_kana":"ウワダイラマチ","prefecture_code":17},"1301":{"zip_code":"9201301","prefecture":"石川県","prefecture_kana":"イシカワケン","city":"金沢市","city_kana":"カナザワシ","town":"永安町","town_kana":"エイアンチョウ","prefecture_code":17},"0027":{"zip_code":"9200027","prefecture":"石川県","prefecture_kana":"イシカワケン","city":"金沢市","city_kana":"カナザワシ","town":"駅西新町","town_kana":"エキニシシンマチ","prefecture_code":17},"0025":{"zip_code":"9200025","prefecture":"石川県","prefecture_kana":"イシカワケン","city":"金沢市","city_kana":"カナザワシ","town":"駅西本町","town_kana":"エキニシホンマチ","prefecture_code":17},"0973":{"zip_code":"9200973","prefecture":"石川県","prefecture_kana":"イシカワケン","city":"金沢市","city_kana":"カナザワシ","town":"枝町","town_kana":"エダマチ","prefecture_code":17},"0112":{"zip_code":"9200112","prefecture":"石川県","prefecture_kana":"イシカワケン","city":"金沢市","city_kana":"カナザワシ","town":"榎尾町","town_kana":"エノキオマチ","prefecture_code":17},"0162":{"zip_code":"9200162","prefecture":"石川県","prefecture_kana":"イシカワケン","city":"金沢市","city_kana":"カナザワシ","town":"小池町","town_kana":"オイケマチ","prefecture_code":17},"0927":{"zip_code":"9200927","prefecture":"石川県","prefecture_kana":"イシカワケン","city":"金沢市","city_kana":"カナザワシ","town":"扇町","town_kana":"オウギマチ","prefecture_code":17},"0205":{"zip_code":"9200205","prefecture":"石川県","prefecture_kana":"イシカワケン","city":"金沢市","city_kana":"カナザワシ","town":"大浦町","town_kana":"オオウラマチ","prefecture_code":17},"0945":{"zip_code":"9200945","prefecture":"石川県","prefecture_kana":"イシカワケン","city":"金沢市","city_kana":"カナザワシ","town":"大桑新町","town_kana":"オオクワシンマチ","prefecture_code":17},"0946":[{"zip_code":"9200946","prefecture":"石川県","prefecture_kana":"イシカワケン","city":"金沢市","city_kana":"カナザワシ","town":"大桑町カ","town_kana":"オオクワマチカ","prefecture_code":17},{"zip_code":"9200946","prefecture":"石川県","prefecture_kana":"イシカワケン","city":"金沢市","city_kana":"カナザワシ","town":"大桑町コ","town_kana":"オオクワマチコ","prefecture_code":17},{"zip_code":"9200946","prefecture":"石川県","prefecture_kana":"イシカワケン","city":"金沢市","city_kana":"カナザワシ","town":"大桑町サ乙","town_kana":"オオクワマチサオツ","prefecture_code":17},{"zip_code":"9200946","prefecture":"石川県","prefecture_kana":"イシカワケン","city":"金沢市","city_kana":"カナザワシ","town":"大桑町サ甲","town_kana":"オオクワマチサコウ","prefecture_code":17},{"zip_code":"9200946","prefecture":"石川県","prefecture_kana":"イシカワケン","city":"金沢市","city_kana":"カナザワシ","town":"大桑町ソ","town_kana":"オオクワマチソ","prefecture_code":17},{"zip_code":"9200946","prefecture":"石川県","prefecture_kana":"イシカワケン","city":"金沢市","city_kana":"カナザワシ","town":"大桑町タ","town_kana":"オオクワマチタ","prefecture_code":17},{"zip_code":"9200946","prefecture":"石川県","prefecture_kana":"イシカワケン","city":"金沢市","city_kana":"カナザワシ","town":"大桑町ツ甲","town_kana":"オオクワマチツコウ","prefecture_code":17},{"zip_code":"9200946","prefecture":"石川県","prefecture_kana":"イシカワケン","city":"金沢市","city_kana":"カナザワシ","town":"大桑町ナ","town_kana":"オオクワマチナ","prefecture_code":17},{"zip_code":"9200946","prefecture":"石川県","prefecture_kana":"イシカワケン","city":"金沢市","city_kana":"カナザワシ","town":"大桑町メ","town_kana":"オオクワマチメ","prefecture_code":17},{"zip_code":"9200946","prefecture":"石川県","prefecture_kana":"イシカワケン","city":"金沢市","city_kana":"カナザワシ","town":"大桑町ユ","town_kana":"オオクワマチユ","prefecture_code":17},{"zip_code":"9200946","prefecture":"石川県","prefecture_kana":"イシカワケン","city":"金沢市","city_kana":"カナザワシ","town":"大桑町ヨ","town_kana":"オオクワマチヨ","prefecture_code":17},{"zip_code":"9200946","prefecture":"石川県","prefecture_kana":"イシカワケン","city":"金沢市","city_kana":"カナザワシ","town":"大桑町ラ","town_kana":"オオクワマチラ","prefecture_code":17},{"zip_code":"9200946","prefecture":"石川県","prefecture_kana":"イシカワケン","city":"金沢市","city_kana":"カナザワシ","town":"大桑町","town_kana":"オオクワマチ","prefecture_code":17},{"zip_code":"9200946","prefecture":"石川県","prefecture_kana":"イシカワケン","city":"金沢市","city_kana":"カナザワシ","town":"大桑町穴欠","town_kana":"オオクワマチアナガケ","prefecture_code":17},{"zip_code":"9200946","prefecture":"石川県","prefecture_kana":"イシカワケン","city":"金沢市","city_kana":"カナザワシ","town":"大桑町穴淵欠","town_kana":"オオクワマチアナブチガケ","prefecture_code":17},{"zip_code":"9200946","prefecture":"石川県","prefecture_kana":"イシカワケン","city":"金沢市","city_kana":"カナザワシ","town":"大桑町子","town_kana":"オオクワマチネ","prefecture_code":17},{"zip_code":"9200946","prefecture":"石川県","prefecture_kana":"イシカワケン","city":"金沢市","city_kana":"カナザワシ","town":"大桑町庚","town_kana":"オオクワマチコウ","prefecture_code":17},{"zip_code":"9200946","prefecture":"石川県","prefecture_kana":"イシカワケン","city":"金沢市","city_kana":"カナザワシ","town":"大桑町葭島","town_kana":"オオクワマチヨシジマ","prefecture_code":17},{"zip_code":"9200946","prefecture":"石川県","prefecture_kana":"イシカワケン","city":"金沢市","city_kana":"カナザワシ","town":"大桑町下葭島欠","town_kana":"オオクワマチシモヨシジマガケ","prefecture_code":17}],"0912":{"zip_code":"9200912","prefecture":"石川県","prefecture_kana":"イシカワケン","city":"金沢市","city_kana":"カナザワシ","town":"大手町","town_kana":"オオテマチ","prefecture_code":17},"8205":{"zip_code":"9208205","prefecture":"石川県","prefecture_kana":"イシカワケン","city":"金沢市","city_kana":"カナザワシ","town":"大友","town_kana":"オオトモ","prefecture_code":17},"8222":{"zip_code":"9208222","prefecture":"石川県","prefecture_kana":"イシカワケン","city":"金沢市","city_kana":"カナザワシ","town":"大友町","town_kana":"オオトモマチ","prefecture_code":17},"0231":[{"zip_code":"9200231","prefecture":"石川県","prefecture_kana":"イシカワケン","city":"金沢市","city_kana":"カナザワシ","town":"大野町ソ","town_kana":"オオノマチソ","prefecture_code":17},{"zip_code":"9200231","prefecture":"石川県","prefecture_kana":"イシカワケン","city":"金沢市","city_kana":"カナザワシ","town":"大野町タ","town_kana":"オオノマチタ","prefecture_code":17},{"zip_code":"9200231","prefecture":"石川県","prefecture_kana":"イシカワケン","city":"金沢市","city_kana":"カナザワシ","town":"大野町ヌ","town_kana":"オオノマチヌ","prefecture_code":17},{"zip_code":"9200231","prefecture":"石川県","prefecture_kana":"イシカワケン","city":"金沢市","city_kana":"カナザワシ","town":"大野町ヨ","town_kana":"オオノマチヨ","prefecture_code":17},{"zip_code":"9200231","prefecture":"石川県","prefecture_kana":"イシカワケン","city":"金沢市","city_kana":"カナザワシ","town":"大野町レ","town_kana":"オオノマチレ","prefecture_code":17}],"0331":{"zip_code":"9200331","prefecture":"石川県","prefecture_kana":"イシカワケン","city":"金沢市","city_kana":"カナザワシ","town":"大野町","town_kana":"オオノマチ","prefecture_code":17},"0225":{"zip_code":"9200225","prefecture":"石川県","prefecture_kana":"イシカワケン","city":"金沢市","city_kana":"カナザワシ","town":"大野町新町","town_kana":"オオノマチシンマチ","prefecture_code":17},"3121":{"zip_code":"9203121","prefecture":"石川県","prefecture_kana":"イシカワケン","city":"金沢市","city_kana":"カナザワシ","town":"大場町","town_kana":"オオバマチ","prefecture_code":17},"0818":{"zip_code":"9200818","prefecture":"石川県","prefecture_kana":"イシカワケン","city":"金沢市","city_kana":"カナザワシ","town":"大樋町","town_kana":"オオヒマチ","prefecture_code":17},"1335":{"zip_code":"9201335","prefecture":"石川県","prefecture_kana":"イシカワケン","city":"金沢市","city_kana":"カナザワシ","town":"大平沢町","town_kana":"オオヒラソウマチ","prefecture_code":17},"0013":{"zip_code":"9200013","prefecture":"石川県","prefecture_kana":"イシカワケン","city":"金沢市","city_kana":"カナザワシ","town":"沖町","town_kana":"オキマチ","prefecture_code":17},"0213":{"zip_code":"9200213","prefecture":"石川県","prefecture_kana":"イシカワケン","city":"金沢市","city_kana":"カナザワシ","town":"大河端町","town_kana":"オコバタマチ","prefecture_code":17},"1324":{"zip_code":"9201324","prefecture":"石川県","prefecture_kana":"イシカワケン","city":"金沢市","city_kana":"カナザワシ","town":"鴛原町","town_kana":"オシハラマチ","prefecture_code":17},"0807":{"zip_code":"9200807","prefecture":"石川県","prefecture_kana":"イシカワケン","city":"金沢市","city_kana":"カナザワシ","town":"乙丸町","town_kana":"オトマルマチ","prefecture_code":17},"1343":{"zip_code":"9201343","prefecture":"石川県","prefecture_kana":"イシカワケン","city":"金沢市","city_kana":"カナザワシ","town":"小原町","town_kana":"オハラマチ","prefecture_code":17},"0918":{"zip_code":"9200918","prefecture":"石川県","prefecture_kana":"イシカワケン","city":"金沢市","city_kana":"カナザワシ","town":"尾山町","town_kana":"オヤママチ","prefecture_code":17},"1112":{"zip_code":"9201112","prefecture":"石川県","prefecture_kana":"イシカワケン","city":"金沢市","city_kana":"カナザワシ","town":"折谷町","town_kana":"オリタニマチ","prefecture_code":17},"0902":{"zip_code":"9200902","prefecture":"石川県","prefecture_kana":"イシカワケン","city":"金沢市","city_kana":"カナザワシ","town":"尾張町","town_kana":"オワリチョウ","prefecture_code":17},"0114":{"zip_code":"9200114","prefecture":"石川県","prefecture_kana":"イシカワケン","city":"金沢市","city_kana":"カナザワシ","town":"加賀朝日町","town_kana":"カガアサヒマチ","prefecture_code":17},"0208":{"zip_code":"9200208","prefecture":"石川県","prefecture_kana":"イシカワケン","city":"金沢市","city_kana":"カナザワシ","town":"蚊爪町","town_kana":"カガツメマチ","prefecture_code":17},"0999":{"zip_code":"9200999","prefecture":"石川県","prefecture_kana":"イシカワケン","city":"金沢市","city_kana":"カナザワシ","town":"柿木畠","town_kana":"カキノキバタケ","prefecture_code":17},"1163":{"zip_code":"9201163","prefecture":"石川県","prefecture_kana":"イシカワケン","city":"金沢市","city_kana":"カナザワシ","town":"角間新町","town_kana":"カクマシンマチ","prefecture_code":17},"1164":{"zip_code":"9201164","prefecture":"石川県","prefecture_kana":"イシカワケン","city":"金沢市","city_kana":"カナザワシ","town":"角間町","town_kana":"カクママチ","prefecture_code":17},"0851":{"zip_code":"9200851","prefecture":"石川県","prefecture_kana":"イシカワケン","city":"金沢市","city_kana":"カナザワシ","town":"笠市町","town_kana":"カサイチマチ","prefecture_code":17},"0965":{"zip_code":"9200965","prefecture":"石川県","prefecture_kana":"イシカワケン","city":"金沢市","city_kana":"カナザワシ","town":"笠舞","town_kana":"カサマイ","prefecture_code":17},"0947":{"zip_code":"9200947","prefecture":"石川県","prefecture_kana":"イシカワケン","city":"金沢市","city_kana":"カナザワシ","town":"笠舞本町","town_kana":"カサマイホンマチ","prefecture_code":17},"1332":{"zip_code":"9201332","prefecture":"石川県","prefecture_kana":"イシカワケン","city":"金沢市","city_kana":"カナザワシ","town":"樫見町","town_kana":"カシミマチ","prefecture_code":17},"0908":{"zip_code":"9200908","prefecture":"石川県","prefecture_kana":"イシカワケン","city":"金沢市","city_kana":"カナザワシ","town":"主計町","town_kana":"カズエマチ","prefecture_code":17},"0817":{"zip_code":"9200817","prefecture":"石川県","prefecture_kana":"イシカワケン","city":"金沢市","city_kana":"カナザワシ","town":"春日町","town_kana":"カスガマチ","prefecture_code":17},"0164":{"zip_code":"9200164","prefecture":"石川県","prefecture_kana":"イシカワケン","city":"金沢市","city_kana":"カナザワシ","town":"堅田町","town_kana":"カタタマチ","prefecture_code":17},"0219":{"zip_code":"9200219","prefecture":"石川県","prefecture_kana":"イシカワケン","city":"金沢市","city_kana":"カナザワシ","town":"かたつ","town_kana":"カタツ","prefecture_code":17},"0981":{"zip_code":"9200981","prefecture":"石川県","prefecture_kana":"イシカワケン","city":"金沢市","city_kana":"カナザワシ","town":"片町","town_kana":"カタマチ","prefecture_code":17},"0334":{"zip_code":"9200334","prefecture":"石川県","prefecture_kana":"イシカワケン","city":"金沢市","city_kana":"カナザワシ","town":"桂町","town_kana":"カツラマチ","prefecture_code":17},"3134":{"zip_code":"9203134","prefecture":"石川県","prefecture_kana":"イシカワケン","city":"金沢市","city_kana":"カナザワシ","town":"金市町","town_kana":"カナイチマチ","prefecture_code":17},"0336":{"zip_code":"9200336","prefecture":"石川県","prefecture_kana":"イシカワケン","city":"金沢市","city_kana":"カナザワシ","town":"金石本町","town_kana":"カナイワホンマチ","prefecture_code":17},"0335":{"zip_code":"9200335","prefecture":"石川県","prefecture_kana":"イシカワケン","city":"金沢市","city_kana":"カナザワシ","town":"金石東","town_kana":"カナイワヒガシ","prefecture_code":17},"0337":{"zip_code":"9200337","prefecture":"石川県","prefecture_kana":"イシカワケン","city":"金沢市","city_kana":"カナザワシ","town":"金石西","town_kana":"カナイワニシ","prefecture_code":17},"0338":{"zip_code":"9200338","prefecture":"石川県","prefecture_kana":"イシカワケン","city":"金沢市","city_kana":"カナザワシ","town":"金石北","town_kana":"カナイワキタ","prefecture_code":17},"1148":{"zip_code":"9201148","prefecture":"石川県","prefecture_kana":"イシカワケン","city":"金沢市","city_kana":"カナザワシ","town":"金川町","town_kana":"カナガワマチ","prefecture_code":17},"0905":{"zip_code":"9200905","prefecture":"石川県","prefecture_kana":"イシカワケン","city":"金沢市","city_kana":"カナザワシ","town":"上近江町","town_kana":"カミオウミチョウ","prefecture_code":17},"0992":{"zip_code":"9200992","prefecture":"石川県","prefecture_kana":"イシカワケン","city":"金沢市","city_kana":"カナザワシ","town":"上柿木畠","town_kana":"カミカキノキバタケ","prefecture_code":17},"1304":{"zip_code":"9201304","prefecture":"石川県","prefecture_kana":"イシカワケン","city":"金沢市","city_kana":"カナザワシ","town":"上辰巳町","town_kana":"カミタツミマチ","prefecture_code":17},"0869":{"zip_code":"9200869","prefecture":"石川県","prefecture_kana":"イシカワケン","city":"金沢市","city_kana":"カナザワシ","town":"上堤町","town_kana":"カミツツミチョウ","prefecture_code":17},"1146":{"zip_code":"9201146","prefecture":"石川県","prefecture_kana":"イシカワケン","city":"金沢市","city_kana":"カナザワシ","town":"上中町","town_kana":"カミナカマチ","prefecture_code":17},"0368":{"zip_code":"9200368","prefecture":"石川県","prefecture_kana":"イシカワケン","city":"金沢市","city_kana":"カナザワシ","town":"神野","town_kana":"カミノ","prefecture_code":17},"0365":{"zip_code":"9200365","prefecture":"石川県","prefecture_kana":"イシカワケン","city":"金沢市","city_kana":"カナザワシ","town":"神野町","town_kana":"カミノマチ","prefecture_code":17},"0370":{"zip_code":"9200370","prefecture":"石川県","prefecture_kana":"イシカワケン","city":"金沢市","city_kana":"カナザワシ","town":"上安原","town_kana":"カミヤスハラ","prefecture_code":17},"0374":[{"zip_code":"9200374","prefecture":"石川県","prefecture_kana":"イシカワケン","city":"金沢市","city_kana":"カナザワシ","town":"上安原町","town_kana":"カミヤスハラマチ","prefecture_code":17},{"zip_code":"9200374","prefecture":"石川県","prefecture_kana":"イシカワケン","city":"金沢市","city_kana":"カナザワシ","town":"上安原南","town_kana":"カミヤスハラミナミ","prefecture_code":17}],"0801":{"zip_code":"9200801","prefecture":"石川県","prefecture_kana":"イシカワケン","city":"金沢市","city_kana":"カナザワシ","town":"神谷内町","town_kana":"カミヤチマチ","prefecture_code":17},"1166":{"zip_code":"9201166","prefecture":"石川県","prefecture_kana":"イシカワケン","city":"金沢市","city_kana":"カナザワシ","town":"上若松町","town_kana":"カミワカマツマチ","prefecture_code":17},"0175":{"zip_code":"9200175","prefecture":"石川県","prefecture_kana":"イシカワケン","city":"金沢市","city_kana":"カナザワシ","town":"上涌波町","town_kana":"カミワクナミマチ","prefecture_code":17},"0974":{"zip_code":"9200974","prefecture":"石川県","prefecture_kana":"イシカワケン","city":"金沢市","city_kana":"カナザワシ","town":"川岸町","town_kana":"カワギシマチ","prefecture_code":17},"0172":{"zip_code":"9200172","prefecture":"石川県","prefecture_kana":"イシカワケン","city":"金沢市","city_kana":"カナザワシ","town":"河原市町","town_kana":"カワライチマチ","prefecture_code":17},"0352":{"zip_code":"9200352","prefecture":"石川県","prefecture_kana":"イシカワケン","city":"金沢市","city_kana":"カナザワシ","town":"観音堂町","town_kana":"カンノンドウマチ","prefecture_code":17},"0838":{"zip_code":"9200838","prefecture":"石川県","prefecture_kana":"イシカワケン","city":"金沢市","city_kana":"カナザワシ","town":"観音町","town_kana":"カンノンマチ","prefecture_code":17},"1125":{"zip_code":"9201125","prefecture":"石川県","prefecture_kana":"イシカワケン","city":"金沢市","city_kana":"カナザワシ","town":"上原町","town_kana":"カンバラマチ","prefecture_code":17},"3112":{"zip_code":"9203112","prefecture":"石川県","prefecture_kana":"イシカワケン","city":"金沢市","city_kana":"カナザワシ","town":"観法寺町","town_kana":"カンポウジマチ","prefecture_code":17},"0967":{"zip_code":"9200967","prefecture":"石川県","prefecture_kana":"イシカワケン","city":"金沢市","city_kana":"カナザワシ","town":"菊川","town_kana":"キクガワ","prefecture_code":17},"0988":{"zip_code":"9200988","prefecture":"石川県","prefecture_kana":"イシカワケン","city":"金沢市","city_kana":"カナザワシ","town":"木倉町","town_kana":"キグラマチ","prefecture_code":17},"0202":{"zip_code":"9200202","prefecture":"石川県","prefecture_kana":"イシカワケン","city":"金沢市","city_kana":"カナザワシ","town":"木越","town_kana":"キゴシ","prefecture_code":17},"0201":[{"zip_code":"9200201","prefecture":"石川県","prefecture_kana":"イシカワケン","city":"金沢市","city_kana":"カナザワシ","town":"木越町瑞樹団地","town_kana":"キゴシマチミズキダンチ","prefecture_code":17},{"zip_code":"9200201","prefecture":"石川県","prefecture_kana":"イシカワケン","city":"金沢市","city_kana":"カナザワシ","town":"みずき","town_kana":"ミズキ","prefecture_code":17}],"0203":{"zip_code":"9200203","prefecture":"石川県","prefecture_kana":"イシカワケン","city":"金沢市","city_kana":"カナザワシ","town":"木越町","town_kana":"キゴシマチ","prefecture_code":17},"0102":{"zip_code":"9200102","prefecture":"石川県","prefecture_kana":"イシカワケン","city":"金沢市","city_kana":"カナザワシ","town":"岸川町","town_kana":"キシガワマチ","prefecture_code":17},"0143":{"zip_code":"9200143","prefecture":"石川県","prefecture_kana":"イシカワケン","city":"金沢市","city_kana":"カナザワシ","town":"北方町","town_kana":"キタガタマチ","prefecture_code":17},"0128":{"zip_code":"9200128","prefecture":"石川県","prefecture_kana":"イシカワケン","city":"金沢市","city_kana":"カナザワシ","town":"北千石町","town_kana":"キタセンゴクマチ","prefecture_code":17},"0367":{"zip_code":"9200367","prefecture":"石川県","prefecture_kana":"イシカワケン","city":"金沢市","city_kana":"カナザワシ","town":"北塚町","town_kana":"キタヅカマチ","prefecture_code":17},"0206":{"zip_code":"9200206","prefecture":"石川県","prefecture_kana":"イシカワケン","city":"金沢市","city_kana":"カナザワシ","town":"北寺町","town_kana":"キタデラマチ","prefecture_code":17},"1135":{"zip_code":"9201135","prefecture":"石川県","prefecture_kana":"イシカワケン","city":"金沢市","city_kana":"カナザワシ","town":"北袋町","town_kana":"キタブクロマチ","prefecture_code":17},"0055":{"zip_code":"9200055","prefecture":"石川県","prefecture_kana":"イシカワケン","city":"金沢市","city_kana":"カナザワシ","town":"北町","town_kana":"キタマチ","prefecture_code":17},"0212":{"zip_code":"9200212","prefecture":"石川県","prefecture_kana":"イシカワケン","city":"金沢市","city_kana":"カナザワシ","town":"北間町","town_kana":"キタママチ","prefecture_code":17},"3117":{"zip_code":"9203117","prefecture":"石川県","prefecture_kana":"イシカワケン","city":"金沢市","city_kana":"カナザワシ","town":"北森本町","town_kana":"キタモリモトマチ","prefecture_code":17},"0022":{"zip_code":"9200022","prefecture":"石川県","prefecture_kana":"イシカワケン","city":"金沢市","city_kana":"カナザワシ","town":"北安江","town_kana":"キタヤスエ","prefecture_code":17},"0023":{"zip_code":"9200023","prefecture":"石川県","prefecture_kana":"イシカワケン","city":"金沢市","city_kana":"カナザワシ","town":"北安江町","town_kana":"キタヤスエチョウ","prefecture_code":17},"0858":{"zip_code":"9200858","prefecture":"石川県","prefecture_kana":"イシカワケン","city":"金沢市","city_kana":"カナザワシ","town":"木ノ新保町","town_kana":"キノシンボマチ","prefecture_code":17},"0339":{"zip_code":"9200339","prefecture":"石川県","prefecture_kana":"イシカワケン","city":"金沢市","city_kana":"カナザワシ","town":"木曳野","town_kana":"キビキノ","prefecture_code":17},"0848":{"zip_code":"9200848","prefecture":"石川県","prefecture_kana":"イシカワケン","city":"金沢市","city_kana":"カナザワシ","town":"京町","town_kana":"キョウマチ","prefecture_code":17},"0163":{"zip_code":"9200163","prefecture":"石川県","prefecture_kana":"イシカワケン","city":"金沢市","city_kana":"カナザワシ","town":"桐山町","town_kana":"キリヤママチ","prefecture_code":17},"1333":{"zip_code":"9201333","prefecture":"石川県","prefecture_kana":"イシカワケン","city":"金沢市","city_kana":"カナザワシ","town":"国見町","town_kana":"クニミチョウ","prefecture_code":17},"1326":{"zip_code":"9201326","prefecture":"石川県","prefecture_kana":"イシカワケン","city":"金沢市","city_kana":"カナザワシ","town":"熊走町","town_kana":"クマバシリマチ","prefecture_code":17},"8203":{"zip_code":"9208203","prefecture":"石川県","prefecture_kana":"イシカワケン","city":"金沢市","city_kana":"カナザワシ","town":"鞍月","town_kana":"クラツキ","prefecture_code":17},"8201":{"zip_code":"9208201","prefecture":"石川県","prefecture_kana":"イシカワケン","city":"金沢市","city_kana":"カナザワシ","town":"鞍月東","town_kana":"クラツキヒガシ","prefecture_code":17},"0157":{"zip_code":"9200157","prefecture":"石川県","prefecture_kana":"イシカワケン","city":"金沢市","city_kana":"カナザワシ","town":"車町","town_kana":"クルママチ","prefecture_code":17},"0936":{"zip_code":"9200936","prefecture":"石川県","prefecture_kana":"イシカワケン","city":"金沢市","city_kana":"カナザワシ","town":"兼六町","town_kana":"ケンロクマチ","prefecture_code":17},"0931":{"zip_code":"9200931","prefecture":"石川県","prefecture_kana":"イシカワケン","city":"金沢市","city_kana":"カナザワシ","town":"兼六元町","town_kana":"ケンロクモトマチ","prefecture_code":17},"0961":{"zip_code":"9200961","prefecture":"石川県","prefecture_kana":"イシカワケン","city":"金沢市","city_kana":"カナザワシ","town":"香林坊","town_kana":"コウリンボウ","prefecture_code":17},"0805":{"zip_code":"9200805","prefecture":"石川県","prefecture_kana":"イシカワケン","city":"金沢市","city_kana":"カナザワシ","town":"小金町","town_kana":"コガネマチ","prefecture_code":17},"1114":{"zip_code":"9201114","prefecture":"石川県","prefecture_kana":"イシカワケン","city":"金沢市","city_kana":"カナザワシ","town":"古郷町","town_kana":"コキョウマチ","prefecture_code":17},"8221":{"zip_code":"9208221","prefecture":"石川県","prefecture_kana":"イシカワケン","city":"金沢市","city_kana":"カナザワシ","town":"御供田町","town_kana":"ゴクデンマチ","prefecture_code":17},"0811":{"zip_code":"9200811","prefecture":"石川県","prefecture_kana":"イシカワケン","city":"金沢市","city_kana":"カナザワシ","town":"小坂町","town_kana":"コサカマチ","prefecture_code":17},"0932":{"zip_code":"9200932","prefecture":"石川県","prefecture_kana":"イシカワケン","city":"金沢市","city_kana":"カナザワシ","town":"小将町","town_kana":"コショウマチ","prefecture_code":17},"0813":{"zip_code":"9200813","prefecture":"石川県","prefecture_kana":"イシカワケン","city":"金沢市","city_kana":"カナザワシ","town":"御所町","town_kana":"ゴショマチ","prefecture_code":17},"0942":{"zip_code":"9200942","prefecture":"石川県","prefecture_kana":"イシカワケン","city":"金沢市","city_kana":"カナザワシ","town":"小立野","town_kana":"コダツノ","prefecture_code":17},"0129":{"zip_code":"9200129","prefecture":"石川県","prefecture_kana":"イシカワケン","city":"金沢市","city_kana":"カナザワシ","town":"琴坂町","town_kana":"コトサカマチ","prefecture_code":17},"0121":{"zip_code":"9200121","prefecture":"石川県","prefecture_kana":"イシカワケン","city":"金沢市","city_kana":"カナザワシ","town":"琴町","town_kana":"コトマチ","prefecture_code":17},"3107":{"zip_code":"9203107","prefecture":"石川県","prefecture_kana":"イシカワケン","city":"金沢市","city_kana":"カナザワシ","town":"湖南町","town_kana":"コナンマチ","prefecture_code":17},"0852":{"zip_code":"9200852","prefecture":"石川県","prefecture_kana":"イシカワケン","city":"金沢市","city_kana":"カナザワシ","town":"此花町","town_kana":"コノハナマチ","prefecture_code":17},"0168":{"zip_code":"9200168","prefecture":"石川県","prefecture_kana":"イシカワケン","city":"金沢市","city_kana":"カナザワシ","town":"小野町","town_kana":"コノマチ","prefecture_code":17},"0844":{"zip_code":"9200844","prefecture":"石川県","prefecture_kana":"イシカワケン","city":"金沢市","city_kana":"カナザワシ","town":"小橋町","town_kana":"コバシマチ","prefecture_code":17},"0826":{"zip_code":"9200826","prefecture":"石川県","prefecture_kana":"イシカワケン","city":"金沢市","city_kana":"カナザワシ","town":"小二又町","town_kana":"コフタマタマチ","prefecture_code":17},"0362":[{"zip_code":"9200362","prefecture":"石川県","prefecture_kana":"イシカワケン","city":"金沢市","city_kana":"カナザワシ","town":"古府","town_kana":"コブ","prefecture_code":17},{"zip_code":"9200362","prefecture":"石川県","prefecture_kana":"イシカワケン","city":"金沢市","city_kana":"カナザワシ","town":"古府町","town_kana":"コブマチ","prefecture_code":17},{"zip_code":"9200362","prefecture":"石川県","prefecture_kana":"イシカワケン","city":"金沢市","city_kana":"カナザワシ","town":"古府町西","town_kana":"コブマチニシ","prefecture_code":17}],"0363":{"zip_code":"9200363","prefecture":"石川県","prefecture_kana":"イシカワケン","city":"金沢市","city_kana":"カナザワシ","town":"古府町南","town_kana":"コブマチミナミ","prefecture_code":17},"1313":{"zip_code":"9201313","prefecture":"石川県","prefecture_kana":"イシカワケン","city":"金沢市","city_kana":"カナザワシ","town":"駒帰町","town_kana":"コマガエリマチ","prefecture_code":17},"0144":{"zip_code":"9200144","prefecture":"石川県","prefecture_kana":"イシカワケン","city":"金沢市","city_kana":"カナザワシ","town":"小嶺町","town_kana":"コミネマチ","prefecture_code":17},"3103":{"zip_code":"9203103","prefecture":"石川県","prefecture_kana":"イシカワケン","city":"金沢市","city_kana":"カナザワシ","town":"湖陽","town_kana":"コヨウ","prefecture_code":17},"0836":{"zip_code":"9200836","prefecture":"石川県","prefecture_kana":"イシカワケン","city":"金沢市","city_kana":"カナザワシ","town":"子来町","town_kana":"コライマチ","prefecture_code":17},"0224":{"zip_code":"9200224","prefecture":"石川県","prefecture_kana":"イシカワケン","city":"金沢市","city_kana":"カナザワシ","town":"五郎島町","town_kana":"ゴロジママチ","prefecture_code":17},"3101":{"zip_code":"9203101","prefecture":"石川県","prefecture_kana":"イシカワケン","city":"金沢市","city_kana":"カナザワシ","town":"才田町","town_kana":"サイダマチ","prefecture_code":17},"0024":{"zip_code":"9200024","prefecture":"石川県","prefecture_kana":"イシカワケン","city":"金沢市","city_kana":"カナザワシ","town":"西念","town_kana":"サイネン","prefecture_code":17},"0026":{"zip_code":"9200026","prefecture":"石川県","prefecture_kana":"イシカワケン","city":"金沢市","city_kana":"カナザワシ","town":"西念町","town_kana":"サイネンマチ","prefecture_code":17},"0921":{"zip_code":"9200921","prefecture":"石川県","prefecture_kana":"イシカワケン","city":"金沢市","city_kana":"カナザワシ","town":"材木町","town_kana":"ザイモクチョウ","prefecture_code":17},"0968":{"zip_code":"9200968","prefecture":"石川県","prefecture_kana":"イシカワケン","city":"金沢市","city_kana":"カナザワシ","town":"幸町","town_kana":"サイワイマチ","prefecture_code":17},"0357":{"zip_code":"9200357","prefecture":"石川県","prefecture_kana":"イシカワケン","city":"金沢市","city_kana":"カナザワシ","town":"佐奇森町","town_kana":"サキモリマチ","prefecture_code":17},"0057":{"zip_code":"9200057","prefecture":"石川県","prefecture_kana":"イシカワケン","city":"金沢市","city_kana":"カナザワシ","town":"桜田町","town_kana":"サクラダマチ","prefecture_code":17},"0923":{"zip_code":"9200923","prefecture":"石川県","prefecture_kana":"イシカワケン","city":"金沢市","city_kana":"カナザワシ","town":"桜町","town_kana":"サクラマチ","prefecture_code":17},"0998":{"zip_code":"9200998","prefecture":"石川県","prefecture_kana":"イシカワケン","city":"金沢市","city_kana":"カナザワシ","town":"里見町","town_kana":"サトミチョウ","prefecture_code":17},"0034":{"zip_code":"9200034","prefecture":"石川県","prefecture_kana":"イシカワケン","city":"金沢市","city_kana":"カナザワシ","town":"醒ケ井町","town_kana":"サメガイチョウ","prefecture_code":17},"0861":{"zip_code":"9200861","prefecture":"石川県","prefecture_kana":"イシカワケン","city":"金沢市","city_kana":"カナザワシ","town":"三社町","town_kana":"サンジャマチ","prefecture_code":17},"0821":{"zip_code":"9200821","prefecture":"石川県","prefecture_kana":"イシカワケン","city":"金沢市","city_kana":"カナザワシ","town":"山王町","town_kana":"サンノウマチ","prefecture_code":17},"0166":{"zip_code":"9200166","prefecture":"石川県","prefecture_kana":"イシカワケン","city":"金沢市","city_kana":"カナザワシ","town":"四王寺町","town_kana":"シオウジマチ","prefecture_code":17},"0116":{"zip_code":"9200116","prefecture":"石川県","prefecture_kana":"イシカワケン","city":"金沢市","city_kana":"カナザワシ","town":"地代町","town_kana":"ジダイマチ","prefecture_code":17},"0341":{"zip_code":"9200341","prefecture":"石川県","prefecture_kana":"イシカワケン","city":"金沢市","city_kana":"カナザワシ","town":"寺中町","town_kana":"ジチュウマチ","prefecture_code":17},"0906":{"zip_code":"9200906","prefecture":"石川県","prefecture_kana":"イシカワケン","city":"金沢市","city_kana":"カナザワシ","town":"十間町","town_kana":"ジツケンマチ","prefecture_code":17},"1129":{"zip_code":"9201129","prefecture":"石川県","prefecture_kana":"イシカワケン","city":"金沢市","city_kana":"カナザワシ","town":"芝原町","town_kana":"シバハラマチ","prefecture_code":17},"0104":[{"zip_code":"9200104","prefecture":"石川県","prefecture_kana":"イシカワケン","city":"金沢市","city_kana":"カナザワシ","town":"四坊高坂町","town_kana":"シボウタカサカマチ","prefecture_code":17},{"zip_code":"9200104","prefecture":"石川県","prefecture_kana":"イシカワケン","city":"金沢市","city_kana":"カナザワシ","town":"四坊町","town_kana":"シボウマチ","prefecture_code":17}],"0132":{"zip_code":"9200132","prefecture":"石川県","prefecture_kana":"イシカワケン","city":"金沢市","city_kana":"カナザワシ","town":"清水谷町","town_kana":"シミズダニマチ","prefecture_code":17},"1104":{"zip_code":"9201104","prefecture":"石川県","prefecture_kana":"イシカワケン","city":"金沢市","city_kana":"カナザワシ","town":"清水町","town_kana":"シミズマチ","prefecture_code":17},"0058":{"zip_code":"9200058","prefecture":"石川県","prefecture_kana":"イシカワケン","city":"金沢市","city_kana":"カナザワシ","town":"示野中町","town_kana":"シメノナカマチ","prefecture_code":17},"0059":{"zip_code":"9200059","prefecture":"石川県","prefecture_kana":"イシカワケン","city":"金沢市","city_kana":"カナザワシ","town":"示野町","town_kana":"シメノマチ","prefecture_code":17},"0939":{"zip_code":"9200939","prefecture":"石川県","prefecture_kana":"イシカワケン","city":"金沢市","city_kana":"カナザワシ","town":"下石引町","town_kana":"シモイシビキマチ","prefecture_code":17},"0904":{"zip_code":"9200904","prefecture":"石川県","prefecture_kana":"イシカワケン","city":"金沢市","city_kana":"カナザワシ","town":"下近江町","town_kana":"シモオウミチョウ","prefecture_code":17},"1323":{"zip_code":"9201323","prefecture":"石川県","prefecture_kana":"イシカワケン","city":"金沢市","city_kana":"カナザワシ","town":"下鴛原町","town_kana":"シモオシハラマチ","prefecture_code":17},"0991":{"zip_code":"9200991","prefecture":"石川県","prefecture_kana":"イシカワケン","city":"金沢市","city_kana":"カナザワシ","town":"下柿木畠","town_kana":"シモカキノキバタケ","prefecture_code":17},"0910":{"zip_code":"9200910","prefecture":"石川県","prefecture_kana":"イシカワケン","city":"金沢市","city_kana":"カナザワシ","town":"下新町","town_kana":"シモシンチョウ","prefecture_code":17},"1127":{"zip_code":"9201127","prefecture":"石川県","prefecture_kana":"イシカワケン","city":"金沢市","city_kana":"カナザワシ","town":"下谷町","town_kana":"シモダニマチ","prefecture_code":17},"0917":{"zip_code":"9200917","prefecture":"石川県","prefecture_kana":"イシカワケン","city":"金沢市","city_kana":"カナザワシ","town":"下堤町","town_kana":"シモツツミチョウ","prefecture_code":17},"0993":{"zip_code":"9200993","prefecture":"石川県","prefecture_kana":"イシカワケン","city":"金沢市","city_kana":"カナザワシ","town":"下本多町","town_kana":"シモホンダマチ","prefecture_code":17},"0916":{"zip_code":"9200916","prefecture":"石川県","prefecture_kana":"イシカワケン","city":"金沢市","city_kana":"カナザワシ","town":"下松原町","town_kana":"シモマツバラチョウ","prefecture_code":17},"0371":{"zip_code":"9200371","prefecture":"石川県","prefecture_kana":"イシカワケン","city":"金沢市","city_kana":"カナザワシ","town":"下安原町","town_kana":"シモヤスハラマチ","prefecture_code":17},"0176":{"zip_code":"9200176","prefecture":"石川県","prefecture_kana":"イシカワケン","city":"金沢市","city_kana":"カナザワシ","town":"下涌波町","town_kana":"シモワクナミマチ","prefecture_code":17},"0976":{"zip_code":"9200976","prefecture":"石川県","prefecture_kana":"イシカワケン","city":"金沢市","city_kana":"カナザワシ","town":"十三間町","town_kana":"ジュウサンゲンマチ","prefecture_code":17},"0977":{"zip_code":"9200977","prefecture":"石川県","prefecture_kana":"イシカワケン","city":"金沢市","city_kana":"カナザワシ","town":"十三間町中丁","town_kana":"ジュウサンゲンマチナカチョウ","prefecture_code":17},"0846":{"zip_code":"9200846","prefecture":"石川県","prefecture_kana":"イシカワケン","city":"金沢市","city_kana":"カナザワシ","town":"昌永町","town_kana":"ショウエイマチ","prefecture_code":17},"0966":{"zip_code":"9200966","prefecture":"石川県","prefecture_kana":"イシカワケン","city":"金沢市","city_kana":"カナザワシ","town":"城南","town_kana":"ジョウナン","prefecture_code":17},"0154":{"zip_code":"9200154","prefecture":"石川県","prefecture_kana":"イシカワケン","city":"金沢市","city_kana":"カナザワシ","town":"正部町","town_kana":"ショウブマチ","prefecture_code":17},"1325":{"zip_code":"9201325","prefecture":"石川県","prefecture_kana":"イシカワケン","city":"金沢市","city_kana":"カナザワシ","town":"城力町","town_kana":"ジョウリキマチ","prefecture_code":17},"0856":{"zip_code":"9200856","prefecture":"石川県","prefecture_kana":"イシカワケン","city":"金沢市","city_kana":"カナザワシ","town":"昭和町","town_kana":"ショウワマチ","prefecture_code":17},"1126":{"zip_code":"9201126","prefecture":"石川県","prefecture_kana":"イシカワケン","city":"金沢市","city_kana":"カナザワシ","town":"白見町","town_kana":"シロミマチ","prefecture_code":17},"0806":{"zip_code":"9200806","prefecture":"石川県","prefecture_kana":"イシカワケン","city":"金沢市","city_kana":"カナザワシ","town":"神宮寺","town_kana":"ジングウジ","prefecture_code":17},"0803":{"zip_code":"9200803","prefecture":"石川県","prefecture_kana":"イシカワケン","city":"金沢市","city_kana":"カナザワシ","town":"神宮寺町","town_kana":"ジングウジマチ","prefecture_code":17},"0995":{"zip_code":"9200995","prefecture":"石川県","prefecture_kana":"イシカワケン","city":"金沢市","city_kana":"カナザワシ","town":"新竪町","town_kana":"シンタテマチ","prefecture_code":17},"1345":{"zip_code":"9201345","prefecture":"石川県","prefecture_kana":"イシカワケン","city":"金沢市","city_kana":"カナザワシ","town":"新保町","town_kana":"シンボマチ","prefecture_code":17},"0833":{"zip_code":"9200833","prefecture":"石川県","prefecture_kana":"イシカワケン","city":"金沢市","city_kana":"カナザワシ","town":"末広町","town_kana":"スエヒロマチ","prefecture_code":17},"1302":{"zip_code":"9201302","prefecture":"石川県","prefecture_kana":"イシカワケン","city":"金沢市","city_kana":"カナザワシ","town":"末町","town_kana":"スエマチ","prefecture_code":17},"1311":{"zip_code":"9201311","prefecture":"石川県","prefecture_kana":"イシカワケン","city":"金沢市","city_kana":"カナザワシ","town":"菅池町","town_kana":"スガイケマチ","prefecture_code":17},"0972":{"zip_code":"9200972","prefecture":"石川県","prefecture_kana":"イシカワケン","city":"金沢市","city_kana":"カナザワシ","town":"杉浦町","town_kana":"スギウラマチ","prefecture_code":17},"0207":{"zip_code":"9200207","prefecture":"石川県","prefecture_kana":"イシカワケン","city":"金沢市","city_kana":"カナザワシ","town":"須崎町","town_kana":"スザキマチ","prefecture_code":17},"0857":{"zip_code":"9200857","prefecture":"石川県","prefecture_kana":"イシカワケン","city":"金沢市","city_kana":"カナザワシ","town":"折違町","town_kana":"スジカイマチ","prefecture_code":17},"1161":{"zip_code":"9201161","prefecture":"石川県","prefecture_kana":"イシカワケン","city":"金沢市","city_kana":"カナザワシ","town":"鈴見台","town_kana":"スズミダイ","prefecture_code":17},"1162":{"zip_code":"9201162","prefecture":"石川県","prefecture_kana":"イシカワケン","city":"金沢市","city_kana":"カナザワシ","town":"鈴見町","town_kana":"スズミマチ","prefecture_code":17},"1344":{"zip_code":"9201344","prefecture":"石川県","prefecture_kana":"イシカワケン","city":"金沢市","city_kana":"カナザワシ","town":"住吉町","town_kana":"スミヨシマチ","prefecture_code":17},"8202":{"zip_code":"9208202","prefecture":"石川県","prefecture_kana":"イシカワケン","city":"金沢市","city_kana":"カナザワシ","town":"西都","town_kana":"セイト","prefecture_code":17},"0002":{"zip_code":"9200002","prefecture":"石川県","prefecture_kana":"イシカワケン","city":"金沢市","city_kana":"カナザワシ","town":"千木","town_kana":"セギ","prefecture_code":17},"0001":{"zip_code":"9200001","prefecture":"石川県","prefecture_kana":"イシカワケン","city":"金沢市","city_kana":"カナザワシ","town":"千木町","town_kana":"セギマチ","prefecture_code":17},"1312":{"zip_code":"9201312","prefecture":"石川県","prefecture_kana":"イシカワケン","city":"金沢市","city_kana":"カナザワシ","town":"瀬領町","town_kana":"セリョウマチ","prefecture_code":17},"0356":{"zip_code":"9200356","prefecture":"石川県","prefecture_kana":"イシカワケン","city":"金沢市","city_kana":"カナザワシ","town":"専光寺町","town_kana":"センコウジマチ","prefecture_code":17},"0204":{"zip_code":"9200204","prefecture":"石川県","prefecture_kana":"イシカワケン","city":"金沢市","city_kana":"カナザワシ","town":"千田町","town_kana":"センダマチ","prefecture_code":17},"0115":{"zip_code":"9200115","prefecture":"石川県","prefecture_kana":"イシカワケン","city":"金沢市","city_kana":"カナザワシ","town":"千杉町","town_kana":"センノスギマチ","prefecture_code":17},"0982":{"zip_code":"9200982","prefecture":"石川県","prefecture_kana":"イシカワケン","city":"金沢市","city_kana":"カナザワシ","town":"大工町","town_kana":"ダイクマチ","prefecture_code":17},"0924":{"zip_code":"9200924","prefecture":"石川県","prefecture_kana":"イシカワケン","city":"金沢市","city_kana":"カナザワシ","town":"田井町","town_kana":"タイマチ","prefecture_code":17},"1154":{"zip_code":"9201154","prefecture":"石川県","prefecture_kana":"イシカワケン","city":"金沢市","city_kana":"カナザワシ","town":"太陽が丘","town_kana":"タイヨウガオカ","prefecture_code":17},"1141":{"zip_code":"9201141","prefecture":"石川県","prefecture_kana":"イシカワケン","city":"金沢市","city_kana":"カナザワシ","town":"平等本町","town_kana":"ダイラホンマチ","prefecture_code":17},"1334":{"zip_code":"9201334","prefecture":"石川県","prefecture_kana":"イシカワケン","city":"金沢市","city_kana":"カナザワシ","town":"平町","town_kana":"タイラマチ","prefecture_code":17},"0046":{"zip_code":"9200046","prefecture":"石川県","prefecture_kana":"イシカワケン","city":"金沢市","city_kana":"カナザワシ","town":"大和町","town_kana":"ダイワマチ","prefecture_code":17},"1143":{"zip_code":"9201143","prefecture":"石川県","prefecture_kana":"イシカワケン","city":"金沢市","city_kana":"カナザワシ","town":"高池町","town_kana":"タカイケマチ","prefecture_code":17},"0864":{"zip_code":"9200864","prefecture":"石川県","prefecture_kana":"イシカワケン","city":"金沢市","city_kana":"カナザワシ","town":"高岡町","town_kana":"タカオカマチ","prefecture_code":17},"0155":{"zip_code":"9200155","prefecture":"石川県","prefecture_kana":"イシカワケン","city":"金沢市","city_kana":"カナザワシ","town":"高坂町","town_kana":"タカサカマチ","prefecture_code":17},"0005":{"zip_code":"9200005","prefecture":"石川県","prefecture_kana":"イシカワケン","city":"金沢市","city_kana":"カナザワシ","town":"高柳町","town_kana":"タカヤナギマチ","prefecture_code":17},"0934":{"zip_code":"9200934","prefecture":"石川県","prefecture_kana":"イシカワケン","city":"金沢市","city_kana":"カナザワシ","town":"宝町","town_kana":"タカラマチ","prefecture_code":17},"1152":{"zip_code":"9201152","prefecture":"石川県","prefecture_kana":"イシカワケン","city":"金沢市","city_kana":"カナザワシ","town":"田上","town_kana":"タガミ","prefecture_code":17},"1157":{"zip_code":"9201157","prefecture":"石川県","prefecture_kana":"イシカワケン","city":"金沢市","city_kana":"カナザワシ","town":"田上さくら","town_kana":"タガミサクラ","prefecture_code":17},"1153":{"zip_code":"9201153","prefecture":"石川県","prefecture_kana":"イシカワケン","city":"金沢市","city_kana":"カナザワシ","town":"田上新町","town_kana":"タガミシンマチ","prefecture_code":17},"1156":{"zip_code":"9201156","prefecture":"石川県","prefecture_kana":"イシカワケン","city":"金沢市","city_kana":"カナザワシ","town":"田上の里","town_kana":"タガミノサト","prefecture_code":17},"1155":{"zip_code":"9201155","prefecture":"石川県","prefecture_kana":"イシカワケン","city":"金沢市","city_kana":"カナザワシ","town":"田上本町","town_kana":"タガミホンマチ","prefecture_code":17},"1151":{"zip_code":"9201151","prefecture":"石川県","prefecture_kana":"イシカワケン","city":"金沢市","city_kana":"カナザワシ","town":"田上町","town_kana":"タガミマチ","prefecture_code":17},"0123":{"zip_code":"9200123","prefecture":"石川県","prefecture_kana":"イシカワケン","city":"金沢市","city_kana":"カナザワシ","town":"滝下町","town_kana":"タキシタマチ","prefecture_code":17},"0137":{"zip_code":"9200137","prefecture":"石川県","prefecture_kana":"イシカワケン","city":"金沢市","city_kana":"カナザワシ","town":"竹又町","town_kana":"タケマタマチ","prefecture_code":17},"3102":{"zip_code":"9203102","prefecture":"石川県","prefecture_kana":"イシカワケン","city":"金沢市","city_kana":"カナザワシ","town":"忠縄町","town_kana":"タダナワマチ","prefecture_code":17},"0957":{"zip_code":"9200957","prefecture":"石川県","prefecture_kana":"イシカワケン","city":"金沢市","city_kana":"カナザワシ","town":"舘町","town_kana":"タチマチ","prefecture_code":17},"0956":{"zip_code":"9200956","prefecture":"石川県","prefecture_kana":"イシカワケン","city":"金沢市","city_kana":"カナザワシ","town":"舘山町","town_kana":"タチヤママチ","prefecture_code":17},"1303":{"zip_code":"9201303","prefecture":"石川県","prefecture_kana":"イシカワケン","city":"金沢市","city_kana":"カナザワシ","town":"辰巳町","town_kana":"タツミマチ","prefecture_code":17},"0997":{"zip_code":"9200997","prefecture":"石川県","prefecture_kana":"イシカワケン","city":"金沢市","city_kana":"カナザワシ","town":"竪町","town_kana":"タテマチ","prefecture_code":17},"0007":{"zip_code":"9200007","prefecture":"石川県","prefecture_kana":"イシカワケン","city":"金沢市","city_kana":"カナザワシ","town":"田中町","town_kana":"タナカマチ","prefecture_code":17},"1103":{"zip_code":"9201103","prefecture":"石川県","prefecture_kana":"イシカワケン","city":"金沢市","city_kana":"カナザワシ","town":"田島町","town_kana":"タノシママチ","prefecture_code":17},"0863":{"zip_code":"9200863","prefecture":"石川県","prefecture_kana":"イシカワケン","city":"金沢市","city_kana":"カナザワシ","town":"玉川町","town_kana":"タマガワチョウ","prefecture_code":17},"0113":{"zip_code":"9200113","prefecture":"石川県","prefecture_kana":"イシカワケン","city":"金沢市","city_kana":"カナザワシ","town":"俵原町","town_kana":"タラワラマチ","prefecture_code":17},"1108":{"zip_code":"9201108","prefecture":"石川県","prefecture_kana":"イシカワケン","city":"金沢市","city_kana":"カナザワシ","town":"俵町","town_kana":"タワラマチ","prefecture_code":17},"8217":{"zip_code":"9208217","prefecture":"石川県","prefecture_kana":"イシカワケン","city":"金沢市","city_kana":"カナザワシ","town":"近岡町","town_kana":"チカオカマチ","prefecture_code":17},"1138":{"zip_code":"9201138","prefecture":"石川県","prefecture_kana":"イシカワケン","city":"金沢市","city_kana":"カナザワシ","town":"茅原町","town_kana":"チハラマチ","prefecture_code":17},"0866":{"zip_code":"9200866","prefecture":"石川県","prefecture_kana":"イシカワケン","city":"金沢市","city_kana":"カナザワシ","town":"中央通町","town_kana":"チュウオウドオリマチ","prefecture_code":17},"1147":{"zip_code":"9201147","prefecture":"石川県","prefecture_kana":"イシカワケン","city":"金沢市","city_kana":"カナザワシ","town":"銚子町","town_kana":"チョウシマチ","prefecture_code":17},"3113":{"zip_code":"9203113","prefecture":"石川県","prefecture_kana":"イシカワケン","city":"金沢市","city_kana":"カナザワシ","town":"塚崎町","town_kana":"ツカザキマチ","prefecture_code":17},"0178":{"zip_code":"9200178","prefecture":"石川県","prefecture_kana":"イシカワケン","city":"金沢市","city_kana":"カナザワシ","town":"月浦町","town_kana":"ツキウラマチ","prefecture_code":17},"0105":{"zip_code":"9200105","prefecture":"石川県","prefecture_kana":"イシカワケン","city":"金沢市","city_kana":"カナザワシ","town":"月影町","town_kana":"ツキカゲマチ","prefecture_code":17},"0135":{"zip_code":"9200135","prefecture":"石川県","prefecture_kana":"イシカワケン","city":"金沢市","city_kana":"カナザワシ","town":"土子原町","town_kana":"ツチコハラマチ","prefecture_code":17},"0955":{"zip_code":"9200955","prefecture":"石川県","prefecture_kana":"イシカワケン","city":"金沢市","city_kana":"カナザワシ","town":"土清水","town_kana":"ツチシミズ","prefecture_code":17},"0161":{"zip_code":"9200161","prefecture":"石川県","prefecture_kana":"イシカワケン","city":"金沢市","city_kana":"カナザワシ","town":"鞁筒町","town_kana":"ツヅミドウマチ","prefecture_code":17},"0825":{"zip_code":"9200825","prefecture":"石川県","prefecture_kana":"イシカワケン","city":"金沢市","city_kana":"カナザワシ","town":"釣部町","town_kana":"ツルベマチ","prefecture_code":17},"1315":{"zip_code":"9201315","prefecture":"石川県","prefecture_kana":"イシカワケン","city":"金沢市","city_kana":"カナザワシ","town":"寺津町","town_kana":"テラヅマチ","prefecture_code":17},"0925":{"zip_code":"9200925","prefecture":"石川県","prefecture_kana":"イシカワケン","city":"金沢市","city_kana":"カナザワシ","town":"天神町","town_kana":"テンジンマチ","prefecture_code":17},"0963":{"zip_code":"9200963","prefecture":"石川県","prefecture_kana":"イシカワケン","city":"金沢市","city_kana":"カナザワシ","town":"出羽町","town_kana":"デワマチ","prefecture_code":17},"0824":{"zip_code":"9200824","prefecture":"石川県","prefecture_kana":"イシカワケン","city":"金沢市","city_kana":"カナザワシ","town":"伝燈寺町","town_kana":"デンドウジマチ","prefecture_code":17},"0068":{"zip_code":"9200068","prefecture":"石川県","prefecture_kana":"イシカワケン","city":"金沢市","city_kana":"カナザワシ","town":"戸板","town_kana":"トイタ","prefecture_code":17},"0069":{"zip_code":"9200069","prefecture":"石川県","prefecture_kana":"イシカワケン","city":"金沢市","city_kana":"カナザワシ","town":"戸板西","town_kana":"トイタニシ","prefecture_code":17},"0061":{"zip_code":"9200061","prefecture":"石川県","prefecture_kana":"イシカワケン","city":"金沢市","city_kana":"カナザワシ","town":"問屋町","town_kana":"トイヤマチ","prefecture_code":17},"1133":{"zip_code":"9201133","prefecture":"石川県","prefecture_kana":"イシカワケン","city":"金沢市","city_kana":"カナザワシ","town":"藤六町","town_kana":"トウロクマチ","prefecture_code":17},"0834":{"zip_code":"9200834","prefecture":"石川県","prefecture_kana":"イシカワケン","city":"金沢市","city_kana":"カナザワシ","town":"常盤町","town_kana":"トキワマチ","prefecture_code":17},"0101":{"zip_code":"9200101","prefecture":"石川県","prefecture_kana":"イシカワケン","city":"金沢市","city_kana":"カナザワシ","town":"利屋町","town_kana":"トギヤマチ","prefecture_code":17},"0938":{"zip_code":"9200938","prefecture":"石川県","prefecture_kana":"イシカワケン","city":"金沢市","city_kana":"カナザワシ","town":"飛梅町","town_kana":"トビウメチョウ","prefecture_code":17},"8204":{"zip_code":"9208204","prefecture":"石川県","prefecture_kana":"イシカワケン","city":"金沢市","city_kana":"カナザワシ","town":"戸水","town_kana":"トミズ","prefecture_code":17},"0223":{"zip_code":"9200223","prefecture":"石川県","prefecture_kana":"イシカワケン","city":"金沢市","city_kana":"カナザワシ","town":"戸水町","town_kana":"トミズマチ","prefecture_code":17},"1105":{"zip_code":"9201105","prefecture":"石川県","prefecture_kana":"イシカワケン","city":"金沢市","city_kana":"カナザワシ","town":"戸室新保","town_kana":"トムロシンボ","prefecture_code":17},"1106":[{"zip_code":"9201106","prefecture":"石川県","prefecture_kana":"イシカワケン","city":"金沢市","city_kana":"カナザワシ","town":"戸室別所","town_kana":"トムロベッショ","prefecture_code":17},{"zip_code":"9201106","prefecture":"石川県","prefecture_kana":"イシカワケン","city":"金沢市","city_kana":"カナザワシ","town":"湯谷原町","town_kana":"ユヤガハラマチ","prefecture_code":17}],"0372":{"zip_code":"9200372","prefecture":"石川県","prefecture_kana":"イシカワケン","city":"金沢市","city_kana":"カナザワシ","town":"豊穂町","town_kana":"トヨホマチ","prefecture_code":17},"8218":{"zip_code":"9208218","prefecture":"石川県","prefecture_kana":"イシカワケン","city":"金沢市","city_kana":"カナザワシ","town":"直江北","town_kana":"ナオエキタ","prefecture_code":17},"0141":{"zip_code":"9200141","prefecture":"石川県","prefecture_kana":"イシカワケン","city":"金沢市","city_kana":"カナザワシ","town":"直江野町","town_kana":"ナオエノマチ","prefecture_code":17},"8216":{"zip_code":"9208216","prefecture":"石川県","prefecture_kana":"イシカワケン","city":"金沢市","city_kana":"カナザワシ","town":"直江町","town_kana":"ナオエマチ","prefecture_code":17},"0124":{"zip_code":"9200124","prefecture":"石川県","prefecture_kana":"イシカワケン","city":"金沢市","city_kana":"カナザワシ","town":"中尾町","town_kana":"ナカオマチ","prefecture_code":17},"0975":{"zip_code":"9200975","prefecture":"石川県","prefecture_kana":"イシカワケン","city":"金沢市","city_kana":"カナザワシ","town":"中川除町","town_kana":"ナカカワヨケマチ","prefecture_code":17},"1336":{"zip_code":"9201336","prefecture":"石川県","prefecture_kana":"イシカワケン","city":"金沢市","city_kana":"カナザワシ","town":"中戸町","town_kana":"ナカトマチ","prefecture_code":17},"0035":{"zip_code":"9200035","prefecture":"石川県","prefecture_kana":"イシカワケン","city":"金沢市","city_kana":"カナザワシ","town":"中橋町","town_kana":"ナカバシマチ","prefecture_code":17},"0381":{"zip_code":"9200381","prefecture":"石川県","prefecture_kana":"イシカワケン","city":"金沢市","city_kana":"カナザワシ","town":"中屋","town_kana":"ナカヤ","prefecture_code":17},"0375":{"zip_code":"9200375","prefecture":"石川県","prefecture_kana":"イシカワケン","city":"金沢市","city_kana":"カナザワシ","town":"中屋町","town_kana":"ナカヤマチ","prefecture_code":17},"1109":{"zip_code":"9201109","prefecture":"石川県","prefecture_kana":"イシカワケン","city":"金沢市","city_kana":"カナザワシ","town":"中山町","town_kana":"ナカヤママチ","prefecture_code":17},"0379":{"zip_code":"9200379","prefecture":"石川県","prefecture_kana":"イシカワケン","city":"金沢市","city_kana":"カナザワシ","town":"中屋南","town_kana":"ナカヤミナミ","prefecture_code":17},"0043":{"zip_code":"9200043","prefecture":"石川県","prefecture_kana":"イシカワケン","city":"金沢市","city_kana":"カナザワシ","town":"長田","town_kana":"ナガタ","prefecture_code":17},"0041":{"zip_code":"9200041","prefecture":"石川県","prefecture_kana":"イシカワケン","city":"金沢市","city_kana":"カナザワシ","town":"長田本町","town_kana":"ナガタホンマチ","prefecture_code":17},"0042":{"zip_code":"9200042","prefecture":"石川県","prefecture_kana":"イシカワケン","city":"金沢市","city_kana":"カナザワシ","town":"長田町","town_kana":"ナガタマチ","prefecture_code":17},"0867":{"zip_code":"9200867","prefecture":"石川県","prefecture_kana":"イシカワケン","city":"金沢市","city_kana":"カナザワシ","town":"長土塀","town_kana":"ナガドヘ","prefecture_code":17},"0865":{"zip_code":"9200865","prefecture":"石川県","prefecture_kana":"イシカワケン","city":"金沢市","city_kana":"カナザワシ","town":"長町","town_kana":"ナガマチ","prefecture_code":17},"0151":{"zip_code":"9200151","prefecture":"石川県","prefecture_kana":"イシカワケン","city":"金沢市","city_kana":"カナザワシ","town":"梨木町","town_kana":"ナシノキマチ","prefecture_code":17},"0021":{"zip_code":"9200021","prefecture":"石川県","prefecture_kana":"イシカワケン","city":"金沢市","city_kana":"カナザワシ","town":"七ツ屋町","town_kana":"ナナツヤマチ","prefecture_code":17},"1137":{"zip_code":"9201137","prefecture":"石川県","prefecture_kana":"イシカワケン","city":"金沢市","city_kana":"カナザワシ","town":"七曲町","town_kana":"ナナマガリマチ","prefecture_code":17},"0928":{"zip_code":"9200928","prefecture":"石川県","prefecture_kana":"イシカワケン","city":"金沢市","city_kana":"カナザワシ","town":"並木町","town_kana":"ナミキマチ","prefecture_code":17},"0152":{"zip_code":"9200152","prefecture":"石川県","prefecture_kana":"イシカワケン","city":"金沢市","city_kana":"カナザワシ","town":"鳴瀬元町","town_kana":"ナラセモトマチ","prefecture_code":17},"0804":{"zip_code":"9200804","prefecture":"石川県","prefecture_kana":"イシカワケン","city":"金沢市","city_kana":"カナザワシ","town":"鳴和","town_kana":"ナルワ","prefecture_code":17},"0815":{"zip_code":"9200815","prefecture":"石川県","prefecture_kana":"イシカワケン","city":"金沢市","city_kana":"カナザワシ","town":"鳴和台","town_kana":"ナルワダイ","prefecture_code":17},"0814":{"zip_code":"9200814","prefecture":"石川県","prefecture_kana":"イシカワケン","city":"金沢市","city_kana":"カナザワシ","town":"鳴和町","town_kana":"ナルワマチ","prefecture_code":17},"1136":{"zip_code":"9201136","prefecture":"石川県","prefecture_kana":"イシカワケン","city":"金沢市","city_kana":"カナザワシ","town":"西市瀬町","town_kana":"ニシイチノセマチ","prefecture_code":17},"0952":{"zip_code":"9200952","prefecture":"石川県","prefecture_kana":"イシカワケン","city":"金沢市","city_kana":"カナザワシ","town":"錦町","town_kana":"ニシキマチ","prefecture_code":17},"0913":{"zip_code":"9200913","prefecture":"石川県","prefecture_kana":"イシカワケン","city":"金沢市","city_kana":"カナザワシ","town":"西町三番丁","town_kana":"ニシチョウ3バンチョウ","prefecture_code":17},"0914":{"zip_code":"9200914","prefecture":"石川県","prefecture_kana":"イシカワケン","city":"金沢市","city_kana":"カナザワシ","town":"西町四番丁","town_kana":"ニシチョウ4バンチョウ","prefecture_code":17},"0915":{"zip_code":"9200915","prefecture":"石川県","prefecture_kana":"イシカワケン","city":"金沢市","city_kana":"カナザワシ","town":"西町藪ノ内通","town_kana":"ニシチョウヤブノウチドオリ","prefecture_code":17},"0067":{"zip_code":"9200067","prefecture":"石川県","prefecture_kana":"イシカワケン","city":"金沢市","city_kana":"カナザワシ","town":"二宮町","town_kana":"ニノミヤマチ","prefecture_code":17},"0142":{"zip_code":"9200142","prefecture":"石川県","prefecture_kana":"イシカワケン","city":"金沢市","city_kana":"カナザワシ","town":"納年町","town_kana":"ノウネンマチ","prefecture_code":17},"0903":{"zip_code":"9200903","prefecture":"石川県","prefecture_kana":"イシカワケン","city":"金沢市","city_kana":"カナザワシ","town":"博労町","town_kana":"バクロマチ","prefecture_code":17},"0911":{"zip_code":"9200911","prefecture":"石川県","prefecture_kana":"イシカワケン","city":"金沢市","city_kana":"カナザワシ","town":"橋場町","town_kana":"ハシバチョウ","prefecture_code":17},"3106":{"zip_code":"9203106","prefecture":"石川県","prefecture_kana":"イシカワケン","city":"金沢市","city_kana":"カナザワシ","town":"八田町","town_kana":"ハッタマチ","prefecture_code":17},"3104":{"zip_code":"9203104","prefecture":"石川県","prefecture_kana":"イシカワケン","city":"金沢市","city_kana":"カナザワシ","town":"八田町東","town_kana":"ハッタマチヒガシ","prefecture_code":17},"3105":{"zip_code":"9203105","prefecture":"石川県","prefecture_kana":"イシカワケン","city":"金沢市","city_kana":"カナザワシ","town":"八田町西","town_kana":"ハッタマチニシ","prefecture_code":17},"0951":{"zip_code":"9200951","prefecture":"石川県","prefecture_kana":"イシカワケン","city":"金沢市","city_kana":"カナザワシ","town":"花里町","town_kana":"ハナザトマチ","prefecture_code":17},"0103":{"zip_code":"9200103","prefecture":"石川県","prefecture_kana":"イシカワケン","city":"金沢市","city_kana":"カナザワシ","town":"花園八幡町","town_kana":"ハナゾノヤワタマチ","prefecture_code":17},"1128":{"zip_code":"9201128","prefecture":"石川県","prefecture_kana":"イシカワケン","city":"金沢市","city_kana":"カナザワシ","town":"羽場町","town_kana":"ハバマチ","prefecture_code":17},"1131":{"zip_code":"9201131","prefecture":"石川県","prefecture_kana":"イシカワケン","city":"金沢市","city_kana":"カナザワシ","town":"東荒屋町","town_kana":"ヒガシアラヤマチ","prefecture_code":17},"1134":{"zip_code":"9201134","prefecture":"石川県","prefecture_kana":"イシカワケン","city":"金沢市","city_kana":"カナザワシ","town":"東市瀬町","town_kana":"ヒガシイチノセマチ","prefecture_code":17},"0209":{"zip_code":"9200209","prefecture":"石川県","prefecture_kana":"イシカワケン","city":"金沢市","city_kana":"カナザワシ","town":"東蚊爪町","town_kana":"ヒガシカガツメマチ","prefecture_code":17},"0933":{"zip_code":"9200933","prefecture":"石川県","prefecture_kana":"イシカワケン","city":"金沢市","city_kana":"カナザワシ","town":"東兼六町","town_kana":"ヒガシケンロクマチ","prefecture_code":17},"0822":{"zip_code":"9200822","prefecture":"石川県","prefecture_kana":"イシカワケン","city":"金沢市","city_kana":"カナザワシ","town":"東長江町","town_kana":"ヒガシナガエマチ","prefecture_code":17},"0131":{"zip_code":"9200131","prefecture":"石川県","prefecture_kana":"イシカワケン","city":"金沢市","city_kana":"カナザワシ","town":"東原町","town_kana":"ヒガシハラマチ","prefecture_code":17},"1121":{"zip_code":"9201121","prefecture":"石川県","prefecture_kana":"イシカワケン","city":"金沢市","city_kana":"カナザワシ","town":"東町","town_kana":"ヒガシマチ","prefecture_code":17},"0835":{"zip_code":"9200835","prefecture":"石川県","prefecture_kana":"イシカワケン","city":"金沢市","city_kana":"カナザワシ","town":"東御影町","town_kana":"ヒガシミカゲマチ","prefecture_code":17},"0831":{"zip_code":"9200831","prefecture":"石川県","prefecture_kana":"イシカワケン","city":"金沢市","city_kana":"カナザワシ","town":"東山","town_kana":"ヒガシヤマ","prefecture_code":17},"0003":{"zip_code":"9200003","prefecture":"石川県","prefecture_kana":"イシカワケン","city":"金沢市","city_kana":"カナザワシ","town":"疋田","town_kana":"ヒキダ","prefecture_code":17},"0004":{"zip_code":"9200004","prefecture":"石川県","prefecture_kana":"イシカワケン","city":"金沢市","city_kana":"カナザワシ","town":"疋田町","town_kana":"ヒキダマチ","prefecture_code":17},"0901":{"zip_code":"9200901","prefecture":"石川県","prefecture_kana":"イシカワケン","city":"金沢市","city_kana":"カナザワシ","town":"彦三町","town_kana":"ヒコソマチ","prefecture_code":17},"0845":{"zip_code":"9200845","prefecture":"石川県","prefecture_kana":"イシカワケン","city":"金沢市","city_kana":"カナザワシ","town":"瓢箪町","town_kana":"ヒョウタンマチ","prefecture_code":17},"0033":{"zip_code":"9200033","prefecture":"石川県","prefecture_kana":"イシカワケン","city":"金沢市","city_kana":"カナザワシ","town":"日吉町","town_kana":"ヒヨシマチ","prefecture_code":17},"0031":{"zip_code":"9200031","prefecture":"石川県","prefecture_kana":"イシカワケン","city":"金沢市","city_kana":"カナザワシ","town":"広岡","town_kana":"ヒロオカ","prefecture_code":17},"0032":{"zip_code":"9200032","prefecture":"石川県","prefecture_kana":"イシカワケン","city":"金沢市","city_kana":"カナザワシ","town":"広岡町","town_kana":"ヒロオカマチ","prefecture_code":17},"0962":{"zip_code":"9200962","prefecture":"石川県","prefecture_kana":"イシカワケン","city":"金沢市","city_kana":"カナザワシ","town":"広坂","town_kana":"ヒロサカ","prefecture_code":17},"0165":{"zip_code":"9200165","prefecture":"石川県","prefecture_kana":"イシカワケン","city":"金沢市","city_kana":"カナザワシ","town":"深谷町","town_kana":"フカタニマチ","prefecture_code":17},"0167":{"zip_code":"9200167","prefecture":"石川県","prefecture_kana":"イシカワケン","city":"金沢市","city_kana":"カナザワシ","town":"福畠町","town_kana":"フクバタケマチ","prefecture_code":17},"3126":{"zip_code":"9203126","prefecture":"石川県","prefecture_kana":"イシカワケン","city":"金沢市","city_kana":"カナザワシ","town":"福久","town_kana":"フクヒサ","prefecture_code":17},"3122":{"zip_code":"9203122","prefecture":"石川県","prefecture_kana":"イシカワケン","city":"金沢市","city_kana":"カナザワシ","town":"福久町","town_kana":"フクヒサマチ","prefecture_code":17},"3123":{"zip_code":"9203123","prefecture":"石川県","prefecture_kana":"イシカワケン","city":"金沢市","city_kana":"カナザワシ","town":"福久東","town_kana":"フクヒサヒガシ","prefecture_code":17},"0376":{"zip_code":"9200376","prefecture":"石川県","prefecture_kana":"イシカワケン","city":"金沢市","city_kana":"カナザワシ","town":"福増町","town_kana":"フクマスマチ","prefecture_code":17},"1144":{"zip_code":"9201144","prefecture":"石川県","prefecture_kana":"イシカワケン","city":"金沢市","city_kana":"カナザワシ","town":"袋板屋町","town_kana":"フクロイタヤマチ","prefecture_code":17},"0361":{"zip_code":"9200361","prefecture":"石川県","prefecture_kana":"イシカワケン","city":"金沢市","city_kana":"カナザワシ","town":"袋畠町","town_kana":"フクロバタケマチ","prefecture_code":17},"0909":{"zip_code":"9200909","prefecture":"石川県","prefecture_kana":"イシカワケン","city":"金沢市","city_kana":"カナザワシ","town":"袋町","town_kana":"フクロマチ","prefecture_code":17},"0351":{"zip_code":"9200351","prefecture":"石川県","prefecture_kana":"イシカワケン","city":"金沢市","city_kana":"カナザワシ","town":"普正寺町","town_kana":"フショウジマチ","prefecture_code":17},"0346":{"zip_code":"9200346","prefecture":"石川県","prefecture_kana":"イシカワケン","city":"金沢市","city_kana":"カナザワシ","town":"藤江南","town_kana":"フジエミナミ","prefecture_code":17},"0345":{"zip_code":"9200345","prefecture":"石川県","prefecture_kana":"イシカワケン","city":"金沢市","city_kana":"カナザワシ","town":"藤江北","town_kana":"フジエキタ","prefecture_code":17},"0051":{"zip_code":"9200051","prefecture":"石川県","prefecture_kana":"イシカワケン","city":"金沢市","city_kana":"カナザワシ","town":"二口町","town_kana":"フタクチマチ","prefecture_code":17},"0354":{"zip_code":"9200354","prefecture":"石川県","prefecture_kana":"イシカワケン","city":"金沢市","city_kana":"カナザワシ","town":"二ツ寺町","town_kana":"フタツデラマチ","prefecture_code":17},"0065":{"zip_code":"9200065","prefecture":"石川県","prefecture_kana":"イシカワケン","city":"金沢市","city_kana":"カナザワシ","town":"二ツ屋町","town_kana":"フタツヤマチ","prefecture_code":17},"1316":{"zip_code":"9201316","prefecture":"石川県","prefecture_kana":"イシカワケン","city":"金沢市","city_kana":"カナザワシ","town":"二又新町","town_kana":"フタマタシンマチ","prefecture_code":17},"1102":{"zip_code":"9201102","prefecture":"石川県","prefecture_kana":"イシカワケン","city":"金沢市","city_kana":"カナザワシ","town":"二俣町","town_kana":"フタマタマチ","prefecture_code":17},"0107":{"zip_code":"9200107","prefecture":"石川県","prefecture_kana":"イシカワケン","city":"金沢市","city_kana":"カナザワシ","town":"二日市町","town_kana":"フツカイチマチ","prefecture_code":17},"0173":{"zip_code":"9200173","prefecture":"石川県","prefecture_kana":"イシカワケン","city":"金沢市","city_kana":"カナザワシ","town":"不動寺町","town_kana":"フドウジマチ","prefecture_code":17},"0147":{"zip_code":"9200147","prefecture":"石川県","prefecture_kana":"イシカワケン","city":"金沢市","city_kana":"カナザワシ","town":"不室町","town_kana":"フムロマチ","prefecture_code":17},"0156":{"zip_code":"9200156","prefecture":"石川県","prefecture_kana":"イシカワケン","city":"金沢市","city_kana":"カナザワシ","town":"古屋谷町","town_kana":"フルヤダニマチ","prefecture_code":17},"1341":{"zip_code":"9201341","prefecture":"石川県","prefecture_kana":"イシカワケン","city":"金沢市","city_kana":"カナザワシ","town":"別所町","town_kana":"ベッショマチ","prefecture_code":17},"3132":{"zip_code":"9203132","prefecture":"石川県","prefecture_kana":"イシカワケン","city":"金沢市","city_kana":"カナザワシ","town":"法光寺町","town_kana":"ホウコウジマチ","prefecture_code":17},"0862":{"zip_code":"9200862","prefecture":"石川県","prefecture_kana":"イシカワケン","city":"金沢市","city_kana":"カナザワシ","town":"芳斉","town_kana":"ホウサイ","prefecture_code":17},"0177":{"zip_code":"9200177","prefecture":"石川県","prefecture_kana":"イシカワケン","city":"金沢市","city_kana":"カナザワシ","town":"北陽台","town_kana":"ホクヨウダイ","prefecture_code":17},"0849":{"zip_code":"9200849","prefecture":"石川県","prefecture_kana":"イシカワケン","city":"金沢市","city_kana":"カナザワシ","town":"堀川新町","town_kana":"ホリカワシンマチ","prefecture_code":17},"0847":{"zip_code":"9200847","prefecture":"石川県","prefecture_kana":"イシカワケン","city":"金沢市","city_kana":"カナザワシ","town":"堀川町","town_kana":"ホリカワマチ","prefecture_code":17},"0133":{"zip_code":"9200133","prefecture":"石川県","prefecture_kana":"イシカワケン","city":"金沢市","city_kana":"カナザワシ","town":"堀切町","town_kana":"ホリキリマチ","prefecture_code":17},"0964":{"zip_code":"9200964","prefecture":"石川県","prefecture_kana":"イシカワケン","city":"金沢市","city_kana":"カナザワシ","town":"本多町","town_kana":"ホンダマチ","prefecture_code":17},"0853":{"zip_code":"9200853","prefecture":"石川県","prefecture_kana":"イシカワケン","city":"金沢市","city_kana":"カナザワシ","town":"本町","town_kana":"ホンマチ","prefecture_code":17},"0827":{"zip_code":"9200827","prefecture":"石川県","prefecture_kana":"イシカワケン","city":"金沢市","city_kana":"カナザワシ","town":"牧町","town_kana":"マキマチ","prefecture_code":17},"0148":{"zip_code":"9200148","prefecture":"石川県","prefecture_kana":"イシカワケン","city":"金沢市","city_kana":"カナザワシ","town":"牧山町","town_kana":"マキヤママチ","prefecture_code":17},"0134":{"zip_code":"9200134","prefecture":"石川県","prefecture_kana":"イシカワケン","city":"金沢市","city_kana":"カナザワシ","town":"曲子原町","town_kana":"マゲシハラマチ","prefecture_code":17},"0364":[{"zip_code":"9200364","prefecture":"石川県","prefecture_kana":"イシカワケン","city":"金沢市","city_kana":"カナザワシ","town":"松島","town_kana":"マツシマ","prefecture_code":17},{"zip_code":"9200364","prefecture":"石川県","prefecture_kana":"イシカワケン","city":"金沢市","city_kana":"カナザワシ","town":"松島町","town_kana":"マツシママチ","prefecture_code":17}],"0011":{"zip_code":"9200011","prefecture":"石川県","prefecture_kana":"イシカワケン","city":"金沢市","city_kana":"カナザワシ","town":"松寺町","town_kana":"マツデラマチ","prefecture_code":17},"0136":{"zip_code":"9200136","prefecture":"石川県","prefecture_kana":"イシカワケン","city":"金沢市","city_kana":"カナザワシ","town":"松根町","town_kana":"マツネマチ","prefecture_code":17},"0348":{"zip_code":"9200348","prefecture":"石川県","prefecture_kana":"イシカワケン","city":"金沢市","city_kana":"カナザワシ","town":"松村","town_kana":"マツムラ","prefecture_code":17},"0347":{"zip_code":"9200347","prefecture":"石川県","prefecture_kana":"イシカワケン","city":"金沢市","city_kana":"カナザワシ","town":"松村町","town_kana":"マツムラマチ","prefecture_code":17},"0047":{"zip_code":"9200047","prefecture":"石川県","prefecture_kana":"イシカワケン","city":"金沢市","city_kana":"カナザワシ","town":"大豆田本町","town_kana":"マメダホンマチ","prefecture_code":17},"0937":{"zip_code":"9200937","prefecture":"石川県","prefecture_kana":"イシカワケン","city":"金沢市","city_kana":"カナザワシ","town":"丸の内","town_kana":"マルノウチ","prefecture_code":17},"0809":{"zip_code":"9200809","prefecture":"石川県","prefecture_kana":"イシカワケン","city":"金沢市","city_kana":"カナザワシ","town":"三池栄町","town_kana":"ミイケサカエマチ","prefecture_code":17},"0808":{"zip_code":"9200808","prefecture":"石川県","prefecture_kana":"イシカワケン","city":"金沢市","city_kana":"カナザワシ","town":"三池新町","town_kana":"ミイケシンマチ","prefecture_code":17},"0802":{"zip_code":"9200802","prefecture":"石川県","prefecture_kana":"イシカワケン","city":"金沢市","city_kana":"カナザワシ","town":"三池町","town_kana":"ミイケマチ","prefecture_code":17},"0063":{"zip_code":"9200063","prefecture":"石川県","prefecture_kana":"イシカワケン","city":"金沢市","city_kana":"カナザワシ","town":"三浦町","town_kana":"ミウラマチ","prefecture_code":17},"0978":{"zip_code":"9200978","prefecture":"石川県","prefecture_kana":"イシカワケン","city":"金沢市","city_kana":"カナザワシ","town":"水溜町","town_kana":"ミズタメマチ","prefecture_code":17},"1321":{"zip_code":"9201321","prefecture":"石川県","prefecture_kana":"イシカワケン","city":"金沢市","city_kana":"カナザワシ","town":"水淵町","town_kana":"ミズブチマチ","prefecture_code":17},"0944":{"zip_code":"9200944","prefecture":"石川県","prefecture_kana":"イシカワケン","city":"金沢市","city_kana":"カナザワシ","town":"三口新町","town_kana":"ミツクチシンマチ","prefecture_code":17},"0018":{"zip_code":"9200018","prefecture":"石川県","prefecture_kana":"イシカワケン","city":"金沢市","city_kana":"カナザワシ","town":"三口町","town_kana":"ミツクチマチ","prefecture_code":17},"1346":{"zip_code":"9201346","prefecture":"石川県","prefecture_kana":"イシカワケン","city":"金沢市","city_kana":"カナザワシ","town":"三小牛町","town_kana":"ミツコウジマチ","prefecture_code":17},"0214":{"zip_code":"9200214","prefecture":"石川県","prefecture_kana":"イシカワケン","city":"金沢市","city_kana":"カナザワシ","town":"三ツ屋町","town_kana":"ミツヤマチ","prefecture_code":17},"0373":{"zip_code":"9200373","prefecture":"石川県","prefecture_kana":"イシカワケン","city":"金沢市","city_kana":"カナザワシ","town":"みどり","town_kana":"ミドリ","prefecture_code":17},"0211":{"zip_code":"9200211","prefecture":"石川県","prefecture_kana":"イシカワケン","city":"金沢市","city_kana":"カナザワシ","town":"湊","town_kana":"ミナト","prefecture_code":17},"0812":{"zip_code":"9200812","prefecture":"石川県","prefecture_kana":"イシカワケン","city":"金沢市","city_kana":"カナザワシ","town":"南御所町","town_kana":"ミナミゴショマチ","prefecture_code":17},"0064":{"zip_code":"9200064","prefecture":"石川県","prefecture_kana":"イシカワケン","city":"金沢市","city_kana":"カナザワシ","town":"南新保町","town_kana":"ミナミシンボマチ","prefecture_code":17},"0127":{"zip_code":"9200127","prefecture":"石川県","prefecture_kana":"イシカワケン","city":"金沢市","city_kana":"カナザワシ","town":"南千谷町","town_kana":"ミナミセンゴクマチ","prefecture_code":17},"0919":{"zip_code":"9200919","prefecture":"石川県","prefecture_kana":"イシカワケン","city":"金沢市","city_kana":"カナザワシ","town":"南町","town_kana":"ミナミチョウ","prefecture_code":17},"0366":{"zip_code":"9200366","prefecture":"石川県","prefecture_kana":"イシカワケン","city":"金沢市","city_kana":"カナザワシ","town":"南塚町","town_kana":"ミナミヅカマチ","prefecture_code":17},"0044":{"zip_code":"9200044","prefecture":"石川県","prefecture_kana":"イシカワケン","city":"金沢市","city_kana":"カナザワシ","town":"南広岡町","town_kana":"ミナミヒロオカマチ","prefecture_code":17},"3116":{"zip_code":"9203116","prefecture":"石川県","prefecture_kana":"イシカワケン","city":"金沢市","city_kana":"カナザワシ","town":"南森本町","town_kana":"ミナミモリモトマチ","prefecture_code":17},"0153":{"zip_code":"9200153","prefecture":"石川県","prefecture_kana":"イシカワケン","city":"金沢市","city_kana":"カナザワシ","town":"宮野町","town_kana":"ミヤノマチ","prefecture_code":17},"0006":{"zip_code":"9200006","prefecture":"石川県","prefecture_kana":"イシカワケン","city":"金沢市","city_kana":"カナザワシ","town":"宮保町","town_kana":"ミヤボマチ","prefecture_code":17},"3115":{"zip_code":"9203115","prefecture":"石川県","prefecture_kana":"イシカワケン","city":"金沢市","city_kana":"カナザワシ","town":"弥勒町","town_kana":"ミロクマチ","prefecture_code":17},"0045":{"zip_code":"9200045","prefecture":"石川県","prefecture_kana":"イシカワケン","city":"金沢市","city_kana":"カナザワシ","town":"向中町","town_kana":"ムコウナカマチ","prefecture_code":17},"0855":{"zip_code":"9200855","prefecture":"石川県","prefecture_kana":"イシカワケン","city":"金沢市","city_kana":"カナザワシ","town":"武蔵町","town_kana":"ムサシマチ","prefecture_code":17},"0333":{"zip_code":"9200333","prefecture":"石川県","prefecture_kana":"イシカワケン","city":"金沢市","city_kana":"カナザワシ","town":"無量寺","town_kana":"ムリョウジ","prefecture_code":17},"0332":{"zip_code":"9200332","prefecture":"石川県","prefecture_kana":"イシカワケン","city":"金沢市","city_kana":"カナザワシ","town":"無量寺町","town_kana":"ムリョウジマチ","prefecture_code":17},"1314":{"zip_code":"9201314","prefecture":"石川県","prefecture_kana":"イシカワケン","city":"金沢市","city_kana":"カナザワシ","town":"娚杉町","town_kana":"メオトスギマチ","prefecture_code":17},"0036":{"zip_code":"9200036","prefecture":"石川県","prefecture_kana":"イシカワケン","city":"金沢市","city_kana":"カナザワシ","town":"元菊町","town_kana":"モトギクチョウ","prefecture_code":17},"0842":{"zip_code":"9200842","prefecture":"石川県","prefecture_kana":"イシカワケン","city":"金沢市","city_kana":"カナザワシ","town":"元町","town_kana":"モトマチ","prefecture_code":17},"3131":{"zip_code":"9203131","prefecture":"石川県","prefecture_kana":"イシカワケン","city":"金沢市","city_kana":"カナザワシ","town":"百坂町","town_kana":"モモサカマチ","prefecture_code":17},"1167":{"zip_code":"9201167","prefecture":"石川県","prefecture_kana":"イシカワケン","city":"金沢市","city_kana":"カナザワシ","town":"もりの里","town_kana":"モリノサト","prefecture_code":17},"0843":{"zip_code":"9200843","prefecture":"石川県","prefecture_kana":"イシカワケン","city":"金沢市","city_kana":"カナザワシ","town":"森山","town_kana":"モリヤマ","prefecture_code":17},"0014":{"zip_code":"9200014","prefecture":"石川県","prefecture_kana":"イシカワケン","city":"金沢市","city_kana":"カナザワシ","town":"諸江町","town_kana":"モロエマチ","prefecture_code":17},"0015":{"zip_code":"9200015","prefecture":"石川県","prefecture_kana":"イシカワケン","city":"金沢市","city_kana":"カナザワシ","town":"諸江町上丁","town_kana":"モロエマチカミチョウ","prefecture_code":17},"0016":{"zip_code":"9200016","prefecture":"石川県","prefecture_kana":"イシカワケン","city":"金沢市","city_kana":"カナザワシ","town":"諸江町中丁","town_kana":"モロエマチナカチョウ","prefecture_code":17},"0017":{"zip_code":"9200017","prefecture":"石川県","prefecture_kana":"イシカワケン","city":"金沢市","city_kana":"カナザワシ","town":"諸江町下丁","town_kana":"モロエマチシモチョウ","prefecture_code":17},"0052":{"zip_code":"9200052","prefecture":"石川県","prefecture_kana":"イシカワケン","city":"金沢市","city_kana":"カナザワシ","town":"薬師堂町","town_kana":"ヤクシドウマチ","prefecture_code":17},"0174":{"zip_code":"9200174","prefecture":"石川県","prefecture_kana":"イシカワケン","city":"金沢市","city_kana":"カナザワシ","town":"薬師町","town_kana":"ヤクシマチ","prefecture_code":17},"0854":{"zip_code":"9200854","prefecture":"石川県","prefecture_kana":"イシカワケン","city":"金沢市","city_kana":"カナザワシ","town":"安江町","town_kana":"ヤスエチョウ","prefecture_code":17},"3133":{"zip_code":"9203133","prefecture":"石川県","prefecture_kana":"イシカワケン","city":"金沢市","city_kana":"カナザワシ","town":"柳橋町","town_kana":"ヤナギバシマチ","prefecture_code":17},"1337":{"zip_code":"9201337","prefecture":"石川県","prefecture_kana":"イシカワケン","city":"金沢市","city_kana":"カナザワシ","town":"山川町","town_kana":"ヤマゴマチ","prefecture_code":17},"0816":{"zip_code":"9200816","prefecture":"石川県","prefecture_kana":"イシカワケン","city":"金沢市","city_kana":"カナザワシ","town":"山の上町","town_kana":"ヤマノウエマチ","prefecture_code":17},"0823":{"zip_code":"9200823","prefecture":"石川県","prefecture_kana":"イシカワケン","city":"金沢市","city_kana":"カナザワシ","town":"夕日寺町","town_kana":"ユウヒデラマチ","prefecture_code":17},"0146":{"zip_code":"9200146","prefecture":"石川県","prefecture_kana":"イシカワケン","city":"金沢市","city_kana":"カナザワシ","town":"柚木町","town_kana":"ユノキマチ","prefecture_code":17},"0215":{"zip_code":"9200215","prefecture":"石川県","prefecture_kana":"イシカワケン","city":"金沢市","city_kana":"カナザワシ","town":"弓取町","town_kana":"ユミトリマチ","prefecture_code":17},"1122":{"zip_code":"9201122","prefecture":"石川県","prefecture_kana":"イシカワケン","city":"金沢市","city_kana":"カナザワシ","town":"湯涌荒屋町","town_kana":"ユワクアラヤマチ","prefecture_code":17},"1118":{"zip_code":"9201118","prefecture":"石川県","prefecture_kana":"イシカワケン","city":"金沢市","city_kana":"カナザワシ","town":"湯涌河内町","town_kana":"ユワクカワチマチ","prefecture_code":17},"1124":{"zip_code":"9201124","prefecture":"石川県","prefecture_kana":"イシカワケン","city":"金沢市","city_kana":"カナザワシ","town":"湯涌田子島町","town_kana":"ユワクタゴジママチ","prefecture_code":17},"1119":{"zip_code":"9201119","prefecture":"石川県","prefecture_kana":"イシカワケン","city":"金沢市","city_kana":"カナザワシ","town":"湯涌曲町","town_kana":"ユワクマガリマチ","prefecture_code":17},"1123":{"zip_code":"9201123","prefecture":"石川県","prefecture_kana":"イシカワケン","city":"金沢市","city_kana":"カナザワシ","town":"湯涌町","town_kana":"ユワクマチ","prefecture_code":17},"1117":{"zip_code":"9201117","prefecture":"石川県","prefecture_kana":"イシカワケン","city":"金沢市","city_kana":"カナザワシ","town":"横谷町","town_kana":"ヨコタニマチ","prefecture_code":17},"3135":{"zip_code":"9203135","prefecture":"石川県","prefecture_kana":"イシカワケン","city":"金沢市","city_kana":"カナザワシ","town":"横枕町","town_kana":"ヨコマクラマチ","prefecture_code":17},"0922":{"zip_code":"9200922","prefecture":"石川県","prefecture_kana":"イシカワケン","city":"金沢市","city_kana":"カナザワシ","town":"横山町","town_kana":"ヨコヤママチ","prefecture_code":17},"3114":{"zip_code":"9203114","prefecture":"石川県","prefecture_kana":"イシカワケン","city":"金沢市","city_kana":"カナザワシ","town":"吉原町","town_kana":"ヨシワラマチ","prefecture_code":17},"1342":{"zip_code":"9201342","prefecture":"石川県","prefecture_kana":"イシカワケン","city":"金沢市","city_kana":"カナザワシ","town":"蓮花町","town_kana":"レンゲマチ","prefecture_code":17},"1142":{"zip_code":"9201142","prefecture":"石川県","prefecture_kana":"イシカワケン","city":"金沢市","city_kana":"カナザワシ","town":"蓮如町","town_kana":"レンニョマチ","prefecture_code":17},"0868":{"zip_code":"9200868","prefecture":"石川県","prefecture_kana":"イシカワケン","city":"金沢市","city_kana":"カナザワシ","town":"六枚町","town_kana":"ロクマイマチ","prefecture_code":17},"0355":{"zip_code":"9200355","prefecture":"石川県","prefecture_kana":"イシカワケン","city":"金沢市","city_kana":"カナザワシ","town":"稚日野町","town_kana":"ワカヒノマチ","prefecture_code":17},"1165":{"zip_code":"9201165","prefecture":"石川県","prefecture_kana":"イシカワケン","city":"金沢市","city_kana":"カナザワシ","town":"若松町","town_kana":"ワカマツマチ","prefecture_code":17},"0054":{"zip_code":"9200054","prefecture":"石川県","prefecture_kana":"イシカワケン","city":"金沢市","city_kana":"カナザワシ","town":"若宮","town_kana":"ワカミヤ","prefecture_code":17},"0053":{"zip_code":"9200053","prefecture":"石川県","prefecture_kana":"イシカワケン","city":"金沢市","city_kana":"カナザワシ","town":"若宮町","town_kana":"ワカミヤマチ","prefecture_code":17},"0953":{"zip_code":"9200953","prefecture":"石川県","prefecture_kana":"イシカワケン","city":"金沢市","city_kana":"カナザワシ","town":"涌波","town_kana":"ワクナミ","prefecture_code":17},"0954":{"zip_code":"9200954","prefecture":"石川県","prefecture_kana":"イシカワケン","city":"金沢市","city_kana":"カナザワシ","town":"涌波町","town_kana":"ワクナミマチ","prefecture_code":17},"0062":{"zip_code":"9200062","prefecture":"石川県","prefecture_kana":"イシカワケン","city":"金沢市","city_kana":"カナザワシ","town":"割出町","town_kana":"ワリダシマチ","prefecture_code":17},"2367":{"zip_code":"9202367","prefecture":"石川県","prefecture_kana":"イシカワケン","city":"白山市","city_kana":"ハクサンシ","town":"相滝町","town_kana":"アイタキマチ","prefecture_code":17},"2132":{"zip_code":"9202132","prefecture":"石川県","prefecture_kana":"イシカワケン","city":"白山市","city_kana":"ハクサンシ","town":"明島町","town_kana":"アカラジママチ","prefecture_code":17},"2356":{"zip_code":"9202356","prefecture":"石川県","prefecture_kana":"イシカワケン","city":"白山市","city_kana":"ハクサンシ","town":"阿手町","town_kana":"アテマチ","prefecture_code":17},"2332":{"zip_code":"9202332","prefecture":"石川県","prefecture_kana":"イシカワケン","city":"白山市","city_kana":"ハクサンシ","town":"荒谷","town_kana":"アラタニ","prefecture_code":17},"2151":{"zip_code":"9202151","prefecture":"石川県","prefecture_kana":"イシカワケン","city":"白山市","city_kana":"ハクサンシ","town":"荒屋町","town_kana":"アラヤマチ","prefecture_code":17},"2148":{"zip_code":"9202148","prefecture":"石川県","prefecture_kana":"イシカワケン","city":"白山市","city_kana":"ハクサンシ","town":"行町","town_kana":"アルキマチ","prefecture_code":17},"2141":{"zip_code":"9202141","prefecture":"石川県","prefecture_kana":"イシカワケン","city":"白山市","city_kana":"ハクサンシ","town":"安養寺町","town_kana":"アンヨウジマチ","prefecture_code":17},"2327":{"zip_code":"9202327","prefecture":"石川県","prefecture_kana":"イシカワケン","city":"白山市","city_kana":"ハクサンシ","town":"市原","town_kana":"イチハラ","prefecture_code":17},"2154":{"zip_code":"9202154","prefecture":"石川県","prefecture_kana":"イシカワケン","city":"白山市","city_kana":"ハクサンシ","town":"井口町","town_kana":"イノクチマチ","prefecture_code":17},"2144":{"zip_code":"9202144","prefecture":"石川県","prefecture_kana":"イシカワケン","city":"白山市","city_kana":"ハクサンシ","town":"大竹町","town_kana":"オオダケマチ","prefecture_code":17},"2333":{"zip_code":"9202333","prefecture":"石川県","prefecture_kana":"イシカワケン","city":"白山市","city_kana":"ハクサンシ","town":"尾添","town_kana":"オゾウ","prefecture_code":17},"2335":{"zip_code":"9202335","prefecture":"石川県","prefecture_kana":"イシカワケン","city":"白山市","city_kana":"ハクサンシ","town":"女原","town_kana":"オナバラ","prefecture_code":17},"2103":{"zip_code":"9202103","prefecture":"石川県","prefecture_kana":"イシカワケン","city":"白山市","city_kana":"ハクサンシ","town":"小柳町","town_kana":"オヤナギマチ","prefecture_code":17},"2355":{"zip_code":"9202355","prefecture":"石川県","prefecture_kana":"イシカワケン","city":"白山市","city_kana":"ハクサンシ","town":"数瀬町","town_kana":"カズセマチ","prefecture_code":17},"2341":{"zip_code":"9202341","prefecture":"石川県","prefecture_kana":"イシカワケン","city":"白山市","city_kana":"ハクサンシ","town":"釜清水町","town_kana":"カマシミズマチ","prefecture_code":17},"2338":{"zip_code":"9202338","prefecture":"石川県","prefecture_kana":"イシカワケン","city":"白山市","city_kana":"ハクサンシ","town":"釜谷","town_kana":"カマダニ","prefecture_code":17},"2375":{"zip_code":"9202375","prefecture":"石川県","prefecture_kana":"イシカワケン","city":"白山市","city_kana":"ハクサンシ","town":"上野町","town_kana":"カミノマチ","prefecture_code":17},"2344":{"zip_code":"9202344","prefecture":"石川県","prefecture_kana":"イシカワケン","city":"白山市","city_kana":"ハクサンシ","town":"上吉谷町","town_kana":"カミヨシタニマチ","prefecture_code":17},"2373":{"zip_code":"9202373","prefecture":"石川県","prefecture_kana":"イシカワケン","city":"白山市","city_kana":"ハクサンシ","town":"河合町","town_kana":"カワイマチ","prefecture_code":17},"2315":{"zip_code":"9202315","prefecture":"石川県","prefecture_kana":"イシカワケン","city":"白山市","city_kana":"ハクサンシ","town":"河内町板尾","town_kana":"カワチマチイタオ","prefecture_code":17},"2318":{"zip_code":"9202318","prefecture":"石川県","prefecture_kana":"イシカワケン","city":"白山市","city_kana":"ハクサンシ","town":"河内町内尾","town_kana":"カワチマチウツオ","prefecture_code":17},"2312":{"zip_code":"9202312","prefecture":"石川県","prefecture_kana":"イシカワケン","city":"白山市","city_kana":"ハクサンシ","town":"河内町奥池","town_kana":"カワチマチオクイケ","prefecture_code":17},"2304":{"zip_code":"9202304","prefecture":"石川県","prefecture_kana":"イシカワケン","city":"白山市","city_kana":"ハクサンシ","town":"河内町きりの里","town_kana":"カワチマチキリノサト","prefecture_code":17},"2316":{"zip_code":"9202316","prefecture":"石川県","prefecture_kana":"イシカワケン","city":"白山市","city_kana":"ハクサンシ","town":"河内町金間","town_kana":"カワチマチキンマ","prefecture_code":17},"2301":{"zip_code":"9202301","prefecture":"石川県","prefecture_kana":"イシカワケン","city":"白山市","city_kana":"ハクサンシ","town":"河内町口直海","town_kana":"カワチマチクチノミ","prefecture_code":17},"2313":{"zip_code":"9202313","prefecture":"石川県","prefecture_kana":"イシカワケン","city":"白山市","city_kana":"ハクサンシ","town":"河内町久保","town_kana":"カワチマチクボ","prefecture_code":17},"2305":{"zip_code":"9202305","prefecture":"石川県","prefecture_kana":"イシカワケン","city":"白山市","city_kana":"ハクサンシ","town":"河内町江津","town_kana":"カワチマチゴウヅ","prefecture_code":17},"2317":{"zip_code":"9202317","prefecture":"石川県","prefecture_kana":"イシカワケン","city":"白山市","city_kana":"ハクサンシ","town":"河内町下折","town_kana":"カワチマチソソリ","prefecture_code":17},"2311":{"zip_code":"9202311","prefecture":"石川県","prefecture_kana":"イシカワケン","city":"白山市","city_kana":"ハクサンシ","town":"河内町中直海","town_kana":"カワチマチナカノミ","prefecture_code":17},"2314":{"zip_code":"9202314","prefecture":"石川県","prefecture_kana":"イシカワケン","city":"白山市","city_kana":"ハクサンシ","town":"河内町吹上","town_kana":"カワチマチフキアゲ","prefecture_code":17},"2303":{"zip_code":"9202303","prefecture":"石川県","prefecture_kana":"イシカワケン","city":"白山市","city_kana":"ハクサンシ","town":"河内町福岡","town_kana":"カワチマチフクオカ","prefecture_code":17},"2302":{"zip_code":"9202302","prefecture":"石川県","prefecture_kana":"イシカワケン","city":"白山市","city_kana":"ハクサンシ","town":"河内町ふじが丘","town_kana":"カワチマチフジガオカ","prefecture_code":17},"2306":{"zip_code":"9202306","prefecture":"石川県","prefecture_kana":"イシカワケン","city":"白山市","city_kana":"ハクサンシ","town":"河内町吉岡","town_kana":"カワチマチヨシオカ","prefecture_code":17},"2346":{"zip_code":"9202346","prefecture":"石川県","prefecture_kana":"イシカワケン","city":"白山市","city_kana":"ハクサンシ","town":"河原山町","town_kana":"カワハラヤママチ","prefecture_code":17},"2326":{"zip_code":"9202326","prefecture":"石川県","prefecture_kana":"イシカワケン","city":"白山市","city_kana":"ハクサンシ","town":"木滑","town_kana":"キナメリ","prefecture_code":17},"2325":{"zip_code":"9202325","prefecture":"石川県","prefecture_kana":"イシカワケン","city":"白山市","city_kana":"ハクサンシ","town":"木滑新","town_kana":"キナメリシン","prefecture_code":17},"2502":{"zip_code":"9202502","prefecture":"石川県","prefecture_kana":"イシカワケン","city":"白山市","city_kana":"ハクサンシ","town":"桑島","town_kana":"クワジマ","prefecture_code":17},"2357":{"zip_code":"9202357","prefecture":"石川県","prefecture_kana":"イシカワケン","city":"白山市","city_kana":"ハクサンシ","town":"五十谷町","town_kana":"ゴジュウダニマチ","prefecture_code":17},"2337":{"zip_code":"9202337","prefecture":"石川県","prefecture_kana":"イシカワケン","city":"白山市","city_kana":"ハクサンシ","town":"五味島","town_kana":"ゴミジマ","prefecture_code":17},"2102":{"zip_code":"9202102","prefecture":"石川県","prefecture_kana":"イシカワケン","city":"白山市","city_kana":"ハクサンシ","town":"坂尻町","town_kana":"サカジリマチ","prefecture_code":17},"2322":{"zip_code":"9202322","prefecture":"石川県","prefecture_kana":"イシカワケン","city":"白山市","city_kana":"ハクサンシ","town":"佐良","town_kana":"サラ","prefecture_code":17},"2114":{"zip_code":"9202114","prefecture":"石川県","prefecture_kana":"イシカワケン","city":"白山市","city_kana":"ハクサンシ","town":"三宮町","town_kana":"サンノミヤマチ","prefecture_code":17},"2143":{"zip_code":"9202143","prefecture":"石川県","prefecture_kana":"イシカワケン","city":"白山市","city_kana":"ハクサンシ","town":"七原町","town_kana":"シチハラマチ","prefecture_code":17},"2164":{"zip_code":"9202164","prefecture":"石川県","prefecture_kana":"イシカワケン","city":"白山市","city_kana":"ハクサンシ","town":"柴木","town_kana":"シバキ","prefecture_code":17},"2163":{"zip_code":"9202163","prefecture":"石川県","prefecture_kana":"イシカワケン","city":"白山市","city_kana":"ハクサンシ","town":"柴木町","town_kana":"シバキマチ","prefecture_code":17},"2503":{"zip_code":"9202503","prefecture":"石川県","prefecture_kana":"イシカワケン","city":"白山市","city_kana":"ハクサンシ","town":"下田原","town_kana":"シモタワラ","prefecture_code":17},"2374":{"zip_code":"9202374","prefecture":"石川県","prefecture_kana":"イシカワケン","city":"白山市","city_kana":"ハクサンシ","town":"下野町","town_kana":"シモノマチ","prefecture_code":17},"2342":{"zip_code":"9202342","prefecture":"石川県","prefecture_kana":"イシカワケン","city":"白山市","city_kana":"ハクサンシ","town":"下吉谷町","town_kana":"シモヨシタニマチ","prefecture_code":17},"2501":{"zip_code":"9202501","prefecture":"石川県","prefecture_kana":"イシカワケン","city":"白山市","city_kana":"ハクサンシ","town":"白峰","town_kana":"シラミネ","prefecture_code":17},"2115":{"zip_code":"9202115","prefecture":"石川県","prefecture_kana":"イシカワケン","city":"白山市","city_kana":"ハクサンシ","town":"白山町","town_kana":"シラヤママチ","prefecture_code":17},"2364":{"zip_code":"9202364","prefecture":"石川県","prefecture_kana":"イシカワケン","city":"白山市","city_kana":"ハクサンシ","town":"杉森町","town_kana":"スギモリマチ","prefecture_code":17},"2372":{"zip_code":"9202372","prefecture":"石川県","prefecture_kana":"イシカワケン","city":"白山市","city_kana":"ハクサンシ","town":"瀬木野町","town_kana":"セギノマチ","prefecture_code":17},"2331":{"zip_code":"9202331","prefecture":"石川県","prefecture_kana":"イシカワケン","city":"白山市","city_kana":"ハクサンシ","town":"瀬戸","town_kana":"セト","prefecture_code":17},"2323":{"zip_code":"9202323","prefecture":"石川県","prefecture_kana":"イシカワケン","city":"白山市","city_kana":"ハクサンシ","town":"瀬波","town_kana":"セナミ","prefecture_code":17},"2101":{"zip_code":"9202101","prefecture":"石川県","prefecture_kana":"イシカワケン","city":"白山市","city_kana":"ハクサンシ","town":"曽谷町","town_kana":"ソダニマチ","prefecture_code":17},"2155":{"zip_code":"9202155","prefecture":"石川県","prefecture_kana":"イシカワケン","city":"白山市","city_kana":"ハクサンシ","town":"知気寺町","town_kana":"チキジマチ","prefecture_code":17},"2324":{"zip_code":"9202324","prefecture":"石川県","prefecture_kana":"イシカワケン","city":"白山市","city_kana":"ハクサンシ","town":"中宮","town_kana":"チュウグウ","prefecture_code":17},"2104":{"zip_code":"9202104","prefecture":"石川県","prefecture_kana":"イシカワケン","city":"白山市","city_kana":"ハクサンシ","town":"月橋町","town_kana":"ツキハシマチ","prefecture_code":17},"2111":{"zip_code":"9202111","prefecture":"石川県","prefecture_kana":"イシカワケン","city":"白山市","city_kana":"ハクサンシ","town":"鶴来朝日町","town_kana":"ツルギアサヒマチ","prefecture_code":17},"2125":{"zip_code":"9202125","prefecture":"石川県","prefecture_kana":"イシカワケン","city":"白山市","city_kana":"ハクサンシ","town":"鶴来今町","town_kana":"ツルギイママチ","prefecture_code":17},"2133":{"zip_code":"9202133","prefecture":"石川県","prefecture_kana":"イシカワケン","city":"白山市","city_kana":"ハクサンシ","town":"鶴来大国町","town_kana":"ツルギオオクニマチ","prefecture_code":17},"2127":{"zip_code":"9202127","prefecture":"石川県","prefecture_kana":"イシカワケン","city":"白山市","city_kana":"ハクサンシ","town":"鶴来上東町","town_kana":"ツルギカミヒガシマチ","prefecture_code":17},"2166":{"zip_code":"9202166","prefecture":"石川県","prefecture_kana":"イシカワケン","city":"白山市","city_kana":"ハクサンシ","town":"鶴来桑島町","town_kana":"ツルギクワジママチ","prefecture_code":17},"2128":{"zip_code":"9202128","prefecture":"石川県","prefecture_kana":"イシカワケン","city":"白山市","city_kana":"ハクサンシ","town":"鶴来下東町","town_kana":"ツルギシモヒガシマチ","prefecture_code":17},"2126":{"zip_code":"9202126","prefecture":"石川県","prefecture_kana":"イシカワケン","city":"白山市","city_kana":"ハクサンシ","town":"鶴来新町","town_kana":"ツルギシンマチ","prefecture_code":17},"2124":{"zip_code":"9202124","prefecture":"石川県","prefecture_kana":"イシカワケン","city":"白山市","city_kana":"ハクサンシ","town":"鶴来清沢町","town_kana":"ツルギセイサワマチ","prefecture_code":17},"2122":{"zip_code":"9202122","prefecture":"石川県","prefecture_kana":"イシカワケン","city":"白山市","city_kana":"ハクサンシ","town":"鶴来知守町","town_kana":"ツルギチモリチョウ","prefecture_code":17},"2123":{"zip_code":"9202123","prefecture":"石川県","prefecture_kana":"イシカワケン","city":"白山市","city_kana":"ハクサンシ","town":"鶴来日詰町","town_kana":"ツルギヒヅメチョウ","prefecture_code":17},"2112":{"zip_code":"9202112","prefecture":"石川県","prefecture_kana":"イシカワケン","city":"白山市","city_kana":"ハクサンシ","town":"鶴来日吉町","town_kana":"ツルギヒヨシマチ","prefecture_code":17},"2129":{"zip_code":"9202129","prefecture":"石川県","prefecture_kana":"イシカワケン","city":"白山市","city_kana":"ハクサンシ","town":"鶴来古町","town_kana":"ツルギフルマチ","prefecture_code":17},"2121":{"zip_code":"9202121","prefecture":"石川県","prefecture_kana":"イシカワケン","city":"白山市","city_kana":"ハクサンシ","town":"鶴来本町","town_kana":"ツルギホンマチ","prefecture_code":17},"2134":{"zip_code":"9202134","prefecture":"石川県","prefecture_kana":"イシカワケン","city":"白山市","city_kana":"ハクサンシ","town":"鶴来水戸町","town_kana":"ツルギミトマチ","prefecture_code":17},"2368":{"zip_code":"9202368","prefecture":"石川県","prefecture_kana":"イシカワケン","city":"白山市","city_kana":"ハクサンシ","town":"出合町","town_kana":"デアイマチ","prefecture_code":17},"2162":{"zip_code":"9202162","prefecture":"石川県","prefecture_kana":"イシカワケン","city":"白山市","city_kana":"ハクサンシ","town":"道法寺町","town_kana":"ドウホウジマチ","prefecture_code":17},"2165":{"zip_code":"9202165","prefecture":"石川県","prefecture_kana":"イシカワケン","city":"白山市","city_kana":"ハクサンシ","town":"富光寺町","town_kana":"トミコウジマチ","prefecture_code":17},"2116":{"zip_code":"9202116","prefecture":"石川県","prefecture_kana":"イシカワケン","city":"白山市","city_kana":"ハクサンシ","town":"中島町","town_kana":"ナカジママチ","prefecture_code":17},"2339":{"zip_code":"9202339","prefecture":"石川県","prefecture_kana":"イシカワケン","city":"白山市","city_kana":"ハクサンシ","town":"鴇ケ谷","town_kana":"トガタニ","prefecture_code":17},"2147":{"zip_code":"9202147","prefecture":"石川県","prefecture_kana":"イシカワケン","city":"白山市","city_kana":"ハクサンシ","town":"中ノ郷町","town_kana":"ナカノゴウマチ","prefecture_code":17},"2343":{"zip_code":"9202343","prefecture":"石川県","prefecture_kana":"イシカワケン","city":"白山市","city_kana":"ハクサンシ","town":"西佐良町","town_kana":"ニシサラマチ","prefecture_code":17},"2161":{"zip_code":"9202161","prefecture":"石川県","prefecture_kana":"イシカワケン","city":"白山市","city_kana":"ハクサンシ","town":"熱野町","town_kana":"ネツノマチ","prefecture_code":17},"2352":{"zip_code":"9202352","prefecture":"石川県","prefecture_kana":"イシカワケン","city":"白山市","city_kana":"ハクサンシ","town":"野地町","town_kana":"ノウヂマチ","prefecture_code":17},"2336":{"zip_code":"9202336","prefecture":"石川県","prefecture_kana":"イシカワケン","city":"白山市","city_kana":"ハクサンシ","town":"東二口","town_kana":"ヒガシフタクチ","prefecture_code":17},"2353":{"zip_code":"9202353","prefecture":"石川県","prefecture_kana":"イシカワケン","city":"白山市","city_kana":"ハクサンシ","town":"左礫町","town_kana":"ヒダリツブテマチ","prefecture_code":17},"2153":{"zip_code":"9202153","prefecture":"石川県","prefecture_kana":"イシカワケン","city":"白山市","city_kana":"ハクサンシ","town":"日御子町","town_kana":"ヒノミコマチ","prefecture_code":17},"2146":{"zip_code":"9202146","prefecture":"石川県","prefecture_kana":"イシカワケン","city":"白山市","city_kana":"ハクサンシ","town":"日向町","town_kana":"ヒュウガマチ","prefecture_code":17},"2371":{"zip_code":"9202371","prefecture":"石川県","prefecture_kana":"イシカワケン","city":"白山市","city_kana":"ハクサンシ","town":"広瀬町","town_kana":"ヒロセマチ","prefecture_code":17},"2334":{"zip_code":"9202334","prefecture":"石川県","prefecture_kana":"イシカワケン","city":"白山市","city_kana":"ハクサンシ","town":"深瀬","town_kana":"フカゼ","prefecture_code":17},"2142":{"zip_code":"9202142","prefecture":"石川県","prefecture_kana":"イシカワケン","city":"白山市","city_kana":"ハクサンシ","town":"深瀬新町","town_kana":"フカゼシンマチ","prefecture_code":17},"2347":{"zip_code":"9202347","prefecture":"石川県","prefecture_kana":"イシカワケン","city":"白山市","city_kana":"ハクサンシ","town":"仏師ケ野町","town_kana":"ブシガノマチ","prefecture_code":17},"2167":{"zip_code":"9202167","prefecture":"石川県","prefecture_kana":"イシカワケン","city":"白山市","city_kana":"ハクサンシ","town":"部入道町","town_kana":"ブニュウドウマチ","prefecture_code":17},"2363":{"zip_code":"9202363","prefecture":"石川県","prefecture_kana":"イシカワケン","city":"白山市","city_kana":"ハクサンシ","town":"別宮出町","town_kana":"ベツクデマチ","prefecture_code":17},"2362":{"zip_code":"9202362","prefecture":"石川県","prefecture_kana":"イシカワケン","city":"白山市","city_kana":"ハクサンシ","town":"別宮町","town_kana":"ベツクマチ","prefecture_code":17},"2365":{"zip_code":"9202365","prefecture":"石川県","prefecture_kana":"イシカワケン","city":"白山市","city_kana":"ハクサンシ","town":"神子清水町","town_kana":"ミコシミズマチ","prefecture_code":17},"2361":{"zip_code":"9202361","prefecture":"石川県","prefecture_kana":"イシカワケン","city":"白山市","city_kana":"ハクサンシ","town":"三坂町","town_kana":"ミサカマチ","prefecture_code":17},"2354":{"zip_code":"9202354","prefecture":"石川県","prefecture_kana":"イシカワケン","city":"白山市","city_kana":"ハクサンシ","town":"三ツ瀬町","town_kana":"ミツセマチ","prefecture_code":17},"2345":{"zip_code":"9202345","prefecture":"石川県","prefecture_kana":"イシカワケン","city":"白山市","city_kana":"ハクサンシ","town":"三ツ屋野町","town_kana":"ミツヤノマチ","prefecture_code":17},"2145":{"zip_code":"9202145","prefecture":"石川県","prefecture_kana":"イシカワケン","city":"白山市","city_kana":"ハクサンシ","town":"明法島町","town_kana":"ミョウホウジママチ","prefecture_code":17},"2152":{"zip_code":"9202152","prefecture":"石川県","prefecture_kana":"イシカワケン","city":"白山市","city_kana":"ハクサンシ","town":"明光","town_kana":"メイコウ","prefecture_code":17},"2131":{"zip_code":"9202131","prefecture":"石川県","prefecture_kana":"イシカワケン","city":"白山市","city_kana":"ハクサンシ","town":"森島町","town_kana":"モリジママチ","prefecture_code":17},"2351":{"zip_code":"9202351","prefecture":"石川県","prefecture_kana":"イシカワケン","city":"白山市","city_kana":"ハクサンシ","town":"柳原町","town_kana":"ヤナギハラマチ","prefecture_code":17},"2113":{"zip_code":"9202113","prefecture":"石川県","prefecture_kana":"イシカワケン","city":"白山市","city_kana":"ハクサンシ","town":"八幡町","town_kana":"ヤワタマチ","prefecture_code":17},"2321":{"zip_code":"9202321","prefecture":"石川県","prefecture_kana":"イシカワケン","city":"白山市","city_kana":"ハクサンシ","town":"吉野","town_kana":"ヨシノ","prefecture_code":17},"2376":{"zip_code":"9202376","prefecture":"石川県","prefecture_kana":"イシカワケン","city":"白山市","city_kana":"ハクサンシ","town":"若原町","town_kana":"ワカバラマチ","prefecture_code":17},"2366":{"zip_code":"9202366","prefecture":"石川県","prefecture_kana":"イシカワケン","city":"白山市","city_kana":"ハクサンシ","town":"渡津町","town_kana":"ワタヅマチ","prefecture_code":17},"0200":{"zip_code":"9200200","prefecture":"石川県","prefecture_kana":"イシカワケン","city":"河北郡内灘町","city_kana":"カホクグンウチナダマチ","town":"","town_kana":"","prefecture_code":17},"0273":{"zip_code":"9200273","prefecture":"石川県","prefecture_kana":"イシカワケン","city":"河北郡内灘町","city_kana":"カホクグンウチナダマチ","town":"アカシア","town_kana":"アカシア","prefecture_code":17},"0275":{"zip_code":"9200275","prefecture":"石川県","prefecture_kana":"イシカワケン","city":"河北郡内灘町","city_kana":"カホクグンウチナダマチ","town":"旭ケ丘","town_kana":"アサヒガオカ","prefecture_code":17},"0266":{"zip_code":"9200266","prefecture":"石川県","prefecture_kana":"イシカワケン","city":"河北郡内灘町","city_kana":"カホクグンウチナダマチ","town":"大根布","town_kana":"オオネブ","prefecture_code":17},"0272":{"zip_code":"9200272","prefecture":"石川県","prefecture_kana":"イシカワケン","city":"河北郡内灘町","city_kana":"カホクグンウチナダマチ","town":"向陽台","town_kana":"コウヨウダイ","prefecture_code":17},"0263":{"zip_code":"9200263","prefecture":"石川県","prefecture_kana":"イシカワケン","city":"河北郡内灘町","city_kana":"カホクグンウチナダマチ","town":"湖西","town_kana":"コセイ","prefecture_code":17},"0269":{"zip_code":"9200269","prefecture":"石川県","prefecture_kana":"イシカワケン","city":"河北郡内灘町","city_kana":"カホクグンウチナダマチ","town":"白帆台","town_kana":"シラホダイ","prefecture_code":17},"0265":{"zip_code":"9200265","prefecture":"石川県","prefecture_kana":"イシカワケン","city":"河北郡内灘町","city_kana":"カホクグンウチナダマチ","town":"大学","town_kana":"ダイガク","prefecture_code":17},"0267":{"zip_code":"9200267","prefecture":"石川県","prefecture_kana":"イシカワケン","city":"河北郡内灘町","city_kana":"カホクグンウチナダマチ","town":"大清台","town_kana":"タイセイダイ","prefecture_code":17},"0277":{"zip_code":"9200277","prefecture":"石川県","prefecture_kana":"イシカワケン","city":"河北郡内灘町","city_kana":"カホクグンウチナダマチ","town":"千鳥台","town_kana":"チドリダイ","prefecture_code":17},"0271":{"zip_code":"9200271","prefecture":"石川県","prefecture_kana":"イシカワケン","city":"河北郡内灘町","city_kana":"カホクグンウチナダマチ","town":"鶴ケ丘","town_kana":"ツルガオカ","prefecture_code":17},"0262":{"zip_code":"9200262","prefecture":"石川県","prefecture_kana":"イシカワケン","city":"河北郡内灘町","city_kana":"カホクグンウチナダマチ","town":"西荒屋","town_kana":"ニシアラヤ","prefecture_code":17},"0268":{"zip_code":"9200268","prefecture":"石川県","prefecture_kana":"イシカワケン","city":"河北郡内灘町","city_kana":"カホクグンウチナダマチ","town":"ハマナス","town_kana":"ハマナス","prefecture_code":17},"0276":{"zip_code":"9200276","prefecture":"石川県","prefecture_kana":"イシカワケン","city":"河北郡内灘町","city_kana":"カホクグンウチナダマチ","town":"緑台","town_kana":"ミドリダイ","prefecture_code":17},"0264":{"zip_code":"9200264","prefecture":"石川県","prefecture_kana":"イシカワケン","city":"河北郡内灘町","city_kana":"カホクグンウチナダマチ","town":"宮坂","town_kana":"ミヤサカ","prefecture_code":17},"0274":{"zip_code":"9200274","prefecture":"石川県","prefecture_kana":"イシカワケン","city":"河北郡内灘町","city_kana":"カホクグンウチナダマチ","town":"向粟崎","town_kana":"ムカイアワガサキ","prefecture_code":17},"0261":{"zip_code":"9200261","prefecture":"石川県","prefecture_kana":"イシカワケン","city":"河北郡内灘町","city_kana":"カホクグンウチナダマチ","town":"室","town_kana":"ムロ","prefecture_code":17}}