{"8161":{"zip_code":"9218161","prefecture":"石川県","prefecture_kana":"イシカワケン","city":"金沢市","city_kana":"カナザワシ","town":"有松","town_kana":"アリマツ","prefecture_code":17},"8041":{"zip_code":"9218041","prefecture":"石川県","prefecture_kana":"イシカワケン","city":"金沢市","city_kana":"カナザワシ","town":"泉","town_kana":"イズミ","prefecture_code":17},"8035":{"zip_code":"9218035","prefecture":"石川県","prefecture_kana":"イシカワケン","city":"金沢市","city_kana":"カナザワシ","town":"泉が丘","town_kana":"イズミガオカ","prefecture_code":17},"8116":{"zip_code":"9218116","prefecture":"石川県","prefecture_kana":"イシカワケン","city":"金沢市","city_kana":"カナザワシ","town":"泉野出町","town_kana":"イズミノデマチ","prefecture_code":17},"8034":{"zip_code":"9218034","prefecture":"石川県","prefecture_kana":"イシカワケン","city":"金沢市","city_kana":"カナザワシ","town":"泉野町","town_kana":"イズミノマチ","prefecture_code":17},"8042":{"zip_code":"9218042","prefecture":"石川県","prefecture_kana":"イシカワケン","city":"金沢市","city_kana":"カナザワシ","town":"泉本町","town_kana":"イズミホンマチ","prefecture_code":17},"8014":{"zip_code":"9218014","prefecture":"石川県","prefecture_kana":"イシカワケン","city":"金沢市","city_kana":"カナザワシ","town":"糸田","town_kana":"イトダ","prefecture_code":17},"8026":{"zip_code":"9218026","prefecture":"石川県","prefecture_kana":"イシカワケン","city":"金沢市","city_kana":"カナザワシ","town":"糸田新町","town_kana":"イトダシンマチ","prefecture_code":17},"8011":{"zip_code":"9218011","prefecture":"石川県","prefecture_kana":"イシカワケン","city":"金沢市","city_kana":"カナザワシ","town":"入江","town_kana":"イリエ","prefecture_code":17},"8173":{"zip_code":"9218173","prefecture":"石川県","prefecture_kana":"イシカワケン","city":"金沢市","city_kana":"カナザワシ","town":"円光寺","town_kana":"エンコウジ","prefecture_code":17},"8176":{"zip_code":"9218176","prefecture":"石川県","prefecture_kana":"イシカワケン","city":"金沢市","city_kana":"カナザワシ","town":"円光寺本町","town_kana":"エンコウジホンマチ","prefecture_code":17},"8045":{"zip_code":"9218045","prefecture":"石川県","prefecture_kana":"イシカワケン","city":"金沢市","city_kana":"カナザワシ","town":"大桑","town_kana":"オオクワ","prefecture_code":17},"8046":[{"zip_code":"9218046","prefecture":"石川県","prefecture_kana":"イシカワケン","city":"金沢市","city_kana":"カナザワシ","town":"大桑町","town_kana":"オオクワマチ","prefecture_code":17},{"zip_code":"9218046","prefecture":"石川県","prefecture_kana":"イシカワケン","city":"金沢市","city_kana":"カナザワシ","town":"大桑町ア","town_kana":"オオクワマチア","prefecture_code":17},{"zip_code":"9218046","prefecture":"石川県","prefecture_kana":"イシカワケン","city":"金沢市","city_kana":"カナザワシ","town":"大桑町イ","town_kana":"オオクワマチイ","prefecture_code":17},{"zip_code":"9218046","prefecture":"石川県","prefecture_kana":"イシカワケン","city":"金沢市","city_kana":"カナザワシ","town":"大桑町ヰ","town_kana":"オオクワマチイ","prefecture_code":17},{"zip_code":"9218046","prefecture":"石川県","prefecture_kana":"イシカワケン","city":"金沢市","city_kana":"カナザワシ","town":"大桑町ウ","town_kana":"オオクワマチウ","prefecture_code":17},{"zip_code":"9218046","prefecture":"石川県","prefecture_kana":"イシカワケン","city":"金沢市","city_kana":"カナザワシ","town":"大桑町上野","town_kana":"オオクワマチウエノ","prefecture_code":17},{"zip_code":"9218046","prefecture":"石川県","prefecture_kana":"イシカワケン","city":"金沢市","city_kana":"カナザワシ","town":"大桑町オ乙","town_kana":"オオクワマチオオツ","prefecture_code":17},{"zip_code":"9218046","prefecture":"石川県","prefecture_kana":"イシカワケン","city":"金沢市","city_kana":"カナザワシ","town":"大桑町鐘搗山","town_kana":"オオクワマチカネツキヤマ","prefecture_code":17},{"zip_code":"9218046","prefecture":"石川県","prefecture_kana":"イシカワケン","city":"金沢市","city_kana":"カナザワシ","town":"大桑町上川原","town_kana":"オオクワマチカミカワラ","prefecture_code":17},{"zip_code":"9218046","prefecture":"石川県","prefecture_kana":"イシカワケン","city":"金沢市","city_kana":"カナザワシ","town":"大桑町上猫下","town_kana":"オオクワマチカミネコシタ","prefecture_code":17},{"zip_code":"9218046","prefecture":"石川県","prefecture_kana":"イシカワケン","city":"金沢市","city_kana":"カナザワシ","town":"大桑町ケ","town_kana":"オオクワマチケ","prefecture_code":17},{"zip_code":"9218046","prefecture":"石川県","prefecture_kana":"イシカワケン","city":"金沢市","city_kana":"カナザワシ","town":"大桑町御所谷","town_kana":"オオクワマチゴショガダニ","prefecture_code":17},{"zip_code":"9218046","prefecture":"石川県","prefecture_kana":"イシカワケン","city":"金沢市","city_kana":"カナザワシ","town":"大桑町小寺山","town_kana":"オオクワマチコデラヤマ","prefecture_code":17},{"zip_code":"9218046","prefecture":"石川県","prefecture_kana":"イシカワケン","city":"金沢市","city_kana":"カナザワシ","town":"大桑町シ","town_kana":"オオクワマチシ","prefecture_code":17},{"zip_code":"9218046","prefecture":"石川県","prefecture_kana":"イシカワケン","city":"金沢市","city_kana":"カナザワシ","town":"大桑町下上野","town_kana":"オオクワマチシモウエノ","prefecture_code":17},{"zip_code":"9218046","prefecture":"石川県","prefecture_kana":"イシカワケン","city":"金沢市","city_kana":"カナザワシ","town":"大桑町下西欠","town_kana":"オオクワマチシモニシガケ","prefecture_code":17},{"zip_code":"9218046","prefecture":"石川県","prefecture_kana":"イシカワケン","city":"金沢市","city_kana":"カナザワシ","town":"大桑町平","town_kana":"オオクワマチダイラ","prefecture_code":17},{"zip_code":"9218046","prefecture":"石川県","prefecture_kana":"イシカワケン","city":"金沢市","city_kana":"カナザワシ","town":"大桑町ツ乙","town_kana":"オオクワマチツオツ","prefecture_code":17},{"zip_code":"9218046","prefecture":"石川県","prefecture_kana":"イシカワケン","city":"金沢市","city_kana":"カナザワシ","town":"大桑町ツ丙","town_kana":"オオクワマチツヘイ","prefecture_code":17},{"zip_code":"9218046","prefecture":"石川県","prefecture_kana":"イシカワケン","city":"金沢市","city_kana":"カナザワシ","town":"大桑町テ","town_kana":"オオクワマチテ","prefecture_code":17},{"zip_code":"9218046","prefecture":"石川県","prefecture_kana":"イシカワケン","city":"金沢市","city_kana":"カナザワシ","town":"大桑町ト","town_kana":"オオクワマチト","prefecture_code":17},{"zip_code":"9218046","prefecture":"石川県","prefecture_kana":"イシカワケン","city":"金沢市","city_kana":"カナザワシ","town":"大桑町中上野","town_kana":"オオクワマチナカウエノ","prefecture_code":17},{"zip_code":"9218046","prefecture":"石川県","prefecture_kana":"イシカワケン","city":"金沢市","city_kana":"カナザワシ","town":"大桑町中尾山","town_kana":"オオクワマチナカオヤマ","prefecture_code":17},{"zip_code":"9218046","prefecture":"石川県","prefecture_kana":"イシカワケン","city":"金沢市","city_kana":"カナザワシ","town":"大桑町中平","town_kana":"オオクワマチナカダイラ","prefecture_code":17},{"zip_code":"9218046","prefecture":"石川県","prefecture_kana":"イシカワケン","city":"金沢市","city_kana":"カナザワシ","town":"大桑町中ノ大平","town_kana":"オオクワマチナカノオオヒラ","prefecture_code":17},{"zip_code":"9218046","prefecture":"石川県","prefecture_kana":"イシカワケン","city":"金沢市","city_kana":"カナザワシ","town":"大桑町西ノ山","town_kana":"オオクワマチニシノヤマ","prefecture_code":17},{"zip_code":"9218046","prefecture":"石川県","prefecture_kana":"イシカワケン","city":"金沢市","city_kana":"カナザワシ","town":"大桑町猫シタイ","town_kana":"オオクワマチネコノシタイ","prefecture_code":17},{"zip_code":"9218046","prefecture":"石川県","prefecture_kana":"イシカワケン","city":"金沢市","city_kana":"カナザワシ","town":"大桑町ノ","town_kana":"オオクワマチノ","prefecture_code":17},{"zip_code":"9218046","prefecture":"石川県","prefecture_kana":"イシカワケン","city":"金沢市","city_kana":"カナザワシ","town":"大桑町ハ","town_kana":"オオクワマチハ","prefecture_code":17},{"zip_code":"9218046","prefecture":"石川県","prefecture_kana":"イシカワケン","city":"金沢市","city_kana":"カナザワシ","town":"大桑町開","town_kana":"オオクワマチヒラキ","prefecture_code":17},{"zip_code":"9218046","prefecture":"石川県","prefecture_kana":"イシカワケン","city":"金沢市","city_kana":"カナザワシ","town":"大桑町法師山","town_kana":"オオクワマチホウシヤマ","prefecture_code":17},{"zip_code":"9218046","prefecture":"石川県","prefecture_kana":"イシカワケン","city":"金沢市","city_kana":"カナザワシ","town":"大桑町坊山","town_kana":"オオクワマチボウヤマ","prefecture_code":17},{"zip_code":"9218046","prefecture":"石川県","prefecture_kana":"イシカワケン","city":"金沢市","city_kana":"カナザワシ","town":"大桑町鱒川淵","town_kana":"オオクワマチマスカワブチ","prefecture_code":17},{"zip_code":"9218046","prefecture":"石川県","prefecture_kana":"イシカワケン","city":"金沢市","city_kana":"カナザワシ","town":"大桑町ム","town_kana":"オオクワマチム","prefecture_code":17},{"zip_code":"9218046","prefecture":"石川県","prefecture_kana":"イシカワケン","city":"金沢市","city_kana":"カナザワシ","town":"大桑町元末","town_kana":"オオクワマチモトスエ","prefecture_code":17},{"zip_code":"9218046","prefecture":"石川県","prefecture_kana":"イシカワケン","city":"金沢市","city_kana":"カナザワシ","town":"大桑町元涌波庚","town_kana":"オオクワマチモトワクナミコウ","prefecture_code":17},{"zip_code":"9218046","prefecture":"石川県","prefecture_kana":"イシカワケン","city":"金沢市","city_kana":"カナザワシ","town":"大桑町ヤ","town_kana":"オオクワマチヤ","prefecture_code":17},{"zip_code":"9218046","prefecture":"石川県","prefecture_kana":"イシカワケン","city":"金沢市","city_kana":"カナザワシ","town":"大桑町リ","town_kana":"オオクワマチリ","prefecture_code":17},{"zip_code":"9218046","prefecture":"石川県","prefecture_kana":"イシカワケン","city":"金沢市","city_kana":"カナザワシ","town":"大桑町ル","town_kana":"オオクワマチル","prefecture_code":17},{"zip_code":"9218046","prefecture":"石川県","prefecture_kana":"イシカワケン","city":"金沢市","city_kana":"カナザワシ","town":"大桑町レ乙","town_kana":"オオクワマチレオツ","prefecture_code":17},{"zip_code":"9218046","prefecture":"石川県","prefecture_kana":"イシカワケン","city":"金沢市","city_kana":"カナザワシ","town":"大桑町レ甲","town_kana":"オオクワマチレコウ","prefecture_code":17},{"zip_code":"9218046","prefecture":"石川県","prefecture_kana":"イシカワケン","city":"金沢市","city_kana":"カナザワシ","town":"大桑町ロ乙","town_kana":"オオクワマチロオツ","prefecture_code":17},{"zip_code":"9218046","prefecture":"石川県","prefecture_kana":"イシカワケン","city":"金沢市","city_kana":"カナザワシ","town":"大桑町ロ甲","town_kana":"オオクワマチロコウ","prefecture_code":17},{"zip_code":"9218046","prefecture":"石川県","prefecture_kana":"イシカワケン","city":"金沢市","city_kana":"カナザワシ","town":"大桑町和","town_kana":"オオクワマチワ","prefecture_code":17},{"zip_code":"9218046","prefecture":"石川県","prefecture_kana":"イシカワケン","city":"金沢市","city_kana":"カナザワシ","town":"三小牛町","town_kana":"ミツコウジマチ","prefecture_code":17},{"zip_code":"9218046","prefecture":"石川県","prefecture_kana":"イシカワケン","city":"金沢市","city_kana":"カナザワシ","town":"三小牛町ヘ","town_kana":"ミツコウジマチヘ","prefecture_code":17}],"8147":{"zip_code":"9218147","prefecture":"石川県","prefecture_kana":"イシカワケン","city":"金沢市","city_kana":"カナザワシ","town":"大額","town_kana":"オオヌカ","prefecture_code":17},"8143":{"zip_code":"9218143","prefecture":"石川県","prefecture_kana":"イシカワケン","city":"金沢市","city_kana":"カナザワシ","town":"大額町","town_kana":"オオヌカマチ","prefecture_code":17},"8056":{"zip_code":"9218056","prefecture":"石川県","prefecture_kana":"イシカワケン","city":"金沢市","city_kana":"カナザワシ","town":"押野","town_kana":"オシノ","prefecture_code":17},"8065":{"zip_code":"9218065","prefecture":"石川県","prefecture_kana":"イシカワケン","city":"金沢市","city_kana":"カナザワシ","town":"上荒屋","town_kana":"カミアラヤ","prefecture_code":17},"8027":{"zip_code":"9218027","prefecture":"石川県","prefecture_kana":"イシカワケン","city":"金沢市","city_kana":"カナザワシ","town":"神田","town_kana":"カンダ","prefecture_code":17},"8032":{"zip_code":"9218032","prefecture":"石川県","prefecture_kana":"イシカワケン","city":"金沢市","city_kana":"カナザワシ","town":"清川町","town_kana":"キヨカワマチ","prefecture_code":17},"8122":{"zip_code":"9218122","prefecture":"石川県","prefecture_kana":"イシカワケン","city":"金沢市","city_kana":"カナザワシ","town":"清瀬町","town_kana":"キヨセマチ","prefecture_code":17},"8151":{"zip_code":"9218151","prefecture":"石川県","prefecture_kana":"イシカワケン","city":"金沢市","city_kana":"カナザワシ","town":"窪","town_kana":"クボ","prefecture_code":17},"8124":{"zip_code":"9218124","prefecture":"石川県","prefecture_kana":"イシカワケン","city":"金沢市","city_kana":"カナザワシ","town":"倉ケ嶽","town_kana":"クラガタケ","prefecture_code":17},"8051":{"zip_code":"9218051","prefecture":"石川県","prefecture_kana":"イシカワケン","city":"金沢市","city_kana":"カナザワシ","town":"黒田","town_kana":"クロダ","prefecture_code":17},"8131":{"zip_code":"9218131","prefecture":"石川県","prefecture_kana":"イシカワケン","city":"金沢市","city_kana":"カナザワシ","town":"三十苅町","town_kana":"サンジュウガリマチ","prefecture_code":17},"8135":{"zip_code":"9218135","prefecture":"石川県","prefecture_kana":"イシカワケン","city":"金沢市","city_kana":"カナザワシ","town":"四十万","town_kana":"シジマ","prefecture_code":17},"8132":{"zip_code":"9218132","prefecture":"石川県","prefecture_kana":"イシカワケン","city":"金沢市","city_kana":"カナザワシ","town":"しじま台","town_kana":"シジマダイ","prefecture_code":17},"8133":{"zip_code":"9218133","prefecture":"石川県","prefecture_kana":"イシカワケン","city":"金沢市","city_kana":"カナザワシ","town":"四十万町","town_kana":"シジママチ","prefecture_code":17},"8106":{"zip_code":"9218106","prefecture":"石川県","prefecture_kana":"イシカワケン","city":"金沢市","city_kana":"カナザワシ","town":"十一屋町","town_kana":"ジュウイチヤマチ","prefecture_code":17},"8024":{"zip_code":"9218024","prefecture":"石川県","prefecture_kana":"イシカワケン","city":"金沢市","city_kana":"カナザワシ","town":"白菊町","town_kana":"シラギクチョウ","prefecture_code":17},"8013":{"zip_code":"9218013","prefecture":"石川県","prefecture_kana":"イシカワケン","city":"金沢市","city_kana":"カナザワシ","town":"新神田","town_kana":"シンカンダ","prefecture_code":17},"8062":{"zip_code":"9218062","prefecture":"石川県","prefecture_kana":"イシカワケン","city":"金沢市","city_kana":"カナザワシ","town":"新保本","town_kana":"シンボホン","prefecture_code":17},"8006":{"zip_code":"9218006","prefecture":"石川県","prefecture_kana":"イシカワケン","city":"金沢市","city_kana":"カナザワシ","town":"進和町","town_kana":"シンワマチ","prefecture_code":17},"8023":{"zip_code":"9218023","prefecture":"石川県","prefecture_kana":"イシカワケン","city":"金沢市","city_kana":"カナザワシ","town":"千日町","town_kana":"センニチマチ","prefecture_code":17},"8152":{"zip_code":"9218152","prefecture":"石川県","prefecture_kana":"イシカワケン","city":"金沢市","city_kana":"カナザワシ","town":"高尾","town_kana":"タカオ","prefecture_code":17},"8155":{"zip_code":"9218155","prefecture":"石川県","prefecture_kana":"イシカワケン","city":"金沢市","city_kana":"カナザワシ","town":"高尾台","town_kana":"タカオダイ","prefecture_code":17},"8153":{"zip_code":"9218153","prefecture":"石川県","prefecture_kana":"イシカワケン","city":"金沢市","city_kana":"カナザワシ","town":"高尾町","town_kana":"タカオマチ","prefecture_code":17},"8154":{"zip_code":"9218154","prefecture":"石川県","prefecture_kana":"イシカワケン","city":"金沢市","city_kana":"カナザワシ","town":"高尾南","town_kana":"タカオミナミ","prefecture_code":17},"8001":{"zip_code":"9218001","prefecture":"石川県","prefecture_kana":"イシカワケン","city":"金沢市","city_kana":"カナザワシ","town":"高畠","town_kana":"タカバタケ","prefecture_code":17},"8002":{"zip_code":"9218002","prefecture":"石川県","prefecture_kana":"イシカワケン","city":"金沢市","city_kana":"カナザワシ","town":"玉鉾","town_kana":"タマボコ","prefecture_code":17},"8003":{"zip_code":"9218003","prefecture":"石川県","prefecture_kana":"イシカワケン","city":"金沢市","city_kana":"カナザワシ","town":"玉鉾町","town_kana":"タマボコマチ","prefecture_code":17},"8103":{"zip_code":"9218103","prefecture":"石川県","prefecture_kana":"イシカワケン","city":"金沢市","city_kana":"カナザワシ","town":"つつじが丘","town_kana":"ツツジガオカ","prefecture_code":17},"8123":{"zip_code":"9218123","prefecture":"石川県","prefecture_kana":"イシカワケン","city":"金沢市","city_kana":"カナザワシ","town":"坪野町","town_kana":"ツボノマチ","prefecture_code":17},"8178":{"zip_code":"9218178","prefecture":"石川県","prefecture_kana":"イシカワケン","city":"金沢市","city_kana":"カナザワシ","town":"寺地","town_kana":"テラジ","prefecture_code":17},"8033":{"zip_code":"9218033","prefecture":"石川県","prefecture_kana":"イシカワケン","city":"金沢市","city_kana":"カナザワシ","town":"寺町","town_kana":"テラマチ","prefecture_code":17},"8015":{"zip_code":"9218015","prefecture":"石川県","prefecture_kana":"イシカワケン","city":"金沢市","city_kana":"カナザワシ","town":"東力","town_kana":"トウリキ","prefecture_code":17},"8016":{"zip_code":"9218016","prefecture":"石川県","prefecture_kana":"イシカワケン","city":"金沢市","city_kana":"カナザワシ","town":"東力町","town_kana":"トウリキマチ","prefecture_code":17},"8171":{"zip_code":"9218171","prefecture":"石川県","prefecture_kana":"イシカワケン","city":"金沢市","city_kana":"カナザワシ","town":"富樫","town_kana":"トガシ","prefecture_code":17},"8022":{"zip_code":"9218022","prefecture":"石川県","prefecture_kana":"イシカワケン","city":"金沢市","city_kana":"カナザワシ","town":"中村町","town_kana":"ナカムラマチ","prefecture_code":17},"8112":{"zip_code":"9218112","prefecture":"石川県","prefecture_kana":"イシカワケン","city":"金沢市","city_kana":"カナザワシ","town":"長坂","town_kana":"ナガサカ","prefecture_code":17},"8115":{"zip_code":"9218115","prefecture":"石川県","prefecture_kana":"イシカワケン","city":"金沢市","city_kana":"カナザワシ","town":"長坂台","town_kana":"ナガサカダイ","prefecture_code":17},"8114":{"zip_code":"9218114","prefecture":"石川県","prefecture_kana":"イシカワケン","city":"金沢市","city_kana":"カナザワシ","town":"長坂町","town_kana":"ナガサカマチ","prefecture_code":17},"8043":{"zip_code":"9218043","prefecture":"石川県","prefecture_kana":"イシカワケン","city":"金沢市","city_kana":"カナザワシ","town":"西泉","town_kana":"ニシイズミ","prefecture_code":17},"8102":{"zip_code":"9218102","prefecture":"石川県","prefecture_kana":"イシカワケン","city":"金沢市","city_kana":"カナザワシ","town":"西大桑町","town_kana":"ニシオオクワマチ","prefecture_code":17},"8054":{"zip_code":"9218054","prefecture":"石川県","prefecture_kana":"イシカワケン","city":"金沢市","city_kana":"カナザワシ","town":"西金沢","town_kana":"ニシカナザワ","prefecture_code":17},"8055":{"zip_code":"9218055","prefecture":"石川県","prefecture_kana":"イシカワケン","city":"金沢市","city_kana":"カナザワシ","town":"西金沢新町","town_kana":"ニシカナザワシンマチ","prefecture_code":17},"8146":{"zip_code":"9218146","prefecture":"石川県","prefecture_kana":"イシカワケン","city":"金沢市","city_kana":"カナザワシ","town":"額乙丸町","town_kana":"ヌカオトマルマチ","prefecture_code":17},"8148":{"zip_code":"9218148","prefecture":"石川県","prefecture_kana":"イシカワケン","city":"金沢市","city_kana":"カナザワシ","town":"額新保","town_kana":"ヌカシンボ","prefecture_code":17},"8149":{"zip_code":"9218149","prefecture":"石川県","prefecture_kana":"イシカワケン","city":"金沢市","city_kana":"カナザワシ","town":"額新町","town_kana":"ヌカシンマチ","prefecture_code":17},"8145":{"zip_code":"9218145","prefecture":"石川県","prefecture_kana":"イシカワケン","city":"金沢市","city_kana":"カナザワシ","town":"額谷","town_kana":"ヌカダニ","prefecture_code":17},"8144":{"zip_code":"9218144","prefecture":"石川県","prefecture_kana":"イシカワケン","city":"金沢市","city_kana":"カナザワシ","town":"額谷町","town_kana":"ヌカダニマチ","prefecture_code":17},"8104":{"zip_code":"9218104","prefecture":"石川県","prefecture_kana":"イシカワケン","city":"金沢市","city_kana":"カナザワシ","town":"野田町","town_kana":"ノダマチ","prefecture_code":17},"8031":{"zip_code":"9218031","prefecture":"石川県","prefecture_kana":"イシカワケン","city":"金沢市","city_kana":"カナザワシ","town":"野町","town_kana":"ノマチ","prefecture_code":17},"8142":{"zip_code":"9218142","prefecture":"石川県","prefecture_kana":"イシカワケン","city":"金沢市","city_kana":"カナザワシ","town":"光が丘","town_kana":"ヒカリガオカ","prefecture_code":17},"8164":{"zip_code":"9218164","prefecture":"石川県","prefecture_kana":"イシカワケン","city":"金沢市","city_kana":"カナザワシ","town":"久安","town_kana":"ヒサヤス","prefecture_code":17},"8121":{"zip_code":"9218121","prefecture":"石川県","prefecture_kana":"イシカワケン","city":"金沢市","city_kana":"カナザワシ","town":"平栗","town_kana":"ヒラグリ","prefecture_code":17},"8172":{"zip_code":"9218172","prefecture":"石川県","prefecture_kana":"イシカワケン","city":"金沢市","city_kana":"カナザワシ","town":"伏見新町","town_kana":"フシミシンマチ","prefecture_code":17},"8177":{"zip_code":"9218177","prefecture":"石川県","prefecture_kana":"イシカワケン","city":"金沢市","city_kana":"カナザワシ","town":"伏見台","town_kana":"フシミダイ","prefecture_code":17},"8105":{"zip_code":"9218105","prefecture":"石川県","prefecture_kana":"イシカワケン","city":"金沢市","city_kana":"カナザワシ","town":"平和町","town_kana":"ヘイワマチ","prefecture_code":17},"8101":{"zip_code":"9218101","prefecture":"石川県","prefecture_kana":"イシカワケン","city":"金沢市","city_kana":"カナザワシ","town":"法島町","town_kana":"ホウシママチ","prefecture_code":17},"8052":{"zip_code":"9218052","prefecture":"石川県","prefecture_kana":"イシカワケン","city":"金沢市","city_kana":"カナザワシ","town":"保古","town_kana":"ホゴ","prefecture_code":17},"8053":{"zip_code":"9218053","prefecture":"石川県","prefecture_kana":"イシカワケン","city":"金沢市","city_kana":"カナザワシ","town":"保古町","town_kana":"ホゴマチ","prefecture_code":17},"8141":{"zip_code":"9218141","prefecture":"石川県","prefecture_kana":"イシカワケン","city":"金沢市","city_kana":"カナザワシ","town":"馬替","town_kana":"マガエ","prefecture_code":17},"8005":{"zip_code":"9218005","prefecture":"石川県","prefecture_kana":"イシカワケン","city":"金沢市","city_kana":"カナザワシ","town":"間明町","town_kana":"マギラマチ","prefecture_code":17},"8025":{"zip_code":"9218025","prefecture":"石川県","prefecture_kana":"イシカワケン","city":"金沢市","city_kana":"カナザワシ","town":"増泉","town_kana":"マスイズミ","prefecture_code":17},"8047":[{"zip_code":"9218047","prefecture":"石川県","prefecture_kana":"イシカワケン","city":"金沢市","city_kana":"カナザワシ","town":"大豆田本町","town_kana":"マメダホンマチ","prefecture_code":17},{"zip_code":"9218047","prefecture":"石川県","prefecture_kana":"イシカワケン","city":"金沢市","city_kana":"カナザワシ","town":"大豆田本町ハ","town_kana":"マメダホンマチハ","prefecture_code":17},{"zip_code":"9218047","prefecture":"石川県","prefecture_kana":"イシカワケン","city":"金沢市","city_kana":"カナザワシ","town":"大豆田本町ロ","town_kana":"マメダホンマチロ","prefecture_code":17}],"8021":{"zip_code":"9218021","prefecture":"石川県","prefecture_kana":"イシカワケン","city":"金沢市","city_kana":"カナザワシ","town":"御影町","town_kana":"ミカゲマチ","prefecture_code":17},"8117":{"zip_code":"9218117","prefecture":"石川県","prefecture_kana":"イシカワケン","city":"金沢市","city_kana":"カナザワシ","town":"緑が丘","town_kana":"ミドリガオカ","prefecture_code":17},"8134":{"zip_code":"9218134","prefecture":"石川県","prefecture_kana":"イシカワケン","city":"金沢市","city_kana":"カナザワシ","town":"南四十万","town_kana":"ミナミシジマ","prefecture_code":17},"8162":{"zip_code":"9218162","prefecture":"石川県","prefecture_kana":"イシカワケン","city":"金沢市","city_kana":"カナザワシ","town":"三馬","town_kana":"ミンマ","prefecture_code":17},"8012":{"zip_code":"9218012","prefecture":"石川県","prefecture_kana":"イシカワケン","city":"金沢市","city_kana":"カナザワシ","town":"本江町","town_kana":"モトエチョウ","prefecture_code":17},"8061":{"zip_code":"9218061","prefecture":"石川県","prefecture_kana":"イシカワケン","city":"金沢市","city_kana":"カナザワシ","town":"森戸","town_kana":"モリト","prefecture_code":17},"8066":{"zip_code":"9218066","prefecture":"石川県","prefecture_kana":"イシカワケン","city":"金沢市","city_kana":"カナザワシ","town":"矢木","town_kana":"ヤギ","prefecture_code":17},"8175":{"zip_code":"9218175","prefecture":"石川県","prefecture_kana":"イシカワケン","city":"金沢市","city_kana":"カナザワシ","town":"山科","town_kana":"ヤマシナ","prefecture_code":17},"8174":{"zip_code":"9218174","prefecture":"石川県","prefecture_kana":"イシカワケン","city":"金沢市","city_kana":"カナザワシ","town":"山科町","town_kana":"ヤマシナマチ","prefecture_code":17},"8036":{"zip_code":"9218036","prefecture":"石川県","prefecture_kana":"イシカワケン","city":"金沢市","city_kana":"カナザワシ","town":"弥生","town_kana":"ヤヨイ","prefecture_code":17},"8064":{"zip_code":"9218064","prefecture":"石川県","prefecture_kana":"イシカワケン","city":"金沢市","city_kana":"カナザワシ","town":"八日市","town_kana":"ヨウカイチ","prefecture_code":17},"8063":{"zip_code":"9218063","prefecture":"石川県","prefecture_kana":"イシカワケン","city":"金沢市","city_kana":"カナザワシ","town":"八日市出町","town_kana":"ヨウカイチデマチ","prefecture_code":17},"8163":{"zip_code":"9218163","prefecture":"石川県","prefecture_kana":"イシカワケン","city":"金沢市","city_kana":"カナザワシ","town":"横川","town_kana":"ヨコガワ","prefecture_code":17},"8044":{"zip_code":"9218044","prefecture":"石川県","prefecture_kana":"イシカワケン","city":"金沢市","city_kana":"カナザワシ","town":"米泉町","town_kana":"ヨナイズミマチ","prefecture_code":17},"8004":{"zip_code":"9218004","prefecture":"石川県","prefecture_kana":"イシカワケン","city":"金沢市","city_kana":"カナザワシ","town":"米丸町","town_kana":"ヨネマルマチ","prefecture_code":17},"8111":{"zip_code":"9218111","prefecture":"石川県","prefecture_kana":"イシカワケン","city":"金沢市","city_kana":"カナザワシ","town":"若草町","town_kana":"ワカクサマチ","prefecture_code":17},"0000":{"zip_code":"9210000","prefecture":"石川県","prefecture_kana":"イシカワケン","city":"野々市市","city_kana":"ノノイチシ","town":"","town_kana":"","prefecture_code":17},"8823":{"zip_code":"9218823","prefecture":"石川県","prefecture_kana":"イシカワケン","city":"野々市市","city_kana":"ノノイチシ","town":"粟田","town_kana":"アワダ","prefecture_code":17},"8805":{"zip_code":"9218805","prefecture":"石川県","prefecture_kana":"イシカワケン","city":"野々市市","city_kana":"ノノイチシ","town":"稲荷","town_kana":"イナリ","prefecture_code":17},"8812":{"zip_code":"9218812","prefecture":"石川県","prefecture_kana":"イシカワケン","city":"野々市市","city_kana":"ノノイチシ","town":"扇が丘","town_kana":"オウギガオカ","prefecture_code":17},"8801":{"zip_code":"9218801","prefecture":"石川県","prefecture_kana":"イシカワケン","city":"野々市市","city_kana":"ノノイチシ","town":"御経塚","town_kana":"オキョウヅカ","prefecture_code":17},"8803":{"zip_code":"9218803","prefecture":"石川県","prefecture_kana":"イシカワケン","city":"野々市市","city_kana":"ノノイチシ","town":"押越","town_kana":"オシコシ","prefecture_code":17},"8802":{"zip_code":"9218802","prefecture":"石川県","prefecture_kana":"イシカワケン","city":"野々市市","city_kana":"ノノイチシ","town":"押野","town_kana":"オシノ","prefecture_code":17},"8835":{"zip_code":"9218835","prefecture":"石川県","prefecture_kana":"イシカワケン","city":"野々市市","city_kana":"ノノイチシ","town":"上林","town_kana":"カンバヤシ","prefecture_code":17},"8837":{"zip_code":"9218837","prefecture":"石川県","prefecture_kana":"イシカワケン","city":"野々市市","city_kana":"ノノイチシ","town":"清金","town_kana":"キヨカネ","prefecture_code":17},"8846":{"zip_code":"9218846","prefecture":"石川県","prefecture_kana":"イシカワケン","city":"野々市市","city_kana":"ノノイチシ","town":"位川","town_kana":"クライガワ","prefecture_code":17},"8841":{"zip_code":"9218841","prefecture":"石川県","prefecture_kana":"イシカワケン","city":"野々市市","city_kana":"ノノイチシ","town":"郷町","town_kana":"ゴウマチ","prefecture_code":17},"8825":{"zip_code":"9218825","prefecture":"石川県","prefecture_kana":"イシカワケン","city":"野々市市","city_kana":"ノノイチシ","town":"三納","town_kana":"サンノ","prefecture_code":17},"8831":{"zip_code":"9218831","prefecture":"石川県","prefecture_kana":"イシカワケン","city":"野々市市","city_kana":"ノノイチシ","town":"下林","town_kana":"シモバヤシ","prefecture_code":17},"8824":{"zip_code":"9218824","prefecture":"石川県","prefecture_kana":"イシカワケン","city":"野々市市","city_kana":"ノノイチシ","town":"新庄","town_kana":"シンジョウ","prefecture_code":17},"8836":{"zip_code":"9218836","prefecture":"石川県","prefecture_kana":"イシカワケン","city":"野々市市","city_kana":"ノノイチシ","town":"末松","town_kana":"スエマツ","prefecture_code":17},"8814":{"zip_code":"9218814","prefecture":"石川県","prefecture_kana":"イシカワケン","city":"野々市市","city_kana":"ノノイチシ","town":"菅原町","town_kana":"スガハラマチ","prefecture_code":17},"8813":{"zip_code":"9218813","prefecture":"石川県","prefecture_kana":"イシカワケン","city":"野々市市","city_kana":"ノノイチシ","town":"住吉町","town_kana":"スミヨシマチ","prefecture_code":17},"8811":{"zip_code":"9218811","prefecture":"石川県","prefecture_kana":"イシカワケン","city":"野々市市","city_kana":"ノノイチシ","town":"高橋町","town_kana":"タカハシマチ","prefecture_code":17},"8843":{"zip_code":"9218843","prefecture":"石川県","prefecture_kana":"イシカワケン","city":"野々市市","city_kana":"ノノイチシ","town":"田尻町","town_kana":"タノシリマチ","prefecture_code":17},"8845":{"zip_code":"9218845","prefecture":"石川県","prefecture_kana":"イシカワケン","city":"野々市市","city_kana":"ノノイチシ","town":"太平寺","town_kana":"タヘイジ","prefecture_code":17},"8842":{"zip_code":"9218842","prefecture":"石川県","prefecture_kana":"イシカワケン","city":"野々市市","city_kana":"ノノイチシ","town":"徳用町","town_kana":"トクモトマチ","prefecture_code":17},"8832":{"zip_code":"9218832","prefecture":"石川県","prefecture_kana":"イシカワケン","city":"野々市市","city_kana":"ノノイチシ","town":"藤平田","town_kana":"トヘイダ","prefecture_code":17},"8834":{"zip_code":"9218834","prefecture":"石川県","prefecture_kana":"イシカワケン","city":"野々市市","city_kana":"ノノイチシ","town":"中林","town_kana":"ナカバヤシ","prefecture_code":17},"8808":{"zip_code":"9218808","prefecture":"石川県","prefecture_kana":"イシカワケン","city":"野々市市","city_kana":"ノノイチシ","town":"長池","town_kana":"ナガイケ","prefecture_code":17},"8804":{"zip_code":"9218804","prefecture":"石川県","prefecture_kana":"イシカワケン","city":"野々市市","city_kana":"ノノイチシ","town":"野代","town_kana":"ノシロ","prefecture_code":17},"8821":{"zip_code":"9218821","prefecture":"石川県","prefecture_kana":"イシカワケン","city":"野々市市","city_kana":"ノノイチシ","town":"白山町","town_kana":"ハクサンマチ","prefecture_code":17},"8833":{"zip_code":"9218833","prefecture":"石川県","prefecture_kana":"イシカワケン","city":"野々市市","city_kana":"ノノイチシ","town":"藤平","town_kana":"フジヒラ","prefecture_code":17},"8807":{"zip_code":"9218807","prefecture":"石川県","prefecture_kana":"イシカワケン","city":"野々市市","city_kana":"ノノイチシ","town":"二日市町","town_kana":"フツカイチマチ","prefecture_code":17},"8844":{"zip_code":"9218844","prefecture":"石川県","prefecture_kana":"イシカワケン","city":"野々市市","city_kana":"ノノイチシ","town":"堀内","town_kana":"ホリウチ","prefecture_code":17},"8815":{"zip_code":"9218815","prefecture":"石川県","prefecture_kana":"イシカワケン","city":"野々市市","city_kana":"ノノイチシ","town":"本町","town_kana":"ホンマチ","prefecture_code":17},"8806":{"zip_code":"9218806","prefecture":"石川県","prefecture_kana":"イシカワケン","city":"野々市市","city_kana":"ノノイチシ","town":"三日市町","town_kana":"ミッカイチマチ","prefecture_code":17},"8848":{"zip_code":"9218848","prefecture":"石川県","prefecture_kana":"イシカワケン","city":"野々市市","city_kana":"ノノイチシ","town":"柳町","town_kana":"ヤナギマチ","prefecture_code":17},"8822":{"zip_code":"9218822","prefecture":"石川県","prefecture_kana":"イシカワケン","city":"野々市市","city_kana":"ノノイチシ","town":"矢作","town_kana":"ヤハギ","prefecture_code":17},"8817":{"zip_code":"9218817","prefecture":"石川県","prefecture_kana":"イシカワケン","city":"野々市市","city_kana":"ノノイチシ","town":"横宮町","town_kana":"ヨコミヤマチ","prefecture_code":17},"8847":{"zip_code":"9218847","prefecture":"石川県","prefecture_kana":"イシカワケン","city":"野々市市","city_kana":"ノノイチシ","town":"蓮花寺町","town_kana":"レンゲジマチ","prefecture_code":17},"8816":{"zip_code":"9218816","prefecture":"石川県","prefecture_kana":"イシカワケン","city":"野々市市","city_kana":"ノノイチシ","town":"若松町","town_kana":"ワカマツマチ","prefecture_code":17}}