{"0000":{"zip_code":"9220000","prefecture":"石川県","prefecture_kana":"イシカワケン","city":"加賀市","city_kana":"カガシ","town":"以下に掲載がない場合","town_kana":"イカニケイサイガナイバアイ","prefecture_code":17},"0337":{"zip_code":"9220337","prefecture":"石川県","prefecture_kana":"イシカワケン","city":"加賀市","city_kana":"カガシ","town":"合河町","town_kana":"アイカワマチ","prefecture_code":17},"0278":{"zip_code":"9220278","prefecture":"石川県","prefecture_kana":"イシカワケン","city":"加賀市","city_kana":"カガシ","town":"荒木町","town_kana":"アラキマチ","prefecture_code":17},"0406":{"zip_code":"9220406","prefecture":"石川県","prefecture_kana":"イシカワケン","city":"加賀市","city_kana":"カガシ","town":"伊切町","town_kana":"イキリマチ","prefecture_code":17},"0403":{"zip_code":"9220403","prefecture":"石川県","prefecture_kana":"イシカワケン","city":"加賀市","city_kana":"カガシ","town":"一白町","town_kana":"イッパクマチ","prefecture_code":17},"0331":{"zip_code":"9220331","prefecture":"石川県","prefecture_kana":"イシカワケン","city":"加賀市","city_kana":"カガシ","town":"動橋町","town_kana":"イブリハシマチ","prefecture_code":17},"0411":{"zip_code":"9220411","prefecture":"石川県","prefecture_kana":"イシカワケン","city":"加賀市","city_kana":"カガシ","town":"潮津町","town_kana":"ウシオヅマチ","prefecture_code":17},"0312":{"zip_code":"9220312","prefecture":"石川県","prefecture_kana":"イシカワケン","city":"加賀市","city_kana":"カガシ","town":"宇谷町","town_kana":"ウダニマチ","prefecture_code":17},"0302":{"zip_code":"9220302","prefecture":"石川県","prefecture_kana":"イシカワケン","city":"加賀市","city_kana":"カガシ","town":"打越町","town_kana":"ウチコシマチ","prefecture_code":17},"0222":{"zip_code":"9220222","prefecture":"石川県","prefecture_kana":"イシカワケン","city":"加賀市","city_kana":"カガシ","town":"上野町（丸山）","town_kana":"ウワノマチ(マルヤマ)","prefecture_code":17},"0322":{"zip_code":"9220322","prefecture":"石川県","prefecture_kana":"イシカワケン","city":"加賀市","city_kana":"カガシ","town":"上野町（その他）","town_kana":"ウワノマチ(ソノタ)","prefecture_code":17},"0425":{"zip_code":"9220425","prefecture":"石川県","prefecture_kana":"イシカワケン","city":"加賀市","city_kana":"カガシ","town":"大菅波町","town_kana":"オオスガナミマチ","prefecture_code":17},"0856":{"zip_code":"9220856","prefecture":"石川県","prefecture_kana":"イシカワケン","city":"加賀市","city_kana":"カガシ","town":"奥谷町","town_kana":"オクノヤマチ","prefecture_code":17},"0445":{"zip_code":"9220445","prefecture":"石川県","prefecture_kana":"イシカワケン","city":"加賀市","city_kana":"カガシ","town":"小塩辻町","town_kana":"オシオツジマチ","prefecture_code":17},"0553":{"zip_code":"9220553","prefecture":"石川県","prefecture_kana":"イシカワケン","city":"加賀市","city_kana":"カガシ","town":"小塩町","town_kana":"オシオマチ","prefecture_code":17},"0428":{"zip_code":"9220428","prefecture":"石川県","prefecture_kana":"イシカワケン","city":"加賀市","city_kana":"カガシ","town":"尾中町","town_kana":"オチュウマチ","prefecture_code":17},"0271":{"zip_code":"9220271","prefecture":"石川県","prefecture_kana":"イシカワケン","city":"加賀市","city_kana":"カガシ","town":"尾俣町","town_kana":"オマタマチ","prefecture_code":17},"0272":{"zip_code":"9220272","prefecture":"石川県","prefecture_kana":"イシカワケン","city":"加賀市","city_kana":"カガシ","town":"尾俣町（大桜）","town_kana":"オマタマチ(オオザクラ)","prefecture_code":17},"0262":{"zip_code":"9220262","prefecture":"石川県","prefecture_kana":"イシカワケン","city":"加賀市","city_kana":"カガシ","town":"柏野町","town_kana":"カシワノマチ","prefecture_code":17},"0305":{"zip_code":"9220305","prefecture":"石川県","prefecture_kana":"イシカワケン","city":"加賀市","city_kana":"カガシ","town":"梶井町","town_kana":"カジイマチ","prefecture_code":17},"0564":{"zip_code":"9220564","prefecture":"石川県","prefecture_kana":"イシカワケン","city":"加賀市","city_kana":"カガシ","town":"片野町","town_kana":"カタノマチ","prefecture_code":17},"0412":{"zip_code":"9220412","prefecture":"石川県","prefecture_kana":"イシカワケン","city":"加賀市","city_kana":"カガシ","town":"片山津温泉","town_kana":"カタヤマヅオンセン","prefecture_code":17},"0414":{"zip_code":"9220414","prefecture":"石川県","prefecture_kana":"イシカワケン","city":"加賀市","city_kana":"カガシ","town":"片山津町","town_kana":"カタヤマヅマチ","prefecture_code":17},"0273":{"zip_code":"9220273","prefecture":"石川県","prefecture_kana":"イシカワケン","city":"加賀市","city_kana":"カガシ","town":"桂谷町","town_kana":"カツラタニマチ","prefecture_code":17},"0013":{"zip_code":"9220013","prefecture":"石川県","prefecture_kana":"イシカワケン","city":"加賀市","city_kana":"カガシ","town":"上河崎町","town_kana":"カミカワサキマチ","prefecture_code":17},"0241":{"zip_code":"9220241","prefecture":"石川県","prefecture_kana":"イシカワケン","city":"加賀市","city_kana":"カガシ","town":"加茂町","town_kana":"カモマチ","prefecture_code":17},"0277":{"zip_code":"9220277","prefecture":"石川県","prefecture_kana":"イシカワケン","city":"加賀市","city_kana":"カガシ","town":"河南町","town_kana":"カワミナミマチ","prefecture_code":17},"0276":{"zip_code":"9220276","prefecture":"石川県","prefecture_kana":"イシカワケン","city":"加賀市","city_kana":"カガシ","town":"河南町（淀町）","town_kana":"カワミナミマチ(ヨドマチ)","prefecture_code":17},"0314":{"zip_code":"9220314","prefecture":"石川県","prefecture_kana":"イシカワケン","city":"加賀市","city_kana":"カガシ","town":"河原町","town_kana":"カワラマチ","prefecture_code":17},"0307":{"zip_code":"9220307","prefecture":"石川県","prefecture_kana":"イシカワケン","city":"加賀市","city_kana":"カガシ","town":"干拓町","town_kana":"カンタクチョウ","prefecture_code":17},"0434":{"zip_code":"9220434","prefecture":"石川県","prefecture_kana":"イシカワケン","city":"加賀市","city_kana":"カガシ","town":"北山田町","town_kana":"キタヤマダマチ","prefecture_code":17},"0435":{"zip_code":"9220435","prefecture":"石川県","prefecture_kana":"イシカワケン","city":"加賀市","city_kana":"カガシ","town":"希望が丘","town_kana":"キボウガオカ","prefecture_code":17},"0842":{"zip_code":"9220842","prefecture":"石川県","prefecture_kana":"イシカワケン","city":"加賀市","city_kana":"カガシ","town":"熊坂町","town_kana":"クマサカマチ","prefecture_code":17},"0565":{"zip_code":"9220565","prefecture":"石川県","prefecture_kana":"イシカワケン","city":"加賀市","city_kana":"カガシ","town":"黒崎町","town_kana":"クロサキマチ","prefecture_code":17},"0823":{"zip_code":"9220823","prefecture":"石川県","prefecture_kana":"イシカワケン","city":"加賀市","city_kana":"カガシ","town":"黒瀬町","town_kana":"クロセマチ","prefecture_code":17},"0326":{"zip_code":"9220326","prefecture":"石川県","prefecture_kana":"イシカワケン","city":"加賀市","city_kana":"カガシ","town":"桑原町","town_kana":"クワバラマチ","prefecture_code":17},"0404":{"zip_code":"9220404","prefecture":"石川県","prefecture_kana":"イシカワケン","city":"加賀市","city_kana":"カガシ","town":"源平町","town_kana":"ゲンペイマチ","prefecture_code":17},"0266":{"zip_code":"9220266","prefecture":"石川県","prefecture_kana":"イシカワケン","city":"加賀市","city_kana":"カガシ","town":"小坂町","town_kana":"コサカマチ","prefecture_code":17},"0413":{"zip_code":"9220413","prefecture":"石川県","prefecture_kana":"イシカワケン","city":"加賀市","city_kana":"カガシ","town":"湖城町","town_kana":"コジョウマチ","prefecture_code":17},"0424":{"zip_code":"9220424","prefecture":"石川県","prefecture_kana":"イシカワケン","city":"加賀市","city_kana":"カガシ","town":"小菅波町","town_kana":"コスガナミマチ","prefecture_code":17},"0831":{"zip_code":"9220831","prefecture":"石川県","prefecture_kana":"イシカワケン","city":"加賀市","city_kana":"カガシ","town":"幸町","town_kana":"サイワイマチ","prefecture_code":17},"0311":{"zip_code":"9220311","prefecture":"石川県","prefecture_kana":"イシカワケン","city":"加賀市","city_kana":"カガシ","town":"栄谷町","town_kana":"サカエダニマチ","prefecture_code":17},"0423":{"zip_code":"9220423","prefecture":"石川県","prefecture_kana":"イシカワケン","city":"加賀市","city_kana":"カガシ","town":"作見町","town_kana":"サクミマチ","prefecture_code":17},"0446":{"zip_code":"9220446","prefecture":"石川県","prefecture_kana":"イシカワケン","city":"加賀市","city_kana":"カガシ","town":"塩浜町","town_kana":"シオハママチ","prefecture_code":17},"0673":{"zip_code":"9220673","prefecture":"石川県","prefecture_kana":"イシカワケン","city":"加賀市","city_kana":"カガシ","town":"塩屋町","town_kana":"シオヤマチ","prefecture_code":17},"0441":{"zip_code":"9220441","prefecture":"石川県","prefecture_kana":"イシカワケン","city":"加賀市","city_kana":"カガシ","town":"篠原新町","town_kana":"シノハラシンマチ","prefecture_code":17},"0442":{"zip_code":"9220442","prefecture":"石川県","prefecture_kana":"イシカワケン","city":"加賀市","city_kana":"カガシ","town":"篠原町","town_kana":"シノハラマチ","prefecture_code":17},"0402":{"zip_code":"9220402","prefecture":"石川県","prefecture_kana":"イシカワケン","city":"加賀市","city_kana":"カガシ","town":"柴山町","town_kana":"シバヤママチ","prefecture_code":17},"0315":{"zip_code":"9220315","prefecture":"石川県","prefecture_kana":"イシカワケン","city":"加賀市","city_kana":"カガシ","town":"清水町","town_kana":"シミズマチ","prefecture_code":17},"0012":{"zip_code":"9220012","prefecture":"石川県","prefecture_kana":"イシカワケン","city":"加賀市","city_kana":"カガシ","town":"下河崎町","town_kana":"シモカワサキマチ","prefecture_code":17},"0332":{"zip_code":"9220332","prefecture":"石川県","prefecture_kana":"イシカワケン","city":"加賀市","city_kana":"カガシ","town":"庄町","town_kana":"ショウマチ","prefecture_code":17},"0836":{"zip_code":"9220836","prefecture":"石川県","prefecture_kana":"イシカワケン","city":"加賀市","city_kana":"カガシ","town":"白鳥町","town_kana":"シラトリマチ","prefecture_code":17},"0401":{"zip_code":"9220401","prefecture":"石川県","prefecture_kana":"イシカワケン","city":"加賀市","city_kana":"カガシ","town":"新保町","town_kana":"シンボマチ","prefecture_code":17},"0822":{"zip_code":"9220822","prefecture":"石川県","prefecture_kana":"イシカワケン","city":"加賀市","city_kana":"カガシ","town":"吸坂町","town_kana":"スイサカマチ","prefecture_code":17},"0264":{"zip_code":"9220264","prefecture":"石川県","prefecture_kana":"イシカワケン","city":"加賀市","city_kana":"カガシ","town":"須谷町","town_kana":"スダニマチ","prefecture_code":17},"0833":{"zip_code":"9220833","prefecture":"石川県","prefecture_kana":"イシカワケン","city":"加賀市","city_kana":"カガシ","town":"曾宇町","town_kana":"ソウマチ","prefecture_code":17},"0825":{"zip_code":"9220825","prefecture":"石川県","prefecture_kana":"イシカワケン","city":"加賀市","city_kana":"カガシ","town":"直下町","town_kana":"ソソリマチ","prefecture_code":17},"0061":{"zip_code":"9220061","prefecture":"石川県","prefecture_kana":"イシカワケン","city":"加賀市","city_kana":"カガシ","town":"大聖寺相生町","town_kana":"ダイショウジアイオイチョウ","prefecture_code":17},"0022":{"zip_code":"9220022","prefecture":"石川県","prefecture_kana":"イシカワケン","city":"加賀市","city_kana":"カガシ","town":"大聖寺曙町","town_kana":"ダイショウジアケボノチョウ","prefecture_code":17},"0028":{"zip_code":"9220028","prefecture":"石川県","prefecture_kana":"イシカワケン","city":"加賀市","city_kana":"カガシ","town":"大聖寺麻畠町","town_kana":"ダイショウジアサバタケマチ","prefecture_code":17},"0004":[{"zip_code":"9220004","prefecture":"石川県","prefecture_kana":"イシカワケン","city":"加賀市","city_kana":"カガシ","town":"大聖寺朝日町","town_kana":"ダイショウジアサヒマチ","prefecture_code":17},{"zip_code":"9220004","prefecture":"石川県","prefecture_kana":"イシカワケン","city":"加賀市","city_kana":"カガシ","town":"大聖寺上福田町","town_kana":"ダイショウジカミフクダマチ","prefecture_code":17},{"zip_code":"9220004","prefecture":"石川県","prefecture_kana":"イシカワケン","city":"加賀市","city_kana":"カガシ","town":"大聖寺新川町","town_kana":"ダイショウジシンカワマチ","prefecture_code":17},{"zip_code":"9220004","prefecture":"石川県","prefecture_kana":"イシカワケン","city":"加賀市","city_kana":"カガシ","town":"大聖寺畑町","town_kana":"ダイショウジハタマチ","prefecture_code":17},{"zip_code":"9220004","prefecture":"石川県","prefecture_kana":"イシカワケン","city":"加賀市","city_kana":"カガシ","town":"大聖寺畑山町","town_kana":"ダイショウジハタヤママチ","prefecture_code":17},{"zip_code":"9220004","prefecture":"石川県","prefecture_kana":"イシカワケン","city":"加賀市","city_kana":"カガシ","town":"大聖寺松島町","town_kana":"ダイショウジマツシママチ","prefecture_code":17},{"zip_code":"9220004","prefecture":"石川県","prefecture_kana":"イシカワケン","city":"加賀市","city_kana":"カガシ","town":"豊町（ハ）","town_kana":"ユタカマチ(ハ)","prefecture_code":17}],"0034":{"zip_code":"9220034","prefecture":"石川県","prefecture_kana":"イシカワケン","city":"加賀市","city_kana":"カガシ","town":"大聖寺荒町","town_kana":"ダイショウジアラマチ","prefecture_code":17},"0036":{"zip_code":"9220036","prefecture":"石川県","prefecture_kana":"イシカワケン","city":"加賀市","city_kana":"カガシ","town":"大聖寺一本橋町","town_kana":"ダイショウジイッポンバシマチ","prefecture_code":17},"0863":{"zip_code":"9220863","prefecture":"石川県","prefecture_kana":"イシカワケン","city":"加賀市","city_kana":"カガシ","town":"大聖寺今出町","town_kana":"ダイショウジイマデマチ","prefecture_code":17},"0042":{"zip_code":"9220042","prefecture":"石川県","prefecture_kana":"イシカワケン","city":"加賀市","city_kana":"カガシ","town":"大聖寺魚町","town_kana":"ダイショウジウオマチ","prefecture_code":17},"0001":{"zip_code":"9220001","prefecture":"石川県","prefecture_kana":"イシカワケン","city":"加賀市","city_kana":"カガシ","town":"大聖寺上木町","town_kana":"ダイショウジウワギマチ","prefecture_code":17},"0802":{"zip_code":"9220802","prefecture":"石川県","prefecture_kana":"イシカワケン","city":"加賀市","city_kana":"カガシ","town":"大聖寺越前町","town_kana":"ダイショウジエチゼンマチ","prefecture_code":17},"0803":[{"zip_code":"9220803","prefecture":"石川県","prefecture_kana":"イシカワケン","city":"加賀市","city_kana":"カガシ","town":"大聖寺越前三ツ屋町","town_kana":"ダイショウジエチゼンミツヤマチ","prefecture_code":17},{"zip_code":"9220803","prefecture":"石川県","prefecture_kana":"イシカワケン","city":"加賀市","city_kana":"カガシ","town":"大聖寺三ツ屋町","town_kana":"ダイショウジミツヤマチ","prefecture_code":17}],"0806":{"zip_code":"9220806","prefecture":"石川県","prefecture_kana":"イシカワケン","city":"加賀市","city_kana":"カガシ","town":"大聖寺大新道","town_kana":"ダイショウジオオシンミチ","prefecture_code":17},"0005":{"zip_code":"9220005","prefecture":"石川県","prefecture_kana":"イシカワケン","city":"加賀市","city_kana":"カガシ","town":"大聖寺岡町","town_kana":"ダイショウジオカマチ","prefecture_code":17},"0003":{"zip_code":"9220003","prefecture":"石川県","prefecture_kana":"イシカワケン","city":"加賀市","city_kana":"カガシ","town":"大聖寺荻生町","town_kana":"ダイショウジオギュウマチ","prefecture_code":17},"0037":{"zip_code":"9220037","prefecture":"石川県","prefecture_kana":"イシカワケン","city":"加賀市","city_kana":"カガシ","town":"大聖寺鍛冶町","town_kana":"ダイショウジカジマチ","prefecture_code":17},"0011":[{"zip_code":"9220011","prefecture":"石川県","prefecture_kana":"イシカワケン","city":"加賀市","city_kana":"カガシ","town":"大聖寺春日町","town_kana":"ダイショウジカスガチョウ","prefecture_code":17},{"zip_code":"9220011","prefecture":"石川県","prefecture_kana":"イシカワケン","city":"加賀市","city_kana":"カガシ","town":"大聖寺敷地","town_kana":"ダイショウジシキジ","prefecture_code":17},{"zip_code":"9220011","prefecture":"石川県","prefecture_kana":"イシカワケン","city":"加賀市","city_kana":"カガシ","town":"大聖寺東敷地町","town_kana":"ダイショウジヒガシシキジマチ","prefecture_code":17},{"zip_code":"9220011","prefecture":"石川県","prefecture_kana":"イシカワケン","city":"加賀市","city_kana":"カガシ","town":"大聖寺平床","town_kana":"ダイショウジヒラトコ","prefecture_code":17}],"0056":{"zip_code":"9220056","prefecture":"石川県","prefecture_kana":"イシカワケン","city":"加賀市","city_kana":"カガシ","town":"大聖寺片原町","town_kana":"ダイショウジカタハラマチ","prefecture_code":17},"0032":{"zip_code":"9220032","prefecture":"石川県","prefecture_kana":"イシカワケン","city":"加賀市","city_kana":"カガシ","town":"大聖寺金子町","town_kana":"ダイショウジカネコマチ","prefecture_code":17},"0046":{"zip_code":"9220046","prefecture":"石川県","prefecture_kana":"イシカワケン","city":"加賀市","city_kana":"カガシ","town":"大聖寺観音町","town_kana":"ダイショウジカンノンマチ","prefecture_code":17},"0026":{"zip_code":"9220026","prefecture":"石川県","prefecture_kana":"イシカワケン","city":"加賀市","city_kana":"カガシ","town":"大聖寺亀町","town_kana":"ダイショウジガメチョウ","prefecture_code":17},"0064":{"zip_code":"9220064","prefecture":"石川県","prefecture_kana":"イシカワケン","city":"加賀市","city_kana":"カガシ","town":"大聖寺北片原町","town_kana":"ダイショウジキタカタハラマチ","prefecture_code":17},"0055":{"zip_code":"9220055","prefecture":"石川県","prefecture_kana":"イシカワケン","city":"加賀市","city_kana":"カガシ","town":"大聖寺京町","town_kana":"ダイショウジキョウマチ","prefecture_code":17},"0851":{"zip_code":"9220851","prefecture":"石川県","prefecture_kana":"イシカワケン","city":"加賀市","city_kana":"カガシ","town":"大聖寺錦城ケ丘","town_kana":"ダイショウジキンジョウガオカ","prefecture_code":17},"0031":{"zip_code":"9220031","prefecture":"石川県","prefecture_kana":"イシカワケン","city":"加賀市","city_kana":"カガシ","town":"大聖寺木呂場町","town_kana":"ダイショウジコロバマチ","prefecture_code":17},"0043":{"zip_code":"9220043","prefecture":"石川県","prefecture_kana":"イシカワケン","city":"加賀市","city_kana":"カガシ","town":"大聖寺五軒町","town_kana":"ダイショウジゴケンチョウ","prefecture_code":17},"0841":{"zip_code":"9220841","prefecture":"石川県","prefecture_kana":"イシカワケン","city":"加賀市","city_kana":"カガシ","town":"大聖寺下屋敷町","town_kana":"ダイショウジシタヤシキマチ","prefecture_code":17},"0002":{"zip_code":"9220002","prefecture":"石川県","prefecture_kana":"イシカワケン","city":"加賀市","city_kana":"カガシ","town":"大聖寺下福田町","town_kana":"ダイショウジシモフクダマチ","prefecture_code":17},"0065":{"zip_code":"9220065","prefecture":"石川県","prefecture_kana":"イシカワケン","city":"加賀市","city_kana":"カガシ","town":"大聖寺新旗陽町","town_kana":"ダイショウジシンキヨウマチ","prefecture_code":17},"0068":{"zip_code":"9220068","prefecture":"石川県","prefecture_kana":"イシカワケン","city":"加賀市","city_kana":"カガシ","town":"大聖寺新組町","town_kana":"ダイショウジシンクミチョウ","prefecture_code":17},"0021":{"zip_code":"9220021","prefecture":"石川県","prefecture_kana":"イシカワケン","city":"加賀市","city_kana":"カガシ","town":"大聖寺新栄町","town_kana":"ダイショウジシンサカエマチ","prefecture_code":17},"0063":{"zip_code":"9220063","prefecture":"石川県","prefecture_kana":"イシカワケン","city":"加賀市","city_kana":"カガシ","town":"大聖寺新町","town_kana":"ダイショウジシンチョウ","prefecture_code":17},"0807":{"zip_code":"9220807","prefecture":"石川県","prefecture_kana":"イシカワケン","city":"加賀市","city_kana":"カガシ","town":"大聖寺神明町","town_kana":"ダイショウジシンメイチョウ","prefecture_code":17},"0805":{"zip_code":"9220805","prefecture":"石川県","prefecture_kana":"イシカワケン","city":"加賀市","city_kana":"カガシ","town":"大聖寺新屋敷町","town_kana":"ダイショウジシンヤシキマチ","prefecture_code":17},"0861":{"zip_code":"9220861","prefecture":"石川県","prefecture_kana":"イシカワケン","city":"加賀市","city_kana":"カガシ","town":"大聖寺地方町","town_kana":"ダイショウジジカタマチ","prefecture_code":17},"0045":{"zip_code":"9220045","prefecture":"石川県","prefecture_kana":"イシカワケン","city":"加賀市","city_kana":"カガシ","town":"大聖寺十一町","town_kana":"ダイショウジジュウイチマチ","prefecture_code":17},"0815":{"zip_code":"9220815","prefecture":"石川県","prefecture_kana":"イシカワケン","city":"加賀市","city_kana":"カガシ","town":"大聖寺菅生","town_kana":"ダイショウジスゴウ","prefecture_code":17},"0814":{"zip_code":"9220814","prefecture":"石川県","prefecture_kana":"イシカワケン","city":"加賀市","city_kana":"カガシ","town":"大聖寺菅生町","town_kana":"ダイショウジスゴウマチ","prefecture_code":17},"0801":{"zip_code":"9220801","prefecture":"石川県","prefecture_kana":"イシカワケン","city":"加賀市","city_kana":"カガシ","town":"大聖寺関町","town_kana":"ダイショウジセキマチ","prefecture_code":17},"0671":{"zip_code":"9220671","prefecture":"石川県","prefecture_kana":"イシカワケン","city":"加賀市","city_kana":"カガシ","town":"大聖寺瀬越町","town_kana":"ダイショウジセゴエマチ","prefecture_code":17},"0053":{"zip_code":"9220053","prefecture":"石川県","prefecture_kana":"イシカワケン","city":"加賀市","city_kana":"カガシ","town":"大聖寺鷹匠町","town_kana":"ダイショウジタカジョウマチ","prefecture_code":17},"0812":{"zip_code":"9220812","prefecture":"石川県","prefecture_kana":"イシカワケン","city":"加賀市","city_kana":"カガシ","town":"大聖寺田原町","town_kana":"ダイショウジタワラマチ","prefecture_code":17},"0023":{"zip_code":"9220023","prefecture":"石川県","prefecture_kana":"イシカワケン","city":"加賀市","city_kana":"カガシ","town":"大聖寺大名竹町","town_kana":"ダイショウジダイミョウダケマチ","prefecture_code":17},"0035":{"zip_code":"9220035","prefecture":"石川県","prefecture_kana":"イシカワケン","city":"加賀市","city_kana":"カガシ","town":"大聖寺鉄砲町","town_kana":"ダイショウジテッポウマチ","prefecture_code":17},"0054":{"zip_code":"9220054","prefecture":"石川県","prefecture_kana":"イシカワケン","city":"加賀市","city_kana":"カガシ","town":"大聖寺寺町","town_kana":"ダイショウジテラマチ","prefecture_code":17},"0007":{"zip_code":"9220007","prefecture":"石川県","prefecture_kana":"イシカワケン","city":"加賀市","city_kana":"カガシ","town":"大聖寺天神下町","town_kana":"ダイショウジテンジンシタマチ","prefecture_code":17},"0066":{"zip_code":"9220066","prefecture":"石川県","prefecture_kana":"イシカワケン","city":"加賀市","city_kana":"カガシ","town":"大聖寺殿町","town_kana":"ダイショウジトノマチ","prefecture_code":17},"0804":{"zip_code":"9220804","prefecture":"石川県","prefecture_kana":"イシカワケン","city":"加賀市","city_kana":"カガシ","town":"大聖寺中新道","town_kana":"ダイショウジナカシンミチ","prefecture_code":17},"0051":{"zip_code":"9220051","prefecture":"石川県","prefecture_kana":"イシカワケン","city":"加賀市","city_kana":"カガシ","town":"大聖寺仲町","town_kana":"ダイショウジナカチョウ","prefecture_code":17},"0047":{"zip_code":"9220047","prefecture":"石川県","prefecture_kana":"イシカワケン","city":"加賀市","city_kana":"カガシ","town":"大聖寺中町","town_kana":"ダイショウジナカマチ","prefecture_code":17},"0024":{"zip_code":"9220024","prefecture":"石川県","prefecture_kana":"イシカワケン","city":"加賀市","city_kana":"カガシ","town":"大聖寺永町","town_kana":"ダイショウジナガマチ","prefecture_code":17},"0862":{"zip_code":"9220862","prefecture":"石川県","prefecture_kana":"イシカワケン","city":"加賀市","city_kana":"カガシ","town":"大聖寺錦町","town_kana":"ダイショウジニシキチョウ","prefecture_code":17},"0864":{"zip_code":"9220864","prefecture":"石川県","prefecture_kana":"イシカワケン","city":"加賀市","city_kana":"カガシ","town":"大聖寺西栄町","town_kana":"ダイショウジニシサカエマチ","prefecture_code":17},"0865":{"zip_code":"9220865","prefecture":"石川県","prefecture_kana":"イシカワケン","city":"加賀市","city_kana":"カガシ","town":"大聖寺西町","town_kana":"ダイショウジニシチョウ","prefecture_code":17},"0057":{"zip_code":"9220057","prefecture":"石川県","prefecture_kana":"イシカワケン","city":"加賀市","city_kana":"カガシ","town":"大聖寺八間道","town_kana":"ダイショウジハチケンミチ","prefecture_code":17},"0048":{"zip_code":"9220048","prefecture":"石川県","prefecture_kana":"イシカワケン","city":"加賀市","city_kana":"カガシ","town":"大聖寺馬場町","town_kana":"ダイショウジババマチ","prefecture_code":17},"0067":{"zip_code":"9220067","prefecture":"石川県","prefecture_kana":"イシカワケン","city":"加賀市","city_kana":"カガシ","town":"大聖寺番場町","town_kana":"ダイショウジバンバチョウ","prefecture_code":17},"0816":{"zip_code":"9220816","prefecture":"石川県","prefecture_kana":"イシカワケン","city":"加賀市","city_kana":"カガシ","town":"大聖寺東町","town_kana":"ダイショウジヒガシチョウ","prefecture_code":17},"0044":{"zip_code":"9220044","prefecture":"石川県","prefecture_kana":"イシカワケン","city":"加賀市","city_kana":"カガシ","town":"大聖寺東横町","town_kana":"ダイショウジヒガシヨコマチ","prefecture_code":17},"0052":{"zip_code":"9220052","prefecture":"石川県","prefecture_kana":"イシカワケン","city":"加賀市","city_kana":"カガシ","town":"大聖寺福田町","town_kana":"ダイショウジフクダマチ","prefecture_code":17},"0006":{"zip_code":"9220006","prefecture":"石川県","prefecture_kana":"イシカワケン","city":"加賀市","city_kana":"カガシ","town":"大聖寺藤ノ木町","town_kana":"ダイショウジフジノキマチ","prefecture_code":17},"0033":{"zip_code":"9220033","prefecture":"石川県","prefecture_kana":"イシカワケン","city":"加賀市","city_kana":"カガシ","town":"大聖寺法華坊町","town_kana":"ダイショウジホッケボウマチ","prefecture_code":17},"0041":{"zip_code":"9220041","prefecture":"石川県","prefecture_kana":"イシカワケン","city":"加賀市","city_kana":"カガシ","town":"大聖寺本町","town_kana":"ダイショウジホンマチ","prefecture_code":17},"0062":{"zip_code":"9220062","prefecture":"石川県","prefecture_kana":"イシカワケン","city":"加賀市","city_kana":"カガシ","town":"大聖寺松ケ根町","town_kana":"ダイショウジマツガネチョウ","prefecture_code":17},"0853":{"zip_code":"9220853","prefecture":"石川県","prefecture_kana":"イシカワケン","city":"加賀市","city_kana":"カガシ","town":"大聖寺三ツ町","town_kana":"ダイショウジミツマチ","prefecture_code":17},"0852":{"zip_code":"9220852","prefecture":"石川県","prefecture_kana":"イシカワケン","city":"加賀市","city_kana":"カガシ","town":"大聖寺緑ケ丘","town_kana":"ダイショウジミドリガオカ","prefecture_code":17},"0811":{"zip_code":"9220811","prefecture":"石川県","prefecture_kana":"イシカワケン","city":"加賀市","city_kana":"カガシ","town":"大聖寺南町","town_kana":"ダイショウジミナミチョウ","prefecture_code":17},"0025":{"zip_code":"9220025","prefecture":"石川県","prefecture_kana":"イシカワケン","city":"加賀市","city_kana":"カガシ","town":"大聖寺耳聞山仲町","town_kana":"ダイショウジミミキヤマナカチョウ","prefecture_code":17},"0027":{"zip_code":"9220027","prefecture":"石川県","prefecture_kana":"イシカワケン","city":"加賀市","city_kana":"カガシ","town":"大聖寺耳聞山町","town_kana":"ダイショウジミミキヤママチ","prefecture_code":17},"0038":{"zip_code":"9220038","prefecture":"石川県","prefecture_kana":"イシカワケン","city":"加賀市","city_kana":"カガシ","town":"大聖寺山田町","town_kana":"ダイショウジヤマダマチ","prefecture_code":17},"0813":{"zip_code":"9220813","prefecture":"石川県","prefecture_kana":"イシカワケン","city":"加賀市","city_kana":"カガシ","town":"大聖寺弓町","town_kana":"ダイショウジユミチョウ","prefecture_code":17},"0843":{"zip_code":"9220843","prefecture":"石川県","prefecture_kana":"イシカワケン","city":"加賀市","city_kana":"カガシ","town":"大同町","town_kana":"ダイドウマチ","prefecture_code":17},"0562":{"zip_code":"9220562","prefecture":"石川県","prefecture_kana":"イシカワケン","city":"加賀市","city_kana":"カガシ","town":"高尾町","town_kana":"タカオマチ","prefecture_code":17},"0301":{"zip_code":"9220301","prefecture":"石川県","prefecture_kana":"イシカワケン","city":"加賀市","city_kana":"カガシ","town":"高塚町","town_kana":"タカツカマチ","prefecture_code":17},"0552":{"zip_code":"9220552","prefecture":"石川県","prefecture_kana":"イシカワケン","city":"加賀市","city_kana":"カガシ","town":"田尻町","town_kana":"タジリマチ","prefecture_code":17},"0855":{"zip_code":"9220855","prefecture":"石川県","prefecture_kana":"イシカワケン","city":"加賀市","city_kana":"カガシ","town":"橘町","town_kana":"タチバナマチ","prefecture_code":17},"0313":{"zip_code":"9220313","prefecture":"石川県","prefecture_kana":"イシカワケン","city":"加賀市","city_kana":"カガシ","town":"勅使町","town_kana":"チョクシマチ","prefecture_code":17},"0333":{"zip_code":"9220333","prefecture":"石川県","prefecture_kana":"イシカワケン","city":"加賀市","city_kana":"カガシ","town":"津波倉町","town_kana":"ツバクラマチ","prefecture_code":17},"0405":{"zip_code":"9220405","prefecture":"石川県","prefecture_kana":"イシカワケン","city":"加賀市","city_kana":"カガシ","town":"手塚町","town_kana":"テヅカマチ","prefecture_code":17},"0426":{"zip_code":"9220426","prefecture":"石川県","prefecture_kana":"イシカワケン","city":"加賀市","city_kana":"カガシ","town":"天日町","town_kana":"テンニチマチ","prefecture_code":17},"0427":{"zip_code":"9220427","prefecture":"石川県","prefecture_kana":"イシカワケン","city":"加賀市","city_kana":"カガシ","town":"ときわ台","town_kana":"トキワダイ","prefecture_code":17},"0832":{"zip_code":"9220832","prefecture":"石川県","prefecture_kana":"イシカワケン","city":"加賀市","city_kana":"カガシ","town":"百々町","town_kana":"ドドマチ","prefecture_code":17},"0263":{"zip_code":"9220263","prefecture":"石川県","prefecture_kana":"イシカワケン","city":"加賀市","city_kana":"カガシ","town":"塔尾町","town_kana":"トノオマチ","prefecture_code":17},"0421":{"zip_code":"9220421","prefecture":"石川県","prefecture_kana":"イシカワケン","city":"加賀市","city_kana":"カガシ","town":"冨塚町","town_kana":"トミツカマチ","prefecture_code":17},"0306":{"zip_code":"9220306","prefecture":"石川県","prefecture_kana":"イシカワケン","city":"加賀市","city_kana":"カガシ","town":"中島町","town_kana":"ナカジママチ","prefecture_code":17},"0014":{"zip_code":"9220014","prefecture":"石川県","prefecture_kana":"イシカワケン","city":"加賀市","city_kana":"カガシ","town":"中代町","town_kana":"ナカダイマチ","prefecture_code":17},"0857":{"zip_code":"9220857","prefecture":"石川県","prefecture_kana":"イシカワケン","city":"加賀市","city_kana":"カガシ","town":"永井町","town_kana":"ナガイマチ","prefecture_code":17},"0324":{"zip_code":"9220324","prefecture":"石川県","prefecture_kana":"イシカワケン","city":"加賀市","city_kana":"カガシ","town":"七日市新町","town_kana":"ナンカイチシンマチ","prefecture_code":17},"0335":{"zip_code":"9220335","prefecture":"石川県","prefecture_kana":"イシカワケン","city":"加賀市","city_kana":"カガシ","town":"七日市町","town_kana":"ナンカイチマチ","prefecture_code":17},"0821":{"zip_code":"9220821","prefecture":"石川県","prefecture_kana":"イシカワケン","city":"加賀市","city_kana":"カガシ","town":"南郷町","town_kana":"ナンゴウマチ","prefecture_code":17},"0334":{"zip_code":"9220334","prefecture":"石川県","prefecture_kana":"イシカワケン","city":"加賀市","city_kana":"カガシ","town":"西島町","town_kana":"ニシジママチ","prefecture_code":17},"0433":{"zip_code":"9220433","prefecture":"石川県","prefecture_kana":"イシカワケン","city":"加賀市","city_kana":"カガシ","town":"西山田町","town_kana":"ニシヤマダマチ","prefecture_code":17},"0443":{"zip_code":"9220443","prefecture":"石川県","prefecture_kana":"イシカワケン","city":"加賀市","city_kana":"カガシ","town":"野田町","town_kana":"ノダマチ","prefecture_code":17},"0437":{"zip_code":"9220437","prefecture":"石川県","prefecture_kana":"イシカワケン","city":"加賀市","city_kana":"カガシ","town":"白山台","town_kana":"ハクサンダイ","prefecture_code":17},"0844":{"zip_code":"9220844","prefecture":"石川県","prefecture_kana":"イシカワケン","city":"加賀市","city_kana":"カガシ","town":"白望台町","town_kana":"ハクボウダイマチ","prefecture_code":17},"0303":{"zip_code":"9220303","prefecture":"石川県","prefecture_kana":"イシカワケン","city":"加賀市","city_kana":"カガシ","town":"箱宮町","town_kana":"ハコミヤマチ","prefecture_code":17},"0554":{"zip_code":"9220554","prefecture":"石川県","prefecture_kana":"イシカワケン","city":"加賀市","city_kana":"カガシ","town":"橋立町","town_kana":"ハシタテマチ","prefecture_code":17},"0432":{"zip_code":"9220432","prefecture":"石川県","prefecture_kana":"イシカワケン","city":"加賀市","city_kana":"カガシ","town":"東山田町","town_kana":"ヒガシヤマダマチ","prefecture_code":17},"0824":{"zip_code":"9220824","prefecture":"石川県","prefecture_kana":"イシカワケン","city":"加賀市","city_kana":"カガシ","town":"日谷町","town_kana":"ヒノヤマチ","prefecture_code":17},"0566":{"zip_code":"9220566","prefecture":"石川県","prefecture_kana":"イシカワケン","city":"加賀市","city_kana":"カガシ","town":"深田町","town_kana":"フカタマチ","prefecture_code":17},"0325":{"zip_code":"9220325","prefecture":"石川県","prefecture_kana":"イシカワケン","city":"加賀市","city_kana":"カガシ","town":"二子塚町","town_kana":"フタゴヅカマチ","prefecture_code":17},"0267":{"zip_code":"9220267","prefecture":"石川県","prefecture_kana":"イシカワケン","city":"加賀市","city_kana":"カガシ","town":"二ツ屋町","town_kana":"フタツヤマチ","prefecture_code":17},"0304":{"zip_code":"9220304","prefecture":"石川県","prefecture_kana":"イシカワケン","city":"加賀市","city_kana":"カガシ","town":"分校町","town_kana":"ブンギョウマチ","prefecture_code":17},"0274":{"zip_code":"9220274","prefecture":"石川県","prefecture_kana":"イシカワケン","city":"加賀市","city_kana":"カガシ","town":"別所町","town_kana":"ベッショマチ","prefecture_code":17},"0275":{"zip_code":"9220275","prefecture":"石川県","prefecture_kana":"イシカワケン","city":"加賀市","city_kana":"カガシ","town":"別所町（富士見ケ丘）","town_kana":"ベッショマチ(フジミガオカ)","prefecture_code":17},"0015":{"zip_code":"9220015","prefecture":"石川県","prefecture_kana":"イシカワケン","city":"加賀市","city_kana":"カガシ","town":"保賀町","town_kana":"ホウガマチ","prefecture_code":17},"0835":{"zip_code":"9220835","prefecture":"石川県","prefecture_kana":"イシカワケン","city":"加賀市","city_kana":"カガシ","town":"細坪町","town_kana":"ホソツボマチ","prefecture_code":17},"0436":{"zip_code":"9220436","prefecture":"石川県","prefecture_kana":"イシカワケン","city":"加賀市","city_kana":"カガシ","town":"松が丘","town_kana":"マツガオカ","prefecture_code":17},"0316":{"zip_code":"9220316","prefecture":"石川県","prefecture_kana":"イシカワケン","city":"加賀市","city_kana":"カガシ","town":"松山町","town_kana":"マツヤママチ","prefecture_code":17},"0854":{"zip_code":"9220854","prefecture":"石川県","prefecture_kana":"イシカワケン","city":"加賀市","city_kana":"カガシ","town":"三木町","town_kana":"ミキマチ","prefecture_code":17},"0551":{"zip_code":"9220551","prefecture":"石川県","prefecture_kana":"イシカワケン","city":"加賀市","city_kana":"カガシ","town":"美岬町","town_kana":"ミサキマチ","prefecture_code":17},"0265":{"zip_code":"9220265","prefecture":"石川県","prefecture_kana":"イシカワケン","city":"加賀市","city_kana":"カガシ","town":"水田丸町","town_kana":"ミズタマルマチ","prefecture_code":17},"0834":{"zip_code":"9220834","prefecture":"石川県","prefecture_kana":"イシカワケン","city":"加賀市","city_kana":"カガシ","town":"美谷が丘","town_kana":"ミタニガオカ","prefecture_code":17},"0444":{"zip_code":"9220444","prefecture":"石川県","prefecture_kana":"イシカワケン","city":"加賀市","city_kana":"カガシ","town":"宮地町","town_kana":"ミヤジマチ","prefecture_code":17},"0561":{"zip_code":"9220561","prefecture":"石川県","prefecture_kana":"イシカワケン","city":"加賀市","city_kana":"カガシ","town":"宮町","town_kana":"ミヤマチ","prefecture_code":17},"0321":{"zip_code":"9220321","prefecture":"石川県","prefecture_kana":"イシカワケン","city":"加賀市","city_kana":"カガシ","town":"森町","town_kana":"モリマチ","prefecture_code":17},"0242":{"zip_code":"9220242","prefecture":"石川県","prefecture_kana":"イシカワケン","city":"加賀市","city_kana":"カガシ","town":"山代温泉","town_kana":"ヤマシロオンセン","prefecture_code":17},"0247":{"zip_code":"9220247","prefecture":"石川県","prefecture_kana":"イシカワケン","city":"加賀市","city_kana":"カガシ","town":"山代温泉（上宮）","town_kana":"ヤマシロオンセン(ウワミヤ)","prefecture_code":17},"0254":{"zip_code":"9220254","prefecture":"石川県","prefecture_kana":"イシカワケン","city":"加賀市","city_kana":"カガシ","town":"山代温泉（温泉通り）","town_kana":"ヤマシロオンセン(オンセンドオリ)","prefecture_code":17},"0257":{"zip_code":"9220257","prefecture":"石川県","prefecture_kana":"イシカワケン","city":"加賀市","city_kana":"カガシ","town":"山代温泉（桔梗丘）","town_kana":"ヤマシロオンセン(キキョウガオカ)","prefecture_code":17},"0252":{"zip_code":"9220252","prefecture":"石川県","prefecture_kana":"イシカワケン","city":"加賀市","city_kana":"カガシ","town":"山代温泉（九谷町）","town_kana":"ヤマシロオンセン(クタニマチ)","prefecture_code":17},"0255":{"zip_code":"9220255","prefecture":"石川県","prefecture_kana":"イシカワケン","city":"加賀市","city_kana":"カガシ","town":"山代温泉（幸町）","town_kana":"ヤマシロオンセン(サイワイチョウ)","prefecture_code":17},"0244":{"zip_code":"9220244","prefecture":"石川県","prefecture_kana":"イシカワケン","city":"加賀市","city_kana":"カガシ","town":"山代温泉（神明町）","town_kana":"ヤマシロオンセン(シンメイチョウ)","prefecture_code":17},"0246":{"zip_code":"9220246","prefecture":"石川県","prefecture_kana":"イシカワケン","city":"加賀市","city_kana":"カガシ","town":"山代温泉（八幡）","town_kana":"ヤマシロオンセン(ハチマン)","prefecture_code":17},"0256":{"zip_code":"9220256","prefecture":"石川県","prefecture_kana":"イシカワケン","city":"加賀市","city_kana":"カガシ","town":"山代温泉（万松園通）","town_kana":"ヤマシロオンセン(バンショウエンドオリ)","prefecture_code":17},"0253":{"zip_code":"9220253","prefecture":"石川県","prefecture_kana":"イシカワケン","city":"加賀市","city_kana":"カガシ","town":"山代温泉（東山町）","town_kana":"ヤマシロオンセン(ヒガシヤママチ)","prefecture_code":17},"0243":{"zip_code":"9220243","prefecture":"石川県","prefecture_kana":"イシカワケン","city":"加賀市","city_kana":"カガシ","town":"山代温泉（北部）","town_kana":"ヤマシロオンセン(ホクブ)","prefecture_code":17},"0258":{"zip_code":"9220258","prefecture":"石川県","prefecture_kana":"イシカワケン","city":"加賀市","city_kana":"カガシ","town":"山代温泉（南町）","town_kana":"ヤマシロオンセン(ミナミチョウ)","prefecture_code":17},"0245":{"zip_code":"9220245","prefecture":"石川県","prefecture_kana":"イシカワケン","city":"加賀市","city_kana":"カガシ","town":"山代温泉（山背台）","town_kana":"ヤマシロオンセン(ヤマセダイ)","prefecture_code":17},"0251":{"zip_code":"9220251","prefecture":"石川県","prefecture_kana":"イシカワケン","city":"加賀市","city_kana":"カガシ","town":"山代温泉（大和町）","town_kana":"ヤマシロオンセン(ヤマトマチ)","prefecture_code":17},"0250":{"zip_code":"9220250","prefecture":"石川県","prefecture_kana":"イシカワケン","city":"加賀市","city_kana":"カガシ","town":"山代温泉桜町","town_kana":"ヤマシロオンセンサクラマチ","prefecture_code":17},"0431":{"zip_code":"9220431","prefecture":"石川県","prefecture_kana":"イシカワケン","city":"加賀市","city_kana":"カガシ","town":"山田町","town_kana":"ヤマダマチ","prefecture_code":17},"0104":{"zip_code":"9220104","prefecture":"石川県","prefecture_kana":"イシカワケン","city":"加賀市","city_kana":"カガシ","town":"山中温泉旭町","town_kana":"ヤマナカオンセンアサヒマチ","prefecture_code":17},"0134":[{"zip_code":"9220134","prefecture":"石川県","prefecture_kana":"イシカワケン","city":"加賀市","city_kana":"カガシ","town":"山中温泉荒谷町","town_kana":"ヤマナカオンセンアラタニマチ","prefecture_code":17},{"zip_code":"9220134","prefecture":"石川県","prefecture_kana":"イシカワケン","city":"加賀市","city_kana":"カガシ","town":"山中温泉菅生谷町","town_kana":"ヤマナカオンセンスゴウダニマチ","prefecture_code":17}],"0105":{"zip_code":"9220105","prefecture":"石川県","prefecture_kana":"イシカワケン","city":"加賀市","city_kana":"カガシ","town":"山中温泉泉町","town_kana":"ヤマナカオンセンイズミマチ","prefecture_code":17},"0135":[{"zip_code":"9220135","prefecture":"石川県","prefecture_kana":"イシカワケン","city":"加賀市","city_kana":"カガシ","town":"山中温泉今立町","town_kana":"ヤマナカオンセンイマダチマチ","prefecture_code":17},{"zip_code":"9220135","prefecture":"石川県","prefecture_kana":"イシカワケン","city":"加賀市","city_kana":"カガシ","town":"山中温泉大土町","town_kana":"ヤマナカオンセンオオヅチマチ","prefecture_code":17}],"0117":[{"zip_code":"9220117","prefecture":"石川県","prefecture_kana":"イシカワケン","city":"加賀市","city_kana":"カガシ","town":"山中温泉上野町（緑ケ丘）","town_kana":"ヤマナカオンセンウエノマチ(ミドリガオカ)","prefecture_code":17},{"zip_code":"9220117","prefecture":"石川県","prefecture_kana":"イシカワケン","city":"加賀市","city_kana":"カガシ","town":"山中温泉上野町（その他）","town_kana":"ヤマナカオンセンウエノマチ(ソノタ)","prefecture_code":17}],"0107":{"zip_code":"9220107","prefecture":"石川県","prefecture_kana":"イシカワケン","city":"加賀市","city_kana":"カガシ","town":"山中温泉上原町（漆器団地）","town_kana":"ヤマナカオンセンウワバラマチ(シツキダンチ)","prefecture_code":17},"0108":{"zip_code":"9220108","prefecture":"石川県","prefecture_kana":"イシカワケン","city":"加賀市","city_kana":"カガシ","town":"山中温泉上原町（しらさぎ団地）","town_kana":"ヤマナカオンセンウワバラマチ(シラサギダンチ)","prefecture_code":17},"0106":{"zip_code":"9220106","prefecture":"石川県","prefecture_kana":"イシカワケン","city":"加賀市","city_kana":"カガシ","town":"山中温泉上原町（その他）","town_kana":"ヤマナカオンセンウワバラマチ(ソノタ)","prefecture_code":17},"0126":{"zip_code":"9220126","prefecture":"石川県","prefecture_kana":"イシカワケン","city":"加賀市","city_kana":"カガシ","town":"山中温泉河鹿町","town_kana":"ヤマナカオンセンカジカマチ","prefecture_code":17},"0137":[{"zip_code":"9220137","prefecture":"石川県","prefecture_kana":"イシカワケン","city":"加賀市","city_kana":"カガシ","town":"山中温泉風谷町","town_kana":"ヤマナカオンセンカゼタニマチ","prefecture_code":17},{"zip_code":"9220137","prefecture":"石川県","prefecture_kana":"イシカワケン","city":"加賀市","city_kana":"カガシ","town":"山中温泉我谷町","town_kana":"ヤマナカオンセンワガタニマチ","prefecture_code":17}],"0118":{"zip_code":"9220118","prefecture":"石川県","prefecture_kana":"イシカワケン","city":"加賀市","city_kana":"カガシ","town":"山中温泉加美谷台","town_kana":"ヤマナカオンセンカミヤダイ","prefecture_code":17},"0138":{"zip_code":"9220138","prefecture":"石川県","prefecture_kana":"イシカワケン","city":"加賀市","city_kana":"カガシ","town":"山中温泉栢野町","town_kana":"ヤマナカオンセンカヤノマチ","prefecture_code":17},"0136":[{"zip_code":"9220136","prefecture":"石川県","prefecture_kana":"イシカワケン","city":"加賀市","city_kana":"カガシ","town":"山中温泉枯淵町","town_kana":"ヤマナカオンセンカレブチマチ","prefecture_code":17},{"zip_code":"9220136","prefecture":"石川県","prefecture_kana":"イシカワケン","city":"加賀市","city_kana":"カガシ","town":"山中温泉九谷町","town_kana":"ヤマナカオンセンクタニマチ","prefecture_code":17},{"zip_code":"9220136","prefecture":"石川県","prefecture_kana":"イシカワケン","city":"加賀市","city_kana":"カガシ","town":"山中温泉坂下町","town_kana":"ヤマナカオンセンサカノシモマチ","prefecture_code":17},{"zip_code":"9220136","prefecture":"石川県","prefecture_kana":"イシカワケン","city":"加賀市","city_kana":"カガシ","town":"山中温泉杉水町","town_kana":"ヤマナカオンセンスギノミズマチ","prefecture_code":17},{"zip_code":"9220136","prefecture":"石川県","prefecture_kana":"イシカワケン","city":"加賀市","city_kana":"カガシ","town":"山中温泉片谷町","town_kana":"ヤマナカオンセンヘキタニマチ","prefecture_code":17},{"zip_code":"9220136","prefecture":"石川県","prefecture_kana":"イシカワケン","city":"加賀市","city_kana":"カガシ","town":"山中温泉真砂町","town_kana":"ヤマナカオンセンマナゴマチ","prefecture_code":17}],"0128":{"zip_code":"9220128","prefecture":"石川県","prefecture_kana":"イシカワケン","city":"加賀市","city_kana":"カガシ","town":"山中温泉こおろぎ町","town_kana":"ヤマナカオンセンコオロギマチ","prefecture_code":17},"0125":{"zip_code":"9220125","prefecture":"石川県","prefecture_kana":"イシカワケン","city":"加賀市","city_kana":"カガシ","town":"山中温泉栄町","town_kana":"ヤマナカオンセンサカエマチ","prefecture_code":17},"0131":{"zip_code":"9220131","prefecture":"石川県","prefecture_kana":"イシカワケン","city":"加賀市","city_kana":"カガシ","town":"山中温泉四十九院町","town_kana":"ヤマナカオンセンシジュウクインマチ","prefecture_code":17},"0127":{"zip_code":"9220127","prefecture":"石川県","prefecture_kana":"イシカワケン","city":"加賀市","city_kana":"カガシ","town":"山中温泉下谷町","town_kana":"ヤマナカオンセンシモタニマチ","prefecture_code":17},"0139":{"zip_code":"9220139","prefecture":"石川県","prefecture_kana":"イシカワケン","city":"加賀市","city_kana":"カガシ","town":"山中温泉菅谷町","town_kana":"ヤマナカオンセンスガタニマチ","prefecture_code":17},"0133":{"zip_code":"9220133","prefecture":"石川県","prefecture_kana":"イシカワケン","city":"加賀市","city_kana":"カガシ","town":"山中温泉滝町","town_kana":"ヤマナカオンセンタキマチ","prefecture_code":17},"0111":{"zip_code":"9220111","prefecture":"石川県","prefecture_kana":"イシカワケン","city":"加賀市","city_kana":"カガシ","town":"山中温泉塚谷町","town_kana":"ヤマナカオンセンツカタニマチ","prefecture_code":17},"0101":[{"zip_code":"9220101","prefecture":"石川県","prefecture_kana":"イシカワケン","city":"加賀市","city_kana":"カガシ","town":"山中温泉中田町","town_kana":"ヤマナカオンセンナカダマチ","prefecture_code":17},{"zip_code":"9220101","prefecture":"石川県","prefecture_kana":"イシカワケン","city":"加賀市","city_kana":"カガシ","town":"山中温泉二天町","town_kana":"ヤマナカオンセンニテンマチ","prefecture_code":17}],"0132":{"zip_code":"9220132","prefecture":"石川県","prefecture_kana":"イシカワケン","city":"加賀市","city_kana":"カガシ","town":"山中温泉中津原町","town_kana":"ヤマナカオンセンナカツハラマチ","prefecture_code":17},"0112":{"zip_code":"9220112","prefecture":"石川県","prefecture_kana":"イシカワケン","city":"加賀市","city_kana":"カガシ","town":"山中温泉西桂木町","town_kana":"ヤマナカオンセンニシカツラギマチ","prefecture_code":17},"0116":{"zip_code":"9220116","prefecture":"石川県","prefecture_kana":"イシカワケン","city":"加賀市","city_kana":"カガシ","town":"山中温泉白山町","town_kana":"ヤマナカオンセンハクサンマチ","prefecture_code":17},"0102":{"zip_code":"9220102","prefecture":"石川県","prefecture_kana":"イシカワケン","city":"加賀市","city_kana":"カガシ","town":"山中温泉長谷田町（日の出団地）","town_kana":"ヤマナカオンセンハセダマチ(ヒノデダンチ)","prefecture_code":17},"0103":{"zip_code":"9220103","prefecture":"石川県","prefecture_kana":"イシカワケン","city":"加賀市","city_kana":"カガシ","town":"山中温泉長谷田町（その他）","town_kana":"ヤマナカオンセンハセダマチ(ソノタ)","prefecture_code":17},"0113":{"zip_code":"9220113","prefecture":"石川県","prefecture_kana":"イシカワケン","city":"加賀市","city_kana":"カガシ","town":"山中温泉東桂木町","town_kana":"ヤマナカオンセンヒガシカツラギマチ","prefecture_code":17},"0114":{"zip_code":"9220114","prefecture":"石川県","prefecture_kana":"イシカワケン","city":"加賀市","city_kana":"カガシ","town":"山中温泉東町","town_kana":"ヤマナカオンセンヒガシマチ","prefecture_code":17},"0121":{"zip_code":"9220121","prefecture":"石川県","prefecture_kana":"イシカワケン","city":"加賀市","city_kana":"カガシ","town":"山中温泉富士見町","town_kana":"ヤマナカオンセンフジミマチ","prefecture_code":17},"0115":{"zip_code":"9220115","prefecture":"石川県","prefecture_kana":"イシカワケン","city":"加賀市","city_kana":"カガシ","town":"山中温泉本町","town_kana":"ヤマナカオンセンホンマチ","prefecture_code":17},"0129":{"zip_code":"9220129","prefecture":"石川県","prefecture_kana":"イシカワケン","city":"加賀市","city_kana":"カガシ","town":"山中温泉南町","town_kana":"ヤマナカオンセンミナミマチ","prefecture_code":17},"0109":{"zip_code":"9220109","prefecture":"石川県","prefecture_kana":"イシカワケン","city":"加賀市","city_kana":"カガシ","town":"山中温泉宮の杜","town_kana":"ヤマナカオンセンミヤノモリ","prefecture_code":17},"0123":{"zip_code":"9220123","prefecture":"石川県","prefecture_kana":"イシカワケン","city":"加賀市","city_kana":"カガシ","town":"山中温泉薬師町","town_kana":"ヤマナカオンセンヤクシマチ","prefecture_code":17},"0124":{"zip_code":"9220124","prefecture":"石川県","prefecture_kana":"イシカワケン","city":"加賀市","city_kana":"カガシ","town":"山中温泉湯の出町","town_kana":"ヤマナカオンセンユノデマチ","prefecture_code":17},"0122":{"zip_code":"9220122","prefecture":"石川県","prefecture_kana":"イシカワケン","city":"加賀市","city_kana":"カガシ","town":"山中温泉湯の本町","town_kana":"ヤマナカオンセンユノホンマチ","prefecture_code":17},"0563":{"zip_code":"9220563","prefecture":"石川県","prefecture_kana":"イシカワケン","city":"加賀市","city_kana":"カガシ","town":"豊町","town_kana":"ユタカマチ","prefecture_code":17},"0422":{"zip_code":"9220422","prefecture":"石川県","prefecture_kana":"イシカワケン","city":"加賀市","city_kana":"カガシ","town":"弓波町","town_kana":"ユミナミマチ","prefecture_code":17},"0336":{"zip_code":"9220336","prefecture":"石川県","prefecture_kana":"イシカワケン","city":"加賀市","city_kana":"カガシ","town":"八日市町","town_kana":"ヨウカイチマチ","prefecture_code":17},"0261":{"zip_code":"9220261","prefecture":"石川県","prefecture_kana":"イシカワケン","city":"加賀市","city_kana":"カガシ","town":"横北町","town_kana":"ヨコギタマチ","prefecture_code":17},"0672":{"zip_code":"9220672","prefecture":"石川県","prefecture_kana":"イシカワケン","city":"加賀市","city_kana":"カガシ","town":"吉崎町","town_kana":"ヨシザキマチ","prefecture_code":17},"0323":{"zip_code":"9220323","prefecture":"石川県","prefecture_kana":"イシカワケン","city":"加賀市","city_kana":"カガシ","town":"若葉台","town_kana":"ワカバダイ","prefecture_code":17},"0679":{"zip_code":"9220679","prefecture":"福井県","prefecture_kana":"フクイケン","city":"あわら市","city_kana":"アワラシ","town":"吉崎","town_kana":"ヨシザキ","prefecture_code":18}}