{"0000":{"zip_code":"9230000","prefecture":"石川県","prefecture_kana":"イシカワケン","city":"小松市","city_kana":"コマツシ","town":"","town_kana":"","prefecture_code":17},"0946":{"zip_code":"9230946","prefecture":"石川県","prefecture_kana":"イシカワケン","city":"小松市","city_kana":"コマツシ","town":"相生町","town_kana":"アイオイマチ","prefecture_code":17},"0967":{"zip_code":"9230967","prefecture":"石川県","prefecture_kana":"イシカワケン","city":"小松市","city_kana":"コマツシ","town":"青路町","town_kana":"アオジチョウ","prefecture_code":17},"0185":{"zip_code":"9230185","prefecture":"石川県","prefecture_kana":"イシカワケン","city":"小松市","city_kana":"コマツシ","town":"赤瀬町","town_kana":"アカゼマチ","prefecture_code":17},"0187":{"zip_code":"9230187","prefecture":"石川県","prefecture_kana":"イシカワケン","city":"小松市","city_kana":"コマツシ","town":"上リ江町","town_kana":"アガリエマチ","prefecture_code":17},"0035":{"zip_code":"9230035","prefecture":"石川県","prefecture_kana":"イシカワケン","city":"小松市","city_kana":"コマツシ","town":"あけぼの町","town_kana":"アケボノマチ","prefecture_code":17},"0953":{"zip_code":"9230953","prefecture":"石川県","prefecture_kana":"イシカワケン","city":"小松市","city_kana":"コマツシ","town":"旭町","town_kana":"アサヒマチ","prefecture_code":17},"0938":{"zip_code":"9230938","prefecture":"石川県","prefecture_kana":"イシカワケン","city":"小松市","city_kana":"コマツシ","town":"芦田町","town_kana":"アシダマチ","prefecture_code":17},"0995":{"zip_code":"9230995","prefecture":"石川県","prefecture_kana":"イシカワケン","city":"小松市","city_kana":"コマツシ","town":"安宅新町","town_kana":"アタカシンマチ","prefecture_code":17},"0003":{"zip_code":"9230003","prefecture":"石川県","prefecture_kana":"イシカワケン","city":"小松市","city_kana":"コマツシ","town":"安宅町","town_kana":"アタカマチ","prefecture_code":17},"0922":{"zip_code":"9230922","prefecture":"石川県","prefecture_kana":"イシカワケン","city":"小松市","city_kana":"コマツシ","town":"飴屋町","town_kana":"アメヤマチ","prefecture_code":17},"0823":{"zip_code":"9230823","prefecture":"石川県","prefecture_kana":"イシカワケン","city":"小松市","city_kana":"コマツシ","town":"荒木田町","town_kana":"アラキダマチ","prefecture_code":17},"0078":[{"zip_code":"9230078","prefecture":"石川県","prefecture_kana":"イシカワケン","city":"小松市","city_kana":"コマツシ","town":"嵐町","town_kana":"アラシマチ","prefecture_code":17},{"zip_code":"9230078","prefecture":"石川県","prefecture_kana":"イシカワケン","city":"小松市","city_kana":"コマツシ","town":"中ノ峠町","town_kana":"ナカノトウゲマチ","prefecture_code":17}],"0032":{"zip_code":"9230032","prefecture":"石川県","prefecture_kana":"イシカワケン","city":"小松市","city_kana":"コマツシ","town":"荒屋町","town_kana":"アラヤマチ","prefecture_code":17},"0864":{"zip_code":"9230864","prefecture":"石川県","prefecture_kana":"イシカワケン","city":"小松市","city_kana":"コマツシ","town":"有明町","town_kana":"アリアケマチ","prefecture_code":17},"0326":[{"zip_code":"9230326","prefecture":"石川県","prefecture_kana":"イシカワケン","city":"小松市","city_kana":"コマツシ","town":"粟津温泉","town_kana":"アワヅオンセン","prefecture_code":17},{"zip_code":"9230326","prefecture":"石川県","prefecture_kana":"イシカワケン","city":"小松市","city_kana":"コマツシ","town":"粟津町","town_kana":"アワヅマチ","prefecture_code":17}],"0943":{"zip_code":"9230943","prefecture":"石川県","prefecture_kana":"イシカワケン","city":"小松市","city_kana":"コマツシ","town":"育成町","town_kana":"イクセイマチ","prefecture_code":17},"0161":{"zip_code":"9230161","prefecture":"石川県","prefecture_kana":"イシカワケン","city":"小松市","city_kana":"コマツシ","town":"池城町","town_kana":"イケノジョウマチ","prefecture_code":17},"0901":{"zip_code":"9230901","prefecture":"石川県","prefecture_kana":"イシカワケン","city":"小松市","city_kana":"コマツシ","town":"泉町","town_kana":"イズミマチ","prefecture_code":17},"0813":{"zip_code":"9230813","prefecture":"石川県","prefecture_kana":"イシカワケン","city":"小松市","city_kana":"コマツシ","town":"糸町","town_kana":"イトマチ","prefecture_code":17},"0015":{"zip_code":"9230015","prefecture":"石川県","prefecture_kana":"イシカワケン","city":"小松市","city_kana":"コマツシ","town":"犬丸町","town_kana":"イヌマルマチ","prefecture_code":17},"0316":{"zip_code":"9230316","prefecture":"石川県","prefecture_kana":"イシカワケン","city":"小松市","city_kana":"コマツシ","town":"井口町","town_kana":"イノクチマチ","prefecture_code":17},"0964":{"zip_code":"9230964","prefecture":"石川県","prefecture_kana":"イシカワケン","city":"小松市","city_kana":"コマツシ","town":"今江町","town_kana":"イマエマチ","prefecture_code":17},"0177":{"zip_code":"9230177","prefecture":"石川県","prefecture_kana":"イシカワケン","city":"小松市","city_kana":"コマツシ","town":"岩上町","town_kana":"イワガミマチ","prefecture_code":17},"0073":{"zip_code":"9230073","prefecture":"石川県","prefecture_kana":"イシカワケン","city":"小松市","city_kana":"コマツシ","town":"岩渕町","town_kana":"イワブチマチ","prefecture_code":17},"0063":{"zip_code":"9230063","prefecture":"石川県","prefecture_kana":"イシカワケン","city":"小松市","city_kana":"コマツシ","town":"鵜川町","town_kana":"ウガワマチ","prefecture_code":17},"0908":{"zip_code":"9230908","prefecture":"石川県","prefecture_kana":"イシカワケン","city":"小松市","city_kana":"コマツシ","town":"浮城町","town_kana":"ウキシロマチ","prefecture_code":17},"0993":{"zip_code":"9230993","prefecture":"石川県","prefecture_kana":"イシカワケン","city":"小松市","city_kana":"コマツシ","town":"浮柳町","town_kana":"ウキヤナギマチ","prefecture_code":17},"0831":{"zip_code":"9230831","prefecture":"石川県","prefecture_kana":"イシカワケン","city":"小松市","city_kana":"コマツシ","town":"打越町","town_kana":"ウチコシマチ","prefecture_code":17},"0184":{"zip_code":"9230184","prefecture":"石川県","prefecture_kana":"イシカワケン","city":"小松市","city_kana":"コマツシ","town":"打木町","town_kana":"ウツギマチ","prefecture_code":17},"0023":{"zip_code":"9230023","prefecture":"石川県","prefecture_kana":"イシカワケン","city":"小松市","city_kana":"コマツシ","town":"梅田町","town_kana":"ウメダマチ","prefecture_code":17},"0812":[{"zip_code":"9230812","prefecture":"石川県","prefecture_kana":"イシカワケン","city":"小松市","city_kana":"コマツシ","town":"漆町","town_kana":"ウルシマチ","prefecture_code":17},{"zip_code":"9230812","prefecture":"石川県","prefecture_kana":"イシカワケン","city":"小松市","city_kana":"コマツシ","town":"金屋町","town_kana":"カナヤマチ","prefecture_code":17}],"0155":{"zip_code":"9230155","prefecture":"石川県","prefecture_kana":"イシカワケン","city":"小松市","city_kana":"コマツシ","town":"江指町","town_kana":"エサシマチ","prefecture_code":17},"0853":{"zip_code":"9230853","prefecture":"石川県","prefecture_kana":"イシカワケン","city":"小松市","city_kana":"コマツシ","town":"扇町","town_kana":"オウギマチ","prefecture_code":17},"0973":{"zip_code":"9230973","prefecture":"石川県","prefecture_kana":"イシカワケン","city":"小松市","city_kana":"コマツシ","town":"扇原町","town_kana":"オウギハラマチ","prefecture_code":17},"0911":{"zip_code":"9230911","prefecture":"石川県","prefecture_kana":"イシカワケン","city":"小松市","city_kana":"コマツシ","town":"大川町","town_kana":"オオカワマチ","prefecture_code":17},"0001":{"zip_code":"9230001","prefecture":"石川県","prefecture_kana":"イシカワケン","city":"小松市","city_kana":"コマツシ","town":"大島町","town_kana":"オオシママチ","prefecture_code":17},"0186":{"zip_code":"9230186","prefecture":"石川県","prefecture_kana":"イシカワケン","city":"小松市","city_kana":"コマツシ","town":"大杉町","town_kana":"オオスギマチ","prefecture_code":17},"0156":{"zip_code":"9230156","prefecture":"石川県","prefecture_kana":"イシカワケン","city":"小松市","city_kana":"コマツシ","town":"大野町","town_kana":"オオノマチ","prefecture_code":17},"0861":{"zip_code":"9230861","prefecture":"石川県","prefecture_kana":"イシカワケン","city":"小松市","city_kana":"コマツシ","town":"沖町","town_kana":"オキマチ","prefecture_code":17},"0172":{"zip_code":"9230172","prefecture":"石川県","prefecture_kana":"イシカワケン","city":"小松市","city_kana":"コマツシ","town":"尾小屋町","town_kana":"オゴヤマチ","prefecture_code":17},"0016":{"zip_code":"9230016","prefecture":"石川県","prefecture_kana":"イシカワケン","city":"小松市","city_kana":"コマツシ","town":"御館町","town_kana":"オタチマチ","prefecture_code":17},"0054":{"zip_code":"9230054","prefecture":"石川県","prefecture_kana":"イシカワケン","city":"小松市","city_kana":"コマツシ","town":"小野町","town_kana":"オノマチ","prefecture_code":17},"0314":{"zip_code":"9230314","prefecture":"石川県","prefecture_kana":"イシカワケン","city":"小松市","city_kana":"コマツシ","town":"おびし町","town_kana":"オビシマチ","prefecture_code":17},"0805":{"zip_code":"9230805","prefecture":"石川県","prefecture_kana":"イシカワケン","city":"小松市","city_kana":"コマツシ","town":"御宮町","town_kana":"オミヤマチ","prefecture_code":17},"0028":{"zip_code":"9230028","prefecture":"石川県","prefecture_kana":"イシカワケン","city":"小松市","city_kana":"コマツシ","town":"梯町","town_kana":"カケハシマチ","prefecture_code":17},"0341":{"zip_code":"9230341","prefecture":"石川県","prefecture_kana":"イシカワケン","city":"小松市","city_kana":"コマツシ","town":"春日町","town_kana":"カスガチョウ","prefecture_code":17},"0074":{"zip_code":"9230074","prefecture":"石川県","prefecture_kana":"イシカワケン","city":"小松市","city_kana":"コマツシ","town":"桂町","town_kana":"カツラマチ","prefecture_code":17},"0171":{"zip_code":"9230171","prefecture":"石川県","prefecture_kana":"イシカワケン","city":"小松市","city_kana":"コマツシ","town":"観音下町","town_kana":"カナガソマチ","prefecture_code":17},"0154":{"zip_code":"9230154","prefecture":"石川県","prefecture_kana":"イシカワケン","city":"小松市","city_kana":"コマツシ","town":"金野町","town_kana":"カネノマチ","prefecture_code":17},"0153":{"zip_code":"9230153","prefecture":"石川県","prefecture_kana":"イシカワケン","city":"小松市","city_kana":"コマツシ","town":"金平町","town_kana":"カナヒラマチ","prefecture_code":17},"0331":{"zip_code":"9230331","prefecture":"石川県","prefecture_kana":"イシカワケン","city":"小松市","city_kana":"コマツシ","town":"上荒屋町","town_kana":"カミアラヤマチ","prefecture_code":17},"0802":{"zip_code":"9230802","prefecture":"石川県","prefecture_kana":"イシカワケン","city":"小松市","city_kana":"コマツシ","town":"上小松町","town_kana":"カミコマツマチ","prefecture_code":17},"0935":{"zip_code":"9230935","prefecture":"石川県","prefecture_kana":"イシカワケン","city":"小松市","city_kana":"コマツシ","town":"上寺町","town_kana":"カミデラマチ","prefecture_code":17},"0027":{"zip_code":"9230027","prefecture":"石川県","prefecture_kana":"イシカワケン","city":"小松市","city_kana":"コマツシ","town":"上牧町","town_kana":"カミマキマチ","prefecture_code":17},"0077":{"zip_code":"9230077","prefecture":"石川県","prefecture_kana":"イシカワケン","city":"小松市","city_kana":"コマツシ","town":"上麦口町","town_kana":"カミムギクチマチ","prefecture_code":17},"0955":{"zip_code":"9230955","prefecture":"石川県","prefecture_kana":"イシカワケン","city":"小松市","city_kana":"コマツシ","town":"上本折町","town_kana":"カミモトオリマチ","prefecture_code":17},"0051":{"zip_code":"9230051","prefecture":"石川県","prefecture_kana":"イシカワケン","city":"小松市","city_kana":"コマツシ","town":"上八里町","town_kana":"カミヤサトマチ","prefecture_code":17},"0824":{"zip_code":"9230824","prefecture":"石川県","prefecture_kana":"イシカワケン","city":"小松市","city_kana":"コマツシ","town":"軽海町","town_kana":"カルミマチ","prefecture_code":17},"0044":{"zip_code":"9230044","prefecture":"石川県","prefecture_kana":"イシカワケン","city":"小松市","city_kana":"コマツシ","town":"川辺町","town_kana":"カワベマチ","prefecture_code":17},"0991":{"zip_code":"9230991","prefecture":"石川県","prefecture_kana":"イシカワケン","city":"小松市","city_kana":"コマツシ","town":"木曽町","town_kana":"キソマチ","prefecture_code":17},"0851":{"zip_code":"9230851","prefecture":"石川県","prefecture_kana":"イシカワケン","city":"小松市","city_kana":"コマツシ","town":"北浅井町","town_kana":"キタアサイマチ","prefecture_code":17},"0312":{"zip_code":"9230312","prefecture":"石川県","prefecture_kana":"イシカワケン","city":"小松市","city_kana":"コマツシ","town":"木場台","town_kana":"キバダイ","prefecture_code":17},"0311":{"zip_code":"9230311","prefecture":"石川県","prefecture_kana":"イシカワケン","city":"小松市","city_kana":"コマツシ","town":"木場町","town_kana":"キバマチ","prefecture_code":17},"0826":{"zip_code":"9230826","prefecture":"石川県","prefecture_kana":"イシカワケン","city":"小松市","city_kana":"コマツシ","town":"希望丘","town_kana":"キボウガオカ","prefecture_code":17},"0918":{"zip_code":"9230918","prefecture":"石川県","prefecture_kana":"イシカワケン","city":"小松市","city_kana":"コマツシ","town":"京町","town_kana":"キョウマチ","prefecture_code":17},"0996":{"zip_code":"9230996","prefecture":"石川県","prefecture_kana":"イシカワケン","city":"小松市","city_kana":"コマツシ","town":"草野町","town_kana":"クサノマチ","prefecture_code":17},"0966":{"zip_code":"9230966","prefecture":"石川県","prefecture_kana":"イシカワケン","city":"小松市","city_kana":"コマツシ","town":"串茶屋町","town_kana":"クシチャヤマチ","prefecture_code":17},"0965":[{"zip_code":"9230965","prefecture":"石川県","prefecture_kana":"イシカワケン","city":"小松市","city_kana":"コマツシ","town":"串町","town_kana":"クシマチ","prefecture_code":17},{"zip_code":"9230965","prefecture":"石川県","prefecture_kana":"イシカワケン","city":"小松市","city_kana":"コマツシ","town":"野立町","town_kana":"ノダチマチ","prefecture_code":17}],"0994":{"zip_code":"9230994","prefecture":"石川県","prefecture_kana":"イシカワケン","city":"小松市","city_kana":"コマツシ","town":"工業団地","town_kana":"コウギョウダンチ","prefecture_code":17},"0053":{"zip_code":"9230053","prefecture":"石川県","prefecture_kana":"イシカワケン","city":"小松市","city_kana":"コマツシ","town":"河田町","town_kana":"コウダマチ","prefecture_code":17},"0822":{"zip_code":"9230822","prefecture":"石川県","prefecture_kana":"イシカワケン","city":"小松市","city_kana":"コマツシ","town":"光陽町","town_kana":"コウヨウマチ","prefecture_code":17},"0061":{"zip_code":"9230061","prefecture":"石川県","prefecture_kana":"イシカワケン","city":"小松市","city_kana":"コマツシ","town":"国府台","town_kana":"コクフダイ","prefecture_code":17},"0152":{"zip_code":"9230152","prefecture":"石川県","prefecture_kana":"イシカワケン","city":"小松市","city_kana":"コマツシ","town":"五国寺町","town_kana":"ゴコウジマチ","prefecture_code":17},"0002":{"zip_code":"9230002","prefecture":"石川県","prefecture_kana":"イシカワケン","city":"小松市","city_kana":"コマツシ","town":"小島町","town_kana":"コジママチ","prefecture_code":17},"0902":{"zip_code":"9230902","prefecture":"石川県","prefecture_kana":"イシカワケン","city":"小松市","city_kana":"コマツシ","town":"古城町","town_kana":"コジョウマチ","prefecture_code":17},"0806":{"zip_code":"9230806","prefecture":"石川県","prefecture_kana":"イシカワケン","city":"小松市","city_kana":"コマツシ","town":"小寺町","town_kana":"コデラマチ","prefecture_code":17},"0055":{"zip_code":"9230055","prefecture":"石川県","prefecture_kana":"イシカワケン","city":"小松市","city_kana":"コマツシ","town":"古府町","town_kana":"コフマチ","prefecture_code":17},"0315":{"zip_code":"9230315","prefecture":"石川県","prefecture_kana":"イシカワケン","city":"小松市","city_kana":"コマツシ","town":"小山田町","town_kana":"コヤマダマチ","prefecture_code":17},"0904":{"zip_code":"9230904","prefecture":"石川県","prefecture_kana":"イシカワケン","city":"小松市","city_kana":"コマツシ","town":"小馬出町","town_kana":"コンマデマチ","prefecture_code":17},"0915":{"zip_code":"9230915","prefecture":"石川県","prefecture_kana":"イシカワケン","city":"小松市","city_kana":"コマツシ","town":"細工町","town_kana":"サイクチョウ","prefecture_code":17},"0916":{"zip_code":"9230916","prefecture":"石川県","prefecture_kana":"イシカワケン","city":"小松市","city_kana":"コマツシ","town":"材木町","town_kana":"ザイモクチョウ","prefecture_code":17},"0867":{"zip_code":"9230867","prefecture":"石川県","prefecture_kana":"イシカワケン","city":"小松市","city_kana":"コマツシ","town":"幸町","town_kana":"サイワイチョウ","prefecture_code":17},"0934":{"zip_code":"9230934","prefecture":"石川県","prefecture_kana":"イシカワケン","city":"小松市","city_kana":"コマツシ","town":"栄町","town_kana":"サカエマチ","prefecture_code":17},"0942":{"zip_code":"9230942","prefecture":"石川県","prefecture_kana":"イシカワケン","city":"小松市","city_kana":"コマツシ","town":"桜木町","town_kana":"サクラギチョウ","prefecture_code":17},"0821":{"zip_code":"9230821","prefecture":"石川県","prefecture_kana":"イシカワケン","city":"小松市","city_kana":"コマツシ","town":"佐々木町","town_kana":"ササキマチ","prefecture_code":17},"0062":{"zip_code":"9230062","prefecture":"石川県","prefecture_kana":"イシカワケン","city":"小松市","city_kana":"コマツシ","town":"里川町","town_kana":"サトカワマチ","prefecture_code":17},"0984":{"zip_code":"9230984","prefecture":"石川県","prefecture_kana":"イシカワケン","city":"小松市","city_kana":"コマツシ","town":"佐美町","town_kana":"サミマチ","prefecture_code":17},"0165":{"zip_code":"9230165","prefecture":"石川県","prefecture_kana":"イシカワケン","city":"小松市","city_kana":"コマツシ","town":"沢町","town_kana":"サワマチ","prefecture_code":17},"0844":{"zip_code":"9230844","prefecture":"石川県","prefecture_kana":"イシカワケン","city":"小松市","city_kana":"コマツシ","town":"三谷町","town_kana":"サンダニマチ","prefecture_code":17},"0163":{"zip_code":"9230163","prefecture":"石川県","prefecture_kana":"イシカワケン","city":"小松市","city_kana":"コマツシ","town":"塩原町","town_kana":"シオハラマチ","prefecture_code":17},"0836":{"zip_code":"9230836","prefecture":"石川県","prefecture_kana":"イシカワケン","city":"小松市","city_kana":"コマツシ","town":"鹿町","town_kana":"シカマチ","prefecture_code":17},"0905":[{"zip_code":"9230905","prefecture":"石川県","prefecture_kana":"イシカワケン","city":"小松市","city_kana":"コマツシ","town":"地子町","town_kana":"ジシマチ","prefecture_code":17},{"zip_code":"9230905","prefecture":"石川県","prefecture_kana":"イシカワケン","city":"小松市","city_kana":"コマツシ","town":"鷹匠町","town_kana":"タカジョウマチ","prefecture_code":17}],"0971":{"zip_code":"9230971","prefecture":"石川県","prefecture_kana":"イシカワケン","city":"小松市","city_kana":"コマツシ","town":"四丁町","town_kana":"シチョウマチ","prefecture_code":17},"0021":{"zip_code":"9230021","prefecture":"石川県","prefecture_kana":"イシカワケン","city":"小松市","city_kana":"コマツシ","town":"島田町","town_kana":"シマダマチ","prefecture_code":17},"0303":{"zip_code":"9230303","prefecture":"石川県","prefecture_kana":"イシカワケン","city":"小松市","city_kana":"コマツシ","town":"島町","town_kana":"シママチ","prefecture_code":17},"0958":{"zip_code":"9230958","prefecture":"石川県","prefecture_kana":"イシカワケン","city":"小松市","city_kana":"コマツシ","town":"清水町","town_kana":"シミズマチ","prefecture_code":17},"0304":{"zip_code":"9230304","prefecture":"石川県","prefecture_kana":"イシカワケン","city":"小松市","city_kana":"コマツシ","town":"下粟津町","town_kana":"シモアワヅマチ","prefecture_code":17},"0026":{"zip_code":"9230026","prefecture":"石川県","prefecture_kana":"イシカワケン","city":"小松市","city_kana":"コマツシ","town":"下牧町","town_kana":"シモマキマチ","prefecture_code":17},"0052":{"zip_code":"9230052","prefecture":"石川県","prefecture_kana":"イシカワケン","city":"小松市","city_kana":"コマツシ","town":"下八里町","town_kana":"シモヤサトマチ","prefecture_code":17},"0941":{"zip_code":"9230941","prefecture":"石川県","prefecture_kana":"イシカワケン","city":"小松市","city_kana":"コマツシ","town":"城南町","town_kana":"ジョウナンマチ","prefecture_code":17},"0013":{"zip_code":"9230013","prefecture":"石川県","prefecture_kana":"イシカワケン","city":"小松市","city_kana":"コマツシ","town":"城北町","town_kana":"ジョウホクマチ","prefecture_code":17},"0151":{"zip_code":"9230151","prefecture":"石川県","prefecture_kana":"イシカワケン","city":"小松市","city_kana":"コマツシ","town":"正蓮寺町","town_kana":"ショウレンジマチ","prefecture_code":17},"0811":{"zip_code":"9230811","prefecture":"石川県","prefecture_kana":"イシカワケン","city":"小松市","city_kana":"コマツシ","town":"白江町","town_kana":"シラエマチ","prefecture_code":17},"0866":{"zip_code":"9230866","prefecture":"石川県","prefecture_kana":"イシカワケン","city":"小松市","city_kana":"コマツシ","town":"白嶺町","town_kana":"シラネマチ","prefecture_code":17},"0814":{"zip_code":"9230814","prefecture":"石川県","prefecture_kana":"イシカワケン","city":"小松市","city_kana":"コマツシ","town":"白松町","town_kana":"シラマツマチ","prefecture_code":17},"0321":{"zip_code":"9230321","prefecture":"石川県","prefecture_kana":"イシカワケン","city":"小松市","city_kana":"コマツシ","town":"白山田町","town_kana":"シラヤマダマチ","prefecture_code":17},"0914":{"zip_code":"9230914","prefecture":"石川県","prefecture_kana":"イシカワケン","city":"小松市","city_kana":"コマツシ","town":"新鍛冶町","town_kana":"シンカジマチ","prefecture_code":17},"0906":{"zip_code":"9230906","prefecture":"石川県","prefecture_kana":"イシカワケン","city":"小松市","city_kana":"コマツシ","town":"新大工町","town_kana":"シンダイクチョウ","prefecture_code":17},"0175":{"zip_code":"9230175","prefecture":"石川県","prefecture_kana":"イシカワケン","city":"小松市","city_kana":"コマツシ","town":"新保町","town_kana":"シンボマチ","prefecture_code":17},"0912":{"zip_code":"9230912","prefecture":"石川県","prefecture_kana":"イシカワケン","city":"小松市","city_kana":"コマツシ","town":"新町","town_kana":"シンマチ","prefecture_code":17},"0963":{"zip_code":"9230963","prefecture":"石川県","prefecture_kana":"イシカワケン","city":"小松市","city_kana":"コマツシ","town":"須天町","town_kana":"スアママチ","prefecture_code":17},"0945":{"zip_code":"9230945","prefecture":"石川県","prefecture_kana":"イシカワケン","city":"小松市","city_kana":"コマツシ","town":"末広町","town_kana":"スエヒロマチ","prefecture_code":17},"0183":{"zip_code":"9230183","prefecture":"石川県","prefecture_kana":"イシカワケン","city":"小松市","city_kana":"コマツシ","town":"瀬領町","town_kana":"セイリョマチ","prefecture_code":17},"0862":[{"zip_code":"9230862","prefecture":"石川県","prefecture_kana":"イシカワケン","city":"小松市","city_kana":"コマツシ","town":"清六町","town_kana":"セイロクマチ","prefecture_code":17},{"zip_code":"9230862","prefecture":"石川県","prefecture_kana":"イシカワケン","city":"小松市","city_kana":"コマツシ","town":"三田町","town_kana":"ミタマチ","prefecture_code":17}],"0834":{"zip_code":"9230834","prefecture":"石川県","prefecture_kana":"イシカワケン","city":"小松市","city_kana":"コマツシ","town":"千木野町","town_kana":"セギノマチ","prefecture_code":17},"0041":{"zip_code":"9230041","prefecture":"石川県","prefecture_kana":"イシカワケン","city":"小松市","city_kana":"コマツシ","town":"千代町","town_kana":"センダイマチ","prefecture_code":17},"0801":{"zip_code":"9230801","prefecture":"石川県","prefecture_kana":"イシカワケン","city":"小松市","city_kana":"コマツシ","town":"園町","town_kana":"ソノマチ","prefecture_code":17},"0931":{"zip_code":"9230931","prefecture":"石川県","prefecture_kana":"イシカワケン","city":"小松市","city_kana":"コマツシ","town":"大文字町","town_kana":"ダイモンジチョウ","prefecture_code":17},"0962":{"zip_code":"9230962","prefecture":"石川県","prefecture_kana":"イシカワケン","city":"小松市","city_kana":"コマツシ","town":"大領中町","town_kana":"ダイリョウナカマチ","prefecture_code":17},"0854":{"zip_code":"9230854","prefecture":"石川県","prefecture_kana":"イシカワケン","city":"小松市","city_kana":"コマツシ","town":"大領町","town_kana":"ダイリョウマチ","prefecture_code":17},"0803":{"zip_code":"9230803","prefecture":"石川県","prefecture_kana":"イシカワケン","city":"小松市","city_kana":"コマツシ","town":"宝町","town_kana":"タカラマチ","prefecture_code":17},"0031":{"zip_code":"9230031","prefecture":"石川県","prefecture_kana":"イシカワケン","city":"小松市","city_kana":"コマツシ","town":"高堂町","town_kana":"タカンドウマチ","prefecture_code":17},"0335":{"zip_code":"9230335","prefecture":"石川県","prefecture_kana":"イシカワケン","city":"小松市","city_kana":"コマツシ","town":"滝ケ原町","town_kana":"タキガハラマチ","prefecture_code":17},"0981":{"zip_code":"9230981","prefecture":"石川県","prefecture_kana":"イシカワケン","city":"小松市","city_kana":"コマツシ","town":"拓栄町","town_kana":"タクエイマチ","prefecture_code":17},"0024":{"zip_code":"9230024","prefecture":"石川県","prefecture_kana":"イシカワケン","city":"小松市","city_kana":"コマツシ","town":"茶屋町","town_kana":"チャヤマチ","prefecture_code":17},"0972":{"zip_code":"9230972","prefecture":"石川県","prefecture_kana":"イシカワケン","city":"小松市","city_kana":"コマツシ","town":"月津町","town_kana":"ツキヅマチ","prefecture_code":17},"0974":{"zip_code":"9230974","prefecture":"石川県","prefecture_kana":"イシカワケン","city":"小松市","city_kana":"コマツシ","town":"月美丘","town_kana":"ツキミガオカ","prefecture_code":17},"0313":{"zip_code":"9230313","prefecture":"石川県","prefecture_kana":"イシカワケン","city":"小松市","city_kana":"コマツシ","town":"津波倉町","town_kana":"ツバクラマチ","prefecture_code":17},"0992":{"zip_code":"9230992","prefecture":"石川県","prefecture_kana":"イシカワケン","city":"小松市","city_kana":"コマツシ","town":"鶴ケ島町","town_kana":"ツルガシママチ","prefecture_code":17},"0932":{"zip_code":"9230932","prefecture":"石川県","prefecture_kana":"イシカワケン","city":"小松市","city_kana":"コマツシ","town":"寺町","town_kana":"テラマチ","prefecture_code":17},"0025":{"zip_code":"9230025","prefecture":"石川県","prefecture_kana":"イシカワケン","city":"小松市","city_kana":"コマツシ","town":"天神町","town_kana":"テンジンマチ","prefecture_code":17},"0921":{"zip_code":"9230921","prefecture":"石川県","prefecture_kana":"イシカワケン","city":"小松市","city_kana":"コマツシ","town":"土居原町","town_kana":"ドイハラマチ","prefecture_code":17},"0327":{"zip_code":"9230327","prefecture":"石川県","prefecture_kana":"イシカワケン","city":"小松市","city_kana":"コマツシ","town":"戸津町","town_kana":"トヅマチ","prefecture_code":17},"0919":{"zip_code":"9230919","prefecture":"石川県","prefecture_kana":"イシカワケン","city":"小松市","city_kana":"コマツシ","town":"殿町","town_kana":"トノマチ","prefecture_code":17},"0037":{"zip_code":"9230037","prefecture":"石川県","prefecture_kana":"イシカワケン","city":"小松市","city_kana":"コマツシ","town":"問屋町","town_kana":"トンヤマチ","prefecture_code":17},"0071":{"zip_code":"9230071","prefecture":"石川県","prefecture_kana":"イシカワケン","city":"小松市","city_kana":"コマツシ","town":"中海町","town_kana":"ナカウミマチ","prefecture_code":17},"0917":{"zip_code":"9230917","prefecture":"石川県","prefecture_kana":"イシカワケン","city":"小松市","city_kana":"コマツシ","town":"中町","town_kana":"ナカマチ","prefecture_code":17},"0004":{"zip_code":"9230004","prefecture":"石川県","prefecture_kana":"イシカワケン","city":"小松市","city_kana":"コマツシ","town":"長崎町","town_kana":"ナガサキマチ","prefecture_code":17},"0181":{"zip_code":"9230181","prefecture":"石川県","prefecture_kana":"イシカワケン","city":"小松市","city_kana":"コマツシ","town":"長谷町","town_kana":"ナガタニマチ","prefecture_code":17},"0034":{"zip_code":"9230034","prefecture":"石川県","prefecture_kana":"イシカワケン","city":"小松市","city_kana":"コマツシ","town":"長田町","town_kana":"ナガダマチ","prefecture_code":17},"0336":{"zip_code":"9230336","prefecture":"石川県","prefecture_kana":"イシカワケン","city":"小松市","city_kana":"コマツシ","town":"那谷町","town_kana":"ナタマチ","prefecture_code":17},"0328":{"zip_code":"9230328","prefecture":"石川県","prefecture_kana":"イシカワケン","city":"小松市","city_kana":"コマツシ","town":"南陽町","town_kana":"ナンヨウマチ","prefecture_code":17},"0323":{"zip_code":"9230323","prefecture":"石川県","prefecture_kana":"イシカワケン","city":"小松市","city_kana":"コマツシ","town":"西荒谷町","town_kana":"ニシアラタニマチ","prefecture_code":17},"0825":{"zip_code":"9230825","prefecture":"石川県","prefecture_kana":"イシカワケン","city":"小松市","city_kana":"コマツシ","town":"西軽海町","town_kana":"ニシカルミマチ","prefecture_code":17},"0948":{"zip_code":"9230948","prefecture":"石川県","prefecture_kana":"イシカワケン","city":"小松市","city_kana":"コマツシ","town":"錦町","town_kana":"ニシキマチ","prefecture_code":17},"0927":{"zip_code":"9230927","prefecture":"石川県","prefecture_kana":"イシカワケン","city":"小松市","city_kana":"コマツシ","town":"西町","town_kana":"ニシチョウ","prefecture_code":17},"0325":{"zip_code":"9230325","prefecture":"石川県","prefecture_kana":"イシカワケン","city":"小松市","city_kana":"コマツシ","town":"西原町","town_kana":"ニシハラマチ","prefecture_code":17},"0176":{"zip_code":"9230176","prefecture":"石川県","prefecture_kana":"イシカワケン","city":"小松市","city_kana":"コマツシ","town":"西俣町","town_kana":"ニシマタマチ","prefecture_code":17},"0956":{"zip_code":"9230956","prefecture":"石川県","prefecture_kana":"イシカワケン","city":"小松市","city_kana":"コマツシ","town":"西本折町","town_kana":"ニシモトオリマチ","prefecture_code":17},"0977":{"zip_code":"9230977","prefecture":"石川県","prefecture_kana":"イシカワケン","city":"小松市","city_kana":"コマツシ","town":"額見町","town_kana":"ヌカミマチ","prefecture_code":17},"0164":{"zip_code":"9230164","prefecture":"石川県","prefecture_kana":"イシカワケン","city":"小松市","city_kana":"コマツシ","town":"布橋町","town_kana":"ヌノハシマチ","prefecture_code":17},"0033":{"zip_code":"9230033","prefecture":"石川県","prefecture_kana":"イシカワケン","city":"小松市","city_kana":"コマツシ","town":"野田町","town_kana":"ノダマチ","prefecture_code":17},"0042":{"zip_code":"9230042","prefecture":"石川県","prefecture_kana":"イシカワケン","city":"小松市","city_kana":"コマツシ","town":"能美町","town_kana":"ノミマチ","prefecture_code":17},"0951":{"zip_code":"9230951","prefecture":"石川県","prefecture_kana":"イシカワケン","city":"小松市","city_kana":"コマツシ","town":"白山町","town_kana":"ハクサンマチ","prefecture_code":17},"0182":{"zip_code":"9230182","prefecture":"石川県","prefecture_kana":"イシカワケン","city":"小松市","city_kana":"コマツシ","town":"波佐谷町","town_kana":"ハサダニマチ","prefecture_code":17},"0162":{"zip_code":"9230162","prefecture":"石川県","prefecture_kana":"イシカワケン","city":"小松市","city_kana":"コマツシ","town":"波佐羅町","town_kana":"ハサラマチ","prefecture_code":17},"0157":{"zip_code":"9230157","prefecture":"石川県","prefecture_kana":"イシカワケン","city":"小松市","city_kana":"コマツシ","town":"花坂町","town_kana":"ハナサカマチ","prefecture_code":17},"0174":{"zip_code":"9230174","prefecture":"石川県","prefecture_kana":"イシカワケン","city":"小松市","city_kana":"コマツシ","town":"花立町","town_kana":"ハナタテマチ","prefecture_code":17},"0066":{"zip_code":"9230066","prefecture":"石川県","prefecture_kana":"イシカワケン","city":"小松市","city_kana":"コマツシ","town":"埴田町","town_kana":"ハネダマチ","prefecture_code":17},"0997":{"zip_code":"9230997","prefecture":"石川県","prefecture_kana":"イシカワケン","city":"小松市","city_kana":"コマツシ","town":"浜佐美本町","town_kana":"ハマサミホンマチ","prefecture_code":17},"0985":{"zip_code":"9230985","prefecture":"石川県","prefecture_kana":"イシカワケン","city":"小松市","city_kana":"コマツシ","town":"浜佐美町","town_kana":"ハマサミマチ","prefecture_code":17},"0907":{"zip_code":"9230907","prefecture":"石川県","prefecture_kana":"イシカワケン","city":"小松市","city_kana":"コマツシ","town":"浜田町","town_kana":"ハマダマチ","prefecture_code":17},"0344":{"zip_code":"9230344","prefecture":"石川県","prefecture_kana":"イシカワケン","city":"小松市","city_kana":"コマツシ","town":"林町","town_kana":"ハヤシマチ","prefecture_code":17},"0075":{"zip_code":"9230075","prefecture":"石川県","prefecture_kana":"イシカワケン","city":"小松市","city_kana":"コマツシ","town":"原町","town_kana":"ハラマチ","prefecture_code":17},"0333":{"zip_code":"9230333","prefecture":"石川県","prefecture_kana":"イシカワケン","city":"小松市","city_kana":"コマツシ","town":"馬場町","town_kana":"バンバマチ","prefecture_code":17},"0804":{"zip_code":"9230804","prefecture":"石川県","prefecture_kana":"イシカワケン","city":"小松市","city_kana":"コマツシ","town":"光町","town_kana":"ヒカリマチ","prefecture_code":17},"0012":{"zip_code":"9230012","prefecture":"石川県","prefecture_kana":"イシカワケン","city":"小松市","city_kana":"コマツシ","town":"東蛭川町","town_kana":"ヒガシヒルガワマチ","prefecture_code":17},"0923":{"zip_code":"9230923","prefecture":"石川県","prefecture_kana":"イシカワケン","city":"小松市","city_kana":"コマツシ","town":"東町","town_kana":"ヒガシチョウ","prefecture_code":17},"0842":{"zip_code":"9230842","prefecture":"石川県","prefecture_kana":"イシカワケン","city":"小松市","city_kana":"コマツシ","town":"東山町","town_kana":"ヒガシヤママチ","prefecture_code":17},"0983":{"zip_code":"9230983","prefecture":"石川県","prefecture_kana":"イシカワケン","city":"小松市","city_kana":"コマツシ","town":"日末町","town_kana":"ヒズエマチ","prefecture_code":17},"0043":{"zip_code":"9230043","prefecture":"石川県","prefecture_kana":"イシカワケン","city":"小松市","city_kana":"コマツシ","town":"一針町","town_kana":"ヒトツハリマチ","prefecture_code":17},"0868":[{"zip_code":"9230868","prefecture":"石川県","prefecture_kana":"イシカワケン","city":"小松市","city_kana":"コマツシ","town":"日の出町","town_kana":"ヒノデマチ","prefecture_code":17},{"zip_code":"9230868","prefecture":"石川県","prefecture_kana":"イシカワケン","city":"小松市","city_kana":"コマツシ","town":"八日市町地方","town_kana":"ヨウカイチマチジガタ","prefecture_code":17}],"0324":{"zip_code":"9230324","prefecture":"石川県","prefecture_kana":"イシカワケン","city":"小松市","city_kana":"コマツシ","town":"日用町","town_kana":"ヒヨウマチ","prefecture_code":17},"0947":{"zip_code":"9230947","prefecture":"石川県","prefecture_kana":"イシカワケン","city":"小松市","city_kana":"コマツシ","town":"日吉町","town_kana":"ヒヨシマチ","prefecture_code":17},"0036":{"zip_code":"9230036","prefecture":"石川県","prefecture_kana":"イシカワケン","city":"小松市","city_kana":"コマツシ","town":"平面町","town_kana":"ヒラオモテマチ","prefecture_code":17},"0011":{"zip_code":"9230011","prefecture":"石川県","prefecture_kana":"イシカワケン","city":"小松市","city_kana":"コマツシ","town":"蛭川町","town_kana":"ビルガワマチ","prefecture_code":17},"0865":{"zip_code":"9230865","prefecture":"石川県","prefecture_kana":"イシカワケン","city":"小松市","city_kana":"コマツシ","town":"福乃宮町","town_kana":"フクノミヤマチ","prefecture_code":17},"0345":{"zip_code":"9230345","prefecture":"石川県","prefecture_kana":"イシカワケン","city":"小松市","city_kana":"コマツシ","town":"二ツ梨町","town_kana":"フタツナシマチ","prefecture_code":17},"0302":{"zip_code":"9230302","prefecture":"石川県","prefecture_kana":"イシカワケン","city":"小松市","city_kana":"コマツシ","town":"符津町","town_kana":"フツマチ","prefecture_code":17},"0863":{"zip_code":"9230863","prefecture":"石川県","prefecture_kana":"イシカワケン","city":"小松市","city_kana":"コマツシ","town":"不動島町","town_kana":"フドウジママチ","prefecture_code":17},"0944":{"zip_code":"9230944","prefecture":"石川県","prefecture_kana":"イシカワケン","city":"小松市","city_kana":"コマツシ","town":"古河町","town_kana":"フルカワマチ","prefecture_code":17},"0005":{"zip_code":"9230005","prefecture":"石川県","prefecture_kana":"イシカワケン","city":"小松市","city_kana":"コマツシ","town":"坊丸町","town_kana":"ボウマルマチ","prefecture_code":17},"0334":{"zip_code":"9230334","prefecture":"石川県","prefecture_kana":"イシカワケン","city":"小松市","city_kana":"コマツシ","town":"菩提町","town_kana":"ボダイマチ","prefecture_code":17},"0933":{"zip_code":"9230933","prefecture":"石川県","prefecture_kana":"イシカワケン","city":"小松市","city_kana":"コマツシ","town":"本鍛冶町","town_kana":"ホンカジマチ","prefecture_code":17},"0841":{"zip_code":"9230841","prefecture":"石川県","prefecture_kana":"イシカワケン","city":"小松市","city_kana":"コマツシ","town":"本江町","town_kana":"ホンゴウマチ","prefecture_code":17},"0936":{"zip_code":"9230936","prefecture":"石川県","prefecture_kana":"イシカワケン","city":"小松市","city_kana":"コマツシ","town":"本大工町","town_kana":"ホンダイクチョウ","prefecture_code":17},"0937":{"zip_code":"9230937","prefecture":"石川県","prefecture_kana":"イシカワケン","city":"小松市","city_kana":"コマツシ","town":"本町","town_kana":"ホンマチ","prefecture_code":17},"0322":{"zip_code":"9230322","prefecture":"石川県","prefecture_kana":"イシカワケン","city":"小松市","city_kana":"コマツシ","town":"牧口町","town_kana":"マキグチマチ","prefecture_code":17},"0306":{"zip_code":"9230306","prefecture":"石川県","prefecture_kana":"イシカワケン","city":"小松市","city_kana":"コマツシ","town":"松生町","town_kana":"マツオイチョウ","prefecture_code":17},"0166":{"zip_code":"9230166","prefecture":"石川県","prefecture_kana":"イシカワケン","city":"小松市","city_kana":"コマツシ","town":"松岡町","town_kana":"マツオカマチ","prefecture_code":17},"0982":{"zip_code":"9230982","prefecture":"石川県","prefecture_kana":"イシカワケン","city":"小松市","city_kana":"コマツシ","town":"松崎町","town_kana":"マツザキマチ","prefecture_code":17},"0913":{"zip_code":"9230913","prefecture":"石川県","prefecture_kana":"イシカワケン","city":"小松市","city_kana":"コマツシ","town":"松任町","town_kana":"マットウマチ","prefecture_code":17},"0014":{"zip_code":"9230014","prefecture":"石川県","prefecture_kana":"イシカワケン","city":"小松市","city_kana":"コマツシ","town":"松梨町","town_kana":"マツナシマチ","prefecture_code":17},"0903":[{"zip_code":"9230903","prefecture":"石川県","prefecture_kana":"イシカワケン","city":"小松市","city_kana":"コマツシ","town":"丸の内公園町","town_kana":"マルノウチコウエンマチ","prefecture_code":17},{"zip_code":"9230903","prefecture":"石川県","prefecture_kana":"イシカワケン","city":"小松市","city_kana":"コマツシ","town":"丸の内町","town_kana":"マルノウチマチ","prefecture_code":17},{"zip_code":"9230903","prefecture":"石川県","prefecture_kana":"イシカワケン","city":"小松市","city_kana":"コマツシ","town":"丸内町","town_kana":"マルノウチマチ","prefecture_code":17}],"0173":{"zip_code":"9230173","prefecture":"石川県","prefecture_kana":"イシカワケン","city":"小松市","city_kana":"コマツシ","town":"丸山町","town_kana":"マルヤママチ","prefecture_code":17},"0924":{"zip_code":"9230924","prefecture":"石川県","prefecture_kana":"イシカワケン","city":"小松市","city_kana":"コマツシ","town":"三日市町","town_kana":"ミッカイチマチ","prefecture_code":17},"0072":{"zip_code":"9230072","prefecture":"石川県","prefecture_kana":"イシカワケン","city":"小松市","city_kana":"コマツシ","town":"みどり町","town_kana":"ミドリマチ","prefecture_code":17},"0852":{"zip_code":"9230852","prefecture":"石川県","prefecture_kana":"イシカワケン","city":"小松市","city_kana":"コマツシ","town":"南浅井町","town_kana":"ミナミアサイマチ","prefecture_code":17},"0305":{"zip_code":"9230305","prefecture":"石川県","prefecture_kana":"イシカワケン","city":"小松市","city_kana":"コマツシ","town":"蓑輪町","town_kana":"ミノワマチ","prefecture_code":17},"0022":{"zip_code":"9230022","prefecture":"石川県","prefecture_kana":"イシカワケン","city":"小松市","city_kana":"コマツシ","town":"美原町","town_kana":"ミハラマチ","prefecture_code":17},"0961":{"zip_code":"9230961","prefecture":"石川県","prefecture_kana":"イシカワケン","city":"小松市","city_kana":"コマツシ","town":"向本折町","town_kana":"ムカイモトオリマチ","prefecture_code":17},"0076":{"zip_code":"9230076","prefecture":"石川県","prefecture_kana":"イシカワケン","city":"小松市","city_kana":"コマツシ","town":"麦口町","town_kana":"ムギクチマチ","prefecture_code":17},"0968":{"zip_code":"9230968","prefecture":"石川県","prefecture_kana":"イシカワケン","city":"小松市","city_kana":"コマツシ","town":"村松町","town_kana":"ムラマツマチ","prefecture_code":17},"0957":{"zip_code":"9230957","prefecture":"石川県","prefecture_kana":"イシカワケン","city":"小松市","city_kana":"コマツシ","town":"本折町","town_kana":"モトオリマチ","prefecture_code":17},"0301":{"zip_code":"9230301","prefecture":"石川県","prefecture_kana":"イシカワケン","city":"小松市","city_kana":"コマツシ","town":"矢崎町","town_kana":"ヤザキマチ","prefecture_code":17},"0056":{"zip_code":"9230056","prefecture":"石川県","prefecture_kana":"イシカワケン","city":"小松市","city_kana":"コマツシ","town":"八里台","town_kana":"ヤサトダイ","prefecture_code":17},"0343":{"zip_code":"9230343","prefecture":"石川県","prefecture_kana":"イシカワケン","city":"小松市","city_kana":"コマツシ","town":"矢沢町","town_kana":"ヤザワマチ","prefecture_code":17},"0976":{"zip_code":"9230976","prefecture":"石川県","prefecture_kana":"イシカワケン","city":"小松市","city_kana":"コマツシ","town":"矢田新町","town_kana":"ヤタシンマチ","prefecture_code":17},"0342":{"zip_code":"9230342","prefecture":"石川県","prefecture_kana":"イシカワケン","city":"小松市","city_kana":"コマツシ","town":"矢田野町","town_kana":"ヤタノマチ","prefecture_code":17},"0975":{"zip_code":"9230975","prefecture":"石川県","prefecture_kana":"イシカワケン","city":"小松市","city_kana":"コマツシ","town":"矢田町","town_kana":"ヤタマチ","prefecture_code":17},"0952":{"zip_code":"9230952","prefecture":"石川県","prefecture_kana":"イシカワケン","city":"小松市","city_kana":"コマツシ","town":"大和町","town_kana":"ヤマトマチ","prefecture_code":17},"0833":{"zip_code":"9230833","prefecture":"石川県","prefecture_kana":"イシカワケン","city":"小松市","city_kana":"コマツシ","town":"八幡加賀八幡","town_kana":"ヤワタカガヤワタ","prefecture_code":17},"0954":{"zip_code":"9230954","prefecture":"石川県","prefecture_kana":"イシカワケン","city":"小松市","city_kana":"コマツシ","town":"八幡町","town_kana":"ヤワタマチ","prefecture_code":17},"0064":{"zip_code":"9230064","prefecture":"石川県","prefecture_kana":"イシカワケン","city":"小松市","city_kana":"コマツシ","town":"遊泉寺町","town_kana":"ユウセンジマチ","prefecture_code":17},"0332":{"zip_code":"9230332","prefecture":"石川県","prefecture_kana":"イシカワケン","city":"小松市","city_kana":"コマツシ","town":"湯上町","town_kana":"ユノカミマチ","prefecture_code":17},"0925":{"zip_code":"9230925","prefecture":"石川県","prefecture_kana":"イシカワケン","city":"小松市","city_kana":"コマツシ","town":"八日市町","town_kana":"ヨウカイチマチ","prefecture_code":17},"0835":{"zip_code":"9230835","prefecture":"石川県","prefecture_kana":"イシカワケン","city":"小松市","city_kana":"コマツシ","town":"吉竹町","town_kana":"ヨシタケマチ","prefecture_code":17},"0998":{"zip_code":"9230998","prefecture":"石川県","prefecture_kana":"イシカワケン","city":"小松市","city_kana":"コマツシ","town":"義仲町","town_kana":"ヨシナカチョウ","prefecture_code":17},"0926":{"zip_code":"9230926","prefecture":"石川県","prefecture_kana":"イシカワケン","city":"小松市","city_kana":"コマツシ","town":"龍助町","town_kana":"リュウスケチョウ","prefecture_code":17},"0065":{"zip_code":"9230065","prefecture":"石川県","prefecture_kana":"イシカワケン","city":"小松市","city_kana":"コマツシ","town":"立明寺町","town_kana":"リュウミョウジマチ","prefecture_code":17},"0843":{"zip_code":"9230843","prefecture":"石川県","prefecture_kana":"イシカワケン","city":"小松市","city_kana":"コマツシ","town":"蓮代寺町","town_kana":"レンダイジマチ","prefecture_code":17},"0832":{"zip_code":"9230832","prefecture":"石川県","prefecture_kana":"イシカワケン","city":"小松市","city_kana":"コマツシ","town":"若杉町","town_kana":"ワカスギマチ","prefecture_code":17},"1100":{"zip_code":"9231100","prefecture":"石川県","prefecture_kana":"イシカワケン","city":"能美市","city_kana":"ノミシ","town":"","town_kana":"","prefecture_code":17},"1101":{"zip_code":"9231101","prefecture":"石川県","prefecture_kana":"イシカワケン","city":"能美市","city_kana":"ノミシ","town":"粟生町","town_kana":"アオマチ","prefecture_code":17},"1103":{"zip_code":"9231103","prefecture":"石川県","prefecture_kana":"イシカワケン","city":"能美市","city_kana":"ノミシ","town":"秋常町","town_kana":"アキツネマチ","prefecture_code":17},"1211":{"zip_code":"9231211","prefecture":"石川県","prefecture_kana":"イシカワケン","city":"能美市","city_kana":"ノミシ","town":"旭台","town_kana":"アサヒダイ","prefecture_code":17},"1202":{"zip_code":"9231202","prefecture":"石川県","prefecture_kana":"イシカワケン","city":"能美市","city_kana":"ノミシ","town":"莇生町","town_kana":"アゾウマチ","prefecture_code":17},"1233":{"zip_code":"9231233","prefecture":"石川県","prefecture_kana":"イシカワケン","city":"能美市","city_kana":"ノミシ","town":"荒屋町","town_kana":"アラヤマチ","prefecture_code":17},"1105":{"zip_code":"9231105","prefecture":"石川県","prefecture_kana":"イシカワケン","city":"能美市","city_kana":"ノミシ","town":"石子町","town_kana":"イシコマチ","prefecture_code":17},"1111":{"zip_code":"9231111","prefecture":"石川県","prefecture_kana":"イシカワケン","city":"能美市","city_kana":"ノミシ","town":"泉台町","town_kana":"イズミダイマチ","prefecture_code":17},"1201":{"zip_code":"9231201","prefecture":"石川県","prefecture_kana":"イシカワケン","city":"能美市","city_kana":"ノミシ","town":"岩内町","town_kana":"イワウチマチ","prefecture_code":17},"1207":{"zip_code":"9231207","prefecture":"石川県","prefecture_kana":"イシカワケン","city":"能美市","city_kana":"ノミシ","town":"岩本町","town_kana":"イワモトマチ","prefecture_code":17},"1113":{"zip_code":"9231113","prefecture":"石川県","prefecture_kana":"イシカワケン","city":"能美市","city_kana":"ノミシ","town":"牛島町","town_kana":"ウシジママチ","prefecture_code":17},"1212":{"zip_code":"9231212","prefecture":"石川県","prefecture_kana":"イシカワケン","city":"能美市","city_kana":"ノミシ","town":"大口町","town_kana":"オオクチマチ","prefecture_code":17},"1115":{"zip_code":"9231115","prefecture":"石川県","prefecture_kana":"イシカワケン","city":"能美市","city_kana":"ノミシ","town":"大長野町","town_kana":"オオナガノマチ","prefecture_code":17},"1231":{"zip_code":"9231231","prefecture":"石川県","prefecture_kana":"イシカワケン","city":"能美市","city_kana":"ノミシ","town":"上開発町","town_kana":"カミカイハツマチ","prefecture_code":17},"1237":{"zip_code":"9231237","prefecture":"石川県","prefecture_kana":"イシカワケン","city":"能美市","city_kana":"ノミシ","town":"上清水町","town_kana":"カミシミズマチ","prefecture_code":17},"1236":{"zip_code":"9231236","prefecture":"石川県","prefecture_kana":"イシカワケン","city":"能美市","city_kana":"ノミシ","town":"北市町","town_kana":"キタイチマチ","prefecture_code":17},"1246":{"zip_code":"9231246","prefecture":"石川県","prefecture_kana":"イシカワケン","city":"能美市","city_kana":"ノミシ","town":"倉重町","town_kana":"クラシゲマチ","prefecture_code":17},"1234":{"zip_code":"9231234","prefecture":"石川県","prefecture_kana":"イシカワケン","city":"能美市","city_kana":"ノミシ","town":"高座町","town_kana":"コウザマチ","prefecture_code":17},"1114":{"zip_code":"9231114","prefecture":"石川県","prefecture_kana":"イシカワケン","city":"能美市","city_kana":"ノミシ","town":"小杉町","town_kana":"コスギマチ","prefecture_code":17},"1116":{"zip_code":"9231116","prefecture":"石川県","prefecture_kana":"イシカワケン","city":"能美市","city_kana":"ノミシ","town":"小長野町","town_kana":"コナガノマチ","prefecture_code":17},"1214":{"zip_code":"9231214","prefecture":"石川県","prefecture_kana":"イシカワケン","city":"能美市","city_kana":"ノミシ","town":"金剛寺町","town_kana":"コンゴウジマチ","prefecture_code":17},"1112":{"zip_code":"9231112","prefecture":"石川県","prefecture_kana":"イシカワケン","city":"能美市","city_kana":"ノミシ","town":"佐野町","town_kana":"サノマチ","prefecture_code":17},"1124":{"zip_code":"9231124","prefecture":"石川県","prefecture_kana":"イシカワケン","city":"能美市","city_kana":"ノミシ","town":"三道山町","town_kana":"サンドウヤママチ","prefecture_code":17},"1232":{"zip_code":"9231232","prefecture":"石川県","prefecture_kana":"イシカワケン","city":"能美市","city_kana":"ノミシ","town":"下開発町","town_kana":"シモカイハツマチ","prefecture_code":17},"1238":{"zip_code":"9231238","prefecture":"石川県","prefecture_kana":"イシカワケン","city":"能美市","city_kana":"ノミシ","town":"下清水町","town_kana":"シモシミズマチ","prefecture_code":17},"1102":{"zip_code":"9231102","prefecture":"石川県","prefecture_kana":"イシカワケン","city":"能美市","city_kana":"ノミシ","town":"新保町","town_kana":"シンボマチ","prefecture_code":17},"1117":{"zip_code":"9231117","prefecture":"石川県","prefecture_kana":"イシカワケン","city":"能美市","city_kana":"ノミシ","town":"末信町","town_kana":"スエノブマチ","prefecture_code":17},"1215":{"zip_code":"9231215","prefecture":"石川県","prefecture_kana":"イシカワケン","city":"能美市","city_kana":"ノミシ","town":"舘町","town_kana":"タチマチ","prefecture_code":17},"1245":{"zip_code":"9231245","prefecture":"石川県","prefecture_kana":"イシカワケン","city":"能美市","city_kana":"ノミシ","town":"辰口町","town_kana":"タツノクチマチ","prefecture_code":17},"1213":{"zip_code":"9231213","prefecture":"石川県","prefecture_kana":"イシカワケン","city":"能美市","city_kana":"ノミシ","town":"坪野町","town_kana":"ツボノマチ","prefecture_code":17},"1247":{"zip_code":"9231247","prefecture":"石川県","prefecture_kana":"イシカワケン","city":"能美市","city_kana":"ノミシ","town":"出口町","town_kana":"デグチマチ","prefecture_code":17},"1121":{"zip_code":"9231121","prefecture":"石川県","prefecture_kana":"イシカワケン","city":"能美市","city_kana":"ノミシ","town":"寺井町","town_kana":"テライマチ","prefecture_code":17},"1223":{"zip_code":"9231223","prefecture":"石川県","prefecture_kana":"イシカワケン","city":"能美市","city_kana":"ノミシ","town":"寺畠町","town_kana":"テラバタケマチ","prefecture_code":17},"1222":{"zip_code":"9231222","prefecture":"石川県","prefecture_kana":"イシカワケン","city":"能美市","city_kana":"ノミシ","town":"徳山町","town_kana":"トクサンマチ","prefecture_code":17},"1235":{"zip_code":"9231235","prefecture":"石川県","prefecture_kana":"イシカワケン","city":"能美市","city_kana":"ノミシ","town":"徳久町","town_kana":"トクヒサマチ","prefecture_code":17},"1206":{"zip_code":"9231206","prefecture":"石川県","prefecture_kana":"イシカワケン","city":"能美市","city_kana":"ノミシ","town":"灯台笹町","town_kana":"トダシノマチ","prefecture_code":17},"1204":{"zip_code":"9231204","prefecture":"石川県","prefecture_kana":"イシカワケン","city":"能美市","city_kana":"ノミシ","town":"長滝町","town_kana":"ナガタキマチ","prefecture_code":17},"1216":{"zip_code":"9231216","prefecture":"石川県","prefecture_kana":"イシカワケン","city":"能美市","city_kana":"ノミシ","town":"鍋谷町","town_kana":"ナベタニマチ","prefecture_code":17},"1122":{"zip_code":"9231122","prefecture":"石川県","prefecture_kana":"イシカワケン","city":"能美市","city_kana":"ノミシ","town":"東任田町","town_kana":"ヒガシトウダマチ","prefecture_code":17},"1242":{"zip_code":"9231242","prefecture":"石川県","prefecture_kana":"イシカワケン","city":"能美市","city_kana":"ノミシ","town":"火釜町","town_kana":"ヒガママチ","prefecture_code":17},"1217":{"zip_code":"9231217","prefecture":"石川県","prefecture_kana":"イシカワケン","city":"能美市","city_kana":"ノミシ","town":"仏大寺町","town_kana":"ブツタイジマチ","prefecture_code":17},"1225":{"zip_code":"9231225","prefecture":"石川県","prefecture_kana":"イシカワケン","city":"能美市","city_kana":"ノミシ","town":"松が岡","town_kana":"マツガオカ","prefecture_code":17},"1107":{"zip_code":"9231107","prefecture":"石川県","prefecture_kana":"イシカワケン","city":"能美市","city_kana":"ノミシ","town":"末寺町","town_kana":"マツジマチ","prefecture_code":17},"1203":{"zip_code":"9231203","prefecture":"石川県","prefecture_kana":"イシカワケン","city":"能美市","city_kana":"ノミシ","town":"三ツ口町","town_kana":"ミツクチマチ","prefecture_code":17},"1243":{"zip_code":"9231243","prefecture":"石川県","prefecture_kana":"イシカワケン","city":"能美市","city_kana":"ノミシ","town":"三ツ屋町","town_kana":"ミツヤマチ","prefecture_code":17},"1226":{"zip_code":"9231226","prefecture":"石川県","prefecture_kana":"イシカワケン","city":"能美市","city_kana":"ノミシ","town":"緑が丘","town_kana":"ミドリガオカ","prefecture_code":17},"1205":{"zip_code":"9231205","prefecture":"石川県","prefecture_kana":"イシカワケン","city":"能美市","city_kana":"ノミシ","town":"宮竹町","town_kana":"ミヤタケマチ","prefecture_code":17},"1241":{"zip_code":"9231241","prefecture":"石川県","prefecture_kana":"イシカワケン","city":"能美市","city_kana":"ノミシ","town":"山田町","town_kana":"ヤマダマチ","prefecture_code":17},"1104":{"zip_code":"9231104","prefecture":"石川県","prefecture_kana":"イシカワケン","city":"能美市","city_kana":"ノミシ","town":"湯谷町","town_kana":"ユノタニマチ","prefecture_code":17},"1221":{"zip_code":"9231221","prefecture":"石川県","prefecture_kana":"イシカワケン","city":"能美市","city_kana":"ノミシ","town":"湯屋町","town_kana":"ユノヤマチ","prefecture_code":17},"1123":{"zip_code":"9231123","prefecture":"石川県","prefecture_kana":"イシカワケン","city":"能美市","city_kana":"ノミシ","town":"吉光町","town_kana":"ヨシミツマチ","prefecture_code":17},"1244":{"zip_code":"9231244","prefecture":"石川県","prefecture_kana":"イシカワケン","city":"能美市","city_kana":"ノミシ","town":"来丸町","town_kana":"ライマルマチ","prefecture_code":17},"1224":{"zip_code":"9231224","prefecture":"石川県","prefecture_kana":"イシカワケン","city":"能美市","city_kana":"ノミシ","town":"和気町","town_kana":"ワケマチ","prefecture_code":17},"1227":{"zip_code":"9231227","prefecture":"石川県","prefecture_kana":"イシカワケン","city":"能美市","city_kana":"ノミシ","town":"和光台","town_kana":"ワコウダイ","prefecture_code":17},"1208":{"zip_code":"9231208","prefecture":"石川県","prefecture_kana":"イシカワケン","city":"能美市","city_kana":"ノミシ","town":"和佐谷町","town_kana":"ワサダニマチ","prefecture_code":17},"1106":{"zip_code":"9231106","prefecture":"石川県","prefecture_kana":"イシカワケン","city":"能美市","city_kana":"ノミシ","town":"和田町","town_kana":"ワダマチ","prefecture_code":17},"1200":{"zip_code":"9231200","prefecture":"石川県","prefecture_kana":"イシカワケン","city":"能美郡川北町","city_kana":"ノミグンカワキタマチ","town":"","town_kana":"","prefecture_code":17},"1278":{"zip_code":"9231278","prefecture":"石川県","prefecture_kana":"イシカワケン","city":"能美郡川北町","city_kana":"ノミグンカワキタマチ","town":"朝日","town_kana":"アサヒ","prefecture_code":17},"1265":{"zip_code":"9231265","prefecture":"石川県","prefecture_kana":"イシカワケン","city":"能美郡川北町","city_kana":"ノミグンカワキタマチ","town":"上先出","town_kana":"カミセンデン","prefecture_code":17},"1269":{"zip_code":"9231269","prefecture":"石川県","prefecture_kana":"イシカワケン","city":"能美郡川北町","city_kana":"ノミグンカワキタマチ","town":"上田子島","town_kana":"カミダゴジマ","prefecture_code":17},"1262":{"zip_code":"9231262","prefecture":"石川県","prefecture_kana":"イシカワケン","city":"能美郡川北町","city_kana":"ノミグンカワキタマチ","town":"草深","town_kana":"クサブカ","prefecture_code":17},"1274":{"zip_code":"9231274","prefecture":"石川県","prefecture_kana":"イシカワケン","city":"能美郡川北町","city_kana":"ノミグンカワキタマチ","town":"木呂場","town_kana":"コロバ","prefecture_code":17},"1275":{"zip_code":"9231275","prefecture":"石川県","prefecture_kana":"イシカワケン","city":"能美郡川北町","city_kana":"ノミグンカワキタマチ","town":"木呂場新","town_kana":"コロバシン","prefecture_code":17},"1254":{"zip_code":"9231254","prefecture":"石川県","prefecture_kana":"イシカワケン","city":"能美郡川北町","city_kana":"ノミグンカワキタマチ","town":"サンコーポラス","town_kana":"サンコーポラス","prefecture_code":17},"1253":{"zip_code":"9231253","prefecture":"石川県","prefecture_kana":"イシカワケン","city":"能美郡川北町","city_kana":"ノミグンカワキタマチ","town":"三反田","town_kana":"サンタンダ","prefecture_code":17},"1272":{"zip_code":"9231272","prefecture":"石川県","prefecture_kana":"イシカワケン","city":"能美郡川北町","city_kana":"ノミグンカワキタマチ","town":"下田子島","town_kana":"シモタゴジマ","prefecture_code":17},"1263":{"zip_code":"9231263","prefecture":"石川県","prefecture_kana":"イシカワケン","city":"能美郡川北町","city_kana":"ノミグンカワキタマチ","town":"下土室","town_kana":"シモツチムロ","prefecture_code":17},"1266":{"zip_code":"9231266","prefecture":"石川県","prefecture_kana":"イシカワケン","city":"能美郡川北町","city_kana":"ノミグンカワキタマチ","town":"下先出","town_kana":"シモセンデン","prefecture_code":17},"1271":{"zip_code":"9231271","prefecture":"石川県","prefecture_kana":"イシカワケン","city":"能美郡川北町","city_kana":"ノミグンカワキタマチ","town":"田子島","town_kana":"ダゴジマ","prefecture_code":17},"1276":{"zip_code":"9231276","prefecture":"石川県","prefecture_kana":"イシカワケン","city":"能美郡川北町","city_kana":"ノミグンカワキタマチ","town":"橘","town_kana":"タチバナ","prefecture_code":17},"1277":{"zip_code":"9231277","prefecture":"石川県","prefecture_kana":"イシカワケン","city":"能美郡川北町","city_kana":"ノミグンカワキタマチ","town":"橘新","town_kana":"タチバナシン","prefecture_code":17},"1261":{"zip_code":"9231261","prefecture":"石川県","prefecture_kana":"イシカワケン","city":"能美郡川北町","city_kana":"ノミグンカワキタマチ","town":"土室","town_kana":"ツチムロ","prefecture_code":17},"1251":{"zip_code":"9231251","prefecture":"石川県","prefecture_kana":"イシカワケン","city":"能美郡川北町","city_kana":"ノミグンカワキタマチ","town":"藤蔵","town_kana":"トウゾウ","prefecture_code":17},"1252":{"zip_code":"9231252","prefecture":"石川県","prefecture_kana":"イシカワケン","city":"能美郡川北町","city_kana":"ノミグンカワキタマチ","town":"中島","town_kana":"ナカジマ","prefecture_code":17},"1267":{"zip_code":"9231267","prefecture":"石川県","prefecture_kana":"イシカワケン","city":"能美郡川北町","city_kana":"ノミグンカワキタマチ","town":"壱ツ屋","town_kana":"ヒトツヤ","prefecture_code":17},"1273":{"zip_code":"9231273","prefecture":"石川県","prefecture_kana":"イシカワケン","city":"能美郡川北町","city_kana":"ノミグンカワキタマチ","town":"舟場島","town_kana":"フナバジマ","prefecture_code":17},"1264":{"zip_code":"9231264","prefecture":"石川県","prefecture_kana":"イシカワケン","city":"能美郡川北町","city_kana":"ノミグンカワキタマチ","town":"山田先出","town_kana":"ヤマダセンデン","prefecture_code":17},"1268":{"zip_code":"9231268","prefecture":"石川県","prefecture_kana":"イシカワケン","city":"能美郡川北町","city_kana":"ノミグンカワキタマチ","town":"与九郎島","town_kana":"ヨクロウジマ","prefecture_code":17}}