{"0000":{"zip_code":"9240000","prefecture":"石川県","prefecture_kana":"イシカワケン","city":"白山市","city_kana":"ハクサンシ","town":"","town_kana":"","prefecture_code":17},"0081":{"zip_code":"9240081","prefecture":"石川県","prefecture_kana":"イシカワケン","city":"白山市","city_kana":"ハクサンシ","town":"相木","town_kana":"アイノキ","prefecture_code":17},"0022":{"zip_code":"9240022","prefecture":"石川県","prefecture_kana":"イシカワケン","city":"白山市","city_kana":"ハクサンシ","town":"相木町","town_kana":"アイノキマチ","prefecture_code":17},"0819":{"zip_code":"9240819","prefecture":"石川県","prefecture_kana":"イシカワケン","city":"白山市","city_kana":"ハクサンシ","town":"青葉台","town_kana":"アオバダイ","prefecture_code":17},"0004":{"zip_code":"9240004","prefecture":"石川県","prefecture_kana":"イシカワケン","city":"白山市","city_kana":"ハクサンシ","town":"旭丘","town_kana":"アサヒガオカ","prefecture_code":17},"0019":{"zip_code":"9240019","prefecture":"石川県","prefecture_kana":"イシカワケン","city":"白山市","city_kana":"ハクサンシ","town":"あさひ荘苑","town_kana":"アサヒソウエン","prefecture_code":17},"0888":{"zip_code":"9240888","prefecture":"石川県","prefecture_kana":"イシカワケン","city":"白山市","city_kana":"ハクサンシ","town":"旭町","town_kana":"アサヒマチ","prefecture_code":17},"0056":{"zip_code":"9240056","prefecture":"石川県","prefecture_kana":"イシカワケン","city":"白山市","city_kana":"ハクサンシ","town":"阿弥陀島町","town_kana":"アミダジママチ","prefecture_code":17},"0037":{"zip_code":"9240037","prefecture":"石川県","prefecture_kana":"イシカワケン","city":"白山市","city_kana":"ハクサンシ","town":"荒屋柏野町","town_kana":"アラヤカシワノマチ","prefecture_code":17},"0058":{"zip_code":"9240058","prefecture":"石川県","prefecture_kana":"イシカワケン","city":"白山市","city_kana":"ハクサンシ","town":"石立町","town_kana":"イシタテマチ","prefecture_code":17},"0806":{"zip_code":"9240806","prefecture":"石川県","prefecture_kana":"イシカワケン","city":"白山市","city_kana":"ハクサンシ","town":"石同新町","town_kana":"イシドウシンマチ","prefecture_code":17},"0807":{"zip_code":"9240807","prefecture":"石川県","prefecture_kana":"イシカワケン","city":"白山市","city_kana":"ハクサンシ","town":"石同町","town_kana":"イシドウマチ","prefecture_code":17},"0005":{"zip_code":"9240005","prefecture":"石川県","prefecture_kana":"イシカワケン","city":"白山市","city_kana":"ハクサンシ","town":"一塚町","town_kana":"イチヅカマチ","prefecture_code":17},"0803":{"zip_code":"9240803","prefecture":"石川県","prefecture_kana":"イシカワケン","city":"白山市","city_kana":"ハクサンシ","town":"乾町","town_kana":"イヌイマチ","prefecture_code":17},"0827":{"zip_code":"9240827","prefecture":"石川県","prefecture_kana":"イシカワケン","city":"白山市","city_kana":"ハクサンシ","town":"今平町","town_kana":"イマヒラマチ","prefecture_code":17},"0847":{"zip_code":"9240847","prefecture":"石川県","prefecture_kana":"イシカワケン","city":"白山市","city_kana":"ハクサンシ","town":"内方新保町","town_kana":"ウチカタシンボマチ","prefecture_code":17},"0835":{"zip_code":"9240835","prefecture":"石川県","prefecture_kana":"イシカワケン","city":"白山市","city_kana":"ハクサンシ","town":"漆島町","town_kana":"ウルシジママチ","prefecture_code":17},"0067":{"zip_code":"9240067","prefecture":"石川県","prefecture_kana":"イシカワケン","city":"白山市","city_kana":"ハクサンシ","town":"小川町","town_kana":"オガワマチ","prefecture_code":17},"0826":{"zip_code":"9240826","prefecture":"石川県","prefecture_kana":"イシカワケン","city":"白山市","city_kana":"ハクサンシ","town":"乙丸町","town_kana":"オトマルマチ","prefecture_code":17},"0062":{"zip_code":"9240062","prefecture":"石川県","prefecture_kana":"イシカワケン","city":"白山市","city_kana":"ハクサンシ","town":"笠間新","town_kana":"カサマシン","prefecture_code":17},"0063":{"zip_code":"9240063","prefecture":"石川県","prefecture_kana":"イシカワケン","city":"白山市","city_kana":"ハクサンシ","town":"笠間町","town_kana":"カサママチ","prefecture_code":17},"0876":{"zip_code":"9240876","prefecture":"石川県","prefecture_kana":"イシカワケン","city":"白山市","city_kana":"ハクサンシ","town":"鍛治町","town_kana":"カジマチ","prefecture_code":17},"0043":{"zip_code":"9240043","prefecture":"石川県","prefecture_kana":"イシカワケン","city":"白山市","city_kana":"ハクサンシ","town":"柏町","town_kana":"カシワマチ","prefecture_code":17},"0066":{"zip_code":"9240066","prefecture":"石川県","prefecture_kana":"イシカワケン","city":"白山市","city_kana":"ハクサンシ","town":"上小川町","town_kana":"カミオガワマチ","prefecture_code":17},"0035":{"zip_code":"9240035","prefecture":"石川県","prefecture_kana":"イシカワケン","city":"白山市","city_kana":"ハクサンシ","town":"上柏野町","town_kana":"カミカシワノマチ","prefecture_code":17},"0846":{"zip_code":"9240846","prefecture":"石川県","prefecture_kana":"イシカワケン","city":"白山市","city_kana":"ハクサンシ","town":"上島田町","town_kana":"カミシマダマチ","prefecture_code":17},"0828":{"zip_code":"9240828","prefecture":"石川県","prefecture_kana":"イシカワケン","city":"白山市","city_kana":"ハクサンシ","town":"上二口町","town_kana":"カミフタクチマチ","prefecture_code":17},"0853":{"zip_code":"9240853","prefecture":"石川県","prefecture_kana":"イシカワケン","city":"白山市","city_kana":"ハクサンシ","town":"上安田町","town_kana":"カミヤスタマチ","prefecture_code":17},"0055":{"zip_code":"9240055","prefecture":"石川県","prefecture_kana":"イシカワケン","city":"白山市","city_kana":"ハクサンシ","town":"北島町","town_kana":"キタジママチ","prefecture_code":17},"0030":{"zip_code":"9240030","prefecture":"石川県","prefecture_kana":"イシカワケン","city":"白山市","city_kana":"ハクサンシ","town":"北成町","town_kana":"キタナリマチ","prefecture_code":17},"0039":{"zip_code":"9240039","prefecture":"石川県","prefecture_kana":"イシカワケン","city":"白山市","city_kana":"ハクサンシ","town":"北安田西","town_kana":"キタヤスタニシ","prefecture_code":17},"0024":{"zip_code":"9240024","prefecture":"石川県","prefecture_kana":"イシカワケン","city":"白山市","city_kana":"ハクサンシ","town":"北安田町","town_kana":"キタヤスタマチ","prefecture_code":17},"0007":{"zip_code":"9240007","prefecture":"石川県","prefecture_kana":"イシカワケン","city":"白山市","city_kana":"ハクサンシ","town":"倉部町","town_kana":"クラベマチ","prefecture_code":17},"0865":{"zip_code":"9240865","prefecture":"石川県","prefecture_kana":"イシカワケン","city":"白山市","city_kana":"ハクサンシ","town":"倉光","town_kana":"クラミツ","prefecture_code":17},"0866":{"zip_code":"9240866","prefecture":"石川県","prefecture_kana":"イシカワケン","city":"白山市","city_kana":"ハクサンシ","town":"倉光西","town_kana":"クラミツニシ","prefecture_code":17},"0064":{"zip_code":"9240064","prefecture":"石川県","prefecture_kana":"イシカワケン","city":"白山市","city_kana":"ハクサンシ","town":"黒瀬町","town_kana":"クロセマチ","prefecture_code":17},"0842":{"zip_code":"9240842","prefecture":"石川県","prefecture_kana":"イシカワケン","city":"白山市","city_kana":"ハクサンシ","town":"剣崎町","town_kana":"ケンザキマチ","prefecture_code":17},"0052":{"zip_code":"9240052","prefecture":"石川県","prefecture_kana":"イシカワケン","city":"白山市","city_kana":"ハクサンシ","town":"源兵島町","town_kana":"ゲンペイジママチ","prefecture_code":17},"0821":{"zip_code":"9240821","prefecture":"石川県","prefecture_kana":"イシカワケン","city":"白山市","city_kana":"ハクサンシ","town":"木津町","town_kana":"コウヅマチ","prefecture_code":17},"0817":{"zip_code":"9240817","prefecture":"石川県","prefecture_kana":"イシカワケン","city":"白山市","city_kana":"ハクサンシ","town":"幸明町","town_kana":"コウミョウマチ","prefecture_code":17},"0851":{"zip_code":"9240851","prefecture":"石川県","prefecture_kana":"イシカワケン","city":"白山市","city_kana":"ハクサンシ","town":"御影堂町","town_kana":"ゴエドウマチ","prefecture_code":17},"0034":{"zip_code":"9240034","prefecture":"石川県","prefecture_kana":"イシカワケン","city":"白山市","city_kana":"ハクサンシ","town":"小上町","town_kana":"コガミマチ","prefecture_code":17},"0014":{"zip_code":"9240014","prefecture":"石川県","prefecture_kana":"イシカワケン","city":"白山市","city_kana":"ハクサンシ","town":"五歩市町","town_kana":"ゴボイチマチ","prefecture_code":17},"0065":{"zip_code":"9240065","prefecture":"石川県","prefecture_kana":"イシカワケン","city":"白山市","city_kana":"ハクサンシ","town":"七郎町","town_kana":"シチロウマチ","prefecture_code":17},"0845":{"zip_code":"9240845","prefecture":"石川県","prefecture_kana":"イシカワケン","city":"白山市","city_kana":"ハクサンシ","town":"島田町","town_kana":"シマダマチ","prefecture_code":17},"0038":{"zip_code":"9240038","prefecture":"石川県","prefecture_kana":"イシカワケン","city":"白山市","city_kana":"ハクサンシ","town":"下柏野町","town_kana":"シモカシワノマチ","prefecture_code":17},"0015":{"zip_code":"9240015","prefecture":"石川県","prefecture_kana":"イシカワケン","city":"白山市","city_kana":"ハクサンシ","town":"新田町","town_kana":"シンデンマチ","prefecture_code":17},"0020":{"zip_code":"9240020","prefecture":"石川県","prefecture_kana":"イシカワケン","city":"白山市","city_kana":"ハクサンシ","town":"新成","town_kana":"シンナリ","prefecture_code":17},"0878":{"zip_code":"9240878","prefecture":"石川県","prefecture_kana":"イシカワケン","city":"白山市","city_kana":"ハクサンシ","town":"末広","town_kana":"スエヒロ","prefecture_code":17},"0825":{"zip_code":"9240825","prefecture":"石川県","prefecture_kana":"イシカワケン","city":"白山市","city_kana":"ハクサンシ","town":"菅波町","town_kana":"スガナミマチ","prefecture_code":17},"0802":{"zip_code":"9240802","prefecture":"石川県","prefecture_kana":"イシカワケン","city":"白山市","city_kana":"ハクサンシ","town":"専福寺町","town_kana":"センプクジマチ","prefecture_code":17},"0028":{"zip_code":"9240028","prefecture":"石川県","prefecture_kana":"イシカワケン","city":"白山市","city_kana":"ハクサンシ","town":"相川新町","town_kana":"ソウゴシンマチ","prefecture_code":17},"0027":{"zip_code":"9240027","prefecture":"石川県","prefecture_kana":"イシカワケン","city":"白山市","city_kana":"ハクサンシ","town":"相川町","town_kana":"ソウゴマチ","prefecture_code":17},"0021":{"zip_code":"9240021","prefecture":"石川県","prefecture_kana":"イシカワケン","city":"白山市","city_kana":"ハクサンシ","town":"竹松町","town_kana":"タケマツマチ","prefecture_code":17},"0824":{"zip_code":"9240824","prefecture":"石川県","prefecture_kana":"イシカワケン","city":"白山市","city_kana":"ハクサンシ","town":"田地町","town_kana":"タチマチ","prefecture_code":17},"0875":{"zip_code":"9240875","prefecture":"石川県","prefecture_kana":"イシカワケン","city":"白山市","city_kana":"ハクサンシ","town":"辰巳町","town_kana":"タツミチョウ","prefecture_code":17},"0801":{"zip_code":"9240801","prefecture":"石川県","prefecture_kana":"イシカワケン","city":"白山市","city_kana":"ハクサンシ","town":"田中町","town_kana":"タナカマチ","prefecture_code":17},"0867":{"zip_code":"9240867","prefecture":"石川県","prefecture_kana":"イシカワケン","city":"白山市","city_kana":"ハクサンシ","town":"茶屋","town_kana":"チャヤ","prefecture_code":17},"0072":{"zip_code":"9240072","prefecture":"石川県","prefecture_kana":"イシカワケン","city":"白山市","city_kana":"ハクサンシ","town":"千代野西","town_kana":"チヨノニシ","prefecture_code":17},"0073":{"zip_code":"9240073","prefecture":"石川県","prefecture_kana":"イシカワケン","city":"白山市","city_kana":"ハクサンシ","town":"千代野東","town_kana":"チヨノヒガシ","prefecture_code":17},"0074":{"zip_code":"9240074","prefecture":"石川県","prefecture_kana":"イシカワケン","city":"白山市","city_kana":"ハクサンシ","town":"千代野南","town_kana":"チヨノミナミ","prefecture_code":17},"0854":{"zip_code":"9240854","prefecture":"石川県","prefecture_kana":"イシカワケン","city":"白山市","city_kana":"ハクサンシ","town":"出合島町","town_kana":"デアイジママチ","prefecture_code":17},"0804":{"zip_code":"9240804","prefecture":"石川県","prefecture_kana":"イシカワケン","city":"白山市","city_kana":"ハクサンシ","town":"徳丸町","town_kana":"トクマルマチ","prefecture_code":17},"0071":{"zip_code":"9240071","prefecture":"石川県","prefecture_kana":"イシカワケン","city":"白山市","city_kana":"ハクサンシ","town":"徳光町","town_kana":"トクミツマチ","prefecture_code":17},"0885":{"zip_code":"9240885","prefecture":"石川県","prefecture_kana":"イシカワケン","city":"白山市","city_kana":"ハクサンシ","town":"殿町","town_kana":"トノマチ","prefecture_code":17},"0818":{"zip_code":"9240818","prefecture":"石川県","prefecture_kana":"イシカワケン","city":"白山市","city_kana":"ハクサンシ","town":"中奥町","town_kana":"ナカオクマチ","prefecture_code":17},"0036":{"zip_code":"9240036","prefecture":"石川県","prefecture_kana":"イシカワケン","city":"白山市","city_kana":"ハクサンシ","town":"中柏野町","town_kana":"ナカカシワノマチ","prefecture_code":17},"0848":{"zip_code":"9240848","prefecture":"石川県","prefecture_kana":"イシカワケン","city":"白山市","city_kana":"ハクサンシ","town":"長島町","town_kana":"ナガシママチ","prefecture_code":17},"0003":{"zip_code":"9240003","prefecture":"石川県","prefecture_kana":"イシカワケン","city":"白山市","city_kana":"ハクサンシ","town":"中新保町","town_kana":"ナカシンボマチ","prefecture_code":17},"0811":{"zip_code":"9240811","prefecture":"石川県","prefecture_kana":"イシカワケン","city":"白山市","city_kana":"ハクサンシ","town":"長竹町","town_kana":"ナガタケマチ","prefecture_code":17},"0029":{"zip_code":"9240029","prefecture":"石川県","prefecture_kana":"イシカワケン","city":"白山市","city_kana":"ハクサンシ","town":"中成","town_kana":"ナカナリ","prefecture_code":17},"0877":{"zip_code":"9240877","prefecture":"石川県","prefecture_kana":"イシカワケン","city":"白山市","city_kana":"ハクサンシ","town":"中町","town_kana":"ナカマチ","prefecture_code":17},"0023":{"zip_code":"9240023","prefecture":"石川県","prefecture_kana":"イシカワケン","city":"白山市","city_kana":"ハクサンシ","town":"成町","town_kana":"ナリマチ","prefecture_code":17},"0045":{"zip_code":"9240045","prefecture":"石川県","prefecture_kana":"イシカワケン","city":"白山市","city_kana":"ハクサンシ","town":"西柏","town_kana":"ニシカシワ","prefecture_code":17},"0044":{"zip_code":"9240044","prefecture":"石川県","prefecture_kana":"イシカワケン","city":"白山市","city_kana":"ハクサンシ","town":"西柏町","town_kana":"ニシカシワマチ","prefecture_code":17},"0871":{"zip_code":"9240871","prefecture":"石川県","prefecture_kana":"イシカワケン","city":"白山市","city_kana":"ハクサンシ","town":"西新町","town_kana":"ニシシンマチ","prefecture_code":17},"0046":{"zip_code":"9240046","prefecture":"石川県","prefecture_kana":"イシカワケン","city":"白山市","city_kana":"ハクサンシ","town":"西美沢野","town_kana":"ニシミサワノ","prefecture_code":17},"0047":{"zip_code":"9240047","prefecture":"石川県","prefecture_kana":"イシカワケン","city":"白山市","city_kana":"ハクサンシ","town":"西美沢野町","town_kana":"ニシミサワノマチ","prefecture_code":17},"0808":{"zip_code":"9240808","prefecture":"石川県","prefecture_kana":"イシカワケン","city":"白山市","city_kana":"ハクサンシ","town":"布市","town_kana":"ヌノイチ","prefecture_code":17},"0863":{"zip_code":"9240863","prefecture":"石川県","prefecture_kana":"イシカワケン","city":"白山市","city_kana":"ハクサンシ","town":"博労","town_kana":"バクロ","prefecture_code":17},"0814":{"zip_code":"9240814","prefecture":"石川県","prefecture_kana":"イシカワケン","city":"白山市","city_kana":"ハクサンシ","town":"橋爪新町","town_kana":"ハシヅメシンマチ","prefecture_code":17},"0812":{"zip_code":"9240812","prefecture":"石川県","prefecture_kana":"イシカワケン","city":"白山市","city_kana":"ハクサンシ","town":"橋爪町","town_kana":"ハシヅメマチ","prefecture_code":17},"0002":{"zip_code":"9240002","prefecture":"石川県","prefecture_kana":"イシカワケン","city":"白山市","city_kana":"ハクサンシ","town":"八田中町","town_kana":"ハッタナカマチ","prefecture_code":17},"0001":{"zip_code":"9240001","prefecture":"石川県","prefecture_kana":"イシカワケン","city":"白山市","city_kana":"ハクサンシ","town":"八田町","town_kana":"ハッタマチ","prefecture_code":17},"0864":{"zip_code":"9240864","prefecture":"石川県","prefecture_kana":"イシカワケン","city":"白山市","city_kana":"ハクサンシ","town":"馬場","town_kana":"ババ","prefecture_code":17},"0013":{"zip_code":"9240013","prefecture":"石川県","prefecture_kana":"イシカワケン","city":"白山市","city_kana":"ハクサンシ","town":"番匠町","town_kana":"バンジョウマチ","prefecture_code":17},"0856":{"zip_code":"9240856","prefecture":"石川県","prefecture_kana":"イシカワケン","city":"白山市","city_kana":"ハクサンシ","town":"番田町","town_kana":"バンダマチ","prefecture_code":17},"0883":{"zip_code":"9240883","prefecture":"石川県","prefecture_kana":"イシカワケン","city":"白山市","city_kana":"ハクサンシ","town":"東一番町","town_kana":"ヒガシイチバンチョウ","prefecture_code":17},"0042":{"zip_code":"9240042","prefecture":"石川県","prefecture_kana":"イシカワケン","city":"白山市","city_kana":"ハクサンシ","town":"東柏町","town_kana":"ヒガシカシワマチ","prefecture_code":17},"0887":{"zip_code":"9240887","prefecture":"石川県","prefecture_kana":"イシカワケン","city":"白山市","city_kana":"ハクサンシ","town":"東三番町","town_kana":"ヒガシサンバンチョウ","prefecture_code":17},"0884":{"zip_code":"9240884","prefecture":"石川県","prefecture_kana":"イシカワケン","city":"白山市","city_kana":"ハクサンシ","town":"東新町","town_kana":"ヒガシシンマチ","prefecture_code":17},"0886":{"zip_code":"9240886","prefecture":"石川県","prefecture_kana":"イシカワケン","city":"白山市","city_kana":"ハクサンシ","town":"東二番町","town_kana":"ヒガシニバンチョウ","prefecture_code":17},"0041":{"zip_code":"9240041","prefecture":"石川県","prefecture_kana":"イシカワケン","city":"白山市","city_kana":"ハクサンシ","town":"東美沢野町","town_kana":"ヒガシミサワノマチ","prefecture_code":17},"0026":{"zip_code":"9240026","prefecture":"石川県","prefecture_kana":"イシカワケン","city":"白山市","city_kana":"ハクサンシ","town":"平木町","town_kana":"ヒラギマチ","prefecture_code":17},"0841":{"zip_code":"9240841","prefecture":"石川県","prefecture_kana":"イシカワケン","city":"白山市","city_kana":"ハクサンシ","town":"平松町","town_kana":"ヒラマツマチ","prefecture_code":17},"0813":{"zip_code":"9240813","prefecture":"石川県","prefecture_kana":"イシカワケン","city":"白山市","city_kana":"ハクサンシ","town":"福正寺町","town_kana":"フクショウジマチ","prefecture_code":17},"0858":{"zip_code":"9240858","prefecture":"石川県","prefecture_kana":"イシカワケン","city":"白山市","city_kana":"ハクサンシ","town":"福新町","town_kana":"フクシンマチ","prefecture_code":17},"0051":{"zip_code":"9240051","prefecture":"石川県","prefecture_kana":"イシカワケン","city":"白山市","city_kana":"ハクサンシ","town":"福留町","town_kana":"フクドメマチ","prefecture_code":17},"0059":{"zip_code":"9240059","prefecture":"石川県","prefecture_kana":"イシカワケン","city":"白山市","city_kana":"ハクサンシ","town":"福留南","town_kana":"フクドメミナミ","prefecture_code":17},"0857":{"zip_code":"9240857","prefecture":"石川県","prefecture_kana":"イシカワケン","city":"白山市","city_kana":"ハクサンシ","town":"福永町","town_kana":"フクナガマチ","prefecture_code":17},"0012":{"zip_code":"9240012","prefecture":"石川県","prefecture_kana":"イシカワケン","city":"白山市","city_kana":"ハクサンシ","town":"福増町","town_kana":"フクマスマチ","prefecture_code":17},"0831":{"zip_code":"9240831","prefecture":"石川県","prefecture_kana":"イシカワケン","city":"白山市","city_kana":"ハクサンシ","town":"藤波","town_kana":"フジナミ","prefecture_code":17},"0832":{"zip_code":"9240832","prefecture":"石川県","prefecture_kana":"イシカワケン","city":"白山市","city_kana":"ハクサンシ","town":"藤木町","town_kana":"フジノキマチ","prefecture_code":17},"0025":{"zip_code":"9240025","prefecture":"石川県","prefecture_kana":"イシカワケン","city":"白山市","city_kana":"ハクサンシ","town":"蕪城","town_kana":"ブジョウ","prefecture_code":17},"0872":{"zip_code":"9240872","prefecture":"石川県","prefecture_kana":"イシカワケン","city":"白山市","city_kana":"ハクサンシ","town":"古城町","town_kana":"フルシロマチ","prefecture_code":17},"0076":{"zip_code":"9240076","prefecture":"石川県","prefecture_kana":"イシカワケン","city":"白山市","city_kana":"ハクサンシ","town":"法仏町","town_kana":"ホウブツマチ","prefecture_code":17},"0823":{"zip_code":"9240823","prefecture":"石川県","prefecture_kana":"イシカワケン","city":"白山市","city_kana":"ハクサンシ","town":"坊丸町","town_kana":"ボウマルマチ","prefecture_code":17},"0057":{"zip_code":"9240057","prefecture":"石川県","prefecture_kana":"イシカワケン","city":"白山市","city_kana":"ハクサンシ","town":"松本町","town_kana":"マツモトマチ","prefecture_code":17},"0815":{"zip_code":"9240815","prefecture":"石川県","prefecture_kana":"イシカワケン","city":"白山市","city_kana":"ハクサンシ","town":"三浦町","town_kana":"ミウラマチ","prefecture_code":17},"0820":{"zip_code":"9240820","prefecture":"石川県","prefecture_kana":"イシカワケン","city":"白山市","city_kana":"ハクサンシ","town":"美里町","town_kana":"ミサトマチ","prefecture_code":17},"0048":{"zip_code":"9240048","prefecture":"石川県","prefecture_kana":"イシカワケン","city":"白山市","city_kana":"ハクサンシ","town":"美沢野町","town_kana":"ミサワノマチ","prefecture_code":17},"0855":{"zip_code":"9240855","prefecture":"石川県","prefecture_kana":"イシカワケン","city":"白山市","city_kana":"ハクサンシ","town":"水島町","town_kana":"ミズシママチ","prefecture_code":17},"0822":{"zip_code":"9240822","prefecture":"石川県","prefecture_kana":"イシカワケン","city":"白山市","city_kana":"ハクサンシ","town":"みずほ","town_kana":"ミズホ","prefecture_code":17},"0053":{"zip_code":"9240053","prefecture":"石川県","prefecture_kana":"イシカワケン","city":"白山市","city_kana":"ハクサンシ","town":"水澄町","town_kana":"ミスミマチ","prefecture_code":17},"0016":{"zip_code":"9240016","prefecture":"石川県","prefecture_kana":"イシカワケン","city":"白山市","city_kana":"ハクサンシ","town":"宮永市町","town_kana":"ミヤナガイチマチ","prefecture_code":17},"0018":{"zip_code":"9240018","prefecture":"石川県","prefecture_kana":"イシカワケン","city":"白山市","city_kana":"ハクサンシ","town":"宮永新町","town_kana":"ミヤナガシンマチ","prefecture_code":17},"0017":{"zip_code":"9240017","prefecture":"石川県","prefecture_kana":"イシカワケン","city":"白山市","city_kana":"ハクサンシ","town":"宮永町","town_kana":"ミヤナガマチ","prefecture_code":17},"0069":{"zip_code":"9240069","prefecture":"石川県","prefecture_kana":"イシカワケン","city":"白山市","city_kana":"ハクサンシ","town":"宮原町","town_kana":"ミヤハラマチ","prefecture_code":17},"0068":{"zip_code":"9240068","prefecture":"石川県","prefecture_kana":"イシカワケン","city":"白山市","city_kana":"ハクサンシ","town":"宮保新町","town_kana":"ミヤボシンチョウ","prefecture_code":17},"0061":{"zip_code":"9240061","prefecture":"石川県","prefecture_kana":"イシカワケン","city":"白山市","city_kana":"ハクサンシ","town":"宮保町","town_kana":"ミヤボマチ","prefecture_code":17},"0033":{"zip_code":"9240033","prefecture":"石川県","prefecture_kana":"イシカワケン","city":"白山市","city_kana":"ハクサンシ","town":"宮丸町","town_kana":"ミヤマルマチ","prefecture_code":17},"0816":{"zip_code":"9240816","prefecture":"石川県","prefecture_kana":"イシカワケン","city":"白山市","city_kana":"ハクサンシ","town":"三幸町","town_kana":"ミユキマチ","prefecture_code":17},"0833":{"zip_code":"9240833","prefecture":"石川県","prefecture_kana":"イシカワケン","city":"白山市","city_kana":"ハクサンシ","town":"向島町","town_kana":"ムカイジママチ","prefecture_code":17},"0006":{"zip_code":"9240006","prefecture":"石川県","prefecture_kana":"イシカワケン","city":"白山市","city_kana":"ハクサンシ","town":"村井新町","town_kana":"ムライシンマチ","prefecture_code":17},"0031":{"zip_code":"9240031","prefecture":"石川県","prefecture_kana":"イシカワケン","city":"白山市","city_kana":"ハクサンシ","town":"村井東","town_kana":"ムライヒガシ","prefecture_code":17},"0032":{"zip_code":"9240032","prefecture":"石川県","prefecture_kana":"イシカワケン","city":"白山市","city_kana":"ハクサンシ","town":"村井町","town_kana":"ムライマチ","prefecture_code":17},"0834":{"zip_code":"9240834","prefecture":"石川県","prefecture_kana":"イシカワケン","city":"白山市","city_kana":"ハクサンシ","town":"矢頃島町","town_kana":"ヤゴロジママチ","prefecture_code":17},"0862":{"zip_code":"9240862","prefecture":"石川県","prefecture_kana":"イシカワケン","city":"白山市","city_kana":"ハクサンシ","town":"安田町","town_kana":"ヤスタマチ","prefecture_code":17},"0843":{"zip_code":"9240843","prefecture":"石川県","prefecture_kana":"イシカワケン","city":"白山市","city_kana":"ハクサンシ","town":"安吉町","town_kana":"ヤスヨシマチ","prefecture_code":17},"0838":{"zip_code":"9240838","prefecture":"石川県","prefecture_kana":"イシカワケン","city":"白山市","city_kana":"ハクサンシ","town":"八束穂","town_kana":"ヤツカホ","prefecture_code":17},"0881":{"zip_code":"9240881","prefecture":"石川県","prefecture_kana":"イシカワケン","city":"白山市","city_kana":"ハクサンシ","town":"八ツ矢新町","town_kana":"ヤツヤシンマチ","prefecture_code":17},"0882":{"zip_code":"9240882","prefecture":"石川県","prefecture_kana":"イシカワケン","city":"白山市","city_kana":"ハクサンシ","town":"八ツ矢町","town_kana":"ヤツヤマチ","prefecture_code":17},"0836":{"zip_code":"9240836","prefecture":"石川県","prefecture_kana":"イシカワケン","city":"白山市","city_kana":"ハクサンシ","town":"山島台","town_kana":"ヤマジマダイ","prefecture_code":17},"0873":{"zip_code":"9240873","prefecture":"石川県","prefecture_kana":"イシカワケン","city":"白山市","city_kana":"ハクサンシ","town":"八日市町","town_kana":"ヨウカイチマチ","prefecture_code":17},"0011":{"zip_code":"9240011","prefecture":"石川県","prefecture_kana":"イシカワケン","city":"白山市","city_kana":"ハクサンシ","town":"横江町","town_kana":"ヨコエマチ","prefecture_code":17},"0861":{"zip_code":"9240861","prefecture":"石川県","prefecture_kana":"イシカワケン","city":"白山市","city_kana":"ハクサンシ","town":"横町","town_kana":"ヨコマチ","prefecture_code":17},"0837":{"zip_code":"9240837","prefecture":"石川県","prefecture_kana":"イシカワケン","city":"白山市","city_kana":"ハクサンシ","town":"吉田町","town_kana":"ヨシダマチ","prefecture_code":17},"0874":{"zip_code":"9240874","prefecture":"石川県","prefecture_kana":"イシカワケン","city":"白山市","city_kana":"ハクサンシ","town":"四日市町","town_kana":"ヨッカイチマチ","prefecture_code":17},"0852":{"zip_code":"9240852","prefecture":"石川県","prefecture_kana":"イシカワケン","city":"白山市","city_kana":"ハクサンシ","town":"四ツ屋町","town_kana":"ヨツヤマチ","prefecture_code":17},"0075":{"zip_code":"9240075","prefecture":"石川県","prefecture_kana":"イシカワケン","city":"白山市","city_kana":"ハクサンシ","town":"米永町","town_kana":"ヨネナガマチ","prefecture_code":17},"0054":{"zip_code":"9240054","prefecture":"石川県","prefecture_kana":"イシカワケン","city":"白山市","city_kana":"ハクサンシ","town":"米光町","town_kana":"ヨネミツマチ","prefecture_code":17},"0844":{"zip_code":"9240844","prefecture":"石川県","prefecture_kana":"イシカワケン","city":"白山市","city_kana":"ハクサンシ","town":"寄新保町","town_kana":"ヨリシンボマチ","prefecture_code":17},"0805":{"zip_code":"9240805","prefecture":"石川県","prefecture_kana":"イシカワケン","city":"白山市","city_kana":"ハクサンシ","town":"若宮","town_kana":"ワカミヤ","prefecture_code":17}}