{"0000":{"zip_code":"9250000","prefecture":"石川県","prefecture_kana":"イシカワケン","city":"羽咋市","city_kana":"ハクイシ","town":"","town_kana":"","prefecture_code":17},"0045":{"zip_code":"9250045","prefecture":"石川県","prefecture_kana":"イシカワケン","city":"羽咋市","city_kana":"ハクイシ","town":"粟生町","town_kana":"アオマチ","prefecture_code":17},"0034":{"zip_code":"9250034","prefecture":"石川県","prefecture_kana":"イシカワケン","city":"羽咋市","city_kana":"ハクイシ","town":"旭町","town_kana":"アサヒマチ","prefecture_code":17},"0043":{"zip_code":"9250043","prefecture":"石川県","prefecture_kana":"イシカワケン","city":"羽咋市","city_kana":"ハクイシ","town":"粟原町","town_kana":"アワラマチ","prefecture_code":17},"0026":{"zip_code":"9250026","prefecture":"石川県","prefecture_kana":"イシカワケン","city":"羽咋市","city_kana":"ハクイシ","town":"石野町","town_kana":"イシノマチ","prefecture_code":17},"0004":{"zip_code":"9250004","prefecture":"石川県","prefecture_kana":"イシカワケン","city":"羽咋市","city_kana":"ハクイシ","town":"一ノ宮町","town_kana":"イチノミヤマチ","prefecture_code":17},"0613":{"zip_code":"9250613","prefecture":"石川県","prefecture_kana":"イシカワケン","city":"羽咋市","city_kana":"ハクイシ","town":"飯山町","town_kana":"イノヤママチ","prefecture_code":17},"0605":{"zip_code":"9250605","prefecture":"石川県","prefecture_kana":"イシカワケン","city":"羽咋市","city_kana":"ハクイシ","town":"宇土野町","town_kana":"ウドノマチ","prefecture_code":17},"0611":{"zip_code":"9250611","prefecture":"石川県","prefecture_kana":"イシカワケン","city":"羽咋市","city_kana":"ハクイシ","town":"上江町","town_kana":"ウワエマチ","prefecture_code":17},"0015":{"zip_code":"9250015","prefecture":"石川県","prefecture_kana":"イシカワケン","city":"羽咋市","city_kana":"ハクイシ","town":"大川町","town_kana":"オオカワマチ","prefecture_code":17},"0025":{"zip_code":"9250025","prefecture":"石川県","prefecture_kana":"イシカワケン","city":"羽咋市","city_kana":"ハクイシ","town":"太田町","town_kana":"オオタマチ","prefecture_code":17},"0625":{"zip_code":"9250625","prefecture":"石川県","prefecture_kana":"イシカワケン","city":"羽咋市","city_kana":"ハクイシ","town":"尾長町","town_kana":"オナガマチ","prefecture_code":17},"0612":{"zip_code":"9250612","prefecture":"石川県","prefecture_kana":"イシカワケン","city":"羽咋市","city_kana":"ハクイシ","town":"垣内田町","town_kana":"カクッタマチ","prefecture_code":17},"0014":{"zip_code":"9250014","prefecture":"石川県","prefecture_kana":"イシカワケン","city":"羽咋市","city_kana":"ハクイシ","town":"釜屋町","town_kana":"カマヤマチ","prefecture_code":17},"0607":{"zip_code":"9250607","prefecture":"石川県","prefecture_kana":"イシカワケン","city":"羽咋市","city_kana":"ハクイシ","town":"上白瀬町","town_kana":"カミシロセマチ","prefecture_code":17},"0011":{"zip_code":"9250011","prefecture":"石川県","prefecture_kana":"イシカワケン","city":"羽咋市","city_kana":"ハクイシ","town":"上中山町","town_kana":"カミナカヤママチ","prefecture_code":17},"0033":{"zip_code":"9250033","prefecture":"石川県","prefecture_kana":"イシカワケン","city":"羽咋市","city_kana":"ハクイシ","town":"川原町","town_kana":"カワラマチ","prefecture_code":17},"0047":{"zip_code":"9250047","prefecture":"石川県","prefecture_kana":"イシカワケン","city":"羽咋市","city_kana":"ハクイシ","town":"御坊山町","town_kana":"ゴボウヤママチ","prefecture_code":17},"0003":{"zip_code":"9250003","prefecture":"石川県","prefecture_kana":"イシカワケン","city":"羽咋市","city_kana":"ハクイシ","town":"寺家町","town_kana":"ジケマチ","prefecture_code":17},"0624":{"zip_code":"9250624","prefecture":"石川県","prefecture_kana":"イシカワケン","city":"羽咋市","city_kana":"ハクイシ","town":"志々見町","town_kana":"シジミマチ","prefecture_code":17},"0616":{"zip_code":"9250616","prefecture":"石川県","prefecture_kana":"イシカワケン","city":"羽咋市","city_kana":"ハクイシ","town":"四町","town_kana":"シチョウ","prefecture_code":17},"0001":{"zip_code":"9250001","prefecture":"石川県","prefecture_kana":"イシカワケン","city":"羽咋市","city_kana":"ハクイシ","town":"柴垣町","town_kana":"シバガキマチ","prefecture_code":17},"0051":{"zip_code":"9250051","prefecture":"石川県","prefecture_kana":"イシカワケン","city":"羽咋市","city_kana":"ハクイシ","town":"島出町","town_kana":"シマデマチ","prefecture_code":17},"0604":{"zip_code":"9250604","prefecture":"石川県","prefecture_kana":"イシカワケン","city":"羽咋市","city_kana":"ハクイシ","town":"白石町","town_kana":"シロイシマチ","prefecture_code":17},"0606":{"zip_code":"9250606","prefecture":"石川県","prefecture_kana":"イシカワケン","city":"羽咋市","city_kana":"ハクイシ","town":"白瀬町","town_kana":"シロセマチ","prefecture_code":17},"0044":{"zip_code":"9250044","prefecture":"石川県","prefecture_kana":"イシカワケン","city":"羽咋市","city_kana":"ハクイシ","town":"新保町","town_kana":"シンボマチ","prefecture_code":17},"0601":{"zip_code":"9250601","prefecture":"石川県","prefecture_kana":"イシカワケン","city":"羽咋市","city_kana":"ハクイシ","town":"菅池町","town_kana":"スガイケマチ","prefecture_code":17},"0028":{"zip_code":"9250028","prefecture":"石川県","prefecture_kana":"イシカワケン","city":"羽咋市","city_kana":"ハクイシ","town":"次場町","town_kana":"スバマチ","prefecture_code":17},"0602":{"zip_code":"9250602","prefecture":"石川県","prefecture_kana":"イシカワケン","city":"羽咋市","city_kana":"ハクイシ","town":"千石町","town_kana":"センゴクマチ","prefecture_code":17},"0626":{"zip_code":"9250626","prefecture":"石川県","prefecture_kana":"イシカワケン","city":"羽咋市","city_kana":"ハクイシ","town":"千田町","town_kana":"センダマチ","prefecture_code":17},"0002":{"zip_code":"9250002","prefecture":"石川県","prefecture_kana":"イシカワケン","city":"羽咋市","city_kana":"ハクイシ","town":"滝谷町","town_kana":"タキダニマチ","prefecture_code":17},"0005":{"zip_code":"9250005","prefecture":"石川県","prefecture_kana":"イシカワケン","city":"羽咋市","city_kana":"ハクイシ","town":"滝町","town_kana":"タキマチ","prefecture_code":17},"0012":{"zip_code":"9250012","prefecture":"石川県","prefecture_kana":"イシカワケン","city":"羽咋市","city_kana":"ハクイシ","town":"千路町","town_kana":"チジマチ","prefecture_code":17},"0052":{"zip_code":"9250052","prefecture":"石川県","prefecture_kana":"イシカワケン","city":"羽咋市","city_kana":"ハクイシ","town":"中央町","town_kana":"チュウオウマチ","prefecture_code":17},"0615":{"zip_code":"9250615","prefecture":"石川県","prefecture_kana":"イシカワケン","city":"羽咋市","city_kana":"ハクイシ","town":"千代町","town_kana":"チヨマチ","prefecture_code":17},"0054":{"zip_code":"9250054","prefecture":"石川県","prefecture_kana":"イシカワケン","city":"羽咋市","city_kana":"ハクイシ","town":"千里浜町","town_kana":"チリハママチ","prefecture_code":17},"0042":{"zip_code":"9250042","prefecture":"石川県","prefecture_kana":"イシカワケン","city":"羽咋市","city_kana":"ハクイシ","town":"土橋町","town_kana":"ツチハシマチ","prefecture_code":17},"0617":{"zip_code":"9250617","prefecture":"石川県","prefecture_kana":"イシカワケン","city":"羽咋市","city_kana":"ハクイシ","town":"円井町","town_kana":"ツムライマチ","prefecture_code":17},"0027":{"zip_code":"9250027","prefecture":"石川県","prefecture_kana":"イシカワケン","city":"羽咋市","city_kana":"ハクイシ","town":"鶴多町","town_kana":"ツルタマチ","prefecture_code":17},"0614":{"zip_code":"9250614","prefecture":"石川県","prefecture_kana":"イシカワケン","city":"羽咋市","city_kana":"ハクイシ","town":"中川町","town_kana":"ナカガワマチ","prefecture_code":17},"0017":{"zip_code":"9250017","prefecture":"石川県","prefecture_kana":"イシカワケン","city":"羽咋市","city_kana":"ハクイシ","town":"西釜屋町","town_kana":"ニシカマヤマチ","prefecture_code":17},"0016":{"zip_code":"9250016","prefecture":"石川県","prefecture_kana":"イシカワケン","city":"羽咋市","city_kana":"ハクイシ","town":"羽咋町","town_kana":"ハクイマチ","prefecture_code":17},"0013":{"zip_code":"9250013","prefecture":"石川県","prefecture_kana":"イシカワケン","city":"羽咋市","city_kana":"ハクイシ","town":"東釜屋町","town_kana":"ヒガシカマヤマチ","prefecture_code":17},"0032":{"zip_code":"9250032","prefecture":"石川県","prefecture_kana":"イシカワケン","city":"羽咋市","city_kana":"ハクイシ","town":"東川原町","town_kana":"ヒガシカワラマチ","prefecture_code":17},"0031":{"zip_code":"9250031","prefecture":"石川県","prefecture_kana":"イシカワケン","city":"羽咋市","city_kana":"ハクイシ","town":"東的場町","town_kana":"ヒガシマトバマチ","prefecture_code":17},"0621":{"zip_code":"9250621","prefecture":"石川県","prefecture_kana":"イシカワケン","city":"羽咋市","city_kana":"ハクイシ","town":"菱分町","town_kana":"ヒシワケマチ","prefecture_code":17},"0046":{"zip_code":"9250046","prefecture":"石川県","prefecture_kana":"イシカワケン","city":"羽咋市","city_kana":"ハクイシ","town":"兵庫町","town_kana":"ヒョウゴマチ","prefecture_code":17},"0022":{"zip_code":"9250022","prefecture":"石川県","prefecture_kana":"イシカワケン","city":"羽咋市","city_kana":"ハクイシ","town":"深江町","town_kana":"フカエマチ","prefecture_code":17},"0603":{"zip_code":"9250603","prefecture":"石川県","prefecture_kana":"イシカワケン","city":"羽咋市","city_kana":"ハクイシ","town":"福水町","town_kana":"フクミズマチ","prefecture_code":17},"0622":{"zip_code":"9250622","prefecture":"石川県","prefecture_kana":"イシカワケン","city":"羽咋市","city_kana":"ハクイシ","town":"堀替新町","town_kana":"ホリカエシンマチ","prefecture_code":17},"0623":{"zip_code":"9250623","prefecture":"石川県","prefecture_kana":"イシカワケン","city":"羽咋市","city_kana":"ハクイシ","town":"本江町","town_kana":"ホンゴウマチ","prefecture_code":17},"0035":{"zip_code":"9250035","prefecture":"石川県","prefecture_kana":"イシカワケン","city":"羽咋市","city_kana":"ハクイシ","town":"本町","town_kana":"ホンマチ","prefecture_code":17},"0048":{"zip_code":"9250048","prefecture":"石川県","prefecture_kana":"イシカワケン","city":"羽咋市","city_kana":"ハクイシ","town":"松ケ下町","town_kana":"マツガシタマチ","prefecture_code":17},"0036":{"zip_code":"9250036","prefecture":"石川県","prefecture_kana":"イシカワケン","city":"羽咋市","city_kana":"ハクイシ","town":"的場町","town_kana":"マトバマチ","prefecture_code":17},"0608":{"zip_code":"9250608","prefecture":"石川県","prefecture_kana":"イシカワケン","city":"羽咋市","city_kana":"ハクイシ","town":"神子原町","town_kana":"ミコハラマチ","prefecture_code":17},"0024":{"zip_code":"9250024","prefecture":"石川県","prefecture_kana":"イシカワケン","city":"羽咋市","city_kana":"ハクイシ","town":"三ツ屋町","town_kana":"ミツヤマチ","prefecture_code":17},"0053":{"zip_code":"9250053","prefecture":"石川県","prefecture_kana":"イシカワケン","city":"羽咋市","city_kana":"ハクイシ","town":"南中央町","town_kana":"ミナミチュウオウマチ","prefecture_code":17},"0018":{"zip_code":"9250018","prefecture":"石川県","prefecture_kana":"イシカワケン","city":"羽咋市","city_kana":"ハクイシ","town":"柳田町","town_kana":"ヤナイダマチ","prefecture_code":17},"0049":{"zip_code":"9250049","prefecture":"石川県","prefecture_kana":"イシカワケン","city":"羽咋市","city_kana":"ハクイシ","town":"柳橋町","town_kana":"ヤナギバシマチ","prefecture_code":17},"0021":{"zip_code":"9250021","prefecture":"石川県","prefecture_kana":"イシカワケン","city":"羽咋市","city_kana":"ハクイシ","town":"吉崎町","town_kana":"ヨシサキマチ","prefecture_code":17},"0041":{"zip_code":"9250041","prefecture":"石川県","prefecture_kana":"イシカワケン","city":"羽咋市","city_kana":"ハクイシ","town":"立開町","town_kana":"リュウガイマチ","prefecture_code":17},"0023":{"zip_code":"9250023","prefecture":"石川県","prefecture_kana":"イシカワケン","city":"羽咋市","city_kana":"ハクイシ","town":"若草町","town_kana":"ワカクサマチ","prefecture_code":17},"0100":{"zip_code":"9250100","prefecture":"石川県","prefecture_kana":"イシカワケン","city":"羽咋郡志賀町","city_kana":"ハクイグンシカマチ","town":"","town_kana":"","prefecture_code":17},"0454":{"zip_code":"9250454","prefecture":"石川県","prefecture_kana":"イシカワケン","city":"羽咋郡志賀町","city_kana":"ハクイグンシカマチ","town":"相神","town_kana":"アイカミ","prefecture_code":17},"0574":{"zip_code":"9250574","prefecture":"石川県","prefecture_kana":"イシカワケン","city":"羽咋郡志賀町","city_kana":"ハクイグンシカマチ","town":"赤崎","town_kana":"アカサキ","prefecture_code":17},"0161":{"zip_code":"9250161","prefecture":"石川県","prefecture_kana":"イシカワケン","city":"羽咋郡志賀町","city_kana":"ハクイグンシカマチ","town":"赤住","town_kana":"アカスミ","prefecture_code":17},"0426":{"zip_code":"9250426","prefecture":"石川県","prefecture_kana":"イシカワケン","city":"羽咋郡志賀町","city_kana":"ハクイグンシカマチ","town":"阿川","town_kana":"アコウ","prefecture_code":17},"0121":{"zip_code":"9250121","prefecture":"石川県","prefecture_kana":"イシカワケン","city":"羽咋郡志賀町","city_kana":"ハクイグンシカマチ","town":"安津見","town_kana":"アヅミ","prefecture_code":17},"0132":{"zip_code":"9250132","prefecture":"石川県","prefecture_kana":"イシカワケン","city":"羽咋郡志賀町","city_kana":"ハクイグンシカマチ","town":"穴口","town_kana":"アナグチ","prefecture_code":17},"0166":{"zip_code":"9250166","prefecture":"石川県","prefecture_kana":"イシカワケン","city":"羽咋郡志賀町","city_kana":"ハクイグンシカマチ","town":"安部屋","town_kana":"アブヤ","prefecture_code":17},"0146":{"zip_code":"9250146","prefecture":"石川県","prefecture_kana":"イシカワケン","city":"羽咋郡志賀町","city_kana":"ハクイグンシカマチ","town":"甘田","town_kana":"アマダ","prefecture_code":17},"0307":{"zip_code":"9250307","prefecture":"石川県","prefecture_kana":"イシカワケン","city":"羽咋郡志賀町","city_kana":"ハクイグンシカマチ","town":"荒屋","town_kana":"アラヤ","prefecture_code":17},"0215":{"zip_code":"9250215","prefecture":"石川県","prefecture_kana":"イシカワケン","city":"羽咋郡志賀町","city_kana":"ハクイグンシカマチ","town":"出雲","town_kana":"イズモ","prefecture_code":17},"0563":{"zip_code":"9250563","prefecture":"石川県","prefecture_kana":"イシカワケン","city":"羽咋郡志賀町","city_kana":"ハクイグンシカマチ","town":"稲敷","town_kana":"イナシキ","prefecture_code":17},"0432":{"zip_code":"9250432","prefecture":"石川県","prefecture_kana":"イシカワケン","city":"羽咋郡志賀町","city_kana":"ハクイグンシカマチ","town":"今田","town_kana":"イマダ","prefecture_code":17},"0424":{"zip_code":"9250424","prefecture":"石川県","prefecture_kana":"イシカワケン","city":"羽咋郡志賀町","city_kana":"ハクイグンシカマチ","town":"入釜","town_kana":"イリガマ","prefecture_code":17},"0145":{"zip_code":"9250145","prefecture":"石川県","prefecture_kana":"イシカワケン","city":"羽咋郡志賀町","city_kana":"ハクイグンシカマチ","town":"岩田","town_kana":"イワタ","prefecture_code":17},"0201":{"zip_code":"9250201","prefecture":"石川県","prefecture_kana":"イシカワケン","city":"羽咋郡志賀町","city_kana":"ハクイグンシカマチ","town":"印内","town_kana":"インナイ","prefecture_code":17},"0385":{"zip_code":"9250385","prefecture":"石川県","prefecture_kana":"イシカワケン","city":"羽咋郡志賀町","city_kana":"ハクイグンシカマチ","town":"牛ケ首","town_kana":"ウシガクビ","prefecture_code":17},"0423":{"zip_code":"9250423","prefecture":"石川県","prefecture_kana":"イシカワケン","city":"羽咋郡志賀町","city_kana":"ハクイグンシカマチ","town":"鵜野屋","town_kana":"ウノヤ","prefecture_code":17},"0134":{"zip_code":"9250134","prefecture":"石川県","prefecture_kana":"イシカワケン","city":"羽咋郡志賀町","city_kana":"ハクイグンシカマチ","town":"上棚","town_kana":"ウワダナ","prefecture_code":17},"0165":{"zip_code":"9250165","prefecture":"石川県","prefecture_kana":"イシカワケン","city":"羽咋郡志賀町","city_kana":"ハクイグンシカマチ","town":"上野","town_kana":"ウワノ","prefecture_code":17},"0435":{"zip_code":"9250435","prefecture":"石川県","prefecture_kana":"イシカワケン","city":"羽咋郡志賀町","city_kana":"ハクイグンシカマチ","town":"江添","town_kana":"エゾエ","prefecture_code":17},"0163":{"zip_code":"9250163","prefecture":"石川県","prefecture_kana":"イシカワケン","city":"羽咋郡志賀町","city_kana":"ハクイグンシカマチ","town":"小浦","town_kana":"オウラ","prefecture_code":17},"0133":{"zip_code":"9250133","prefecture":"石川県","prefecture_kana":"イシカワケン","city":"羽咋郡志賀町","city_kana":"ハクイグンシカマチ","town":"大坂","town_kana":"オオサカ","prefecture_code":17},"0383":{"zip_code":"9250383","prefecture":"石川県","prefecture_kana":"イシカワケン","city":"羽咋郡志賀町","city_kana":"ハクイグンシカマチ","town":"大笹","town_kana":"オオザサ","prefecture_code":17},"0164":{"zip_code":"9250164","prefecture":"石川県","prefecture_kana":"イシカワケン","city":"羽咋郡志賀町","city_kana":"ハクイグンシカマチ","town":"大津","town_kana":"オオヅ","prefecture_code":17},"0434":{"zip_code":"9250434","prefecture":"石川県","prefecture_kana":"イシカワケン","city":"羽咋郡志賀町","city_kana":"ハクイグンシカマチ","town":"大西","town_kana":"オオニシ","prefecture_code":17},"0575":{"zip_code":"9250575","prefecture":"石川県","prefecture_kana":"イシカワケン","city":"羽咋郡志賀町","city_kana":"ハクイグンシカマチ","town":"小窪","town_kana":"オクボ","prefecture_code":17},"0147":{"zip_code":"9250147","prefecture":"石川県","prefecture_kana":"イシカワケン","city":"羽咋郡志賀町","city_kana":"ハクイグンシカマチ","town":"大島","town_kana":"オシマ","prefecture_code":17},"0436":{"zip_code":"9250436","prefecture":"石川県","prefecture_kana":"イシカワケン","city":"羽咋郡志賀町","city_kana":"ハクイグンシカマチ","town":"貝田","town_kana":"カイダ","prefecture_code":17},"0562":{"zip_code":"9250562","prefecture":"石川県","prefecture_kana":"イシカワケン","city":"羽咋郡志賀町","city_kana":"ハクイグンシカマチ","town":"栢木","town_kana":"カイノキ","prefecture_code":17},"0155":{"zip_code":"9250155","prefecture":"石川県","prefecture_kana":"イシカワケン","city":"羽咋郡志賀町","city_kana":"ハクイグンシカマチ","town":"神代","town_kana":"カクミ","prefecture_code":17},"0565":{"zip_code":"9250565","prefecture":"石川県","prefecture_kana":"イシカワケン","city":"羽咋郡志賀町","city_kana":"ハクイグンシカマチ","town":"香能","town_kana":"カノウ","prefecture_code":17},"0168":{"zip_code":"9250168","prefecture":"石川県","prefecture_kana":"イシカワケン","city":"羽咋郡志賀町","city_kana":"ハクイグンシカマチ","town":"川尻","town_kana":"カワシリ","prefecture_code":17},"0152":{"zip_code":"9250152","prefecture":"石川県","prefecture_kana":"イシカワケン","city":"羽咋郡志賀町","city_kana":"ハクイグンシカマチ","town":"北吉田","town_kana":"キタヨシダ","prefecture_code":17},"0457":{"zip_code":"9250457","prefecture":"石川県","prefecture_kana":"イシカワケン","city":"羽咋郡志賀町","city_kana":"ハクイグンシカマチ","town":"給分","town_kana":"キュウブン","prefecture_code":17},"0421":{"zip_code":"9250421","prefecture":"石川県","prefecture_kana":"イシカワケン","city":"羽咋郡志賀町","city_kana":"ハクイグンシカマチ","town":"切留","town_kana":"キリドメ","prefecture_code":17},"0306":{"zip_code":"9250306","prefecture":"石川県","prefecture_kana":"イシカワケン","city":"羽咋郡志賀町","city_kana":"ハクイグンシカマチ","town":"草木","town_kana":"クサギ","prefecture_code":17},"0122":{"zip_code":"9250122","prefecture":"石川県","prefecture_kana":"イシカワケン","city":"羽咋郡志賀町","city_kana":"ハクイグンシカマチ","town":"倉垣","town_kana":"クラカキ","prefecture_code":17},"0207":{"zip_code":"9250207","prefecture":"石川県","prefecture_kana":"イシカワケン","city":"羽咋郡志賀町","city_kana":"ハクイグンシカマチ","town":"栗山","town_kana":"クリヤマ","prefecture_code":17},"0373":{"zip_code":"9250373","prefecture":"石川県","prefecture_kana":"イシカワケン","city":"羽咋郡志賀町","city_kana":"ハクイグンシカマチ","town":"小室","town_kana":"コモロ","prefecture_code":17},"0384":{"zip_code":"9250384","prefecture":"石川県","prefecture_kana":"イシカワケン","city":"羽咋郡志賀町","city_kana":"ハクイグンシカマチ","town":"五里峠","town_kana":"ゴリトウゲ","prefecture_code":17},"0382":{"zip_code":"9250382","prefecture":"石川県","prefecture_kana":"イシカワケン","city":"羽咋郡志賀町","city_kana":"ハクイグンシカマチ","town":"米町","town_kana":"コンマチ","prefecture_code":17},"0571":{"zip_code":"9250571","prefecture":"石川県","prefecture_kana":"イシカワケン","city":"羽咋郡志賀町","city_kana":"ハクイグンシカマチ","town":"西海風無","town_kana":"サイカイカザナシ","prefecture_code":17},"0572":{"zip_code":"9250572","prefecture":"石川県","prefecture_kana":"イシカワケン","city":"羽咋郡志賀町","city_kana":"ハクイグンシカマチ","town":"西海千ノ浦","town_kana":"サイカイチノウラ","prefecture_code":17},"0573":{"zip_code":"9250573","prefecture":"石川県","prefecture_kana":"イシカワケン","city":"羽咋郡志賀町","city_kana":"ハクイグンシカマチ","town":"西海久喜","town_kana":"サイカイヒサキ","prefecture_code":17},"0566":{"zip_code":"9250566","prefecture":"石川県","prefecture_kana":"イシカワケン","city":"羽咋郡志賀町","city_kana":"ハクイグンシカマチ","town":"西海風戸","town_kana":"サイカイフト","prefecture_code":17},"0564":{"zip_code":"9250564","prefecture":"石川県","prefecture_kana":"イシカワケン","city":"羽咋郡志賀町","city_kana":"ハクイグンシカマチ","town":"酒見","town_kana":"サカミ","prefecture_code":17},"0577":{"zip_code":"9250577","prefecture":"石川県","prefecture_kana":"イシカワケン","city":"羽咋郡志賀町","city_kana":"ハクイグンシカマチ","town":"笹波","town_kana":"ササナミ","prefecture_code":17},"0453":{"zip_code":"9250453","prefecture":"石川県","prefecture_kana":"イシカワケン","city":"羽咋郡志賀町","city_kana":"ハクイグンシカマチ","town":"里本江","town_kana":"サトホンゴ","prefecture_code":17},"0313":{"zip_code":"9250313","prefecture":"石川県","prefecture_kana":"イシカワケン","city":"羽咋郡志賀町","city_kana":"ハクイグンシカマチ","town":"三明","town_kana":"サンミョウ","prefecture_code":17},"0576":{"zip_code":"9250576","prefecture":"石川県","prefecture_kana":"イシカワケン","city":"羽咋郡志賀町","city_kana":"ハクイグンシカマチ","town":"鹿頭","town_kana":"シシズ","prefecture_code":17},"0202":{"zip_code":"9250202","prefecture":"石川県","prefecture_kana":"イシカワケン","city":"羽咋郡志賀町","city_kana":"ハクイグンシカマチ","town":"代田","town_kana":"シナンタ","prefecture_code":17},"0422":{"zip_code":"9250422","prefecture":"石川県","prefecture_kana":"イシカワケン","city":"羽咋郡志賀町","city_kana":"ハクイグンシカマチ","town":"地保","town_kana":"ジホ","prefecture_code":17},"0153":{"zip_code":"9250153","prefecture":"石川県","prefecture_kana":"イシカワケン","city":"羽咋郡志賀町","city_kana":"ハクイグンシカマチ","town":"清水今江","town_kana":"シミズイマエ","prefecture_code":17},"0371":{"zip_code":"9250371","prefecture":"石川県","prefecture_kana":"イシカワケン","city":"羽咋郡志賀町","city_kana":"ハクイグンシカマチ","town":"釈迦堂","town_kana":"シャカドウ","prefecture_code":17},"0203":{"zip_code":"9250203","prefecture":"石川県","prefecture_kana":"イシカワケン","city":"羽咋郡志賀町","city_kana":"ハクイグンシカマチ","town":"新林","town_kana":"シンバヤシ","prefecture_code":17},"0154":{"zip_code":"9250154","prefecture":"石川県","prefecture_kana":"イシカワケン","city":"羽咋郡志賀町","city_kana":"ハクイグンシカマチ","town":"末吉","town_kana":"スエヨシ","prefecture_code":17},"0456":{"zip_code":"9250456","prefecture":"石川県","prefecture_kana":"イシカワケン","city":"羽咋郡志賀町","city_kana":"ハクイグンシカマチ","town":"草江","town_kana":"ソウゴ","prefecture_code":17},"0427":{"zip_code":"9250427","prefecture":"石川県","prefecture_kana":"イシカワケン","city":"羽咋郡志賀町","city_kana":"ハクイグンシカマチ","town":"楚和","town_kana":"ソワ","prefecture_code":17},"0431":{"zip_code":"9250431","prefecture":"石川県","prefecture_kana":"イシカワケン","city":"羽咋郡志賀町","city_kana":"ハクイグンシカマチ","town":"尊保","town_kana":"ソンボ","prefecture_code":17},"0561":{"zip_code":"9250561","prefecture":"石川県","prefecture_kana":"イシカワケン","city":"羽咋郡志賀町","city_kana":"ハクイグンシカマチ","town":"大福寺","town_kana":"ダイフクジ","prefecture_code":17},"0141":{"zip_code":"9250141","prefecture":"石川県","prefecture_kana":"イシカワケン","city":"羽咋郡志賀町","city_kana":"ハクイグンシカマチ","town":"高浜町","town_kana":"タカハマチョウ","prefecture_code":17},"0136":{"zip_code":"9250136","prefecture":"石川県","prefecture_kana":"イシカワケン","city":"羽咋郡志賀町","city_kana":"ハクイグンシカマチ","town":"舘","town_kana":"タチ","prefecture_code":17},"0213":{"zip_code":"9250213","prefecture":"石川県","prefecture_kana":"イシカワケン","city":"羽咋郡志賀町","city_kana":"ハクイグンシカマチ","town":"舘開","town_kana":"タチヒラキ","prefecture_code":17},"0437":{"zip_code":"9250437","prefecture":"石川県","prefecture_kana":"イシカワケン","city":"羽咋郡志賀町","city_kana":"ハクイグンシカマチ","town":"田中","town_kana":"タナカ","prefecture_code":17},"0206":{"zip_code":"9250206","prefecture":"石川県","prefecture_kana":"イシカワケン","city":"羽咋郡志賀町","city_kana":"ハクイグンシカマチ","town":"谷屋","town_kana":"タニヤ","prefecture_code":17},"0381":{"zip_code":"9250381","prefecture":"石川県","prefecture_kana":"イシカワケン","city":"羽咋郡志賀町","city_kana":"ハクイグンシカマチ","town":"田原","town_kana":"タワラ","prefecture_code":17},"0144":{"zip_code":"9250144","prefecture":"石川県","prefecture_kana":"イシカワケン","city":"羽咋郡志賀町","city_kana":"ハクイグンシカマチ","town":"坪野","town_kana":"ツボノ","prefecture_code":17},"0345":{"zip_code":"9250345","prefecture":"石川県","prefecture_kana":"イシカワケン","city":"羽咋郡志賀町","city_kana":"ハクイグンシカマチ","town":"富来牛下","town_kana":"トギウシオロシ","prefecture_code":17},"0445":{"zip_code":"9250445","prefecture":"石川県","prefecture_kana":"イシカワケン","city":"羽咋郡志賀町","city_kana":"ハクイグンシカマチ","town":"富来牛下","town_kana":"トギウシオロシ","prefecture_code":17},"0444":{"zip_code":"9250444","prefecture":"石川県","prefecture_kana":"イシカワケン","city":"羽咋郡志賀町","city_kana":"ハクイグンシカマチ","town":"富来生神","town_kana":"トギウルカミ","prefecture_code":17},"0443":{"zip_code":"9250443","prefecture":"石川県","prefecture_kana":"イシカワケン","city":"羽咋郡志賀町","city_kana":"ハクイグンシカマチ","town":"富来七海","town_kana":"トギシツミ","prefecture_code":17},"0446":{"zip_code":"9250446","prefecture":"石川県","prefecture_kana":"イシカワケン","city":"羽咋郡志賀町","city_kana":"ハクイグンシカマチ","town":"富来地頭町","town_kana":"トギジトウマチ","prefecture_code":17},"0448":{"zip_code":"9250448","prefecture":"石川県","prefecture_kana":"イシカワケン","city":"羽咋郡志賀町","city_kana":"ハクイグンシカマチ","town":"富来高田","town_kana":"トギタカタ","prefecture_code":17},"0447":{"zip_code":"9250447","prefecture":"石川県","prefecture_kana":"イシカワケン","city":"羽咋郡志賀町","city_kana":"ハクイグンシカマチ","town":"富来領家町","town_kana":"トギリョウケマチ","prefecture_code":17},"0212":{"zip_code":"9250212","prefecture":"石川県","prefecture_kana":"イシカワケン","city":"羽咋郡志賀町","city_kana":"ハクイグンシカマチ","town":"徳田","town_kana":"トクダ","prefecture_code":17},"0425":{"zip_code":"9250425","prefecture":"石川県","prefecture_kana":"イシカワケン","city":"羽咋郡志賀町","city_kana":"ハクイグンシカマチ","town":"灯","town_kana":"トボシ","prefecture_code":17},"0452":{"zip_code":"9250452","prefecture":"石川県","prefecture_kana":"イシカワケン","city":"羽咋郡志賀町","city_kana":"ハクイグンシカマチ","town":"八幡座主","town_kana":"ヤワタザス","prefecture_code":17},"0148":{"zip_code":"9250148","prefecture":"石川県","prefecture_kana":"イシカワケン","city":"羽咋郡志賀町","city_kana":"ハクイグンシカマチ","town":"長沢","town_kana":"ナガサワ","prefecture_code":17},"0376":{"zip_code":"9250376","prefecture":"石川県","prefecture_kana":"イシカワケン","city":"羽咋郡志賀町","city_kana":"ハクイグンシカマチ","town":"長田","town_kana":"ナガタ","prefecture_code":17},"0314":{"zip_code":"9250314","prefecture":"石川県","prefecture_kana":"イシカワケン","city":"羽咋郡志賀町","city_kana":"ハクイグンシカマチ","town":"中畠","town_kana":"ナカバタ","prefecture_code":17},"0455":{"zip_code":"9250455","prefecture":"石川県","prefecture_kana":"イシカワケン","city":"羽咋郡志賀町","city_kana":"ハクイグンシカマチ","town":"中浜","town_kana":"ナカハマ","prefecture_code":17},"0304":{"zip_code":"9250304","prefecture":"石川県","prefecture_kana":"イシカワケン","city":"羽咋郡志賀町","city_kana":"ハクイグンシカマチ","town":"中山","town_kana":"ナカヤマ","prefecture_code":17},"0151":{"zip_code":"9250151","prefecture":"石川県","prefecture_kana":"イシカワケン","city":"羽咋郡志賀町","city_kana":"ハクイグンシカマチ","town":"梨谷小山","town_kana":"ナシタニコヤマ","prefecture_code":17},"0124":{"zip_code":"9250124","prefecture":"石川県","prefecture_kana":"イシカワケン","city":"羽咋郡志賀町","city_kana":"ハクイグンシカマチ","town":"西山","town_kana":"ニシヤマ","prefecture_code":17},"0125":{"zip_code":"9250125","prefecture":"石川県","prefecture_kana":"イシカワケン","city":"羽咋郡志賀町","city_kana":"ハクイグンシカマチ","town":"西山台","town_kana":"ニシヤマダイ","prefecture_code":17},"0135":{"zip_code":"9250135","prefecture":"石川県","prefecture_kana":"イシカワケン","city":"羽咋郡志賀町","city_kana":"ハクイグンシカマチ","town":"二所宮","town_kana":"ニショノミヤ","prefecture_code":17},"0372":{"zip_code":"9250372","prefecture":"石川県","prefecture_kana":"イシカワケン","city":"羽咋郡志賀町","city_kana":"ハクイグンシカマチ","town":"直海","town_kana":"ノウミ","prefecture_code":17},"0214":{"zip_code":"9250214","prefecture":"石川県","prefecture_kana":"イシカワケン","city":"羽咋郡志賀町","city_kana":"ハクイグンシカマチ","town":"火打谷","town_kana":"ヒウチダニ","prefecture_code":17},"0442":{"zip_code":"9250442","prefecture":"石川県","prefecture_kana":"イシカワケン","city":"羽咋郡志賀町","city_kana":"ハクイグンシカマチ","town":"東小室","town_kana":"ヒガシオモロ","prefecture_code":17},"0303":{"zip_code":"9250303","prefecture":"石川県","prefecture_kana":"イシカワケン","city":"羽咋郡志賀町","city_kana":"ハクイグンシカマチ","town":"日下田","town_kana":"ヒゲタ","prefecture_code":17},"0301":{"zip_code":"9250301","prefecture":"石川県","prefecture_kana":"イシカワケン","city":"羽咋郡志賀町","city_kana":"ハクイグンシカマチ","town":"日用","town_kana":"ヒヨウ","prefecture_code":17},"0441":{"zip_code":"9250441","prefecture":"石川県","prefecture_kana":"イシカワケン","city":"羽咋郡志賀町","city_kana":"ハクイグンシカマチ","town":"広地","town_kana":"ヒロヂ","prefecture_code":17},"0137":{"zip_code":"9250137","prefecture":"石川県","prefecture_kana":"イシカワケン","city":"羽咋郡志賀町","city_kana":"ハクイグンシカマチ","town":"福井","town_kana":"フクイ","prefecture_code":17},"0142":{"zip_code":"9250142","prefecture":"石川県","prefecture_kana":"イシカワケン","city":"羽咋郡志賀町","city_kana":"ハクイグンシカマチ","town":"福野","town_kana":"フクノ","prefecture_code":17},"0315":{"zip_code":"9250315","prefecture":"石川県","prefecture_kana":"イシカワケン","city":"羽咋郡志賀町","city_kana":"ハクイグンシカマチ","town":"福浦港","town_kana":"フクラコウ","prefecture_code":17},"0305":{"zip_code":"9250305","prefecture":"石川県","prefecture_kana":"イシカワケン","city":"羽咋郡志賀町","city_kana":"ハクイグンシカマチ","town":"豊後名","town_kana":"ブンゴメ","prefecture_code":17},"0205":{"zip_code":"9250205","prefecture":"石川県","prefecture_kana":"イシカワケン","city":"羽咋郡志賀町","city_kana":"ハクイグンシカマチ","town":"仏木","town_kana":"ホトギリ","prefecture_code":17},"0157":{"zip_code":"9250157","prefecture":"石川県","prefecture_kana":"イシカワケン","city":"羽咋郡志賀町","city_kana":"ハクイグンシカマチ","town":"堀松","town_kana":"ホリマツ","prefecture_code":17},"0578":{"zip_code":"9250578","prefecture":"石川県","prefecture_kana":"イシカワケン","city":"羽咋郡志賀町","city_kana":"ハクイグンシカマチ","town":"前浜","town_kana":"マエハマ","prefecture_code":17},"0204":{"zip_code":"9250204","prefecture":"石川県","prefecture_kana":"イシカワケン","city":"羽咋郡志賀町","city_kana":"ハクイグンシカマチ","town":"牧山","town_kana":"マキヤマ","prefecture_code":17},"0167":{"zip_code":"9250167","prefecture":"石川県","prefecture_kana":"イシカワケン","city":"羽咋郡志賀町","city_kana":"ハクイグンシカマチ","town":"町","town_kana":"マチ","prefecture_code":17},"0302":{"zip_code":"9250302","prefecture":"石川県","prefecture_kana":"イシカワケン","city":"羽咋郡志賀町","city_kana":"ハクイグンシカマチ","town":"町居","town_kana":"マチイ","prefecture_code":17},"0374":{"zip_code":"9250374","prefecture":"石川県","prefecture_kana":"イシカワケン","city":"羽咋郡志賀町","city_kana":"ハクイグンシカマチ","town":"松木","town_kana":"マツノキ","prefecture_code":17},"0312":{"zip_code":"9250312","prefecture":"石川県","prefecture_kana":"イシカワケン","city":"羽咋郡志賀町","city_kana":"ハクイグンシカマチ","town":"六実","town_kana":"ムツミ","prefecture_code":17},"0162":{"zip_code":"9250162","prefecture":"石川県","prefecture_kana":"イシカワケン","city":"羽咋郡志賀町","city_kana":"ハクイグンシカマチ","town":"百浦","town_kana":"モモウラ","prefecture_code":17},"0156":{"zip_code":"9250156","prefecture":"石川県","prefecture_kana":"イシカワケン","city":"羽咋郡志賀町","city_kana":"ハクイグンシカマチ","town":"矢蔵谷","town_kana":"ヤグラダニ","prefecture_code":17},"0211":{"zip_code":"9250211","prefecture":"石川県","prefecture_kana":"イシカワケン","city":"羽咋郡志賀町","city_kana":"ハクイグンシカマチ","town":"矢田","town_kana":"ヤタ","prefecture_code":17},"0123":{"zip_code":"9250123","prefecture":"石川県","prefecture_kana":"イシカワケン","city":"羽咋郡志賀町","city_kana":"ハクイグンシカマチ","town":"矢駄","town_kana":"ヤダ","prefecture_code":17},"0311":{"zip_code":"9250311","prefecture":"石川県","prefecture_kana":"イシカワケン","city":"羽咋郡志賀町","city_kana":"ハクイグンシカマチ","town":"谷神","town_kana":"ヤチカミ","prefecture_code":17},"0438":{"zip_code":"9250438","prefecture":"石川県","prefecture_kana":"イシカワケン","city":"羽咋郡志賀町","city_kana":"ハクイグンシカマチ","town":"八千代","town_kana":"ヤチヨ","prefecture_code":17},"0143":{"zip_code":"9250143","prefecture":"石川県","prefecture_kana":"イシカワケン","city":"羽咋郡志賀町","city_kana":"ハクイグンシカマチ","town":"宿女","town_kana":"ヤドメ","prefecture_code":17},"0451":{"zip_code":"9250451","prefecture":"石川県","prefecture_kana":"イシカワケン","city":"羽咋郡志賀町","city_kana":"ハクイグンシカマチ","town":"八幡","town_kana":"ヤワタ","prefecture_code":17},"0131":{"zip_code":"9250131","prefecture":"石川県","prefecture_kana":"イシカワケン","city":"羽咋郡志賀町","city_kana":"ハクイグンシカマチ","town":"米浜","town_kana":"ヨネハマ","prefecture_code":17},"0375":{"zip_code":"9250375","prefecture":"石川県","prefecture_kana":"イシカワケン","city":"羽咋郡志賀町","city_kana":"ハクイグンシカマチ","town":"若葉台","town_kana":"ワカバダイ","prefecture_code":17},"0433":{"zip_code":"9250433","prefecture":"石川県","prefecture_kana":"イシカワケン","city":"羽咋郡志賀町","city_kana":"ハクイグンシカマチ","town":"和田","town_kana":"ワダ","prefecture_code":17}}