{"0000":{"zip_code":"9260000","prefecture":"石川県","prefecture_kana":"イシカワケン","city":"七尾市","city_kana":"ナナオシ","town":"","town_kana":"","prefecture_code":17},"0044":{"zip_code":"9260044","prefecture":"石川県","prefecture_kana":"イシカワケン","city":"七尾市","city_kana":"ナナオシ","town":"相生町","town_kana":"アイオイチョウ","prefecture_code":17},"0823":{"zip_code":"9260823","prefecture":"石川県","prefecture_kana":"イシカワケン","city":"七尾市","city_kana":"ナナオシ","town":"青葉台町","town_kana":"アオバダイマチ","prefecture_code":17},"0831":[{"zip_code":"9260831","prefecture":"石川県","prefecture_kana":"イシカワケン","city":"七尾市","city_kana":"ナナオシ","town":"青山町","town_kana":"アオヤママチ","prefecture_code":17},{"zip_code":"9260831","prefecture":"石川県","prefecture_kana":"イシカワケン","city":"七尾市","city_kana":"ナナオシ","town":"池崎町","town_kana":"イケザキマチ","prefecture_code":17}],"0843":{"zip_code":"9260843","prefecture":"石川県","prefecture_kana":"イシカワケン","city":"七尾市","city_kana":"ナナオシ","town":"赤浦町","town_kana":"アカウラマチ","prefecture_code":17},"0833":{"zip_code":"9260833","prefecture":"石川県","prefecture_kana":"イシカワケン","city":"七尾市","city_kana":"ナナオシ","town":"旭町","town_kana":"アサヒマチ","prefecture_code":17},"0372":{"zip_code":"9260372","prefecture":"石川県","prefecture_kana":"イシカワケン","city":"七尾市","city_kana":"ナナオシ","town":"麻生町","town_kana":"アソウマチ","prefecture_code":17},"0807":{"zip_code":"9260807","prefecture":"石川県","prefecture_kana":"イシカワケン","city":"七尾市","city_kana":"ナナオシ","town":"阿良町","town_kana":"アラマチ","prefecture_code":17},"0366":{"zip_code":"9260366","prefecture":"石川県","prefecture_kana":"イシカワケン","city":"七尾市","city_kana":"ナナオシ","town":"庵町","town_kana":"イオリマチ","prefecture_code":17},"0364":[{"zip_code":"9260364","prefecture":"石川県","prefecture_kana":"イシカワケン","city":"七尾市","city_kana":"ナナオシ","town":"庵町","town_kana":"イオリマチ","prefecture_code":17},{"zip_code":"9260364","prefecture":"石川県","prefecture_kana":"イシカワケン","city":"七尾市","city_kana":"ナナオシ","town":"庵町白鳥町","town_kana":"イオリマチシラトリマチ","prefecture_code":17},{"zip_code":"9260364","prefecture":"石川県","prefecture_kana":"イシカワケン","city":"七尾市","city_kana":"ナナオシ","town":"江泊町","town_kana":"エノトマリマチ","prefecture_code":17},{"zip_code":"9260364","prefecture":"石川県","prefecture_kana":"イシカワケン","city":"七尾市","city_kana":"ナナオシ","town":"江泊町白鳥町","town_kana":"エノトマリマチシラトマリマチ","prefecture_code":17}],"0365":[{"zip_code":"9260365","prefecture":"石川県","prefecture_kana":"イシカワケン","city":"七尾市","city_kana":"ナナオシ","town":"庵町","town_kana":"イオリマチ","prefecture_code":17},{"zip_code":"9260365","prefecture":"石川県","prefecture_kana":"イシカワケン","city":"七尾市","city_kana":"ナナオシ","town":"庵町百海町","town_kana":"イオリマチドウミマチ","prefecture_code":17}],"0367":[{"zip_code":"9260367","prefecture":"石川県","prefecture_kana":"イシカワケン","city":"七尾市","city_kana":"ナナオシ","town":"庵町","town_kana":"イオリマチ","prefecture_code":17},{"zip_code":"9260367","prefecture":"石川県","prefecture_kana":"イシカワケン","city":"七尾市","city_kana":"ナナオシ","town":"庵町虫崎町","town_kana":"イオリマチムシサキマチ","prefecture_code":17}],"0826":{"zip_code":"9260826","prefecture":"石川県","prefecture_kana":"イシカワケン","city":"七尾市","city_kana":"ナナオシ","town":"飯川町","town_kana":"イガワマチ","prefecture_code":17},"0804":{"zip_code":"9260804","prefecture":"石川県","prefecture_kana":"イシカワケン","city":"七尾市","city_kana":"ナナオシ","town":"生駒町","town_kana":"イコマチョウ","prefecture_code":17},"0171":{"zip_code":"9260171","prefecture":"石川県","prefecture_kana":"イシカワケン","city":"七尾市","city_kana":"ナナオシ","town":"石崎町","town_kana":"イシザキマチ","prefecture_code":17},"0178":[{"zip_code":"9260178","prefecture":"石川県","prefecture_kana":"イシカワケン","city":"七尾市","city_kana":"ナナオシ","town":"石崎町","town_kana":"イシザキマチ","prefecture_code":17},{"zip_code":"9260178","prefecture":"石川県","prefecture_kana":"イシカワケン","city":"七尾市","city_kana":"ナナオシ","town":"石崎町香島","town_kana":"イシザキマチカシマ","prefecture_code":17}],"0173":[{"zip_code":"9260173","prefecture":"石川県","prefecture_kana":"イシカワケン","city":"七尾市","city_kana":"ナナオシ","town":"石崎町","town_kana":"イシザキマチ","prefecture_code":17},{"zip_code":"9260173","prefecture":"石川県","prefecture_kana":"イシカワケン","city":"七尾市","city_kana":"ナナオシ","town":"石崎町西","town_kana":"イシザキマチニシ","prefecture_code":17}],"0172":[{"zip_code":"9260172","prefecture":"石川県","prefecture_kana":"イシカワケン","city":"七尾市","city_kana":"ナナオシ","town":"石崎町","town_kana":"イシザキマチ","prefecture_code":17},{"zip_code":"9260172","prefecture":"石川県","prefecture_kana":"イシカワケン","city":"七尾市","city_kana":"ナナオシ","town":"石崎町東","town_kana":"イシザキマチヒガシ","prefecture_code":17}],"0806":{"zip_code":"9260806","prefecture":"石川県","prefecture_kana":"イシカワケン","city":"七尾市","city_kana":"ナナオシ","town":"一本杉町","town_kana":"イッポンスギマチ","prefecture_code":17},"0055":{"zip_code":"9260055","prefecture":"石川県","prefecture_kana":"イシカワケン","city":"七尾市","city_kana":"ナナオシ","town":"今町","town_kana":"イママチ","prefecture_code":17},"0816":[{"zip_code":"9260816","prefecture":"石川県","prefecture_kana":"イシカワケン","city":"七尾市","city_kana":"ナナオシ","town":"岩屋町","town_kana":"イワヤマチ","prefecture_code":17},{"zip_code":"9260816","prefecture":"石川県","prefecture_kana":"イシカワケン","city":"七尾市","city_kana":"ナナオシ","town":"藤橋町","town_kana":"フジハシマチ","prefecture_code":17}],"0864":{"zip_code":"9260864","prefecture":"石川県","prefecture_kana":"イシカワケン","city":"七尾市","city_kana":"ナナオシ","town":"魚町","town_kana":"ウオマチ","prefecture_code":17},"0027":{"zip_code":"9260027","prefecture":"石川県","prefecture_kana":"イシカワケン","city":"七尾市","city_kana":"ナナオシ","town":"後畠町","town_kana":"ウシロバタケマチ","prefecture_code":17},"0001":{"zip_code":"9260001","prefecture":"石川県","prefecture_kana":"イシカワケン","city":"七尾市","city_kana":"ナナオシ","town":"鵜浦町","town_kana":"ウノウラマチ","prefecture_code":17},"0825":{"zip_code":"9260825","prefecture":"石川県","prefecture_kana":"イシカワケン","city":"七尾市","city_kana":"ナナオシ","town":"江曽町","town_kana":"エソマチ","prefecture_code":17},"0363":{"zip_code":"9260363","prefecture":"石川県","prefecture_kana":"イシカワケン","city":"七尾市","city_kana":"ナナオシ","town":"江泊町","town_kana":"エノトマリマチ","prefecture_code":17},"0361":[{"zip_code":"9260361","prefecture":"石川県","prefecture_kana":"イシカワケン","city":"七尾市","city_kana":"ナナオシ","town":"江泊町","town_kana":"エノトマリマチ","prefecture_code":17},{"zip_code":"9260361","prefecture":"石川県","prefecture_kana":"イシカワケン","city":"七尾市","city_kana":"ナナオシ","town":"江泊町日室町","town_kana":"エノトマリマチヒムロマチ","prefecture_code":17}],"0006":[{"zip_code":"9260006","prefecture":"石川県","prefecture_kana":"イシカワケン","city":"七尾市","city_kana":"ナナオシ","town":"大田新町","town_kana":"オオタシンマチ","prefecture_code":17},{"zip_code":"9260006","prefecture":"石川県","prefecture_kana":"イシカワケン","city":"七尾市","city_kana":"ナナオシ","town":"大田町","town_kana":"オオタマチ","prefecture_code":17}],"0047":{"zip_code":"9260047","prefecture":"石川県","prefecture_kana":"イシカワケン","city":"七尾市","city_kana":"ナナオシ","town":"大手町","town_kana":"オオテマチ","prefecture_code":17},"0384":{"zip_code":"9260384","prefecture":"石川県","prefecture_kana":"イシカワケン","city":"七尾市","city_kana":"ナナオシ","town":"大泊町","town_kana":"オオトマリマチ","prefecture_code":17},"0362":{"zip_code":"9260362","prefecture":"石川県","prefecture_kana":"イシカワケン","city":"七尾市","city_kana":"ナナオシ","town":"大野木町","town_kana":"オオノギマチ","prefecture_code":17},"0005":{"zip_code":"9260005","prefecture":"石川県","prefecture_kana":"イシカワケン","city":"七尾市","city_kana":"ナナオシ","town":"岡町","town_kana":"オカマチ","prefecture_code":17},"0174":{"zip_code":"9260174","prefecture":"石川県","prefecture_kana":"イシカワケン","city":"七尾市","city_kana":"ナナオシ","town":"奥原町","town_kana":"オクハラマチ","prefecture_code":17},"0373":{"zip_code":"9260373","prefecture":"石川県","prefecture_kana":"イシカワケン","city":"七尾市","city_kana":"ナナオシ","town":"小栗町","town_kana":"オグリマチ","prefecture_code":17},"0057":{"zip_code":"9260057","prefecture":"石川県","prefecture_kana":"イシカワケン","city":"七尾市","city_kana":"ナナオシ","town":"鍛冶町","town_kana":"カジマチ","prefecture_code":17},"0053":{"zip_code":"9260053","prefecture":"石川県","prefecture_kana":"イシカワケン","city":"七尾市","city_kana":"ナナオシ","town":"上府中町","town_kana":"カミフチュウマチ","prefecture_code":17},"0805":{"zip_code":"9260805","prefecture":"石川県","prefecture_kana":"イシカワケン","city":"七尾市","city_kana":"ナナオシ","town":"亀山町","town_kana":"カメヤマチョウ","prefecture_code":17},"0054":{"zip_code":"9260054","prefecture":"石川県","prefecture_kana":"イシカワケン","city":"七尾市","city_kana":"ナナオシ","town":"川原町","town_kana":"カワラマチ","prefecture_code":17},"0812":{"zip_code":"9260812","prefecture":"石川県","prefecture_kana":"イシカワケン","city":"七尾市","city_kana":"ナナオシ","town":"北藤橋町","town_kana":"キタフジハシマチ","prefecture_code":17},"0808":{"zip_code":"9260808","prefecture":"石川県","prefecture_kana":"イシカワケン","city":"七尾市","city_kana":"ナナオシ","town":"木町","town_kana":"キマチ","prefecture_code":17},"0387":{"zip_code":"9260387","prefecture":"石川県","prefecture_kana":"イシカワケン","city":"七尾市","city_kana":"ナナオシ","town":"熊淵町","town_kana":"クマブチマチ","prefecture_code":17},"0389":[{"zip_code":"9260389","prefecture":"石川県","prefecture_kana":"イシカワケン","city":"七尾市","city_kana":"ナナオシ","town":"熊淵町","town_kana":"クマブチマチ","prefecture_code":17},{"zip_code":"9260389","prefecture":"石川県","prefecture_kana":"イシカワケン","city":"七尾市","city_kana":"ナナオシ","town":"熊淵町滝の尻町","town_kana":"クマブチマチタキノシリマチ","prefecture_code":17}],"0388":[{"zip_code":"9260388","prefecture":"石川県","prefecture_kana":"イシカワケン","city":"七尾市","city_kana":"ナナオシ","town":"熊淵町","town_kana":"クマブチマチ","prefecture_code":17},{"zip_code":"9260388","prefecture":"石川県","prefecture_kana":"イシカワケン","city":"七尾市","city_kana":"ナナオシ","town":"熊淵町水上町","town_kana":"クマブチマチミズカミマチ","prefecture_code":17}],"0381":{"zip_code":"9260381","prefecture":"石川県","prefecture_kana":"イシカワケン","city":"七尾市","city_kana":"ナナオシ","town":"黒崎町","town_kana":"クロサキマチ","prefecture_code":17},"0026":{"zip_code":"9260026","prefecture":"石川県","prefecture_kana":"イシカワケン","city":"七尾市","city_kana":"ナナオシ","town":"小池川原町","town_kana":"コイケガワラマチ","prefecture_code":17},"0375":{"zip_code":"9260375","prefecture":"石川県","prefecture_kana":"イシカワケン","city":"七尾市","city_kana":"ナナオシ","town":"柑子町","town_kana":"コウジマチ","prefecture_code":17},"0177":{"zip_code":"9260177","prefecture":"石川県","prefecture_kana":"イシカワケン","city":"七尾市","city_kana":"ナナオシ","town":"光陽台","town_kana":"コウヨウダイ","prefecture_code":17},"0051":{"zip_code":"9260051","prefecture":"石川県","prefecture_kana":"イシカワケン","city":"七尾市","city_kana":"ナナオシ","town":"郡町","town_kana":"コオリマチ","prefecture_code":17},"0037":{"zip_code":"9260037","prefecture":"石川県","prefecture_kana":"イシカワケン","city":"七尾市","city_kana":"ナナオシ","town":"国下町","town_kana":"コクガマチ","prefecture_code":17},"0821":{"zip_code":"9260821","prefecture":"石川県","prefecture_kana":"イシカワケン","city":"七尾市","city_kana":"ナナオシ","town":"国分町","town_kana":"コクブマチ","prefecture_code":17},"0852":{"zip_code":"9260852","prefecture":"石川県","prefecture_kana":"イシカワケン","city":"七尾市","city_kana":"ナナオシ","town":"小島町","town_kana":"コジママチ","prefecture_code":17},"0861":{"zip_code":"9260861","prefecture":"石川県","prefecture_kana":"イシカワケン","city":"七尾市","city_kana":"ナナオシ","town":"寿町","town_kana":"コトブキチョウ","prefecture_code":17},"0855":{"zip_code":"9260855","prefecture":"石川県","prefecture_kana":"イシカワケン","city":"七尾市","city_kana":"ナナオシ","town":"小丸山台","town_kana":"コマルヤマダイ","prefecture_code":17},"0803":{"zip_code":"9260803","prefecture":"石川県","prefecture_kana":"イシカワケン","city":"七尾市","city_kana":"ナナオシ","town":"米町","town_kana":"コメマチ","prefecture_code":17},"0815":{"zip_code":"9260815","prefecture":"石川県","prefecture_kana":"イシカワケン","city":"七尾市","city_kana":"ナナオシ","town":"栄町","town_kana":"サカエマチ","prefecture_code":17},"0042":{"zip_code":"9260042","prefecture":"石川県","prefecture_kana":"イシカワケン","city":"七尾市","city_kana":"ナナオシ","town":"作事町","town_kana":"サクジマチ","prefecture_code":17},"0867":{"zip_code":"9260867","prefecture":"石川県","prefecture_kana":"イシカワケン","city":"七尾市","city_kana":"ナナオシ","town":"桜町","town_kana":"サクラマチ","prefecture_code":17},"0371":{"zip_code":"9260371","prefecture":"石川県","prefecture_kana":"イシカワケン","city":"七尾市","city_kana":"ナナオシ","town":"佐々波町","town_kana":"サザナミマチ","prefecture_code":17},"0013":{"zip_code":"9260013","prefecture":"石川県","prefecture_kana":"イシカワケン","city":"七尾市","city_kana":"ナナオシ","town":"佐野町","town_kana":"サノマチ","prefecture_code":17},"0011":{"zip_code":"9260011","prefecture":"石川県","prefecture_kana":"イシカワケン","city":"七尾市","city_kana":"ナナオシ","town":"佐味町","town_kana":"サミマチ","prefecture_code":17},"0003":{"zip_code":"9260003","prefecture":"石川県","prefecture_kana":"イシカワケン","city":"七尾市","city_kana":"ナナオシ","town":"沢野町","town_kana":"サワノマチ","prefecture_code":17},"0052":{"zip_code":"9260052","prefecture":"石川県","prefecture_kana":"イシカワケン","city":"七尾市","city_kana":"ナナオシ","town":"山王町","town_kana":"サンノウマチ","prefecture_code":17},"0374":{"zip_code":"9260374","prefecture":"石川県","prefecture_kana":"イシカワケン","city":"七尾市","city_kana":"ナナオシ","town":"清水平町","town_kana":"シミズダイラマチ","prefecture_code":17},"0824":[{"zip_code":"9260824","prefecture":"石川県","prefecture_kana":"イシカワケン","city":"七尾市","city_kana":"ナナオシ","town":"下町","town_kana":"シモマチ","prefecture_code":17},{"zip_code":"9260824","prefecture":"石川県","prefecture_kana":"イシカワケン","city":"七尾市","city_kana":"ナナオシ","town":"徳田町","town_kana":"トクダマチ","prefecture_code":17}],"0801":{"zip_code":"9260801","prefecture":"石川県","prefecture_kana":"イシカワケン","city":"七尾市","city_kana":"ナナオシ","town":"昭和町","town_kana":"ショウワマチ","prefecture_code":17},"0828":{"zip_code":"9260828","prefecture":"石川県","prefecture_kana":"イシカワケン","city":"七尾市","city_kana":"ナナオシ","town":"白馬町","town_kana":"シロウママチ","prefecture_code":17},"0863":{"zip_code":"9260863","prefecture":"石川県","prefecture_kana":"イシカワケン","city":"七尾市","city_kana":"ナナオシ","town":"白銀町","town_kana":"シロガネチョウ","prefecture_code":17},"0845":{"zip_code":"9260845","prefecture":"石川県","prefecture_kana":"イシカワケン","city":"七尾市","city_kana":"ナナオシ","town":"新保町","town_kana":"シンボマチ","prefecture_code":17},"0046":{"zip_code":"9260046","prefecture":"石川県","prefecture_kana":"イシカワケン","city":"七尾市","city_kana":"ナナオシ","town":"神明町","town_kana":"シンメイチョウ","prefecture_code":17},"0179":{"zip_code":"9260179","prefecture":"石川県","prefecture_kana":"イシカワケン","city":"七尾市","city_kana":"ナナオシ","town":"泉南台","town_kana":"センナンダイ","prefecture_code":17},"0045":{"zip_code":"9260045","prefecture":"石川県","prefecture_kana":"イシカワケン","city":"七尾市","city_kana":"ナナオシ","town":"袖ケ江町","town_kana":"ソデガエチョウ","prefecture_code":17},"0376":{"zip_code":"9260376","prefecture":"石川県","prefecture_kana":"イシカワケン","city":"七尾市","city_kana":"ナナオシ","town":"外林町","town_kana":"ソトバヤシマチ","prefecture_code":17},"0846":{"zip_code":"9260846","prefecture":"石川県","prefecture_kana":"イシカワケン","city":"七尾市","city_kana":"ナナオシ","town":"祖浜町","town_kana":"ソハママチ","prefecture_code":17},"0023":{"zip_code":"9260023","prefecture":"石川県","prefecture_kana":"イシカワケン","city":"七尾市","city_kana":"ナナオシ","town":"竹町","town_kana":"タケマチ","prefecture_code":17},"0844":{"zip_code":"9260844","prefecture":"石川県","prefecture_kana":"イシカワケン","city":"七尾市","city_kana":"ナナオシ","town":"直津町","town_kana":"タダツマチ","prefecture_code":17},"0043":{"zip_code":"9260043","prefecture":"石川県","prefecture_kana":"イシカワケン","city":"七尾市","city_kana":"ナナオシ","town":"橘町","town_kana":"タチバナチョウ","prefecture_code":17},"0034":{"zip_code":"9260034","prefecture":"石川県","prefecture_kana":"イシカワケン","city":"七尾市","city_kana":"ナナオシ","town":"多根町","town_kana":"タネマチ","prefecture_code":17},"0033":{"zip_code":"9260033","prefecture":"石川県","prefecture_kana":"イシカワケン","city":"七尾市","city_kana":"ナナオシ","town":"千野町","town_kana":"チノマチ","prefecture_code":17},"0851":{"zip_code":"9260851","prefecture":"石川県","prefecture_kana":"イシカワケン","city":"七尾市","city_kana":"ナナオシ","town":"つつじが浜","town_kana":"ツツジガハマ","prefecture_code":17},"0853":{"zip_code":"9260853","prefecture":"石川県","prefecture_kana":"イシカワケン","city":"七尾市","city_kana":"ナナオシ","town":"津向町","town_kana":"ツムギマチ","prefecture_code":17},"0022":{"zip_code":"9260022","prefecture":"石川県","prefecture_kana":"イシカワケン","city":"七尾市","city_kana":"ナナオシ","town":"天神川原町","town_kana":"テンジンカワラマチ","prefecture_code":17},"0383":{"zip_code":"9260383","prefecture":"石川県","prefecture_kana":"イシカワケン","city":"七尾市","city_kana":"ナナオシ","town":"東浜町","town_kana":"トウノハママチ","prefecture_code":17},"0862":{"zip_code":"9260862","prefecture":"石川県","prefecture_kana":"イシカワケン","city":"七尾市","city_kana":"ナナオシ","town":"常盤町","town_kana":"トキワマチ","prefecture_code":17},"0829":{"zip_code":"9260829","prefecture":"石川県","prefecture_kana":"イシカワケン","city":"七尾市","city_kana":"ナナオシ","town":"徳田新町","town_kana":"トクダシンマチ","prefecture_code":17},"0814":{"zip_code":"9260814","prefecture":"石川県","prefecture_kana":"イシカワケン","city":"七尾市","city_kana":"ナナオシ","town":"所口町","town_kana":"トコログチマチ","prefecture_code":17},"0004":{"zip_code":"9260004","prefecture":"石川県","prefecture_kana":"イシカワケン","city":"七尾市","city_kana":"ナナオシ","town":"殿町","town_kana":"トノマチ","prefecture_code":17},"0866":{"zip_code":"9260866","prefecture":"石川県","prefecture_kana":"イシカワケン","city":"七尾市","city_kana":"ナナオシ","town":"富岡町","town_kana":"トミオカチョウ","prefecture_code":17},"0021":[{"zip_code":"9260021","prefecture":"石川県","prefecture_kana":"イシカワケン","city":"七尾市","city_kana":"ナナオシ","town":"巴町","town_kana":"トモエマチ","prefecture_code":17},{"zip_code":"9260021","prefecture":"石川県","prefecture_kana":"イシカワケン","city":"七尾市","city_kana":"ナナオシ","town":"本府中町","town_kana":"モトフチュウマチ","prefecture_code":17}],"0036":{"zip_code":"9260036","prefecture":"石川県","prefecture_kana":"イシカワケン","city":"七尾市","city_kana":"ナナオシ","town":"中挾町","town_kana":"ナカバサミマチ","prefecture_code":17},"0854":{"zip_code":"9260854","prefecture":"石川県","prefecture_kana":"イシカワケン","city":"七尾市","city_kana":"ナナオシ","town":"なぎの浦","town_kana":"ナギノウラ","prefecture_code":17},"0817":{"zip_code":"9260817","prefecture":"石川県","prefecture_kana":"イシカワケン","city":"七尾市","city_kana":"ナナオシ","town":"西藤橋町","town_kana":"ニシフジハシマチ","prefecture_code":17},"0835":{"zip_code":"9260835","prefecture":"石川県","prefecture_kana":"イシカワケン","city":"七尾市","city_kana":"ナナオシ","town":"西三階町","town_kana":"ニシミカイマチ","prefecture_code":17},"0837":{"zip_code":"9260837","prefecture":"石川県","prefecture_kana":"イシカワケン","city":"七尾市","city_kana":"ナナオシ","town":"温井町","town_kana":"ヌクイマチ","prefecture_code":17},"0056":{"zip_code":"9260056","prefecture":"石川県","prefecture_kana":"イシカワケン","city":"七尾市","city_kana":"ナナオシ","town":"塗師町","town_kana":"ヌシマチ","prefecture_code":17},"0203":{"zip_code":"9260203","prefecture":"石川県","prefecture_kana":"イシカワケン","city":"七尾市","city_kana":"ナナオシ","town":"能登島えの目町","town_kana":"ノトジマエノメマチ","prefecture_code":17},"0227":{"zip_code":"9260227","prefecture":"石川県","prefecture_kana":"イシカワケン","city":"七尾市","city_kana":"ナナオシ","town":"能登島久木町","town_kana":"ノトジマクキマチ","prefecture_code":17},"0211":{"zip_code":"9260211","prefecture":"石川県","prefecture_kana":"イシカワケン","city":"七尾市","city_kana":"ナナオシ","town":"能登島向田町","town_kana":"ノトジマコウダマチ","prefecture_code":17},"0212":{"zip_code":"9260212","prefecture":"石川県","prefecture_kana":"イシカワケン","city":"七尾市","city_kana":"ナナオシ","town":"能登島佐波町","town_kana":"ノトジマサナミマチ","prefecture_code":17},"0213":{"zip_code":"9260213","prefecture":"石川県","prefecture_kana":"イシカワケン","city":"七尾市","city_kana":"ナナオシ","town":"能登島須曽町","town_kana":"ノトジマスソマチ","prefecture_code":17},"0226":{"zip_code":"9260226","prefecture":"石川県","prefecture_kana":"イシカワケン","city":"七尾市","city_kana":"ナナオシ","town":"能登島田尻町","town_kana":"ノトジマタジリマチ","prefecture_code":17},"0225":{"zip_code":"9260225","prefecture":"石川県","prefecture_kana":"イシカワケン","city":"七尾市","city_kana":"ナナオシ","town":"能登島通町","town_kana":"ノトジマトオリマチ","prefecture_code":17},"0204":{"zip_code":"9260204","prefecture":"石川県","prefecture_kana":"イシカワケン","city":"七尾市","city_kana":"ナナオシ","town":"能登島長崎町","town_kana":"ノトジマナガサキマチ","prefecture_code":17},"0222":{"zip_code":"9260222","prefecture":"石川県","prefecture_kana":"イシカワケン","city":"七尾市","city_kana":"ナナオシ","town":"能登島閨町","town_kana":"ノトジマネヤマチ","prefecture_code":17},"0205":{"zip_code":"9260205","prefecture":"石川県","prefecture_kana":"イシカワケン","city":"七尾市","city_kana":"ナナオシ","town":"能登島野崎町","town_kana":"ノトジマノザキマチ","prefecture_code":17},"0201":{"zip_code":"9260201","prefecture":"石川県","prefecture_kana":"イシカワケン","city":"七尾市","city_kana":"ナナオシ","town":"能登島祖母ケ浦町","town_kana":"ノトジマバガウラマチ","prefecture_code":17},"0202":{"zip_code":"9260202","prefecture":"石川県","prefecture_kana":"イシカワケン","city":"七尾市","city_kana":"ナナオシ","town":"能登島八ケ崎町","town_kana":"ノトジマハチガサキマチ","prefecture_code":17},"0223":{"zip_code":"9260223","prefecture":"石川県","prefecture_kana":"イシカワケン","city":"七尾市","city_kana":"ナナオシ","town":"能登島半浦町","town_kana":"ノトジマハンノウラマチ","prefecture_code":17},"0206":{"zip_code":"9260206","prefecture":"石川県","prefecture_kana":"イシカワケン","city":"七尾市","city_kana":"ナナオシ","town":"能登島日出ケ島町","town_kana":"ノトジマヒデガシママチ","prefecture_code":17},"0224":{"zip_code":"9260224","prefecture":"石川県","prefecture_kana":"イシカワケン","city":"七尾市","city_kana":"ナナオシ","town":"能登島百万石町","town_kana":"ノトジマヒャクマンゴクマチ","prefecture_code":17},"0207":{"zip_code":"9260207","prefecture":"石川県","prefecture_kana":"イシカワケン","city":"七尾市","city_kana":"ナナオシ","town":"能登島二穴町","town_kana":"ノトジマフタアナマチ","prefecture_code":17},"0214":{"zip_code":"9260214","prefecture":"石川県","prefecture_kana":"イシカワケン","city":"七尾市","city_kana":"ナナオシ","town":"能登島別所町","town_kana":"ノトジマベッショマチ","prefecture_code":17},"0216":{"zip_code":"9260216","prefecture":"石川県","prefecture_kana":"イシカワケン","city":"七尾市","city_kana":"ナナオシ","town":"能登島曲町","town_kana":"ノトジママガリマチ","prefecture_code":17},"0215":{"zip_code":"9260215","prefecture":"石川県","prefecture_kana":"イシカワケン","city":"七尾市","city_kana":"ナナオシ","town":"能登島南町","town_kana":"ノトジマミナミマチ","prefecture_code":17},"0221":{"zip_code":"9260221","prefecture":"石川県","prefecture_kana":"イシカワケン","city":"七尾市","city_kana":"ナナオシ","town":"能登島無関町","town_kana":"ノトジマムセキマチ","prefecture_code":17},"0035":{"zip_code":"9260035","prefecture":"石川県","prefecture_kana":"イシカワケン","city":"七尾市","city_kana":"ナナオシ","town":"八田町","town_kana":"ハッタマチ","prefecture_code":17},"0382":{"zip_code":"9260382","prefecture":"石川県","prefecture_kana":"イシカワケン","city":"七尾市","city_kana":"ナナオシ","town":"花園町","town_kana":"ハナゾノマチ","prefecture_code":17},"0832":{"zip_code":"9260832","prefecture":"石川県","prefecture_kana":"イシカワケン","city":"七尾市","city_kana":"ナナオシ","town":"盤若野町","town_kana":"ハンニャノマチ","prefecture_code":17},"0834":{"zip_code":"9260834","prefecture":"石川県","prefecture_kana":"イシカワケン","city":"七尾市","city_kana":"ナナオシ","town":"東三階町","town_kana":"ヒガシミカイマチ","prefecture_code":17},"0048":{"zip_code":"9260048","prefecture":"石川県","prefecture_kana":"イシカワケン","city":"七尾市","city_kana":"ナナオシ","town":"桧物町","town_kana":"ヒモノマチ","prefecture_code":17},"0028":{"zip_code":"9260028","prefecture":"石川県","prefecture_kana":"イシカワケン","city":"七尾市","city_kana":"ナナオシ","town":"藤野町","town_kana":"フジノマチ","prefecture_code":17},"0041":{"zip_code":"9260041","prefecture":"石川県","prefecture_kana":"イシカワケン","city":"七尾市","city_kana":"ナナオシ","town":"府中町","town_kana":"フチュウマチ","prefecture_code":17},"0031":{"zip_code":"9260031","prefecture":"石川県","prefecture_kana":"イシカワケン","city":"七尾市","city_kana":"ナナオシ","town":"古府町","town_kana":"フルコマチ","prefecture_code":17},"0025":{"zip_code":"9260025","prefecture":"石川県","prefecture_kana":"イシカワケン","city":"七尾市","city_kana":"ナナオシ","town":"古城町","town_kana":"フルシロマチ","prefecture_code":17},"0024":{"zip_code":"9260024","prefecture":"石川県","prefecture_kana":"イシカワケン","city":"七尾市","city_kana":"ナナオシ","town":"古屋敷町","town_kana":"フルヤシキマチ","prefecture_code":17},"0012":[{"zip_code":"9260012","prefecture":"石川県","prefecture_kana":"イシカワケン","city":"七尾市","city_kana":"ナナオシ","town":"報国町","town_kana":"ホウコクマチ","prefecture_code":17},{"zip_code":"9260012","prefecture":"石川県","prefecture_kana":"イシカワケン","city":"七尾市","city_kana":"ナナオシ","town":"万行町","town_kana":"マンギョウマチ","prefecture_code":17}],"0822":{"zip_code":"9260822","prefecture":"石川県","prefecture_kana":"イシカワケン","city":"七尾市","city_kana":"ナナオシ","town":"細口町","town_kana":"ホソグチマチ","prefecture_code":17},"0818":{"zip_code":"9260818","prefecture":"石川県","prefecture_kana":"イシカワケン","city":"七尾市","city_kana":"ナナオシ","town":"馬出町","town_kana":"マダシマチ","prefecture_code":17},"0836":{"zip_code":"9260836","prefecture":"石川県","prefecture_kana":"イシカワケン","city":"七尾市","city_kana":"ナナオシ","town":"町屋町","town_kana":"マチヤマチ","prefecture_code":17},"0842":{"zip_code":"9260842","prefecture":"石川県","prefecture_kana":"イシカワケン","city":"七尾市","city_kana":"ナナオシ","town":"松百新町","town_kana":"マットウシンマチ","prefecture_code":17},"0841":{"zip_code":"9260841","prefecture":"石川県","prefecture_kana":"イシカワケン","city":"七尾市","city_kana":"ナナオシ","town":"松百町","town_kana":"マットウマチ","prefecture_code":17},"0865":{"zip_code":"9260865","prefecture":"石川県","prefecture_kana":"イシカワケン","city":"七尾市","city_kana":"ナナオシ","town":"松本町","town_kana":"マツモトチョウ","prefecture_code":17},"0838":{"zip_code":"9260838","prefecture":"石川県","prefecture_kana":"イシカワケン","city":"七尾市","city_kana":"ナナオシ","town":"満仁町","town_kana":"マニマチ","prefecture_code":17},"0802":{"zip_code":"9260802","prefecture":"石川県","prefecture_kana":"イシカワケン","city":"七尾市","city_kana":"ナナオシ","town":"三島町","town_kana":"ミシマチョウ","prefecture_code":17},"0811":{"zip_code":"9260811","prefecture":"石川県","prefecture_kana":"イシカワケン","city":"七尾市","city_kana":"ナナオシ","town":"御祓町","town_kana":"ミソギチョウ","prefecture_code":17},"0014":[{"zip_code":"9260014","prefecture":"石川県","prefecture_kana":"イシカワケン","city":"七尾市","city_kana":"ナナオシ","town":"緑ケ丘町","town_kana":"ミドリガオカチョウ","prefecture_code":17},{"zip_code":"9260014","prefecture":"石川県","prefecture_kana":"イシカワケン","city":"七尾市","city_kana":"ナナオシ","town":"矢田町","town_kana":"ヤタマチ","prefecture_code":17}],"0058":{"zip_code":"9260058","prefecture":"石川県","prefecture_kana":"イシカワケン","city":"七尾市","city_kana":"ナナオシ","town":"湊町","town_kana":"ミナトチョウ","prefecture_code":17},"0032":{"zip_code":"9260032","prefecture":"石川県","prefecture_kana":"イシカワケン","city":"七尾市","city_kana":"ナナオシ","town":"南ケ丘町","town_kana":"ミナミガオカマチ","prefecture_code":17},"0813":{"zip_code":"9260813","prefecture":"石川県","prefecture_kana":"イシカワケン","city":"七尾市","city_kana":"ナナオシ","town":"南藤橋町","town_kana":"ミナミフジハシマチ","prefecture_code":17},"0007":{"zip_code":"9260007","prefecture":"石川県","prefecture_kana":"イシカワケン","city":"七尾市","city_kana":"ナナオシ","town":"三室町","town_kana":"ミムロマチ","prefecture_code":17},"0015":{"zip_code":"9260015","prefecture":"石川県","prefecture_kana":"イシカワケン","city":"七尾市","city_kana":"ナナオシ","town":"矢田新町","town_kana":"ヤタシンマチ","prefecture_code":17},"0385":{"zip_code":"9260385","prefecture":"石川県","prefecture_kana":"イシカワケン","city":"七尾市","city_kana":"ナナオシ","town":"山崎町","town_kana":"ヤマザキマチ","prefecture_code":17},"0386":[{"zip_code":"9260386","prefecture":"石川県","prefecture_kana":"イシカワケン","city":"七尾市","city_kana":"ナナオシ","town":"山崎町","town_kana":"ヤマザキマチ","prefecture_code":17},{"zip_code":"9260386","prefecture":"石川県","prefecture_kana":"イシカワケン","city":"七尾市","city_kana":"ナナオシ","town":"山崎町小川内町","town_kana":"ヤマザキマチコウチマチ","prefecture_code":17}],"0016":{"zip_code":"9260016","prefecture":"石川県","prefecture_kana":"イシカワケン","city":"七尾市","city_kana":"ナナオシ","town":"大和町","town_kana":"ヤマトマチ","prefecture_code":17},"0038":{"zip_code":"9260038","prefecture":"石川県","prefecture_kana":"イシカワケン","city":"七尾市","city_kana":"ナナオシ","town":"八幡町","town_kana":"ヤワタマチ","prefecture_code":17},"0002":{"zip_code":"9260002","prefecture":"石川県","prefecture_kana":"イシカワケン","city":"七尾市","city_kana":"ナナオシ","town":"湯川町","town_kana":"ユガワマチ","prefecture_code":17},"0827":{"zip_code":"9260827","prefecture":"石川県","prefecture_kana":"イシカワケン","city":"七尾市","city_kana":"ナナオシ","town":"若林町","town_kana":"ワカバヤシマチ","prefecture_code":17},"0175":{"zip_code":"9260175","prefecture":"石川県","prefecture_kana":"イシカワケン","city":"七尾市","city_kana":"ナナオシ","town":"和倉町","town_kana":"ワクラマチ","prefecture_code":17},"0176":{"zip_code":"9260176","prefecture":"石川県","prefecture_kana":"イシカワケン","city":"七尾市","city_kana":"ナナオシ","town":"和倉町ひばり","town_kana":"ワクラマチヒバリ","prefecture_code":17}}