{"2345":{"zip_code":"9272345","prefecture":"石川県","prefecture_kana":"イシカワケン","city":"輪島市","city_kana":"ワジマシ","town":"門前町赤神","town_kana":"モンゼンマチアカカミ","prefecture_code":17},"2106":{"zip_code":"9272106","prefecture":"石川県","prefecture_kana":"イシカワケン","city":"輪島市","city_kana":"ワジマシ","town":"門前町浅生田","town_kana":"モンゼンマチアソダ","prefecture_code":17},"2123":{"zip_code":"9272123","prefecture":"石川県","prefecture_kana":"イシカワケン","city":"輪島市","city_kana":"ワジマシ","town":"門前町荒屋","town_kana":"モンゼンマチアラヤ","prefecture_code":17},"2107":{"zip_code":"9272107","prefecture":"石川県","prefecture_kana":"イシカワケン","city":"輪島市","city_kana":"ワジマシ","town":"門前町安代原","town_kana":"モンゼンマチアンダイハラ","prefecture_code":17},"2314":{"zip_code":"9272314","prefecture":"石川県","prefecture_kana":"イシカワケン","city":"輪島市","city_kana":"ワジマシ","town":"門前町飯川谷","town_kana":"モンゼンマチイガワダニ","prefecture_code":17},"2286":{"zip_code":"9272286","prefecture":"石川県","prefecture_kana":"イシカワケン","city":"輪島市","city_kana":"ワジマシ","town":"門前町五十洲","town_kana":"モンゼンマチイギス","prefecture_code":17},"2354":{"zip_code":"9272354","prefecture":"石川県","prefecture_kana":"イシカワケン","city":"輪島市","city_kana":"ワジマシ","town":"門前町池田","town_kana":"モンゼンマチイケダ","prefecture_code":17},"2274":{"zip_code":"9272274","prefecture":"石川県","prefecture_kana":"イシカワケン","city":"輪島市","city_kana":"ワジマシ","town":"門前町井守上坂","town_kana":"モンゼンマチイモリアゲサカ","prefecture_code":17},"2336":{"zip_code":"9272336","prefecture":"石川県","prefecture_kana":"イシカワケン","city":"輪島市","city_kana":"ワジマシ","town":"門前町入山","town_kana":"モンゼンマチイリヤマ","prefecture_code":17},"2137":{"zip_code":"9272137","prefecture":"石川県","prefecture_kana":"イシカワケン","city":"輪島市","city_kana":"ワジマシ","town":"門前町内保","town_kana":"モンゼンマチウチボ","prefecture_code":17},"2322":{"zip_code":"9272322","prefecture":"石川県","prefecture_kana":"イシカワケン","city":"輪島市","city_kana":"ワジマシ","town":"門前町窕","town_kana":"モンゼンマチウツロ","prefecture_code":17},"2281":{"zip_code":"9272281","prefecture":"石川県","prefecture_kana":"イシカワケン","city":"輪島市","city_kana":"ワジマシ","town":"門前町鵜山","town_kana":"モンゼンマチウヤマ","prefecture_code":17},"2102":[{"zip_code":"9272102","prefecture":"石川県","prefecture_kana":"イシカワケン","city":"輪島市","city_kana":"ワジマシ","town":"門前町浦上","town_kana":"モンゼンマチウラカミ","prefecture_code":17},{"zip_code":"9272102","prefecture":"石川県","prefecture_kana":"イシカワケン","city":"輪島市","city_kana":"ワジマシ","town":"門前町八幡","town_kana":"モンゼンマチヤワタ","prefecture_code":17}],"2334":{"zip_code":"9272334","prefecture":"石川県","prefecture_kana":"イシカワケン","city":"輪島市","city_kana":"ワジマシ","town":"門前町上代","town_kana":"モンゼンマチウワダイ","prefecture_code":17},"2303":{"zip_code":"9272303","prefecture":"石川県","prefecture_kana":"イシカワケン","city":"輪島市","city_kana":"ワジマシ","town":"門前町江崎","town_kana":"モンゼンマチエサキ","prefecture_code":17},"2141":{"zip_code":"9272141","prefecture":"石川県","prefecture_kana":"イシカワケン","city":"輪島市","city_kana":"ワジマシ","town":"門前町小石","town_kana":"モンゼンマチオイシ","prefecture_code":17},"2341":{"zip_code":"9272341","prefecture":"石川県","prefecture_kana":"イシカワケン","city":"輪島市","city_kana":"ワジマシ","town":"門前町大釜","town_kana":"モンゼンマチオオガマ","prefecture_code":17},"2305":{"zip_code":"9272305","prefecture":"石川県","prefecture_kana":"イシカワケン","city":"輪島市","city_kana":"ワジマシ","town":"門前町大切","town_kana":"モンゼンマチオオギリ","prefecture_code":17},"2282":{"zip_code":"9272282","prefecture":"石川県","prefecture_kana":"イシカワケン","city":"輪島市","city_kana":"ワジマシ","town":"門前町大滝","town_kana":"モンゼンマチオオタキ","prefecture_code":17},"2343":{"zip_code":"9272343","prefecture":"石川県","prefecture_kana":"イシカワケン","city":"輪島市","city_kana":"ワジマシ","town":"門前町大泊","town_kana":"モンゼンマチオオドマリ","prefecture_code":17},"2147":{"zip_code":"9272147","prefecture":"石川県","prefecture_kana":"イシカワケン","city":"輪島市","city_kana":"ワジマシ","town":"門前町鬼屋","town_kana":"モンゼンマチオニヤ","prefecture_code":17},"2163":{"zip_code":"9272163","prefecture":"石川県","prefecture_kana":"イシカワケン","city":"輪島市","city_kana":"ワジマシ","town":"門前町大生","town_kana":"モンゼンマチオハエ","prefecture_code":17},"2166":{"zip_code":"9272166","prefecture":"石川県","prefecture_kana":"イシカワケン","city":"輪島市","city_kana":"ワジマシ","town":"門前町鹿磯","town_kana":"モンゼンマチカイソ","prefecture_code":17},"2121":{"zip_code":"9272121","prefecture":"石川県","prefecture_kana":"イシカワケン","city":"輪島市","city_kana":"ワジマシ","town":"門前町貝吹","town_kana":"モンゼンマチカイフキ","prefecture_code":17},"2143":{"zip_code":"9272143","prefecture":"石川県","prefecture_kana":"イシカワケン","city":"輪島市","city_kana":"ワジマシ","town":"門前町風原","town_kana":"モンゼンマチカザハラ","prefecture_code":17},"2364":{"zip_code":"9272364","prefecture":"石川県","prefecture_kana":"イシカワケン","city":"輪島市","city_kana":"ワジマシ","town":"門前町鍛治屋","town_kana":"モンゼンマチカジヤ","prefecture_code":17},"2162":{"zip_code":"9272162","prefecture":"石川県","prefecture_kana":"イシカワケン","city":"輪島市","city_kana":"ワジマシ","town":"門前町勝田","town_kana":"モンゼンマチカツタ","prefecture_code":17},"2142":{"zip_code":"9272142","prefecture":"石川県","prefecture_kana":"イシカワケン","city":"輪島市","city_kana":"ワジマシ","town":"門前町上河内","town_kana":"モンゼンマチカミガワチ","prefecture_code":17},"2352":{"zip_code":"9272352","prefecture":"石川県","prefecture_kana":"イシカワケン","city":"輪島市","city_kana":"ワジマシ","town":"門前町北川","town_kana":"モンゼンマチキタガワ","prefecture_code":17},"2332":{"zip_code":"9272332","prefecture":"石川県","prefecture_kana":"イシカワケン","city":"輪島市","city_kana":"ワジマシ","town":"門前町木原月","town_kana":"モンゼンマチキハラヅキ","prefecture_code":17},"2321":{"zip_code":"9272321","prefecture":"石川県","prefecture_kana":"イシカワケン","city":"輪島市","city_kana":"ワジマシ","town":"門前町久川","town_kana":"モンゼンマチキュウカワ","prefecture_code":17},"2311":{"zip_code":"9272311","prefecture":"石川県","prefecture_kana":"イシカワケン","city":"輪島市","city_kana":"ワジマシ","town":"門前町切狭","town_kana":"モンゼンマチキリバサミ","prefecture_code":17},"2273":{"zip_code":"9272273","prefecture":"石川県","prefecture_kana":"イシカワケン","city":"輪島市","city_kana":"ワジマシ","town":"門前町暮坂","town_kana":"モンゼンマチクレサカ","prefecture_code":17},"2335":{"zip_code":"9272335","prefecture":"石川県","prefecture_kana":"イシカワケン","city":"輪島市","city_kana":"ワジマシ","town":"門前町黒岩","town_kana":"モンゼンマチクロイワ","prefecture_code":17},"2165":{"zip_code":"9272165","prefecture":"石川県","prefecture_kana":"イシカワケン","city":"輪島市","city_kana":"ワジマシ","town":"門前町黒島町","town_kana":"モンゼンマチクロシママチ","prefecture_code":17},"2344":{"zip_code":"9272344","prefecture":"石川県","prefecture_kana":"イシカワケン","city":"輪島市","city_kana":"ワジマシ","town":"門前町腰細","town_kana":"モンゼンマチコシボソ","prefecture_code":17},"2145":{"zip_code":"9272145","prefecture":"石川県","prefecture_kana":"イシカワケン","city":"輪島市","city_kana":"ワジマシ","town":"門前町小滝","town_kana":"モンゼンマチコダキ","prefecture_code":17},"2361":{"zip_code":"9272361","prefecture":"石川県","prefecture_kana":"イシカワケン","city":"輪島市","city_kana":"ワジマシ","town":"門前町小山","town_kana":"モンゼンマチコヤマ","prefecture_code":17},"2353":{"zip_code":"9272353","prefecture":"石川県","prefecture_kana":"イシカワケン","city":"輪島市","city_kana":"ワジマシ","town":"門前町是清","town_kana":"モンゼンマチコレキヨ","prefecture_code":17},"2133":{"zip_code":"9272133","prefecture":"石川県","prefecture_kana":"イシカワケン","city":"輪島市","city_kana":"ワジマシ","town":"門前町定広","town_kana":"モンゼンマチサダヒロ","prefecture_code":17},"2144":{"zip_code":"9272144","prefecture":"石川県","prefecture_kana":"イシカワケン","city":"輪島市","city_kana":"ワジマシ","town":"門前町猿橋","town_kana":"モンゼンマチサルハシ","prefecture_code":17},"2112":{"zip_code":"9272112","prefecture":"石川県","prefecture_kana":"イシカワケン","city":"輪島市","city_kana":"ワジマシ","town":"門前町四位","town_kana":"モンゼンマチシイ","prefecture_code":17},"2362":{"zip_code":"9272362","prefecture":"石川県","prefecture_kana":"イシカワケン","city":"輪島市","city_kana":"ワジマシ","town":"門前町椎木","town_kana":"モンゼンマチシイノキ","prefecture_code":17},"2175":{"zip_code":"9272175","prefecture":"石川県","prefecture_kana":"イシカワケン","city":"輪島市","city_kana":"ワジマシ","town":"門前町清水","town_kana":"モンゼンマチシミズ","prefecture_code":17},"2323":{"zip_code":"9272323","prefecture":"石川県","prefecture_kana":"イシカワケン","city":"輪島市","city_kana":"ワジマシ","town":"門前町神明原","town_kana":"モンゼンマチシメハラ","prefecture_code":17},"2304":{"zip_code":"9272304","prefecture":"石川県","prefecture_kana":"イシカワケン","city":"輪島市","city_kana":"ワジマシ","town":"門前町白禿","town_kana":"モンゼンマチシラハゲ","prefecture_code":17},"2363":{"zip_code":"9272363","prefecture":"石川県","prefecture_kana":"イシカワケン","city":"輪島市","city_kana":"ワジマシ","town":"門前町新町分","town_kana":"モンゼンマチシンマチブン","prefecture_code":17},"2275":{"zip_code":"9272275","prefecture":"石川県","prefecture_kana":"イシカワケン","city":"輪島市","city_kana":"ワジマシ","town":"門前町薄野","town_kana":"モンゼンマチススキノ","prefecture_code":17},"2313":{"zip_code":"9272313","prefecture":"石川県","prefecture_kana":"イシカワケン","city":"輪島市","city_kana":"ワジマシ","town":"門前町清沢","town_kana":"モンゼンマチセイザワ","prefecture_code":17},"2351":{"zip_code":"9272351","prefecture":"石川県","prefecture_kana":"イシカワケン","city":"輪島市","city_kana":"ワジマシ","town":"門前町千代","town_kana":"モンゼンマチセンダイ","prefecture_code":17},"2131":{"zip_code":"9272131","prefecture":"石川県","prefecture_kana":"イシカワケン","city":"輪島市","city_kana":"ワジマシ","town":"門前町平","town_kana":"モンゼンマチタイラ","prefecture_code":17},"2172":{"zip_code":"9272172","prefecture":"石川県","prefecture_kana":"イシカワケン","city":"輪島市","city_kana":"ワジマシ","town":"門前町高根尾","town_kana":"モンゼンマチタカネオ","prefecture_code":17},"2111":{"zip_code":"9272111","prefecture":"石川県","prefecture_kana":"イシカワケン","city":"輪島市","city_kana":"ワジマシ","town":"門前町滝上","town_kana":"モンゼンマチタキノウエ","prefecture_code":17},"2325":{"zip_code":"9272325","prefecture":"石川県","prefecture_kana":"イシカワケン","city":"輪島市","city_kana":"ワジマシ","town":"門前町滝町","town_kana":"モンゼンマチタキマチ","prefecture_code":17},"2173":{"zip_code":"9272173","prefecture":"石川県","prefecture_kana":"イシカワケン","city":"輪島市","city_kana":"ワジマシ","town":"門前町舘","town_kana":"モンゼンマチタチ","prefecture_code":17},"2333":[{"zip_code":"9272333","prefecture":"石川県","prefecture_kana":"イシカワケン","city":"輪島市","city_kana":"ワジマシ","town":"門前町館分","town_kana":"モンゼンマチタチブン","prefecture_code":17},{"zip_code":"9272333","prefecture":"石川県","prefecture_kana":"イシカワケン","city":"輪島市","city_kana":"ワジマシ","town":"門前町馬場","town_kana":"モンゼンマチバンバ","prefecture_code":17}],"2114":{"zip_code":"9272114","prefecture":"石川県","prefecture_kana":"イシカワケン","city":"輪島市","city_kana":"ワジマシ","town":"門前町谷口","town_kana":"モンゼンマチタニグチ","prefecture_code":17},"2105":{"zip_code":"9272105","prefecture":"石川県","prefecture_kana":"イシカワケン","city":"輪島市","city_kana":"ワジマシ","town":"門前町田村","town_kana":"モンゼンマチタムラ","prefecture_code":17},"2272":{"zip_code":"9272272","prefecture":"石川県","prefecture_kana":"イシカワケン","city":"輪島市","city_kana":"ワジマシ","town":"門前町樽見","town_kana":"モンゼンマチタルミ","prefecture_code":17},"2134":{"zip_code":"9272134","prefecture":"石川県","prefecture_kana":"イシカワケン","city":"輪島市","city_kana":"ワジマシ","town":"門前町地原","town_kana":"モンゼンマチチハラ","prefecture_code":17},"2342":{"zip_code":"9272342","prefecture":"石川県","prefecture_kana":"イシカワケン","city":"輪島市","city_kana":"ワジマシ","town":"門前町剱地","town_kana":"モンゼンマチツルギヂ","prefecture_code":17},"2164":{"zip_code":"9272164","prefecture":"石川県","prefecture_kana":"イシカワケン","city":"輪島市","city_kana":"ワジマシ","town":"門前町道下","town_kana":"モンゼンマチトウゲ","prefecture_code":17},"2135":{"zip_code":"9272135","prefecture":"石川県","prefecture_kana":"イシカワケン","city":"輪島市","city_kana":"ワジマシ","town":"門前町百成","town_kana":"モンゼンマチドウミキ","prefecture_code":17},"2276":{"zip_code":"9272276","prefecture":"石川県","prefecture_kana":"イシカワケン","city":"輪島市","city_kana":"ワジマシ","town":"門前町百成大角間","town_kana":"モンゼンマチドウミキオオカクマ","prefecture_code":17},"2113":[{"zip_code":"9272113","prefecture":"石川県","prefecture_kana":"イシカワケン","city":"輪島市","city_kana":"ワジマシ","town":"門前町俊兼","town_kana":"モンゼンマチトシカネ","prefecture_code":17},{"zip_code":"9272113","prefecture":"石川県","prefecture_kana":"イシカワケン","city":"輪島市","city_kana":"ワジマシ","town":"門前町嶺","town_kana":"モンゼンマチミネ","prefecture_code":17}],"2154":{"zip_code":"9272154","prefecture":"石川県","prefecture_kana":"イシカワケン","city":"輪島市","city_kana":"ワジマシ","town":"門前町栃木","town_kana":"モンゼンマチトチノキ","prefecture_code":17},"2132":{"zip_code":"9272132","prefecture":"石川県","prefecture_kana":"イシカワケン","city":"輪島市","city_kana":"ワジマシ","town":"門前町長井坂","town_kana":"モンゼンマチナガイザカ","prefecture_code":17},"2366":{"zip_code":"9272366","prefecture":"石川県","prefecture_kana":"イシカワケン","city":"輪島市","city_kana":"ワジマシ","town":"門前町中田","town_kana":"モンゼンマチナカタ","prefecture_code":17},"2108":{"zip_code":"9272108","prefecture":"石川県","prefecture_kana":"イシカワケン","city":"輪島市","city_kana":"ワジマシ","town":"門前町中野屋","town_kana":"モンゼンマチナカノヤ","prefecture_code":17},"2283":{"zip_code":"9272283","prefecture":"石川県","prefecture_kana":"イシカワケン","city":"輪島市","city_kana":"ワジマシ","town":"門前町中谷内","town_kana":"モンゼンマチナカヤチ","prefecture_code":17},"2146":{"zip_code":"9272146","prefecture":"石川県","prefecture_kana":"イシカワケン","city":"輪島市","city_kana":"ワジマシ","town":"門前町西中尾","town_kana":"モンゼンマチニシナカオ","prefecture_code":17},"2312":{"zip_code":"9272312","prefecture":"石川県","prefecture_kana":"イシカワケン","city":"輪島市","city_kana":"ワジマシ","town":"門前町西中谷","town_kana":"モンゼンマチニシナカタニ","prefecture_code":17},"2101":{"zip_code":"9272101","prefecture":"石川県","prefecture_kana":"イシカワケン","city":"輪島市","city_kana":"ワジマシ","town":"門前町西円山","town_kana":"モンゼンマチニシマルヤマ","prefecture_code":17},"2126":{"zip_code":"9272126","prefecture":"石川県","prefecture_kana":"イシカワケン","city":"輪島市","city_kana":"ワジマシ","town":"門前町能納屋","town_kana":"モンゼンマチノウノヤ","prefecture_code":17},"2151":{"zip_code":"9272151","prefecture":"石川県","prefecture_kana":"イシカワケン","city":"輪島市","city_kana":"ワジマシ","town":"門前町走出","town_kana":"モンゼンマチハシリデ","prefecture_code":17},"2122":{"zip_code":"9272122","prefecture":"石川県","prefecture_kana":"イシカワケン","city":"輪島市","city_kana":"ワジマシ","town":"門前町原","town_kana":"モンゼンマチハラ","prefecture_code":17},"2124":{"zip_code":"9272124","prefecture":"石川県","prefecture_kana":"イシカワケン","city":"輪島市","city_kana":"ワジマシ","town":"門前町東大町","town_kana":"モンゼンマチヒガシオオマチ","prefecture_code":17},"2155":{"zip_code":"9272155","prefecture":"石川県","prefecture_kana":"イシカワケン","city":"輪島市","city_kana":"ワジマシ","town":"門前町日野尾","town_kana":"モンゼンマチヒノオ","prefecture_code":17},"2174":{"zip_code":"9272174","prefecture":"石川県","prefecture_kana":"イシカワケン","city":"輪島市","city_kana":"ワジマシ","town":"門前町広岡","town_kana":"モンゼンマチヒロオカ","prefecture_code":17},"2152":{"zip_code":"9272152","prefecture":"石川県","prefecture_kana":"イシカワケン","city":"輪島市","city_kana":"ワジマシ","town":"門前町広瀬","town_kana":"モンゼンマチヒロセ","prefecture_code":17},"2153":{"zip_code":"9272153","prefecture":"石川県","prefecture_kana":"イシカワケン","city":"輪島市","city_kana":"ワジマシ","town":"門前町深田","town_kana":"モンゼンマチフカダ","prefecture_code":17},"2167":{"zip_code":"9272167","prefecture":"石川県","prefecture_kana":"イシカワケン","city":"輪島市","city_kana":"ワジマシ","town":"門前町深見","town_kana":"モンゼンマチフカミ","prefecture_code":17},"2355":{"zip_code":"9272355","prefecture":"石川県","prefecture_kana":"イシカワケン","city":"輪島市","city_kana":"ワジマシ","town":"門前町藤浜","town_kana":"モンゼンマチフジノハマ","prefecture_code":17},"2301":{"zip_code":"9272301","prefecture":"石川県","prefecture_kana":"イシカワケン","city":"輪島市","city_kana":"ワジマシ","town":"門前町二又","town_kana":"モンゼンマチフタマタ","prefecture_code":17},"2127":{"zip_code":"9272127","prefecture":"石川県","prefecture_kana":"イシカワケン","city":"輪島市","city_kana":"ワジマシ","town":"門前町二又川","town_kana":"モンゼンマチフタマタガワ","prefecture_code":17},"2125":{"zip_code":"9272125","prefecture":"石川県","prefecture_kana":"イシカワケン","city":"輪島市","city_kana":"ワジマシ","town":"門前町別所","town_kana":"モンゼンマチベッショ","prefecture_code":17},"2138":{"zip_code":"9272138","prefecture":"石川県","prefecture_kana":"イシカワケン","city":"輪島市","city_kana":"ワジマシ","town":"門前町堀腰","town_kana":"モンゼンマチホリコシ","prefecture_code":17},"2324":{"zip_code":"9272324","prefecture":"石川県","prefecture_kana":"イシカワケン","city":"輪島市","city_kana":"ワジマシ","town":"門前町馬渡","town_kana":"モンゼンマチマワタリ","prefecture_code":17},"2271":{"zip_code":"9272271","prefecture":"石川県","prefecture_kana":"イシカワケン","city":"輪島市","city_kana":"ワジマシ","town":"門前町皆月","town_kana":"モンゼンマチミナヅキ","prefecture_code":17},"2365":{"zip_code":"9272365","prefecture":"石川県","prefecture_kana":"イシカワケン","city":"輪島市","city_kana":"ワジマシ","town":"門前町南","town_kana":"モンゼンマチミナミ","prefecture_code":17},"2103":{"zip_code":"9272103","prefecture":"石川県","prefecture_kana":"イシカワケン","city":"輪島市","city_kana":"ワジマシ","town":"門前町宮古場","town_kana":"モンゼンマチミヤコバ","prefecture_code":17},"2277":{"zip_code":"9272277","prefecture":"石川県","prefecture_kana":"イシカワケン","city":"輪島市","city_kana":"ワジマシ","town":"門前町餅田","town_kana":"モンゼンマチモチダ","prefecture_code":17},"2171":{"zip_code":"9272171","prefecture":"石川県","prefecture_kana":"イシカワケン","city":"輪島市","city_kana":"ワジマシ","town":"門前町本市","town_kana":"モンゼンマチモトイチ","prefecture_code":17},"2115":{"zip_code":"9272115","prefecture":"石川県","prefecture_kana":"イシカワケン","city":"輪島市","city_kana":"ワジマシ","town":"門前町本内","town_kana":"モンゼンマチモトウチ","prefecture_code":17},"2156":{"zip_code":"9272156","prefecture":"石川県","prefecture_kana":"イシカワケン","city":"輪島市","city_kana":"ワジマシ","town":"門前町門前","town_kana":"モンゼンマチモンゼン","prefecture_code":17},"2284":{"zip_code":"9272284","prefecture":"石川県","prefecture_kana":"イシカワケン","city":"輪島市","city_kana":"ワジマシ","town":"門前町矢徳","town_kana":"モンゼンマチヤトク","prefecture_code":17},"2302":{"zip_code":"9272302","prefecture":"石川県","prefecture_kana":"イシカワケン","city":"輪島市","city_kana":"ワジマシ","town":"門前町山是清","town_kana":"モンゼンマチヤマコレキヨ","prefecture_code":17},"2104":{"zip_code":"9272104","prefecture":"石川県","prefecture_kana":"イシカワケン","city":"輪島市","city_kana":"ワジマシ","town":"門前町山辺","town_kana":"モンゼンマチヤマベ","prefecture_code":17},"2136":{"zip_code":"9272136","prefecture":"石川県","prefecture_kana":"イシカワケン","city":"輪島市","city_kana":"ワジマシ","town":"門前町鑓川","town_kana":"モンゼンマチヤリカワ","prefecture_code":17},"2285":{"zip_code":"9272285","prefecture":"石川県","prefecture_kana":"イシカワケン","city":"輪島市","city_kana":"ワジマシ","town":"門前町吉浦","town_kana":"モンゼンマチヨシウラ","prefecture_code":17},"2161":{"zip_code":"9272161","prefecture":"石川県","prefecture_kana":"イシカワケン","city":"輪島市","city_kana":"ワジマシ","town":"門前町六郎木","town_kana":"モンゼンマチロクロギ","prefecture_code":17},"2176":{"zip_code":"9272176","prefecture":"石川県","prefecture_kana":"イシカワケン","city":"輪島市","city_kana":"ワジマシ","town":"門前町和田","town_kana":"モンゼンマチワダ","prefecture_code":17},"2331":{"zip_code":"9272331","prefecture":"石川県","prefecture_kana":"イシカワケン","city":"輪島市","city_kana":"ワジマシ","town":"門前町渡瀬","town_kana":"モンゼンマチワタセ","prefecture_code":17},"1200":{"zip_code":"9271200","prefecture":"石川県","prefecture_kana":"イシカワケン","city":"珠洲市","city_kana":"スズシ","town":"","town_kana":"","prefecture_code":17},"1214":{"zip_code":"9271214","prefecture":"石川県","prefecture_kana":"イシカワケン","city":"珠洲市","city_kana":"スズシ","town":"飯田町","town_kana":"イイダマチ","prefecture_code":17},"1303":{"zip_code":"9271303","prefecture":"石川県","prefecture_kana":"イシカワケン","city":"珠洲市","city_kana":"スズシ","town":"石神町","town_kana":"イシガミマチ","prefecture_code":17},"1211":{"zip_code":"9271211","prefecture":"石川県","prefecture_kana":"イシカワケン","city":"珠洲市","city_kana":"スズシ","town":"岩坂町","town_kana":"イワサカマチ","prefecture_code":17},"1216":{"zip_code":"9271216","prefecture":"石川県","prefecture_kana":"イシカワケン","city":"珠洲市","city_kana":"スズシ","town":"上戸町寺社","town_kana":"ウエドマチジシャ","prefecture_code":17},"1217":{"zip_code":"9271217","prefecture":"石川県","prefecture_kana":"イシカワケン","city":"珠洲市","city_kana":"スズシ","town":"上戸町南方","town_kana":"ウエドマチミナミガタ","prefecture_code":17},"1215":{"zip_code":"9271215","prefecture":"石川県","prefecture_kana":"イシカワケン","city":"珠洲市","city_kana":"スズシ","town":"上戸町北方","town_kana":"ウエドマチキタガタ","prefecture_code":17},"1321":{"zip_code":"9271321","prefecture":"石川県","prefecture_kana":"イシカワケン","city":"珠洲市","city_kana":"スズシ","town":"大谷町","town_kana":"オオタニマチ","prefecture_code":17},"1446":{"zip_code":"9271446","prefecture":"石川県","prefecture_kana":"イシカワケン","city":"珠洲市","city_kana":"スズシ","town":"折戸町","town_kana":"オリトマチ","prefecture_code":17},"1323":{"zip_code":"9271323","prefecture":"石川県","prefecture_kana":"イシカワケン","city":"珠洲市","city_kana":"スズシ","town":"片岩町","town_kana":"カタイワマチ","prefecture_code":17},"1445":{"zip_code":"9271445","prefecture":"石川県","prefecture_kana":"イシカワケン","city":"珠洲市","city_kana":"スズシ","town":"唐笠町","town_kana":"カラカサマチ","prefecture_code":17},"1444":{"zip_code":"9271444","prefecture":"石川県","prefecture_kana":"イシカワケン","city":"珠洲市","city_kana":"スズシ","town":"唐笠町八ケ山","town_kana":"カラカサマチハッカヤマ","prefecture_code":17},"1447":{"zip_code":"9271447","prefecture":"石川県","prefecture_kana":"イシカワケン","city":"珠洲市","city_kana":"スズシ","town":"川浦町","town_kana":"カワウラマチ","prefecture_code":17},"1212":{"zip_code":"9271212","prefecture":"石川県","prefecture_kana":"イシカワケン","city":"珠洲市","city_kana":"スズシ","town":"熊谷町","town_kana":"クマンタニマチ","prefecture_code":17},"1302":{"zip_code":"9271302","prefecture":"石川県","prefecture_kana":"イシカワケン","city":"珠洲市","city_kana":"スズシ","town":"笹波町","town_kana":"ササナミマチ","prefecture_code":17},"1324":{"zip_code":"9271324","prefecture":"石川県","prefecture_kana":"イシカワケン","city":"珠洲市","city_kana":"スズシ","town":"清水町","town_kana":"シミズマチ","prefecture_code":17},"1202":{"zip_code":"9271202","prefecture":"石川県","prefecture_kana":"イシカワケン","city":"珠洲市","city_kana":"スズシ","town":"正院町飯塚","town_kana":"ショウインマチイイヅカ","prefecture_code":17},"1201":{"zip_code":"9271201","prefecture":"石川県","prefecture_kana":"イシカワケン","city":"珠洲市","city_kana":"スズシ","town":"正院町岡田","town_kana":"ショウインマチオカタ","prefecture_code":17},"1205":{"zip_code":"9271205","prefecture":"石川県","prefecture_kana":"イシカワケン","city":"珠洲市","city_kana":"スズシ","town":"正院町川尻","town_kana":"ショウインマチカワシリ","prefecture_code":17},"1207":{"zip_code":"9271207","prefecture":"石川県","prefecture_kana":"イシカワケン","city":"珠洲市","city_kana":"スズシ","town":"正院町小路","town_kana":"ショウインマチコウジ","prefecture_code":17},"1206":{"zip_code":"9271206","prefecture":"石川県","prefecture_kana":"イシカワケン","city":"珠洲市","city_kana":"スズシ","town":"正院町正院","town_kana":"ショウインマチショウイン","prefecture_code":17},"1203":{"zip_code":"9271203","prefecture":"石川県","prefecture_kana":"イシカワケン","city":"珠洲市","city_kana":"スズシ","town":"正院町平床","town_kana":"ショウインマチヒラトコ","prefecture_code":17},"1301":{"zip_code":"9271301","prefecture":"石川県","prefecture_kana":"イシカワケン","city":"珠洲市","city_kana":"スズシ","town":"高屋町","town_kana":"タカヤマチ","prefecture_code":17},"1204":{"zip_code":"9271204","prefecture":"石川県","prefecture_kana":"イシカワケン","city":"珠洲市","city_kana":"スズシ","town":"蛸島町","town_kana":"タコジママチ","prefecture_code":17},"1322":{"zip_code":"9271322","prefecture":"石川県","prefecture_kana":"イシカワケン","city":"珠洲市","city_kana":"スズシ","town":"長橋町","town_kana":"ナガハシマチ","prefecture_code":17},"1325":{"zip_code":"9271325","prefecture":"石川県","prefecture_kana":"イシカワケン","city":"珠洲市","city_kana":"スズシ","town":"仁江町","town_kana":"ニエマチ","prefecture_code":17},"1213":{"zip_code":"9271213","prefecture":"石川県","prefecture_kana":"イシカワケン","city":"珠洲市","city_kana":"スズシ","town":"野々江町","town_kana":"ノノエマチ","prefecture_code":17},"1442":{"zip_code":"9271442","prefecture":"石川県","prefecture_kana":"イシカワケン","city":"珠洲市","city_kana":"スズシ","town":"狼煙新町","town_kana":"ノロシシンマチ","prefecture_code":17},"1441":{"zip_code":"9271441","prefecture":"石川県","prefecture_kana":"イシカワケン","city":"珠洲市","city_kana":"スズシ","town":"狼煙町","town_kana":"ノロシマチ","prefecture_code":17},"1443":{"zip_code":"9271443","prefecture":"石川県","prefecture_kana":"イシカワケン","city":"珠洲市","city_kana":"スズシ","town":"東山中町","town_kana":"ヒガシヤマナカマチ","prefecture_code":17},"1222":{"zip_code":"9271222","prefecture":"石川県","prefecture_kana":"イシカワケン","city":"珠洲市","city_kana":"スズシ","town":"宝立町鵜飼","town_kana":"ホウリュウマチウカイ","prefecture_code":17},"1223":{"zip_code":"9271223","prefecture":"石川県","prefecture_kana":"イシカワケン","city":"珠洲市","city_kana":"スズシ","town":"宝立町鵜島","town_kana":"ホウリュウマチウシマ","prefecture_code":17},"1227":[{"zip_code":"9271227","prefecture":"石川県","prefecture_kana":"イシカワケン","city":"珠洲市","city_kana":"スズシ","town":"宝立町大町泥木","town_kana":"ホウリュウマチオオマチドロノキ","prefecture_code":17},{"zip_code":"9271227","prefecture":"石川県","prefecture_kana":"イシカワケン","city":"珠洲市","city_kana":"スズシ","town":"宝立町二艘丹","town_kana":"ホウリュウマチニソウフネ","prefecture_code":17}],"1228":[{"zip_code":"9271228","prefecture":"石川県","prefecture_kana":"イシカワケン","city":"珠洲市","city_kana":"スズシ","town":"宝立町柏原","town_kana":"ホウリュウマチカシハラ","prefecture_code":17},{"zip_code":"9271228","prefecture":"石川県","prefecture_kana":"イシカワケン","city":"珠洲市","city_kana":"スズシ","town":"宝立町黒峰","town_kana":"ホウリュウマチクロミネ","prefecture_code":17}],"1221":[{"zip_code":"9271221","prefecture":"石川県","prefecture_kana":"イシカワケン","city":"珠洲市","city_kana":"スズシ","town":"宝立町春日野","town_kana":"ホウリュウマチカスガノ","prefecture_code":17},{"zip_code":"9271221","prefecture":"石川県","prefecture_kana":"イシカワケン","city":"珠洲市","city_kana":"スズシ","town":"宝立町金峰寺","town_kana":"ホウリュウマチコンポウジ","prefecture_code":17}],"1225":{"zip_code":"9271225","prefecture":"石川県","prefecture_kana":"イシカワケン","city":"珠洲市","city_kana":"スズシ","town":"宝立町宗玄","town_kana":"ホウリュウマチソウゲン","prefecture_code":17},"1226":{"zip_code":"9271226","prefecture":"石川県","prefecture_kana":"イシカワケン","city":"珠洲市","city_kana":"スズシ","town":"宝立町馬渡","town_kana":"ホウリュウマチマワタリ","prefecture_code":17},"1224":{"zip_code":"9271224","prefecture":"石川県","prefecture_kana":"イシカワケン","city":"珠洲市","city_kana":"スズシ","town":"宝立町南黒丸","town_kana":"ホウリュウマチミナミクロマル","prefecture_code":17},"1326":{"zip_code":"9271326","prefecture":"石川県","prefecture_kana":"イシカワケン","city":"珠洲市","city_kana":"スズシ","town":"真浦町","town_kana":"マウラマチ","prefecture_code":17},"1304":{"zip_code":"9271304","prefecture":"石川県","prefecture_kana":"イシカワケン","city":"珠洲市","city_kana":"スズシ","town":"馬緤町","town_kana":"マツナギマチ","prefecture_code":17},"1452":{"zip_code":"9271452","prefecture":"石川県","prefecture_kana":"イシカワケン","city":"珠洲市","city_kana":"スズシ","town":"三崎町粟津","town_kana":"ミサキマチアワヅ","prefecture_code":17},"1454":{"zip_code":"9271454","prefecture":"石川県","prefecture_kana":"イシカワケン","city":"珠洲市","city_kana":"スズシ","town":"三崎町宇治","town_kana":"ミサキマチウジ","prefecture_code":17},"1457":{"zip_code":"9271457","prefecture":"石川県","prefecture_kana":"イシカワケン","city":"珠洲市","city_kana":"スズシ","town":"三崎町大屋","town_kana":"ミサキマチオオヤ","prefecture_code":17},"1456":{"zip_code":"9271456","prefecture":"石川県","prefecture_kana":"イシカワケン","city":"珠洲市","city_kana":"スズシ","town":"三崎町高波","town_kana":"ミサキマチコウナミ","prefecture_code":17},"1462":{"zip_code":"9271462","prefecture":"石川県","prefecture_kana":"イシカワケン","city":"珠洲市","city_kana":"スズシ","town":"三崎町小泊","town_kana":"ミサキマチコドマリ","prefecture_code":17},"1451":{"zip_code":"9271451","prefecture":"石川県","prefecture_kana":"イシカワケン","city":"珠洲市","city_kana":"スズシ","town":"三崎町寺家","town_kana":"ミサキマチジケ","prefecture_code":17},"1466":{"zip_code":"9271466","prefecture":"石川県","prefecture_kana":"イシカワケン","city":"珠洲市","city_kana":"スズシ","town":"三崎町杉山","town_kana":"ミサキマチスギヤマ","prefecture_code":17},"1468":{"zip_code":"9271468","prefecture":"石川県","prefecture_kana":"イシカワケン","city":"珠洲市","city_kana":"スズシ","town":"三崎町内方","town_kana":"ミサキマチナイホウ","prefecture_code":17},"1465":{"zip_code":"9271465","prefecture":"石川県","prefecture_kana":"イシカワケン","city":"珠洲市","city_kana":"スズシ","town":"三崎町二本松","town_kana":"ミサキマチニホンマツ","prefecture_code":17},"1455":{"zip_code":"9271455","prefecture":"石川県","prefecture_kana":"イシカワケン","city":"珠洲市","city_kana":"スズシ","town":"三崎町引砂","town_kana":"ミサキマチヒキスナ","prefecture_code":17},"1461":{"zip_code":"9271461","prefecture":"石川県","prefecture_kana":"イシカワケン","city":"珠洲市","city_kana":"スズシ","town":"三崎町伏見","town_kana":"ミサキマチフシミ","prefecture_code":17},"1464":{"zip_code":"9271464","prefecture":"石川県","prefecture_kana":"イシカワケン","city":"珠洲市","city_kana":"スズシ","town":"三崎町細屋","town_kana":"ミサキマチホソヤ","prefecture_code":17},"1467":{"zip_code":"9271467","prefecture":"石川県","prefecture_kana":"イシカワケン","city":"珠洲市","city_kana":"スズシ","town":"三崎町本","town_kana":"ミサキマチホン","prefecture_code":17},"1463":{"zip_code":"9271463","prefecture":"石川県","prefecture_kana":"イシカワケン","city":"珠洲市","city_kana":"スズシ","town":"三崎町雲津","town_kana":"ミサキマチモヅ","prefecture_code":17},"1453":{"zip_code":"9271453","prefecture":"石川県","prefecture_kana":"イシカワケン","city":"珠洲市","city_kana":"スズシ","town":"三崎町森腰","town_kana":"ミサキマチモリコシ","prefecture_code":17},"1237":[{"zip_code":"9271237","prefecture":"石川県","prefecture_kana":"イシカワケン","city":"珠洲市","city_kana":"スズシ","town":"若山町宇都山","town_kana":"ワカヤママチウツヤマ","prefecture_code":17},{"zip_code":"9271237","prefecture":"石川県","prefecture_kana":"イシカワケン","city":"珠洲市","city_kana":"スズシ","town":"若山町大坊","town_kana":"ワカヤママチダイボウ","prefecture_code":17}],"1314":{"zip_code":"9271314","prefecture":"石川県","prefecture_kana":"イシカワケン","city":"珠洲市","city_kana":"スズシ","town":"若山町上黒丸","town_kana":"ワカヤママチカミクロマル","prefecture_code":17},"1311":{"zip_code":"9271311","prefecture":"石川県","prefecture_kana":"イシカワケン","city":"珠洲市","city_kana":"スズシ","town":"若山町上正力","town_kana":"ワカヤママチカミショウリキ","prefecture_code":17},"1317":{"zip_code":"9271317","prefecture":"石川県","prefecture_kana":"イシカワケン","city":"珠洲市","city_kana":"スズシ","town":"若山町上山","town_kana":"ワカヤママチカミヤマ","prefecture_code":17},"1318":{"zip_code":"9271318","prefecture":"石川県","prefecture_kana":"イシカワケン","city":"珠洲市","city_kana":"スズシ","town":"若山町北山","town_kana":"ワカヤママチキタヤマ","prefecture_code":17},"1234":{"zip_code":"9271234","prefecture":"石川県","prefecture_kana":"イシカワケン","city":"珠洲市","city_kana":"スズシ","town":"若山町経念","town_kana":"ワカヤママチキョウネン","prefecture_code":17},"1315":[{"zip_code":"9271315","prefecture":"石川県","prefecture_kana":"イシカワケン","city":"珠洲市","city_kana":"スズシ","town":"若山町白滝","town_kana":"ワカヤママチシラタキ","prefecture_code":17},{"zip_code":"9271315","prefecture":"石川県","prefecture_kana":"イシカワケン","city":"珠洲市","city_kana":"スズシ","town":"若山町南山","town_kana":"ワカヤママチミナミヤマ","prefecture_code":17}],"1231":{"zip_code":"9271231","prefecture":"石川県","prefecture_kana":"イシカワケン","city":"珠洲市","city_kana":"スズシ","town":"若山町鈴内","town_kana":"ワカヤママチスズナイ","prefecture_code":17},"1233":{"zip_code":"9271233","prefecture":"石川県","prefecture_kana":"イシカワケン","city":"珠洲市","city_kana":"スズシ","town":"若山町出田","town_kana":"ワカヤママチスッタ","prefecture_code":17},"1316":{"zip_code":"9271316","prefecture":"石川県","prefecture_kana":"イシカワケン","city":"珠洲市","city_kana":"スズシ","town":"若山町洲巻","town_kana":"ワカヤママチスマキ","prefecture_code":17},"1236":{"zip_code":"9271236","prefecture":"石川県","prefecture_kana":"イシカワケン","city":"珠洲市","city_kana":"スズシ","town":"若山町中","town_kana":"ワカヤママチナカ","prefecture_code":17},"1235":[{"zip_code":"9271235","prefecture":"石川県","prefecture_kana":"イシカワケン","city":"珠洲市","city_kana":"スズシ","town":"若山町中田","town_kana":"ワカヤママチナカダ","prefecture_code":17},{"zip_code":"9271235","prefecture":"石川県","prefecture_kana":"イシカワケン","city":"珠洲市","city_kana":"スズシ","town":"若山町向","town_kana":"ワカヤママチムカイ","prefecture_code":17}],"1238":[{"zip_code":"9271238","prefecture":"石川県","prefecture_kana":"イシカワケン","city":"珠洲市","city_kana":"スズシ","town":"若山町延武","town_kana":"ワカヤママチノブタケ","prefecture_code":17},{"zip_code":"9271238","prefecture":"石川県","prefecture_kana":"イシカワケン","city":"珠洲市","city_kana":"スズシ","town":"若山町火宮","town_kana":"ワカヤママチヒミヤ","prefecture_code":17}],"1232":{"zip_code":"9271232","prefecture":"石川県","prefecture_kana":"イシカワケン","city":"珠洲市","city_kana":"スズシ","town":"若山町広栗","town_kana":"ワカヤママチヒログリ","prefecture_code":17},"1312":{"zip_code":"9271312","prefecture":"石川県","prefecture_kana":"イシカワケン","city":"珠洲市","city_kana":"スズシ","town":"若山町二子","town_kana":"ワカヤママチフタゴ","prefecture_code":17},"1239":{"zip_code":"9271239","prefecture":"石川県","prefecture_kana":"イシカワケン","city":"珠洲市","city_kana":"スズシ","town":"若山町古蔵","town_kana":"ワカヤママチフルクラ","prefecture_code":17},"1313":{"zip_code":"9271313","prefecture":"石川県","prefecture_kana":"イシカワケン","city":"珠洲市","city_kana":"スズシ","town":"若山町宗末","town_kana":"ワカヤママチムネスエ","prefecture_code":17},"1319":{"zip_code":"9271319","prefecture":"石川県","prefecture_kana":"イシカワケン","city":"珠洲市","city_kana":"スズシ","town":"若山町吉ケ池","town_kana":"ワカヤママチヨシガイケ","prefecture_code":17},"0000":{"zip_code":"9270000","prefecture":"石川県","prefecture_kana":"イシカワケン","city":"鳳珠郡穴水町","city_kana":"ホウスグンアナミズマチ","town":"","town_kana":"","prefecture_code":17},"0006":{"zip_code":"9270006","prefecture":"石川県","prefecture_kana":"イシカワケン","city":"鳳珠郡穴水町","city_kana":"ホウスグンアナミズマチ","town":"旭ケ丘","town_kana":"アサヒガオカ","prefecture_code":17},"0003":{"zip_code":"9270003","prefecture":"石川県","prefecture_kana":"イシカワケン","city":"鳳珠郡穴水町","city_kana":"ホウスグンアナミズマチ","town":"伊久留","town_kana":"イクロ","prefecture_code":17},"0235":{"zip_code":"9270235","prefecture":"石川県","prefecture_kana":"イシカワケン","city":"鳳珠郡穴水町","city_kana":"ホウスグンアナミズマチ","town":"市ノ坂","town_kana":"イチノサカ","prefecture_code":17},"0007":{"zip_code":"9270007","prefecture":"石川県","prefecture_kana":"イシカワケン","city":"鳳珠郡穴水町","city_kana":"ホウスグンアナミズマチ","town":"岩車","town_kana":"イワグルマ","prefecture_code":17},"0205":{"zip_code":"9270205","prefecture":"石川県","prefecture_kana":"イシカワケン","city":"鳳珠郡穴水町","city_kana":"ホウスグンアナミズマチ","town":"宇加川","town_kana":"ウカガワ","prefecture_code":17},"0031":{"zip_code":"9270031","prefecture":"石川県","prefecture_kana":"イシカワケン","city":"鳳珠郡穴水町","city_kana":"ホウスグンアナミズマチ","town":"鵜島","town_kana":"ウジマ","prefecture_code":17},"0025":{"zip_code":"9270025","prefecture":"石川県","prefecture_kana":"イシカワケン","city":"鳳珠郡穴水町","city_kana":"ホウスグンアナミズマチ","town":"内浦","town_kana":"ウチウラ","prefecture_code":17},"0042":{"zip_code":"9270042","prefecture":"石川県","prefecture_kana":"イシカワケン","city":"鳳珠郡穴水町","city_kana":"ホウスグンアナミズマチ","town":"宇留地","town_kana":"ウルチ","prefecture_code":17},"0054":{"zip_code":"9270054","prefecture":"石川県","prefecture_kana":"イシカワケン","city":"鳳珠郡穴水町","city_kana":"ホウスグンアナミズマチ","town":"上野","town_kana":"ウワノ","prefecture_code":17},"0048":{"zip_code":"9270048","prefecture":"石川県","prefecture_kana":"イシカワケン","city":"鳳珠郡穴水町","city_kana":"ホウスグンアナミズマチ","town":"大角間","town_kana":"オオカクマ","prefecture_code":17},"0215":{"zip_code":"9270215","prefecture":"石川県","prefecture_kana":"イシカワケン","city":"鳳珠郡穴水町","city_kana":"ホウスグンアナミズマチ","town":"大甲","town_kana":"オオカブト","prefecture_code":17},"0026":{"zip_code":"9270026","prefecture":"石川県","prefecture_kana":"イシカワケン","city":"鳳珠郡穴水町","city_kana":"ホウスグンアナミズマチ","town":"大町","town_kana":"オオマチ","prefecture_code":17},"0207":{"zip_code":"9270207","prefecture":"石川県","prefecture_kana":"イシカワケン","city":"鳳珠郡穴水町","city_kana":"ホウスグンアナミズマチ","town":"沖波","town_kana":"オキナミ","prefecture_code":17},"0032":{"zip_code":"9270032","prefecture":"石川県","prefecture_kana":"イシカワケン","city":"鳳珠郡穴水町","city_kana":"ホウスグンアナミズマチ","town":"乙ケ崎","town_kana":"オトガサキ","prefecture_code":17},"0051":{"zip_code":"9270051","prefecture":"石川県","prefecture_kana":"イシカワケン","city":"鳳珠郡穴水町","city_kana":"ホウスグンアナミズマチ","town":"小又","town_kana":"オマタ","prefecture_code":17},"0038":{"zip_code":"9270038","prefecture":"石川県","prefecture_kana":"イシカワケン","city":"鳳珠郡穴水町","city_kana":"ホウスグンアナミズマチ","town":"鹿島","town_kana":"カシマ","prefecture_code":17},"0014":{"zip_code":"9270014","prefecture":"石川県","prefecture_kana":"イシカワケン","city":"鳳珠郡穴水町","city_kana":"ホウスグンアナミズマチ","town":"梶","town_kana":"カジ","prefecture_code":17},"0049":{"zip_code":"9270049","prefecture":"石川県","prefecture_kana":"イシカワケン","city":"鳳珠郡穴水町","city_kana":"ホウスグンアナミズマチ","town":"桂谷","town_kana":"カツラダニ","prefecture_code":17},"0223":{"zip_code":"9270223","prefecture":"石川県","prefecture_kana":"イシカワケン","city":"鳳珠郡穴水町","city_kana":"ホウスグンアナミズマチ","town":"鹿波","town_kana":"カナミ","prefecture_code":17},"0211":{"zip_code":"9270211","prefecture":"石川県","prefecture_kana":"イシカワケン","city":"鳳珠郡穴水町","city_kana":"ホウスグンアナミズマチ","town":"甲","town_kana":"カブト","prefecture_code":17},"0056":{"zip_code":"9270056","prefecture":"石川県","prefecture_kana":"イシカワケン","city":"鳳珠郡穴水町","city_kana":"ホウスグンアナミズマチ","town":"上唐川","town_kana":"カミカラカワ","prefecture_code":17},"0047":{"zip_code":"9270047","prefecture":"石川県","prefecture_kana":"イシカワケン","city":"鳳珠郡穴水町","city_kana":"ホウスグンアナミズマチ","town":"上中","town_kana":"カミナカ","prefecture_code":17},"0008":{"zip_code":"9270008","prefecture":"石川県","prefecture_kana":"イシカワケン","city":"鳳珠郡穴水町","city_kana":"ホウスグンアナミズマチ","town":"川尻","town_kana":"カワシリ","prefecture_code":17},"0027":{"zip_code":"9270027","prefecture":"石川県","prefecture_kana":"イシカワケン","city":"鳳珠郡穴水町","city_kana":"ホウスグンアナミズマチ","town":"川島","town_kana":"カワジマ","prefecture_code":17},"0045":{"zip_code":"9270045","prefecture":"石川県","prefecture_kana":"イシカワケン","city":"鳳珠郡穴水町","city_kana":"ホウスグンアナミズマチ","town":"河内","town_kana":"カワチ","prefecture_code":17},"0022":{"zip_code":"9270022","prefecture":"石川県","prefecture_kana":"イシカワケン","city":"鳳珠郡穴水町","city_kana":"ホウスグンアナミズマチ","town":"北七海","town_kana":"キタシツミ","prefecture_code":17},"0011":{"zip_code":"9270011","prefecture":"石川県","prefecture_kana":"イシカワケン","city":"鳳珠郡穴水町","city_kana":"ホウスグンアナミズマチ","town":"木原","town_kana":"キハラ","prefecture_code":17},"0053":{"zip_code":"9270053","prefecture":"石川県","prefecture_kana":"イシカワケン","city":"鳳珠郡穴水町","city_kana":"ホウスグンアナミズマチ","town":"此木","town_kana":"クノギ","prefecture_code":17},"0001":{"zip_code":"9270001","prefecture":"石川県","prefecture_kana":"イシカワケン","city":"鳳珠郡穴水町","city_kana":"ホウスグンアナミズマチ","town":"樟谷","town_kana":"クノギタニ","prefecture_code":17},"0212":{"zip_code":"9270212","prefecture":"石川県","prefecture_kana":"イシカワケン","city":"鳳珠郡穴水町","city_kana":"ホウスグンアナミズマチ","town":"黒崎","town_kana":"クロサキ","prefecture_code":17},"0046":[{"zip_code":"9270046","prefecture":"石川県","prefecture_kana":"イシカワケン","city":"鳳珠郡穴水町","city_kana":"ホウスグンアナミズマチ","town":"越渡","town_kana":"コエト","prefecture_code":17},{"zip_code":"9270046","prefecture":"石川県","prefecture_kana":"イシカワケン","city":"鳳珠郡穴水町","city_kana":"ホウスグンアナミズマチ","town":"汁谷","town_kana":"シルタニ","prefecture_code":17}],"0214":{"zip_code":"9270214","prefecture":"石川県","prefecture_kana":"イシカワケン","city":"鳳珠郡穴水町","city_kana":"ホウスグンアナミズマチ","town":"小甲","town_kana":"コカブト","prefecture_code":17},"0234":{"zip_code":"9270234","prefecture":"石川県","prefecture_kana":"イシカワケン","city":"鳳珠郡穴水町","city_kana":"ホウスグンアナミズマチ","town":"小又山中","town_kana":"コマタヤマナカ","prefecture_code":17},"0043":{"zip_code":"9270043","prefecture":"石川県","prefecture_kana":"イシカワケン","city":"鳳珠郡穴水町","city_kana":"ホウスグンアナミズマチ","town":"越の原","town_kana":"コシノハラ","prefecture_code":17},"0224":{"zip_code":"9270224","prefecture":"石川県","prefecture_kana":"イシカワケン","city":"鳳珠郡穴水町","city_kana":"ホウスグンアナミズマチ","town":"鹿上","town_kana":"シカガミ","prefecture_code":17},"0035":{"zip_code":"9270035","prefecture":"石川県","prefecture_kana":"イシカワケン","city":"鳳珠郡穴水町","city_kana":"ホウスグンアナミズマチ","town":"志ケ浦","town_kana":"シガウラ","prefecture_code":17},"0213":{"zip_code":"9270213","prefecture":"石川県","prefecture_kana":"イシカワケン","city":"鳳珠郡穴水町","city_kana":"ホウスグンアナミズマチ","town":"至誠","town_kana":"シセイ","prefecture_code":17},"0055":{"zip_code":"9270055","prefecture":"石川県","prefecture_kana":"イシカワケン","city":"鳳珠郡穴水町","city_kana":"ホウスグンアナミズマチ","town":"地蔵坊","town_kana":"ジゾウボウ","prefecture_code":17},"0021":{"zip_code":"9270021","prefecture":"石川県","prefecture_kana":"イシカワケン","city":"鳳珠郡穴水町","city_kana":"ホウスグンアナミズマチ","town":"七海","town_kana":"シツミ","prefecture_code":17},"0057":{"zip_code":"9270057","prefecture":"石川県","prefecture_kana":"イシカワケン","city":"鳳珠郡穴水町","city_kana":"ホウスグンアナミズマチ","town":"下唐川","town_kana":"シモカラカワ","prefecture_code":17},"0013":{"zip_code":"9270013","prefecture":"石川県","prefecture_kana":"イシカワケン","city":"鳳珠郡穴水町","city_kana":"ホウスグンアナミズマチ","town":"瑞鳳","town_kana":"ズイホウ","prefecture_code":17},"0002":{"zip_code":"9270002","prefecture":"石川県","prefecture_kana":"イシカワケン","city":"鳳珠郡穴水町","city_kana":"ホウスグンアナミズマチ","town":"菅谷","town_kana":"スゲンタニ","prefecture_code":17},"0039":{"zip_code":"9270039","prefecture":"石川県","prefecture_kana":"イシカワケン","city":"鳳珠郡穴水町","city_kana":"ホウスグンアナミズマチ","town":"曽福","town_kana":"ソブク","prefecture_code":17},"0004":{"zip_code":"9270004","prefecture":"石川県","prefecture_kana":"イシカワケン","city":"鳳珠郡穴水町","city_kana":"ホウスグンアナミズマチ","town":"曽山","town_kana":"ソヤマ","prefecture_code":17},"0221":{"zip_code":"9270221","prefecture":"石川県","prefecture_kana":"イシカワケン","city":"鳳珠郡穴水町","city_kana":"ホウスグンアナミズマチ","town":"曽良","town_kana":"ソラ","prefecture_code":17},"0222":{"zip_code":"9270222","prefecture":"石川県","prefecture_kana":"イシカワケン","city":"鳳珠郡穴水町","city_kana":"ホウスグンアナミズマチ","town":"大郷","town_kana":"ダイゴウ","prefecture_code":17},"0201":{"zip_code":"9270201","prefecture":"石川県","prefecture_kana":"イシカワケン","city":"鳳珠郡穴水町","city_kana":"ホウスグンアナミズマチ","town":"竹太","town_kana":"タケダ","prefecture_code":17},"0041":{"zip_code":"9270041","prefecture":"石川県","prefecture_kana":"イシカワケン","city":"鳳珠郡穴水町","city_kana":"ホウスグンアナミズマチ","town":"天神谷","town_kana":"テンジンダニ","prefecture_code":17},"0015":{"zip_code":"9270015","prefecture":"石川県","prefecture_kana":"イシカワケン","city":"鳳珠郡穴水町","city_kana":"ホウスグンアナミズマチ","town":"中居","town_kana":"ナカイ","prefecture_code":17},"0016":{"zip_code":"9270016","prefecture":"石川県","prefecture_kana":"イシカワケン","city":"鳳珠郡穴水町","city_kana":"ホウスグンアナミズマチ","town":"中居南","town_kana":"ナカイミナミ","prefecture_code":17},"0034":{"zip_code":"9270034","prefecture":"石川県","prefecture_kana":"イシカワケン","city":"鳳珠郡穴水町","city_kana":"ホウスグンアナミズマチ","town":"新崎","town_kana":"ニンザキ","prefecture_code":17},"0037":{"zip_code":"9270037","prefecture":"石川県","prefecture_kana":"イシカワケン","city":"鳳珠郡穴水町","city_kana":"ホウスグンアナミズマチ","town":"根木","town_kana":"ネキ","prefecture_code":17},"0225":{"zip_code":"9270225","prefecture":"石川県","prefecture_kana":"イシカワケン","city":"鳳珠郡穴水町","city_kana":"ホウスグンアナミズマチ","town":"野並","town_kana":"ノナミ","prefecture_code":17},"0058":{"zip_code":"9270058","prefecture":"石川県","prefecture_kana":"イシカワケン","city":"鳳珠郡穴水町","city_kana":"ホウスグンアナミズマチ","town":"挾石","town_kana":"ハサミシ","prefecture_code":17},"0017":{"zip_code":"9270017","prefecture":"石川県","prefecture_kana":"イシカワケン","city":"鳳珠郡穴水町","city_kana":"ホウスグンアナミズマチ","town":"波志借","town_kana":"ハジカシ","prefecture_code":17},"0203":{"zip_code":"9270203","prefecture":"石川県","prefecture_kana":"イシカワケン","city":"鳳珠郡穴水町","city_kana":"ホウスグンアナミズマチ","town":"花園","town_kana":"ハナゾノ","prefecture_code":17},"0005":{"zip_code":"9270005","prefecture":"石川県","prefecture_kana":"イシカワケン","city":"鳳珠郡穴水町","city_kana":"ホウスグンアナミズマチ","town":"東中谷","town_kana":"ヒガシナカンタニ","prefecture_code":17},"0232":{"zip_code":"9270232","prefecture":"石川県","prefecture_kana":"イシカワケン","city":"鳳珠郡穴水町","city_kana":"ホウスグンアナミズマチ","town":"東山","town_kana":"ヒガシヤマ","prefecture_code":17},"0009":{"zip_code":"9270009","prefecture":"石川県","prefecture_kana":"イシカワケン","city":"鳳珠郡穴水町","city_kana":"ホウスグンアナミズマチ","town":"比良","town_kana":"ビラ","prefecture_code":17},"0052":{"zip_code":"9270052","prefecture":"石川県","prefecture_kana":"イシカワケン","city":"鳳珠郡穴水町","city_kana":"ホウスグンアナミズマチ","town":"平野","town_kana":"ヒラノ","prefecture_code":17},"0012":{"zip_code":"9270012","prefecture":"石川県","prefecture_kana":"イシカワケン","city":"鳳珠郡穴水町","city_kana":"ホウスグンアナミズマチ","town":"藤巻","town_kana":"フジマキ","prefecture_code":17},"0202":{"zip_code":"9270202","prefecture":"石川県","prefecture_kana":"イシカワケン","city":"鳳珠郡穴水町","city_kana":"ホウスグンアナミズマチ","town":"古君","town_kana":"フルキミ","prefecture_code":17},"0036":{"zip_code":"9270036","prefecture":"石川県","prefecture_kana":"イシカワケン","city":"鳳珠郡穴水町","city_kana":"ホウスグンアナミズマチ","town":"望洋台","town_kana":"ボウヨウダイ","prefecture_code":17},"0206":{"zip_code":"9270206","prefecture":"石川県","prefecture_kana":"イシカワケン","city":"鳳珠郡穴水町","city_kana":"ホウスグンアナミズマチ","town":"前波","town_kana":"マエナミ","prefecture_code":17},"0033":{"zip_code":"9270033","prefecture":"石川県","prefecture_kana":"イシカワケン","city":"鳳珠郡穴水町","city_kana":"ホウスグンアナミズマチ","town":"緑ケ丘","town_kana":"ミドリガオカ","prefecture_code":17},"0204":{"zip_code":"9270204","prefecture":"石川県","prefecture_kana":"イシカワケン","city":"鳳珠郡穴水町","city_kana":"ホウスグンアナミズマチ","town":"明千寺","town_kana":"ミョウセンジ","prefecture_code":17},"0023":{"zip_code":"9270023","prefecture":"石川県","prefecture_kana":"イシカワケン","city":"鳳珠郡穴水町","city_kana":"ホウスグンアナミズマチ","town":"麦ケ浦","town_kana":"ムキガウラ","prefecture_code":17},"0233":{"zip_code":"9270233","prefecture":"石川県","prefecture_kana":"イシカワケン","city":"鳳珠郡穴水町","city_kana":"ホウスグンアナミズマチ","town":"女良川","town_kana":"メラガワ","prefecture_code":17},"0231":{"zip_code":"9270231","prefecture":"石川県","prefecture_kana":"イシカワケン","city":"鳳珠郡穴水町","city_kana":"ホウスグンアナミズマチ","town":"山中","town_kana":"ヤマナカ","prefecture_code":17},"0024":{"zip_code":"9270024","prefecture":"石川県","prefecture_kana":"イシカワケン","city":"鳳珠郡穴水町","city_kana":"ホウスグンアナミズマチ","town":"由比ケ丘","town_kana":"ユイガオカ","prefecture_code":17},"0044":{"zip_code":"9270044","prefecture":"石川県","prefecture_kana":"イシカワケン","city":"鳳珠郡穴水町","city_kana":"ホウスグンアナミズマチ","town":"鹿路","town_kana":"ロクロ","prefecture_code":17},"0400":{"zip_code":"9270400","prefecture":"石川県","prefecture_kana":"イシカワケン","city":"鳳珠郡能登町","city_kana":"ホウスグンノトチョウ","town":"","town_kana":"","prefecture_code":17},"0612":{"zip_code":"9270612","prefecture":"石川県","prefecture_kana":"イシカワケン","city":"鳳珠郡能登町","city_kana":"ホウスグンノトチョウ","town":"秋吉","town_kana":"アキヨシ","prefecture_code":17},"0551":{"zip_code":"9270551","prefecture":"石川県","prefecture_kana":"イシカワケン","city":"鳳珠郡能登町","city_kana":"ホウスグンノトチョウ","town":"明野","town_kana":"アケノ","prefecture_code":17},"0626":[{"zip_code":"9270626","prefecture":"石川県","prefecture_kana":"イシカワケン","city":"鳳珠郡能登町","city_kana":"ホウスグンノトチョウ","town":"泉","town_kana":"イズミ","prefecture_code":17},{"zip_code":"9270626","prefecture":"石川県","prefecture_kana":"イシカワケン","city":"鳳珠郡能登町","city_kana":"ホウスグンノトチョウ","town":"駒渡","town_kana":"コマワタリ","prefecture_code":17},{"zip_code":"9270626","prefecture":"石川県","prefecture_kana":"イシカワケン","city":"鳳珠郡能登町","city_kana":"ホウスグンノトチョウ","town":"田代","town_kana":"タシロ","prefecture_code":17}],"0554":{"zip_code":"9270554","prefecture":"石川県","prefecture_kana":"イシカワケン","city":"鳳珠郡能登町","city_kana":"ホウスグンノトチョウ","town":"市之瀬","town_kana":"イチノセ","prefecture_code":17},"0444":{"zip_code":"9270444","prefecture":"石川県","prefecture_kana":"イシカワケン","city":"鳳珠郡能登町","city_kana":"ホウスグンノトチョウ","town":"猪平","town_kana":"イノヒラ","prefecture_code":17},"0452":{"zip_code":"9270452","prefecture":"石川県","prefecture_kana":"イシカワケン","city":"鳳珠郡能登町","city_kana":"ホウスグンノトチョウ","town":"宇加塚","town_kana":"ウカヅカ","prefecture_code":17},"0302":{"zip_code":"9270302","prefecture":"石川県","prefecture_kana":"イシカワケン","city":"鳳珠郡能登町","city_kana":"ホウスグンノトチョウ","town":"鵜川","town_kana":"ウカワ","prefecture_code":17},"0433":{"zip_code":"9270433","prefecture":"石川県","prefecture_kana":"イシカワケン","city":"鳳珠郡能登町","city_kana":"ホウスグンノトチョウ","town":"宇出津","town_kana":"ウシツ","prefecture_code":17},"0432":{"zip_code":"9270432","prefecture":"石川県","prefecture_kana":"イシカワケン","city":"鳳珠郡能登町","city_kana":"ホウスグンノトチョウ","town":"宇出津新","town_kana":"ウシツシン","prefecture_code":17},"0435":{"zip_code":"9270435","prefecture":"石川県","prefecture_kana":"イシカワケン","city":"鳳珠郡能登町","city_kana":"ホウスグンノトチョウ","town":"宇出津新港","town_kana":"ウシツシンコウ","prefecture_code":17},"0431":{"zip_code":"9270431","prefecture":"石川県","prefecture_kana":"イシカワケン","city":"鳳珠郡能登町","city_kana":"ホウスグンノトチョウ","town":"宇出津山分","town_kana":"ウシツヤマブン","prefecture_code":17},"0608":{"zip_code":"9270608","prefecture":"石川県","prefecture_kana":"イシカワケン","city":"鳳珠郡能登町","city_kana":"ホウスグンノトチョウ","town":"内浦長尾","town_kana":"ウチウラナゴ","prefecture_code":17},"0564":{"zip_code":"9270564","prefecture":"石川県","prefecture_kana":"イシカワケン","city":"鳳珠郡能登町","city_kana":"ホウスグンノトチョウ","town":"小浦","town_kana":"オウラ","prefecture_code":17},"0325":{"zip_code":"9270325","prefecture":"石川県","prefecture_kana":"イシカワケン","city":"鳳珠郡能登町","city_kana":"ホウスグンノトチョウ","town":"太田原","town_kana":"オオダワラ","prefecture_code":17},"0303":{"zip_code":"9270303","prefecture":"石川県","prefecture_kana":"イシカワケン","city":"鳳珠郡能登町","city_kana":"ホウスグンノトチョウ","town":"小垣","town_kana":"オガキ","prefecture_code":17},"0553":{"zip_code":"9270553","prefecture":"石川県","prefecture_kana":"イシカワケン","city":"鳳珠郡能登町","city_kana":"ホウスグンノトチョウ","town":"小木","town_kana":"オギ","prefecture_code":17},"0552":{"zip_code":"9270552","prefecture":"石川県","prefecture_kana":"イシカワケン","city":"鳳珠郡能登町","city_kana":"ホウスグンノトチョウ","town":"越坂","town_kana":"オッサカ","prefecture_code":17},"0613":{"zip_code":"9270613","prefecture":"石川県","prefecture_kana":"イシカワケン","city":"鳳珠郡能登町","city_kana":"ホウスグンノトチョウ","town":"河ケ谷","town_kana":"カガタニ","prefecture_code":17},"0304":{"zip_code":"9270304","prefecture":"石川県","prefecture_kana":"イシカワケン","city":"鳳珠郡能登町","city_kana":"ホウスグンノトチョウ","town":"柿生","town_kana":"カキオ","prefecture_code":17},"0324":{"zip_code":"9270324","prefecture":"石川県","prefecture_kana":"イシカワケン","city":"鳳珠郡能登町","city_kana":"ホウスグンノトチョウ","town":"柏木","town_kana":"カシワギ","prefecture_code":17},"0621":{"zip_code":"9270621","prefecture":"石川県","prefecture_kana":"イシカワケン","city":"鳳珠郡能登町","city_kana":"ホウスグンノトチョウ","town":"上","town_kana":"カミ","prefecture_code":17},"0313":{"zip_code":"9270313","prefecture":"石川県","prefecture_kana":"イシカワケン","city":"鳳珠郡能登町","city_kana":"ホウスグンノトチョウ","town":"木住","town_kana":"キズミ","prefecture_code":17},"0611":{"zip_code":"9270611","prefecture":"石川県","prefecture_kana":"イシカワケン","city":"鳳珠郡能登町","city_kana":"ホウスグンノトチョウ","town":"清真","town_kana":"キヨザネ","prefecture_code":17},"0625":{"zip_code":"9270625","prefecture":"石川県","prefecture_kana":"イシカワケン","city":"鳳珠郡能登町","city_kana":"ホウスグンノトチョウ","town":"国重","town_kana":"クニシゲ","prefecture_code":17},"0604":{"zip_code":"9270604","prefecture":"石川県","prefecture_kana":"イシカワケン","city":"鳳珠郡能登町","city_kana":"ホウスグンノトチョウ","town":"九里川尻","town_kana":"クリカワシリ","prefecture_code":17},"0601":{"zip_code":"9270601","prefecture":"石川県","prefecture_kana":"イシカワケン","city":"鳳珠郡能登町","city_kana":"ホウスグンノトチョウ","town":"恋路","town_kana":"コイジ","prefecture_code":17},"0434":{"zip_code":"9270434","prefecture":"石川県","prefecture_kana":"イシカワケン","city":"鳳珠郡能登町","city_kana":"ホウスグンノトチョウ","town":"崎山","town_kana":"サキヤマ","prefecture_code":17},"0323":{"zip_code":"9270323","prefecture":"石川県","prefecture_kana":"イシカワケン","city":"鳳珠郡能登町","city_kana":"ホウスグンノトチョウ","town":"鮭尾","town_kana":"サケオ","prefecture_code":17},"0301":{"zip_code":"9270301","prefecture":"石川県","prefecture_kana":"イシカワケン","city":"鳳珠郡能登町","city_kana":"ホウスグンノトチョウ","town":"七見","town_kana":"シチミ","prefecture_code":17},"0607":{"zip_code":"9270607","prefecture":"石川県","prefecture_kana":"イシカワケン","city":"鳳珠郡能登町","city_kana":"ホウスグンノトチョウ","town":"白丸","town_kana":"シロマル","prefecture_code":17},"0609":{"zip_code":"9270609","prefecture":"石川県","prefecture_kana":"イシカワケン","city":"鳳珠郡能登町","city_kana":"ホウスグンノトチョウ","town":"新保","town_kana":"シンボ","prefecture_code":17},"0454":{"zip_code":"9270454","prefecture":"石川県","prefecture_kana":"イシカワケン","city":"鳳珠郡能登町","city_kana":"ホウスグンノトチョウ","town":"曽又","town_kana":"ソマタ","prefecture_code":17},"0627":[{"zip_code":"9270627","prefecture":"石川県","prefecture_kana":"イシカワケン","city":"鳳珠郡能登町","city_kana":"ホウスグンノトチョウ","town":"滝之坊","town_kana":"タキノボ","prefecture_code":17},{"zip_code":"9270627","prefecture":"石川県","prefecture_kana":"イシカワケン","city":"鳳珠郡能登町","city_kana":"ホウスグンノトチョウ","town":"福光","town_kana":"フクミツ","prefecture_code":17}],"0605":{"zip_code":"9270605","prefecture":"石川県","prefecture_kana":"イシカワケン","city":"鳳珠郡能登町","city_kana":"ホウスグンノトチョウ","town":"立壁","town_kana":"タテカベ","prefecture_code":17},"0453":{"zip_code":"9270453","prefecture":"石川県","prefecture_kana":"イシカワケン","city":"鳳珠郡能登町","city_kana":"ホウスグンノトチョウ","town":"鶴町","town_kana":"ツルマチ","prefecture_code":17},"0624":{"zip_code":"9270624","prefecture":"石川県","prefecture_kana":"イシカワケン","city":"鳳珠郡能登町","city_kana":"ホウスグンノトチョウ","town":"時長","town_kana":"トキナガ","prefecture_code":17},"0315":{"zip_code":"9270315","prefecture":"石川県","prefecture_kana":"イシカワケン","city":"鳳珠郡能登町","city_kana":"ホウスグンノトチョウ","town":"豊ケ丘","town_kana":"トヨガオカ","prefecture_code":17},"0603":{"zip_code":"9270603","prefecture":"石川県","prefecture_kana":"イシカワケン","city":"鳳珠郡能登町","city_kana":"ホウスグンノトチョウ","town":"布浦","town_kana":"ヌノウラ","prefecture_code":17},"0442":{"zip_code":"9270442","prefecture":"石川県","prefecture_kana":"イシカワケン","city":"鳳珠郡能登町","city_kana":"ホウスグンノトチョウ","town":"波並","town_kana":"ハナミ","prefecture_code":17},"0561":{"zip_code":"9270561","prefecture":"石川県","prefecture_kana":"イシカワケン","city":"鳳珠郡能登町","city_kana":"ホウスグンノトチョウ","town":"羽生い","town_kana":"ハニュウイ","prefecture_code":17},"0555":{"zip_code":"9270555","prefecture":"石川県","prefecture_kana":"イシカワケン","city":"鳳珠郡能登町","city_kana":"ホウスグンノトチョウ","town":"羽生ろ","town_kana":"ハニュウロ","prefecture_code":17},"0565":{"zip_code":"9270565","prefecture":"石川県","prefecture_kana":"イシカワケン","city":"鳳珠郡能登町","city_kana":"ホウスグンノトチョウ","town":"羽根","town_kana":"ハネ","prefecture_code":17},"0563":{"zip_code":"9270563","prefecture":"石川県","prefecture_kana":"イシカワケン","city":"鳳珠郡能登町","city_kana":"ホウスグンノトチョウ","town":"姫","town_kana":"ヒメ","prefecture_code":17},"0441":{"zip_code":"9270441","prefecture":"石川県","prefecture_kana":"イシカワケン","city":"鳳珠郡能登町","city_kana":"ホウスグンノトチョウ","town":"藤波","town_kana":"フジナミ","prefecture_code":17},"0451":{"zip_code":"9270451","prefecture":"石川県","prefecture_kana":"イシカワケン","city":"鳳珠郡能登町","city_kana":"ホウスグンノトチョウ","town":"藤ノ瀬","town_kana":"フジノセ","prefecture_code":17},"0622":{"zip_code":"9270622","prefecture":"石川県","prefecture_kana":"イシカワケン","city":"鳳珠郡能登町","city_kana":"ホウスグンノトチョウ","town":"不動寺","town_kana":"フドウジ","prefecture_code":17},"0312":{"zip_code":"9270312","prefecture":"石川県","prefecture_kana":"イシカワケン","city":"鳳珠郡能登町","city_kana":"ホウスグンノトチョウ","town":"本木","town_kana":"ホンキ","prefecture_code":17},"0602":[{"zip_code":"9270602","prefecture":"石川県","prefecture_kana":"イシカワケン","city":"鳳珠郡能登町","city_kana":"ホウスグンノトチョウ","town":"松波","town_kana":"マツナミ","prefecture_code":17},{"zip_code":"9270602","prefecture":"石川県","prefecture_kana":"イシカワケン","city":"鳳珠郡能登町","city_kana":"ホウスグンノトチョウ","town":"明生","town_kana":"ミョウジョウ","prefecture_code":17}],"0321":{"zip_code":"9270321","prefecture":"石川県","prefecture_kana":"イシカワケン","city":"鳳珠郡能登町","city_kana":"ホウスグンノトチョウ","town":"爼倉","town_kana":"マナイタグラ","prefecture_code":17},"0562":{"zip_code":"9270562","prefecture":"石川県","prefecture_kana":"イシカワケン","city":"鳳珠郡能登町","city_kana":"ホウスグンノトチョウ","town":"真脇","town_kana":"マワキ","prefecture_code":17},"0614":[{"zip_code":"9270614","prefecture":"石川県","prefecture_kana":"イシカワケン","city":"鳳珠郡能登町","city_kana":"ホウスグンノトチョウ","town":"満泉寺","town_kana":"マンセンジ","prefecture_code":17},{"zip_code":"9270614","prefecture":"石川県","prefecture_kana":"イシカワケン","city":"鳳珠郡能登町","city_kana":"ホウスグンノトチョウ","town":"山中","town_kana":"ヤマナカ","prefecture_code":17}],"0311":{"zip_code":"9270311","prefecture":"石川県","prefecture_kana":"イシカワケン","city":"鳳珠郡能登町","city_kana":"ホウスグンノトチョウ","town":"瑞穂","town_kana":"ミズホ","prefecture_code":17},"0615":{"zip_code":"9270615","prefecture":"石川県","prefecture_kana":"イシカワケン","city":"鳳珠郡能登町","city_kana":"ホウスグンノトチョウ","town":"宮犬","town_kana":"ミヤイヌ","prefecture_code":17},"0322":{"zip_code":"9270322","prefecture":"石川県","prefecture_kana":"イシカワケン","city":"鳳珠郡能登町","city_kana":"ホウスグンノトチョウ","town":"宮地","town_kana":"ミヤチ","prefecture_code":17},"0305":{"zip_code":"9270305","prefecture":"石川県","prefecture_kana":"イシカワケン","city":"鳳珠郡能登町","city_kana":"ホウスグンノトチョウ","town":"武連","town_kana":"ムレ","prefecture_code":17},"0443":{"zip_code":"9270443","prefecture":"石川県","prefecture_kana":"イシカワケン","city":"鳳珠郡能登町","city_kana":"ホウスグンノトチョウ","town":"矢波","town_kana":"ヤナミ","prefecture_code":17},"0314":{"zip_code":"9270314","prefecture":"石川県","prefecture_kana":"イシカワケン","city":"鳳珠郡能登町","city_kana":"ホウスグンノトチョウ","town":"山田","town_kana":"ヤマダ","prefecture_code":17},"0623":{"zip_code":"9270623","prefecture":"石川県","prefecture_kana":"イシカワケン","city":"鳳珠郡能登町","city_kana":"ホウスグンノトチョウ","town":"行延","town_kana":"ユキノベ","prefecture_code":17},"0606":{"zip_code":"9270606","prefecture":"石川県","prefecture_kana":"イシカワケン","city":"鳳珠郡能登町","city_kana":"ホウスグンノトチョウ","town":"四方山","town_kana":"ヨモヤマ","prefecture_code":17}}