{"0000":{"zip_code":"9280000","prefecture":"石川県","prefecture_kana":"イシカワケン","city":"輪島市","city_kana":"ワジマシ","town":"","town_kana":"","prefecture_code":17},"0053":{"zip_code":"9280053","prefecture":"石川県","prefecture_kana":"イシカワケン","city":"輪島市","city_kana":"ワジマシ","town":"赤崎町","town_kana":"アカサキマチ","prefecture_code":17},"0072":[{"zip_code":"9280072","prefecture":"石川県","prefecture_kana":"イシカワケン","city":"輪島市","city_kana":"ワジマシ","town":"海士町","town_kana":"アママチ","prefecture_code":17},{"zip_code":"9280072","prefecture":"石川県","prefecture_kana":"イシカワケン","city":"輪島市","city_kana":"ワジマシ","town":"海士町舳倉島","town_kana":"アママチヘグラジマ","prefecture_code":17}],"0013":{"zip_code":"9280013","prefecture":"石川県","prefecture_kana":"イシカワケン","city":"輪島市","city_kana":"ワジマシ","town":"石休場町","town_kana":"イシヤスミバマチ","prefecture_code":17},"0015":{"zip_code":"9280015","prefecture":"石川県","prefecture_kana":"イシカワケン","city":"輪島市","city_kana":"ワジマシ","town":"市ノ瀬町","town_kana":"イチノセマチ","prefecture_code":17},"0004":{"zip_code":"9280004","prefecture":"石川県","prefecture_kana":"イシカワケン","city":"輪島市","city_kana":"ワジマシ","town":"稲舟町","town_kana":"イナブネマチ","prefecture_code":17},"0028":{"zip_code":"9280028","prefecture":"石川県","prefecture_kana":"イシカワケン","city":"輪島市","city_kana":"ワジマシ","town":"打越町","town_kana":"ウチコシマチ","prefecture_code":17},"0065":{"zip_code":"9280065","prefecture":"石川県","prefecture_kana":"イシカワケン","city":"輪島市","city_kana":"ワジマシ","town":"鵜入町","town_kana":"ウニュウマチ","prefecture_code":17},"0051":{"zip_code":"9280051","prefecture":"石川県","prefecture_kana":"イシカワケン","city":"輪島市","city_kana":"ワジマシ","town":"小池町","town_kana":"オイケマチ","prefecture_code":17},"0032":{"zip_code":"9280032","prefecture":"石川県","prefecture_kana":"イシカワケン","city":"輪島市","city_kana":"ワジマシ","town":"小伊勢町","town_kana":"オイセマチ","prefecture_code":17},"0054":{"zip_code":"9280054","prefecture":"石川県","prefecture_kana":"イシカワケン","city":"輪島市","city_kana":"ワジマシ","town":"大沢町","town_kana":"オオザワマチ","prefecture_code":17},"0005":{"zip_code":"9280005","prefecture":"石川県","prefecture_kana":"イシカワケン","city":"輪島市","city_kana":"ワジマシ","town":"大野町","town_kana":"オオノマチ","prefecture_code":17},"0251":{"zip_code":"9280251","prefecture":"石川県","prefecture_kana":"イシカワケン","city":"輪島市","city_kana":"ワジマシ","town":"小田屋町","town_kana":"オダヤマチ","prefecture_code":17},"0064":{"zip_code":"9280064","prefecture":"石川県","prefecture_kana":"イシカワケン","city":"輪島市","city_kana":"ワジマシ","town":"釜屋谷町","town_kana":"カマヤダニマチ","prefecture_code":17},"0055":{"zip_code":"9280055","prefecture":"石川県","prefecture_kana":"イシカワケン","city":"輪島市","city_kana":"ワジマシ","town":"上大沢町","town_kana":"カミオオザワマチ","prefecture_code":17},"0045":{"zip_code":"9280045","prefecture":"石川県","prefecture_kana":"イシカワケン","city":"輪島市","city_kana":"ワジマシ","town":"上黒川町","town_kana":"カミクロガワマチ","prefecture_code":17},"0057":{"zip_code":"9280057","prefecture":"石川県","prefecture_kana":"イシカワケン","city":"輪島市","city_kana":"ワジマシ","town":"上山町","town_kana":"カミヤママチ","prefecture_code":17},"0001":{"zip_code":"9280001","prefecture":"石川県","prefecture_kana":"イシカワケン","city":"輪島市","city_kana":"ワジマシ","town":"河井町","town_kana":"カワイマチ","prefecture_code":17},"0027":{"zip_code":"9280027","prefecture":"石川県","prefecture_kana":"イシカワケン","city":"輪島市","city_kana":"ワジマシ","town":"北谷町","town_kana":"キタダニマチ","prefecture_code":17},"0016":{"zip_code":"9280016","prefecture":"石川県","prefecture_kana":"イシカワケン","city":"輪島市","city_kana":"ワジマシ","town":"熊野町","town_kana":"クマノマチ","prefecture_code":17},"0023":{"zip_code":"9280023","prefecture":"石川県","prefecture_kana":"イシカワケン","city":"輪島市","city_kana":"ワジマシ","town":"気勝平町","town_kana":"ケカチダイラマチ","prefecture_code":17},"0246":{"zip_code":"9280246","prefecture":"石川県","prefecture_kana":"イシカワケン","city":"輪島市","city_kana":"ワジマシ","town":"里町","town_kana":"サトマチ","prefecture_code":17},"0252":{"zip_code":"9280252","prefecture":"石川県","prefecture_kana":"イシカワケン","city":"輪島市","city_kana":"ワジマシ","town":"忍町","town_kana":"シノブマチ","prefecture_code":17},"0241":{"zip_code":"9280241","prefecture":"石川県","prefecture_kana":"イシカワケン","city":"輪島市","city_kana":"ワジマシ","town":"渋田町","town_kana":"シブタマチ","prefecture_code":17},"0044":{"zip_code":"9280044","prefecture":"石川県","prefecture_kana":"イシカワケン","city":"輪島市","city_kana":"ワジマシ","town":"下黒川町","town_kana":"シモクロガワマチ","prefecture_code":17},"0052":{"zip_code":"9280052","prefecture":"石川県","prefecture_kana":"イシカワケン","city":"輪島市","city_kana":"ワジマシ","town":"下山町","town_kana":"シモヤママチ","prefecture_code":17},"0256":{"zip_code":"9280256","prefecture":"石川県","prefecture_kana":"イシカワケン","city":"輪島市","city_kana":"ワジマシ","town":"白米町","town_kana":"シロヨネマチ","prefecture_code":17},"0061":{"zip_code":"9280061","prefecture":"石川県","prefecture_kana":"イシカワケン","city":"輪島市","city_kana":"ワジマシ","town":"新橋通","town_kana":"シンバシドオリ","prefecture_code":17},"0011":{"zip_code":"9280011","prefecture":"石川県","prefecture_kana":"イシカワケン","city":"輪島市","city_kana":"ワジマシ","town":"杉平町","town_kana":"スギヒラマチ","prefecture_code":17},"0006":{"zip_code":"9280006","prefecture":"石川県","prefecture_kana":"イシカワケン","city":"輪島市","city_kana":"ワジマシ","town":"惣領町","town_kana":"ソウリョウマチ","prefecture_code":17},"0037":{"zip_code":"9280037","prefecture":"石川県","prefecture_kana":"イシカワケン","city":"輪島市","city_kana":"ワジマシ","town":"空熊町","town_kana":"ソラクママチ","prefecture_code":17},"0253":{"zip_code":"9280253","prefecture":"石川県","prefecture_kana":"イシカワケン","city":"輪島市","city_kana":"ワジマシ","town":"尊利地町","town_kana":"ソリジマチ","prefecture_code":17},"0036":{"zip_code":"9280036","prefecture":"石川県","prefecture_kana":"イシカワケン","city":"輪島市","city_kana":"ワジマシ","town":"滝又町","town_kana":"タキマタマチ","prefecture_code":17},"0022":{"zip_code":"9280022","prefecture":"石川県","prefecture_kana":"イシカワケン","city":"輪島市","city_kana":"ワジマシ","town":"宅田町","town_kana":"タクダマチ","prefecture_code":17},"0041":{"zip_code":"9280041","prefecture":"石川県","prefecture_kana":"イシカワケン","city":"輪島市","city_kana":"ワジマシ","town":"中段町","town_kana":"チュウダマチ","prefecture_code":17},"0003":{"zip_code":"9280003","prefecture":"石川県","prefecture_kana":"イシカワケン","city":"輪島市","city_kana":"ワジマシ","town":"塚田町","town_kana":"ツカダマチ","prefecture_code":17},"0033":{"zip_code":"9280033","prefecture":"石川県","prefecture_kana":"イシカワケン","city":"輪島市","city_kana":"ワジマシ","town":"稲屋町","town_kana":"トウヤマチ","prefecture_code":17},"0034":{"zip_code":"9280034","prefecture":"石川県","prefecture_kana":"イシカワケン","city":"輪島市","city_kana":"ワジマシ","town":"長井町","town_kana":"ナガイマチ","prefecture_code":17},"0254":{"zip_code":"9280254","prefecture":"石川県","prefecture_kana":"イシカワケン","city":"輪島市","city_kana":"ワジマシ","town":"名舟町","town_kana":"ナフネマチ","prefecture_code":17},"0047":{"zip_code":"9280047","prefecture":"石川県","prefecture_kana":"イシカワケン","city":"輪島市","city_kana":"ワジマシ","town":"繩又町","town_kana":"ナワマタマチ","prefecture_code":17},"0244":{"zip_code":"9280244","prefecture":"石川県","prefecture_kana":"イシカワケン","city":"輪島市","city_kana":"ワジマシ","town":"西院内町","town_kana":"ニシインナイマチ","prefecture_code":17},"0056":{"zip_code":"9280056","prefecture":"石川県","prefecture_kana":"イシカワケン","city":"輪島市","city_kana":"ワジマシ","town":"西二又町","town_kana":"ニシフタマタマチ","prefecture_code":17},"0243":{"zip_code":"9280243","prefecture":"石川県","prefecture_kana":"イシカワケン","city":"輪島市","city_kana":"ワジマシ","town":"西山町","town_kana":"ニシヤママチ","prefecture_code":17},"0026":{"zip_code":"9280026","prefecture":"石川県","prefecture_kana":"イシカワケン","city":"輪島市","city_kana":"ワジマシ","town":"西脇町","town_kana":"ニシワキマチ","prefecture_code":17},"0255":{"zip_code":"9280255","prefecture":"石川県","prefecture_kana":"イシカワケン","city":"輪島市","city_kana":"ワジマシ","town":"野田町","town_kana":"ノダマチ","prefecture_code":17},"0067":{"zip_code":"9280067","prefecture":"石川県","prefecture_kana":"イシカワケン","city":"輪島市","city_kana":"ワジマシ","town":"光浦町","town_kana":"ヒカリウラマチ","prefecture_code":17},"0242":{"zip_code":"9280242","prefecture":"石川県","prefecture_kana":"イシカワケン","city":"輪島市","city_kana":"ワジマシ","town":"東印内町","town_kana":"ヒガシインナイマチ","prefecture_code":17},"0025":{"zip_code":"9280025","prefecture":"石川県","prefecture_kana":"イシカワケン","city":"輪島市","city_kana":"ワジマシ","town":"東中尾町","town_kana":"ヒガシナカオマチ","prefecture_code":17},"0245":{"zip_code":"9280245","prefecture":"石川県","prefecture_kana":"イシカワケン","city":"輪島市","city_kana":"ワジマシ","town":"東山町","town_kana":"ヒガシヤママチ","prefecture_code":17},"0007":{"zip_code":"9280007","prefecture":"石川県","prefecture_kana":"イシカワケン","city":"輪島市","city_kana":"ワジマシ","town":"深見町","town_kana":"フカミマチ","prefecture_code":17},"0073":[{"zip_code":"9280073","prefecture":"石川県","prefecture_kana":"イシカワケン","city":"輪島市","city_kana":"ワジマシ","town":"鳳至町","town_kana":"フゲシマチ","prefecture_code":17},{"zip_code":"9280073","prefecture":"石川県","prefecture_kana":"イシカワケン","city":"輪島市","city_kana":"ワジマシ","town":"鳳至町袖ケ浜","town_kana":"フゲシマチソデガハマ","prefecture_code":17}],"0076":{"zip_code":"9280076","prefecture":"石川県","prefecture_kana":"イシカワケン","city":"輪島市","city_kana":"ワジマシ","town":"鳳至町石浦町","town_kana":"フゲシマチイシウラマチ","prefecture_code":17},"0078":{"zip_code":"9280078","prefecture":"石川県","prefecture_kana":"イシカワケン","city":"輪島市","city_kana":"ワジマシ","town":"鳳至町稲荷町","town_kana":"フゲシマチイナリマチ","prefecture_code":17},"0077":[{"zip_code":"9280077","prefecture":"石川県","prefecture_kana":"イシカワケン","city":"輪島市","city_kana":"ワジマシ","town":"鳳至町上町","town_kana":"フゲシマチカミマチ","prefecture_code":17},{"zip_code":"9280077","prefecture":"石川県","prefecture_kana":"イシカワケン","city":"輪島市","city_kana":"ワジマシ","town":"鳳至町堂金田","town_kana":"フゲシマチドウキンダ","prefecture_code":17}],"0075":{"zip_code":"9280075","prefecture":"石川県","prefecture_kana":"イシカワケン","city":"輪島市","city_kana":"ワジマシ","town":"鳳至町下町","town_kana":"フゲシマチシモマチ","prefecture_code":17},"0079":{"zip_code":"9280079","prefecture":"石川県","prefecture_kana":"イシカワケン","city":"輪島市","city_kana":"ワジマシ","town":"鳳至町畠田","town_kana":"フゲシマチハタケダ","prefecture_code":17},"0074":{"zip_code":"9280074","prefecture":"石川県","prefecture_kana":"イシカワケン","city":"輪島市","city_kana":"ワジマシ","town":"鳳至町鳳至丁","town_kana":"フゲシマチホウシチョウ","prefecture_code":17},"0043":{"zip_code":"9280043","prefecture":"石川県","prefecture_kana":"イシカワケン","city":"輪島市","city_kana":"ワジマシ","town":"房田町","town_kana":"フサダマチ","prefecture_code":17},"0031":{"zip_code":"9280031","prefecture":"石川県","prefecture_kana":"イシカワケン","city":"輪島市","city_kana":"ワジマシ","town":"二勢町","town_kana":"フタセマチ","prefecture_code":17},"0021":{"zip_code":"9280021","prefecture":"石川県","prefecture_kana":"イシカワケン","city":"輪島市","city_kana":"ワジマシ","town":"二ツ屋町","town_kana":"フタツヤマチ","prefecture_code":17},"0046":{"zip_code":"9280046","prefecture":"石川県","prefecture_kana":"イシカワケン","city":"輪島市","city_kana":"ワジマシ","town":"二俣町","town_kana":"フタマタマチ","prefecture_code":17},"0002":{"zip_code":"9280002","prefecture":"石川県","prefecture_kana":"イシカワケン","city":"輪島市","city_kana":"ワジマシ","town":"久手川町","town_kana":"フテガワマチ","prefecture_code":17},"0068":{"zip_code":"9280068","prefecture":"石川県","prefecture_kana":"イシカワケン","city":"輪島市","city_kana":"ワジマシ","town":"平成町","town_kana":"ヘイセイマチ","prefecture_code":17},"0035":{"zip_code":"9280035","prefecture":"石川県","prefecture_kana":"イシカワケン","city":"輪島市","city_kana":"ワジマシ","town":"別所谷町","town_kana":"ベッショダニマチ","prefecture_code":17},"0062":[{"zip_code":"9280062","prefecture":"石川県","prefecture_kana":"イシカワケン","city":"輪島市","city_kana":"ワジマシ","town":"堀町","town_kana":"ホリマチ","prefecture_code":17},{"zip_code":"9280062","prefecture":"石川県","prefecture_kana":"イシカワケン","city":"輪島市","city_kana":"ワジマシ","town":"南町","town_kana":"ミナミチョウ","prefecture_code":17}],"0215":{"zip_code":"9280215","prefecture":"石川県","prefecture_kana":"イシカワケン","city":"輪島市","city_kana":"ワジマシ","town":"町野町粟蔵","town_kana":"マチノマチアワグラ","prefecture_code":17},"0217":{"zip_code":"9280217","prefecture":"石川県","prefecture_kana":"イシカワケン","city":"輪島市","city_kana":"ワジマシ","town":"町野町井面","town_kana":"マチノマチイノモテ","prefecture_code":17},"0211":{"zip_code":"9280211","prefecture":"石川県","prefecture_kana":"イシカワケン","city":"輪島市","city_kana":"ワジマシ","town":"町野町牛尾","town_kana":"マチノマチウシオ","prefecture_code":17},"0231":{"zip_code":"9280231","prefecture":"石川県","prefecture_kana":"イシカワケン","city":"輪島市","city_kana":"ワジマシ","town":"町野町大川","town_kana":"マチノマチオオカワ","prefecture_code":17},"0216":{"zip_code":"9280216","prefecture":"石川県","prefecture_kana":"イシカワケン","city":"輪島市","city_kana":"ワジマシ","town":"町野町桶戸","town_kana":"マチノマチオケド","prefecture_code":17},"0236":{"zip_code":"9280236","prefecture":"石川県","prefecture_kana":"イシカワケン","city":"輪島市","city_kana":"ワジマシ","town":"町野町金蔵","town_kana":"マチノマチカナクラ","prefecture_code":17},"0235":{"zip_code":"9280235","prefecture":"石川県","prefecture_kana":"イシカワケン","city":"輪島市","city_kana":"ワジマシ","town":"町野町川西","town_kana":"マチノマチカワニシ","prefecture_code":17},"0223":{"zip_code":"9280223","prefecture":"石川県","prefecture_kana":"イシカワケン","city":"輪島市","city_kana":"ワジマシ","town":"町野町北円山","town_kana":"マチノマチキタマルヤマ","prefecture_code":17},"0214":{"zip_code":"9280214","prefecture":"石川県","prefecture_kana":"イシカワケン","city":"輪島市","city_kana":"ワジマシ","town":"町野町佐野","town_kana":"マチノマチサノ","prefecture_code":17},"0221":{"zip_code":"9280221","prefecture":"石川県","prefecture_kana":"イシカワケン","city":"輪島市","city_kana":"ワジマシ","town":"町野町真久","town_kana":"マチノマチサンサ","prefecture_code":17},"0203":{"zip_code":"9280203","prefecture":"石川県","prefecture_kana":"イシカワケン","city":"輪島市","city_kana":"ワジマシ","town":"町野町敷戸","town_kana":"マチノマチシキド","prefecture_code":17},"0218":{"zip_code":"9280218","prefecture":"石川県","prefecture_kana":"イシカワケン","city":"輪島市","city_kana":"ワジマシ","town":"町野町鈴屋","town_kana":"マチノマチスズヤ","prefecture_code":17},"0206":{"zip_code":"9280206","prefecture":"石川県","prefecture_kana":"イシカワケン","city":"輪島市","city_kana":"ワジマシ","town":"町野町曽々木","town_kana":"マチノマチソソギ","prefecture_code":17},"0202":{"zip_code":"9280202","prefecture":"石川県","prefecture_kana":"イシカワケン","city":"輪島市","city_kana":"ワジマシ","town":"町野町寺地","town_kana":"マチノマチテラジ","prefecture_code":17},"0212":{"zip_code":"9280212","prefecture":"石川県","prefecture_kana":"イシカワケン","city":"輪島市","city_kana":"ワジマシ","town":"町野町寺山","town_kana":"マチノマチテラヤマ","prefecture_code":17},"0226":{"zip_code":"9280226","prefecture":"石川県","prefecture_kana":"イシカワケン","city":"輪島市","city_kana":"ワジマシ","town":"町野町徳成","town_kana":"マチノマチトクナリ","prefecture_code":17},"0225":{"zip_code":"9280225","prefecture":"石川県","prefecture_kana":"イシカワケン","city":"輪島市","city_kana":"ワジマシ","town":"町野町徳成谷内","town_kana":"マチノマチトクナリヤチ","prefecture_code":17},"0205":{"zip_code":"9280205","prefecture":"石川県","prefecture_kana":"イシカワケン","city":"輪島市","city_kana":"ワジマシ","town":"町野町西時国","town_kana":"マチノマチニシトキクニ","prefecture_code":17},"0222":{"zip_code":"9280222","prefecture":"石川県","prefecture_kana":"イシカワケン","city":"輪島市","city_kana":"ワジマシ","town":"町野町東","town_kana":"マチノマチヒガシ","prefecture_code":17},"0233":{"zip_code":"9280233","prefecture":"石川県","prefecture_kana":"イシカワケン","city":"輪島市","city_kana":"ワジマシ","town":"町野町東大野","town_kana":"マチノマチヒガシオオノ","prefecture_code":17},"0201":{"zip_code":"9280201","prefecture":"石川県","prefecture_kana":"イシカワケン","city":"輪島市","city_kana":"ワジマシ","town":"町野町広江","town_kana":"マチノマチヒロエ","prefecture_code":17},"0232":{"zip_code":"9280232","prefecture":"石川県","prefecture_kana":"イシカワケン","city":"輪島市","city_kana":"ワジマシ","town":"町野町伏戸","town_kana":"マチノマチフセド","prefecture_code":17},"0213":{"zip_code":"9280213","prefecture":"石川県","prefecture_kana":"イシカワケン","city":"輪島市","city_kana":"ワジマシ","town":"町野町舞谷","town_kana":"マチノマチマイダニ","prefecture_code":17},"0234":{"zip_code":"9280234","prefecture":"石川県","prefecture_kana":"イシカワケン","city":"輪島市","city_kana":"ワジマシ","town":"町野町真喜野","town_kana":"マチノマチマキノ","prefecture_code":17},"0204":{"zip_code":"9280204","prefecture":"石川県","prefecture_kana":"イシカワケン","city":"輪島市","city_kana":"ワジマシ","town":"町野町南時国","town_kana":"マチノマチミナミトキクニ","prefecture_code":17},"0224":{"zip_code":"9280224","prefecture":"石川県","prefecture_kana":"イシカワケン","city":"輪島市","city_kana":"ワジマシ","town":"町野町麦生野","town_kana":"マチノマチムギュウノ","prefecture_code":17},"0008":{"zip_code":"9280008","prefecture":"石川県","prefecture_kana":"イシカワケン","city":"輪島市","city_kana":"ワジマシ","town":"マリンタウン","town_kana":"マリンタウン","prefecture_code":17},"0066":{"zip_code":"9280066","prefecture":"石川県","prefecture_kana":"イシカワケン","city":"輪島市","city_kana":"ワジマシ","town":"美谷町","town_kana":"ミタニマチ","prefecture_code":17},"0063":{"zip_code":"9280063","prefecture":"石川県","prefecture_kana":"イシカワケン","city":"輪島市","city_kana":"ワジマシ","town":"水守町","town_kana":"ミトモリマチ","prefecture_code":17},"0024":{"zip_code":"9280024","prefecture":"石川県","prefecture_kana":"イシカワケン","city":"輪島市","city_kana":"ワジマシ","town":"山岸町","town_kana":"ヤマギシマチ","prefecture_code":17},"0014":{"zip_code":"9280014","prefecture":"石川県","prefecture_kana":"イシカワケン","city":"輪島市","city_kana":"ワジマシ","town":"山ノ上町","town_kana":"ヤマノウエマチ","prefecture_code":17},"0042":{"zip_code":"9280042","prefecture":"石川県","prefecture_kana":"イシカワケン","city":"輪島市","city_kana":"ワジマシ","town":"山本町","town_kana":"ヤマモトマチ","prefecture_code":17},"0012":{"zip_code":"9280012","prefecture":"石川県","prefecture_kana":"イシカワケン","city":"輪島市","city_kana":"ワジマシ","town":"横地町","town_kana":"ヨコジマチ","prefecture_code":17},"0071":{"zip_code":"9280071","prefecture":"石川県","prefecture_kana":"イシカワケン","city":"輪島市","city_kana":"ワジマシ","town":"輪島崎町","town_kana":"ワジマザキマチ","prefecture_code":17},"0332":{"zip_code":"9280332","prefecture":"石川県","prefecture_kana":"イシカワケン","city":"鳳珠郡能登町","city_kana":"ホウスグンノトチョウ","town":"五十里","town_kana":"イカリ","prefecture_code":17},"0306":{"zip_code":"9280306","prefecture":"石川県","prefecture_kana":"イシカワケン","city":"鳳珠郡能登町","city_kana":"ホウスグンノトチョウ","town":"石井","town_kana":"イシイ","prefecture_code":17},"0335":{"zip_code":"9280335","prefecture":"石川県","prefecture_kana":"イシカワケン","city":"鳳珠郡能登町","city_kana":"ホウスグンノトチョウ","town":"大箱","town_kana":"オオバコ","prefecture_code":17},"0302":{"zip_code":"9280302","prefecture":"石川県","prefecture_kana":"イシカワケン","city":"鳳珠郡能登町","city_kana":"ホウスグンノトチョウ","town":"小間生","town_kana":"オモウ","prefecture_code":17},"0301":{"zip_code":"9280301","prefecture":"石川県","prefecture_kana":"イシカワケン","city":"鳳珠郡能登町","city_kana":"ホウスグンノトチョウ","town":"上長尾","town_kana":"カミナガオ","prefecture_code":17},"0325":{"zip_code":"9280325","prefecture":"石川県","prefecture_kana":"イシカワケン","city":"鳳珠郡能登町","city_kana":"ホウスグンノトチョウ","town":"神和住","town_kana":"カミワスミ","prefecture_code":17},"0308":{"zip_code":"9280308","prefecture":"石川県","prefecture_kana":"イシカワケン","city":"鳳珠郡能登町","city_kana":"ホウスグンノトチョウ","town":"鴨川","town_kana":"カモガワ","prefecture_code":17},"0312":{"zip_code":"9280312","prefecture":"石川県","prefecture_kana":"イシカワケン","city":"鳳珠郡能登町","city_kana":"ホウスグンノトチョウ","town":"上町","town_kana":"カンマチ","prefecture_code":17},"0336":{"zip_code":"9280336","prefecture":"石川県","prefecture_kana":"イシカワケン","city":"鳳珠郡能登町","city_kana":"ホウスグンノトチョウ","town":"北河内","town_kana":"キタカワチ","prefecture_code":17},"0305":{"zip_code":"9280305","prefecture":"石川県","prefecture_kana":"イシカワケン","city":"鳳珠郡能登町","city_kana":"ホウスグンノトチョウ","town":"久田","town_kana":"キュウデン","prefecture_code":17},"0303":{"zip_code":"9280303","prefecture":"石川県","prefecture_kana":"イシカワケン","city":"鳳珠郡能登町","city_kana":"ホウスグンノトチョウ","town":"桐畑","town_kana":"キリハタ","prefecture_code":17},"0307":{"zip_code":"9280307","prefecture":"石川県","prefecture_kana":"イシカワケン","city":"鳳珠郡能登町","city_kana":"ホウスグンノトチョウ","town":"国光","town_kana":"クニミツ","prefecture_code":17},"0333":{"zip_code":"9280333","prefecture":"石川県","prefecture_kana":"イシカワケン","city":"鳳珠郡能登町","city_kana":"ホウスグンノトチョウ","town":"黒川","town_kana":"クロカワ","prefecture_code":17},"0311":{"zip_code":"9280311","prefecture":"石川県","prefecture_kana":"イシカワケン","city":"鳳珠郡能登町","city_kana":"ホウスグンノトチョウ","town":"合鹿","town_kana":"ゴウロク","prefecture_code":17},"0323":{"zip_code":"9280323","prefecture":"石川県","prefecture_kana":"イシカワケン","city":"鳳珠郡能登町","city_kana":"ホウスグンノトチョウ","town":"五郎左エ門分","town_kana":"ゴロザエモンブン","prefecture_code":17},"0326":{"zip_code":"9280326","prefecture":"石川県","prefecture_kana":"イシカワケン","city":"鳳珠郡能登町","city_kana":"ホウスグンノトチョウ","town":"斉和","town_kana":"サイワ","prefecture_code":17},"0314":{"zip_code":"9280314","prefecture":"石川県","prefecture_kana":"イシカワケン","city":"鳳珠郡能登町","city_kana":"ホウスグンノトチョウ","town":"笹川","town_kana":"ササガワ","prefecture_code":17},"0321":{"zip_code":"9280321","prefecture":"石川県","prefecture_kana":"イシカワケン","city":"鳳珠郡能登町","city_kana":"ホウスグンノトチョウ","town":"十郎原","town_kana":"ジュウロバラ","prefecture_code":17},"0304":{"zip_code":"9280304","prefecture":"石川県","prefecture_kana":"イシカワケン","city":"鳳珠郡能登町","city_kana":"ホウスグンノトチョウ","town":"鈴ケ嶺","town_kana":"スズガミネ","prefecture_code":17},"0322":{"zip_code":"9280322","prefecture":"石川県","prefecture_kana":"イシカワケン","city":"鳳珠郡能登町","city_kana":"ホウスグンノトチョウ","town":"寺分","town_kana":"テラブン","prefecture_code":17},"0313":{"zip_code":"9280313","prefecture":"石川県","prefecture_kana":"イシカワケン","city":"鳳珠郡能登町","city_kana":"ホウスグンノトチョウ","town":"天坂","town_kana":"テンザカ","prefecture_code":17},"0334":{"zip_code":"9280334","prefecture":"石川県","prefecture_kana":"イシカワケン","city":"鳳珠郡能登町","city_kana":"ホウスグンノトチョウ","town":"当目","town_kana":"トウメ","prefecture_code":17},"0324":{"zip_code":"9280324","prefecture":"石川県","prefecture_kana":"イシカワケン","city":"鳳珠郡能登町","city_kana":"ホウスグンノトチョウ","town":"中斉","town_kana":"ナカサイ","prefecture_code":17},"0331":{"zip_code":"9280331","prefecture":"石川県","prefecture_kana":"イシカワケン","city":"鳳珠郡能登町","city_kana":"ホウスグンノトチョウ","town":"柳田","town_kana":"ヤナギダ","prefecture_code":17}}