{"2105":{"zip_code":"9292105","prefecture":"石川県","prefecture_kana":"イシカワケン","city":"七尾市","city_kana":"ナナオシ","town":"新屋町","town_kana":"アラヤマチ","prefecture_code":17},"2114":{"zip_code":"9292114","prefecture":"石川県","prefecture_kana":"イシカワケン","city":"七尾市","city_kana":"ナナオシ","town":"伊久留町","town_kana":"イクロマチ","prefecture_code":17},"2122":{"zip_code":"9292122","prefecture":"石川県","prefecture_kana":"イシカワケン","city":"七尾市","city_kana":"ナナオシ","town":"上野ケ丘町","town_kana":"ウワノガオカマチ","prefecture_code":17},"2126":{"zip_code":"9292126","prefecture":"石川県","prefecture_kana":"イシカワケン","city":"七尾市","city_kana":"ナナオシ","town":"大津町","town_kana":"オオツマチ","prefecture_code":17},"2104":{"zip_code":"9292104","prefecture":"石川県","prefecture_kana":"イシカワケン","city":"七尾市","city_kana":"ナナオシ","town":"垣吉町","town_kana":"カキヨシマチ","prefecture_code":17},"2101":{"zip_code":"9292101","prefecture":"石川県","prefecture_kana":"イシカワケン","city":"七尾市","city_kana":"ナナオシ","town":"川尻町","town_kana":"カワシリマチ","prefecture_code":17},"2115":{"zip_code":"9292115","prefecture":"石川県","prefecture_kana":"イシカワケン","city":"七尾市","city_kana":"ナナオシ","town":"七原町","town_kana":"シツハラマチ","prefecture_code":17},"2124":{"zip_code":"9292124","prefecture":"石川県","prefecture_kana":"イシカワケン","city":"七尾市","city_kana":"ナナオシ","town":"白浜町","town_kana":"シラハママチ","prefecture_code":17},"2112":{"zip_code":"9292112","prefecture":"石川県","prefecture_kana":"イシカワケン","city":"七尾市","city_kana":"ナナオシ","town":"杉森町","town_kana":"スギモリマチ","prefecture_code":17},"2111":{"zip_code":"9292111","prefecture":"石川県","prefecture_kana":"イシカワケン","city":"七尾市","city_kana":"ナナオシ","town":"高田町","town_kana":"タカタマチ","prefecture_code":17},"2121":{"zip_code":"9292121","prefecture":"石川県","prefecture_kana":"イシカワケン","city":"七尾市","city_kana":"ナナオシ","town":"田鶴浜町","town_kana":"タツルハママチ","prefecture_code":17},"2204":{"zip_code":"9292204","prefecture":"石川県","prefecture_kana":"イシカワケン","city":"七尾市","city_kana":"ナナオシ","town":"中島町上畠","town_kana":"ナカジママチウワバタケ","prefecture_code":17},"2207":{"zip_code":"9292207","prefecture":"石川県","prefecture_kana":"イシカワケン","city":"七尾市","city_kana":"ナナオシ","town":"中島町大平","town_kana":"ナカジママチオオダイラ","prefecture_code":17},"2231":{"zip_code":"9292231","prefecture":"石川県","prefecture_kana":"イシカワケン","city":"七尾市","city_kana":"ナナオシ","town":"中島町奥吉田","town_kana":"ナカジママチオクヨシタ","prefecture_code":17},"2214":{"zip_code":"9292214","prefecture":"石川県","prefecture_kana":"イシカワケン","city":"七尾市","city_kana":"ナナオシ","town":"中島町小牧","town_kana":"ナカジママチオマキ","prefecture_code":17},"2233":{"zip_code":"9292233","prefecture":"石川県","prefecture_kana":"イシカワケン","city":"七尾市","city_kana":"ナナオシ","town":"中島町笠師","town_kana":"ナカジママチカサシ","prefecture_code":17},"2217":{"zip_code":"9292217","prefecture":"石川県","prefecture_kana":"イシカワケン","city":"七尾市","city_kana":"ナナオシ","town":"中島町鹿島台","town_kana":"ナカジママチカシマダイ","prefecture_code":17},"2243":{"zip_code":"9292243","prefecture":"石川県","prefecture_kana":"イシカワケン","city":"七尾市","city_kana":"ナナオシ","town":"中島町河崎","town_kana":"ナカジママチカワザキ","prefecture_code":17},"2201":{"zip_code":"9292201","prefecture":"石川県","prefecture_kana":"イシカワケン","city":"七尾市","city_kana":"ナナオシ","town":"中島町河内","town_kana":"ナカジママチカワチ","prefecture_code":17},"2223":{"zip_code":"9292223","prefecture":"石川県","prefecture_kana":"イシカワケン","city":"七尾市","city_kana":"ナナオシ","town":"中島町上町","town_kana":"ナカジママチカンマチ","prefecture_code":17},"2203":{"zip_code":"9292203","prefecture":"石川県","prefecture_kana":"イシカワケン","city":"七尾市","city_kana":"ナナオシ","town":"中島町北免田","town_kana":"ナカジママチキタメンデン","prefecture_code":17},"2242":{"zip_code":"9292242","prefecture":"石川県","prefecture_kana":"イシカワケン","city":"七尾市","city_kana":"ナナオシ","town":"中島町崎山","town_kana":"ナカジママチサキヤマ","prefecture_code":17},"2234":{"zip_code":"9292234","prefecture":"石川県","prefecture_kana":"イシカワケン","city":"七尾市","city_kana":"ナナオシ","town":"中島町塩津","town_kana":"ナカジママチシオツ","prefecture_code":17},"2218":{"zip_code":"9292218","prefecture":"石川県","prefecture_kana":"イシカワケン","city":"七尾市","city_kana":"ナナオシ","town":"中島町瀬嵐","town_kana":"ナカジママチセアラシ","prefecture_code":17},"2213":{"zip_code":"9292213","prefecture":"石川県","prefecture_kana":"イシカワケン","city":"七尾市","city_kana":"ナナオシ","town":"中島町外","town_kana":"ナカジママチソデ","prefecture_code":17},"2247":{"zip_code":"9292247","prefecture":"石川県","prefecture_kana":"イシカワケン","city":"七尾市","city_kana":"ナナオシ","town":"中島町外原","town_kana":"ナカジママチソドハラ","prefecture_code":17},"2212":{"zip_code":"9292212","prefecture":"石川県","prefecture_kana":"イシカワケン","city":"七尾市","city_kana":"ナナオシ","town":"中島町田岸","town_kana":"ナカジママチタギシ","prefecture_code":17},"2246":{"zip_code":"9292246","prefecture":"石川県","prefecture_kana":"イシカワケン","city":"七尾市","city_kana":"ナナオシ","town":"中島町土川","town_kana":"ナカジママチツチカワ","prefecture_code":17},"2245":{"zip_code":"9292245","prefecture":"石川県","prefecture_kana":"イシカワケン","city":"七尾市","city_kana":"ナナオシ","town":"中島町豊田","town_kana":"ナカジママチトヨタ","prefecture_code":17},"2244":{"zip_code":"9292244","prefecture":"石川県","prefecture_kana":"イシカワケン","city":"七尾市","city_kana":"ナナオシ","town":"中島町豊田町","town_kana":"ナカジママチトヨタマチ","prefecture_code":17},"2206":{"zip_code":"9292206","prefecture":"石川県","prefecture_kana":"イシカワケン","city":"七尾市","city_kana":"ナナオシ","town":"中島町鳥越","town_kana":"ナカジママチトリゴエ","prefecture_code":17},"2216":{"zip_code":"9292216","prefecture":"石川県","prefecture_kana":"イシカワケン","city":"七尾市","city_kana":"ナナオシ","town":"中島町長浦","town_kana":"ナカジママチナガウラ","prefecture_code":17},"2222":{"zip_code":"9292222","prefecture":"石川県","prefecture_kana":"イシカワケン","city":"七尾市","city_kana":"ナナオシ","town":"中島町中島","town_kana":"ナカジママチナカジマ","prefecture_code":17},"2209":{"zip_code":"9292209","prefecture":"石川県","prefecture_kana":"イシカワケン","city":"七尾市","city_kana":"ナナオシ","town":"中島町西谷内","town_kana":"ナカジママチニシヤチ","prefecture_code":17},"2241":{"zip_code":"9292241","prefecture":"石川県","prefecture_kana":"イシカワケン","city":"七尾市","city_kana":"ナナオシ","town":"中島町浜田","town_kana":"ナカジママチハマダ","prefecture_code":17},"2215":{"zip_code":"9292215","prefecture":"石川県","prefecture_kana":"イシカワケン","city":"七尾市","city_kana":"ナナオシ","town":"中島町深浦","town_kana":"ナカジママチフカウラ","prefecture_code":17},"2227":{"zip_code":"9292227","prefecture":"石川県","prefecture_kana":"イシカワケン","city":"七尾市","city_kana":"ナナオシ","town":"中島町藤瀬","town_kana":"ナカジママチフジノセ","prefecture_code":17},"2232":{"zip_code":"9292232","prefecture":"石川県","prefecture_kana":"イシカワケン","city":"七尾市","city_kana":"ナナオシ","town":"中島町筆染","town_kana":"ナカジママチフデソメ","prefecture_code":17},"2208":{"zip_code":"9292208","prefecture":"石川県","prefecture_kana":"イシカワケン","city":"七尾市","city_kana":"ナナオシ","town":"中島町古江","town_kana":"ナカジママチフルエ","prefecture_code":17},"2202":{"zip_code":"9292202","prefecture":"石川県","prefecture_kana":"イシカワケン","city":"七尾市","city_kana":"ナナオシ","town":"中島町別所","town_kana":"ナカジママチベッショ","prefecture_code":17},"2205":{"zip_code":"9292205","prefecture":"石川県","prefecture_kana":"イシカワケン","city":"七尾市","city_kana":"ナナオシ","town":"中島町町屋","town_kana":"ナカジママチマチヤ","prefecture_code":17},"2225":{"zip_code":"9292225","prefecture":"石川県","prefecture_kana":"イシカワケン","city":"七尾市","city_kana":"ナナオシ","town":"中島町宮前","town_kana":"ナカジママチミヤノマエ","prefecture_code":17},"2221":{"zip_code":"9292221","prefecture":"石川県","prefecture_kana":"イシカワケン","city":"七尾市","city_kana":"ナナオシ","town":"中島町谷内","town_kana":"ナカジママチヤチ","prefecture_code":17},"2224":{"zip_code":"9292224","prefecture":"石川県","prefecture_kana":"イシカワケン","city":"七尾市","city_kana":"ナナオシ","town":"中島町山戸田","town_kana":"ナカジママチヤマトダ","prefecture_code":17},"2226":{"zip_code":"9292226","prefecture":"石川県","prefecture_kana":"イシカワケン","city":"七尾市","city_kana":"ナナオシ","town":"中島町横田","town_kana":"ナカジママチヨコタ","prefecture_code":17},"2211":{"zip_code":"9292211","prefecture":"石川県","prefecture_kana":"イシカワケン","city":"七尾市","city_kana":"ナナオシ","town":"中島町横見","town_kana":"ナカジママチヨコミ","prefecture_code":17},"2113":{"zip_code":"9292113","prefecture":"石川県","prefecture_kana":"イシカワケン","city":"七尾市","city_kana":"ナナオシ","town":"西下町","town_kana":"ニシシモマチ","prefecture_code":17},"2103":{"zip_code":"9292103","prefecture":"石川県","prefecture_kana":"イシカワケン","city":"七尾市","city_kana":"ナナオシ","town":"東山町","town_kana":"ヒガシヤママチ","prefecture_code":17},"2125":{"zip_code":"9292125","prefecture":"石川県","prefecture_kana":"イシカワケン","city":"七尾市","city_kana":"ナナオシ","town":"深見町","town_kana":"フカミマチ","prefecture_code":17},"2102":{"zip_code":"9292102","prefecture":"石川県","prefecture_kana":"イシカワケン","city":"七尾市","city_kana":"ナナオシ","town":"舟尾町","town_kana":"フノオマチ","prefecture_code":17},"2123":{"zip_code":"9292123","prefecture":"石川県","prefecture_kana":"イシカワケン","city":"七尾市","city_kana":"ナナオシ","town":"三引町","town_kana":"ミビキマチ","prefecture_code":17},"2116":{"zip_code":"9292116","prefecture":"石川県","prefecture_kana":"イシカワケン","city":"七尾市","city_kana":"ナナオシ","town":"吉田町","town_kana":"ヨシタマチ","prefecture_code":17},"2373":{"zip_code":"9292373","prefecture":"石川県","prefecture_kana":"イシカワケン","city":"輪島市","city_kana":"ワジマシ","town":"三井町市ノ坂","town_kana":"ミイマチイチノサカ","prefecture_code":17},"2374":{"zip_code":"9292374","prefecture":"石川県","prefecture_kana":"イシカワケン","city":"輪島市","city_kana":"ワジマシ","town":"三井町内屋","town_kana":"ミイマチウチヤ","prefecture_code":17},"2377":{"zip_code":"9292377","prefecture":"石川県","prefecture_kana":"イシカワケン","city":"輪島市","city_kana":"ワジマシ","town":"三井町漆原","town_kana":"ミイマチウルシハラ","prefecture_code":17},"2378":{"zip_code":"9292378","prefecture":"石川県","prefecture_kana":"イシカワケン","city":"輪島市","city_kana":"ワジマシ","town":"三井町小泉","town_kana":"ミイマチコイズミ","prefecture_code":17},"2363":{"zip_code":"9292363","prefecture":"石川県","prefecture_kana":"イシカワケン","city":"輪島市","city_kana":"ワジマシ","town":"三井町興徳寺","town_kana":"ミイマチコウトクジ","prefecture_code":17},"2376":{"zip_code":"9292376","prefecture":"石川県","prefecture_kana":"イシカワケン","city":"輪島市","city_kana":"ワジマシ","town":"三井町新保","town_kana":"ミイマチシンボ","prefecture_code":17},"2372":{"zip_code":"9292372","prefecture":"石川県","prefecture_kana":"イシカワケン","city":"輪島市","city_kana":"ワジマシ","town":"三井町洲衛","town_kana":"ミイマチスエ","prefecture_code":17},"2365":{"zip_code":"9292365","prefecture":"石川県","prefecture_kana":"イシカワケン","city":"輪島市","city_kana":"ワジマシ","town":"三井町渡合","town_kana":"ミイマチドアイ","prefecture_code":17},"2362":{"zip_code":"9292362","prefecture":"石川県","prefecture_kana":"イシカワケン","city":"輪島市","city_kana":"ワジマシ","town":"三井町中","town_kana":"ミイマチナカ","prefecture_code":17},"2379":{"zip_code":"9292379","prefecture":"石川県","prefecture_kana":"イシカワケン","city":"輪島市","city_kana":"ワジマシ","town":"三井町長沢","town_kana":"ミイマチナガサワ","prefecture_code":17},"2367":{"zip_code":"9292367","prefecture":"石川県","prefecture_kana":"イシカワケン","city":"輪島市","city_kana":"ワジマシ","town":"三井町仁行","town_kana":"ミイマチニギョウ","prefecture_code":17},"2375":{"zip_code":"9292375","prefecture":"石川県","prefecture_kana":"イシカワケン","city":"輪島市","city_kana":"ワジマシ","town":"三井町細屋","town_kana":"ミイマチホソヤ","prefecture_code":17},"2366":{"zip_code":"9292366","prefecture":"石川県","prefecture_kana":"イシカワケン","city":"輪島市","city_kana":"ワジマシ","town":"三井町本江","town_kana":"ミイマチホンコウ","prefecture_code":17},"2371":{"zip_code":"9292371","prefecture":"石川県","prefecture_kana":"イシカワケン","city":"輪島市","city_kana":"ワジマシ","town":"三井町三洲穂","town_kana":"ミイマチミズホ","prefecture_code":17},"2361":{"zip_code":"9292361","prefecture":"石川県","prefecture_kana":"イシカワケン","city":"輪島市","city_kana":"ワジマシ","town":"三井町与呂見","town_kana":"ミイマチヨロミ","prefecture_code":17},"2364":{"zip_code":"9292364","prefecture":"石川県","prefecture_kana":"イシカワケン","city":"輪島市","city_kana":"ワジマシ","town":"大和町","town_kana":"ヤマトマチ","prefecture_code":17},"1572":{"zip_code":"9291572","prefecture":"石川県","prefecture_kana":"イシカワケン","city":"羽咋市","city_kana":"ハクイシ","town":"大町","town_kana":"オオマチ","prefecture_code":17},"1576":{"zip_code":"9291576","prefecture":"石川県","prefecture_kana":"イシカワケン","city":"羽咋市","city_kana":"ハクイシ","town":"鹿島路町","town_kana":"カシマジマチ","prefecture_code":17},"1575":{"zip_code":"9291575","prefecture":"石川県","prefecture_kana":"イシカワケン","city":"羽咋市","city_kana":"ハクイシ","town":"金丸出町","town_kana":"カネマルデマチ","prefecture_code":17},"1574":{"zip_code":"9291574","prefecture":"石川県","prefecture_kana":"イシカワケン","city":"羽咋市","city_kana":"ハクイシ","town":"酒井町","town_kana":"サカイマチ","prefecture_code":17},"1571":{"zip_code":"9291571","prefecture":"石川県","prefecture_kana":"イシカワケン","city":"羽咋市","city_kana":"ハクイシ","town":"下曽祢町","town_kana":"シモソネマチ","prefecture_code":17},"1577":{"zip_code":"9291577","prefecture":"石川県","prefecture_kana":"イシカワケン","city":"羽咋市","city_kana":"ハクイシ","town":"東潟町","town_kana":"ヒガシカタマチ","prefecture_code":17},"1573":{"zip_code":"9291573","prefecture":"石川県","prefecture_kana":"イシカワケン","city":"羽咋市","city_kana":"ハクイシ","town":"四柳町","town_kana":"ヨツヤナギマチ","prefecture_code":17},"1100":{"zip_code":"9291100","prefecture":"石川県","prefecture_kana":"イシカワケン","city":"かほく市","city_kana":"カホクシ","town":"以下に掲載がない場合","town_kana":"イカニケイサイガナイバアイ","prefecture_code":17},"1175":{"zip_code":"9291175","prefecture":"石川県","prefecture_kana":"イシカワケン","city":"かほく市","city_kana":"カホクシ","town":"秋浜","town_kana":"アキハマ","prefecture_code":17},"1121":{"zip_code":"9291121","prefecture":"石川県","prefecture_kana":"イシカワケン","city":"かほく市","city_kana":"カホクシ","town":"宇気","town_kana":"ウケ","prefecture_code":17},"1214":{"zip_code":"9291214","prefecture":"石川県","prefecture_kana":"イシカワケン","city":"かほく市","city_kana":"カホクシ","town":"内高松","town_kana":"ウチタカマツ","prefecture_code":17},"1126":{"zip_code":"9291126","prefecture":"石川県","prefecture_kana":"イシカワケン","city":"かほく市","city_kana":"カホクシ","town":"内日角","town_kana":"ウチヒスミ","prefecture_code":17},"1125":{"zip_code":"9291125","prefecture":"石川県","prefecture_kana":"イシカワケン","city":"かほく市","city_kana":"カホクシ","town":"宇野気","town_kana":"ウノケ","prefecture_code":17},"1102":{"zip_code":"9291102","prefecture":"石川県","prefecture_kana":"イシカワケン","city":"かほく市","city_kana":"カホクシ","town":"上田名","town_kana":"ウワダナ","prefecture_code":17},"1127":{"zip_code":"9291127","prefecture":"石川県","prefecture_kana":"イシカワケン","city":"かほく市","city_kana":"カホクシ","town":"大崎","town_kana":"オオサキ","prefecture_code":17},"1210":{"zip_code":"9291210","prefecture":"石川県","prefecture_kana":"イシカワケン","city":"かほく市","city_kana":"カホクシ","town":"学園台","town_kana":"ガクエンダイ","prefecture_code":17},"1104":{"zip_code":"9291104","prefecture":"石川県","prefecture_kana":"イシカワケン","city":"かほく市","city_kana":"カホクシ","town":"笠島","town_kana":"カサシマ","prefecture_code":17},"1115":{"zip_code":"9291115","prefecture":"石川県","prefecture_kana":"イシカワケン","city":"かほく市","city_kana":"カホクシ","town":"上山田","town_kana":"カミヤマダ","prefecture_code":17},"1114":{"zip_code":"9291114","prefecture":"石川県","prefecture_kana":"イシカワケン","city":"かほく市","city_kana":"カホクシ","town":"狩鹿野","town_kana":"カルガノ","prefecture_code":17},"1206":{"zip_code":"9291206","prefecture":"石川県","prefecture_kana":"イシカワケン","city":"かほく市","city_kana":"カホクシ","town":"元女","town_kana":"ガンニョ","prefecture_code":17},"1171":{"zip_code":"9291171","prefecture":"石川県","prefecture_kana":"イシカワケン","city":"かほく市","city_kana":"カホクシ","town":"木津","town_kana":"キヅ","prefecture_code":17},"1111":{"zip_code":"9291111","prefecture":"石川県","prefecture_kana":"イシカワケン","city":"かほく市","city_kana":"カホクシ","town":"気屋","town_kana":"キヤ","prefecture_code":17},"1203":{"zip_code":"9291203","prefecture":"石川県","prefecture_kana":"イシカワケン","city":"かほく市","city_kana":"カホクシ","town":"黒川","town_kana":"クロガワ","prefecture_code":17},"1113":{"zip_code":"9291113","prefecture":"石川県","prefecture_kana":"イシカワケン","city":"かほく市","city_kana":"カホクシ","town":"指江","town_kana":"サシエ","prefecture_code":17},"1116":{"zip_code":"9291116","prefecture":"石川県","prefecture_kana":"イシカワケン","city":"かほく市","city_kana":"カホクシ","town":"下山田","town_kana":"シモヤマダ","prefecture_code":17},"1177":{"zip_code":"9291177","prefecture":"石川県","prefecture_kana":"イシカワケン","city":"かほく市","city_kana":"カホクシ","town":"白尾","town_kana":"シロオ","prefecture_code":17},"1208":{"zip_code":"9291208","prefecture":"石川県","prefecture_kana":"イシカワケン","city":"かほく市","city_kana":"カホクシ","town":"瀬戸町","town_kana":"セトマチ","prefecture_code":17},"1176":{"zip_code":"9291176","prefecture":"石川県","prefecture_kana":"イシカワケン","city":"かほく市","city_kana":"カホクシ","town":"外日角","town_kana":"ソトヒスミ","prefecture_code":17},"1215":{"zip_code":"9291215","prefecture":"石川県","prefecture_kana":"イシカワケン","city":"かほく市","city_kana":"カホクシ","town":"高松","town_kana":"タカマツ","prefecture_code":17},"1112":{"zip_code":"9291112","prefecture":"石川県","prefecture_kana":"イシカワケン","city":"かほく市","city_kana":"カホクシ","town":"多田","town_kana":"タダ","prefecture_code":17},"1103":{"zip_code":"9291103","prefecture":"石川県","prefecture_kana":"イシカワケン","city":"かほく市","city_kana":"カホクシ","town":"谷","town_kana":"タニ","prefecture_code":17},"1173":{"zip_code":"9291173","prefecture":"石川県","prefecture_kana":"イシカワケン","city":"かほく市","city_kana":"カホクシ","town":"遠塚","town_kana":"トオヅカ","prefecture_code":17},"1212":{"zip_code":"9291212","prefecture":"石川県","prefecture_kana":"イシカワケン","city":"かほく市","city_kana":"カホクシ","town":"中沼","town_kana":"ナカヌマ","prefecture_code":17},"1213":{"zip_code":"9291213","prefecture":"石川県","prefecture_kana":"イシカワケン","city":"かほく市","city_kana":"カホクシ","town":"長柄町","town_kana":"ナガラマチ","prefecture_code":17},"1207":{"zip_code":"9291207","prefecture":"石川県","prefecture_kana":"イシカワケン","city":"かほく市","city_kana":"カホクシ","town":"夏栗","town_kana":"ナツグリ","prefecture_code":17},"1122":{"zip_code":"9291122","prefecture":"石川県","prefecture_kana":"イシカワケン","city":"かほく市","city_kana":"カホクシ","town":"七窪","town_kana":"ナナクボ","prefecture_code":17},"1201":{"zip_code":"9291201","prefecture":"石川県","prefecture_kana":"イシカワケン","city":"かほく市","city_kana":"カホクシ","town":"野寺","town_kana":"ノデラ","prefecture_code":17},"1202":{"zip_code":"9291202","prefecture":"石川県","prefecture_kana":"イシカワケン","city":"かほく市","city_kana":"カホクシ","town":"八野","town_kana":"ハチノ","prefecture_code":17},"1117":{"zip_code":"9291117","prefecture":"石川県","prefecture_kana":"イシカワケン","city":"かほく市","city_kana":"カホクシ","town":"鉢伏","town_kana":"ハチブセ","prefecture_code":17},"1174":{"zip_code":"9291174","prefecture":"石川県","prefecture_kana":"イシカワケン","city":"かほく市","city_kana":"カホクシ","town":"浜北","town_kana":"ハマキタ","prefecture_code":17},"1211":{"zip_code":"9291211","prefecture":"石川県","prefecture_kana":"イシカワケン","city":"かほく市","city_kana":"カホクシ","town":"二ツ屋","town_kana":"フタツヤ","prefecture_code":17},"1172":{"zip_code":"9291172","prefecture":"石川県","prefecture_kana":"イシカワケン","city":"かほく市","city_kana":"カホクシ","town":"松浜","town_kana":"マツハマ","prefecture_code":17},"1204":{"zip_code":"9291204","prefecture":"石川県","prefecture_kana":"イシカワケン","city":"かほく市","city_kana":"カホクシ","town":"箕打","town_kana":"ミウチ","prefecture_code":17},"1123":{"zip_code":"9291123","prefecture":"石川県","prefecture_kana":"イシカワケン","city":"かほく市","city_kana":"カホクシ","town":"森","town_kana":"モリ","prefecture_code":17},"1105":{"zip_code":"9291105","prefecture":"石川県","prefecture_kana":"イシカワケン","city":"かほく市","city_kana":"カホクシ","town":"横山","town_kana":"ヨコヤマ","prefecture_code":17},"1101":{"zip_code":"9291101","prefecture":"石川県","prefecture_kana":"イシカワケン","city":"かほく市","city_kana":"カホクシ","town":"余地","town_kana":"ヨチ","prefecture_code":17},"1205":{"zip_code":"9291205","prefecture":"石川県","prefecture_kana":"イシカワケン","city":"かほく市","city_kana":"カホクシ","town":"若緑","town_kana":"ワカミドリ","prefecture_code":17},"0211":{"zip_code":"9290211","prefecture":"石川県","prefecture_kana":"イシカワケン","city":"白山市","city_kana":"ハクサンシ","town":"井関町","town_kana":"イセキマチ","prefecture_code":17},"0206":{"zip_code":"9290206","prefecture":"石川県","prefecture_kana":"イシカワケン","city":"白山市","city_kana":"ハクサンシ","town":"鹿島平","town_kana":"カシマダイラ","prefecture_code":17},"0201":{"zip_code":"9290201","prefecture":"石川県","prefecture_kana":"イシカワケン","city":"白山市","city_kana":"ハクサンシ","town":"鹿島町","town_kana":"カシママチ","prefecture_code":17},"0213":{"zip_code":"9290213","prefecture":"石川県","prefecture_kana":"イシカワケン","city":"白山市","city_kana":"ハクサンシ","town":"末正町","town_kana":"スエマサマチ","prefecture_code":17},"0214":{"zip_code":"9290214","prefecture":"石川県","prefecture_kana":"イシカワケン","city":"白山市","city_kana":"ハクサンシ","town":"長屋町","town_kana":"チョウヤマチ","prefecture_code":17},"0212":{"zip_code":"9290212","prefecture":"石川県","prefecture_kana":"イシカワケン","city":"白山市","city_kana":"ハクサンシ","town":"手取町","town_kana":"テドリマチ","prefecture_code":17},"0202":{"zip_code":"9290202","prefecture":"石川県","prefecture_kana":"イシカワケン","city":"白山市","city_kana":"ハクサンシ","town":"西米光町","town_kana":"ニシヨネミツマチ","prefecture_code":17},"0205":{"zip_code":"9290205","prefecture":"石川県","prefecture_kana":"イシカワケン","city":"白山市","city_kana":"ハクサンシ","town":"蓮池町","town_kana":"ハスイケマチ","prefecture_code":17},"0204":{"zip_code":"9290204","prefecture":"石川県","prefecture_kana":"イシカワケン","city":"白山市","city_kana":"ハクサンシ","town":"平加町","town_kana":"ヒラカマチ","prefecture_code":17},"0221":{"zip_code":"9290221","prefecture":"石川県","prefecture_kana":"イシカワケン","city":"白山市","city_kana":"ハクサンシ","town":"美川今町","town_kana":"ミカワイママチ","prefecture_code":17},"0235":{"zip_code":"9290235","prefecture":"石川県","prefecture_kana":"イシカワケン","city":"白山市","city_kana":"ハクサンシ","town":"美川永代町","town_kana":"ミカワエイタイマチ","prefecture_code":17},"0223":{"zip_code":"9290223","prefecture":"石川県","prefecture_kana":"イシカワケン","city":"白山市","city_kana":"ハクサンシ","town":"美川北町","town_kana":"ミカワキタマチ","prefecture_code":17},"0234":{"zip_code":"9290234","prefecture":"石川県","prefecture_kana":"イシカワケン","city":"白山市","city_kana":"ハクサンシ","town":"美川神幸町","town_kana":"ミカワジンコウマチ","prefecture_code":17},"0222":{"zip_code":"9290222","prefecture":"石川県","prefecture_kana":"イシカワケン","city":"白山市","city_kana":"ハクサンシ","town":"美川新町","town_kana":"ミカワシンマチ","prefecture_code":17},"0232":{"zip_code":"9290232","prefecture":"石川県","prefecture_kana":"イシカワケン","city":"白山市","city_kana":"ハクサンシ","town":"美川末広町","town_kana":"ミカワスエヒロマチ","prefecture_code":17},"0224":{"zip_code":"9290224","prefecture":"石川県","prefecture_kana":"イシカワケン","city":"白山市","city_kana":"ハクサンシ","town":"美川中町","town_kana":"ミカワナカマチ","prefecture_code":17},"0233":{"zip_code":"9290233","prefecture":"石川県","prefecture_kana":"イシカワケン","city":"白山市","city_kana":"ハクサンシ","town":"美川浜町","town_kana":"ミカワハママチ","prefecture_code":17},"0215":{"zip_code":"9290215","prefecture":"石川県","prefecture_kana":"イシカワケン","city":"白山市","city_kana":"ハクサンシ","town":"美川南町","town_kana":"ミカワミナミマチ","prefecture_code":17},"0216":{"zip_code":"9290216","prefecture":"石川県","prefecture_kana":"イシカワケン","city":"白山市","city_kana":"ハクサンシ","town":"美川本吉町","town_kana":"ミカワモトヨシマチ","prefecture_code":17},"0231":{"zip_code":"9290231","prefecture":"石川県","prefecture_kana":"イシカワケン","city":"白山市","city_kana":"ハクサンシ","town":"美川和波町","town_kana":"ミカワワナミマチ","prefecture_code":17},"0217":{"zip_code":"9290217","prefecture":"石川県","prefecture_kana":"イシカワケン","city":"白山市","city_kana":"ハクサンシ","town":"湊町","town_kana":"ミナトマチ","prefecture_code":17},"0203":{"zip_code":"9290203","prefecture":"石川県","prefecture_kana":"イシカワケン","city":"白山市","city_kana":"ハクサンシ","town":"若草町","town_kana":"ワカクサマチ","prefecture_code":17},"0101":{"zip_code":"9290101","prefecture":"石川県","prefecture_kana":"イシカワケン","city":"能美市","city_kana":"ノミシ","town":"赤井町","town_kana":"アカイマチ","prefecture_code":17},"0122":{"zip_code":"9290122","prefecture":"石川県","prefecture_kana":"イシカワケン","city":"能美市","city_kana":"ノミシ","town":"大浜町","town_kana":"オオハママチ","prefecture_code":17},"0103":{"zip_code":"9290103","prefecture":"石川県","prefecture_kana":"イシカワケン","city":"能美市","city_kana":"ノミシ","town":"五間堂町","town_kana":"ゴケンドウマチ","prefecture_code":17},"0115":{"zip_code":"9290115","prefecture":"石川県","prefecture_kana":"イシカワケン","city":"能美市","city_kana":"ノミシ","town":"下ノ江町","town_kana":"シモノゴウマチ","prefecture_code":17},"0113":{"zip_code":"9290113","prefecture":"石川県","prefecture_kana":"イシカワケン","city":"能美市","city_kana":"ノミシ","town":"大成町","town_kana":"タイセイマチ","prefecture_code":17},"0116":[{"zip_code":"9290116","prefecture":"石川県","prefecture_kana":"イシカワケン","city":"能美市","city_kana":"ノミシ","town":"高坂町","town_kana":"タカサカマチ","prefecture_code":17},{"zip_code":"9290116","prefecture":"石川県","prefecture_kana":"イシカワケン","city":"能美市","city_kana":"ノミシ","town":"根上町","town_kana":"ネアガリマチ","prefecture_code":17}],"0125":{"zip_code":"9290125","prefecture":"石川県","prefecture_kana":"イシカワケン","city":"能美市","city_kana":"ノミシ","town":"道林町","town_kana":"ドウリンマチ","prefecture_code":17},"0105":{"zip_code":"9290105","prefecture":"石川県","prefecture_kana":"イシカワケン","city":"能美市","city_kana":"ノミシ","town":"中ノ江町","town_kana":"ナカノゴウマチ","prefecture_code":17},"0104":{"zip_code":"9290104","prefecture":"石川県","prefecture_kana":"イシカワケン","city":"能美市","city_kana":"ノミシ","town":"中庄町","town_kana":"ナカノショウマチ","prefecture_code":17},"0123":{"zip_code":"9290123","prefecture":"石川県","prefecture_kana":"イシカワケン","city":"能美市","city_kana":"ノミシ","town":"中町","town_kana":"ナカマチ","prefecture_code":17},"0102":{"zip_code":"9290102","prefecture":"石川県","prefecture_kana":"イシカワケン","city":"能美市","city_kana":"ノミシ","town":"西任田町","town_kana":"ニシトウダマチ","prefecture_code":17},"0106":{"zip_code":"9290106","prefecture":"石川県","prefecture_kana":"イシカワケン","city":"能美市","city_kana":"ノミシ","town":"西二口町","town_kana":"ニシフタクチマチ","prefecture_code":17},"0108":{"zip_code":"9290108","prefecture":"石川県","prefecture_kana":"イシカワケン","city":"能美市","city_kana":"ノミシ","town":"能美","town_kana":"ノミ","prefecture_code":17},"0114":{"zip_code":"9290114","prefecture":"石川県","prefecture_kana":"イシカワケン","city":"能美市","city_kana":"ノミシ","town":"浜開発町","town_kana":"ハマカイハツマチ","prefecture_code":17},"0124":{"zip_code":"9290124","prefecture":"石川県","prefecture_kana":"イシカワケン","city":"能美市","city_kana":"ノミシ","town":"浜町","town_kana":"ハママチ","prefecture_code":17},"0107":{"zip_code":"9290107","prefecture":"石川県","prefecture_kana":"イシカワケン","city":"能美市","city_kana":"ノミシ","town":"福岡町","town_kana":"フクオカマチ","prefecture_code":17},"0112":{"zip_code":"9290112","prefecture":"石川県","prefecture_kana":"イシカワケン","city":"能美市","city_kana":"ノミシ","town":"福島町","town_kana":"フクシママチ","prefecture_code":17},"0126":{"zip_code":"9290126","prefecture":"石川県","prefecture_kana":"イシカワケン","city":"能美市","city_kana":"ノミシ","town":"山口町","town_kana":"ヤマグチマチ","prefecture_code":17},"0121":{"zip_code":"9290121","prefecture":"石川県","prefecture_kana":"イシカワケン","city":"能美市","city_kana":"ノミシ","town":"吉原釜屋町","town_kana":"ヨシハラガマヤマチ","prefecture_code":17},"0111":{"zip_code":"9290111","prefecture":"石川県","prefecture_kana":"イシカワケン","city":"能美市","city_kana":"ノミシ","town":"吉原町","town_kana":"ヨシハラマチ","prefecture_code":17},"0300":{"zip_code":"9290300","prefecture":"石川県","prefecture_kana":"イシカワケン","city":"河北郡津幡町","city_kana":"カホクグンツバタマチ","town":"以下に掲載がない場合","town_kana":"イカニケイサイガナイバアイ","prefecture_code":17},"0437":{"zip_code":"9290437","prefecture":"石川県","prefecture_kana":"イシカワケン","city":"河北郡津幡町","city_kana":"カホクグンツバタマチ","town":"相窪","town_kana":"アイクボ","prefecture_code":17},"0324":{"zip_code":"9290324","prefecture":"石川県","prefecture_kana":"イシカワケン","city":"河北郡津幡町","city_kana":"カホクグンツバタマチ","town":"浅田","town_kana":"アサダ","prefecture_code":17},"0436":{"zip_code":"9290436","prefecture":"石川県","prefecture_kana":"イシカワケン","city":"河北郡津幡町","city_kana":"カホクグンツバタマチ","town":"朝日畑","town_kana":"アサヒバタ","prefecture_code":17},"0447":{"zip_code":"9290447","prefecture":"石川県","prefecture_kana":"イシカワケン","city":"河北郡津幡町","city_kana":"カホクグンツバタマチ","town":"旭山","town_kana":"アサヒヤマ","prefecture_code":17},"0344":{"zip_code":"9290344","prefecture":"石川県","prefecture_kana":"イシカワケン","city":"河北郡津幡町","city_kana":"カホクグンツバタマチ","town":"浅谷","town_kana":"アサンタニ","prefecture_code":17},"0403":{"zip_code":"9290403","prefecture":"石川県","prefecture_kana":"イシカワケン","city":"河北郡津幡町","city_kana":"カホクグンツバタマチ","town":"莇谷","town_kana":"アザミダニ","prefecture_code":17},"0311":{"zip_code":"9290311","prefecture":"石川県","prefecture_kana":"イシカワケン","city":"河北郡津幡町","city_kana":"カホクグンツバタマチ","town":"池ケ原","town_kana":"イケガハラ","prefecture_code":17},"0462":{"zip_code":"9290462","prefecture":"石川県","prefecture_kana":"イシカワケン","city":"河北郡津幡町","city_kana":"カホクグンツバタマチ","town":"市谷","town_kana":"イチノタニ","prefecture_code":17},"0335":{"zip_code":"9290335","prefecture":"石川県","prefecture_kana":"イシカワケン","city":"河北郡津幡町","city_kana":"カホクグンツバタマチ","town":"井上の荘","town_kana":"イノウエノショウ","prefecture_code":17},"0445":{"zip_code":"9290445","prefecture":"石川県","prefecture_kana":"イシカワケン","city":"河北郡津幡町","city_kana":"カホクグンツバタマチ","town":"井野河内","town_kana":"イノカワチ","prefecture_code":17},"0453":{"zip_code":"9290453","prefecture":"石川県","prefecture_kana":"イシカワケン","city":"河北郡津幡町","city_kana":"カホクグンツバタマチ","town":"岩崎","town_kana":"イワサキ","prefecture_code":17},"0303":{"zip_code":"9290303","prefecture":"石川県","prefecture_kana":"イシカワケン","city":"河北郡津幡町","city_kana":"カホクグンツバタマチ","town":"牛首","town_kana":"ウシクビ","prefecture_code":17},"0301":{"zip_code":"9290301","prefecture":"石川県","prefecture_kana":"イシカワケン","city":"河北郡津幡町","city_kana":"カホクグンツバタマチ","town":"瓜生","town_kana":"ウリュウ","prefecture_code":17},"0405":{"zip_code":"9290405","prefecture":"石川県","prefecture_kana":"イシカワケン","city":"河北郡津幡町","city_kana":"カホクグンツバタマチ","town":"上野","town_kana":"ウワノ","prefecture_code":17},"0415":{"zip_code":"9290415","prefecture":"石川県","prefecture_kana":"イシカワケン","city":"河北郡津幡町","city_kana":"カホクグンツバタマチ","town":"越中坂","town_kana":"エッチュウザカ","prefecture_code":17},"0431":{"zip_code":"9290431","prefecture":"石川県","prefecture_kana":"イシカワケン","city":"河北郡津幡町","city_kana":"カホクグンツバタマチ","town":"大窪","town_kana":"オオクボ","prefecture_code":17},"0345":{"zip_code":"9290345","prefecture":"石川県","prefecture_kana":"イシカワケン","city":"河北郡津幡町","city_kana":"カホクグンツバタマチ","town":"太田","town_kana":"オオタ","prefecture_code":17},"0442":{"zip_code":"9290442","prefecture":"石川県","prefecture_kana":"イシカワケン","city":"河北郡津幡町","city_kana":"カホクグンツバタマチ","town":"大坪","town_kana":"オオツボ","prefecture_code":17},"0404":{"zip_code":"9290404","prefecture":"石川県","prefecture_kana":"イシカワケン","city":"河北郡津幡町","city_kana":"カホクグンツバタマチ","town":"大畠","town_kana":"オオバタケ","prefecture_code":17},"0467":{"zip_code":"9290467","prefecture":"石川県","prefecture_kana":"イシカワケン","city":"河北郡津幡町","city_kana":"カホクグンツバタマチ","town":"大熊","town_kana":"オンマ","prefecture_code":17},"0325":{"zip_code":"9290325","prefecture":"石川県","prefecture_kana":"イシカワケン","city":"河北郡津幡町","city_kana":"カホクグンツバタマチ","town":"加賀爪","town_kana":"カガツメ","prefecture_code":17},"0402":{"zip_code":"9290402","prefecture":"石川県","prefecture_kana":"イシカワケン","city":"河北郡津幡町","city_kana":"カホクグンツバタマチ","town":"笠池ケ原","town_kana":"カサイケガハラ","prefecture_code":17},"0346":{"zip_code":"9290346","prefecture":"石川県","prefecture_kana":"イシカワケン","city":"河北郡津幡町","city_kana":"カホクグンツバタマチ","town":"潟端","town_kana":"カタバタ","prefecture_code":17},"0309":{"zip_code":"9290309","prefecture":"石川県","prefecture_kana":"イシカワケン","city":"河北郡津幡町","city_kana":"カホクグンツバタマチ","town":"上大田","town_kana":"カミオオタ","prefecture_code":17},"0304":{"zip_code":"9290304","prefecture":"石川県","prefecture_kana":"イシカワケン","city":"河北郡津幡町","city_kana":"カホクグンツバタマチ","town":"上河合","town_kana":"カミカワイ","prefecture_code":17},"0422":{"zip_code":"9290422","prefecture":"石川県","prefecture_kana":"イシカワケン","city":"河北郡津幡町","city_kana":"カホクグンツバタマチ","town":"上藤又","town_kana":"カミフジマタ","prefecture_code":17},"0314":{"zip_code":"9290314","prefecture":"石川県","prefecture_kana":"イシカワケン","city":"河北郡津幡町","city_kana":"カホクグンツバタマチ","town":"上矢田","town_kana":"カミヤタ","prefecture_code":17},"0321":{"zip_code":"9290321","prefecture":"石川県","prefecture_kana":"イシカワケン","city":"河北郡津幡町","city_kana":"カホクグンツバタマチ","town":"加茂","town_kana":"カモ","prefecture_code":17},"0416":{"zip_code":"9290416","prefecture":"石川県","prefecture_kana":"イシカワケン","city":"河北郡津幡町","city_kana":"カホクグンツバタマチ","town":"刈安","town_kana":"カリヤス","prefecture_code":17},"0334":{"zip_code":"9290334","prefecture":"石川県","prefecture_kana":"イシカワケン","city":"河北郡津幡町","city_kana":"カホクグンツバタマチ","town":"川尻","town_kana":"カワシリ","prefecture_code":17},"0411":{"zip_code":"9290411","prefecture":"石川県","prefecture_kana":"イシカワケン","city":"河北郡津幡町","city_kana":"カホクグンツバタマチ","town":"河内","town_kana":"カワチ","prefecture_code":17},"0342":{"zip_code":"9290342","prefecture":"石川県","prefecture_kana":"イシカワケン","city":"河北郡津幡町","city_kana":"カホクグンツバタマチ","town":"北中条","town_kana":"キタチュウジョウ","prefecture_code":17},"0432":{"zip_code":"9290432","prefecture":"石川県","prefecture_kana":"イシカワケン","city":"河北郡津幡町","city_kana":"カホクグンツバタマチ","town":"北横根","town_kana":"キタヨコネ","prefecture_code":17},"0302":{"zip_code":"9290302","prefecture":"石川県","prefecture_kana":"イシカワケン","city":"河北郡津幡町","city_kana":"カホクグンツバタマチ","town":"木ノ窪","town_kana":"キノクボ","prefecture_code":17},"0306":{"zip_code":"9290306","prefecture":"石川県","prefecture_kana":"イシカワケン","city":"河北郡津幡町","city_kana":"カホクグンツバタマチ","town":"興津","town_kana":"キョウヅ","prefecture_code":17},"0455":{"zip_code":"9290455","prefecture":"石川県","prefecture_kana":"イシカワケン","city":"河北郡津幡町","city_kana":"カホクグンツバタマチ","town":"倉見","town_kana":"クラミ","prefecture_code":17},"0413":{"zip_code":"9290413","prefecture":"石川県","prefecture_kana":"イシカワケン","city":"河北郡津幡町","city_kana":"カホクグンツバタマチ","town":"倶利伽羅","town_kana":"クリカラ","prefecture_code":17},"0444":{"zip_code":"9290444","prefecture":"石川県","prefecture_kana":"イシカワケン","city":"河北郡津幡町","city_kana":"カホクグンツバタマチ","town":"仮生","town_kana":"ケショウ","prefecture_code":17},"0333":{"zip_code":"9290333","prefecture":"石川県","prefecture_kana":"イシカワケン","city":"河北郡津幡町","city_kana":"カホクグンツバタマチ","town":"五反田","town_kana":"ゴタンダ","prefecture_code":17},"0328":[{"zip_code":"9290328","prefecture":"石川県","prefecture_kana":"イシカワケン","city":"河北郡津幡町","city_kana":"カホクグンツバタマチ","town":"湖東","town_kana":"コトウ","prefecture_code":17},{"zip_code":"9290328","prefecture":"石川県","prefecture_kana":"イシカワケン","city":"河北郡津幡町","city_kana":"カホクグンツバタマチ","town":"舟橋","town_kana":"フナバシ","prefecture_code":17}],"0406":{"zip_code":"9290406","prefecture":"石川県","prefecture_kana":"イシカワケン","city":"河北郡津幡町","city_kana":"カホクグンツバタマチ","town":"籠月","town_kana":"コモツキ","prefecture_code":17},"0312":{"zip_code":"9290312","prefecture":"石川県","prefecture_kana":"イシカワケン","city":"河北郡津幡町","city_kana":"カホクグンツバタマチ","town":"小熊","town_kana":"コンマ","prefecture_code":17},"0435":{"zip_code":"9290435","prefecture":"石川県","prefecture_kana":"イシカワケン","city":"河北郡津幡町","city_kana":"カホクグンツバタマチ","town":"材木","town_kana":"ザイモク","prefecture_code":17},"0417":{"zip_code":"9290417","prefecture":"石川県","prefecture_kana":"イシカワケン","city":"河北郡津幡町","city_kana":"カホクグンツバタマチ","town":"坂戸","town_kana":"サカド","prefecture_code":17},"0456":{"zip_code":"9290456","prefecture":"石川県","prefecture_kana":"イシカワケン","city":"河北郡津幡町","city_kana":"カホクグンツバタマチ","town":"七黒","town_kana":"シチクロ","prefecture_code":17},"0425":{"zip_code":"9290425","prefecture":"石川県","prefecture_kana":"イシカワケン","city":"河北郡津幡町","city_kana":"カホクグンツバタマチ","town":"七野","town_kana":"シチノ","prefecture_code":17},"0326":{"zip_code":"9290326","prefecture":"石川県","prefecture_kana":"イシカワケン","city":"河北郡津幡町","city_kana":"カホクグンツバタマチ","town":"清水","town_kana":"シミズ","prefecture_code":17},"0305":{"zip_code":"9290305","prefecture":"石川県","prefecture_kana":"イシカワケン","city":"河北郡津幡町","city_kana":"カホクグンツバタマチ","town":"下河合","town_kana":"シモカワイ","prefecture_code":17},"0423":{"zip_code":"9290423","prefecture":"石川県","prefecture_kana":"イシカワケン","city":"河北郡津幡町","city_kana":"カホクグンツバタマチ","town":"下中","town_kana":"シモナカ","prefecture_code":17},"0424":{"zip_code":"9290424","prefecture":"石川県","prefecture_kana":"イシカワケン","city":"河北郡津幡町","city_kana":"カホクグンツバタマチ","town":"下藤又","town_kana":"シモフジマタ","prefecture_code":17},"0315":{"zip_code":"9290315","prefecture":"石川県","prefecture_kana":"イシカワケン","city":"河北郡津幡町","city_kana":"カホクグンツバタマチ","town":"下矢田","town_kana":"シモヤタ","prefecture_code":17},"0327":{"zip_code":"9290327","prefecture":"石川県","prefecture_kana":"イシカワケン","city":"河北郡津幡町","city_kana":"カホクグンツバタマチ","town":"庄","town_kana":"ショウ","prefecture_code":17},"0434":[{"zip_code":"9290434","prefecture":"石川県","prefecture_kana":"イシカワケン","city":"河北郡津幡町","city_kana":"カホクグンツバタマチ","town":"常徳","town_kana":"ジョウトク","prefecture_code":17},{"zip_code":"9290434","prefecture":"石川県","prefecture_kana":"イシカワケン","city":"河北郡津幡町","city_kana":"カホクグンツバタマチ","town":"舟尾","town_kana":"フナオ","prefecture_code":17}],"0454":{"zip_code":"9290454","prefecture":"石川県","prefecture_kana":"イシカワケン","city":"河北郡津幡町","city_kana":"カホクグンツバタマチ","town":"杉瀬","town_kana":"スギノセ","prefecture_code":17},"0426":{"zip_code":"9290426","prefecture":"石川県","prefecture_kana":"イシカワケン","city":"河北郡津幡町","city_kana":"カホクグンツバタマチ","town":"竹橋","town_kana":"タケノハシ","prefecture_code":17},"0307":[{"zip_code":"9290307","prefecture":"石川県","prefecture_kana":"イシカワケン","city":"河北郡津幡町","city_kana":"カホクグンツバタマチ","town":"種","town_kana":"タネ","prefecture_code":17},{"zip_code":"9290307","prefecture":"石川県","prefecture_kana":"イシカワケン","city":"河北郡津幡町","city_kana":"カホクグンツバタマチ","town":"平野","town_kana":"ヒラノ","prefecture_code":17}],"0452":{"zip_code":"9290452","prefecture":"石川県","prefecture_kana":"イシカワケン","city":"河北郡津幡町","city_kana":"カホクグンツバタマチ","town":"田屋","town_kana":"タヤ","prefecture_code":17},"0412":{"zip_code":"9290412","prefecture":"石川県","prefecture_kana":"イシカワケン","city":"河北郡津幡町","city_kana":"カホクグンツバタマチ","town":"九折","town_kana":"ツヅラオリ","prefecture_code":17},"0323":{"zip_code":"9290323","prefecture":"石川県","prefecture_kana":"イシカワケン","city":"河北郡津幡町","city_kana":"カホクグンツバタマチ","town":"津幡","town_kana":"ツバタ","prefecture_code":17},"0427":{"zip_code":"9290427","prefecture":"石川県","prefecture_kana":"イシカワケン","city":"河北郡津幡町","city_kana":"カホクグンツバタマチ","town":"富田","town_kana":"トミタ","prefecture_code":17},"0465":{"zip_code":"9290465","prefecture":"石川県","prefecture_kana":"イシカワケン","city":"河北郡津幡町","city_kana":"カホクグンツバタマチ","town":"鳥越","town_kana":"トリゴエ","prefecture_code":17},"0407":{"zip_code":"9290407","prefecture":"石川県","prefecture_kana":"イシカワケン","city":"河北郡津幡町","city_kana":"カホクグンツバタマチ","town":"鳥屋尾","town_kana":"トリヤオ","prefecture_code":17},"0332":{"zip_code":"9290332","prefecture":"石川県","prefecture_kana":"イシカワケン","city":"河北郡津幡町","city_kana":"カホクグンツバタマチ","town":"中須加","town_kana":"ナカスカ","prefecture_code":17},"0331":{"zip_code":"9290331","prefecture":"石川県","prefecture_kana":"イシカワケン","city":"河北郡津幡町","city_kana":"カホクグンツバタマチ","town":"中橋","town_kana":"ナカバシ","prefecture_code":17},"0313":{"zip_code":"9290313","prefecture":"石川県","prefecture_kana":"イシカワケン","city":"河北郡津幡町","city_kana":"カホクグンツバタマチ","town":"中山","town_kana":"ナカヤマ","prefecture_code":17},"0319":{"zip_code":"9290319","prefecture":"石川県","prefecture_kana":"イシカワケン","city":"河北郡津幡町","city_kana":"カホクグンツバタマチ","town":"能瀬","town_kana":"ノセ","prefecture_code":17},"0461":{"zip_code":"9290461","prefecture":"石川県","prefecture_kana":"イシカワケン","city":"河北郡津幡町","city_kana":"カホクグンツバタマチ","town":"八ノ谷","town_kana":"ハチノタニ","prefecture_code":17},"0421":{"zip_code":"9290421","prefecture":"石川県","prefecture_kana":"イシカワケン","city":"河北郡津幡町","city_kana":"カホクグンツバタマチ","town":"原","town_kana":"ハラ","prefecture_code":17},"0441":{"zip_code":"9290441","prefecture":"石川県","prefecture_kana":"イシカワケン","city":"河北郡津幡町","city_kana":"カホクグンツバタマチ","town":"東荒屋","town_kana":"ヒガシアラヤ","prefecture_code":17},"0401":{"zip_code":"9290401","prefecture":"石川県","prefecture_kana":"イシカワケン","city":"河北郡津幡町","city_kana":"カホクグンツバタマチ","town":"彦太郎畠","town_kana":"ヒコタロウバタケ","prefecture_code":17},"0443":{"zip_code":"9290443","prefecture":"石川県","prefecture_kana":"イシカワケン","city":"河北郡津幡町","city_kana":"カホクグンツバタマチ","town":"別所","town_kana":"ベッショ","prefecture_code":17},"0308":{"zip_code":"9290308","prefecture":"石川県","prefecture_kana":"イシカワケン","city":"河北郡津幡町","city_kana":"カホクグンツバタマチ","town":"菩提寺","town_kana":"ボダイジ","prefecture_code":17},"0316":{"zip_code":"9290316","prefecture":"石川県","prefecture_kana":"イシカワケン","city":"河北郡津幡町","city_kana":"カホクグンツバタマチ","town":"御門","town_kana":"ミカド","prefecture_code":17},"0322":{"zip_code":"9290322","prefecture":"石川県","prefecture_kana":"イシカワケン","city":"河北郡津幡町","city_kana":"カホクグンツバタマチ","town":"緑が丘","town_kana":"ミドリガオカ","prefecture_code":17},"0343":{"zip_code":"9290343","prefecture":"石川県","prefecture_kana":"イシカワケン","city":"河北郡津幡町","city_kana":"カホクグンツバタマチ","town":"南中条","town_kana":"ミナミチュウジョウ","prefecture_code":17},"0433":{"zip_code":"9290433","prefecture":"石川県","prefecture_kana":"イシカワケン","city":"河北郡津幡町","city_kana":"カホクグンツバタマチ","town":"南横根","town_kana":"ミナミヨコネ","prefecture_code":17},"0451":{"zip_code":"9290451","prefecture":"石川県","prefecture_kana":"イシカワケン","city":"河北郡津幡町","city_kana":"カホクグンツバタマチ","town":"宮田","town_kana":"ミヤダ","prefecture_code":17},"0446":{"zip_code":"9290446","prefecture":"石川県","prefecture_kana":"イシカワケン","city":"河北郡津幡町","city_kana":"カホクグンツバタマチ","town":"明神","town_kana":"ミョウジン","prefecture_code":17},"0317":{"zip_code":"9290317","prefecture":"石川県","prefecture_kana":"イシカワケン","city":"河北郡津幡町","city_kana":"カホクグンツバタマチ","town":"谷内","town_kana":"ヤチ","prefecture_code":17},"0414":{"zip_code":"9290414","prefecture":"石川県","prefecture_kana":"イシカワケン","city":"河北郡津幡町","city_kana":"カホクグンツバタマチ","town":"山森","town_kana":"ヤマモリ","prefecture_code":17},"0464":{"zip_code":"9290464","prefecture":"石川県","prefecture_kana":"イシカワケン","city":"河北郡津幡町","city_kana":"カホクグンツバタマチ","town":"山北","town_kana":"ヤマキタ","prefecture_code":17},"0341":{"zip_code":"9290341","prefecture":"石川県","prefecture_kana":"イシカワケン","city":"河北郡津幡町","city_kana":"カホクグンツバタマチ","town":"横浜","town_kana":"ヨコハマ","prefecture_code":17},"0466":{"zip_code":"9290466","prefecture":"石川県","prefecture_kana":"イシカワケン","city":"河北郡津幡町","city_kana":"カホクグンツバタマチ","town":"吉倉","town_kana":"ヨシクラ","prefecture_code":17},"0318":{"zip_code":"9290318","prefecture":"石川県","prefecture_kana":"イシカワケン","city":"河北郡津幡町","city_kana":"カホクグンツバタマチ","town":"領家","town_kana":"リョウケ","prefecture_code":17},"0463":{"zip_code":"9290463","prefecture":"石川県","prefecture_kana":"イシカワケン","city":"河北郡津幡町","city_kana":"カホクグンツバタマチ","town":"蓮花寺","town_kana":"レンゲジ","prefecture_code":17},"1300":{"zip_code":"9291300","prefecture":"石川県","prefecture_kana":"イシカワケン","city":"羽咋郡宝達志水町","city_kana":"ハクイグンホウダツシミズチョウ","town":"以下に掲載がない場合","town_kana":"イカニケイサイガナイバアイ","prefecture_code":17},"1313":{"zip_code":"9291313","prefecture":"石川県","prefecture_kana":"イシカワケン","city":"羽咋郡宝達志水町","city_kana":"ハクイグンホウダツシミズチョウ","town":"東間","town_kana":"アズマ","prefecture_code":17},"1406":[{"zip_code":"9291406","prefecture":"石川県","prefecture_kana":"イシカワケン","city":"羽咋郡宝達志水町","city_kana":"ハクイグンホウダツシミズチョウ","town":"石坂","town_kana":"イシサカ","prefecture_code":17},{"zip_code":"9291406","prefecture":"石川県","prefecture_kana":"イシカワケン","city":"羽咋郡宝達志水町","city_kana":"ハクイグンホウダツシミズチョウ","town":"下石","town_kana":"サガリシ","prefecture_code":17},{"zip_code":"9291406","prefecture":"石川県","prefecture_kana":"イシカワケン","city":"羽咋郡宝達志水町","city_kana":"ハクイグンホウダツシミズチョウ","town":"散田","town_kana":"サンデン","prefecture_code":17}],"1344":{"zip_code":"9291344","prefecture":"石川県","prefecture_kana":"イシカワケン","city":"羽咋郡宝達志水町","city_kana":"ハクイグンホウダツシミズチョウ","town":"今浜","town_kana":"イマハマ","prefecture_code":17},"1345":{"zip_code":"9291345","prefecture":"石川県","prefecture_kana":"イシカワケン","city":"羽咋郡宝達志水町","city_kana":"ハクイグンホウダツシミズチョウ","town":"今浜新","town_kana":"イマハマシン","prefecture_code":17},"1312":{"zip_code":"9291312","prefecture":"石川県","prefecture_kana":"イシカワケン","city":"羽咋郡宝達志水町","city_kana":"ハクイグンホウダツシミズチョウ","town":"上田","town_kana":"ウワダ","prefecture_code":17},"1321":{"zip_code":"9291321","prefecture":"石川県","prefecture_kana":"イシカワケン","city":"羽咋郡宝達志水町","city_kana":"ハクイグンホウダツシミズチョウ","town":"上田出","town_kana":"ウワダデ","prefecture_code":17},"1405":[{"zip_code":"9291405","prefecture":"石川県","prefecture_kana":"イシカワケン","city":"羽咋郡宝達志水町","city_kana":"ハクイグンホウダツシミズチョウ","town":"海老坂","town_kana":"エビサカ","prefecture_code":17},{"zip_code":"9291405","prefecture":"石川県","prefecture_kana":"イシカワケン","city":"羽咋郡宝達志水町","city_kana":"ハクイグンホウダツシミズチョウ","town":"針山","town_kana":"ハリヤマ","prefecture_code":17},{"zip_code":"9291405","prefecture":"石川県","prefecture_kana":"イシカワケン","city":"羽咋郡宝達志水町","city_kana":"ハクイグンホウダツシミズチョウ","town":"聖川","town_kana":"ヒジリカワ","prefecture_code":17},{"zip_code":"9291405","prefecture":"石川県","prefecture_kana":"イシカワケン","city":"羽咋郡宝達志水町","city_kana":"ハクイグンホウダツシミズチョウ","town":"平床","town_kana":"ヒラトコ","prefecture_code":17}],"1343":{"zip_code":"9291343","prefecture":"石川県","prefecture_kana":"イシカワケン","city":"羽咋郡宝達志水町","city_kana":"ハクイグンホウダツシミズチョウ","town":"小川","town_kana":"オガワ","prefecture_code":17},"1426":{"zip_code":"9291426","prefecture":"石川県","prefecture_kana":"イシカワケン","city":"羽咋郡宝達志水町","city_kana":"ハクイグンホウダツシミズチョウ","town":"荻市","town_kana":"オギチ","prefecture_code":17},"1412":{"zip_code":"9291412","prefecture":"石川県","prefecture_kana":"イシカワケン","city":"羽咋郡宝達志水町","city_kana":"ハクイグンホウダツシミズチョウ","town":"荻島","town_kana":"オギノシマ","prefecture_code":17},"1413":{"zip_code":"9291413","prefecture":"石川県","prefecture_kana":"イシカワケン","city":"羽咋郡宝達志水町","city_kana":"ハクイグンホウダツシミズチョウ","town":"荻谷","town_kana":"オギノヤチ","prefecture_code":17},"1323":{"zip_code":"9291323","prefecture":"石川県","prefecture_kana":"イシカワケン","city":"羽咋郡宝達志水町","city_kana":"ハクイグンホウダツシミズチョウ","town":"御舘","town_kana":"オタチ","prefecture_code":17},"1303":{"zip_code":"9291303","prefecture":"石川県","prefecture_kana":"イシカワケン","city":"羽咋郡宝達志水町","city_kana":"ハクイグンホウダツシミズチョウ","town":"河原","town_kana":"カワラ","prefecture_code":17},"1332":{"zip_code":"9291332","prefecture":"石川県","prefecture_kana":"イシカワケン","city":"羽咋郡宝達志水町","city_kana":"ハクイグンホウダツシミズチョウ","town":"北川尻","town_kana":"キタカワシリ","prefecture_code":17},"1331":{"zip_code":"9291331","prefecture":"石川県","prefecture_kana":"イシカワケン","city":"羽咋郡宝達志水町","city_kana":"ハクイグンホウダツシミズチョウ","town":"米出","town_kana":"コメダシ","prefecture_code":17},"1314":{"zip_code":"9291314","prefecture":"石川県","prefecture_kana":"イシカワケン","city":"羽咋郡宝達志水町","city_kana":"ハクイグンホウダツシミズチョウ","town":"紺屋町","town_kana":"コンヤマチ","prefecture_code":17},"1425":{"zip_code":"9291425","prefecture":"石川県","prefecture_kana":"イシカワケン","city":"羽咋郡宝達志水町","city_kana":"ハクイグンホウダツシミズチョウ","town":"子浦","town_kana":"シオ","prefecture_code":17},"1414":{"zip_code":"9291414","prefecture":"石川県","prefecture_kana":"イシカワケン","city":"羽咋郡宝達志水町","city_kana":"ハクイグンホウダツシミズチョウ","town":"敷波","town_kana":"シキナミ","prefecture_code":17},"1415":{"zip_code":"9291415","prefecture":"石川県","prefecture_kana":"イシカワケン","city":"羽咋郡宝達志水町","city_kana":"ハクイグンホウダツシミズチョウ","town":"敷浪","town_kana":"シキナミ","prefecture_code":17},"1402":[{"zip_code":"9291402","prefecture":"石川県","prefecture_kana":"イシカワケン","city":"羽咋郡宝達志水町","city_kana":"ハクイグンホウダツシミズチョウ","town":"清水原","town_kana":"シミズバラ","prefecture_code":17},{"zip_code":"9291402","prefecture":"石川県","prefecture_kana":"イシカワケン","city":"羽咋郡宝達志水町","city_kana":"ハクイグンホウダツシミズチョウ","town":"走入","town_kana":"ハシリ","prefecture_code":17},{"zip_code":"9291402","prefecture":"石川県","prefecture_kana":"イシカワケン","city":"羽咋郡宝達志水町","city_kana":"ハクイグンホウダツシミズチョウ","town":"見砂","town_kana":"ミサゴ","prefecture_code":17}],"1341":{"zip_code":"9291341","prefecture":"石川県","prefecture_kana":"イシカワケン","city":"羽咋郡宝達志水町","city_kana":"ハクイグンホウダツシミズチョウ","town":"宿","town_kana":"シュク","prefecture_code":17},"1403":{"zip_code":"9291403","prefecture":"石川県","prefecture_kana":"イシカワケン","city":"羽咋郡宝達志水町","city_kana":"ハクイグンホウダツシミズチョウ","town":"所司原","town_kana":"ショシハラ","prefecture_code":17},"1404":[{"zip_code":"9291404","prefecture":"石川県","prefecture_kana":"イシカワケン","city":"羽咋郡宝達志水町","city_kana":"ハクイグンホウダツシミズチョウ","town":"新宮","town_kana":"シングウ","prefecture_code":17},{"zip_code":"9291404","prefecture":"石川県","prefecture_kana":"イシカワケン","city":"羽咋郡宝達志水町","city_kana":"ハクイグンホウダツシミズチョウ","town":"当熊","town_kana":"トウノクマ","prefecture_code":17},{"zip_code":"9291404","prefecture":"石川県","prefecture_kana":"イシカワケン","city":"羽咋郡宝達志水町","city_kana":"ハクイグンホウダツシミズチョウ","town":"原","town_kana":"ハラ","prefecture_code":17}],"1423":{"zip_code":"9291423","prefecture":"石川県","prefecture_kana":"イシカワケン","city":"羽咋郡宝達志水町","city_kana":"ハクイグンホウダツシミズチョウ","town":"菅原","town_kana":"スガハラ","prefecture_code":17},"1422":{"zip_code":"9291422","prefecture":"石川県","prefecture_kana":"イシカワケン","city":"羽咋郡宝達志水町","city_kana":"ハクイグンホウダツシミズチョウ","town":"杉野屋","town_kana":"スギノヤ","prefecture_code":17},"1305":{"zip_code":"9291305","prefecture":"石川県","prefecture_kana":"イシカワケン","city":"羽咋郡宝達志水町","city_kana":"ハクイグンホウダツシミズチョウ","town":"竹生野","town_kana":"タコノ","prefecture_code":17},"1325":{"zip_code":"9291325","prefecture":"石川県","prefecture_kana":"イシカワケン","city":"羽咋郡宝達志水町","city_kana":"ハクイグンホウダツシミズチョウ","town":"坪山","town_kana":"ツボヤマ","prefecture_code":17},"1416":{"zip_code":"9291416","prefecture":"石川県","prefecture_kana":"イシカワケン","city":"羽咋郡宝達志水町","city_kana":"ハクイグンホウダツシミズチョウ","town":"出浜","town_kana":"デハマ","prefecture_code":17},"1316":{"zip_code":"9291316","prefecture":"石川県","prefecture_kana":"イシカワケン","city":"羽咋郡宝達志水町","city_kana":"ハクイグンホウダツシミズチョウ","town":"中野","town_kana":"ナカノ","prefecture_code":17},"1315":{"zip_code":"9291315","prefecture":"石川県","prefecture_kana":"イシカワケン","city":"羽咋郡宝達志水町","city_kana":"ハクイグンホウダツシミズチョウ","town":"東野","town_kana":"ヒガシノ","prefecture_code":17},"1421":{"zip_code":"9291421","prefecture":"石川県","prefecture_kana":"イシカワケン","city":"羽咋郡宝達志水町","city_kana":"ハクイグンホウダツシミズチョウ","town":"二口","town_kana":"フタクチ","prefecture_code":17},"1326":{"zip_code":"9291326","prefecture":"石川県","prefecture_kana":"イシカワケン","city":"羽咋郡宝達志水町","city_kana":"ハクイグンホウダツシミズチョウ","town":"冬野","town_kana":"フユノ","prefecture_code":17},"1301":{"zip_code":"9291301","prefecture":"石川県","prefecture_kana":"イシカワケン","city":"羽咋郡宝達志水町","city_kana":"ハクイグンホウダツシミズチョウ","town":"宝達","town_kana":"ホウダツ","prefecture_code":17},"1324":{"zip_code":"9291324","prefecture":"石川県","prefecture_kana":"イシカワケン","city":"羽咋郡宝達志水町","city_kana":"ハクイグンホウダツシミズチョウ","town":"正友","town_kana":"マサトモ","prefecture_code":17},"1322":{"zip_code":"9291322","prefecture":"石川県","prefecture_kana":"イシカワケン","city":"羽咋郡宝達志水町","city_kana":"ハクイグンホウダツシミズチョウ","town":"三日町","town_kana":"ミッカマチ","prefecture_code":17},"1304":{"zip_code":"9291304","prefecture":"石川県","prefecture_kana":"イシカワケン","city":"羽咋郡宝達志水町","city_kana":"ハクイグンホウダツシミズチョウ","town":"南吉田","town_kana":"ミナミヨシタ","prefecture_code":17},"1342":{"zip_code":"9291342","prefecture":"石川県","prefecture_kana":"イシカワケン","city":"羽咋郡宝達志水町","city_kana":"ハクイグンホウダツシミズチョウ","town":"麦生","town_kana":"ムギウ","prefecture_code":17},"1401":{"zip_code":"9291401","prefecture":"石川県","prefecture_kana":"イシカワケン","city":"羽咋郡宝達志水町","city_kana":"ハクイグンホウダツシミズチョウ","town":"向瀬","town_kana":"ムコセ","prefecture_code":17},"1333":{"zip_code":"9291333","prefecture":"石川県","prefecture_kana":"イシカワケン","city":"羽咋郡宝達志水町","city_kana":"ハクイグンホウダツシミズチョウ","town":"免田","town_kana":"メンデン","prefecture_code":17},"1327":{"zip_code":"9291327","prefecture":"石川県","prefecture_kana":"イシカワケン","city":"羽咋郡宝達志水町","city_kana":"ハクイグンホウダツシミズチョウ","town":"森本","town_kana":"モリモト","prefecture_code":17},"1311":{"zip_code":"9291311","prefecture":"石川県","prefecture_kana":"イシカワケン","city":"羽咋郡宝達志水町","city_kana":"ハクイグンホウダツシミズチョウ","town":"門前","town_kana":"モンゼン","prefecture_code":17},"1411":{"zip_code":"9291411","prefecture":"石川県","prefecture_kana":"イシカワケン","city":"羽咋郡宝達志水町","city_kana":"ハクイグンホウダツシミズチョウ","town":"柳瀬","town_kana":"ヤナセ","prefecture_code":17},"1302":{"zip_code":"9291302","prefecture":"石川県","prefecture_kana":"イシカワケン","city":"羽咋郡宝達志水町","city_kana":"ハクイグンホウダツシミズチョウ","town":"山崎","town_kana":"ヤマザキ","prefecture_code":17},"1424":{"zip_code":"9291424","prefecture":"石川県","prefecture_kana":"イシカワケン","city":"羽咋郡宝達志水町","city_kana":"ハクイグンホウダツシミズチョウ","town":"吉野屋","town_kana":"ヨシノヤ","prefecture_code":17},"1700":{"zip_code":"9291700","prefecture":"石川県","prefecture_kana":"イシカワケン","city":"鹿島郡中能登町","city_kana":"カシマグンナカノトマチ","town":"以下に掲載がない場合","town_kana":"イカニケイサイガナイバアイ","prefecture_code":17},"1816":{"zip_code":"9291816","prefecture":"石川県","prefecture_kana":"イシカワケン","city":"鹿島郡中能登町","city_kana":"カシマグンナカノトマチ","town":"浅井","town_kana":"アサイ","prefecture_code":17},"1813":{"zip_code":"9291813","prefecture":"石川県","prefecture_kana":"イシカワケン","city":"鹿島郡中能登町","city_kana":"カシマグンナカノトマチ","town":"蟻ケ原","town_kana":"アリガハラ","prefecture_code":17},"1804":{"zip_code":"9291804","prefecture":"石川県","prefecture_kana":"イシカワケン","city":"鹿島郡中能登町","city_kana":"カシマグンナカノトマチ","town":"在江","town_kana":"アルエ","prefecture_code":17},"1721":{"zip_code":"9291721","prefecture":"石川県","prefecture_kana":"イシカワケン","city":"鹿島郡中能登町","city_kana":"カシマグンナカノトマチ","town":"井田","town_kana":"イダ","prefecture_code":17},"1713":{"zip_code":"9291713","prefecture":"石川県","prefecture_kana":"イシカワケン","city":"鹿島郡中能登町","city_kana":"カシマグンナカノトマチ","town":"今羽坂","town_kana":"イマハザカ","prefecture_code":17},"1702":{"zip_code":"9291702","prefecture":"石川県","prefecture_kana":"イシカワケン","city":"鹿島郡中能登町","city_kana":"カシマグンナカノトマチ","town":"大槻","town_kana":"オオヅキ","prefecture_code":17},"1724":{"zip_code":"9291724","prefecture":"石川県","prefecture_kana":"イシカワケン","city":"鹿島郡中能登町","city_kana":"カシマグンナカノトマチ","town":"尾崎","town_kana":"オサキ","prefecture_code":17},"1722":{"zip_code":"9291722","prefecture":"石川県","prefecture_kana":"イシカワケン","city":"鹿島郡中能登町","city_kana":"カシマグンナカノトマチ","town":"小竹","town_kana":"オダケ","prefecture_code":17},"1521":{"zip_code":"9291521","prefecture":"石川県","prefecture_kana":"イシカワケン","city":"鹿島郡中能登町","city_kana":"カシマグンナカノトマチ","town":"金丸","town_kana":"カネマル","prefecture_code":17},"1606":{"zip_code":"9291606","prefecture":"石川県","prefecture_kana":"イシカワケン","city":"鹿島郡中能登町","city_kana":"カシマグンナカノトマチ","town":"上後山","town_kana":"カミウシロヤマ","prefecture_code":17},"1701":{"zip_code":"9291701","prefecture":"石川県","prefecture_kana":"イシカワケン","city":"鹿島郡中能登町","city_kana":"カシマグンナカノトマチ","town":"川田","town_kana":"カワダ","prefecture_code":17},"1631":{"zip_code":"9291631","prefecture":"石川県","prefecture_kana":"イシカワケン","city":"鹿島郡中能登町","city_kana":"カシマグンナカノトマチ","town":"久江","town_kana":"クエ","prefecture_code":17},"1801":{"zip_code":"9291801","prefecture":"石川県","prefecture_kana":"イシカワケン","city":"鹿島郡中能登町","city_kana":"カシマグンナカノトマチ","town":"久乃木","town_kana":"クノギ","prefecture_code":17},"1716":{"zip_code":"9291716","prefecture":"石川県","prefecture_kana":"イシカワケン","city":"鹿島郡中能登町","city_kana":"カシマグンナカノトマチ","town":"黒氏","town_kana":"クロジ","prefecture_code":17},"1636":{"zip_code":"9291636","prefecture":"石川県","prefecture_kana":"イシカワケン","city":"鹿島郡中能登町","city_kana":"カシマグンナカノトマチ","town":"小金森","town_kana":"コガネモリ","prefecture_code":17},"1632":{"zip_code":"9291632","prefecture":"石川県","prefecture_kana":"イシカワケン","city":"鹿島郡中能登町","city_kana":"カシマグンナカノトマチ","town":"小田中","town_kana":"コダナカ","prefecture_code":17},"1726":{"zip_code":"9291726","prefecture":"石川県","prefecture_kana":"イシカワケン","city":"鹿島郡中能登町","city_kana":"カシマグンナカノトマチ","town":"最勝講","town_kana":"サイスコ","prefecture_code":17},"1605":{"zip_code":"9291605","prefecture":"石川県","prefecture_kana":"イシカワケン","city":"鹿島郡中能登町","city_kana":"カシマグンナカノトマチ","town":"下後山","town_kana":"シモウシロヤマ","prefecture_code":17},"1712":{"zip_code":"9291712","prefecture":"石川県","prefecture_kana":"イシカワケン","city":"鹿島郡中能登町","city_kana":"カシマグンナカノトマチ","town":"新庄","town_kana":"シンジョウ","prefecture_code":17},"1704":{"zip_code":"9291704","prefecture":"石川県","prefecture_kana":"イシカワケン","city":"鹿島郡中能登町","city_kana":"カシマグンナカノトマチ","town":"末坂","town_kana":"スエザカ","prefecture_code":17},"1812":{"zip_code":"9291812","prefecture":"石川県","prefecture_kana":"イシカワケン","city":"鹿島郡中能登町","city_kana":"カシマグンナカノトマチ","town":"石動山","town_kana":"セキドウサン","prefecture_code":17},"1706":{"zip_code":"9291706","prefecture":"石川県","prefecture_kana":"イシカワケン","city":"鹿島郡中能登町","city_kana":"カシマグンナカノトマチ","town":"瀬戸","town_kana":"セト","prefecture_code":17},"1815":{"zip_code":"9291815","prefecture":"石川県","prefecture_kana":"イシカワケン","city":"鹿島郡中能登町","city_kana":"カシマグンナカノトマチ","town":"芹川","town_kana":"セリカワ","prefecture_code":17},"1637":{"zip_code":"9291637","prefecture":"石川県","prefecture_kana":"イシカワケン","city":"鹿島郡中能登町","city_kana":"カシマグンナカノトマチ","town":"曽祢","town_kana":"ソネ","prefecture_code":17},"1635":{"zip_code":"9291635","prefecture":"石川県","prefecture_kana":"イシカワケン","city":"鹿島郡中能登町","city_kana":"カシマグンナカノトマチ","town":"高畠","town_kana":"タカバタケ","prefecture_code":17},"1802":{"zip_code":"9291802","prefecture":"石川県","prefecture_kana":"イシカワケン","city":"鹿島郡中能登町","city_kana":"カシマグンナカノトマチ","town":"武部","town_kana":"タケベ","prefecture_code":17},"1805":{"zip_code":"9291805","prefecture":"石川県","prefecture_kana":"イシカワケン","city":"鹿島郡中能登町","city_kana":"カシマグンナカノトマチ","town":"坪川","town_kana":"ツボカワ","prefecture_code":17},"1817":{"zip_code":"9291817","prefecture":"石川県","prefecture_kana":"イシカワケン","city":"鹿島郡中能登町","city_kana":"カシマグンナカノトマチ","town":"徳前","town_kana":"トクゼン","prefecture_code":17},"1603":{"zip_code":"9291603","prefecture":"石川県","prefecture_kana":"イシカワケン","city":"鹿島郡中能登町","city_kana":"カシマグンナカノトマチ","town":"徳丸","town_kana":"トクマル","prefecture_code":17},"1803":{"zip_code":"9291803","prefecture":"石川県","prefecture_kana":"イシカワケン","city":"鹿島郡中能登町","city_kana":"カシマグンナカノトマチ","town":"西","town_kana":"ニシ","prefecture_code":17},"1601":{"zip_code":"9291601","prefecture":"石川県","prefecture_kana":"イシカワケン","city":"鹿島郡中能登町","city_kana":"カシマグンナカノトマチ","town":"西馬場","town_kana":"ニシババ","prefecture_code":17},"1811":{"zip_code":"9291811","prefecture":"石川県","prefecture_kana":"イシカワケン","city":"鹿島郡中能登町","city_kana":"カシマグンナカノトマチ","town":"二宮","town_kana":"ニノミヤ","prefecture_code":17},"1818":{"zip_code":"9291818","prefecture":"石川県","prefecture_kana":"イシカワケン","city":"鹿島郡中能登町","city_kana":"カシマグンナカノトマチ","town":"二宮あおば台","town_kana":"ニノミヤアオバダイ","prefecture_code":17},"1602":{"zip_code":"9291602","prefecture":"石川県","prefecture_kana":"イシカワケン","city":"鹿島郡中能登町","city_kana":"カシマグンナカノトマチ","town":"能登部上","town_kana":"ノトベカミ","prefecture_code":17},"1604":{"zip_code":"9291604","prefecture":"石川県","prefecture_kana":"イシカワケン","city":"鹿島郡中能登町","city_kana":"カシマグンナカノトマチ","town":"能登部下","town_kana":"ノトベシモ","prefecture_code":17},"1714":{"zip_code":"9291714","prefecture":"石川県","prefecture_kana":"イシカワケン","city":"鹿島郡中能登町","city_kana":"カシマグンナカノトマチ","town":"羽坂","town_kana":"ハザカ","prefecture_code":17},"1705":{"zip_code":"9291705","prefecture":"石川県","prefecture_kana":"イシカワケン","city":"鹿島郡中能登町","city_kana":"カシマグンナカノトマチ","town":"花見月","town_kana":"ハナミツキ","prefecture_code":17},"1814":{"zip_code":"9291814","prefecture":"石川県","prefecture_kana":"イシカワケン","city":"鹿島郡中能登町","city_kana":"カシマグンナカノトマチ","town":"原山","town_kana":"ハラヤマ","prefecture_code":17},"1703":{"zip_code":"9291703","prefecture":"石川県","prefecture_kana":"イシカワケン","city":"鹿島郡中能登町","city_kana":"カシマグンナカノトマチ","town":"春木","town_kana":"ハルキ","prefecture_code":17},"1725":{"zip_code":"9291725","prefecture":"石川県","prefecture_kana":"イシカワケン","city":"鹿島郡中能登町","city_kana":"カシマグンナカノトマチ","town":"東馬場","town_kana":"ヒガシババ","prefecture_code":17},"1711":{"zip_code":"9291711","prefecture":"石川県","prefecture_kana":"イシカワケン","city":"鹿島郡中能登町","city_kana":"カシマグンナカノトマチ","town":"廿九日","town_kana":"ヒズメ","prefecture_code":17},"1715":{"zip_code":"9291715","prefecture":"石川県","prefecture_kana":"イシカワケン","city":"鹿島郡中能登町","city_kana":"カシマグンナカノトマチ","town":"一青","town_kana":"ヒトト","prefecture_code":17},"1634":{"zip_code":"9291634","prefecture":"石川県","prefecture_kana":"イシカワケン","city":"鹿島郡中能登町","city_kana":"カシマグンナカノトマチ","town":"福田","town_kana":"フクダ","prefecture_code":17},"1633":{"zip_code":"9291633","prefecture":"石川県","prefecture_kana":"イシカワケン","city":"鹿島郡中能登町","city_kana":"カシマグンナカノトマチ","town":"藤井","town_kana":"フジイ","prefecture_code":17},"1723":{"zip_code":"9291723","prefecture":"石川県","prefecture_kana":"イシカワケン","city":"鹿島郡中能登町","city_kana":"カシマグンナカノトマチ","town":"水白","town_kana":"ミジロ","prefecture_code":17},"1717":{"zip_code":"9291717","prefecture":"石川県","prefecture_kana":"イシカワケン","city":"鹿島郡中能登町","city_kana":"カシマグンナカノトマチ","town":"良川","town_kana":"ヨシカワ","prefecture_code":17}}