{"0075":{"zip_code":"9300075","prefecture":"富山県","prefecture_kana":"トヤマケン","city":"富山市","city_kana":"トヤマシ","town":"相生町","town_kana":"アイオイチョウ","prefecture_code":16},"0845":{"zip_code":"9300845","prefecture":"富山県","prefecture_kana":"トヤマケン","city":"富山市","city_kana":"トヤマシ","town":"綾田町","town_kana":"アイデンマチ","prefecture_code":16},"0855":{"zip_code":"9300855","prefecture":"富山県","prefecture_kana":"トヤマケン","city":"富山市","city_kana":"トヤマシ","town":"赤江町","town_kana":"アカエマチ","prefecture_code":16},"0953":{"zip_code":"9300953","prefecture":"富山県","prefecture_kana":"トヤマケン","city":"富山市","city_kana":"トヤマシ","town":"秋吉","town_kana":"アキヨシ","prefecture_code":16},"0954":{"zip_code":"9300954","prefecture":"富山県","prefecture_kana":"トヤマケン","city":"富山市","city_kana":"トヤマシ","town":"秋吉新町","town_kana":"アキヨシシンマチ","prefecture_code":16},"0847":{"zip_code":"9300847","prefecture":"富山県","prefecture_kana":"トヤマケン","city":"富山市","city_kana":"トヤマシ","town":"曙町","town_kana":"アケボノチョウ","prefecture_code":16},"0931":{"zip_code":"9300931","prefecture":"富山県","prefecture_kana":"トヤマケン","city":"富山市","city_kana":"トヤマシ","town":"朝日","town_kana":"アサヒ","prefecture_code":16},"0094":{"zip_code":"9300094","prefecture":"富山県","prefecture_kana":"トヤマケン","city":"富山市","city_kana":"トヤマシ","town":"安住町","town_kana":"アズミチョウ","prefecture_code":16},"0091":{"zip_code":"9300091","prefecture":"富山県","prefecture_kana":"トヤマケン","city":"富山市","city_kana":"トヤマシ","town":"愛宕町","town_kana":"アタゴマチ","prefecture_code":16},"0982":{"zip_code":"9300982","prefecture":"富山県","prefecture_kana":"トヤマケン","city":"富山市","city_kana":"トヤマシ","town":"荒川","town_kana":"アラカワ","prefecture_code":16},"0984":{"zip_code":"9300984","prefecture":"富山県","prefecture_kana":"トヤマケン","city":"富山市","city_kana":"トヤマシ","town":"荒川新町","town_kana":"アラカワシンマチ","prefecture_code":16},"0983":[{"zip_code":"9300983","prefecture":"富山県","prefecture_kana":"トヤマケン","city":"富山市","city_kana":"トヤマシ","town":"荒川常盤台","town_kana":"アラカワトキワダイ","prefecture_code":16},{"zip_code":"9300983","prefecture":"富山県","prefecture_kana":"トヤマケン","city":"富山市","city_kana":"トヤマシ","town":"常盤台","town_kana":"トキワダイ","prefecture_code":16}],"0028":{"zip_code":"9300028","prefecture":"富山県","prefecture_kana":"トヤマケン","city":"富山市","city_kana":"トヤマシ","town":"荒町","town_kana":"アラマチ","prefecture_code":16},"1321":[{"zip_code":"9301321","prefecture":"富山県","prefecture_kana":"トヤマケン","city":"富山市","city_kana":"トヤマシ","town":"新町","town_kana":"アラマチ","prefecture_code":16},{"zip_code":"9301321","prefecture":"富山県","prefecture_kana":"トヤマケン","city":"富山市","city_kana":"トヤマシ","town":"大山上野","town_kana":"オオヤマウワノ","prefecture_code":16}],"0822":{"zip_code":"9300822","prefecture":"富山県","prefecture_kana":"トヤマケン","city":"富山市","city_kana":"トヤマシ","town":"新屋","town_kana":"アラヤ","prefecture_code":16},"0823":{"zip_code":"9300823","prefecture":"富山県","prefecture_kana":"トヤマケン","city":"富山市","city_kana":"トヤマシ","town":"新屋新町","town_kana":"アラヤシンマチ","prefecture_code":16},"0863":{"zip_code":"9300863","prefecture":"富山県","prefecture_kana":"トヤマケン","city":"富山市","city_kana":"トヤマシ","town":"有明町","town_kana":"アリアケチョウ","prefecture_code":16},"0862":{"zip_code":"9300862","prefecture":"富山県","prefecture_kana":"トヤマケン","city":"富山市","city_kana":"トヤマシ","town":"有沢","town_kana":"アリサワ","prefecture_code":16},"0861":{"zip_code":"9300861","prefecture":"富山県","prefecture_kana":"トヤマケン","city":"富山市","city_kana":"トヤマシ","town":"有沢新町","town_kana":"アリサワシンマチ","prefecture_code":16},"1458":{"zip_code":"9301458","prefecture":"富山県","prefecture_kana":"トヤマケン","city":"富山市","city_kana":"トヤマシ","town":"有峰","town_kana":"アリミネ","prefecture_code":16},"1457":[{"zip_code":"9301457","prefecture":"富山県","prefecture_kana":"トヤマケン","city":"富山市","city_kana":"トヤマシ","town":"有峰","town_kana":"アリミネ","prefecture_code":16},{"zip_code":"9301457","prefecture":"富山県","prefecture_kana":"トヤマケン","city":"富山市","city_kana":"トヤマシ","town":"有峰太郎平","town_kana":"アリミネタロウダイラ","prefecture_code":16}],"0881":{"zip_code":"9300881","prefecture":"富山県","prefecture_kana":"トヤマケン","city":"富山市","city_kana":"トヤマシ","town":"安養坊","town_kana":"アンヨウボウ","prefecture_code":16},"0821":{"zip_code":"9300821","prefecture":"富山県","prefecture_kana":"トヤマケン","city":"富山市","city_kana":"トヤマシ","town":"飯野","town_kana":"イイノ","prefecture_code":16},"0158":{"zip_code":"9300158","prefecture":"富山県","prefecture_kana":"トヤマケン","city":"富山市","city_kana":"トヤマシ","town":"池多","town_kana":"イケダ","prefecture_code":16},"0966":{"zip_code":"9300966","prefecture":"富山県","prefecture_kana":"トヤマケン","city":"富山市","city_kana":"トヤマシ","town":"石金","town_kana":"イシガネ","prefecture_code":16},"0043":{"zip_code":"9300043","prefecture":"富山県","prefecture_kana":"トヤマケン","city":"富山市","city_kana":"トヤマシ","town":"石倉町","town_kana":"イシクラマチ","prefecture_code":16},"0892":{"zip_code":"9300892","prefecture":"富山県","prefecture_kana":"トヤマケン","city":"富山市","city_kana":"トヤマシ","town":"石坂","town_kana":"イシサカ","prefecture_code":16},"0891":{"zip_code":"9300891","prefecture":"富山県","prefecture_kana":"トヤマケン","city":"富山市","city_kana":"トヤマシ","town":"石坂新","town_kana":"イシサカシン","prefecture_code":16},"0893":{"zip_code":"9300893","prefecture":"富山県","prefecture_kana":"トヤマケン","city":"富山市","city_kana":"トヤマシ","town":"石坂東町","town_kana":"イシサカヒガシマチ","prefecture_code":16},"1271":{"zip_code":"9301271","prefecture":"富山県","prefecture_kana":"トヤマケン","city":"富山市","city_kana":"トヤマシ","town":"石渕","town_kana":"イシブチ","prefecture_code":16},"0042":{"zip_code":"9300042","prefecture":"富山県","prefecture_kana":"トヤマケン","city":"富山市","city_kana":"トヤマシ","town":"泉町","town_kana":"イズミチョウ","prefecture_code":16},"0077":{"zip_code":"9300077","prefecture":"富山県","prefecture_kana":"トヤマケン","city":"富山市","city_kana":"トヤマシ","town":"磯部町","town_kana":"イソベマチ","prefecture_code":16},"0061":{"zip_code":"9300061","prefecture":"富山県","prefecture_kana":"トヤマケン","city":"富山市","city_kana":"トヤマシ","town":"一番町","town_kana":"イチバンマチ","prefecture_code":16},"0904":{"zip_code":"9300904","prefecture":"富山県","prefecture_kana":"トヤマケン","city":"富山市","city_kana":"トヤマシ","town":"一本木","town_kana":"イッポンギ","prefecture_code":16},"0849":{"zip_code":"9300849","prefecture":"富山県","prefecture_kana":"トヤマケン","city":"富山市","city_kana":"トヤマシ","town":"稲荷園町","town_kana":"イナリソノマチ","prefecture_code":16},"0012":{"zip_code":"9300012","prefecture":"富山県","prefecture_kana":"トヤマケン","city":"富山市","city_kana":"トヤマシ","town":"稲荷町","town_kana":"イナリマチ","prefecture_code":16},"0010":{"zip_code":"9300010","prefecture":"富山県","prefecture_kana":"トヤマケン","city":"富山市","city_kana":"トヤマシ","town":"稲荷元町","town_kana":"イナリモトマチ","prefecture_code":16},"2221":{"zip_code":"9302221","prefecture":"富山県","prefecture_kana":"トヤマケン","city":"富山市","city_kana":"トヤマシ","town":"今市","town_kana":"イマイチ","prefecture_code":16},"0021":{"zip_code":"9300021","prefecture":"富山県","prefecture_kana":"トヤマケン","city":"富山市","city_kana":"トヤマシ","town":"今木町","town_kana":"イマギマチ","prefecture_code":16},"0856":{"zip_code":"9300856","prefecture":"富山県","prefecture_kana":"トヤマケン","city":"富山市","city_kana":"トヤマシ","town":"牛島新町","town_kana":"ウシジマシンマチ","prefecture_code":16},"0858":{"zip_code":"9300858","prefecture":"富山県","prefecture_kana":"トヤマケン","city":"富山市","city_kana":"トヤマシ","town":"牛島町","town_kana":"ウシジマチョウ","prefecture_code":16},"0859":{"zip_code":"9300859","prefecture":"富山県","prefecture_kana":"トヤマケン","city":"富山市","city_kana":"トヤマシ","town":"牛島本町","town_kana":"ウシジマホンマチ","prefecture_code":16},"2237":{"zip_code":"9302237","prefecture":"富山県","prefecture_kana":"トヤマケン","city":"富山市","city_kana":"トヤマシ","town":"打出","town_kana":"ウチイデ","prefecture_code":16},"2238":{"zip_code":"9302238","prefecture":"富山県","prefecture_kana":"トヤマケン","city":"富山市","city_kana":"トヤマシ","town":"打出新","town_kana":"ウチイデシン","prefecture_code":16},"0093":{"zip_code":"9300093","prefecture":"富山県","prefecture_kana":"トヤマケン","city":"富山市","city_kana":"トヤマシ","town":"内幸町","town_kana":"ウチサイワイチョウ","prefecture_code":16},"1284":{"zip_code":"9301284","prefecture":"富山県","prefecture_kana":"トヤマケン","city":"富山市","city_kana":"トヤマシ","town":"馬瀬","town_kana":"ウマノセ","prefecture_code":16},"0055":{"zip_code":"9300055","prefecture":"富山県","prefecture_kana":"トヤマケン","city":"富山市","city_kana":"トヤマシ","town":"梅沢町","town_kana":"ウメザワチョウ","prefecture_code":16},"0853":{"zip_code":"9300853","prefecture":"富山県","prefecture_kana":"トヤマケン","city":"富山市","city_kana":"トヤマシ","town":"永楽町","town_kana":"エイラクチョウ","prefecture_code":16},"0067":{"zip_code":"9300067","prefecture":"富山県","prefecture_kana":"トヤマケン","city":"富山市","city_kana":"トヤマシ","town":"越前町","town_kana":"エチゼンマチ","prefecture_code":16},"0914":{"zip_code":"9300914","prefecture":"富山県","prefecture_kana":"トヤマケン","city":"富山市","city_kana":"トヤマシ","town":"荏原","town_kana":"エバラ","prefecture_code":16},"0915":{"zip_code":"9300915","prefecture":"富山県","prefecture_kana":"トヤマケン","city":"富山市","city_kana":"トヤマシ","town":"荏原駅前通り","town_kana":"エバラエキマエドオリ","prefecture_code":16},"0913":{"zip_code":"9300913","prefecture":"富山県","prefecture_kana":"トヤマケン","city":"富山市","city_kana":"トヤマシ","town":"荏原新町","town_kana":"エバラシンマチ","prefecture_code":16},"0027":{"zip_code":"9300027","prefecture":"富山県","prefecture_kana":"トヤマケン","city":"富山市","city_kana":"トヤマシ","town":"蛯町","town_kana":"エビチョウ","prefecture_code":16},"0116":{"zip_code":"9300116","prefecture":"富山県","prefecture_kana":"トヤマケン","city":"富山市","city_kana":"トヤマシ","town":"追分茶屋","town_kana":"オイワケチャヤ","prefecture_code":16},"0922":{"zip_code":"9300922","prefecture":"富山県","prefecture_kana":"トヤマケン","city":"富山市","city_kana":"トヤマシ","town":"大江干","town_kana":"オオエボシ","prefecture_code":16},"0927":{"zip_code":"9300927","prefecture":"富山県","prefecture_kana":"トヤマケン","city":"富山市","city_kana":"トヤマシ","town":"大江干新町","town_kana":"オオエボシシンマチ","prefecture_code":16},"1327":{"zip_code":"9301327","prefecture":"富山県","prefecture_kana":"トヤマケン","city":"富山市","city_kana":"トヤマシ","town":"大栗","town_kana":"オオグリ","prefecture_code":16},"1275":{"zip_code":"9301275","prefecture":"富山県","prefecture_kana":"トヤマケン","city":"富山市","city_kana":"トヤマシ","town":"大清水","town_kana":"オオシミズ","prefecture_code":16},"1274":{"zip_code":"9301274","prefecture":"富山県","prefecture_kana":"トヤマケン","city":"富山市","city_kana":"トヤマシ","town":"大双嶺","town_kana":"オオゾウレイ","prefecture_code":16},"0063":{"zip_code":"9300063","prefecture":"富山県","prefecture_kana":"トヤマケン","city":"富山市","city_kana":"トヤマシ","town":"太田口通り","town_kana":"オオタグチドオリ","prefecture_code":16},"0015":{"zip_code":"9300015","prefecture":"富山県","prefecture_kana":"トヤマケン","city":"富山市","city_kana":"トヤマシ","town":"於保多町","town_kana":"オオタマチ","prefecture_code":16},"0107":[{"zip_code":"9300107","prefecture":"富山県","prefecture_kana":"トヤマケン","city":"富山市","city_kana":"トヤマシ","town":"大塚","town_kana":"オオツカ","prefecture_code":16},{"zip_code":"9300107","prefecture":"富山県","prefecture_kana":"トヤマケン","city":"富山市","city_kana":"トヤマシ","town":"大塚東","town_kana":"オオツカヒガシ","prefecture_code":16},{"zip_code":"9300107","prefecture":"富山県","prefecture_kana":"トヤマケン","city":"富山市","city_kana":"トヤマシ","town":"大塚西","town_kana":"オオツカニシ","prefecture_code":16},{"zip_code":"9300107","prefecture":"富山県","prefecture_kana":"トヤマケン","city":"富山市","city_kana":"トヤマシ","town":"大塚南","town_kana":"オオツカミナミ","prefecture_code":16},{"zip_code":"9300107","prefecture":"富山県","prefecture_kana":"トヤマケン","city":"富山市","city_kana":"トヤマシ","town":"大塚北","town_kana":"オオツカキタ","prefecture_code":16}],"0084":{"zip_code":"9300084","prefecture":"富山県","prefecture_kana":"トヤマケン","city":"富山市","city_kana":"トヤマシ","town":"大手町","town_kana":"オオテマチ","prefecture_code":16},"1311":{"zip_code":"9301311","prefecture":"富山県","prefecture_kana":"トヤマケン","city":"富山市","city_kana":"トヤマシ","town":"大山北新町","town_kana":"オオヤマキタシンマチ","prefecture_code":16},"1264":{"zip_code":"9301264","prefecture":"富山県","prefecture_kana":"トヤマケン","city":"富山市","city_kana":"トヤマシ","town":"大山布目","town_kana":"オオヤマヌノメ","prefecture_code":16},"1466":{"zip_code":"9301466","prefecture":"富山県","prefecture_kana":"トヤマケン","city":"富山市","city_kana":"トヤマシ","town":"大山松木","town_kana":"オオヤママツノキ","prefecture_code":16},"1322":{"zip_code":"9301322","prefecture":"富山県","prefecture_kana":"トヤマケン","city":"富山市","city_kana":"トヤマシ","town":"岡田","town_kana":"オカダ","prefecture_code":16},"0846":{"zip_code":"9300846","prefecture":"富山県","prefecture_kana":"トヤマケン","city":"富山市","city_kana":"トヤマシ","town":"奥井町","town_kana":"オクイマチ","prefecture_code":16},"0852":{"zip_code":"9300852","prefecture":"富山県","prefecture_kana":"トヤマケン","city":"富山市","city_kana":"トヤマシ","town":"奥田寿町","town_kana":"オクダコトブキチョウ","prefecture_code":16},"0857":{"zip_code":"9300857","prefecture":"富山県","prefecture_kana":"トヤマケン","city":"富山市","city_kana":"トヤマシ","town":"奥田新町","town_kana":"オクダシンマチ","prefecture_code":16},"0851":{"zip_code":"9300851","prefecture":"富山県","prefecture_kana":"トヤマケン","city":"富山市","city_kana":"トヤマシ","town":"奥田双葉町","town_kana":"オクダフタバチョウ","prefecture_code":16},"0819":{"zip_code":"9300819","prefecture":"富山県","prefecture_kana":"トヤマケン","city":"富山市","city_kana":"トヤマシ","town":"奥田本町","town_kana":"オクダホンマチ","prefecture_code":16},"0818":{"zip_code":"9300818","prefecture":"富山県","prefecture_kana":"トヤマケン","city":"富山市","city_kana":"トヤマシ","town":"奥田町","town_kana":"オクダマチ","prefecture_code":16},"1286":{"zip_code":"9301286","prefecture":"富山県","prefecture_kana":"トヤマケン","city":"富山市","city_kana":"トヤマシ","town":"小佐波","town_kana":"オザナミ","prefecture_code":16},"1265":{"zip_code":"9301265","prefecture":"富山県","prefecture_kana":"トヤマケン","city":"富山市","city_kana":"トヤマシ","town":"小谷","town_kana":"オタニ","prefecture_code":16},"0037":{"zip_code":"9300037","prefecture":"富山県","prefecture_kana":"トヤマケン","city":"富山市","city_kana":"トヤマシ","town":"音羽町","town_kana":"オトワチョウ","prefecture_code":16},"1328":{"zip_code":"9301328","prefecture":"富山県","prefecture_kana":"トヤマケン","city":"富山市","city_kana":"トヤマシ","town":"小原屋","town_kana":"オハラヤ","prefecture_code":16},"1456":{"zip_code":"9301456","prefecture":"富山県","prefecture_kana":"トヤマケン","city":"富山市","city_kana":"トヤマシ","town":"小見","town_kana":"オミ","prefecture_code":16},"1276":{"zip_code":"9301276","prefecture":"富山県","prefecture_kana":"トヤマケン","city":"富山市","city_kana":"トヤマシ","town":"折谷","town_kana":"オリタニ","prefecture_code":16},"0086":{"zip_code":"9300086","prefecture":"富山県","prefecture_kana":"トヤマケン","city":"富山市","city_kana":"トヤマシ","town":"鹿島町","town_kana":"カシマチョウ","prefecture_code":16},"0926":{"zip_code":"9300926","prefecture":"富山県","prefecture_kana":"トヤマケン","city":"富山市","city_kana":"トヤマシ","town":"金代","town_kana":"カナダイ","prefecture_code":16},"0873":{"zip_code":"9300873","prefecture":"富山県","prefecture_kana":"トヤマケン","city":"富山市","city_kana":"トヤマシ","town":"金屋","town_kana":"カナヤ","prefecture_code":16},"2206":[{"zip_code":"9302206","prefecture":"富山県","prefecture_kana":"トヤマケン","city":"富山市","city_kana":"トヤマシ","town":"金山新","town_kana":"カナヤマシン","prefecture_code":16},{"zip_code":"9302206","prefecture":"富山県","prefecture_kana":"トヤマケン","city":"富山市","city_kana":"トヤマシ","town":"金山新中","town_kana":"カナヤマシンナカ","prefecture_code":16},{"zip_code":"9302206","prefecture":"富山県","prefecture_kana":"トヤマケン","city":"富山市","city_kana":"トヤマシ","town":"金山新西","town_kana":"カナヤマシンニシ","prefecture_code":16},{"zip_code":"9302206","prefecture":"富山県","prefecture_kana":"トヤマケン","city":"富山市","city_kana":"トヤマシ","town":"金山新南","town_kana":"カナヤマシンミナミ","prefecture_code":16},{"zip_code":"9302206","prefecture":"富山県","prefecture_kana":"トヤマケン","city":"富山市","city_kana":"トヤマシ","town":"金山新北","town_kana":"カナヤマシンキタ","prefecture_code":16}],"2204":{"zip_code":"9302204","prefecture":"富山県","prefecture_kana":"トヤマケン","city":"富山市","city_kana":"トヤマシ","town":"金山新桜ケ丘","town_kana":"カナヤマシンサクラガオカ","prefecture_code":16},"2205":{"zip_code":"9302205","prefecture":"富山県","prefecture_kana":"トヤマケン","city":"富山市","city_kana":"トヤマシ","town":"金山新東","town_kana":"カナヤマシンヒガシ","prefecture_code":16},"0837":{"zip_code":"9300837","prefecture":"富山県","prefecture_kana":"トヤマケン","city":"富山市","city_kana":"トヤマシ","town":"上赤江","town_kana":"カミアカエ","prefecture_code":16},"0816":{"zip_code":"9300816","prefecture":"富山県","prefecture_kana":"トヤマケン","city":"富山市","city_kana":"トヤマシ","town":"上赤江町","town_kana":"カミアカエマチ","prefecture_code":16},"0827":{"zip_code":"9300827","prefecture":"富山県","prefecture_kana":"トヤマケン","city":"富山市","city_kana":"トヤマシ","town":"上飯野","town_kana":"カミイイノ","prefecture_code":16},"0825":{"zip_code":"9300825","prefecture":"富山県","prefecture_kana":"トヤマケン","city":"富山市","city_kana":"トヤマシ","town":"上飯野新町","town_kana":"カミイイノシンマチ","prefecture_code":16},"1333":{"zip_code":"9301333","prefecture":"富山県","prefecture_kana":"トヤマケン","city":"富山市","city_kana":"トヤマシ","town":"上大浦","town_kana":"カミオオウラ","prefecture_code":16},"0826":{"zip_code":"9300826","prefecture":"富山県","prefecture_kana":"トヤマケン","city":"富山市","city_kana":"トヤマシ","town":"上庄町","town_kana":"カミショウマチ","prefecture_code":16},"1312":{"zip_code":"9301312","prefecture":"富山県","prefecture_kana":"トヤマケン","city":"富山市","city_kana":"トヤマシ","town":"上滝","town_kana":"カミダキ","prefecture_code":16},"0835":{"zip_code":"9300835","prefecture":"富山県","prefecture_kana":"トヤマケン","city":"富山市","city_kana":"トヤマシ","town":"上冨居","town_kana":"カミフゴ","prefecture_code":16},"0836":{"zip_code":"9300836","prefecture":"富山県","prefecture_kana":"トヤマケン","city":"富山市","city_kana":"トヤマシ","town":"上冨居新町","town_kana":"カミフゴシンマチ","prefecture_code":16},"0057":{"zip_code":"9300057","prefecture":"富山県","prefecture_kana":"トヤマケン","city":"富山市","city_kana":"トヤマシ","town":"上本町","town_kana":"カミホンマチ","prefecture_code":16},"1459":{"zip_code":"9301459","prefecture":"富山県","prefecture_kana":"トヤマケン","city":"富山市","city_kana":"トヤマシ","town":"亀谷","town_kana":"カメガイ","prefecture_code":16},"0175":{"zip_code":"9300175","prefecture":"富山県","prefecture_kana":"トヤマケン","city":"富山市","city_kana":"トヤマシ","town":"願海寺","town_kana":"ガンカイジ","prefecture_code":16},"0176":{"zip_code":"9300176","prefecture":"富山県","prefecture_kana":"トヤマケン","city":"富山市","city_kana":"トヤマシ","town":"願海寺新町","town_kana":"ガンカイジシンマチ","prefecture_code":16},"0164":{"zip_code":"9300164","prefecture":"富山県","prefecture_kana":"トヤマケン","city":"富山市","city_kana":"トヤマシ","town":"北押川","town_kana":"キタオシカワ","prefecture_code":16},"0023":{"zip_code":"9300023","prefecture":"富山県","prefecture_kana":"トヤマケン","city":"富山市","city_kana":"トヤマシ","town":"北新町","town_kana":"キタシンマチ","prefecture_code":16},"0103":[{"zip_code":"9300103","prefecture":"富山県","prefecture_kana":"トヤマケン","city":"富山市","city_kana":"トヤマシ","town":"北代","town_kana":"キタダイ","prefecture_code":16},{"zip_code":"9300103","prefecture":"富山県","prefecture_kana":"トヤマケン","city":"富山市","city_kana":"トヤマシ","town":"北代中部","town_kana":"キタダイチュウブ","prefecture_code":16},{"zip_code":"9300103","prefecture":"富山県","prefecture_kana":"トヤマケン","city":"富山市","city_kana":"トヤマシ","town":"北代東部","town_kana":"キタダイトウブ","prefecture_code":16},{"zip_code":"9300103","prefecture":"富山県","prefecture_kana":"トヤマケン","city":"富山市","city_kana":"トヤマシ","town":"北代北部","town_kana":"キタダイホクブ","prefecture_code":16}],"0104":{"zip_code":"9300104","prefecture":"富山県","prefecture_kana":"トヤマケン","city":"富山市","city_kana":"トヤマシ","town":"北代新","town_kana":"キタダイシン","prefecture_code":16},"0105":{"zip_code":"9300105","prefecture":"富山県","prefecture_kana":"トヤマケン","city":"富山市","city_kana":"トヤマシ","town":"北代藤ケ丘","town_kana":"キタダイフジガオカ","prefecture_code":16},"0172":{"zip_code":"9300172","prefecture":"富山県","prefecture_kana":"トヤマケン","city":"富山市","city_kana":"トヤマシ","town":"北二ツ屋","town_kana":"キタフタツヤ","prefecture_code":16},"0806":{"zip_code":"9300806","prefecture":"富山県","prefecture_kana":"トヤマケン","city":"富山市","city_kana":"トヤマシ","town":"木場町","town_kana":"キバマチ","prefecture_code":16},"0951":{"zip_code":"9300951","prefecture":"富山県","prefecture_kana":"トヤマケン","city":"富山市","city_kana":"トヤマシ","town":"経堂","town_kana":"キョウドウ","prefecture_code":16},"0956":{"zip_code":"9300956","prefecture":"富山県","prefecture_kana":"トヤマケン","city":"富山市","city_kana":"トヤマシ","town":"経堂新町","town_kana":"キョウドウシンマチ","prefecture_code":16},"0906":{"zip_code":"9300906","prefecture":"富山県","prefecture_kana":"トヤマケン","city":"富山市","city_kana":"トヤマシ","town":"金泉寺","town_kana":"キンセンジ","prefecture_code":16},"0865":{"zip_code":"9300865","prefecture":"富山県","prefecture_kana":"トヤマケン","city":"富山市","city_kana":"トヤマシ","town":"久郷","town_kana":"クゴウ","prefecture_code":16},"2201":{"zip_code":"9302201","prefecture":"富山県","prefecture_kana":"トヤマケン","city":"富山市","city_kana":"トヤマシ","town":"草島","town_kana":"クサジマ","prefecture_code":16},"2207":{"zip_code":"9302207","prefecture":"富山県","prefecture_kana":"トヤマケン","city":"富山市","city_kana":"トヤマシ","town":"草島新町","town_kana":"クサジマシンマチ","prefecture_code":16},"0842":{"zip_code":"9300842","prefecture":"富山県","prefecture_kana":"トヤマケン","city":"富山市","city_kana":"トヤマシ","town":"窪新町","town_kana":"クボシンマチ","prefecture_code":16},"0843":{"zip_code":"9300843","prefecture":"富山県","prefecture_kana":"トヤマケン","city":"富山市","city_kana":"トヤマシ","town":"窪本町","town_kana":"クボモトマチ","prefecture_code":16},"1268":{"zip_code":"9301268","prefecture":"富山県","prefecture_kana":"トヤマケン","city":"富山市","city_kana":"トヤマシ","town":"楜ケ原","town_kana":"クルミガハラ","prefecture_code":16},"0121":{"zip_code":"9300121","prefecture":"富山県","prefecture_kana":"トヤマケン","city":"富山市","city_kana":"トヤマシ","town":"呉羽苑","town_kana":"クレハエン","prefecture_code":16},"0133":{"zip_code":"9300133","prefecture":"富山県","prefecture_kana":"トヤマケン","city":"富山市","city_kana":"トヤマシ","town":"呉羽川西","town_kana":"クレハカワニシ","prefecture_code":16},"0134":{"zip_code":"9300134","prefecture":"富山県","prefecture_kana":"トヤマケン","city":"富山市","city_kana":"トヤマシ","town":"呉羽貴船巻","town_kana":"クレハキフネマキ","prefecture_code":16},"0131":{"zip_code":"9300131","prefecture":"富山県","prefecture_kana":"トヤマケン","city":"富山市","city_kana":"トヤマシ","town":"呉羽昭和町","town_kana":"クレハショウワマチ","prefecture_code":16},"0122":{"zip_code":"9300122","prefecture":"富山県","prefecture_kana":"トヤマケン","city":"富山市","city_kana":"トヤマシ","town":"呉羽新富田町","town_kana":"クレハシントミタマチ","prefecture_code":16},"0125":{"zip_code":"9300125","prefecture":"富山県","prefecture_kana":"トヤマケン","city":"富山市","city_kana":"トヤマシ","town":"呉羽つつじが丘","town_kana":"クレハツツジガオカ","prefecture_code":16},"0123":{"zip_code":"9300123","prefecture":"富山県","prefecture_kana":"トヤマケン","city":"富山市","city_kana":"トヤマシ","town":"呉羽富田町","town_kana":"クレハトミタマチ","prefecture_code":16},"0135":{"zip_code":"9300135","prefecture":"富山県","prefecture_kana":"トヤマケン","city":"富山市","city_kana":"トヤマシ","town":"呉羽中の町","town_kana":"クレハナカノチョウ","prefecture_code":16},"0102":{"zip_code":"9300102","prefecture":"富山県","prefecture_kana":"トヤマケン","city":"富山市","city_kana":"トヤマシ","town":"呉羽野田","town_kana":"クレハノダ","prefecture_code":16},"0126":{"zip_code":"9300126","prefecture":"富山県","prefecture_kana":"トヤマケン","city":"富山市","city_kana":"トヤマシ","town":"呉羽東町","town_kana":"クレハヒガシマチ","prefecture_code":16},"0132":{"zip_code":"9300132","prefecture":"富山県","prefecture_kana":"トヤマケン","city":"富山市","city_kana":"トヤマシ","town":"呉羽姫本","town_kana":"クレハヒメモト","prefecture_code":16},"0137":{"zip_code":"9300137","prefecture":"富山県","prefecture_kana":"トヤマケン","city":"富山市","city_kana":"トヤマシ","town":"呉羽本町","town_kana":"クレハホンマチ","prefecture_code":16},"0138":[{"zip_code":"9300138","prefecture":"富山県","prefecture_kana":"トヤマケン","city":"富山市","city_kana":"トヤマシ","town":"呉羽町","town_kana":"クレハマチ","prefecture_code":16},{"zip_code":"9300138","prefecture":"富山県","prefecture_kana":"トヤマケン","city":"富山市","city_kana":"トヤマシ","town":"呉羽町西","town_kana":"クレハマチニシ","prefecture_code":16},{"zip_code":"9300138","prefecture":"富山県","prefecture_kana":"トヤマケン","city":"富山市","city_kana":"トヤマシ","town":"呉羽町北","town_kana":"クレハマチキタ","prefecture_code":16}],"0127":{"zip_code":"9300127","prefecture":"富山県","prefecture_kana":"トヤマケン","city":"富山市","city_kana":"トヤマシ","town":"呉羽丸富町","town_kana":"クレハマルトミチョウ","prefecture_code":16},"0124":{"zip_code":"9300124","prefecture":"富山県","prefecture_kana":"トヤマケン","city":"富山市","city_kana":"トヤマシ","town":"呉羽水上町","town_kana":"クレハミズカミチョウ","prefecture_code":16},"0136":{"zip_code":"9300136","prefecture":"富山県","prefecture_kana":"トヤマケン","city":"富山市","city_kana":"トヤマシ","town":"呉羽三ツ塚","town_kana":"クレハミツヅカ","prefecture_code":16},"1336":{"zip_code":"9301336","prefecture":"富山県","prefecture_kana":"トヤマケン","city":"富山市","city_kana":"トヤマシ","town":"桑原","town_kana":"クワハラ","prefecture_code":16},"0809":{"zip_code":"9300809","prefecture":"富山県","prefecture_kana":"トヤマケン","city":"富山市","city_kana":"トヤマシ","town":"興人町","town_kana":"コウジンマチ","prefecture_code":16},"1273":{"zip_code":"9301273","prefecture":"富山県","prefecture_kana":"トヤマケン","city":"富山市","city_kana":"トヤマシ","town":"小坂","town_kana":"コサカ","prefecture_code":16},"0022":{"zip_code":"9300022","prefecture":"富山県","prefecture_kana":"トヤマケン","city":"富山市","city_kana":"トヤマシ","town":"小島町","town_kana":"コジマチョウ","prefecture_code":16},"0882":{"zip_code":"9300882","prefecture":"富山県","prefecture_kana":"トヤマケン","city":"富山市","city_kana":"トヤマシ","town":"五艘","town_kana":"ゴソウ","prefecture_code":16},"0895":{"zip_code":"9300895","prefecture":"富山県","prefecture_kana":"トヤマケン","city":"富山市","city_kana":"トヤマシ","town":"駒見","town_kana":"コマミ","prefecture_code":16},"0052":{"zip_code":"9300052","prefecture":"富山県","prefecture_kana":"トヤマケン","city":"富山市","city_kana":"トヤマシ","town":"五番町","town_kana":"ゴバンマチ","prefecture_code":16},"0887":{"zip_code":"9300887","prefecture":"富山県","prefecture_kana":"トヤマケン","city":"富山市","city_kana":"トヤマシ","town":"五福","town_kana":"ゴフク","prefecture_code":16},"0883":{"zip_code":"9300883","prefecture":"富山県","prefecture_kana":"トヤマケン","city":"富山市","city_kana":"トヤマシ","town":"五福新町","town_kana":"ゴフクシンマチ","prefecture_code":16},"0884":{"zip_code":"9300884","prefecture":"富山県","prefecture_kana":"トヤマケン","city":"富山市","city_kana":"トヤマシ","town":"五福末広町","town_kana":"ゴフクスエヒロチョウ","prefecture_code":16},"0905":{"zip_code":"9300905","prefecture":"富山県","prefecture_kana":"トヤマケン","city":"富山市","city_kana":"トヤマシ","town":"五本榎","town_kana":"ゴホンエノキ","prefecture_code":16},"1464":{"zip_code":"9301464","prefecture":"富山県","prefecture_kana":"トヤマケン","city":"富山市","city_kana":"トヤマシ","town":"才覚地","town_kana":"サイカクチ","prefecture_code":16},"0153":{"zip_code":"9300153","prefecture":"富山県","prefecture_kana":"トヤマケン","city":"富山市","city_kana":"トヤマシ","town":"境野新","town_kana":"サカイノシン","prefecture_code":16},"0925":{"zip_code":"9300925","prefecture":"富山県","prefecture_kana":"トヤマケン","city":"富山市","city_kana":"トヤマシ","town":"栄新町","town_kana":"サカエシンマチ","prefecture_code":16},"0032":{"zip_code":"9300032","prefecture":"富山県","prefecture_kana":"トヤマケン","city":"富山市","city_kana":"トヤマシ","town":"栄町","town_kana":"サカエマチ","prefecture_code":16},"0156":[{"zip_code":"9300156","prefecture":"富山県","prefecture_kana":"トヤマケン","city":"富山市","city_kana":"トヤマシ","town":"坂下新","town_kana":"サカシタシン","prefecture_code":16},{"zip_code":"9300156","prefecture":"富山県","prefecture_kana":"トヤマケン","city":"富山市","city_kana":"トヤマシ","town":"山本","town_kana":"ヤマモト","prefecture_code":16}],"0082":{"zip_code":"9300082","prefecture":"富山県","prefecture_kana":"トヤマケン","city":"富山市","city_kana":"トヤマシ","town":"桜木町","town_kana":"サクラギチョウ","prefecture_code":16},"0898":{"zip_code":"9300898","prefecture":"富山県","prefecture_kana":"トヤマケン","city":"富山市","city_kana":"トヤマシ","town":"桜谷みどり町","town_kana":"サクラダニミドリチョウ","prefecture_code":16},"0004":{"zip_code":"9300004","prefecture":"富山県","prefecture_kana":"トヤマケン","city":"富山市","city_kana":"トヤマシ","town":"桜橋通り","town_kana":"サクラバシドオリ","prefecture_code":16},"0003":{"zip_code":"9300003","prefecture":"富山県","prefecture_kana":"トヤマケン","city":"富山市","city_kana":"トヤマシ","town":"桜町","town_kana":"サクラマチ","prefecture_code":16},"0064":{"zip_code":"9300064","prefecture":"富山県","prefecture_kana":"トヤマケン","city":"富山市","city_kana":"トヤマシ","town":"山王町","town_kana":"サンノウマチ","prefecture_code":16},"0155":{"zip_code":"9300155","prefecture":"富山県","prefecture_kana":"トヤマケン","city":"富山市","city_kana":"トヤマシ","town":"三熊","town_kana":"サンノクマ","prefecture_code":16},"0059":{"zip_code":"9300059","prefecture":"富山県","prefecture_kana":"トヤマケン","city":"富山市","city_kana":"トヤマシ","town":"三番町","town_kana":"サンバンマチ","prefecture_code":16},"0089":{"zip_code":"9300089","prefecture":"富山県","prefecture_kana":"トヤマケン","city":"富山市","city_kana":"トヤマシ","town":"七軒町","town_kana":"シチケンマチ","prefecture_code":16},"0097":{"zip_code":"9300097","prefecture":"富山県","prefecture_kana":"トヤマケン","city":"富山市","city_kana":"トヤマシ","town":"芝園町","town_kana":"シバゾノチョウ","prefecture_code":16},"0035":{"zip_code":"9300035","prefecture":"富山県","prefecture_kana":"トヤマケン","city":"富山市","city_kana":"トヤマシ","town":"清水中町","town_kana":"シミズナカマチ","prefecture_code":16},"0036":{"zip_code":"9300036","prefecture":"富山県","prefecture_kana":"トヤマケン","city":"富山市","city_kana":"トヤマシ","town":"清水町","town_kana":"シミズマチ","prefecture_code":16},"0034":{"zip_code":"9300034","prefecture":"富山県","prefecture_kana":"トヤマケン","city":"富山市","city_kana":"トヤマシ","town":"清水元町","town_kana":"シミズモトマチ","prefecture_code":16},"0838":{"zip_code":"9300838","prefecture":"富山県","prefecture_kana":"トヤマケン","city":"富山市","city_kana":"トヤマシ","town":"下赤江","town_kana":"シモアカエ","prefecture_code":16},"0813":{"zip_code":"9300813","prefecture":"富山県","prefecture_kana":"トヤマケン","city":"富山市","city_kana":"トヤマシ","town":"下赤江町","town_kana":"シモアカエマチ","prefecture_code":16},"1335":{"zip_code":"9301335","prefecture":"富山県","prefecture_kana":"トヤマケン","city":"富山市","city_kana":"トヤマシ","town":"下大浦","town_kana":"シモオオウラ","prefecture_code":16},"0817":{"zip_code":"9300817","prefecture":"富山県","prefecture_kana":"トヤマケン","city":"富山市","city_kana":"トヤマシ","town":"下奥井","town_kana":"シモオクイ","prefecture_code":16},"0807":{"zip_code":"9300807","prefecture":"富山県","prefecture_kana":"トヤマケン","city":"富山市","city_kana":"トヤマシ","town":"下新西町","town_kana":"シモシンニシチョウ","prefecture_code":16},"0802":{"zip_code":"9300802","prefecture":"富山県","prefecture_kana":"トヤマケン","city":"富山市","city_kana":"トヤマシ","town":"下新北町","town_kana":"シモシンキタマチ","prefecture_code":16},"0808":{"zip_code":"9300808","prefecture":"富山県","prefecture_kana":"トヤマケン","city":"富山市","city_kana":"トヤマシ","town":"下新日曹町","town_kana":"シモシンニッソウマチ","prefecture_code":16},"0803":{"zip_code":"9300803","prefecture":"富山県","prefecture_kana":"トヤマケン","city":"富山市","city_kana":"トヤマシ","town":"下新本町","town_kana":"シモシンホンマチ","prefecture_code":16},"0804":{"zip_code":"9300804","prefecture":"富山県","prefecture_kana":"トヤマケン","city":"富山市","city_kana":"トヤマシ","town":"下新町","town_kana":"シモシンマチ","prefecture_code":16},"1272":{"zip_code":"9301272","prefecture":"富山県","prefecture_kana":"トヤマケン","city":"富山市","city_kana":"トヤマシ","town":"下双嶺","town_kana":"シモゾウレイ","prefecture_code":16},"0871":{"zip_code":"9300871","prefecture":"富山県","prefecture_kana":"トヤマケン","city":"富山市","city_kana":"トヤマシ","town":"下野","town_kana":"シモノ","prefecture_code":16},"0872":{"zip_code":"9300872","prefecture":"富山県","prefecture_kana":"トヤマケン","city":"富山市","city_kana":"トヤマシ","town":"下野新","town_kana":"シモノシン","prefecture_code":16},"1305":{"zip_code":"9301305","prefecture":"富山県","prefecture_kana":"トヤマケン","city":"富山市","city_kana":"トヤマシ","town":"下番","town_kana":"シモノバン","prefecture_code":16},"0814":{"zip_code":"9300814","prefecture":"富山県","prefecture_kana":"トヤマケン","city":"富山市","city_kana":"トヤマシ","town":"下冨居","town_kana":"シモフゴ","prefecture_code":16},"0867":{"zip_code":"9300867","prefecture":"富山県","prefecture_kana":"トヤマケン","city":"富山市","city_kana":"トヤマシ","town":"庄高田","town_kana":"ショウタカタ","prefecture_code":16},"0854":{"zip_code":"9300854","prefecture":"富山県","prefecture_kana":"トヤマケン","city":"富山市","city_kana":"トヤマシ","town":"城北町","town_kana":"ジョウホクマチ","prefecture_code":16},"0048":{"zip_code":"9300048","prefecture":"富山県","prefecture_kana":"トヤマケン","city":"富山市","city_kana":"トヤマシ","town":"白銀町","town_kana":"シロガネチョウ","prefecture_code":16},"0924":{"zip_code":"9300924","prefecture":"富山県","prefecture_kana":"トヤマケン","city":"富山市","city_kana":"トヤマシ","town":"新金代","town_kana":"シンカナダイ","prefecture_code":16},"0024":{"zip_code":"9300024","prefecture":"富山県","prefecture_kana":"トヤマケン","city":"富山市","city_kana":"トヤマシ","town":"新川原町","town_kana":"シンカワラマチ","prefecture_code":16},"0005":{"zip_code":"9300005","prefecture":"富山県","prefecture_kana":"トヤマケン","city":"富山市","city_kana":"トヤマシ","town":"新桜町","town_kana":"シンサクラマチ","prefecture_code":16},"0997":{"zip_code":"9300997","prefecture":"富山県","prefecture_kana":"トヤマケン","city":"富山市","city_kana":"トヤマシ","town":"新庄北町","town_kana":"シンジョウキタマチ","prefecture_code":16},"0991":{"zip_code":"9300991","prefecture":"富山県","prefecture_kana":"トヤマケン","city":"富山市","city_kana":"トヤマシ","town":"新庄銀座","town_kana":"シンジョウギンザ","prefecture_code":16},"0994":{"zip_code":"9300994","prefecture":"富山県","prefecture_kana":"トヤマケン","city":"富山市","city_kana":"トヤマシ","town":"新庄新町","town_kana":"シンジョウシンマチ","prefecture_code":16},"0995":{"zip_code":"9300995","prefecture":"富山県","prefecture_kana":"トヤマケン","city":"富山市","city_kana":"トヤマシ","town":"新庄中央町","town_kana":"シンジョウチュウオウマチ","prefecture_code":16},"0996":{"zip_code":"9300996","prefecture":"富山県","prefecture_kana":"トヤマケン","city":"富山市","city_kana":"トヤマシ","town":"新庄本町","town_kana":"シンジョウホンマチ","prefecture_code":16},"0992":{"zip_code":"9300992","prefecture":"富山県","prefecture_kana":"トヤマケン","city":"富山市","city_kana":"トヤマシ","town":"新庄町","town_kana":"シンジョウマチ","prefecture_code":16},"0006":{"zip_code":"9300006","prefecture":"富山県","prefecture_kana":"トヤマケン","city":"富山市","city_kana":"トヤマシ","town":"新総曲輪","town_kana":"シンソウガワ","prefecture_code":16},"0993":{"zip_code":"9300993","prefecture":"富山県","prefecture_kana":"トヤマケン","city":"富山市","city_kana":"トヤマシ","town":"新園町","town_kana":"シンソノマチ","prefecture_code":16},"2203":{"zip_code":"9302203","prefecture":"富山県","prefecture_kana":"トヤマケン","city":"富山市","city_kana":"トヤマシ","town":"新千原崎","town_kana":"シンチハラザキ","prefecture_code":16},"0008":{"zip_code":"9300008","prefecture":"富山県","prefecture_kana":"トヤマケン","city":"富山市","city_kana":"トヤマシ","town":"神通本町","town_kana":"ジンヅウホンマチ","prefecture_code":16},"0009":{"zip_code":"9300009","prefecture":"富山県","prefecture_kana":"トヤマケン","city":"富山市","city_kana":"トヤマシ","town":"神通町","town_kana":"ジンヅウマチ","prefecture_code":16},"0002":{"zip_code":"9300002","prefecture":"富山県","prefecture_kana":"トヤマケン","city":"富山市","city_kana":"トヤマシ","town":"新富町","town_kana":"シントミチョウ","prefecture_code":16},"0839":{"zip_code":"9300839","prefecture":"富山県","prefecture_kana":"トヤマケン","city":"富山市","city_kana":"トヤマシ","town":"新冨居","town_kana":"シンフゴ","prefecture_code":16},"0152":{"zip_code":"9300152","prefecture":"富山県","prefecture_kana":"トヤマケン","city":"富山市","city_kana":"トヤマシ","town":"杉谷","town_kana":"スギタニ","prefecture_code":16},"0045":{"zip_code":"9300045","prefecture":"富山県","prefecture_kana":"トヤマケン","city":"富山市","city_kana":"トヤマシ","town":"砂町","town_kana":"スナマチ","prefecture_code":16},"1266":{"zip_code":"9301266","prefecture":"富山県","prefecture_kana":"トヤマケン","city":"富山市","city_kana":"トヤマシ","town":"砂見","town_kana":"スナミ","prefecture_code":16},"1267":[{"zip_code":"9301267","prefecture":"富山県","prefecture_kana":"トヤマケン","city":"富山市","city_kana":"トヤマシ","town":"砂見","town_kana":"スナミ","prefecture_code":16},{"zip_code":"9301267","prefecture":"富山県","prefecture_kana":"トヤマケン","city":"富山市","city_kana":"トヤマシ","town":"砂見芋平","town_kana":"スナミイモヒラ","prefecture_code":16}],"0144":{"zip_code":"9300144","prefecture":"富山県","prefecture_kana":"トヤマケン","city":"富山市","city_kana":"トヤマシ","town":"住吉","town_kana":"スミヨシ","prefecture_code":16},"0031":{"zip_code":"9300031","prefecture":"富山県","prefecture_kana":"トヤマケン","city":"富山市","city_kana":"トヤマシ","town":"住吉町","town_kana":"スミヨシチョウ","prefecture_code":16},"0088":{"zip_code":"9300088","prefecture":"富山県","prefecture_kana":"トヤマケン","city":"富山市","city_kana":"トヤマシ","town":"諏訪川原","town_kana":"スワノカワラ","prefecture_code":16},"1285":{"zip_code":"9301285","prefecture":"富山県","prefecture_kana":"トヤマケン","city":"富山市","city_kana":"トヤマシ","town":"瀬戸","town_kana":"セト","prefecture_code":16},"0066":{"zip_code":"9300066","prefecture":"富山県","prefecture_kana":"トヤマケン","city":"富山市","city_kana":"トヤマシ","town":"千石町","town_kana":"センゴクマチ","prefecture_code":16},"1303":{"zip_code":"9301303","prefecture":"富山県","prefecture_kana":"トヤマケン","city":"富山市","city_kana":"トヤマシ","town":"善名","town_kana":"ゼンナ","prefecture_code":16},"0815":{"zip_code":"9300815","prefecture":"富山県","prefecture_kana":"トヤマケン","city":"富山市","city_kana":"トヤマシ","town":"千成町","town_kana":"センナリマチ","prefecture_code":16},"0083":{"zip_code":"9300083","prefecture":"富山県","prefecture_kana":"トヤマケン","city":"富山市","city_kana":"トヤマシ","town":"総曲輪","town_kana":"ソウガワ","prefecture_code":16},"0971":{"zip_code":"9300971","prefecture":"富山県","prefecture_kana":"トヤマケン","city":"富山市","city_kana":"トヤマシ","town":"双代町","town_kana":"ソウタイマチ","prefecture_code":16},"0106":[{"zip_code":"9300106","prefecture":"富山県","prefecture_kana":"トヤマケン","city":"富山市","city_kana":"トヤマシ","town":"高木","town_kana":"タカギ","prefecture_code":16},{"zip_code":"9300106","prefecture":"富山県","prefecture_kana":"トヤマケン","city":"富山市","city_kana":"トヤマシ","town":"高木東","town_kana":"タカギヒガシ","prefecture_code":16},{"zip_code":"9300106","prefecture":"富山県","prefecture_kana":"トヤマケン","city":"富山市","city_kana":"トヤマシ","town":"高木西","town_kana":"タカギニシ","prefecture_code":16},{"zip_code":"9300106","prefecture":"富山県","prefecture_kana":"トヤマケン","city":"富山市","city_kana":"トヤマシ","town":"高木南","town_kana":"タカギミナミ","prefecture_code":16}],"0866":{"zip_code":"9300866","prefecture":"富山県","prefecture_kana":"トヤマケン","city":"富山市","city_kana":"トヤマシ","town":"高田","town_kana":"タカタ","prefecture_code":16},"0007":{"zip_code":"9300007","prefecture":"富山県","prefecture_kana":"トヤマケン","city":"富山市","city_kana":"トヤマシ","town":"宝町","town_kana":"タカラマチ","prefecture_code":16},"0897":{"zip_code":"9300897","prefecture":"富山県","prefecture_kana":"トヤマケン","city":"富山市","city_kana":"トヤマシ","town":"田刈屋","town_kana":"タカリヤ","prefecture_code":16},"0894":{"zip_code":"9300894","prefecture":"富山県","prefecture_kana":"トヤマケン","city":"富山市","city_kana":"トヤマシ","town":"田刈屋新町","town_kana":"タカリヤシンマチ","prefecture_code":16},"0014":{"zip_code":"9300014","prefecture":"富山県","prefecture_kana":"トヤマケン","city":"富山市","city_kana":"トヤマシ","town":"館出町","town_kana":"タチイデマチ","prefecture_code":16},"0053":{"zip_code":"9300053","prefecture":"富山県","prefecture_kana":"トヤマケン","city":"富山市","city_kana":"トヤマシ","town":"辰巳町","town_kana":"タツミチョウ","prefecture_code":16},"0985":{"zip_code":"9300985","prefecture":"富山県","prefecture_kana":"トヤマケン","city":"富山市","city_kana":"トヤマシ","town":"田中町","town_kana":"タナカマチ","prefecture_code":16},"2224":[{"zip_code":"9302224","prefecture":"富山県","prefecture_kana":"トヤマケン","city":"富山市","city_kana":"トヤマシ","town":"田尻","town_kana":"タノシリ","prefecture_code":16},{"zip_code":"9302224","prefecture":"富山県","prefecture_kana":"トヤマケン","city":"富山市","city_kana":"トヤマシ","town":"田尻東","town_kana":"タノシリヒガシ","prefecture_code":16},{"zip_code":"9302224","prefecture":"富山県","prefecture_kana":"トヤマケン","city":"富山市","city_kana":"トヤマシ","town":"田尻西","town_kana":"タノシリニシ","prefecture_code":16},{"zip_code":"9302224","prefecture":"富山県","prefecture_kana":"トヤマケン","city":"富山市","city_kana":"トヤマシ","town":"田尻南","town_kana":"タノシリミナミ","prefecture_code":16}],"1331":{"zip_code":"9301331","prefecture":"富山県","prefecture_kana":"トヤマケン","city":"富山市","city_kana":"トヤマシ","town":"田畠","town_kana":"タバタケ","prefecture_code":16},"1338":[{"zip_code":"9301338","prefecture":"富山県","prefecture_kana":"トヤマケン","city":"富山市","city_kana":"トヤマシ","town":"田畠","town_kana":"タバタケ","prefecture_code":16},{"zip_code":"9301338","prefecture":"富山県","prefecture_kana":"トヤマケン","city":"富山市","city_kana":"トヤマシ","town":"田畠明日美野","town_kana":"タバタケアスミノ","prefecture_code":16}],"1337":[{"zip_code":"9301337","prefecture":"富山県","prefecture_kana":"トヤマケン","city":"富山市","city_kana":"トヤマシ","town":"田畠","town_kana":"タバタケ","prefecture_code":16},{"zip_code":"9301337","prefecture":"富山県","prefecture_kana":"トヤマケン","city":"富山市","city_kana":"トヤマシ","town":"田畠風見台","town_kana":"タバタケカザミダイ","prefecture_code":16}],"0901":{"zip_code":"9300901","prefecture":"富山県","prefecture_kana":"トヤマケン","city":"富山市","city_kana":"トヤマシ","town":"手屋","town_kana":"タヤ","prefecture_code":16},"0018":{"zip_code":"9300018","prefecture":"富山県","prefecture_kana":"トヤマケン","city":"富山市","city_kana":"トヤマシ","town":"千歳町","town_kana":"チトセマチ","prefecture_code":16},"0114":{"zip_code":"9300114","prefecture":"富山県","prefecture_kana":"トヤマケン","city":"富山市","city_kana":"トヤマシ","town":"茶屋新町","town_kana":"チャヤシンマチ","prefecture_code":16},"0115":{"zip_code":"9300115","prefecture":"富山県","prefecture_kana":"トヤマケン","city":"富山市","city_kana":"トヤマシ","town":"茶屋町","town_kana":"チャヤマチ","prefecture_code":16},"0044":{"zip_code":"9300044","prefecture":"富山県","prefecture_kana":"トヤマケン","city":"富山市","city_kana":"トヤマシ","town":"中央通り","town_kana":"チュウオウドオリ","prefecture_code":16},"0921":{"zip_code":"9300921","prefecture":"富山県","prefecture_kana":"トヤマケン","city":"富山市","city_kana":"トヤマシ","town":"中間島","town_kana":"チュウゲンジマ","prefecture_code":16},"0811":{"zip_code":"9300811","prefecture":"富山県","prefecture_kana":"トヤマケン","city":"富山市","city_kana":"トヤマシ","town":"千代田町","town_kana":"チヨダマチ","prefecture_code":16},"0046":{"zip_code":"9300046","prefecture":"富山県","prefecture_kana":"トヤマケン","city":"富山市","city_kana":"トヤマシ","town":"堤町通り","town_kana":"ツツミチョウドオリ","prefecture_code":16},"2239":{"zip_code":"9302239","prefecture":"富山県","prefecture_kana":"トヤマケン","city":"富山市","city_kana":"トヤマシ","town":"つばめ野","town_kana":"ツバメノ","prefecture_code":16},"0824":{"zip_code":"9300824","prefecture":"富山県","prefecture_kana":"トヤマケン","city":"富山市","city_kana":"トヤマシ","town":"鶴ケ丘町","town_kana":"ツルガオカマチ","prefecture_code":16},"1332":{"zip_code":"9301332","prefecture":"富山県","prefecture_kana":"トヤマケン","city":"富山市","city_kana":"トヤマシ","town":"津羽見","town_kana":"ツワミ","prefecture_code":16},"2225":{"zip_code":"9302225","prefecture":"富山県","prefecture_kana":"トヤマケン","city":"富山市","city_kana":"トヤマシ","town":"寺島","town_kana":"テラシマ","prefecture_code":16},"0874":{"zip_code":"9300874","prefecture":"富山県","prefecture_kana":"トヤマケン","city":"富山市","city_kana":"トヤマシ","town":"寺町","town_kana":"テラマチ","prefecture_code":16},"0875":{"zip_code":"9300875","prefecture":"富山県","prefecture_kana":"トヤマケン","city":"富山市","city_kana":"トヤマシ","town":"寺町けや木台","town_kana":"テラマチケヤキダイ","prefecture_code":16},"0955":{"zip_code":"9300955","prefecture":"富山県","prefecture_kana":"トヤマケン","city":"富山市","city_kana":"トヤマシ","town":"天正寺","town_kana":"テンショウジ","prefecture_code":16},"0078":{"zip_code":"9300078","prefecture":"富山県","prefecture_kana":"トヤマケン","city":"富山市","city_kana":"トヤマシ","town":"土居原町","town_kana":"ドイハラマチ","prefecture_code":16},"0834":{"zip_code":"9300834","prefecture":"富山県","prefecture_kana":"トヤマケン","city":"富山市","city_kana":"トヤマシ","town":"問屋町","town_kana":"トイヤマチ","prefecture_code":16},"0047":{"zip_code":"9300047","prefecture":"富山県","prefecture_kana":"トヤマケン","city":"富山市","city_kana":"トヤマシ","town":"常盤町","town_kana":"トキワチョウ","prefecture_code":16},"0163":{"zip_code":"9300163","prefecture":"富山県","prefecture_kana":"トヤマケン","city":"富山市","city_kana":"トヤマシ","town":"栃谷","town_kana":"トチダニ","prefecture_code":16},"2227":{"zip_code":"9302227","prefecture":"富山県","prefecture_kana":"トヤマケン","city":"富山市","city_kana":"トヤマシ","town":"利波","town_kana":"トナミ","prefecture_code":16},"2202":{"zip_code":"9302202","prefecture":"富山県","prefecture_kana":"トヤマケン","city":"富山市","city_kana":"トヤマシ","town":"富浦町","town_kana":"トミウラマチ","prefecture_code":16},"0928":{"zip_code":"9300928","prefecture":"富山県","prefecture_kana":"トヤマケン","city":"富山市","city_kana":"トヤマシ","town":"富岡町","town_kana":"トミオカチョウ","prefecture_code":16},"0049":{"zip_code":"9300049","prefecture":"富山県","prefecture_kana":"トヤマケン","city":"富山市","city_kana":"トヤマシ","town":"豊川町","town_kana":"トヨカワチョウ","prefecture_code":16},"0974":{"zip_code":"9300974","prefecture":"富山県","prefecture_kana":"トヤマケン","city":"富山市","city_kana":"トヤマシ","town":"長江","town_kana":"ナガエ","prefecture_code":16},"0972":{"zip_code":"9300972","prefecture":"富山県","prefecture_kana":"トヤマケン","city":"富山市","city_kana":"トヤマシ","town":"長江新町","town_kana":"ナガエシンマチ","prefecture_code":16},"0973":{"zip_code":"9300973","prefecture":"富山県","prefecture_kana":"トヤマケン","city":"富山市","city_kana":"トヤマシ","town":"長江東町","town_kana":"ナガエヒガシマチ","prefecture_code":16},"0962":{"zip_code":"9300962","prefecture":"富山県","prefecture_kana":"トヤマケン","city":"富山市","city_kana":"トヤマシ","town":"長江本町","town_kana":"ナガエホンマチ","prefecture_code":16},"0076":{"zip_code":"9300076","prefecture":"富山県","prefecture_kana":"トヤマケン","city":"富山市","city_kana":"トヤマシ","town":"長柄町","town_kana":"ナガエマチ","prefecture_code":16},"0166":{"zip_code":"9300166","prefecture":"富山県","prefecture_kana":"トヤマケン","city":"富山市","city_kana":"トヤマシ","town":"中老田","town_kana":"ナカオイダ","prefecture_code":16},"1334":{"zip_code":"9301334","prefecture":"富山県","prefecture_kana":"トヤマケン","city":"富山市","city_kana":"トヤマシ","town":"中大浦","town_kana":"ナカオオウラ","prefecture_code":16},"0111":{"zip_code":"9300111","prefecture":"富山県","prefecture_kana":"トヤマケン","city":"富山市","city_kana":"トヤマシ","town":"長岡","town_kana":"ナガオカ","prefecture_code":16},"0113":{"zip_code":"9300113","prefecture":"富山県","prefecture_kana":"トヤマケン","city":"富山市","city_kana":"トヤマシ","town":"長岡新","town_kana":"ナガオカシン","prefecture_code":16},"0101":{"zip_code":"9300101","prefecture":"富山県","prefecture_kana":"トヤマケン","city":"富山市","city_kana":"トヤマシ","town":"中沖","town_kana":"ナカオキ","prefecture_code":16},"0801":{"zip_code":"9300801","prefecture":"富山県","prefecture_kana":"トヤマケン","city":"富山市","city_kana":"トヤマシ","town":"中島","town_kana":"ナカジマ","prefecture_code":16},"1313":{"zip_code":"9301313","prefecture":"富山県","prefecture_kana":"トヤマケン","city":"富山市","city_kana":"トヤマシ","town":"中滝","town_kana":"ナカダキ","prefecture_code":16},"1462":{"zip_code":"9301462","prefecture":"富山県","prefecture_kana":"トヤマケン","city":"富山市","city_kana":"トヤマシ","town":"中地山","town_kana":"ナカチヤマ","prefecture_code":16},"0903":{"zip_code":"9300903","prefecture":"富山県","prefecture_kana":"トヤマケン","city":"富山市","city_kana":"トヤマシ","town":"中野新","town_kana":"ナカノシン","prefecture_code":16},"1315":{"zip_code":"9301315","prefecture":"富山県","prefecture_kana":"トヤマケン","city":"富山市","city_kana":"トヤマシ","town":"中番","town_kana":"ナカノバン","prefecture_code":16},"1316":[{"zip_code":"9301316","prefecture":"富山県","prefecture_kana":"トヤマケン","city":"富山市","city_kana":"トヤマシ","town":"中番","town_kana":"ナカノバン","prefecture_code":16},{"zip_code":"9301316","prefecture":"富山県","prefecture_kana":"トヤマケン","city":"富山市","city_kana":"トヤマシ","town":"中番新栄町","town_kana":"ナカノバンシンサカエマチ","prefecture_code":16},{"zip_code":"9301316","prefecture":"富山県","prefecture_kana":"トヤマケン","city":"富山市","city_kana":"トヤマシ","town":"三室荒屋","town_kana":"ミムロアラヤ","prefecture_code":16},{"zip_code":"9301316","prefecture":"富山県","prefecture_kana":"トヤマケン","city":"富山市","city_kana":"トヤマシ","town":"三室荒屋新栄町","town_kana":"ミムロアラヤシンサカエマチ","prefecture_code":16}],"0832":{"zip_code":"9300832","prefecture":"富山県","prefecture_kana":"トヤマケン","city":"富山市","city_kana":"トヤマシ","town":"中冨居","town_kana":"ナカフゴ","prefecture_code":16},"0830":{"zip_code":"9300830","prefecture":"富山県","prefecture_kana":"トヤマケン","city":"富山市","city_kana":"トヤマシ","town":"中冨居新町","town_kana":"ナカフゴシンマチ","prefecture_code":16},"0831":{"zip_code":"9300831","prefecture":"富山県","prefecture_kana":"トヤマケン","city":"富山市","city_kana":"トヤマシ","town":"鍋田","town_kana":"ナベタ","prefecture_code":16},"0068":{"zip_code":"9300068","prefecture":"富山県","prefecture_kana":"トヤマケン","city":"富山市","city_kana":"トヤマシ","town":"西四十物町","town_kana":"ニシアイモンチョウ","prefecture_code":16},"0165":{"zip_code":"9300165","prefecture":"富山県","prefecture_kana":"トヤマケン","city":"富山市","city_kana":"トヤマシ","town":"西押川","town_kana":"ニシオシカワ","prefecture_code":16},"1324":{"zip_code":"9301324","prefecture":"富山県","prefecture_kana":"トヤマケン","city":"富山市","city_kana":"トヤマシ","town":"西小俣","town_kana":"ニシオマタ","prefecture_code":16},"0143":{"zip_code":"9300143","prefecture":"富山県","prefecture_kana":"トヤマケン","city":"富山市","city_kana":"トヤマシ","town":"西金屋","town_kana":"ニシカナヤ","prefecture_code":16},"0073":{"zip_code":"9300073","prefecture":"富山県","prefecture_kana":"トヤマケン","city":"富山市","city_kana":"トヤマシ","town":"西山王町","town_kana":"ニシサンノウマチ","prefecture_code":16},"0981":{"zip_code":"9300981","prefecture":"富山県","prefecture_kana":"トヤマケン","city":"富山市","city_kana":"トヤマシ","town":"西新庄","town_kana":"ニシシンジョウ","prefecture_code":16},"0062":{"zip_code":"9300062","prefecture":"富山県","prefecture_kana":"トヤマケン","city":"富山市","city_kana":"トヤマシ","town":"西町","town_kana":"ニシチョウ","prefecture_code":16},"0975":{"zip_code":"9300975","prefecture":"富山県","prefecture_kana":"トヤマケン","city":"富山市","city_kana":"トヤマシ","town":"西長江","town_kana":"ニシナガエ","prefecture_code":16},"0961":{"zip_code":"9300961","prefecture":"富山県","prefecture_kana":"トヤマケン","city":"富山市","city_kana":"トヤマシ","town":"西長江本町","town_kana":"ニシナガエホンマチ","prefecture_code":16},"0177":{"zip_code":"9300177","prefecture":"富山県","prefecture_kana":"トヤマケン","city":"富山市","city_kana":"トヤマシ","town":"西二俣","town_kana":"ニシフタマタ","prefecture_code":16},"2233":[{"zip_code":"9302233","prefecture":"富山県","prefecture_kana":"トヤマケン","city":"富山市","city_kana":"トヤマシ","town":"布目","town_kana":"ヌノメ","prefecture_code":16},{"zip_code":"9302233","prefecture":"富山県","prefecture_kana":"トヤマケン","city":"富山市","city_kana":"トヤマシ","town":"布目西","town_kana":"ヌノメニシ","prefecture_code":16},{"zip_code":"9302233","prefecture":"富山県","prefecture_kana":"トヤマケン","city":"富山市","city_kana":"トヤマシ","town":"布目北","town_kana":"ヌノメキタ","prefecture_code":16}],"2236":{"zip_code":"9302236","prefecture":"富山県","prefecture_kana":"トヤマケン","city":"富山市","city_kana":"トヤマシ","town":"布目旭","town_kana":"ヌノメアサヒ","prefecture_code":16},"2235":{"zip_code":"9302235","prefecture":"富山県","prefecture_kana":"トヤマケン","city":"富山市","city_kana":"トヤマシ","town":"布目新町","town_kana":"ヌノメシンマチ","prefecture_code":16},"2231":{"zip_code":"9302231","prefecture":"富山県","prefecture_kana":"トヤマケン","city":"富山市","city_kana":"トヤマシ","town":"布目東町","town_kana":"ヌノメヒガシマチ","prefecture_code":16},"2234":{"zip_code":"9302234","prefecture":"富山県","prefecture_kana":"トヤマケン","city":"富山市","city_kana":"トヤマシ","town":"布目緑町","town_kana":"ヌノメミドリマチ","prefecture_code":16},"2232":{"zip_code":"9302232","prefecture":"富山県","prefecture_kana":"トヤマケン","city":"富山市","city_kana":"トヤマシ","town":"布目南町","town_kana":"ヌノメミナミマチ","prefecture_code":16},"0173":[{"zip_code":"9300173","prefecture":"富山県","prefecture_kana":"トヤマケン","city":"富山市","city_kana":"トヤマシ","town":"野口","town_kana":"ノグチ","prefecture_code":16},{"zip_code":"9300173","prefecture":"富山県","prefecture_kana":"トヤマケン","city":"富山市","city_kana":"トヤマシ","town":"野口南部","town_kana":"ノグチナンブ","prefecture_code":16},{"zip_code":"9300173","prefecture":"富山県","prefecture_kana":"トヤマケン","city":"富山市","city_kana":"トヤマシ","town":"野口北部","town_kana":"ノグチホクブ","prefecture_code":16}],"0171":{"zip_code":"9300171","prefecture":"富山県","prefecture_kana":"トヤマケン","city":"富山市","city_kana":"トヤマシ","town":"野々上","town_kana":"ノノウエ","prefecture_code":16},"0174":{"zip_code":"9300174","prefecture":"富山県","prefecture_kana":"トヤマケン","city":"富山市","city_kana":"トヤマシ","town":"野町","town_kana":"ノマチ","prefecture_code":16},"0069":{"zip_code":"9300069","prefecture":"富山県","prefecture_kana":"トヤマケン","city":"富山市","city_kana":"トヤマシ","town":"旅籠町","town_kana":"ハタゴマチ","prefecture_code":16},"0896":{"zip_code":"9300896","prefecture":"富山県","prefecture_kana":"トヤマケン","city":"富山市","city_kana":"トヤマシ","town":"畑中","town_kana":"ハタナカ","prefecture_code":16},"0026":{"zip_code":"9300026","prefecture":"富山県","prefecture_kana":"トヤマケン","city":"富山市","city_kana":"トヤマシ","town":"八人町","town_kana":"ハチニンマチ","prefecture_code":16},"0112":{"zip_code":"9300112","prefecture":"富山県","prefecture_kana":"トヤマケン","city":"富山市","city_kana":"トヤマシ","town":"八ケ山","town_kana":"ハッカヤマ","prefecture_code":16},"2226":[{"zip_code":"9302226","prefecture":"富山県","prefecture_kana":"トヤマケン","city":"富山市","city_kana":"トヤマシ","town":"八町","town_kana":"ハッチョウ","prefecture_code":16},{"zip_code":"9302226","prefecture":"富山県","prefecture_kana":"トヤマケン","city":"富山市","city_kana":"トヤマシ","town":"八町中","town_kana":"ハッチョウナカ","prefecture_code":16},{"zip_code":"9302226","prefecture":"富山県","prefecture_kana":"トヤマケン","city":"富山市","city_kana":"トヤマシ","town":"八町東","town_kana":"ハッチョウヒガシ","prefecture_code":16},{"zip_code":"9302226","prefecture":"富山県","prefecture_kana":"トヤマケン","city":"富山市","city_kana":"トヤマシ","town":"八町西","town_kana":"ハッチョウニシ","prefecture_code":16},{"zip_code":"9302226","prefecture":"富山県","prefecture_kana":"トヤマケン","city":"富山市","city_kana":"トヤマシ","town":"八町南","town_kana":"ハッチョウミナミ","prefecture_code":16},{"zip_code":"9302226","prefecture":"富山県","prefecture_kana":"トヤマケン","city":"富山市","city_kana":"トヤマシ","town":"八町北","town_kana":"ハッチョウキタ","prefecture_code":16}],"1326":{"zip_code":"9301326","prefecture":"富山県","prefecture_kana":"トヤマケン","city":"富山市","city_kana":"トヤマシ","town":"花崎","town_kana":"ハナサキ","prefecture_code":16},"0162":{"zip_code":"9300162","prefecture":"富山県","prefecture_kana":"トヤマケン","city":"富山市","city_kana":"トヤマシ","town":"花木","town_kana":"ハナノキ","prefecture_code":16},"0864":{"zip_code":"9300864","prefecture":"富山県","prefecture_kana":"トヤマケン","city":"富山市","city_kana":"トヤマシ","town":"羽根","town_kana":"ハネ","prefecture_code":16},"1454":{"zip_code":"9301454","prefecture":"富山県","prefecture_kana":"トヤマケン","city":"富山市","city_kana":"トヤマシ","town":"原","town_kana":"ハラ","prefecture_code":16},"1453":[{"zip_code":"9301453","prefecture":"富山県","prefecture_kana":"トヤマケン","city":"富山市","city_kana":"トヤマシ","town":"原","town_kana":"ハラ","prefecture_code":16},{"zip_code":"9301453","prefecture":"富山県","prefecture_kana":"トヤマケン","city":"富山市","city_kana":"トヤマシ","town":"原極楽坂","town_kana":"ハラゴクラクザカ","prefecture_code":16}],"1283":{"zip_code":"9301283","prefecture":"富山県","prefecture_kana":"トヤマケン","city":"富山市","city_kana":"トヤマシ","town":"日尾","town_kana":"ヒオ","prefecture_code":16},"0964":{"zip_code":"9300964","prefecture":"富山県","prefecture_kana":"トヤマケン","city":"富山市","city_kana":"トヤマシ","town":"東石金町","town_kana":"ヒガシイシガネマチ","prefecture_code":16},"0161":{"zip_code":"9300161","prefecture":"富山県","prefecture_kana":"トヤマケン","city":"富山市","city_kana":"トヤマシ","town":"東老田","town_kana":"ヒガシオイダ","prefecture_code":16},"1323":{"zip_code":"9301323","prefecture":"富山県","prefecture_kana":"トヤマケン","city":"富山市","city_kana":"トヤマシ","town":"東小俣","town_kana":"ヒガシオマタ","prefecture_code":16},"1262":{"zip_code":"9301262","prefecture":"富山県","prefecture_kana":"トヤマケン","city":"富山市","city_kana":"トヤマシ","town":"東黒牧","town_kana":"ヒガシクロマキ","prefecture_code":16},"1263":[{"zip_code":"9301263","prefecture":"富山県","prefecture_kana":"トヤマケン","city":"富山市","city_kana":"トヤマシ","town":"東黒牧","town_kana":"ヒガシクロマキ","prefecture_code":16},{"zip_code":"9301263","prefecture":"富山県","prefecture_kana":"トヤマケン","city":"富山市","city_kana":"トヤマシ","town":"東黒牧上野","town_kana":"ヒガシクロマキウワノ","prefecture_code":16}],"0017":{"zip_code":"9300017","prefecture":"富山県","prefecture_kana":"トヤマケン","city":"富山市","city_kana":"トヤマシ","town":"東田地方町","town_kana":"ヒガシデンヂガタマチ","prefecture_code":16},"1281":{"zip_code":"9301281","prefecture":"富山県","prefecture_kana":"トヤマケン","city":"富山市","city_kana":"トヤマシ","town":"東福沢","town_kana":"ヒガシフクサワ","prefecture_code":16},"1261":[{"zip_code":"9301261","prefecture":"富山県","prefecture_kana":"トヤマケン","city":"富山市","city_kana":"トヤマシ","town":"東福沢","town_kana":"ヒガシフクサワ","prefecture_code":16},{"zip_code":"9301261","prefecture":"富山県","prefecture_kana":"トヤマケン","city":"富山市","city_kana":"トヤマシ","town":"東福沢津毛","town_kana":"ヒガシフクサワツゲ","prefecture_code":16}],"1287":[{"zip_code":"9301287","prefecture":"富山県","prefecture_kana":"トヤマケン","city":"富山市","city_kana":"トヤマシ","town":"東福沢","town_kana":"ヒガシフクサワ","prefecture_code":16},{"zip_code":"9301287","prefecture":"富山県","prefecture_kana":"トヤマケン","city":"富山市","city_kana":"トヤマシ","town":"東福沢火土呂","town_kana":"ヒガシフクサワヒドロ","prefecture_code":16}],"0039":{"zip_code":"9300039","prefecture":"富山県","prefecture_kana":"トヤマケン","city":"富山市","city_kana":"トヤマシ","town":"東町","town_kana":"ヒガシマチ","prefecture_code":16},"0848":{"zip_code":"9300848","prefecture":"富山県","prefecture_kana":"トヤマケン","city":"富山市","city_kana":"トヤマシ","town":"久方町","town_kana":"ヒサカタチョウ","prefecture_code":16},"0025":{"zip_code":"9300025","prefecture":"富山県","prefecture_kana":"トヤマケン","city":"富山市","city_kana":"トヤマシ","town":"日之出町","town_kana":"ヒノデマチ","prefecture_code":16},"0912":{"zip_code":"9300912","prefecture":"富山県","prefecture_kana":"トヤマケン","city":"富山市","city_kana":"トヤマシ","town":"日俣","town_kana":"ヒマタ","prefecture_code":16},"2214":{"zip_code":"9302214","prefecture":"富山県","prefecture_kana":"トヤマケン","city":"富山市","city_kana":"トヤマシ","town":"百塚","town_kana":"ヒャクヅカ","prefecture_code":16},"0885":{"zip_code":"9300885","prefecture":"富山県","prefecture_kana":"トヤマケン","city":"富山市","city_kana":"トヤマシ","town":"鵯島","town_kana":"ヒヨドリジマ","prefecture_code":16},"0886":{"zip_code":"9300886","prefecture":"富山県","prefecture_kana":"トヤマケン","city":"富山市","city_kana":"トヤマシ","town":"ひよどり南台","town_kana":"ヒヨドリミナミダイ","prefecture_code":16},"0154":{"zip_code":"9300154","prefecture":"富山県","prefecture_kana":"トヤマケン","city":"富山市","city_kana":"トヤマシ","town":"平岡","town_kana":"ヒラオカ","prefecture_code":16},"0944":{"zip_code":"9300944","prefecture":"富山県","prefecture_kana":"トヤマケン","city":"富山市","city_kana":"トヤマシ","town":"開","town_kana":"ヒラキ","prefecture_code":16},"0157":{"zip_code":"9300157","prefecture":"富山県","prefecture_kana":"トヤマケン","city":"富山市","city_kana":"トヤマシ","town":"開ケ丘","town_kana":"ヒラキガオカ","prefecture_code":16},"0071":{"zip_code":"9300071","prefecture":"富山県","prefecture_kana":"トヤマケン","city":"富山市","city_kana":"トヤマシ","town":"平吹町","town_kana":"ヒラキマチ","prefecture_code":16},"0833":{"zip_code":"9300833","prefecture":"富山県","prefecture_kana":"トヤマケン","city":"富山市","city_kana":"トヤマシ","town":"冨居栄町","town_kana":"フゴサカエマチ","prefecture_code":16},"0965":{"zip_code":"9300965","prefecture":"富山県","prefecture_kana":"トヤマケン","city":"富山市","city_kana":"トヤマシ","town":"不二越本町","town_kana":"フジコシホンマチ","prefecture_code":16},"0963":{"zip_code":"9300963","prefecture":"富山県","prefecture_kana":"トヤマケン","city":"富山市","city_kana":"トヤマシ","town":"不二越町","town_kana":"フジコシマチ","prefecture_code":16},"0943":{"zip_code":"9300943","prefecture":"富山県","prefecture_kana":"トヤマケン","city":"富山市","city_kana":"トヤマシ","town":"藤代町","town_kana":"フジシロチョウ","prefecture_code":16},"0936":{"zip_code":"9300936","prefecture":"富山県","prefecture_kana":"トヤマケン","city":"富山市","city_kana":"トヤマシ","town":"藤木","town_kana":"フジノキ","prefecture_code":16},"0933":{"zip_code":"9300933","prefecture":"富山県","prefecture_kana":"トヤマケン","city":"富山市","city_kana":"トヤマシ","town":"藤木新","town_kana":"フジノキシン","prefecture_code":16},"0932":{"zip_code":"9300932","prefecture":"富山県","prefecture_kana":"トヤマケン","city":"富山市","city_kana":"トヤマシ","town":"藤木新町","town_kana":"フジノキシンマチ","prefecture_code":16},"0942":{"zip_code":"9300942","prefecture":"富山県","prefecture_kana":"トヤマケン","city":"富山市","city_kana":"トヤマシ","town":"藤の木園町","town_kana":"フジノキソノマチ","prefecture_code":16},"0934":{"zip_code":"9300934","prefecture":"富山県","prefecture_kana":"トヤマケン","city":"富山市","city_kana":"トヤマシ","town":"藤の木台","town_kana":"フジノキダイ","prefecture_code":16},"0941":{"zip_code":"9300941","prefecture":"富山県","prefecture_kana":"トヤマケン","city":"富山市","city_kana":"トヤマシ","town":"藤木中町","town_kana":"フジノキナカマチ","prefecture_code":16},"0935":{"zip_code":"9300935","prefecture":"富山県","prefecture_kana":"トヤマケン","city":"富山市","city_kana":"トヤマシ","town":"藤見町","town_kana":"フジミチョウ","prefecture_code":16},"0098":{"zip_code":"9300098","prefecture":"富山県","prefecture_kana":"トヤマケン","city":"富山市","city_kana":"トヤマシ","town":"舟橋今町","town_kana":"フナハシイママチ","prefecture_code":16},"0096":{"zip_code":"9300096","prefecture":"富山県","prefecture_kana":"トヤマケン","city":"富山市","city_kana":"トヤマシ","town":"舟橋北町","town_kana":"フナハシキタマチ","prefecture_code":16},"0095":{"zip_code":"9300095","prefecture":"富山県","prefecture_kana":"トヤマケン","city":"富山市","city_kana":"トヤマシ","town":"舟橋南町","town_kana":"フナハシミナミチョウ","prefecture_code":16},"0058":{"zip_code":"9300058","prefecture":"富山県","prefecture_kana":"トヤマケン","city":"富山市","city_kana":"トヤマシ","town":"古鍛冶町","town_kana":"フルカジマチ","prefecture_code":16},"2208":{"zip_code":"9302208","prefecture":"富山県","prefecture_kana":"トヤマケン","city":"富山市","city_kana":"トヤマシ","town":"古川","town_kana":"フルカワ","prefecture_code":16},"0151":{"zip_code":"9300151","prefecture":"富山県","prefecture_kana":"トヤマケン","city":"富山市","city_kana":"トヤマシ","town":"古沢","town_kana":"フルサワ","prefecture_code":16},"0876":{"zip_code":"9300876","prefecture":"富山県","prefecture_kana":"トヤマケン","city":"富山市","city_kana":"トヤマシ","town":"文京町","town_kana":"ブンキョウマチ","prefecture_code":16},"0065":{"zip_code":"9300065","prefecture":"富山県","prefecture_kana":"トヤマケン","city":"富山市","city_kana":"トヤマシ","town":"星井町","town_kana":"ホシイチョウ","prefecture_code":16},"0074":{"zip_code":"9300074","prefecture":"富山県","prefecture_kana":"トヤマケン","city":"富山市","city_kana":"トヤマシ","town":"堀端町","town_kana":"ホリハタマチ","prefecture_code":16},"1455":{"zip_code":"9301455","prefecture":"富山県","prefecture_kana":"トヤマケン","city":"富山市","city_kana":"トヤマシ","town":"本宮","town_kana":"ホングウ","prefecture_code":16},"1451":[{"zip_code":"9301451","prefecture":"富山県","prefecture_kana":"トヤマケン","city":"富山市","city_kana":"トヤマシ","town":"本宮","town_kana":"ホングウ","prefecture_code":16},{"zip_code":"9301451","prefecture":"富山県","prefecture_kana":"トヤマケン","city":"富山市","city_kana":"トヤマシ","town":"本宮粟巣野","town_kana":"ホングウアワスノ","prefecture_code":16}],"1452":[{"zip_code":"9301452","prefecture":"富山県","prefecture_kana":"トヤマケン","city":"富山市","city_kana":"トヤマシ","town":"本宮","town_kana":"ホングウ","prefecture_code":16},{"zip_code":"9301452","prefecture":"富山県","prefecture_kana":"トヤマケン","city":"富山市","city_kana":"トヤマシ","town":"本宮花切割","town_kana":"ホングウハナキリワリ","prefecture_code":16}],"0108":[{"zip_code":"9300108","prefecture":"富山県","prefecture_kana":"トヤマケン","city":"富山市","city_kana":"トヤマシ","town":"本郷","town_kana":"ホンゴウ","prefecture_code":16},{"zip_code":"9300108","prefecture":"富山県","prefecture_kana":"トヤマケン","city":"富山市","city_kana":"トヤマシ","town":"本郷中部","town_kana":"ホンゴウチュウブ","prefecture_code":16},{"zip_code":"9300108","prefecture":"富山県","prefecture_kana":"トヤマケン","city":"富山市","city_kana":"トヤマシ","town":"本郷東部","town_kana":"ホンゴウトウブ","prefecture_code":16},{"zip_code":"9300108","prefecture":"富山県","prefecture_kana":"トヤマケン","city":"富山市","city_kana":"トヤマシ","town":"本郷西部","town_kana":"ホンゴウセイブ","prefecture_code":16},{"zip_code":"9300108","prefecture":"富山県","prefecture_kana":"トヤマケン","city":"富山市","city_kana":"トヤマシ","town":"本郷北部","town_kana":"ホンゴウホクブ","prefecture_code":16}],"0911":{"zip_code":"9300911","prefecture":"富山県","prefecture_kana":"トヤマケン","city":"富山市","city_kana":"トヤマシ","town":"本郷島","town_kana":"ホンゴウジマ","prefecture_code":16},"0029":{"zip_code":"9300029","prefecture":"富山県","prefecture_kana":"トヤマケン","city":"富山市","city_kana":"トヤマシ","town":"本町","town_kana":"ホンマチ","prefecture_code":16},"0081":{"zip_code":"9300081","prefecture":"富山県","prefecture_kana":"トヤマケン","city":"富山市","city_kana":"トヤマシ","town":"本丸","town_kana":"ホンマル","prefecture_code":16},"1465":{"zip_code":"9301465","prefecture":"富山県","prefecture_kana":"トヤマケン","city":"富山市","city_kana":"トヤマシ","town":"牧","town_kana":"マキ","prefecture_code":16},"1282":{"zip_code":"9301282","prefecture":"富山県","prefecture_kana":"トヤマケン","city":"富山市","city_kana":"トヤマシ","town":"牧野","town_kana":"マキノ","prefecture_code":16},"1301":{"zip_code":"9301301","prefecture":"富山県","prefecture_kana":"トヤマケン","city":"富山市","city_kana":"トヤマシ","town":"馬瀬口","town_kana":"マセグチ","prefecture_code":16},"1302":[{"zip_code":"9301302","prefecture":"富山県","prefecture_kana":"トヤマケン","city":"富山市","city_kana":"トヤマシ","town":"馬瀬口","town_kana":"マセグチ","prefecture_code":16},{"zip_code":"9301302","prefecture":"富山県","prefecture_kana":"トヤマケン","city":"富山市","city_kana":"トヤマシ","town":"馬瀬口殿様林","town_kana":"マセグチトノサマバヤシ","prefecture_code":16}],"0923":{"zip_code":"9300923","prefecture":"富山県","prefecture_kana":"トヤマケン","city":"富山市","city_kana":"トヤマシ","town":"町新","town_kana":"マチシン","prefecture_code":16},"0952":{"zip_code":"9300952","prefecture":"富山県","prefecture_kana":"トヤマケン","city":"富山市","city_kana":"トヤマシ","town":"町村","town_kana":"マチムラ","prefecture_code":16},"2213":{"zip_code":"9302213","prefecture":"富山県","prefecture_kana":"トヤマケン","city":"富山市","city_kana":"トヤマシ","town":"松木","town_kana":"マツノキ","prefecture_code":16},"2212":{"zip_code":"9302212","prefecture":"富山県","prefecture_kana":"トヤマケン","city":"富山市","city_kana":"トヤマシ","town":"松木新","town_kana":"マツノキシン","prefecture_code":16},"0812":{"zip_code":"9300812","prefecture":"富山県","prefecture_kana":"トヤマケン","city":"富山市","city_kana":"トヤマシ","town":"松若町","town_kana":"マツワカチョウ","prefecture_code":16},"0085":{"zip_code":"9300085","prefecture":"富山県","prefecture_kana":"トヤマケン","city":"富山市","city_kana":"トヤマシ","town":"丸の内","town_kana":"マルノウチ","prefecture_code":16},"1463":{"zip_code":"9301463","prefecture":"富山県","prefecture_kana":"トヤマケン","city":"富山市","city_kana":"トヤマシ","town":"水須","town_kana":"ミズス","prefecture_code":16},"0038":{"zip_code":"9300038","prefecture":"富山県","prefecture_kana":"トヤマケン","city":"富山市","city_kana":"トヤマシ","town":"緑町","town_kana":"ミドリチョウ","prefecture_code":16},"0805":{"zip_code":"9300805","prefecture":"富山県","prefecture_kana":"トヤマケン","city":"富山市","city_kana":"トヤマシ","town":"湊入船町","town_kana":"ミナトイリフネチョウ","prefecture_code":16},"1304":{"zip_code":"9301304","prefecture":"富山県","prefecture_kana":"トヤマケン","city":"富山市","city_kana":"トヤマシ","town":"南大場","town_kana":"ミナミオオバ","prefecture_code":16},"0054":{"zip_code":"9300054","prefecture":"富山県","prefecture_kana":"トヤマケン","city":"富山市","city_kana":"トヤマシ","town":"南新町","town_kana":"ミナミシンマチ","prefecture_code":16},"0056":{"zip_code":"9300056","prefecture":"富山県","prefecture_kana":"トヤマケン","city":"富山市","city_kana":"トヤマシ","town":"南田町","town_kana":"ミナミダマチ","prefecture_code":16},"1314":{"zip_code":"9301314","prefecture":"富山県","prefecture_kana":"トヤマケン","city":"富山市","city_kana":"トヤマシ","town":"三室荒屋","town_kana":"ミムロアラヤ","prefecture_code":16},"2211":{"zip_code":"9302211","prefecture":"富山県","prefecture_kana":"トヤマケン","city":"富山市","city_kana":"トヤマシ","town":"宮尾","town_kana":"ミヤオ","prefecture_code":16},"0902":{"zip_code":"9300902","prefecture":"富山県","prefecture_kana":"トヤマケン","city":"富山市","city_kana":"トヤマシ","town":"宮成新","town_kana":"ミヤナリシン","prefecture_code":16},"0916":[{"zip_code":"9300916","prefecture":"富山県","prefecture_kana":"トヤマケン","city":"富山市","city_kana":"トヤマシ","town":"向新庄","town_kana":"ムカイシンジョウ","prefecture_code":16},{"zip_code":"9300916","prefecture":"富山県","prefecture_kana":"トヤマケン","city":"富山市","city_kana":"トヤマシ","town":"向新庄町","town_kana":"ムカイシンジョウマチ","prefecture_code":16}],"0041":{"zip_code":"9300041","prefecture":"富山県","prefecture_kana":"トヤマケン","city":"富山市","city_kana":"トヤマシ","town":"向川原町","town_kana":"ムコウガワラマチ","prefecture_code":16},"0051":{"zip_code":"9300051","prefecture":"富山県","prefecture_kana":"トヤマケン","city":"富山市","city_kana":"トヤマシ","town":"室町通り","town_kana":"ムロマチドオリ","prefecture_code":16},"0001":{"zip_code":"9300001","prefecture":"富山県","prefecture_kana":"トヤマケン","city":"富山市","city_kana":"トヤマシ","town":"明輪町","town_kana":"メイリンチョウ","prefecture_code":16},"0033":{"zip_code":"9300033","prefecture":"富山県","prefecture_kana":"トヤマケン","city":"富山市","city_kana":"トヤマシ","town":"元町","town_kana":"モトマチ","prefecture_code":16},"0072":{"zip_code":"9300072","prefecture":"富山県","prefecture_kana":"トヤマケン","city":"富山市","city_kana":"トヤマシ","town":"桃井町","town_kana":"モモノイチョウ","prefecture_code":16},"1325":{"zip_code":"9301325","prefecture":"富山県","prefecture_kana":"トヤマケン","city":"富山市","city_kana":"トヤマシ","town":"文珠寺","town_kana":"モンジュジ","prefecture_code":16},"0092":{"zip_code":"9300092","prefecture":"富山県","prefecture_kana":"トヤマケン","city":"富山市","city_kana":"トヤマシ","town":"安田町","town_kana":"ヤスダマチ","prefecture_code":16},"0087":{"zip_code":"9300087","prefecture":"富山県","prefecture_kana":"トヤマケン","city":"富山市","city_kana":"トヤマシ","town":"安野屋町","town_kana":"ヤスノヤチョウ","prefecture_code":16},"0016":{"zip_code":"9300016","prefecture":"富山県","prefecture_kana":"トヤマケン","city":"富山市","city_kana":"トヤマシ","town":"柳町","town_kana":"ヤナギマチ","prefecture_code":16},"2222":{"zip_code":"9302222","prefecture":"富山県","prefecture_kana":"トヤマケン","city":"富山市","city_kana":"トヤマシ","town":"八幡","town_kana":"ヤハタ","prefecture_code":16},"2223":{"zip_code":"9302223","prefecture":"富山県","prefecture_kana":"トヤマケン","city":"富山市","city_kana":"トヤマシ","town":"八幡新町","town_kana":"ヤハタシンマチ","prefecture_code":16},"2215":{"zip_code":"9302215","prefecture":"富山県","prefecture_kana":"トヤマケン","city":"富山市","city_kana":"トヤマシ","town":"山岸","town_kana":"ヤマギシ","prefecture_code":16},"2117":{"zip_code":"9302117","prefecture":"富山県","prefecture_kana":"トヤマケン","city":"富山市","city_kana":"トヤマシ","town":"山田赤目谷","town_kana":"ヤマダアカメダニ","prefecture_code":16},"2114":[{"zip_code":"9302114","prefecture":"富山県","prefecture_kana":"トヤマケン","city":"富山市","city_kana":"トヤマシ","town":"山田居舟","town_kana":"ヤマダイブネ","prefecture_code":16},{"zip_code":"9302114","prefecture":"富山県","prefecture_kana":"トヤマケン","city":"富山市","city_kana":"トヤマシ","town":"山田鍋谷","town_kana":"ヤマダナベタニ","prefecture_code":16}],"2125":{"zip_code":"9302125","prefecture":"富山県","prefecture_kana":"トヤマケン","city":"富山市","city_kana":"トヤマシ","town":"山田今山田","town_kana":"ヤマダイマヤマダ","prefecture_code":16},"2111":{"zip_code":"9302111","prefecture":"富山県","prefecture_kana":"トヤマケン","city":"富山市","city_kana":"トヤマシ","town":"山田鎌倉","town_kana":"ヤマダカマクラ","prefecture_code":16},"2106":{"zip_code":"9302106","prefecture":"富山県","prefecture_kana":"トヤマケン","city":"富山市","city_kana":"トヤマシ","town":"山田北山","town_kana":"ヤマダキタヤマ","prefecture_code":16},"2123":{"zip_code":"9302123","prefecture":"富山県","prefecture_kana":"トヤマケン","city":"富山市","city_kana":"トヤマシ","town":"山田小島","town_kana":"ヤマダコジマ","prefecture_code":16},"2122":[{"zip_code":"9302122","prefecture":"富山県","prefecture_kana":"トヤマケン","city":"富山市","city_kana":"トヤマシ","town":"山田小島","town_kana":"ヤマダコジマ","prefecture_code":16},{"zip_code":"9302122","prefecture":"富山県","prefecture_kana":"トヤマケン","city":"富山市","city_kana":"トヤマシ","town":"山田小島城山","town_kana":"ヤマダコジマジョウヤマ","prefecture_code":16}],"2115":{"zip_code":"9302115","prefecture":"富山県","prefecture_kana":"トヤマケン","city":"富山市","city_kana":"トヤマシ","town":"山田小谷","town_kana":"ヤマダコダニ","prefecture_code":16},"2116":[{"zip_code":"9302116","prefecture":"富山県","prefecture_kana":"トヤマケン","city":"富山市","city_kana":"トヤマシ","town":"山田小谷","town_kana":"ヤマダコダニ","prefecture_code":16},{"zip_code":"9302116","prefecture":"富山県","prefecture_kana":"トヤマケン","city":"富山市","city_kana":"トヤマシ","town":"山田小谷中根","town_kana":"ヤマダコダニナカネ","prefecture_code":16}],"2126":{"zip_code":"9302126","prefecture":"富山県","prefecture_kana":"トヤマケン","city":"富山市","city_kana":"トヤマシ","town":"山田清水","town_kana":"ヤマダショウズ","prefecture_code":16},"2121":{"zip_code":"9302121","prefecture":"富山県","prefecture_kana":"トヤマケン","city":"富山市","city_kana":"トヤマシ","town":"山田白井谷","town_kana":"ヤマダシロイダニ","prefecture_code":16},"2102":{"zip_code":"9302102","prefecture":"富山県","prefecture_kana":"トヤマケン","city":"富山市","city_kana":"トヤマシ","town":"山田宿坊","town_kana":"ヤマダスクボウ","prefecture_code":16},"2104":[{"zip_code":"9302104","prefecture":"富山県","prefecture_kana":"トヤマケン","city":"富山市","city_kana":"トヤマシ","town":"山田宿坊","town_kana":"ヤマダスクボウ","prefecture_code":16},{"zip_code":"9302104","prefecture":"富山県","prefecture_kana":"トヤマケン","city":"富山市","city_kana":"トヤマシ","town":"山田宿坊沢連","town_kana":"ヤマダスクボウソウレ","prefecture_code":16}],"2103":[{"zip_code":"9302103","prefecture":"富山県","prefecture_kana":"トヤマケン","city":"富山市","city_kana":"トヤマシ","town":"山田宿坊","town_kana":"ヤマダスクボウ","prefecture_code":16},{"zip_code":"9302103","prefecture":"富山県","prefecture_kana":"トヤマケン","city":"富山市","city_kana":"トヤマシ","town":"山田宿坊柳川","town_kana":"ヤマダスクボウヤナイゴ","prefecture_code":16}],"2113":{"zip_code":"9302113","prefecture":"富山県","prefecture_kana":"トヤマケン","city":"富山市","city_kana":"トヤマシ","town":"山田谷","town_kana":"ヤマダタニ","prefecture_code":16},"2101":{"zip_code":"9302101","prefecture":"富山県","prefecture_kana":"トヤマケン","city":"富山市","city_kana":"トヤマシ","town":"山田中瀬","town_kana":"ヤマダナカノセ","prefecture_code":16},"2108":[{"zip_code":"9302108","prefecture":"富山県","prefecture_kana":"トヤマケン","city":"富山市","city_kana":"トヤマシ","town":"山田中瀬","town_kana":"ヤマダナカノセ","prefecture_code":16},{"zip_code":"9302108","prefecture":"富山県","prefecture_kana":"トヤマケン","city":"富山市","city_kana":"トヤマシ","town":"山田中瀬上中瀬","town_kana":"ヤマダナカノセカミナカノセ","prefecture_code":16}],"2107":[{"zip_code":"9302107","prefecture":"富山県","prefecture_kana":"トヤマケン","city":"富山市","city_kana":"トヤマシ","town":"山田中瀬","town_kana":"ヤマダナカノセ","prefecture_code":16},{"zip_code":"9302107","prefecture":"富山県","prefecture_kana":"トヤマケン","city":"富山市","city_kana":"トヤマシ","town":"山田中瀬竹の内","town_kana":"ヤマダナカノセタケノウチ","prefecture_code":16}],"2124":{"zip_code":"9302124","prefecture":"富山県","prefecture_kana":"トヤマケン","city":"富山市","city_kana":"トヤマシ","town":"山田中村","town_kana":"ヤマダナカムラ","prefecture_code":16},"2128":{"zip_code":"9302128","prefecture":"富山県","prefecture_kana":"トヤマケン","city":"富山市","city_kana":"トヤマシ","town":"山田沼又","town_kana":"ヤマダヌマノマタ","prefecture_code":16},"2127":{"zip_code":"9302127","prefecture":"富山県","prefecture_kana":"トヤマケン","city":"富山市","city_kana":"トヤマシ","town":"山田牧","town_kana":"ヤマダマキ","prefecture_code":16},"2105":{"zip_code":"9302105","prefecture":"富山県","prefecture_kana":"トヤマケン","city":"富山市","city_kana":"トヤマシ","town":"山田湯","town_kana":"ヤマダユ","prefecture_code":16},"2112":{"zip_code":"9302112","prefecture":"富山県","prefecture_kana":"トヤマケン","city":"富山市","city_kana":"トヤマシ","town":"山田若土","town_kana":"ヤマダワカヅチ","prefecture_code":16},"0019":{"zip_code":"9300019","prefecture":"富山県","prefecture_kana":"トヤマケン","city":"富山市","city_kana":"トヤマシ","town":"弥生町","town_kana":"ヤヨイチョウ","prefecture_code":16},"2243":[{"zip_code":"9302243","prefecture":"富山県","prefecture_kana":"トヤマケン","city":"富山市","city_kana":"トヤマシ","town":"四方","town_kana":"ヨカタ","prefecture_code":16},{"zip_code":"9302243","prefecture":"富山県","prefecture_kana":"トヤマケン","city":"富山市","city_kana":"トヤマシ","town":"四方荒屋","town_kana":"ヨカタアラヤ","prefecture_code":16}],"2255":{"zip_code":"9302255","prefecture":"富山県","prefecture_kana":"トヤマケン","city":"富山市","city_kana":"トヤマシ","town":"四方一番町","town_kana":"ヨカタイチバンマチ","prefecture_code":16},"2245":{"zip_code":"9302245","prefecture":"富山県","prefecture_kana":"トヤマケン","city":"富山市","city_kana":"トヤマシ","town":"四方江代町","town_kana":"ヨカタエダイマチ","prefecture_code":16},"2258":{"zip_code":"9302258","prefecture":"富山県","prefecture_kana":"トヤマケン","city":"富山市","city_kana":"トヤマシ","town":"四方恵比須町","town_kana":"ヨカタエビスマチ","prefecture_code":16},"2242":{"zip_code":"9302242","prefecture":"富山県","prefecture_kana":"トヤマケン","city":"富山市","city_kana":"トヤマシ","town":"四方北窪","town_kana":"ヨカタキタクボ","prefecture_code":16},"2246":{"zip_code":"9302246","prefecture":"富山県","prefecture_kana":"トヤマケン","city":"富山市","city_kana":"トヤマシ","town":"四方新","town_kana":"ヨカタシン","prefecture_code":16},"2247":{"zip_code":"9302247","prefecture":"富山県","prefecture_kana":"トヤマケン","city":"富山市","city_kana":"トヤマシ","town":"四方新出町","town_kana":"ヨカタシンデマチ","prefecture_code":16},"2254":{"zip_code":"9302254","prefecture":"富山県","prefecture_kana":"トヤマケン","city":"富山市","city_kana":"トヤマシ","town":"四方神明町","town_kana":"ヨカタシンメイマチ","prefecture_code":16},"2253":{"zip_code":"9302253","prefecture":"富山県","prefecture_kana":"トヤマケン","city":"富山市","city_kana":"トヤマシ","town":"四方田町","town_kana":"ヨカタタマチ","prefecture_code":16},"2244":{"zip_code":"9302244","prefecture":"富山県","prefecture_kana":"トヤマケン","city":"富山市","city_kana":"トヤマシ","town":"四方茶園町","town_kana":"ヨカタチャエンマチ","prefecture_code":16},"2241":{"zip_code":"9302241","prefecture":"富山県","prefecture_kana":"トヤマケン","city":"富山市","city_kana":"トヤマシ","town":"四方西岩瀬","town_kana":"ヨカタニシイワセ","prefecture_code":16},"2252":[{"zip_code":"9302252","prefecture":"富山県","prefecture_kana":"トヤマケン","city":"富山市","city_kana":"トヤマシ","town":"四方西野割町","town_kana":"ヨカタニシノワリマチ","prefecture_code":16},{"zip_code":"9302252","prefecture":"富山県","prefecture_kana":"トヤマケン","city":"富山市","city_kana":"トヤマシ","town":"四方野割町","town_kana":"ヨカタノワリマチ","prefecture_code":16}],"2257":{"zip_code":"9302257","prefecture":"富山県","prefecture_kana":"トヤマケン","city":"富山市","city_kana":"トヤマシ","town":"四方二番町","town_kana":"ヨカタニバンマチ","prefecture_code":16},"2251":{"zip_code":"9302251","prefecture":"富山県","prefecture_kana":"トヤマケン","city":"富山市","city_kana":"トヤマシ","town":"四方東野割町","town_kana":"ヨカタヒガシノワリマチ","prefecture_code":16},"2256":{"zip_code":"9302256","prefecture":"富山県","prefecture_kana":"トヤマケン","city":"富山市","city_kana":"トヤマシ","town":"四方港町","town_kana":"ヨカタミナトマチ","prefecture_code":16},"2248":{"zip_code":"9302248","prefecture":"富山県","prefecture_kana":"トヤマケン","city":"富山市","city_kana":"トヤマシ","town":"四方南町","town_kana":"ヨカタミナミマチ","prefecture_code":16},"0142":{"zip_code":"9300142","prefecture":"富山県","prefecture_kana":"トヤマケン","city":"富山市","city_kana":"トヤマシ","town":"吉作","town_kana":"ヨシヅクリ","prefecture_code":16},"0141":{"zip_code":"9300141","prefecture":"富山県","prefecture_kana":"トヤマケン","city":"富山市","city_kana":"トヤマシ","town":"吉作新町","town_kana":"ヨシヅクリシンマチ","prefecture_code":16},"0841":{"zip_code":"9300841","prefecture":"富山県","prefecture_kana":"トヤマケン","city":"富山市","city_kana":"トヤマシ","town":"四ツ葉町","town_kana":"ヨツバチョウ","prefecture_code":16},"1461":{"zip_code":"9301461","prefecture":"富山県","prefecture_kana":"トヤマケン","city":"富山市","city_kana":"トヤマシ","town":"和田","town_kana":"ワダ","prefecture_code":16},"0200":[{"zip_code":"9300200","prefecture":"富山県","prefecture_kana":"トヤマケン","city":"中新川郡舟橋村","city_kana":"ナカニイカワグンフナハシムラ","town":"","town_kana":"","prefecture_code":16},{"zip_code":"9300200","prefecture":"富山県","prefecture_kana":"トヤマケン","city":"中新川郡立山町","city_kana":"ナカニイカワグンタテヤママチ","town":"","town_kana":"","prefecture_code":16}],"0287":{"zip_code":"9300287","prefecture":"富山県","prefecture_kana":"トヤマケン","city":"中新川郡舟橋村","city_kana":"ナカニイカワグンフナハシムラ","town":"稲荷","town_kana":"イナリ","prefecture_code":16},"0283":{"zip_code":"9300283","prefecture":"富山県","prefecture_kana":"トヤマケン","city":"中新川郡舟橋村","city_kana":"ナカニイカワグンフナハシムラ","town":"海老江","town_kana":"エビエ","prefecture_code":16},"0288":{"zip_code":"9300288","prefecture":"富山県","prefecture_kana":"トヤマケン","city":"中新川郡舟橋村","city_kana":"ナカニイカワグンフナハシムラ","town":"国重","town_kana":"クニシゲ","prefecture_code":16},"0289":{"zip_code":"9300289","prefecture":"富山県","prefecture_kana":"トヤマケン","city":"中新川郡舟橋村","city_kana":"ナカニイカワグンフナハシムラ","town":"竹内","town_kana":"タケノウチ","prefecture_code":16},"0284":{"zip_code":"9300284","prefecture":"富山県","prefecture_kana":"トヤマケン","city":"中新川郡舟橋村","city_kana":"ナカニイカワグンフナハシムラ","town":"竹鼻","town_kana":"タケハナ","prefecture_code":16},"0286":{"zip_code":"9300286","prefecture":"富山県","prefecture_kana":"トヤマケン","city":"中新川郡舟橋村","city_kana":"ナカニイカワグンフナハシムラ","town":"東芦原","town_kana":"ヒガシアシハラ","prefecture_code":16},"0282":{"zip_code":"9300282","prefecture":"富山県","prefecture_kana":"トヤマケン","city":"中新川郡舟橋村","city_kana":"ナカニイカワグンフナハシムラ","town":"仏生寺","town_kana":"ブッショウジ","prefecture_code":16},"0281":{"zip_code":"9300281","prefecture":"富山県","prefecture_kana":"トヤマケン","city":"中新川郡舟橋村","city_kana":"ナカニイカワグンフナハシムラ","town":"舟橋","town_kana":"フナハシ","prefecture_code":16},"0285":{"zip_code":"9300285","prefecture":"富山県","prefecture_kana":"トヤマケン","city":"中新川郡舟橋村","city_kana":"ナカニイカワグンフナハシムラ","town":"古海老江","town_kana":"フルエビエ","prefecture_code":16},"0300":{"zip_code":"9300300","prefecture":"富山県","prefecture_kana":"トヤマケン","city":"中新川郡上市町","city_kana":"ナカニイカワグンカミイチマチ","town":"","town_kana":"","prefecture_code":16},"0374":{"zip_code":"9300374","prefecture":"富山県","prefecture_kana":"トヤマケン","city":"中新川郡上市町","city_kana":"ナカニイカワグンカミイチマチ","town":"相ノ木新町","town_kana":"アイノキシンマチ","prefecture_code":16},"0384":{"zip_code":"9300384","prefecture":"富山県","prefecture_kana":"トヤマケン","city":"中新川郡上市町","city_kana":"ナカニイカワグンカミイチマチ","town":"青出新","town_kana":"アオイデシン","prefecture_code":16},"0331":{"zip_code":"9300331","prefecture":"富山県","prefecture_kana":"トヤマケン","city":"中新川郡上市町","city_kana":"ナカニイカワグンカミイチマチ","town":"旭町","town_kana":"アサヒマチ","prefecture_code":16},"0464":{"zip_code":"9300464","prefecture":"富山県","prefecture_kana":"トヤマケン","city":"中新川郡上市町","city_kana":"ナカニイカワグンカミイチマチ","town":"浅生","town_kana":"アソ","prefecture_code":16},"0377":{"zip_code":"9300377","prefecture":"富山県","prefecture_kana":"トヤマケン","city":"中新川郡上市町","city_kana":"ナカニイカワグンカミイチマチ","town":"新清水","town_kana":"アラシミズ","prefecture_code":16},"0471":{"zip_code":"9300471","prefecture":"富山県","prefecture_kana":"トヤマケン","city":"中新川郡上市町","city_kana":"ナカニイカワグンカミイチマチ","town":"新屋","town_kana":"アラヤ","prefecture_code":16},"0305":{"zip_code":"9300305","prefecture":"富山県","prefecture_kana":"トヤマケン","city":"中新川郡上市町","city_kana":"ナカニイカワグンカミイチマチ","town":"荒田","town_kana":"アレタ","prefecture_code":16},"0385":{"zip_code":"9300385","prefecture":"富山県","prefecture_kana":"トヤマケン","city":"中新川郡上市町","city_kana":"ナカニイカワグンカミイチマチ","town":"飯坂","town_kana":"イイザカ","prefecture_code":16},"0387":{"zip_code":"9300387","prefecture":"富山県","prefecture_kana":"トヤマケン","city":"中新川郡上市町","city_kana":"ナカニイカワグンカミイチマチ","town":"飯坂新","town_kana":"イイザカシン","prefecture_code":16},"0437":{"zip_code":"9300437","prefecture":"富山県","prefecture_kana":"トヤマケン","city":"中新川郡上市町","city_kana":"ナカニイカワグンカミイチマチ","town":"伊折","town_kana":"イオリ","prefecture_code":16},"0332":{"zip_code":"9300332","prefecture":"富山県","prefecture_kana":"トヤマケン","city":"中新川郡上市町","city_kana":"ナカニイカワグンカミイチマチ","town":"石浦町","town_kana":"イシウラチョウ","prefecture_code":16},"0302":{"zip_code":"9300302","prefecture":"富山県","prefecture_kana":"トヤマケン","city":"中新川郡上市町","city_kana":"ナカニイカワグンカミイチマチ","town":"石仏","town_kana":"イシボトケ","prefecture_code":16},"0413":{"zip_code":"9300413","prefecture":"富山県","prefecture_kana":"トヤマケン","city":"中新川郡上市町","city_kana":"ナカニイカワグンカミイチマチ","town":"一の越","town_kana":"イチノコシ","prefecture_code":16},"0432":{"zip_code":"9300432","prefecture":"富山県","prefecture_kana":"トヤマケン","city":"中新川郡上市町","city_kana":"ナカニイカワグンカミイチマチ","town":"稲村","town_kana":"イナムラ","prefecture_code":16},"0414":{"zip_code":"9300414","prefecture":"富山県","prefecture_kana":"トヤマケン","city":"中新川郡上市町","city_kana":"ナカニイカワグンカミイチマチ","town":"永代","town_kana":"エイタイ","prefecture_code":16},"0318":{"zip_code":"9300318","prefecture":"富山県","prefecture_kana":"トヤマケン","city":"中新川郡上市町","city_kana":"ナカニイカワグンカミイチマチ","town":"江上","town_kana":"エガミ","prefecture_code":16},"0317":{"zip_code":"9300317","prefecture":"富山県","prefecture_kana":"トヤマケン","city":"中新川郡上市町","city_kana":"ナカニイカワグンカミイチマチ","town":"江又","town_kana":"エマタ","prefecture_code":16},"0463":{"zip_code":"9300463","prefecture":"富山県","prefecture_kana":"トヤマケン","city":"中新川郡上市町","city_kana":"ナカニイカワグンカミイチマチ","town":"大岩","town_kana":"オオイワ","prefecture_code":16},"0465":{"zip_code":"9300465","prefecture":"富山県","prefecture_kana":"トヤマケン","city":"中新川郡上市町","city_kana":"ナカニイカワグンカミイチマチ","town":"大沢","town_kana":"オオサワ","prefecture_code":16},"0354":{"zip_code":"9300354","prefecture":"富山県","prefecture_kana":"トヤマケン","city":"中新川郡上市町","city_kana":"ナカニイカワグンカミイチマチ","town":"大坪","town_kana":"オオツボ","prefecture_code":16},"0462":{"zip_code":"9300462","prefecture":"富山県","prefecture_kana":"トヤマケン","city":"中新川郡上市町","city_kana":"ナカニイカワグンカミイチマチ","town":"大松","town_kana":"オオマツ","prefecture_code":16},"0461":{"zip_code":"9300461","prefecture":"富山県","prefecture_kana":"トヤマケン","city":"中新川郡上市町","city_kana":"ナカニイカワグンカミイチマチ","town":"大松新","town_kana":"オオマツシン","prefecture_code":16},"0303":{"zip_code":"9300303","prefecture":"富山県","prefecture_kana":"トヤマケン","city":"中新川郡上市町","city_kana":"ナカニイカワグンカミイチマチ","town":"大永田","town_kana":"オナガタ","prefecture_code":16},"0472":{"zip_code":"9300472","prefecture":"富山県","prefecture_kana":"トヤマケン","city":"中新川郡上市町","city_kana":"ナカニイカワグンカミイチマチ","town":"女川","town_kana":"オナガワ","prefecture_code":16},"0435":{"zip_code":"9300435","prefecture":"富山県","prefecture_kana":"トヤマケン","city":"中新川郡上市町","city_kana":"ナカニイカワグンカミイチマチ","town":"折戸","town_kana":"オリト","prefecture_code":16},"0473":{"zip_code":"9300473","prefecture":"富山県","prefecture_kana":"トヤマケン","city":"中新川郡上市町","city_kana":"ナカニイカワグンカミイチマチ","town":"柿沢","town_kana":"カキザワ","prefecture_code":16},"0406":{"zip_code":"9300406","prefecture":"富山県","prefecture_kana":"トヤマケン","city":"中新川郡上市町","city_kana":"ナカニイカワグンカミイチマチ","town":"柿沢新","town_kana":"カキザワシン","prefecture_code":16},"0346":{"zip_code":"9300346","prefecture":"富山県","prefecture_kana":"トヤマケン","city":"中新川郡上市町","city_kana":"ナカニイカワグンカミイチマチ","town":"鍵町","town_kana":"カギチョウ","prefecture_code":16},"0421":{"zip_code":"9300421","prefecture":"富山県","prefecture_kana":"トヤマケン","city":"中新川郡上市町","city_kana":"ナカニイカワグンカミイチマチ","town":"片地","town_kana":"カタジ","prefecture_code":16},"0375":{"zip_code":"9300375","prefecture":"富山県","prefecture_kana":"トヤマケン","city":"中新川郡上市町","city_kana":"ナカニイカワグンカミイチマチ","town":"上荒又","town_kana":"カミアラマタ","prefecture_code":16},"0372":{"zip_code":"9300372","prefecture":"富山県","prefecture_kana":"トヤマケン","city":"中新川郡上市町","city_kana":"ナカニイカワグンカミイチマチ","town":"上経田","town_kana":"カミキョウデン","prefecture_code":16},"0356":{"zip_code":"9300356","prefecture":"富山県","prefecture_kana":"トヤマケン","city":"中新川郡上市町","city_kana":"ナカニイカワグンカミイチマチ","town":"上正","town_kana":"カミショウ","prefecture_code":16},"0333":{"zip_code":"9300333","prefecture":"富山県","prefecture_kana":"トヤマケン","city":"中新川郡上市町","city_kana":"ナカニイカワグンカミイチマチ","town":"上中町","town_kana":"カミナカマチ","prefecture_code":16},"0352":{"zip_code":"9300352","prefecture":"富山県","prefecture_kana":"トヤマケン","city":"中新川郡上市町","city_kana":"ナカニイカワグンカミイチマチ","town":"上法音寺","town_kana":"カミホウオンジ","prefecture_code":16},"0368":{"zip_code":"9300368","prefecture":"富山県","prefecture_kana":"トヤマケン","city":"中新川郡上市町","city_kana":"ナカニイカワグンカミイチマチ","town":"川原田","town_kana":"カワハラダ","prefecture_code":16},"0351":{"zip_code":"9300351","prefecture":"富山県","prefecture_kana":"トヤマケン","city":"中新川郡上市町","city_kana":"ナカニイカワグンカミイチマチ","town":"北島","town_kana":"キタジマ","prefecture_code":16},"0347":{"zip_code":"9300347","prefecture":"富山県","prefecture_kana":"トヤマケン","city":"中新川郡上市町","city_kana":"ナカニイカワグンカミイチマチ","town":"熊野町","town_kana":"クマノマチ","prefecture_code":16},"0416":{"zip_code":"9300416","prefecture":"富山県","prefecture_kana":"トヤマケン","city":"中新川郡上市町","city_kana":"ナカニイカワグンカミイチマチ","town":"黒川","town_kana":"クロカワ","prefecture_code":16},"0434":{"zip_code":"9300434","prefecture":"富山県","prefecture_kana":"トヤマケン","city":"中新川郡上市町","city_kana":"ナカニイカワグンカミイチマチ","town":"下田","town_kana":"ゲダ","prefecture_code":16},"0417":{"zip_code":"9300417","prefecture":"富山県","prefecture_kana":"トヤマケン","city":"中新川郡上市町","city_kana":"ナカニイカワグンカミイチマチ","town":"五位尾","town_kana":"ゴイオ","prefecture_code":16},"0405":{"zip_code":"9300405","prefecture":"富山県","prefecture_kana":"トヤマケン","city":"中新川郡上市町","city_kana":"ナカニイカワグンカミイチマチ","town":"郷柿沢","town_kana":"ゴウカキザワ","prefecture_code":16},"0451":{"zip_code":"9300451","prefecture":"富山県","prefecture_kana":"トヤマケン","city":"中新川郡上市町","city_kana":"ナカニイカワグンカミイチマチ","town":"極楽寺","town_kana":"ゴクラクジ","prefecture_code":16},"0443":{"zip_code":"9300443","prefecture":"富山県","prefecture_kana":"トヤマケン","city":"中新川郡上市町","city_kana":"ナカニイカワグンカミイチマチ","town":"骨原","town_kana":"コツハラ","prefecture_code":16},"0424":{"zip_code":"9300424","prefecture":"富山県","prefecture_kana":"トヤマケン","city":"中新川郡上市町","city_kana":"ナカニイカワグンカミイチマチ","town":"斉ノ神新","town_kana":"サイノカミシン","prefecture_code":16},"0335":{"zip_code":"9300335","prefecture":"富山県","prefecture_kana":"トヤマケン","city":"中新川郡上市町","city_kana":"ナカニイカワグンカミイチマチ","town":"幸町","town_kana":"サイワイチョウ","prefecture_code":16},"0322":{"zip_code":"9300322","prefecture":"富山県","prefecture_kana":"トヤマケン","city":"中新川郡上市町","city_kana":"ナカニイカワグンカミイチマチ","town":"栄町","town_kana":"サカエチョウ","prefecture_code":16},"0422":{"zip_code":"9300422","prefecture":"富山県","prefecture_kana":"トヤマケン","city":"中新川郡上市町","city_kana":"ナカニイカワグンカミイチマチ","town":"眼目","town_kana":"サッカ","prefecture_code":16},"0458":{"zip_code":"9300458","prefecture":"富山県","prefecture_kana":"トヤマケン","city":"中新川郡上市町","city_kana":"ナカニイカワグンカミイチマチ","town":"眼目新","town_kana":"サッカシン","prefecture_code":16},"0467":{"zip_code":"9300467","prefecture":"富山県","prefecture_kana":"トヤマケン","city":"中新川郡上市町","city_kana":"ナカニイカワグンカミイチマチ","town":"塩谷","town_kana":"シオノタニ","prefecture_code":16},"0382":{"zip_code":"9300382","prefecture":"富山県","prefecture_kana":"トヤマケン","city":"中新川郡上市町","city_kana":"ナカニイカワグンカミイチマチ","town":"下青出","town_kana":"シモアオイデ","prefecture_code":16},"0376":{"zip_code":"9300376","prefecture":"富山県","prefecture_kana":"トヤマケン","city":"中新川郡上市町","city_kana":"ナカニイカワグンカミイチマチ","town":"下荒又","town_kana":"シモアラマタ","prefecture_code":16},"0373":{"zip_code":"9300373","prefecture":"富山県","prefecture_kana":"トヤマケン","city":"中新川郡上市町","city_kana":"ナカニイカワグンカミイチマチ","town":"下経田","town_kana":"シモキョウデン","prefecture_code":16},"0431":{"zip_code":"9300431","prefecture":"富山県","prefecture_kana":"トヤマケン","city":"中新川郡上市町","city_kana":"ナカニイカワグンカミイチマチ","town":"釈泉寺","town_kana":"シャクセンジ","prefecture_code":16},"0357":{"zip_code":"9300357","prefecture":"富山県","prefecture_kana":"トヤマケン","city":"中新川郡上市町","city_kana":"ナカニイカワグンカミイチマチ","town":"正印","town_kana":"ショイン","prefecture_code":16},"0358":{"zip_code":"9300358","prefecture":"富山県","prefecture_kana":"トヤマケン","city":"中新川郡上市町","city_kana":"ナカニイカワグンカミイチマチ","town":"正印新","town_kana":"ショインシン","prefecture_code":16},"0383":{"zip_code":"9300383","prefecture":"富山県","prefecture_kana":"トヤマケン","city":"中新川郡上市町","city_kana":"ナカニイカワグンカミイチマチ","town":"上条沖","town_kana":"ジョウジョウオキ","prefecture_code":16},"0365":{"zip_code":"9300365","prefecture":"富山県","prefecture_kana":"トヤマケン","city":"中新川郡上市町","city_kana":"ナカニイカワグンカミイチマチ","town":"神田","town_kana":"ジンデン","prefecture_code":16},"0324":{"zip_code":"9300324","prefecture":"富山県","prefecture_kana":"トヤマケン","city":"中新川郡上市町","city_kana":"ナカニイカワグンカミイチマチ","town":"新町","town_kana":"シンマチ","prefecture_code":16},"0366":{"zip_code":"9300366","prefecture":"富山県","prefecture_kana":"トヤマケン","city":"中新川郡上市町","city_kana":"ナカニイカワグンカミイチマチ","town":"新村","town_kana":"シンムラ","prefecture_code":16},"0342":{"zip_code":"9300342","prefecture":"富山県","prefecture_kana":"トヤマケン","city":"中新川郡上市町","city_kana":"ナカニイカワグンカミイチマチ","town":"神明町","town_kana":"シンメイマチ","prefecture_code":16},"0411":{"zip_code":"9300411","prefecture":"富山県","prefecture_kana":"トヤマケン","city":"中新川郡上市町","city_kana":"ナカニイカワグンカミイチマチ","town":"砂林開","town_kana":"スナバヤシビラキ","prefecture_code":16},"0452":{"zip_code":"9300452","prefecture":"富山県","prefecture_kana":"トヤマケン","city":"中新川郡上市町","city_kana":"ナカニイカワグンカミイチマチ","town":"須山","town_kana":"スヤマ","prefecture_code":16},"0442":{"zip_code":"9300442","prefecture":"富山県","prefecture_kana":"トヤマケン","city":"中新川郡上市町","city_kana":"ナカニイカワグンカミイチマチ","town":"千石","town_kana":"センゴク","prefecture_code":16},"0301":{"zip_code":"9300301","prefecture":"富山県","prefecture_kana":"トヤマケン","city":"中新川郡上市町","city_kana":"ナカニイカワグンカミイチマチ","town":"竹鼻","town_kana":"タケハナ","prefecture_code":16},"0425":{"zip_code":"9300425","prefecture":"富山県","prefecture_kana":"トヤマケン","city":"中新川郡上市町","city_kana":"ナカニイカワグンカミイチマチ","town":"田島野","town_kana":"タジマノ","prefecture_code":16},"0474":{"zip_code":"9300474","prefecture":"富山県","prefecture_kana":"トヤマケン","city":"中新川郡上市町","city_kana":"ナカニイカワグンカミイチマチ","town":"舘","town_kana":"タチ","prefecture_code":16},"0453":{"zip_code":"9300453","prefecture":"富山県","prefecture_kana":"トヤマケン","city":"中新川郡上市町","city_kana":"ナカニイカワグンカミイチマチ","town":"堤谷","town_kana":"ツツミダニ","prefecture_code":16},"0321":{"zip_code":"9300321","prefecture":"富山県","prefecture_kana":"トヤマケン","city":"中新川郡上市町","city_kana":"ナカニイカワグンカミイチマチ","town":"天神町","town_kana":"テンジンマチ","prefecture_code":16},"0386":{"zip_code":"9300386","prefecture":"富山県","prefecture_kana":"トヤマケン","city":"中新川郡上市町","city_kana":"ナカニイカワグンカミイチマチ","town":"中青出","town_kana":"ナカアオイデ","prefecture_code":16},"0313":{"zip_code":"9300313","prefecture":"富山県","prefecture_kana":"トヤマケン","city":"中新川郡上市町","city_kana":"ナカニイカワグンカミイチマチ","town":"中江上","town_kana":"ナカエガミ","prefecture_code":16},"0371":{"zip_code":"9300371","prefecture":"富山県","prefecture_kana":"トヤマケン","city":"中新川郡上市町","city_kana":"ナカニイカワグンカミイチマチ","town":"中開発","town_kana":"ナカカイホツ","prefecture_code":16},"0316":{"zip_code":"9300316","prefecture":"富山県","prefecture_kana":"トヤマケン","city":"中新川郡上市町","city_kana":"ナカニイカワグンカミイチマチ","town":"中小泉","town_kana":"ナカコイズミ","prefecture_code":16},"0433":{"zip_code":"9300433","prefecture":"富山県","prefecture_kana":"トヤマケン","city":"中新川郡上市町","city_kana":"ナカニイカワグンカミイチマチ","town":"中村","town_kana":"ナカムラ","prefecture_code":16},"0341":{"zip_code":"9300341","prefecture":"富山県","prefecture_kana":"トヤマケン","city":"中新川郡上市町","city_kana":"ナカニイカワグンカミイチマチ","town":"錦町","town_kana":"ニシキチョウ","prefecture_code":16},"0444":{"zip_code":"9300444","prefecture":"富山県","prefecture_kana":"トヤマケン","city":"中新川郡上市町","city_kana":"ナカニイカワグンカミイチマチ","town":"西種","town_kana":"ニシタネ","prefecture_code":16},"0323":{"zip_code":"9300323","prefecture":"富山県","prefecture_kana":"トヤマケン","city":"中新川郡上市町","city_kana":"ナカニイカワグンカミイチマチ","town":"西町","town_kana":"ニシチョウ","prefecture_code":16},"0334":{"zip_code":"9300334","prefecture":"富山県","prefecture_kana":"トヤマケン","city":"中新川郡上市町","city_kana":"ナカニイカワグンカミイチマチ","town":"西中町","town_kana":"ニシナカマチ","prefecture_code":16},"0403":{"zip_code":"9300403","prefecture":"富山県","prefecture_kana":"トヤマケン","city":"中新川郡上市町","city_kana":"ナカニイカワグンカミイチマチ","town":"野開発","town_kana":"ノカイホツ","prefecture_code":16},"0423":{"zip_code":"9300423","prefecture":"富山県","prefecture_kana":"トヤマケン","city":"中新川郡上市町","city_kana":"ナカニイカワグンカミイチマチ","town":"野島","town_kana":"ノジマ","prefecture_code":16},"0367":{"zip_code":"9300367","prefecture":"富山県","prefecture_kana":"トヤマケン","city":"中新川郡上市町","city_kana":"ナカニイカワグンカミイチマチ","town":"野福","town_kana":"ノフク","prefecture_code":16},"0438":{"zip_code":"9300438","prefecture":"富山県","prefecture_kana":"トヤマケン","city":"中新川郡上市町","city_kana":"ナカニイカワグンカミイチマチ","town":"馬場島","town_kana":"バンバジマ","prefecture_code":16},"0362":{"zip_code":"9300362","prefecture":"富山県","prefecture_kana":"トヤマケン","city":"中新川郡上市町","city_kana":"ナカニイカワグンカミイチマチ","town":"稗田","town_kana":"ヒエダ","prefecture_code":16},"0312":{"zip_code":"9300312","prefecture":"富山県","prefecture_kana":"トヤマケン","city":"中新川郡上市町","city_kana":"ナカニイカワグンカミイチマチ","town":"東江上","town_kana":"ヒガシエガミ","prefecture_code":16},"0441":{"zip_code":"9300441","prefecture":"富山県","prefecture_kana":"トヤマケン","city":"中新川郡上市町","city_kana":"ナカニイカワグンカミイチマチ","town":"東種","town_kana":"ヒガシタネ","prefecture_code":16},"0343":{"zip_code":"9300343","prefecture":"富山県","prefecture_kana":"トヤマケン","city":"中新川郡上市町","city_kana":"ナカニイカワグンカミイチマチ","town":"東町","town_kana":"ヒガシマチ","prefecture_code":16},"0381":{"zip_code":"9300381","prefecture":"富山県","prefecture_kana":"トヤマケン","city":"中新川郡上市町","city_kana":"ナカニイカワグンカミイチマチ","town":"久金","town_kana":"ヒサガネ","prefecture_code":16},"0388":{"zip_code":"9300388","prefecture":"富山県","prefecture_kana":"トヤマケン","city":"中新川郡上市町","city_kana":"ナカニイカワグンカミイチマチ","town":"久金新","town_kana":"ヒサガネシン","prefecture_code":16},"0466":{"zip_code":"9300466","prefecture":"富山県","prefecture_kana":"トヤマケン","city":"中新川郡上市町","city_kana":"ナカニイカワグンカミイチマチ","town":"桧谷","town_kana":"ヒノタニ","prefecture_code":16},"0402":{"zip_code":"9300402","prefecture":"富山県","prefecture_kana":"トヤマケン","city":"中新川郡上市町","city_kana":"ナカニイカワグンカミイチマチ","town":"広市新","town_kana":"ヒロイチシン","prefecture_code":16},"0412":{"zip_code":"9300412","prefecture":"富山県","prefecture_kana":"トヤマケン","city":"中新川郡上市町","city_kana":"ナカニイカワグンカミイチマチ","town":"広野","town_kana":"ヒロノ","prefecture_code":16},"0401":{"zip_code":"9300401","prefecture":"富山県","prefecture_kana":"トヤマケン","city":"中新川郡上市町","city_kana":"ナカニイカワグンカミイチマチ","town":"広野新","town_kana":"ヒロノシン","prefecture_code":16},"0353":{"zip_code":"9300353","prefecture":"富山県","prefecture_kana":"トヤマケン","city":"中新川郡上市町","city_kana":"ナカニイカワグンカミイチマチ","town":"法音寺","town_kana":"ホウオンジ","prefecture_code":16},"0378":{"zip_code":"9300378","prefecture":"富山県","prefecture_kana":"トヤマケン","city":"中新川郡上市町","city_kana":"ナカニイカワグンカミイチマチ","town":"放士ケ瀬","town_kana":"ホウジガセ","prefecture_code":16},"0379":{"zip_code":"9300379","prefecture":"富山県","prefecture_kana":"トヤマケン","city":"中新川郡上市町","city_kana":"ナカニイカワグンカミイチマチ","town":"放士ケ瀬新","town_kana":"ホウジガセシン","prefecture_code":16},"0415":{"zip_code":"9300415","prefecture":"富山県","prefecture_kana":"トヤマケン","city":"中新川郡上市町","city_kana":"ナカニイカワグンカミイチマチ","town":"松原野","town_kana":"マツバラノ","prefecture_code":16},"0336":{"zip_code":"9300336","prefecture":"富山県","prefecture_kana":"トヤマケン","city":"中新川郡上市町","city_kana":"ナカニイカワグンカミイチマチ","town":"松和町","town_kana":"マツワチョウ","prefecture_code":16},"0456":{"zip_code":"9300456","prefecture":"富山県","prefecture_kana":"トヤマケン","city":"中新川郡上市町","city_kana":"ナカニイカワグンカミイチマチ","town":"丸山","town_kana":"マルヤマ","prefecture_code":16},"0445":{"zip_code":"9300445","prefecture":"富山県","prefecture_kana":"トヤマケン","city":"中新川郡上市町","city_kana":"ナカニイカワグンカミイチマチ","town":"水上","town_kana":"ミズカミ","prefecture_code":16},"0404":{"zip_code":"9300404","prefecture":"富山県","prefecture_kana":"トヤマケン","city":"中新川郡上市町","city_kana":"ナカニイカワグンカミイチマチ","town":"三杉町","town_kana":"ミスギマチ","prefecture_code":16},"0325":{"zip_code":"9300325","prefecture":"富山県","prefecture_kana":"トヤマケン","city":"中新川郡上市町","city_kana":"ナカニイカワグンカミイチマチ","town":"三日市","town_kana":"ミッカイチ","prefecture_code":16},"0345":{"zip_code":"9300345","prefecture":"富山県","prefecture_kana":"トヤマケン","city":"中新川郡上市町","city_kana":"ナカニイカワグンカミイチマチ","town":"南町","town_kana":"ミナミチョウ","prefecture_code":16},"0304":{"zip_code":"9300304","prefecture":"富山県","prefecture_kana":"トヤマケン","city":"中新川郡上市町","city_kana":"ナカニイカワグンカミイチマチ","town":"森尻","town_kana":"モリジリ","prefecture_code":16},"0344":{"zip_code":"9300344","prefecture":"富山県","prefecture_kana":"トヤマケン","city":"中新川郡上市町","city_kana":"ナカニイカワグンカミイチマチ","town":"森元町","town_kana":"モリモトチョウ","prefecture_code":16},"0311":{"zip_code":"9300311","prefecture":"富山県","prefecture_kana":"トヤマケン","city":"中新川郡上市町","city_kana":"ナカニイカワグンカミイチマチ","town":"弥市","town_kana":"ヤイチ","prefecture_code":16},"0326":{"zip_code":"9300326","prefecture":"富山県","prefecture_kana":"トヤマケン","city":"中新川郡上市町","city_kana":"ナカニイカワグンカミイチマチ","town":"柳町","town_kana":"ヤナギマチ","prefecture_code":16},"0361":{"zip_code":"9300361","prefecture":"富山県","prefecture_kana":"トヤマケン","city":"中新川郡上市町","city_kana":"ナカニイカワグンカミイチマチ","town":"湯上野","town_kana":"ユウワノ","prefecture_code":16},"0455":{"zip_code":"9300455","prefecture":"富山県","prefecture_kana":"トヤマケン","city":"中新川郡上市町","city_kana":"ナカニイカワグンカミイチマチ","town":"湯崎野","town_kana":"ユサキノ","prefecture_code":16},"0454":{"zip_code":"9300454","prefecture":"富山県","prefecture_kana":"トヤマケン","city":"中新川郡上市町","city_kana":"ナカニイカワグンカミイチマチ","town":"湯神子","town_kana":"ユノミコ","prefecture_code":16},"0457":{"zip_code":"9300457","prefecture":"富山県","prefecture_kana":"トヤマケン","city":"中新川郡上市町","city_kana":"ナカニイカワグンカミイチマチ","town":"湯神子野","town_kana":"ユノミコノ","prefecture_code":16},"0364":{"zip_code":"9300364","prefecture":"富山県","prefecture_kana":"トヤマケン","city":"中新川郡上市町","city_kana":"ナカニイカワグンカミイチマチ","town":"横越","town_kana":"ヨコゴシ","prefecture_code":16},"0355":{"zip_code":"9300355","prefecture":"富山県","prefecture_kana":"トヤマケン","city":"中新川郡上市町","city_kana":"ナカニイカワグンカミイチマチ","town":"横法音寺","town_kana":"ヨコホウオンジ","prefecture_code":16},"0359":{"zip_code":"9300359","prefecture":"富山県","prefecture_kana":"トヤマケン","city":"中新川郡上市町","city_kana":"ナカニイカワグンカミイチマチ","town":"四葉台","town_kana":"ヨツバダイ","prefecture_code":16},"0436":{"zip_code":"9300436","prefecture":"富山県","prefecture_kana":"トヤマケン","city":"中新川郡上市町","city_kana":"ナカニイカワグンカミイチマチ","town":"蓬沢","town_kana":"ヨモギザワ","prefecture_code":16},"0314":{"zip_code":"9300314","prefecture":"富山県","prefecture_kana":"トヤマケン","city":"中新川郡上市町","city_kana":"ナカニイカワグンカミイチマチ","town":"若杉","town_kana":"ワカスギ","prefecture_code":16},"0315":{"zip_code":"9300315","prefecture":"富山県","prefecture_kana":"トヤマケン","city":"中新川郡上市町","city_kana":"ナカニイカワグンカミイチマチ","town":"若杉新","town_kana":"ワカスギシン","prefecture_code":16},"0363":{"zip_code":"9300363","prefecture":"富山県","prefecture_kana":"トヤマケン","city":"中新川郡上市町","city_kana":"ナカニイカワグンカミイチマチ","town":"和合","town_kana":"ワゴウ","prefecture_code":16},"1406":{"zip_code":"9301406","prefecture":"富山県","prefecture_kana":"トヤマケン","city":"中新川郡立山町","city_kana":"ナカニイカワグンタテヤママチ","town":"芦峅寺","town_kana":"アシクラジ","prefecture_code":16},"3242":{"zip_code":"9303242","prefecture":"富山県","prefecture_kana":"トヤマケン","city":"中新川郡立山町","city_kana":"ナカニイカワグンタテヤママチ","town":"芦見","town_kana":"アシミ","prefecture_code":16},"0271":{"zip_code":"9300271","prefecture":"富山県","prefecture_kana":"トヤマケン","city":"中新川郡立山町","city_kana":"ナカニイカワグンタテヤママチ","town":"浅生","town_kana":"アソ","prefecture_code":16},"3239":{"zip_code":"9303239","prefecture":"富山県","prefecture_kana":"トヤマケン","city":"中新川郡立山町","city_kana":"ナカニイカワグンタテヤママチ","town":"池田","town_kana":"イケダ","prefecture_code":16},"3215":{"zip_code":"9303215","prefecture":"富山県","prefecture_kana":"トヤマケン","city":"中新川郡立山町","city_kana":"ナカニイカワグンタテヤママチ","town":"石坂","town_kana":"イシザカ","prefecture_code":16},"1361":[{"zip_code":"9301361","prefecture":"富山県","prefecture_kana":"トヤマケン","city":"中新川郡立山町","city_kana":"ナカニイカワグンタテヤママチ","town":"伊豆林","town_kana":"イズバヤシ","prefecture_code":16},{"zip_code":"9301361","prefecture":"富山県","prefecture_kana":"トヤマケン","city":"中新川郡立山町","city_kana":"ナカニイカワグンタテヤママチ","town":"下田","town_kana":"ミサダ","prefecture_code":16}],"0201":{"zip_code":"9300201","prefecture":"富山県","prefecture_kana":"トヤマケン","city":"中新川郡立山町","city_kana":"ナカニイカワグンタテヤママチ","town":"泉","town_kana":"イズミ","prefecture_code":16},"3234":{"zip_code":"9303234","prefecture":"富山県","prefecture_kana":"トヤマケン","city":"中新川郡立山町","city_kana":"ナカニイカワグンタテヤママチ","town":"伊勢屋","town_kana":"イセヤ","prefecture_code":16},"0256":{"zip_code":"9300256","prefecture":"富山県","prefecture_kana":"トヤマケン","city":"中新川郡立山町","city_kana":"ナカニイカワグンタテヤママチ","town":"一本木","town_kana":"イッポンギ","prefecture_code":16},"0246":{"zip_code":"9300246","prefecture":"富山県","prefecture_kana":"トヤマケン","city":"中新川郡立山町","city_kana":"ナカニイカワグンタテヤママチ","town":"鋳物師沢","town_kana":"イモノシザワ","prefecture_code":16},"1368":{"zip_code":"9301368","prefecture":"富山県","prefecture_kana":"トヤマケン","city":"中新川郡立山町","city_kana":"ナカニイカワグンタテヤママチ","town":"岩峅寺","town_kana":"イワクラジ","prefecture_code":16},"1369":{"zip_code":"9301369","prefecture":"富山県","prefecture_kana":"トヤマケン","city":"中新川郡立山町","city_kana":"ナカニイカワグンタテヤママチ","town":"岩峅野","town_kana":"イワクラノ","prefecture_code":16},"0208":{"zip_code":"9300208","prefecture":"富山県","prefecture_kana":"トヤマケン","city":"中新川郡立山町","city_kana":"ナカニイカワグンタテヤママチ","town":"浦田","town_kana":"ウラダ","prefecture_code":16},"0207":{"zip_code":"9300207","prefecture":"富山県","prefecture_kana":"トヤマケン","city":"中新川郡立山町","city_kana":"ナカニイカワグンタテヤママチ","town":"浦田新","town_kana":"ウラダシン","prefecture_code":16},"3245":{"zip_code":"9303245","prefecture":"富山県","prefecture_kana":"トヤマケン","city":"中新川郡立山町","city_kana":"ナカニイカワグンタテヤママチ","town":"上末","town_kana":"ウワズエ","prefecture_code":16},"3267":{"zip_code":"9303267","prefecture":"富山県","prefecture_kana":"トヤマケン","city":"中新川郡立山町","city_kana":"ナカニイカワグンタテヤママチ","town":"江崎","town_kana":"エサキ","prefecture_code":16},"0235":{"zip_code":"9300235","prefecture":"富山県","prefecture_kana":"トヤマケン","city":"中新川郡立山町","city_kana":"ナカニイカワグンタテヤママチ","town":"榎","town_kana":"エノキ","prefecture_code":16},"0261":{"zip_code":"9300261","prefecture":"富山県","prefecture_kana":"トヤマケン","city":"中新川郡立山町","city_kana":"ナカニイカワグンタテヤママチ","town":"大石原","town_kana":"オオイシハラ","prefecture_code":16},"0216":{"zip_code":"9300216","prefecture":"富山県","prefecture_kana":"トヤマケン","city":"中新川郡立山町","city_kana":"ナカニイカワグンタテヤママチ","town":"大窪","town_kana":"オオクボ","prefecture_code":16},"0253":{"zip_code":"9300253","prefecture":"富山県","prefecture_kana":"トヤマケン","city":"中新川郡立山町","city_kana":"ナカニイカワグンタテヤママチ","town":"大窪開","town_kana":"オオクボビラキ","prefecture_code":16},"0251":{"zip_code":"9300251","prefecture":"富山県","prefecture_kana":"トヤマケン","city":"中新川郡立山町","city_kana":"ナカニイカワグンタテヤママチ","town":"大島","town_kana":"オオシマ","prefecture_code":16},"0263":{"zip_code":"9300263","prefecture":"富山県","prefecture_kana":"トヤマケン","city":"中新川郡立山町","city_kana":"ナカニイカワグンタテヤママチ","town":"大清水","town_kana":"オオショウズ","prefecture_code":16},"3202":{"zip_code":"9303202","prefecture":"富山県","prefecture_kana":"トヤマケン","city":"中新川郡立山町","city_kana":"ナカニイカワグンタテヤママチ","town":"女川新","town_kana":"オナガワシン","prefecture_code":16},"3236":{"zip_code":"9303236","prefecture":"富山県","prefecture_kana":"トヤマケン","city":"中新川郡立山町","city_kana":"ナカニイカワグンタテヤママチ","town":"小又","town_kana":"オマタ","prefecture_code":16},"0237":{"zip_code":"9300237","prefecture":"富山県","prefecture_kana":"トヤマケン","city":"中新川郡立山町","city_kana":"ナカニイカワグンタテヤママチ","town":"柿の木沢","town_kana":"カキノキザワ","prefecture_code":16},"1402":{"zip_code":"9301402","prefecture":"富山県","prefecture_kana":"トヤマケン","city":"中新川郡立山町","city_kana":"ナカニイカワグンタテヤママチ","town":"桂台","town_kana":"カツラダイ","prefecture_code":16},"0233":{"zip_code":"9300233","prefecture":"富山県","prefecture_kana":"トヤマケン","city":"中新川郡立山町","city_kana":"ナカニイカワグンタテヤママチ","town":"上金剛寺","town_kana":"カミコンゴウジ","prefecture_code":16},"3244":{"zip_code":"9303244","prefecture":"富山県","prefecture_kana":"トヤマケン","city":"中新川郡立山町","city_kana":"ナカニイカワグンタテヤママチ","town":"上瀬戸","town_kana":"カミセト","prefecture_code":16},"3251":{"zip_code":"9303251","prefecture":"富山県","prefecture_kana":"トヤマケン","city":"中新川郡立山町","city_kana":"ナカニイカワグンタテヤママチ","town":"上中","town_kana":"カミナカ","prefecture_code":16},"3203":{"zip_code":"9303203","prefecture":"富山県","prefecture_kana":"トヤマケン","city":"中新川郡立山町","city_kana":"ナカニイカワグンタテヤママチ","town":"上福来","town_kana":"カミフクライ","prefecture_code":16},"0223":{"zip_code":"9300223","prefecture":"富山県","prefecture_kana":"トヤマケン","city":"中新川郡立山町","city_kana":"ナカニイカワグンタテヤママチ","town":"上鉾木","town_kana":"カミホコノキ","prefecture_code":16},"3254":{"zip_code":"9303254","prefecture":"富山県","prefecture_kana":"トヤマケン","city":"中新川郡立山町","city_kana":"ナカニイカワグンタテヤママチ","town":"上宮","town_kana":"カミミヤ","prefecture_code":16},"0257":{"zip_code":"9300257","prefecture":"富山県","prefecture_kana":"トヤマケン","city":"中新川郡立山町","city_kana":"ナカニイカワグンタテヤママチ","town":"川原木","town_kana":"カワラギ","prefecture_code":16},"0227":{"zip_code":"9300227","prefecture":"富山県","prefecture_kana":"トヤマケン","city":"中新川郡立山町","city_kana":"ナカニイカワグンタテヤママチ","town":"草野","town_kana":"クサノ","prefecture_code":16},"0262":{"zip_code":"9300262","prefecture":"富山県","prefecture_kana":"トヤマケン","city":"中新川郡立山町","city_kana":"ナカニイカワグンタテヤママチ","town":"蔵本新","town_kana":"クラモトシン","prefecture_code":16},"3255":{"zip_code":"9303255","prefecture":"富山県","prefecture_kana":"トヤマケン","city":"中新川郡立山町","city_kana":"ナカニイカワグンタテヤママチ","town":"小林","town_kana":"コバヤシ","prefecture_code":16},"0214":{"zip_code":"9300214","prefecture":"富山県","prefecture_kana":"トヤマケン","city":"中新川郡立山町","city_kana":"ナカニイカワグンタテヤママチ","town":"五百石","town_kana":"ゴヒャクコク","prefecture_code":16},"0274":{"zip_code":"9300274","prefecture":"富山県","prefecture_kana":"トヤマケン","city":"中新川郡立山町","city_kana":"ナカニイカワグンタテヤママチ","town":"五郎丸","town_kana":"ゴロウマル","prefecture_code":16},"0232":{"zip_code":"9300232","prefecture":"富山県","prefecture_kana":"トヤマケン","city":"中新川郡立山町","city_kana":"ナカニイカワグンタテヤママチ","town":"金剛寺","town_kana":"コンゴウジ","prefecture_code":16},"3262":{"zip_code":"9303262","prefecture":"富山県","prefecture_kana":"トヤマケン","city":"中新川郡立山町","city_kana":"ナカニイカワグンタテヤママチ","town":"金剛新","town_kana":"コンゴウシン","prefecture_code":16},"0231":{"zip_code":"9300231","prefecture":"富山県","prefecture_kana":"トヤマケン","city":"中新川郡立山町","city_kana":"ナカニイカワグンタテヤママチ","town":"坂井沢","town_kana":"サカイザワ","prefecture_code":16},"3238":{"zip_code":"9303238","prefecture":"富山県","prefecture_kana":"トヤマケン","city":"中新川郡立山町","city_kana":"ナカニイカワグンタテヤママチ","town":"座主坊","town_kana":"ザシュウボウ","prefecture_code":16},"3264":{"zip_code":"9303264","prefecture":"富山県","prefecture_kana":"トヤマケン","city":"中新川郡立山町","city_kana":"ナカニイカワグンタテヤママチ","town":"沢新","town_kana":"サワシン","prefecture_code":16},"0245":[{"zip_code":"9300245","prefecture":"富山県","prefecture_kana":"トヤマケン","city":"中新川郡立山町","city_kana":"ナカニイカワグンタテヤママチ","town":"沢中山","town_kana":"サワナカヤマ","prefecture_code":16},{"zip_code":"9300245","prefecture":"富山県","prefecture_kana":"トヤマケン","city":"中新川郡立山町","city_kana":"ナカニイカワグンタテヤママチ","town":"中山","town_kana":"ナカヤマ","prefecture_code":16}],"0212":{"zip_code":"9300212","prefecture":"富山県","prefecture_kana":"トヤマケン","city":"中新川郡立山町","city_kana":"ナカニイカワグンタテヤママチ","town":"沢端","town_kana":"サワハタ","prefecture_code":16},"0234":{"zip_code":"9300234","prefecture":"富山県","prefecture_kana":"トヤマケン","city":"中新川郡立山町","city_kana":"ナカニイカワグンタテヤママチ","town":"下段","town_kana":"シタダン","prefecture_code":16},"3221":{"zip_code":"9303221","prefecture":"富山県","prefecture_kana":"トヤマケン","city":"中新川郡立山町","city_kana":"ナカニイカワグンタテヤママチ","town":"四谷尾","town_kana":"シダニオ","prefecture_code":16},"3212":{"zip_code":"9303212","prefecture":"富山県","prefecture_kana":"トヤマケン","city":"中新川郡立山町","city_kana":"ナカニイカワグンタテヤママチ","town":"柴山","town_kana":"シバヤマ","prefecture_code":16},"3241":{"zip_code":"9303241","prefecture":"富山県","prefecture_kana":"トヤマケン","city":"中新川郡立山町","city_kana":"ナカニイカワグンタテヤママチ","town":"下沢","town_kana":"シモザワ","prefecture_code":16},"3214":{"zip_code":"9303214","prefecture":"富山県","prefecture_kana":"トヤマケン","city":"中新川郡立山町","city_kana":"ナカニイカワグンタテヤママチ","town":"下白岩","town_kana":"シモシライワ","prefecture_code":16},"3208":{"zip_code":"9303208","prefecture":"富山県","prefecture_kana":"トヤマケン","city":"中新川郡立山町","city_kana":"ナカニイカワグンタテヤママチ","town":"下新","town_kana":"シモシン","prefecture_code":16},"3243":{"zip_code":"9303243","prefecture":"富山県","prefecture_kana":"トヤマケン","city":"中新川郡立山町","city_kana":"ナカニイカワグンタテヤママチ","town":"下瀬戸","town_kana":"シモセト","prefecture_code":16},"1401":{"zip_code":"9301401","prefecture":"富山県","prefecture_kana":"トヤマケン","city":"中新川郡立山町","city_kana":"ナカニイカワグンタテヤママチ","town":"称名","town_kana":"ショウミョウ","prefecture_code":16},"3224":{"zip_code":"9303224","prefecture":"富山県","prefecture_kana":"トヤマケン","city":"中新川郡立山町","city_kana":"ナカニイカワグンタテヤママチ","town":"白岩","town_kana":"シライワ","prefecture_code":16},"3248":{"zip_code":"9303248","prefecture":"富山県","prefecture_kana":"トヤマケン","city":"中新川郡立山町","city_kana":"ナカニイカワグンタテヤママチ","town":"新瀬戸","town_kana":"シンセト","prefecture_code":16},"0236":{"zip_code":"9300236","prefecture":"富山県","prefecture_kana":"トヤマケン","city":"中新川郡立山町","city_kana":"ナカニイカワグンタテヤママチ","town":"新堀","town_kana":"シンボリ","prefecture_code":16},"3252":{"zip_code":"9303252","prefecture":"富山県","prefecture_kana":"トヤマケン","city":"中新川郡立山町","city_kana":"ナカニイカワグンタテヤママチ","town":"末上野","town_kana":"スエウワノ","prefecture_code":16},"0247":{"zip_code":"9300247","prefecture":"富山県","prefecture_kana":"トヤマケン","city":"中新川郡立山町","city_kana":"ナカニイカワグンタテヤママチ","town":"末三賀","town_kana":"スエサンガ","prefecture_code":16},"0244":{"zip_code":"9300244","prefecture":"富山県","prefecture_kana":"トヤマケン","city":"中新川郡立山町","city_kana":"ナカニイカワグンタテヤママチ","town":"末谷口","town_kana":"スエタニグチ","prefecture_code":16},"3247":{"zip_code":"9303247","prefecture":"富山県","prefecture_kana":"トヤマケン","city":"中新川郡立山町","city_kana":"ナカニイカワグンタテヤママチ","town":"瀬戸新","town_kana":"セトシン","prefecture_code":16},"1405":{"zip_code":"9301405","prefecture":"富山県","prefecture_kana":"トヤマケン","city":"中新川郡立山町","city_kana":"ナカニイカワグンタテヤママチ","town":"千寿ケ原","town_kana":"センジュガハラ","prefecture_code":16},"3201":{"zip_code":"9303201","prefecture":"富山県","prefecture_kana":"トヤマケン","city":"中新川郡立山町","city_kana":"ナカニイカワグンタテヤママチ","town":"高原","town_kana":"タカハラ","prefecture_code":16},"0268":{"zip_code":"9300268","prefecture":"富山県","prefecture_kana":"トヤマケン","city":"中新川郡立山町","city_kana":"ナカニイカワグンタテヤママチ","town":"高原八ツ屋","town_kana":"タカハラヤツヤ","prefecture_code":16},"0206":{"zip_code":"9300206","prefecture":"富山県","prefecture_kana":"トヤマケン","city":"中新川郡立山町","city_kana":"ナカニイカワグンタテヤママチ","town":"竹鼻新","town_kana":"タケハナシン","prefecture_code":16},"3206":{"zip_code":"9303206","prefecture":"富山県","prefecture_kana":"トヤマケン","city":"中新川郡立山町","city_kana":"ナカニイカワグンタテヤママチ","town":"竹林","town_kana":"タケバヤシ","prefecture_code":16},"0219":{"zip_code":"9300219","prefecture":"富山県","prefecture_kana":"トヤマケン","city":"中新川郡立山町","city_kana":"ナカニイカワグンタテヤママチ","town":"田添","town_kana":"タゾエ","prefecture_code":16},"1418":{"zip_code":"9301418","prefecture":"富山県","prefecture_kana":"トヤマケン","city":"中新川郡立山町","city_kana":"ナカニイカワグンタテヤママチ","town":"立山頂上","town_kana":"タテヤマチョウジョウ","prefecture_code":16},"3233":{"zip_code":"9303233","prefecture":"富山県","prefecture_kana":"トヤマケン","city":"中新川郡立山町","city_kana":"ナカニイカワグンタテヤママチ","town":"谷","town_kana":"タニ","prefecture_code":16},"3222":{"zip_code":"9303222","prefecture":"富山県","prefecture_kana":"トヤマケン","city":"中新川郡立山町","city_kana":"ナカニイカワグンタテヤママチ","town":"谷口","town_kana":"タニグチ","prefecture_code":16},"0228":{"zip_code":"9300228","prefecture":"富山県","prefecture_kana":"トヤマケン","city":"中新川郡立山町","city_kana":"ナカニイカワグンタテヤママチ","town":"手屋","town_kana":"タヤ","prefecture_code":16},"1408":{"zip_code":"9301408","prefecture":"富山県","prefecture_kana":"トヤマケン","city":"中新川郡立山町","city_kana":"ナカニイカワグンタテヤママチ","town":"千垣","town_kana":"チガキ","prefecture_code":16},"0272":{"zip_code":"9300272","prefecture":"富山県","prefecture_kana":"トヤマケン","city":"中新川郡立山町","city_kana":"ナカニイカワグンタテヤママチ","town":"塚越","town_kana":"ツカゴシ","prefecture_code":16},"0211":{"zip_code":"9300211","prefecture":"富山県","prefecture_kana":"トヤマケン","city":"中新川郡立山町","city_kana":"ナカニイカワグンタテヤママチ","town":"辻","town_kana":"ツジ","prefecture_code":16},"1416":{"zip_code":"9301416","prefecture":"富山県","prefecture_kana":"トヤマケン","city":"中新川郡立山町","city_kana":"ナカニイカワグンタテヤママチ","town":"剣御前","town_kana":"ツルギゴゼン","prefecture_code":16},"1417":{"zip_code":"9301417","prefecture":"富山県","prefecture_kana":"トヤマケン","city":"中新川郡立山町","city_kana":"ナカニイカワグンタテヤママチ","town":"剣沢","town_kana":"ツルギサワ","prefecture_code":16},"0204":{"zip_code":"9300204","prefecture":"富山県","prefecture_kana":"トヤマケン","city":"中新川郡立山町","city_kana":"ナカニイカワグンタテヤママチ","town":"寺田","town_kana":"テラダ","prefecture_code":16},"0209":{"zip_code":"9300209","prefecture":"富山県","prefecture_kana":"トヤマケン","city":"中新川郡立山町","city_kana":"ナカニイカワグンタテヤママチ","town":"寺田ことぶき町","town_kana":"テラダコトブキチョウ","prefecture_code":16},"0205":{"zip_code":"9300205","prefecture":"富山県","prefecture_kana":"トヤマケン","city":"中新川郡立山町","city_kana":"ナカニイカワグンタテヤママチ","town":"寺田新","town_kana":"テラダシン","prefecture_code":16},"0242":{"zip_code":"9300242","prefecture":"富山県","prefecture_kana":"トヤマケン","city":"中新川郡立山町","city_kana":"ナカニイカワグンタテヤママチ","town":"寺坪","town_kana":"テラツボ","prefecture_code":16},"1413":{"zip_code":"9301413","prefecture":"富山県","prefecture_kana":"トヤマケン","city":"中新川郡立山町","city_kana":"ナカニイカワグンタテヤママチ","town":"天狗平","town_kana":"テングダイラ","prefecture_code":16},"1364":{"zip_code":"9301364","prefecture":"富山県","prefecture_kana":"トヤマケン","city":"中新川郡立山町","city_kana":"ナカニイカワグンタテヤママチ","town":"天林","town_kana":"テンバヤシ","prefecture_code":16},"0241":{"zip_code":"9300241","prefecture":"富山県","prefecture_kana":"トヤマケン","city":"中新川郡立山町","city_kana":"ナカニイカワグンタテヤママチ","town":"道源寺","town_kana":"ドウゲンジ","prefecture_code":16},"0226":{"zip_code":"9300226","prefecture":"富山県","prefecture_kana":"トヤマケン","city":"中新川郡立山町","city_kana":"ナカニイカワグンタテヤママチ","town":"道新","town_kana":"ドウシン","prefecture_code":16},"1363":{"zip_code":"9301363","prefecture":"富山県","prefecture_kana":"トヤマケン","city":"中新川郡立山町","city_kana":"ナカニイカワグンタテヤママチ","town":"栃津","town_kana":"トチヅ","prefecture_code":16},"0265":{"zip_code":"9300265","prefecture":"富山県","prefecture_kana":"トヤマケン","city":"中新川郡立山町","city_kana":"ナカニイカワグンタテヤママチ","town":"泊新","town_kana":"トマリシン","prefecture_code":16},"3235":{"zip_code":"9303235","prefecture":"富山県","prefecture_kana":"トヤマケン","city":"中新川郡立山町","city_kana":"ナカニイカワグンタテヤママチ","town":"長倉","town_kana":"ナガクラ","prefecture_code":16},"3246":{"zip_code":"9303246","prefecture":"富山県","prefecture_kana":"トヤマケン","city":"中新川郡立山町","city_kana":"ナカニイカワグンタテヤママチ","town":"中林","town_kana":"ナカバヤシ","prefecture_code":16},"3253":{"zip_code":"9303253","prefecture":"富山県","prefecture_kana":"トヤマケン","city":"中新川郡立山町","city_kana":"ナカニイカワグンタテヤママチ","town":"長屋","town_kana":"ナガヤ","prefecture_code":16},"0269":{"zip_code":"9300269","prefecture":"富山県","prefecture_kana":"トヤマケン","city":"中新川郡立山町","city_kana":"ナカニイカワグンタテヤママチ","town":"半屋","town_kana":"ナカリヤ","prefecture_code":16},"0224":{"zip_code":"9300224","prefecture":"富山県","prefecture_kana":"トヤマケン","city":"中新川郡立山町","city_kana":"ナカニイカワグンタテヤママチ","town":"西芦原","town_kana":"ニシアシハラ","prefecture_code":16},"0267":{"zip_code":"9300267","prefecture":"富山県","prefecture_kana":"トヤマケン","city":"中新川郡立山町","city_kana":"ナカニイカワグンタテヤママチ","town":"西大森","town_kana":"ニシオオモリ","prefecture_code":16},"3211":{"zip_code":"9303211","prefecture":"富山県","prefecture_kana":"トヤマケン","city":"中新川郡立山町","city_kana":"ナカニイカワグンタテヤママチ","town":"日中","town_kana":"ニッチュウ","prefecture_code":16},"3213":{"zip_code":"9303213","prefecture":"富山県","prefecture_kana":"トヤマケン","city":"中新川郡立山町","city_kana":"ナカニイカワグンタテヤママチ","town":"日中上野","town_kana":"ニッチュウウワノ","prefecture_code":16},"0222":{"zip_code":"9300222","prefecture":"富山県","prefecture_kana":"トヤマケン","city":"中新川郡立山町","city_kana":"ナカニイカワグンタテヤママチ","town":"貫田","town_kana":"ヌキタ","prefecture_code":16},"0217":{"zip_code":"9300217","prefecture":"富山県","prefecture_kana":"トヤマケン","city":"中新川郡立山町","city_kana":"ナカニイカワグンタテヤママチ","town":"野口","town_kana":"ノグチ","prefecture_code":16},"0213":{"zip_code":"9300213","prefecture":"富山県","prefecture_kana":"トヤマケン","city":"中新川郡立山町","city_kana":"ナカニイカワグンタテヤママチ","town":"野口新","town_kana":"ノグチシン","prefecture_code":16},"3217":{"zip_code":"9303217","prefecture":"富山県","prefecture_kana":"トヤマケン","city":"中新川郡立山町","city_kana":"ナカニイカワグンタテヤママチ","town":"野沢","town_kana":"ノザワ","prefecture_code":16},"3261":{"zip_code":"9303261","prefecture":"富山県","prefecture_kana":"トヤマケン","city":"中新川郡立山町","city_kana":"ナカニイカワグンタテヤママチ","town":"野町","town_kana":"ノマチ","prefecture_code":16},"0248":{"zip_code":"9300248","prefecture":"富山県","prefecture_kana":"トヤマケン","city":"中新川郡立山町","city_kana":"ナカニイカワグンタテヤママチ","town":"野村","town_kana":"ノムラ","prefecture_code":16},"0264":{"zip_code":"9300264","prefecture":"富山県","prefecture_kana":"トヤマケン","city":"中新川郡立山町","city_kana":"ナカニイカワグンタテヤママチ","town":"東大森","town_kana":"ヒガシオオモリ","prefecture_code":16},"1365":{"zip_code":"9301365","prefecture":"富山県","prefecture_kana":"トヤマケン","city":"中新川郡立山町","city_kana":"ナカニイカワグンタテヤママチ","town":"東中野新","town_kana":"ヒガシナカノシン","prefecture_code":16},"3204":{"zip_code":"9303204","prefecture":"富山県","prefecture_kana":"トヤマケン","city":"中新川郡立山町","city_kana":"ナカニイカワグンタテヤママチ","town":"東野","town_kana":"ヒガシノ","prefecture_code":16},"1411":{"zip_code":"9301411","prefecture":"富山県","prefecture_kana":"トヤマケン","city":"中新川郡立山町","city_kana":"ナカニイカワグンタテヤママチ","town":"美女平","town_kana":"ビジョダイラ","prefecture_code":16},"0252":{"zip_code":"9300252","prefecture":"富山県","prefecture_kana":"トヤマケン","city":"中新川郡立山町","city_kana":"ナカニイカワグンタテヤママチ","town":"日俣","town_kana":"ヒマタ","prefecture_code":16},"3216":{"zip_code":"9303216","prefecture":"富山県","prefecture_kana":"トヤマケン","city":"中新川郡立山町","city_kana":"ナカニイカワグンタテヤママチ","town":"福田","town_kana":"フクタ","prefecture_code":16},"3205":{"zip_code":"9303205","prefecture":"富山県","prefecture_kana":"トヤマケン","city":"中新川郡立山町","city_kana":"ナカニイカワグンタテヤママチ","town":"福来","town_kana":"フクライ","prefecture_code":16},"1404":{"zip_code":"9301404","prefecture":"富山県","prefecture_kana":"トヤマケン","city":"中新川郡立山町","city_kana":"ナカニイカワグンタテヤママチ","town":"藤橋","town_kana":"フジバシ","prefecture_code":16},"0218":{"zip_code":"9300218","prefecture":"富山県","prefecture_kana":"トヤマケン","city":"中新川郡立山町","city_kana":"ナカニイカワグンタテヤママチ","town":"二ツ塚","town_kana":"フタツヅカ","prefecture_code":16},"3263":{"zip_code":"9303263","prefecture":"富山県","prefecture_kana":"トヤマケン","city":"中新川郡立山町","city_kana":"ナカニイカワグンタテヤママチ","town":"淵上","town_kana":"フチガミ","prefecture_code":16},"1403":{"zip_code":"9301403","prefecture":"富山県","prefecture_kana":"トヤマケン","city":"中新川郡立山町","city_kana":"ナカニイカワグンタテヤママチ","town":"ブナ坂","town_kana":"ブナザカ","prefecture_code":16},"0254":{"zip_code":"9300254","prefecture":"富山県","prefecture_kana":"トヤマケン","city":"中新川郡立山町","city_kana":"ナカニイカワグンタテヤママチ","town":"古川","town_kana":"フルカワ","prefecture_code":16},"0276":{"zip_code":"9300276","prefecture":"富山県","prefecture_kana":"トヤマケン","city":"中新川郡立山町","city_kana":"ナカニイカワグンタテヤママチ","town":"鉾ノ木","town_kana":"ホコノキ","prefecture_code":16},"0225":{"zip_code":"9300225","prefecture":"富山県","prefecture_kana":"トヤマケン","city":"中新川郡立山町","city_kana":"ナカニイカワグンタテヤママチ","town":"本郷島","town_kana":"ホンゴウジマ","prefecture_code":16},"0221":{"zip_code":"9300221","prefecture":"富山県","prefecture_kana":"トヤマケン","city":"中新川郡立山町","city_kana":"ナカニイカワグンタテヤママチ","town":"前沢","town_kana":"マエザワ","prefecture_code":16},"3266":{"zip_code":"9303266","prefecture":"富山県","prefecture_kana":"トヤマケン","city":"中新川郡立山町","city_kana":"ナカニイカワグンタテヤママチ","town":"前沢新","town_kana":"マエザワシン","prefecture_code":16},"0229":{"zip_code":"9300229","prefecture":"富山県","prefecture_kana":"トヤマケン","city":"中新川郡立山町","city_kana":"ナカニイカワグンタテヤママチ","town":"前沢新町","town_kana":"マエザワシンマチ","prefecture_code":16},"0220":{"zip_code":"9300220","prefecture":"富山県","prefecture_kana":"トヤマケン","city":"中新川郡立山町","city_kana":"ナカニイカワグンタテヤママチ","town":"前沢中央町","town_kana":"マエザワチュウオウマチ","prefecture_code":16},"1407":{"zip_code":"9301407","prefecture":"富山県","prefecture_kana":"トヤマケン","city":"中新川郡立山町","city_kana":"ナカニイカワグンタテヤママチ","town":"前谷","town_kana":"マエタニ","prefecture_code":16},"3237":{"zip_code":"9303237","prefecture":"富山県","prefecture_kana":"トヤマケン","city":"中新川郡立山町","city_kana":"ナカニイカワグンタテヤママチ","town":"松倉","town_kana":"マツクラ","prefecture_code":16},"1412":{"zip_code":"9301412","prefecture":"富山県","prefecture_kana":"トヤマケン","city":"中新川郡立山町","city_kana":"ナカニイカワグンタテヤママチ","town":"弥陀ケ原","town_kana":"ミダガハラ","prefecture_code":16},"0266":[{"zip_code":"9300266","prefecture":"富山県","prefecture_kana":"トヤマケン","city":"中新川郡立山町","city_kana":"ナカニイカワグンタテヤママチ","town":"三ツ塚","town_kana":"ミツヅカ","prefecture_code":16},{"zip_code":"9300266","prefecture":"富山県","prefecture_kana":"トヤマケン","city":"中新川郡立山町","city_kana":"ナカニイカワグンタテヤママチ","town":"三ツ塚新","town_kana":"ミツヅカシン","prefecture_code":16}],"1367":{"zip_code":"9301367","prefecture":"富山県","prefecture_kana":"トヤマケン","city":"中新川郡立山町","city_kana":"ナカニイカワグンタテヤママチ","town":"宮路","town_kana":"ミヤジ","prefecture_code":16},"0215":{"zip_code":"9300215","prefecture":"富山県","prefecture_kana":"トヤマケン","city":"中新川郡立山町","city_kana":"ナカニイカワグンタテヤママチ","town":"宮成","town_kana":"ミヤナリ","prefecture_code":16},"0255":{"zip_code":"9300255","prefecture":"富山県","prefecture_kana":"トヤマケン","city":"中新川郡立山町","city_kana":"ナカニイカワグンタテヤママチ","town":"向新庄","town_kana":"ムカイシンジョウ","prefecture_code":16},"3223":{"zip_code":"9303223","prefecture":"富山県","prefecture_kana":"トヤマケン","city":"中新川郡立山町","city_kana":"ナカニイカワグンタテヤママチ","town":"虫谷","town_kana":"ムシタニ","prefecture_code":16},"1414":{"zip_code":"9301414","prefecture":"富山県","prefecture_kana":"トヤマケン","city":"中新川郡立山町","city_kana":"ナカニイカワグンタテヤママチ","town":"室堂","town_kana":"ムロドウ","prefecture_code":16},"3232":{"zip_code":"9303232","prefecture":"富山県","prefecture_kana":"トヤマケン","city":"中新川郡立山町","city_kana":"ナカニイカワグンタテヤママチ","town":"目桑","town_kana":"メッカ","prefecture_code":16},"3277":{"zip_code":"9303277","prefecture":"富山県","prefecture_kana":"トヤマケン","city":"中新川郡立山町","city_kana":"ナカニイカワグンタテヤママチ","town":"横江","town_kana":"ヨコエ","prefecture_code":16},"1377":{"zip_code":"9301377","prefecture":"富山県","prefecture_kana":"トヤマケン","city":"中新川郡立山町","city_kana":"ナカニイカワグンタテヤママチ","town":"横江","town_kana":"ヨコエ","prefecture_code":16},"1366":{"zip_code":"9301366","prefecture":"富山県","prefecture_kana":"トヤマケン","city":"中新川郡立山町","city_kana":"ナカニイカワグンタテヤママチ","town":"横江野開","town_kana":"ヨコエノビラキ","prefecture_code":16},"0273":{"zip_code":"9300273","prefecture":"富山県","prefecture_kana":"トヤマケン","city":"中新川郡立山町","city_kana":"ナカニイカワグンタテヤママチ","town":"横沢","town_kana":"ヨコザワ","prefecture_code":16},"1362":[{"zip_code":"9301362","prefecture":"富山県","prefecture_kana":"トヤマケン","city":"中新川郡立山町","city_kana":"ナカニイカワグンタテヤママチ","town":"吉峰野開","town_kana":"ヨシミネノビラキ","prefecture_code":16},{"zip_code":"9301362","prefecture":"富山県","prefecture_kana":"トヤマケン","city":"中新川郡立山町","city_kana":"ナカニイカワグンタテヤママチ","town":"米道","town_kana":"ヨネミチ","prefecture_code":16},{"zip_code":"9301362","prefecture":"富山県","prefecture_kana":"トヤマケン","city":"中新川郡立山町","city_kana":"ナカニイカワグンタテヤママチ","town":"米道谷内","town_kana":"ヨネミチタニウチ","prefecture_code":16},{"zip_code":"9301362","prefecture":"富山県","prefecture_kana":"トヤマケン","city":"中新川郡立山町","city_kana":"ナカニイカワグンタテヤママチ","town":"米道東谷","town_kana":"ヨネミチヒガシダニ","prefecture_code":16}],"3265":{"zip_code":"9303265","prefecture":"富山県","prefecture_kana":"トヤマケン","city":"中新川郡立山町","city_kana":"ナカニイカワグンタテヤママチ","town":"米沢","town_kana":"ヨネザワ","prefecture_code":16},"0243":{"zip_code":"9300243","prefecture":"富山県","prefecture_kana":"トヤマケン","city":"中新川郡立山町","city_kana":"ナカニイカワグンタテヤママチ","town":"米道","town_kana":"ヨネミチ","prefecture_code":16},"1415":{"zip_code":"9301415","prefecture":"富山県","prefecture_kana":"トヤマケン","city":"中新川郡立山町","city_kana":"ナカニイカワグンタテヤママチ","town":"雷鳥沢","town_kana":"ライチョウザワ","prefecture_code":16},"0275":{"zip_code":"9300275","prefecture":"富山県","prefecture_kana":"トヤマケン","city":"中新川郡立山町","city_kana":"ナカニイカワグンタテヤママチ","town":"利田","town_kana":"リタ","prefecture_code":16},"3231":{"zip_code":"9303231","prefecture":"富山県","prefecture_kana":"トヤマケン","city":"中新川郡立山町","city_kana":"ナカニイカワグンタテヤママチ","town":"六郎谷","town_kana":"ロクロウダニ","prefecture_code":16},"0203":{"zip_code":"9300203","prefecture":"富山県","prefecture_kana":"トヤマケン","city":"中新川郡立山町","city_kana":"ナカニイカワグンタテヤママチ","town":"若林","town_kana":"ワカバヤシ","prefecture_code":16},"0202":{"zip_code":"9300202","prefecture":"富山県","prefecture_kana":"トヤマケン","city":"中新川郡立山町","city_kana":"ナカニイカワグンタテヤママチ","town":"若宮","town_kana":"ワカミヤ","prefecture_code":16}}