{"0314":{"zip_code":"9320314","prefecture":"富山県","prefecture_kana":"トヤマケン","city":"砺波市","city_kana":"トナミシ","town":"庄川町青島","town_kana":"ショウガワマチアオシマ","prefecture_code":16},"0317":{"zip_code":"9320317","prefecture":"富山県","prefecture_kana":"トヤマケン","city":"砺波市","city_kana":"トナミシ","town":"庄川町筏","town_kana":"ショウガワマチイカダ","prefecture_code":16},"0303":{"zip_code":"9320303","prefecture":"富山県","prefecture_kana":"トヤマケン","city":"砺波市","city_kana":"トナミシ","town":"庄川町横住","town_kana":"ショウガワマチヨコズミ","prefecture_code":16},"0305":{"zip_code":"9320305","prefecture":"富山県","prefecture_kana":"トヤマケン","city":"砺波市","city_kana":"トナミシ","town":"庄川町金屋","town_kana":"ショウガワマチカナヤ","prefecture_code":16},"0313":{"zip_code":"9320313","prefecture":"富山県","prefecture_kana":"トヤマケン","city":"砺波市","city_kana":"トナミシ","town":"庄川町五ケ","town_kana":"ショウガワマチゴカ","prefecture_code":16},"0304":{"zip_code":"9320304","prefecture":"富山県","prefecture_kana":"トヤマケン","city":"砺波市","city_kana":"トナミシ","town":"庄川町前山","town_kana":"ショウガワマチマエヤマ","prefecture_code":16},"0315":{"zip_code":"9320315","prefecture":"富山県","prefecture_kana":"トヤマケン","city":"砺波市","city_kana":"トナミシ","town":"庄川町示野","town_kana":"ショウガワマチシメノ","prefecture_code":16},"0302":{"zip_code":"9320302","prefecture":"富山県","prefecture_kana":"トヤマケン","city":"砺波市","city_kana":"トナミシ","town":"庄川町庄","town_kana":"ショウガワマチショウ","prefecture_code":16},"0312":{"zip_code":"9320312","prefecture":"富山県","prefecture_kana":"トヤマケン","city":"砺波市","city_kana":"トナミシ","town":"庄川町高儀新","town_kana":"ショウガワマチタカギシン","prefecture_code":16},"0316":{"zip_code":"9320316","prefecture":"富山県","prefecture_kana":"トヤマケン","city":"砺波市","city_kana":"トナミシ","town":"庄川町天正","town_kana":"ショウガワマチテンショウ","prefecture_code":16},"0311":{"zip_code":"9320311","prefecture":"富山県","prefecture_kana":"トヤマケン","city":"砺波市","city_kana":"トナミシ","town":"庄川町古上野","town_kana":"ショウガワマチフルウエノ","prefecture_code":16},"0301":{"zip_code":"9320301","prefecture":"富山県","prefecture_kana":"トヤマケン","city":"砺波市","city_kana":"トナミシ","town":"庄川町三谷","town_kana":"ショウガワマチミタニ","prefecture_code":16},"0000":{"zip_code":"9320000","prefecture":"富山県","prefecture_kana":"トヤマケン","city":"小矢部市","city_kana":"オヤベシ","town":"","town_kana":"","prefecture_code":16},"0814":{"zip_code":"9320814","prefecture":"富山県","prefecture_kana":"トヤマケン","city":"小矢部市","city_kana":"オヤベシ","town":"赤倉","town_kana":"アカクラ","prefecture_code":16},"0122":{"zip_code":"9320122","prefecture":"富山県","prefecture_kana":"トヤマケン","city":"小矢部市","city_kana":"オヤベシ","town":"浅地","town_kana":"アサジ","prefecture_code":16},"0833":{"zip_code":"9320833","prefecture":"富山県","prefecture_kana":"トヤマケン","city":"小矢部市","city_kana":"オヤベシ","town":"綾子","town_kana":"アヤコ","prefecture_code":16},"0071":{"zip_code":"9320071","prefecture":"富山県","prefecture_kana":"トヤマケン","city":"小矢部市","city_kana":"オヤベシ","town":"荒間","town_kana":"アラマ","prefecture_code":16},"0129":{"zip_code":"9320129","prefecture":"富山県","prefecture_kana":"トヤマケン","city":"小矢部市","city_kana":"オヤベシ","town":"安養寺","town_kana":"アンヨウジ","prefecture_code":16},"0852":{"zip_code":"9320852","prefecture":"富山県","prefecture_kana":"トヤマケン","city":"小矢部市","city_kana":"オヤベシ","town":"安養寺新","town_kana":"アンヨウジシン","prefecture_code":16},"0062":{"zip_code":"9320062","prefecture":"富山県","prefecture_kana":"トヤマケン","city":"小矢部市","city_kana":"オヤベシ","town":"安楽寺","town_kana":"アンラクジ","prefecture_code":16},"0037":{"zip_code":"9320037","prefecture":"富山県","prefecture_kana":"トヤマケン","city":"小矢部市","city_kana":"オヤベシ","town":"石王丸","town_kana":"イシオウマル","prefecture_code":16},"0835":{"zip_code":"9320835","prefecture":"富山県","prefecture_kana":"トヤマケン","city":"小矢部市","city_kana":"オヤベシ","town":"石坂","town_kana":"イシサカ","prefecture_code":16},"0808":{"zip_code":"9320808","prefecture":"富山県","prefecture_kana":"トヤマケン","city":"小矢部市","city_kana":"オヤベシ","town":"石名田","town_kana":"イシナダ","prefecture_code":16},"0052":{"zip_code":"9320052","prefecture":"富山県","prefecture_kana":"トヤマケン","city":"小矢部市","city_kana":"オヤベシ","town":"泉町","town_kana":"イズミチョウ","prefecture_code":16},"0053":{"zip_code":"9320053","prefecture":"富山県","prefecture_kana":"トヤマケン","city":"小矢部市","city_kana":"オヤベシ","town":"石動町","town_kana":"イスルギマチ","prefecture_code":16},"0051":{"zip_code":"9320051","prefecture":"富山県","prefecture_kana":"トヤマケン","city":"小矢部市","city_kana":"オヤベシ","town":"今石動町","town_kana":"イマイスルギマチ","prefecture_code":16},"0073":{"zip_code":"9320073","prefecture":"富山県","prefecture_kana":"トヤマケン","city":"小矢部市","city_kana":"オヤベシ","town":"岩尾滝","town_kana":"イワオダキ","prefecture_code":16},"0014":{"zip_code":"9320014","prefecture":"富山県","prefecture_kana":"トヤマケン","city":"小矢部市","city_kana":"オヤベシ","town":"岩崎","town_kana":"イワサキ","prefecture_code":16},"0113":{"zip_code":"9320113","prefecture":"富山県","prefecture_kana":"トヤマケン","city":"小矢部市","city_kana":"オヤベシ","town":"岩武","town_kana":"イワタケ","prefecture_code":16},"0036":{"zip_code":"9320036","prefecture":"富山県","prefecture_kana":"トヤマケン","city":"小矢部市","city_kana":"オヤベシ","town":"宇治新","town_kana":"ウジシン","prefecture_code":16},"0831":{"zip_code":"9320831","prefecture":"富山県","prefecture_kana":"トヤマケン","city":"小矢部市","city_kana":"オヤベシ","town":"後谷","town_kana":"ウシロダニ","prefecture_code":16},"0853":{"zip_code":"9320853","prefecture":"富山県","prefecture_kana":"トヤマケン","city":"小矢部市","city_kana":"オヤベシ","town":"臼谷","town_kana":"ウスタニ","prefecture_code":16},"0106":{"zip_code":"9320106","prefecture":"富山県","prefecture_kana":"トヤマケン","city":"小矢部市","city_kana":"オヤベシ","town":"内御堂","town_kana":"ウチオンドウ","prefecture_code":16},"0863":{"zip_code":"9320863","prefecture":"富山県","prefecture_kana":"トヤマケン","city":"小矢部市","city_kana":"オヤベシ","town":"内山","town_kana":"ウチヤマ","prefecture_code":16},"0054":{"zip_code":"9320054","prefecture":"富山県","prefecture_kana":"トヤマケン","city":"小矢部市","city_kana":"オヤベシ","town":"上野本","town_kana":"ウワノホン","prefecture_code":16},"0031":{"zip_code":"9320031","prefecture":"富山県","prefecture_kana":"トヤマケン","city":"小矢部市","city_kana":"オヤベシ","town":"岡","town_kana":"オカ","prefecture_code":16},"0817":{"zip_code":"9320817","prefecture":"富山県","prefecture_kana":"トヤマケン","city":"小矢部市","city_kana":"オヤベシ","town":"小神","town_kana":"オコ","prefecture_code":16},"0056":{"zip_code":"9320056","prefecture":"富山県","prefecture_kana":"トヤマケン","city":"小矢部市","city_kana":"オヤベシ","town":"小矢部","town_kana":"オヤベ","prefecture_code":16},"0058":{"zip_code":"9320058","prefecture":"富山県","prefecture_kana":"トヤマケン","city":"小矢部市","city_kana":"オヤベシ","town":"小矢部町","town_kana":"オヤベマチ","prefecture_code":16},"0812":{"zip_code":"9320812","prefecture":"富山県","prefecture_kana":"トヤマケン","city":"小矢部市","city_kana":"オヤベシ","town":"金屋本江","town_kana":"カナヤホンゴウ","prefecture_code":16},"0125":{"zip_code":"9320125","prefecture":"富山県","prefecture_kana":"トヤマケン","city":"小矢部市","city_kana":"オヤベシ","town":"鴨島","town_kana":"カモジマ","prefecture_code":16},"0075":{"zip_code":"9320075","prefecture":"富山県","prefecture_kana":"トヤマケン","city":"小矢部市","city_kana":"オヤベシ","town":"嘉例谷","town_kana":"カレイダニ","prefecture_code":16},"0855":{"zip_code":"9320855","prefecture":"富山県","prefecture_kana":"トヤマケン","city":"小矢部市","city_kana":"オヤベシ","town":"川開新","town_kana":"カワビラキシン","prefecture_code":16},"0046":{"zip_code":"9320046","prefecture":"富山県","prefecture_kana":"トヤマケン","city":"小矢部市","city_kana":"オヤベシ","town":"観音町","town_kana":"カンノンマチ","prefecture_code":16},"0844":{"zip_code":"9320844","prefecture":"富山県","prefecture_kana":"トヤマケン","city":"小矢部市","city_kana":"オヤベシ","town":"北一","town_kana":"キタイチ","prefecture_code":16},"0003":{"zip_code":"9320003","prefecture":"富山県","prefecture_kana":"トヤマケン","city":"小矢部市","city_kana":"オヤベシ","town":"北屋敷","town_kana":"キタヤシキ","prefecture_code":16},"0103":{"zip_code":"9320103","prefecture":"富山県","prefecture_kana":"トヤマケン","city":"小矢部市","city_kana":"オヤベシ","town":"経田","town_kana":"キョウデン","prefecture_code":16},"0112":{"zip_code":"9320112","prefecture":"富山県","prefecture_kana":"トヤマケン","city":"小矢部市","city_kana":"オヤベシ","town":"清沢","town_kana":"キヨサワ","prefecture_code":16},"0013":{"zip_code":"9320013","prefecture":"富山県","prefecture_kana":"トヤマケン","city":"小矢部市","city_kana":"オヤベシ","town":"清原","town_kana":"キヨハラ","prefecture_code":16},"0001":{"zip_code":"9320001","prefecture":"富山県","prefecture_kana":"トヤマケン","city":"小矢部市","city_kana":"オヤベシ","town":"久利須","town_kana":"クリス","prefecture_code":16},"0127":{"zip_code":"9320127","prefecture":"富山県","prefecture_kana":"トヤマケン","city":"小矢部市","city_kana":"オヤベシ","town":"興法寺","town_kana":"コウボウジ","prefecture_code":16},"0801":{"zip_code":"9320801","prefecture":"富山県","prefecture_kana":"トヤマケン","city":"小矢部市","city_kana":"オヤベシ","town":"五社","town_kana":"ゴシャ","prefecture_code":16},"0105":{"zip_code":"9320105","prefecture":"富山県","prefecture_kana":"トヤマケン","city":"小矢部市","city_kana":"オヤベシ","town":"胡麻島","town_kana":"ゴマジマ","prefecture_code":16},"0133":{"zip_code":"9320133","prefecture":"富山県","prefecture_kana":"トヤマケン","city":"小矢部市","city_kana":"オヤベシ","town":"小森谷","town_kana":"コモリダニ","prefecture_code":16},"0862":{"zip_code":"9320862","prefecture":"富山県","prefecture_kana":"トヤマケン","city":"小矢部市","city_kana":"オヤベシ","town":"五郎丸","town_kana":"ゴロウマル","prefecture_code":16},"0034":{"zip_code":"9320034","prefecture":"富山県","prefecture_kana":"トヤマケン","city":"小矢部市","city_kana":"オヤベシ","town":"坂又","town_kana":"サカマタ","prefecture_code":16},"0022":{"zip_code":"9320022","prefecture":"富山県","prefecture_kana":"トヤマケン","city":"小矢部市","city_kana":"オヤベシ","town":"桜町","town_kana":"サクラマチ","prefecture_code":16},"0032":{"zip_code":"9320032","prefecture":"富山県","prefecture_kana":"トヤマケン","city":"小矢部市","city_kana":"オヤベシ","town":"地崎","town_kana":"ジサキ","prefecture_code":16},"0802":{"zip_code":"9320802","prefecture":"富山県","prefecture_kana":"トヤマケン","city":"小矢部市","city_kana":"オヤベシ","town":"七社","town_kana":"シチシャ","prefecture_code":16},"0137":{"zip_code":"9320137","prefecture":"富山県","prefecture_kana":"トヤマケン","city":"小矢部市","city_kana":"オヤベシ","town":"渋江","town_kana":"シブエ","prefecture_code":16},"0825":{"zip_code":"9320825","prefecture":"富山県","prefecture_kana":"トヤマケン","city":"小矢部市","city_kana":"オヤベシ","town":"島","town_kana":"シマ","prefecture_code":16},"0114":{"zip_code":"9320114","prefecture":"富山県","prefecture_kana":"トヤマケン","city":"小矢部市","city_kana":"オヤベシ","town":"清水","town_kana":"シミズ","prefecture_code":16},"0126":{"zip_code":"9320126","prefecture":"富山県","prefecture_kana":"トヤマケン","city":"小矢部市","city_kana":"オヤベシ","town":"下川崎","town_kana":"シモガワサキ","prefecture_code":16},"0101":{"zip_code":"9320101","prefecture":"富山県","prefecture_kana":"トヤマケン","city":"小矢部市","city_kana":"オヤベシ","town":"下後亟","town_kana":"シモゴゼ","prefecture_code":16},"0824":{"zip_code":"9320824","prefecture":"富山県","prefecture_kana":"トヤマケン","city":"小矢部市","city_kana":"オヤベシ","town":"下島","town_kana":"シモジマ","prefecture_code":16},"0804":{"zip_code":"9320804","prefecture":"富山県","prefecture_kana":"トヤマケン","city":"小矢部市","city_kana":"オヤベシ","town":"下中","town_kana":"シモナカ","prefecture_code":16},"0005":{"zip_code":"9320005","prefecture":"富山県","prefecture_kana":"トヤマケン","city":"小矢部市","city_kana":"オヤベシ","town":"下屋敷","town_kana":"シモヤシキ","prefecture_code":16},"0047":{"zip_code":"9320047","prefecture":"富山県","prefecture_kana":"トヤマケン","city":"小矢部市","city_kana":"オヤベシ","town":"城山町","town_kana":"シロヤママチ","prefecture_code":16},"0044":{"zip_code":"9320044","prefecture":"富山県","prefecture_kana":"トヤマケン","city":"小矢部市","city_kana":"オヤベシ","town":"新富町","town_kana":"シントミマチ","prefecture_code":16},"0111":{"zip_code":"9320111","prefecture":"富山県","prefecture_kana":"トヤマケン","city":"小矢部市","city_kana":"オヤベシ","town":"新西","town_kana":"シンニシ","prefecture_code":16},"0854":{"zip_code":"9320854","prefecture":"富山県","prefecture_kana":"トヤマケン","city":"小矢部市","city_kana":"オヤベシ","town":"末沢新","town_kana":"スエザワシン","prefecture_code":16},"0851":{"zip_code":"9320851","prefecture":"富山県","prefecture_kana":"トヤマケン","city":"小矢部市","city_kana":"オヤベシ","town":"末友","town_kana":"スエトモ","prefecture_code":16},"0008":{"zip_code":"9320008","prefecture":"富山県","prefecture_kana":"トヤマケン","city":"小矢部市","city_kana":"オヤベシ","town":"菅ケ原","town_kana":"スガハラ","prefecture_code":16},"0132":{"zip_code":"9320132","prefecture":"富山県","prefecture_kana":"トヤマケン","city":"小矢部市","city_kana":"オヤベシ","town":"杉谷内","town_kana":"スンナイチ","prefecture_code":16},"0033":{"zip_code":"9320033","prefecture":"富山県","prefecture_kana":"トヤマケン","city":"小矢部市","city_kana":"オヤベシ","town":"芹川","town_kana":"セリカワ","prefecture_code":16},"0074":{"zip_code":"9320074","prefecture":"富山県","prefecture_kana":"トヤマケン","city":"小矢部市","city_kana":"オヤベシ","town":"千石","town_kana":"センゴク","prefecture_code":16},"0123":{"zip_code":"9320123","prefecture":"富山県","prefecture_kana":"トヤマケン","city":"小矢部市","city_kana":"オヤベシ","town":"高木","town_kana":"タカキ","prefecture_code":16},"0815":{"zip_code":"9320815","prefecture":"富山県","prefecture_kana":"トヤマケン","city":"小矢部市","city_kana":"オヤベシ","town":"高木出","town_kana":"タカギデ","prefecture_code":16},"0006":{"zip_code":"9320006","prefecture":"富山県","prefecture_kana":"トヤマケン","city":"小矢部市","city_kana":"オヤベシ","town":"高坂","town_kana":"タカサカ","prefecture_code":16},"0021":{"zip_code":"9320021","prefecture":"富山県","prefecture_kana":"トヤマケン","city":"小矢部市","city_kana":"オヤベシ","town":"田川","town_kana":"タガワ","prefecture_code":16},"0843":{"zip_code":"9320843","prefecture":"富山県","prefecture_kana":"トヤマケン","city":"小矢部市","city_kana":"オヤベシ","town":"棚田","town_kana":"タナダ","prefecture_code":16},"0064":{"zip_code":"9320064","prefecture":"富山県","prefecture_kana":"トヤマケン","city":"小矢部市","city_kana":"オヤベシ","town":"谷坪野","town_kana":"タニツボノ","prefecture_code":16},"0045":{"zip_code":"9320045","prefecture":"富山県","prefecture_kana":"トヤマケン","city":"小矢部市","city_kana":"オヤベシ","town":"中央町","town_kana":"チュウオウマチ","prefecture_code":16},"0842":{"zip_code":"9320842","prefecture":"富山県","prefecture_kana":"トヤマケン","city":"小矢部市","city_kana":"オヤベシ","town":"長","town_kana":"チョウ","prefecture_code":16},"0115":{"zip_code":"9320115","prefecture":"富山県","prefecture_kana":"トヤマケン","city":"小矢部市","city_kana":"オヤベシ","town":"津沢","town_kana":"ツザワ","prefecture_code":16},"0072":{"zip_code":"9320072","prefecture":"富山県","prefecture_kana":"トヤマケン","city":"小矢部市","city_kana":"オヤベシ","town":"峠","town_kana":"トウゲ","prefecture_code":16},"0061":{"zip_code":"9320061","prefecture":"富山県","prefecture_kana":"トヤマケン","city":"小矢部市","city_kana":"オヤベシ","town":"道坪野","town_kana":"ドウツボノ","prefecture_code":16},"0803":{"zip_code":"9320803","prefecture":"富山県","prefecture_kana":"トヤマケン","city":"小矢部市","city_kana":"オヤベシ","town":"道明","town_kana":"ドウミョウ","prefecture_code":16},"0841":{"zip_code":"9320841","prefecture":"富山県","prefecture_kana":"トヤマケン","city":"小矢部市","city_kana":"オヤベシ","town":"道林寺","town_kana":"ドウリンジ","prefecture_code":16},"0128":{"zip_code":"9320128","prefecture":"富山県","prefecture_kana":"トヤマケン","city":"小矢部市","city_kana":"オヤベシ","town":"戸久","town_kana":"トヒサ","prefecture_code":16},"0826":{"zip_code":"9320826","prefecture":"富山県","prefecture_kana":"トヤマケン","city":"小矢部市","city_kana":"オヤベシ","town":"茄子島","town_kana":"ナスジマ","prefecture_code":16},"0131":{"zip_code":"9320131","prefecture":"富山県","prefecture_kana":"トヤマケン","city":"小矢部市","city_kana":"オヤベシ","town":"名畑","town_kana":"ナバタ","prefecture_code":16},"0104":{"zip_code":"9320104","prefecture":"富山県","prefecture_kana":"トヤマケン","city":"小矢部市","city_kana":"オヤベシ","town":"西川原","town_kana":"ニシガワラ","prefecture_code":16},"0055":{"zip_code":"9320055","prefecture":"富山県","prefecture_kana":"トヤマケン","city":"小矢部市","city_kana":"オヤベシ","town":"西町","town_kana":"ニシチョウ","prefecture_code":16},"0805":{"zip_code":"9320805","prefecture":"富山県","prefecture_kana":"トヤマケン","city":"小矢部市","city_kana":"オヤベシ","town":"西中","town_kana":"ニシナカ","prefecture_code":16},"0035":{"zip_code":"9320035","prefecture":"富山県","prefecture_kana":"トヤマケン","city":"小矢部市","city_kana":"オヤベシ","town":"西中野","town_kana":"ニシナカノ","prefecture_code":16},"0116":{"zip_code":"9320116","prefecture":"富山県","prefecture_kana":"トヤマケン","city":"小矢部市","city_kana":"オヤベシ","town":"西島","town_kana":"ニシノシマ","prefecture_code":16},"0042":{"zip_code":"9320042","prefecture":"富山県","prefecture_kana":"トヤマケン","city":"小矢部市","city_kana":"オヤベシ","town":"西福町","town_kana":"ニシフクマチ","prefecture_code":16},"0004":{"zip_code":"9320004","prefecture":"富山県","prefecture_kana":"トヤマケン","city":"小矢部市","city_kana":"オヤベシ","town":"二ノ滝","town_kana":"ニノタキ","prefecture_code":16},"0016":{"zip_code":"9320016","prefecture":"富山県","prefecture_kana":"トヤマケン","city":"小矢部市","city_kana":"オヤベシ","town":"糠子島","town_kana":"ヌカゴジマ","prefecture_code":16},"0813":{"zip_code":"9320813","prefecture":"富山県","prefecture_kana":"トヤマケン","city":"小矢部市","city_kana":"オヤベシ","town":"野寺","town_kana":"ノデラ","prefecture_code":16},"0832":{"zip_code":"9320832","prefecture":"富山県","prefecture_kana":"トヤマケン","city":"小矢部市","city_kana":"オヤベシ","town":"野端","town_kana":"ノバナ","prefecture_code":16},"0834":{"zip_code":"9320834","prefecture":"富山県","prefecture_kana":"トヤマケン","city":"小矢部市","city_kana":"オヤベシ","town":"蓮沼","town_kana":"ハスヌマ","prefecture_code":16},"0043":{"zip_code":"9320043","prefecture":"富山県","prefecture_kana":"トヤマケン","city":"小矢部市","city_kana":"オヤベシ","town":"畠中町","town_kana":"ハタケナカマチ","prefecture_code":16},"0864":{"zip_code":"9320864","prefecture":"富山県","prefecture_kana":"トヤマケン","city":"小矢部市","city_kana":"オヤベシ","town":"八伏","town_kana":"ハチブセ","prefecture_code":16},"0861":{"zip_code":"9320861","prefecture":"富山県","prefecture_kana":"トヤマケン","city":"小矢部市","city_kana":"オヤベシ","town":"八講田","town_kana":"ハッコウデン","prefecture_code":16},"0836":{"zip_code":"9320836","prefecture":"富山県","prefecture_kana":"トヤマケン","city":"小矢部市","city_kana":"オヤベシ","town":"埴生","town_kana":"ハニュウ","prefecture_code":16},"0011":{"zip_code":"9320011","prefecture":"富山県","prefecture_kana":"トヤマケン","city":"小矢部市","city_kana":"オヤベシ","town":"原牧","town_kana":"ハラマキ","prefecture_code":16},"0041":{"zip_code":"9320041","prefecture":"富山県","prefecture_kana":"トヤマケン","city":"小矢部市","city_kana":"オヤベシ","town":"東福町","town_kana":"ヒガシフクマチ","prefecture_code":16},"0134":{"zip_code":"9320134","prefecture":"富山県","prefecture_kana":"トヤマケン","city":"小矢部市","city_kana":"オヤベシ","town":"平桜","town_kana":"ヒラザクラ","prefecture_code":16},"0136":{"zip_code":"9320136","prefecture":"富山県","prefecture_kana":"トヤマケン","city":"小矢部市","city_kana":"オヤベシ","town":"平田","town_kana":"ヒラタ","prefecture_code":16},"0823":{"zip_code":"9320823","prefecture":"富山県","prefecture_kana":"トヤマケン","city":"小矢部市","city_kana":"オヤベシ","town":"福上","town_kana":"フクガミ","prefecture_code":16},"0816":{"zip_code":"9320816","prefecture":"富山県","prefecture_kana":"トヤマケン","city":"小矢部市","city_kana":"オヤベシ","town":"福久","town_kana":"フクヒサ","prefecture_code":16},"0135":{"zip_code":"9320135","prefecture":"富山県","prefecture_kana":"トヤマケン","city":"小矢部市","city_kana":"オヤベシ","town":"藤森","town_kana":"フジノモリ","prefecture_code":16},"0856":{"zip_code":"9320856","prefecture":"富山県","prefecture_kana":"トヤマケン","city":"小矢部市","city_kana":"オヤベシ","town":"フロンティアパーク","town_kana":"フロンティアパーク","prefecture_code":16},"0018":{"zip_code":"9320018","prefecture":"富山県","prefecture_kana":"トヤマケン","city":"小矢部市","city_kana":"オヤベシ","town":"別所滝","town_kana":"ベッショダキ","prefecture_code":16},"0027":{"zip_code":"9320027","prefecture":"富山県","prefecture_kana":"トヤマケン","city":"小矢部市","city_kana":"オヤベシ","town":"法楽寺","town_kana":"ホウラクジ","prefecture_code":16},"0057":{"zip_code":"9320057","prefecture":"富山県","prefecture_kana":"トヤマケン","city":"小矢部市","city_kana":"オヤベシ","town":"本町","town_kana":"ホンマチ","prefecture_code":16},"0845":{"zip_code":"9320845","prefecture":"富山県","prefecture_kana":"トヤマケン","city":"小矢部市","city_kana":"オヤベシ","town":"松尾","town_kana":"マツオ","prefecture_code":16},"0846":{"zip_code":"9320846","prefecture":"富山県","prefecture_kana":"トヤマケン","city":"小矢部市","city_kana":"オヤベシ","town":"松永","town_kana":"マツナガ","prefecture_code":16},"0806":{"zip_code":"9320806","prefecture":"富山県","prefecture_kana":"トヤマケン","city":"小矢部市","city_kana":"オヤベシ","town":"水落","town_kana":"ミズオチ","prefecture_code":16},"0102":{"zip_code":"9320102","prefecture":"富山県","prefecture_kana":"トヤマケン","city":"小矢部市","city_kana":"オヤベシ","town":"水島","town_kana":"ミズシマ","prefecture_code":16},"0811":{"zip_code":"9320811","prefecture":"富山県","prefecture_kana":"トヤマケン","city":"小矢部市","city_kana":"オヤベシ","town":"水牧","town_kana":"ミズマキ","prefecture_code":16},"0012":{"zip_code":"9320012","prefecture":"富山県","prefecture_kana":"トヤマケン","city":"小矢部市","city_kana":"オヤベシ","town":"嶺","town_kana":"ミネ","prefecture_code":16},"0063":{"zip_code":"9320063","prefecture":"富山県","prefecture_kana":"トヤマケン","city":"小矢部市","city_kana":"オヤベシ","town":"峰坪野","town_kana":"ミネツボノ","prefecture_code":16},"0124":{"zip_code":"9320124","prefecture":"富山県","prefecture_kana":"トヤマケン","city":"小矢部市","city_kana":"オヤベシ","town":"蓑輪","town_kana":"ミノワ","prefecture_code":16},"0026":{"zip_code":"9320026","prefecture":"富山県","prefecture_kana":"トヤマケン","city":"小矢部市","city_kana":"オヤベシ","town":"宮須","town_kana":"ミヤス","prefecture_code":16},"0025":{"zip_code":"9320025","prefecture":"富山県","prefecture_kana":"トヤマケン","city":"小矢部市","city_kana":"オヤベシ","town":"宮中","town_kana":"ミヤナカ","prefecture_code":16},"0007":{"zip_code":"9320007","prefecture":"富山県","prefecture_kana":"トヤマケン","city":"小矢部市","city_kana":"オヤベシ","town":"名ケ滝","town_kana":"ミョウガダキ","prefecture_code":16},"0838":{"zip_code":"9320838","prefecture":"富山県","prefecture_kana":"トヤマケン","city":"小矢部市","city_kana":"オヤベシ","town":"メルヘンランド","town_kana":"メルヘンランド","prefecture_code":16},"0002":{"zip_code":"9320002","prefecture":"富山県","prefecture_kana":"トヤマケン","city":"小矢部市","city_kana":"オヤベシ","town":"森屋","town_kana":"モリヤ","prefecture_code":16},"0121":{"zip_code":"9320121","prefecture":"富山県","prefecture_kana":"トヤマケン","city":"小矢部市","city_kana":"オヤベシ","town":"矢水町","town_kana":"ヤスイチョウ","prefecture_code":16},"0048":{"zip_code":"9320048","prefecture":"富山県","prefecture_kana":"トヤマケン","city":"小矢部市","city_kana":"オヤベシ","town":"八和町","town_kana":"ヤツワマチ","prefecture_code":16},"0807":{"zip_code":"9320807","prefecture":"富山県","prefecture_kana":"トヤマケン","city":"小矢部市","city_kana":"オヤベシ","town":"柳原","town_kana":"ヤナギハラ","prefecture_code":16},"0015":{"zip_code":"9320015","prefecture":"富山県","prefecture_kana":"トヤマケン","city":"小矢部市","city_kana":"オヤベシ","town":"矢波","town_kana":"ヤナミ","prefecture_code":16},"0024":{"zip_code":"9320024","prefecture":"富山県","prefecture_kana":"トヤマケン","city":"小矢部市","city_kana":"オヤベシ","town":"屋波牧","town_kana":"ヤナミマキ","prefecture_code":16},"0023":{"zip_code":"9320023","prefecture":"富山県","prefecture_kana":"トヤマケン","city":"小矢部市","city_kana":"オヤベシ","town":"横谷","town_kana":"ヨコダニ","prefecture_code":16},"0837":{"zip_code":"9320837","prefecture":"富山県","prefecture_kana":"トヤマケン","city":"小矢部市","city_kana":"オヤベシ","town":"吉和台","town_kana":"ヨシワダイ","prefecture_code":16},"0017":{"zip_code":"9320017","prefecture":"富山県","prefecture_kana":"トヤマケン","city":"小矢部市","city_kana":"オヤベシ","town":"了輪","town_kana":"リョウワ","prefecture_code":16},"0065":{"zip_code":"9320065","prefecture":"富山県","prefecture_kana":"トヤマケン","city":"小矢部市","city_kana":"オヤベシ","town":"論田","town_kana":"ロンデン","prefecture_code":16},"0822":{"zip_code":"9320822","prefecture":"富山県","prefecture_kana":"トヤマケン","city":"小矢部市","city_kana":"オヤベシ","town":"和沢","town_kana":"ワサワ","prefecture_code":16},"0821":{"zip_code":"9320821","prefecture":"富山県","prefecture_kana":"トヤマケン","city":"小矢部市","city_kana":"オヤベシ","town":"鷲島","town_kana":"ワシガシマ","prefecture_code":16},"0206":{"zip_code":"9320206","prefecture":"富山県","prefecture_kana":"トヤマケン","city":"南砺市","city_kana":"ナントシ","town":"利屋","town_kana":"トギヤ","prefecture_code":16},"0247":{"zip_code":"9320247","prefecture":"富山県","prefecture_kana":"トヤマケン","city":"南砺市","city_kana":"ナントシ","town":"院瀬見","town_kana":"イゼミ","prefecture_code":16},"0211":{"zip_code":"9320211","prefecture":"富山県","prefecture_kana":"トヤマケン","city":"南砺市","city_kana":"ナントシ","town":"井波","town_kana":"イナミ","prefecture_code":16},"0213":{"zip_code":"9320213","prefecture":"富山県","prefecture_kana":"トヤマケン","city":"南砺市","city_kana":"ナントシ","town":"井波栄町","town_kana":"イナミサカエマチ","prefecture_code":16},"0205":{"zip_code":"9320205","prefecture":"富山県","prefecture_kana":"トヤマケン","city":"南砺市","city_kana":"ナントシ","town":"井波軸屋","town_kana":"イナミジクヤ","prefecture_code":16},"0216":{"zip_code":"9320216","prefecture":"富山県","prefecture_kana":"トヤマケン","city":"南砺市","city_kana":"ナントシ","town":"井波末広町","town_kana":"イナミスエヒロマチ","prefecture_code":16},"0228":{"zip_code":"9320228","prefecture":"富山県","prefecture_kana":"トヤマケン","city":"南砺市","city_kana":"ナントシ","town":"井波東町","town_kana":"イナミヒガシマチ","prefecture_code":16},"0256":{"zip_code":"9320256","prefecture":"富山県","prefecture_kana":"トヤマケン","city":"南砺市","city_kana":"ナントシ","town":"今里","town_kana":"イマザト","prefecture_code":16},"0214":{"zip_code":"9320214","prefecture":"富山県","prefecture_kana":"トヤマケン","city":"南砺市","city_kana":"ナントシ","town":"今町","town_kana":"イママチ","prefecture_code":16},"0203":{"zip_code":"9320203","prefecture":"富山県","prefecture_kana":"トヤマケン","city":"南砺市","city_kana":"ナントシ","town":"岩屋","town_kana":"イワヤ","prefecture_code":16},"0248":{"zip_code":"9320248","prefecture":"富山県","prefecture_kana":"トヤマケン","city":"南砺市","city_kana":"ナントシ","town":"沖","town_kana":"オキ","prefecture_code":16},"0241":{"zip_code":"9320241","prefecture":"富山県","prefecture_kana":"トヤマケン","city":"南砺市","city_kana":"ナントシ","town":"川原崎","town_kana":"カワラサキ","prefecture_code":16},"0221":{"zip_code":"9320221","prefecture":"富山県","prefecture_kana":"トヤマケン","city":"南砺市","city_kana":"ナントシ","town":"木崎野","town_kana":"キザキノ","prefecture_code":16},"0257":{"zip_code":"9320257","prefecture":"富山県","prefecture_kana":"トヤマケン","city":"南砺市","city_kana":"ナントシ","town":"北市","town_kana":"キタイチ","prefecture_code":16},"0226":{"zip_code":"9320226","prefecture":"富山県","prefecture_kana":"トヤマケン","city":"南砺市","city_kana":"ナントシ","town":"北川","town_kana":"キタガワ","prefecture_code":16},"0227":{"zip_code":"9320227","prefecture":"富山県","prefecture_kana":"トヤマケン","city":"南砺市","city_kana":"ナントシ","town":"北新町","town_kana":"キタシンマチ","prefecture_code":16},"0232":{"zip_code":"9320232","prefecture":"富山県","prefecture_kana":"トヤマケン","city":"南砺市","city_kana":"ナントシ","town":"京願町","town_kana":"キョウガンマチ","prefecture_code":16},"0254":{"zip_code":"9320254","prefecture":"富山県","prefecture_kana":"トヤマケン","city":"南砺市","city_kana":"ナントシ","town":"五領","town_kana":"ゴリョウ","prefecture_code":16},"0255":{"zip_code":"9320255","prefecture":"富山県","prefecture_kana":"トヤマケン","city":"南砺市","city_kana":"ナントシ","town":"五領島","town_kana":"ゴリョウジマ","prefecture_code":16},"0222":{"zip_code":"9320222","prefecture":"富山県","prefecture_kana":"トヤマケン","city":"南砺市","city_kana":"ナントシ","town":"坂ノ下","town_kana":"サカノシタ","prefecture_code":16},"0258":{"zip_code":"9320258","prefecture":"富山県","prefecture_kana":"トヤマケン","city":"南砺市","city_kana":"ナントシ","town":"三清東","town_kana":"サンキヨヒガシ","prefecture_code":16},"0243":{"zip_code":"9320243","prefecture":"富山県","prefecture_kana":"トヤマケン","city":"南砺市","city_kana":"ナントシ","town":"志観寺","town_kana":"シカンジ","prefecture_code":16},"0202":{"zip_code":"9320202","prefecture":"富山県","prefecture_kana":"トヤマケン","city":"南砺市","city_kana":"ナントシ","town":"清水明","town_kana":"シミズミョウ","prefecture_code":16},"0238":{"zip_code":"9320238","prefecture":"富山県","prefecture_kana":"トヤマケン","city":"南砺市","city_kana":"ナントシ","town":"下新町","town_kana":"シモアラマチ","prefecture_code":16},"0245":{"zip_code":"9320245","prefecture":"富山県","prefecture_kana":"トヤマケン","city":"南砺市","city_kana":"ナントシ","town":"清玄寺","town_kana":"セイゲンジ","prefecture_code":16},"0207":{"zip_code":"9320207","prefecture":"富山県","prefecture_kana":"トヤマケン","city":"南砺市","city_kana":"ナントシ","town":"専勝寺","town_kana":"センショウジ","prefecture_code":16},"0252":{"zip_code":"9320252","prefecture":"富山県","prefecture_kana":"トヤマケン","city":"南砺市","city_kana":"ナントシ","town":"高瀬","town_kana":"タカセ","prefecture_code":16},"0201":{"zip_code":"9320201","prefecture":"富山県","prefecture_kana":"トヤマケン","city":"南砺市","city_kana":"ナントシ","town":"高屋","town_kana":"タカヤ","prefecture_code":16},"0242":{"zip_code":"9320242","prefecture":"富山県","prefecture_kana":"トヤマケン","city":"南砺市","city_kana":"ナントシ","town":"谷","town_kana":"タニ","prefecture_code":16},"0218":{"zip_code":"9320218","prefecture":"富山県","prefecture_kana":"トヤマケン","city":"南砺市","city_kana":"ナントシ","town":"坪野","town_kana":"ツボノ","prefecture_code":16},"0253":{"zip_code":"9320253","prefecture":"富山県","prefecture_kana":"トヤマケン","city":"南砺市","city_kana":"ナントシ","town":"戸板","town_kana":"トイタ","prefecture_code":16},"0246":{"zip_code":"9320246","prefecture":"富山県","prefecture_kana":"トヤマケン","city":"南砺市","city_kana":"ナントシ","town":"東城寺","town_kana":"トウジョウジ","prefecture_code":16},"0371":{"zip_code":"9320371","prefecture":"富山県","prefecture_kana":"トヤマケン","city":"南砺市","city_kana":"ナントシ","town":"利賀村長崎","town_kana":"トガムラナガサキ","prefecture_code":16},"0251":{"zip_code":"9320251","prefecture":"富山県","prefecture_kana":"トヤマケン","city":"南砺市","city_kana":"ナントシ","town":"野能原","town_kana":"ノノウハラ","prefecture_code":16},"0225":{"zip_code":"9320225","prefecture":"富山県","prefecture_kana":"トヤマケン","city":"南砺市","city_kana":"ナントシ","town":"畑方","town_kana":"ハタカタ","prefecture_code":16},"0204":{"zip_code":"9320204","prefecture":"富山県","prefecture_kana":"トヤマケン","city":"南砺市","city_kana":"ナントシ","town":"飛騨屋","town_kana":"ヒダヤ","prefecture_code":16},"0224":{"zip_code":"9320224","prefecture":"富山県","prefecture_kana":"トヤマケン","city":"南砺市","city_kana":"ナントシ","town":"藤橋","town_kana":"フジハシ","prefecture_code":16},"0233":{"zip_code":"9320233","prefecture":"富山県","prefecture_kana":"トヤマケン","city":"南砺市","city_kana":"ナントシ","town":"堀道","town_kana":"ホリミチ","prefecture_code":16},"0217":{"zip_code":"9320217","prefecture":"富山県","prefecture_kana":"トヤマケン","city":"南砺市","city_kana":"ナントシ","town":"本町","town_kana":"ホンマチ","prefecture_code":16},"0223":{"zip_code":"9320223","prefecture":"富山県","prefecture_kana":"トヤマケン","city":"南砺市","city_kana":"ナントシ","town":"松島","town_kana":"マツシマ","prefecture_code":16},"0236":{"zip_code":"9320236","prefecture":"富山県","prefecture_kana":"トヤマケン","city":"南砺市","city_kana":"ナントシ","town":"三日町","town_kana":"ミッカマチ","prefecture_code":16},"0235":{"zip_code":"9320235","prefecture":"富山県","prefecture_kana":"トヤマケン","city":"南砺市","city_kana":"ナントシ","town":"六日町","town_kana":"ムイカマチ","prefecture_code":16},"0215":{"zip_code":"9320215","prefecture":"富山県","prefecture_kana":"トヤマケン","city":"南砺市","city_kana":"ナントシ","town":"山下","town_kana":"ヤマシタ","prefecture_code":16},"0212":{"zip_code":"9320212","prefecture":"富山県","prefecture_kana":"トヤマケン","city":"南砺市","city_kana":"ナントシ","town":"山斐","town_kana":"ヤマヒ","prefecture_code":16},"0231":{"zip_code":"9320231","prefecture":"富山県","prefecture_kana":"トヤマケン","city":"南砺市","city_kana":"ナントシ","town":"山見","town_kana":"ヤマミ","prefecture_code":16},"0237":{"zip_code":"9320237","prefecture":"富山県","prefecture_kana":"トヤマケン","city":"南砺市","city_kana":"ナントシ","town":"山見町並","town_kana":"ヤマミマチナミ","prefecture_code":16},"0234":{"zip_code":"9320234","prefecture":"富山県","prefecture_kana":"トヤマケン","city":"南砺市","city_kana":"ナントシ","town":"八日町","town_kana":"ヨウカマチ","prefecture_code":16},"0244":{"zip_code":"9320244","prefecture":"富山県","prefecture_kana":"トヤマケン","city":"南砺市","city_kana":"ナントシ","town":"連代寺","town_kana":"レンタイジ","prefecture_code":16}}