{"0000":{"zip_code":"9330000","prefecture":"富山県","prefecture_kana":"トヤマケン","city":"高岡市","city_kana":"タカオカシ","town":"","town_kana":"","prefecture_code":16},"0061":{"zip_code":"9330061","prefecture":"富山県","prefecture_kana":"トヤマケン","city":"高岡市","city_kana":"タカオカシ","town":"青葉町","town_kana":"アオバチョウ","prefecture_code":16},"0805":{"zip_code":"9330805","prefecture":"富山県","prefecture_kana":"トヤマケン","city":"高岡市","city_kana":"タカオカシ","town":"赤江町","town_kana":"アカエチョウ","prefecture_code":16},"0806":{"zip_code":"9330806","prefecture":"富山県","prefecture_kana":"トヤマケン","city":"高岡市","city_kana":"タカオカシ","town":"赤祖父","town_kana":"アカソフ","prefecture_code":16},"0015":{"zip_code":"9330015","prefecture":"富山県","prefecture_kana":"トヤマケン","city":"高岡市","city_kana":"タカオカシ","town":"明園町","town_kana":"アケゾノマチ","prefecture_code":16},"0905":{"zip_code":"9330905","prefecture":"富山県","prefecture_kana":"トヤマケン","city":"高岡市","city_kana":"タカオカシ","town":"明野町","town_kana":"アケノマチ","prefecture_code":16},"0072":{"zip_code":"9330072","prefecture":"富山県","prefecture_kana":"トヤマケン","city":"高岡市","city_kana":"タカオカシ","town":"旭ケ丘","town_kana":"アサヒガオカ","prefecture_code":16},"0353":{"zip_code":"9330353","prefecture":"富山県","prefecture_kana":"トヤマケン","city":"高岡市","city_kana":"タカオカシ","town":"麻生谷","town_kana":"アソウヤ","prefecture_code":16},"0877":{"zip_code":"9330877","prefecture":"富山県","prefecture_kana":"トヤマケン","city":"高岡市","city_kana":"タカオカシ","town":"荒川町","town_kana":"アラカワチョウ","prefecture_code":16},"0833":{"zip_code":"9330833","prefecture":"富山県","prefecture_kana":"トヤマケン","city":"高岡市","city_kana":"タカオカシ","town":"荒見崎","town_kana":"アラミサキ","prefecture_code":16},"0319":{"zip_code":"9330319","prefecture":"富山県","prefecture_kana":"トヤマケン","city":"高岡市","city_kana":"タカオカシ","town":"荒屋敷","town_kana":"アラヤシキ","prefecture_code":16},"0911":{"zip_code":"9330911","prefecture":"富山県","prefecture_kana":"トヤマケン","city":"高岡市","city_kana":"タカオカシ","town":"あわら町","town_kana":"アワラマチ","prefecture_code":16},"0306":{"zip_code":"9330306","prefecture":"富山県","prefecture_kana":"トヤマケン","city":"高岡市","city_kana":"タカオカシ","town":"五十辺","town_kana":"イカラベ","prefecture_code":16},"0973":{"zip_code":"9330973","prefecture":"富山県","prefecture_kana":"トヤマケン","city":"高岡市","city_kana":"タカオカシ","town":"五十里","town_kana":"イカリ","prefecture_code":16},"0972":{"zip_code":"9330972","prefecture":"富山県","prefecture_kana":"トヤマケン","city":"高岡市","city_kana":"タカオカシ","town":"五十里東町","town_kana":"イカリヒガシマチ","prefecture_code":16},"0971":{"zip_code":"9330971","prefecture":"富山県","prefecture_kana":"トヤマケン","city":"高岡市","city_kana":"タカオカシ","town":"五十里西町","town_kana":"イカリニシマチ","prefecture_code":16},"0807":{"zip_code":"9330807","prefecture":"富山県","prefecture_kana":"トヤマケン","city":"高岡市","city_kana":"タカオカシ","town":"井口本江","town_kana":"イグチホンゴウ","prefecture_code":16},"0318":{"zip_code":"9330318","prefecture":"富山県","prefecture_kana":"トヤマケン","city":"高岡市","city_kana":"タカオカシ","town":"池田","town_kana":"イケダ","prefecture_code":16},"0011":{"zip_code":"9330011","prefecture":"富山県","prefecture_kana":"トヤマケン","city":"高岡市","city_kana":"タカオカシ","town":"石瀬","town_kana":"イシゼ","prefecture_code":16},"0836":{"zip_code":"9330836","prefecture":"富山県","prefecture_kana":"トヤマケン","city":"高岡市","city_kana":"タカオカシ","town":"石塚","town_kana":"イシヅカ","prefecture_code":16},"0355":{"zip_code":"9330355","prefecture":"富山県","prefecture_kana":"トヤマケン","city":"高岡市","city_kana":"タカオカシ","town":"石堤","town_kana":"イシヅツミ","prefecture_code":16},"0827":{"zip_code":"9330827","prefecture":"富山県","prefecture_kana":"トヤマケン","city":"高岡市","city_kana":"タカオカシ","town":"泉が丘","town_kana":"イズミガオカ","prefecture_code":16},"0858":{"zip_code":"9330858","prefecture":"富山県","prefecture_kana":"トヤマケン","city":"高岡市","city_kana":"タカオカシ","town":"泉町","town_kana":"イズミマチ","prefecture_code":16},"0855":{"zip_code":"9330855","prefecture":"富山県","prefecture_kana":"トヤマケン","city":"高岡市","city_kana":"タカオカシ","town":"市場通り","town_kana":"イチバドオリ","prefecture_code":16},"0923":{"zip_code":"9330923","prefecture":"富山県","prefecture_kana":"トヤマケン","city":"高岡市","city_kana":"タカオカシ","town":"一番町","town_kana":"イチバンマチ","prefecture_code":16},"0335":{"zip_code":"9330335","prefecture":"富山県","prefecture_kana":"トヤマケン","city":"高岡市","city_kana":"タカオカシ","town":"今市","town_kana":"イマイチ","prefecture_code":16},"0974":{"zip_code":"9330974","prefecture":"富山県","prefecture_kana":"トヤマケン","city":"高岡市","city_kana":"タカオカシ","town":"岩坪","town_kana":"イワツボ","prefecture_code":16},"0328":{"zip_code":"9330328","prefecture":"富山県","prefecture_kana":"トヤマケン","city":"高岡市","city_kana":"タカオカシ","town":"内島","town_kana":"ウチジマ","prefecture_code":16},"0843":{"zip_code":"9330843","prefecture":"富山県","prefecture_kana":"トヤマケン","city":"高岡市","city_kana":"タカオカシ","town":"永楽町","town_kana":"エイラクマチ","prefecture_code":16},"0871":{"zip_code":"9330871","prefecture":"富山県","prefecture_kana":"トヤマケン","city":"高岡市","city_kana":"タカオカシ","town":"駅南","town_kana":"エキナン","prefecture_code":16},"0062":{"zip_code":"9330062","prefecture":"富山県","prefecture_kana":"トヤマケン","city":"高岡市","city_kana":"タカオカシ","town":"江尻","town_kana":"エジリ","prefecture_code":16},"0065":{"zip_code":"9330065","prefecture":"富山県","prefecture_kana":"トヤマケン","city":"高岡市","city_kana":"タカオカシ","town":"江尻白山町","town_kana":"エジリシラヤマチョウ","prefecture_code":16},"0305":{"zip_code":"9330305","prefecture":"富山県","prefecture_kana":"トヤマケン","city":"高岡市","city_kana":"タカオカシ","town":"江道","town_kana":"エンドウ","prefecture_code":16},"0846":{"zip_code":"9330846","prefecture":"富山県","prefecture_kana":"トヤマケン","city":"高岡市","city_kana":"タカオカシ","town":"扇町","town_kana":"オウギマチ","prefecture_code":16},"0133":{"zip_code":"9330133","prefecture":"富山県","prefecture_kana":"トヤマケン","city":"高岡市","city_kana":"タカオカシ","town":"太田","town_kana":"オオタ","prefecture_code":16},"0135":{"zip_code":"9330135","prefecture":"富山県","prefecture_kana":"トヤマケン","city":"高岡市","city_kana":"タカオカシ","town":"太田雨晴","town_kana":"オオタアマハラ","prefecture_code":16},"0134":[{"zip_code":"9330134","prefecture":"富山県","prefecture_kana":"トヤマケン","city":"高岡市","city_kana":"タカオカシ","town":"太田辰ノ口","town_kana":"オオタタツノクチ","prefecture_code":16},{"zip_code":"9330134","prefecture":"富山県","prefecture_kana":"トヤマケン","city":"高岡市","city_kana":"タカオカシ","town":"太田旦保","town_kana":"オオタタンボ","prefecture_code":16}],"0132":{"zip_code":"9330132","prefecture":"富山県","prefecture_kana":"トヤマケン","city":"高岡市","city_kana":"タカオカシ","town":"太田中村","town_kana":"オオタナカムラ","prefecture_code":16},"0131":{"zip_code":"9330131","prefecture":"富山県","prefecture_kana":"トヤマケン","city":"高岡市","city_kana":"タカオカシ","town":"太田伊勢領","town_kana":"オオタイセリョウ","prefecture_code":16},"0137":[{"zip_code":"9330137","prefecture":"富山県","prefecture_kana":"トヤマケン","city":"高岡市","city_kana":"タカオカシ","town":"太田谷内","town_kana":"オオタヤチ","prefecture_code":16},{"zip_code":"9330137","prefecture":"富山県","prefecture_kana":"トヤマケン","city":"高岡市","city_kana":"タカオカシ","town":"西田","town_kana":"サイダ","prefecture_code":16}],"0138":{"zip_code":"9330138","prefecture":"富山県","prefecture_kana":"トヤマケン","city":"高岡市","city_kana":"タカオカシ","town":"太田山岸","town_kana":"オオタヤマギシ","prefecture_code":16},"0918":{"zip_code":"9330918","prefecture":"富山県","prefecture_kana":"トヤマケン","city":"高岡市","city_kana":"タカオカシ","town":"大坪町","town_kana":"オオツボマチ","prefecture_code":16},"0039":{"zip_code":"9330039","prefecture":"富山県","prefecture_kana":"トヤマケン","city":"高岡市","city_kana":"タカオカシ","town":"大手町","town_kana":"オオテマチ","prefecture_code":16},"0016":{"zip_code":"9330016","prefecture":"富山県","prefecture_kana":"トヤマケン","city":"高岡市","city_kana":"タカオカシ","town":"大野","town_kana":"オオノ","prefecture_code":16},"0916":{"zip_code":"9330916","prefecture":"富山県","prefecture_kana":"トヤマケン","city":"高岡市","city_kana":"タカオカシ","town":"大町","town_kana":"オオマチ","prefecture_code":16},"0867":{"zip_code":"9330867","prefecture":"富山県","prefecture_kana":"トヤマケン","city":"高岡市","city_kana":"タカオカシ","town":"大鋸屋町","town_kana":"オガヤチョウ","prefecture_code":16},"0073":{"zip_code":"9330073","prefecture":"富山県","prefecture_kana":"トヤマケン","city":"高岡市","city_kana":"タカオカシ","town":"荻布","town_kana":"オギノ","prefecture_code":16},"0074":{"zip_code":"9330074","prefecture":"富山県","prefecture_kana":"トヤマケン","city":"高岡市","city_kana":"タカオカシ","town":"荻布新町","town_kana":"オギノシンマチ","prefecture_code":16},"0078":{"zip_code":"9330078","prefecture":"富山県","prefecture_kana":"トヤマケン","city":"高岡市","city_kana":"タカオカシ","town":"荻布四つ葉町","town_kana":"オギノヨツバマチ","prefecture_code":16},"0332":{"zip_code":"9330332","prefecture":"富山県","prefecture_kana":"トヤマケン","city":"高岡市","city_kana":"タカオカシ","town":"小竹","town_kana":"オダケ","prefecture_code":16},"0029":{"zip_code":"9330029","prefecture":"富山県","prefecture_kana":"トヤマケン","city":"高岡市","city_kana":"タカオカシ","town":"御旅屋町","town_kana":"オタヤマチ","prefecture_code":16},"0926":{"zip_code":"9330926","prefecture":"富山県","prefecture_kana":"トヤマケン","city":"高岡市","city_kana":"タカオカシ","town":"御馬出町","town_kana":"オンマダシマチ","prefecture_code":16},"0909":{"zip_code":"9330909","prefecture":"富山県","prefecture_kana":"トヤマケン","city":"高岡市","city_kana":"タカオカシ","town":"開発本町","town_kana":"カイホツホンマチ","prefecture_code":16},"0066":{"zip_code":"9330066","prefecture":"富山県","prefecture_kana":"トヤマケン","city":"高岡市","city_kana":"タカオカシ","town":"春日丘","town_kana":"カスガオカ","prefecture_code":16},"0027":{"zip_code":"9330027","prefecture":"富山県","prefecture_kana":"トヤマケン","city":"高岡市","city_kana":"タカオカシ","town":"片原中島町","town_kana":"カタハラナカジママチ","prefecture_code":16},"0025":{"zip_code":"9330025","prefecture":"富山県","prefecture_kana":"トヤマケン","city":"高岡市","city_kana":"タカオカシ","town":"片原横町","town_kana":"カタハラヨコマチ","prefecture_code":16},"0026":{"zip_code":"9330026","prefecture":"富山県","prefecture_kana":"トヤマケン","city":"高岡市","city_kana":"タカオカシ","town":"片原町","town_kana":"カタハラマチ","prefecture_code":16},"0945":{"zip_code":"9330945","prefecture":"富山県","prefecture_kana":"トヤマケン","city":"高岡市","city_kana":"タカオカシ","town":"金屋本町","town_kana":"カナヤホンマチ","prefecture_code":16},"0841":{"zip_code":"9330841","prefecture":"富山県","prefecture_kana":"トヤマケン","city":"高岡市","city_kana":"タカオカシ","town":"金屋町","town_kana":"カナヤマチ","prefecture_code":16},"0856":{"zip_code":"9330856","prefecture":"富山県","prefecture_kana":"トヤマケン","city":"高岡市","city_kana":"タカオカシ","town":"鐘紡町","town_kana":"カネボウマチ","prefecture_code":16},"0336":{"zip_code":"9330336","prefecture":"富山県","prefecture_kana":"トヤマケン","city":"高岡市","city_kana":"タカオカシ","town":"上開発","town_kana":"カミカイホツ","prefecture_code":16},"0837":{"zip_code":"9330837","prefecture":"富山県","prefecture_kana":"トヤマケン","city":"高岡市","city_kana":"タカオカシ","town":"上北島","town_kana":"カミキタジマ","prefecture_code":16},"0853":[{"zip_code":"9330853","prefecture":"富山県","prefecture_kana":"トヤマケン","city":"高岡市","city_kana":"タカオカシ","town":"上黒田","town_kana":"カミクロダ","prefecture_code":16},{"zip_code":"9330853","prefecture":"富山県","prefecture_kana":"トヤマケン","city":"高岡市","city_kana":"タカオカシ","town":"上黒田新","town_kana":"カミクロダシン","prefecture_code":16}],"0851":[{"zip_code":"9330851","prefecture":"富山県","prefecture_kana":"トヤマケン","city":"高岡市","city_kana":"タカオカシ","town":"上関","town_kana":"カミゼキ","prefecture_code":16},{"zip_code":"9330851","prefecture":"富山県","prefecture_kana":"トヤマケン","city":"高岡市","city_kana":"タカオカシ","town":"上関町","town_kana":"カミゼキマチ","prefecture_code":16}],"0963":{"zip_code":"9330963","prefecture":"富山県","prefecture_kana":"トヤマケン","city":"高岡市","city_kana":"タカオカシ","town":"上八ケ新","town_kana":"カミハッカシン","prefecture_code":16},"0814":{"zip_code":"9330814","prefecture":"富山県","prefecture_kana":"トヤマケン","city":"高岡市","city_kana":"タカオカシ","town":"上伏間江","town_kana":"カミフスマエ","prefecture_code":16},"0948":{"zip_code":"9330948","prefecture":"富山県","prefecture_kana":"トヤマケン","city":"高岡市","city_kana":"タカオカシ","town":"上四屋","town_kana":"カミヨツヤ","prefecture_code":16},"0341":{"zip_code":"9330341","prefecture":"富山県","prefecture_kana":"トヤマケン","city":"高岡市","city_kana":"タカオカシ","town":"上渡","town_kana":"カミワタリ","prefecture_code":16},"0932":{"zip_code":"9330932","prefecture":"富山県","prefecture_kana":"トヤマケン","city":"高岡市","city_kana":"タカオカシ","town":"鴨島町","town_kana":"カモジママチ","prefecture_code":16},"0943":{"zip_code":"9330943","prefecture":"富山県","prefecture_kana":"トヤマケン","city":"高岡市","city_kana":"タカオカシ","town":"川原本町","town_kana":"カワラホンマチ","prefecture_code":16},"0942":{"zip_code":"9330942","prefecture":"富山県","prefecture_kana":"トヤマケン","city":"高岡市","city_kana":"タカオカシ","town":"川原町","town_kana":"カワラマチ","prefecture_code":16},"0875":{"zip_code":"9330875","prefecture":"富山県","prefecture_kana":"トヤマケン","city":"高岡市","city_kana":"タカオカシ","town":"神田新町","town_kana":"カンダシンマチ","prefecture_code":16},"0876":{"zip_code":"9330876","prefecture":"富山県","prefecture_kana":"トヤマケン","city":"高岡市","city_kana":"タカオカシ","town":"神主町","town_kana":"カンヌシマチ","prefecture_code":16},"0823":{"zip_code":"9330823","prefecture":"富山県","prefecture_kana":"トヤマケン","city":"高岡市","city_kana":"タカオカシ","town":"北蔵新","town_kana":"キタクラシン","prefecture_code":16},"0838":{"zip_code":"9330838","prefecture":"富山県","prefecture_kana":"トヤマケン","city":"高岡市","city_kana":"タカオカシ","town":"北島","town_kana":"キタジマ","prefecture_code":16},"0052":{"zip_code":"9330052","prefecture":"富山県","prefecture_kana":"トヤマケン","city":"高岡市","city_kana":"タカオカシ","town":"北定塚","town_kana":"キタジョウヅカ","prefecture_code":16},"0857":{"zip_code":"9330857","prefecture":"富山県","prefecture_kana":"トヤマケン","city":"高岡市","city_kana":"タカオカシ","town":"木津","town_kana":"キヅ","prefecture_code":16},"0929":{"zip_code":"9330929","prefecture":"富山県","prefecture_kana":"トヤマケン","city":"高岡市","city_kana":"タカオカシ","town":"木舟町","town_kana":"キフネマチ","prefecture_code":16},"0908":{"zip_code":"9330908","prefecture":"富山県","prefecture_kana":"トヤマケン","city":"高岡市","city_kana":"タカオカシ","town":"木町","town_kana":"キマチ","prefecture_code":16},"0874":{"zip_code":"9330874","prefecture":"富山県","prefecture_kana":"トヤマケン","city":"高岡市","city_kana":"タカオカシ","town":"京田","town_kana":"キョウデン","prefecture_code":16},"0917":{"zip_code":"9330917","prefecture":"富山県","prefecture_kana":"トヤマケン","city":"高岡市","city_kana":"タカオカシ","town":"京町","town_kana":"キョウマチ","prefecture_code":16},"0036":{"zip_code":"9330036","prefecture":"富山県","prefecture_kana":"トヤマケン","city":"高岡市","city_kana":"タカオカシ","town":"桐木町","town_kana":"キリノキマチ","prefecture_code":16},"0968":{"zip_code":"9330968","prefecture":"富山県","prefecture_kana":"トヤマケン","city":"高岡市","city_kana":"タカオカシ","town":"国吉","town_kana":"クニヨシ","prefecture_code":16},"0903":{"zip_code":"9330903","prefecture":"富山県","prefecture_kana":"トヤマケン","city":"高岡市","city_kana":"タカオカシ","town":"熊野町","town_kana":"クマノマチ","prefecture_code":16},"0834":{"zip_code":"9330834","prefecture":"富山県","prefecture_kana":"トヤマケン","city":"高岡市","city_kana":"タカオカシ","town":"蔵野町","town_kana":"クラノマチ","prefecture_code":16},"0854":{"zip_code":"9330854","prefecture":"富山県","prefecture_kana":"トヤマケン","city":"高岡市","city_kana":"タカオカシ","town":"黒田新町","town_kana":"クロダシンマチ","prefecture_code":16},"0921":{"zip_code":"9330921","prefecture":"富山県","prefecture_kana":"トヤマケン","city":"高岡市","city_kana":"タカオカシ","town":"源平町","town_kana":"ゲンペイチョウ","prefecture_code":16},"0067":{"zip_code":"9330067","prefecture":"富山県","prefecture_kana":"トヤマケン","city":"高岡市","city_kana":"タカオカシ","town":"高伏町","town_kana":"コウフクマチ","prefecture_code":16},"0018":{"zip_code":"9330018","prefecture":"富山県","prefecture_kana":"トヤマケン","city":"高岡市","city_kana":"タカオカシ","town":"高陵町","town_kana":"コウリョウマチ","prefecture_code":16},"0044":{"zip_code":"9330044","prefecture":"富山県","prefecture_kana":"トヤマケン","city":"高岡市","city_kana":"タカオカシ","town":"古城","town_kana":"コジョウ","prefecture_code":16},"0906":{"zip_code":"9330906","prefecture":"富山県","prefecture_kana":"トヤマケン","city":"高岡市","city_kana":"タカオカシ","town":"五福町","town_kana":"ゴフクマチ","prefecture_code":16},"0338":{"zip_code":"9330338","prefecture":"富山県","prefecture_kana":"トヤマケン","city":"高岡市","city_kana":"タカオカシ","town":"駒方","town_kana":"コマガタ","prefecture_code":16},"0914":{"zip_code":"9330914","prefecture":"富山県","prefecture_kana":"トヤマケン","city":"高岡市","city_kana":"タカオカシ","town":"小馬出町","town_kana":"コンマダシマチ","prefecture_code":16},"0008":{"zip_code":"9330008","prefecture":"富山県","prefecture_kana":"トヤマケン","city":"高岡市","city_kana":"タカオカシ","town":"材木町","town_kana":"ザイモクチョウ","prefecture_code":16},"0304":{"zip_code":"9330304","prefecture":"富山県","prefecture_kana":"トヤマケン","city":"高岡市","city_kana":"タカオカシ","town":"境","town_kana":"サカイ","prefecture_code":16},"0038":{"zip_code":"9330038","prefecture":"富山県","prefecture_kana":"トヤマケン","city":"高岡市","city_kana":"タカオカシ","town":"坂下町","town_kana":"サカシタマチ","prefecture_code":16},"0961":{"zip_code":"9330961","prefecture":"富山県","prefecture_kana":"トヤマケン","city":"高岡市","city_kana":"タカオカシ","town":"佐加野","town_kana":"サガノ","prefecture_code":16},"0962":{"zip_code":"9330962","prefecture":"富山県","prefecture_kana":"トヤマケン","city":"高岡市","city_kana":"タカオカシ","town":"佐加野東","town_kana":"サガノヒガシ","prefecture_code":16},"0344":{"zip_code":"9330344","prefecture":"富山県","prefecture_kana":"トヤマケン","city":"高岡市","city_kana":"タカオカシ","town":"笹川","town_kana":"ササガワ","prefecture_code":16},"0307":{"zip_code":"9330307","prefecture":"富山県","prefecture_kana":"トヤマケン","city":"高岡市","city_kana":"タカオカシ","town":"笹八口","town_kana":"ササヤツクチ","prefecture_code":16},"0826":{"zip_code":"9330826","prefecture":"富山県","prefecture_kana":"トヤマケン","city":"高岡市","city_kana":"タカオカシ","town":"佐野","town_kana":"サノ","prefecture_code":16},"0825":{"zip_code":"9330825","prefecture":"富山県","prefecture_kana":"トヤマケン","city":"高岡市","city_kana":"タカオカシ","town":"佐野緑町","town_kana":"サノミドリチョウ","prefecture_code":16},"0334":{"zip_code":"9330334","prefecture":"富山県","prefecture_kana":"トヤマケン","city":"高岡市","city_kana":"タカオカシ","town":"三ケ","town_kana":"サンガ","prefecture_code":16},"0922":{"zip_code":"9330922","prefecture":"富山県","prefecture_kana":"トヤマケン","city":"高岡市","city_kana":"タカオカシ","town":"三番町","town_kana":"サンバンマチ","prefecture_code":16},"0013":{"zip_code":"9330013","prefecture":"富山県","prefecture_kana":"トヤマケン","city":"高岡市","city_kana":"タカオカシ","town":"三女子","town_kana":"サンヨシ","prefecture_code":16},"0907":{"zip_code":"9330907","prefecture":"富山県","prefecture_kana":"トヤマケン","city":"高岡市","city_kana":"タカオカシ","town":"地子木町","town_kana":"ジシキマチ","prefecture_code":16},"0952":{"zip_code":"9330952","prefecture":"富山県","prefecture_kana":"トヤマケン","city":"高岡市","city_kana":"タカオカシ","town":"下窪","town_kana":"シタクボ","prefecture_code":16},"0357":{"zip_code":"9330357","prefecture":"富山県","prefecture_kana":"トヤマケン","city":"高岡市","city_kana":"タカオカシ","town":"柴野","town_kana":"シバノ","prefecture_code":16},"0327":{"zip_code":"9330327","prefecture":"富山県","prefecture_kana":"トヤマケン","city":"高岡市","city_kana":"タカオカシ","town":"柴野内島","town_kana":"シバノウチジマ","prefecture_code":16},"0329":{"zip_code":"9330329","prefecture":"富山県","prefecture_kana":"トヤマケン","city":"高岡市","city_kana":"タカオカシ","town":"柴野内島柴園町","town_kana":"シバノウチジマシバゾノチョウ","prefecture_code":16},"0136":{"zip_code":"9330136","prefecture":"富山県","prefecture_kana":"トヤマケン","city":"高岡市","city_kana":"タカオカシ","town":"渋谷","town_kana":"シブヤ","prefecture_code":16},"0976":{"zip_code":"9330976","prefecture":"富山県","prefecture_kana":"トヤマケン","city":"高岡市","city_kana":"タカオカシ","town":"島崎","town_kana":"シマサキ","prefecture_code":16},"0866":{"zip_code":"9330866","prefecture":"富山県","prefecture_kana":"トヤマケン","city":"高岡市","city_kana":"タカオカシ","town":"清水町","town_kana":"シミズマチ","prefecture_code":16},"0852":{"zip_code":"9330852","prefecture":"富山県","prefecture_kana":"トヤマケン","city":"高岡市","city_kana":"タカオカシ","town":"下黒田","town_kana":"シモクロダ","prefecture_code":16},"0821":{"zip_code":"9330821","prefecture":"富山県","prefecture_kana":"トヤマケン","city":"高岡市","city_kana":"タカオカシ","town":"下島町","town_kana":"シモジママチ","prefecture_code":16},"0860":{"zip_code":"9330860","prefecture":"富山県","prefecture_kana":"トヤマケン","city":"高岡市","city_kana":"タカオカシ","town":"下関","town_kana":"シモゼキ","prefecture_code":16},"0021":{"zip_code":"9330021","prefecture":"富山県","prefecture_kana":"トヤマケン","city":"高岡市","city_kana":"タカオカシ","town":"下関町","town_kana":"シモゼキマチ","prefecture_code":16},"0813":{"zip_code":"9330813","prefecture":"富山県","prefecture_kana":"トヤマケン","city":"高岡市","city_kana":"タカオカシ","town":"下伏間江","town_kana":"シモフスマエ","prefecture_code":16},"0822":{"zip_code":"9330822","prefecture":"富山県","prefecture_kana":"トヤマケン","city":"高岡市","city_kana":"タカオカシ","town":"十二町島","town_kana":"ジュウニチョウジマ","prefecture_code":16},"0983":[{"zip_code":"9330983","prefecture":"富山県","prefecture_kana":"トヤマケン","city":"高岡市","city_kana":"タカオカシ","town":"守護町","town_kana":"シュゴマチ","prefecture_code":16},{"zip_code":"9330983","prefecture":"富山県","prefecture_kana":"トヤマケン","city":"高岡市","city_kana":"タカオカシ","town":"守護町新","town_kana":"シュゴマチシン","prefecture_code":16}],"0126":{"zip_code":"9330126","prefecture":"富山県","prefecture_kana":"トヤマケン","city":"高岡市","city_kana":"タカオカシ","town":"城光寺","town_kana":"ジョウコウジ","prefecture_code":16},"0037":{"zip_code":"9330037","prefecture":"富山県","prefecture_kana":"トヤマケン","city":"高岡市","city_kana":"タカオカシ","town":"定塚","town_kana":"ジョウヅカ","prefecture_code":16},"0032":{"zip_code":"9330032","prefecture":"富山県","prefecture_kana":"トヤマケン","city":"高岡市","city_kana":"タカオカシ","town":"定塚町","town_kana":"ジョウヅカマチ","prefecture_code":16},"0041":{"zip_code":"9330041","prefecture":"富山県","prefecture_kana":"トヤマケン","city":"高岡市","city_kana":"タカオカシ","town":"城東","town_kana":"ジョウトウ","prefecture_code":16},"0053":{"zip_code":"9330053","prefecture":"富山県","prefecture_kana":"トヤマケン","city":"高岡市","city_kana":"タカオカシ","town":"城北町","town_kana":"ジョウホクマチ","prefecture_code":16},"0946":{"zip_code":"9330946","prefecture":"富山県","prefecture_kana":"トヤマケン","city":"高岡市","city_kana":"タカオカシ","town":"昭和町","town_kana":"ショウワマチ","prefecture_code":16},"0925":{"zip_code":"9330925","prefecture":"富山県","prefecture_kana":"トヤマケン","city":"高岡市","city_kana":"タカオカシ","town":"白銀町","town_kana":"シロガネチョウ","prefecture_code":16},"0022":{"zip_code":"9330022","prefecture":"富山県","prefecture_kana":"トヤマケン","city":"高岡市","city_kana":"タカオカシ","town":"白金町","town_kana":"シロガネマチ","prefecture_code":16},"0316":{"zip_code":"9330316","prefecture":"富山県","prefecture_kana":"トヤマケン","city":"高岡市","city_kana":"タカオカシ","town":"新栄町","town_kana":"シンサカエマチ","prefecture_code":16},"0904":{"zip_code":"9330904","prefecture":"富山県","prefecture_kana":"トヤマケン","city":"高岡市","city_kana":"タカオカシ","town":"新成町","town_kana":"シンセイマチ","prefecture_code":16},"0862":{"zip_code":"9330862","prefecture":"富山県","prefecture_kana":"トヤマケン","city":"高岡市","city_kana":"タカオカシ","town":"新寺町","town_kana":"シンテラマチ","prefecture_code":16},"0075":{"zip_code":"9330075","prefecture":"富山県","prefecture_kana":"トヤマケン","city":"高岡市","city_kana":"タカオカシ","town":"新能町","town_kana":"シンノウマチ","prefecture_code":16},"0035":{"zip_code":"9330035","prefecture":"富山県","prefecture_kana":"トヤマケン","city":"高岡市","city_kana":"タカオカシ","town":"新横町","town_kana":"シンヨコマチ","prefecture_code":16},"0023":{"zip_code":"9330023","prefecture":"富山県","prefecture_kana":"トヤマケン","city":"高岡市","city_kana":"タカオカシ","town":"末広町","town_kana":"スエヒロマチ","prefecture_code":16},"0978":{"zip_code":"9330978","prefecture":"富山県","prefecture_kana":"トヤマケン","city":"高岡市","city_kana":"タカオカシ","town":"頭川","town_kana":"ズカワ","prefecture_code":16},"0985":{"zip_code":"9330985","prefecture":"富山県","prefecture_kana":"トヤマケン","city":"高岡市","city_kana":"タカオカシ","town":"須田","town_kana":"スダ","prefecture_code":16},"0869":{"zip_code":"9330869","prefecture":"富山県","prefecture_kana":"トヤマケン","city":"高岡市","city_kana":"タカオカシ","town":"関大町","town_kana":"セキオオマチ","prefecture_code":16},"0863":{"zip_code":"9330863","prefecture":"富山県","prefecture_kana":"トヤマケン","city":"高岡市","city_kana":"タカオカシ","town":"関本町","town_kana":"セキホンマチ","prefecture_code":16},"0864":{"zip_code":"9330864","prefecture":"富山県","prefecture_kana":"トヤマケン","city":"高岡市","city_kana":"タカオカシ","town":"関町","town_kana":"セキマチ","prefecture_code":16},"0915":{"zip_code":"9330915","prefecture":"富山県","prefecture_kana":"トヤマケン","city":"高岡市","city_kana":"タカオカシ","town":"千木屋町","town_kana":"センギヤチョウ","prefecture_code":16},"0847":{"zip_code":"9330847","prefecture":"富山県","prefecture_kana":"トヤマケン","city":"高岡市","city_kana":"タカオカシ","town":"千石町","town_kana":"センゴクマチ","prefecture_code":16},"0868":{"zip_code":"9330868","prefecture":"富山県","prefecture_kana":"トヤマケン","city":"高岡市","city_kana":"タカオカシ","town":"大工中町","town_kana":"ダイクナカマチ","prefecture_code":16},"0311":{"zip_code":"9330311","prefecture":"富山県","prefecture_kana":"トヤマケン","city":"高岡市","city_kana":"タカオカシ","town":"大源寺","town_kana":"ダイゲンジ","prefecture_code":16},"0312":{"zip_code":"9330312","prefecture":"富山県","prefecture_kana":"トヤマケン","city":"高岡市","city_kana":"タカオカシ","town":"大源寺","town_kana":"ダイゲンジ","prefecture_code":16},"0028":{"zip_code":"9330028","prefecture":"富山県","prefecture_kana":"トヤマケン","city":"高岡市","city_kana":"タカオカシ","town":"大福院","town_kana":"ダイフクイン","prefecture_code":16},"0034":{"zip_code":"9330034","prefecture":"富山県","prefecture_kana":"トヤマケン","city":"高岡市","city_kana":"タカオカシ","town":"大仏町","town_kana":"ダイブツマチ","prefecture_code":16},"0808":{"zip_code":"9330808","prefecture":"富山県","prefecture_kana":"トヤマケン","city":"高岡市","city_kana":"タカオカシ","town":"高園町","town_kana":"タカゾノマチ","prefecture_code":16},"0965":{"zip_code":"9330965","prefecture":"富山県","prefecture_kana":"トヤマケン","city":"高岡市","city_kana":"タカオカシ","town":"高辻","town_kana":"タカツジ","prefecture_code":16},"0124":{"zip_code":"9330124","prefecture":"富山県","prefecture_kana":"トヤマケン","city":"高岡市","city_kana":"タカオカシ","town":"高美町","town_kana":"タカミチョウ","prefecture_code":16},"0343":{"zip_code":"9330343","prefecture":"富山県","prefecture_kana":"トヤマケン","city":"高岡市","city_kana":"タカオカシ","town":"宝来町","town_kana":"タカラギチョウ","prefecture_code":16},"0064":{"zip_code":"9330064","prefecture":"富山県","prefecture_kana":"トヤマケン","city":"高岡市","city_kana":"タカオカシ","town":"宝町","town_kana":"タカラマチ","prefecture_code":16},"0325":{"zip_code":"9330325","prefecture":"富山県","prefecture_kana":"トヤマケン","city":"高岡市","city_kana":"タカオカシ","town":"立野","town_kana":"タテノ","prefecture_code":16},"0324":{"zip_code":"9330324","prefecture":"富山県","prefecture_kana":"トヤマケン","city":"高岡市","city_kana":"タカオカシ","town":"立野高池町","town_kana":"タテノタカイケチョウ","prefecture_code":16},"0326":{"zip_code":"9330326","prefecture":"富山県","prefecture_kana":"トヤマケン","city":"高岡市","city_kana":"タカオカシ","town":"立野美鳥町","town_kana":"タテノミドリチョウ","prefecture_code":16},"0967":{"zip_code":"9330967","prefecture":"富山県","prefecture_kana":"トヤマケン","city":"高岡市","city_kana":"タカオカシ","town":"手洗野","town_kana":"タライノ","prefecture_code":16},"0337":{"zip_code":"9330337","prefecture":"富山県","prefecture_kana":"トヤマケン","city":"高岡市","city_kana":"タカオカシ","town":"千鳥丘町","town_kana":"チドリガオカマチ","prefecture_code":16},"0030":{"zip_code":"9330030","prefecture":"富山県","prefecture_kana":"トヤマケン","city":"高岡市","city_kana":"タカオカシ","town":"中央町","town_kana":"チュウオウマチ","prefecture_code":16},"0951":{"zip_code":"9330951","prefecture":"富山県","prefecture_kana":"トヤマケン","city":"高岡市","city_kana":"タカオカシ","town":"長慶寺","town_kana":"チョウケイジ","prefecture_code":16},"0966":{"zip_code":"9330966","prefecture":"富山県","prefecture_kana":"トヤマケン","city":"高岡市","city_kana":"タカオカシ","town":"月野谷","town_kana":"ツキノヤ","prefecture_code":16},"0835":{"zip_code":"9330835","prefecture":"富山県","prefecture_kana":"トヤマケン","city":"高岡市","city_kana":"タカオカシ","town":"辻","town_kana":"ツジ","prefecture_code":16},"0007":{"zip_code":"9330007","prefecture":"富山県","prefecture_kana":"トヤマケン","city":"高岡市","city_kana":"タカオカシ","town":"角","town_kana":"ツノ","prefecture_code":16},"0006":{"zip_code":"9330006","prefecture":"富山県","prefecture_kana":"トヤマケン","city":"高岡市","city_kana":"タカオカシ","town":"角三島","town_kana":"ツノミシマ","prefecture_code":16},"0063":{"zip_code":"9330063","prefecture":"富山県","prefecture_kana":"トヤマケン","city":"高岡市","city_kana":"タカオカシ","town":"鶴寄町","town_kana":"ツルヨセマチ","prefecture_code":16},"0803":{"zip_code":"9330803","prefecture":"富山県","prefecture_kana":"トヤマケン","city":"高岡市","city_kana":"タカオカシ","town":"出来田","town_kana":"デキデン","prefecture_code":16},"0809":{"zip_code":"9330809","prefecture":"富山県","prefecture_kana":"トヤマケン","city":"高岡市","city_kana":"タカオカシ","town":"出来田新町","town_kana":"デキデンシンマチ","prefecture_code":16},"0861":{"zip_code":"9330861","prefecture":"富山県","prefecture_kana":"トヤマケン","city":"高岡市","city_kana":"タカオカシ","town":"寺町","town_kana":"テラマチ","prefecture_code":16},"0352":{"zip_code":"9330352","prefecture":"富山県","prefecture_kana":"トヤマケン","city":"高岡市","city_kana":"タカオカシ","town":"十日市","town_kana":"トウカイチ","prefecture_code":16},"0964":{"zip_code":"9330964","prefecture":"富山県","prefecture_kana":"トヤマケン","city":"高岡市","city_kana":"タカオカシ","town":"答野島","town_kana":"トウノシマ","prefecture_code":16},"0975":{"zip_code":"9330975","prefecture":"富山県","prefecture_kana":"トヤマケン","city":"高岡市","city_kana":"タカオカシ","town":"答野出","town_kana":"トウノデ","prefecture_code":16},"0937":{"zip_code":"9330937","prefecture":"富山県","prefecture_kana":"トヤマケン","city":"高岡市","city_kana":"タカオカシ","town":"通町","town_kana":"トオリマチ","prefecture_code":16},"0927":{"zip_code":"9330927","prefecture":"富山県","prefecture_kana":"トヤマケン","city":"高岡市","city_kana":"タカオカシ","town":"利屋町","town_kana":"トギヤマチ","prefecture_code":16},"0001":{"zip_code":"9330001","prefecture":"富山県","prefecture_kana":"トヤマケン","city":"高岡市","city_kana":"タカオカシ","town":"富岡町","town_kana":"トミオカマチ","prefecture_code":16},"0804":{"zip_code":"9330804","prefecture":"富山県","prefecture_kana":"トヤマケン","city":"高岡市","city_kana":"タカオカシ","town":"問屋町","town_kana":"トンヤマチ","prefecture_code":16},"0941":{"zip_code":"9330941","prefecture":"富山県","prefecture_kana":"トヤマケン","city":"高岡市","city_kana":"タカオカシ","town":"内免","town_kana":"ナイメン","prefecture_code":16},"0959":{"zip_code":"9330959","prefecture":"富山県","prefecture_kana":"トヤマケン","city":"高岡市","city_kana":"タカオカシ","town":"長江","town_kana":"ナガエ","prefecture_code":16},"0056":{"zip_code":"9330056","prefecture":"富山県","prefecture_kana":"トヤマケン","city":"高岡市","city_kana":"タカオカシ","town":"中川","town_kana":"ナカガワ","prefecture_code":16},"0043":{"zip_code":"9330043","prefecture":"富山県","prefecture_kana":"トヤマケン","city":"高岡市","city_kana":"タカオカシ","town":"中川上町","town_kana":"ナカガワカミマチ","prefecture_code":16},"0042":{"zip_code":"9330042","prefecture":"富山県","prefecture_kana":"トヤマケン","city":"高岡市","city_kana":"タカオカシ","town":"中川栄町","town_kana":"ナカガワサカエマチ","prefecture_code":16},"0055":{"zip_code":"9330055","prefecture":"富山県","prefecture_kana":"トヤマケン","city":"高岡市","city_kana":"タカオカシ","town":"中川園町","town_kana":"ナカガワソノマチ","prefecture_code":16},"0046":{"zip_code":"9330046","prefecture":"富山県","prefecture_kana":"トヤマケン","city":"高岡市","city_kana":"タカオカシ","town":"中川本町","town_kana":"ナカガワホンマチ","prefecture_code":16},"0031":{"zip_code":"9330031","prefecture":"富山県","prefecture_kana":"トヤマケン","city":"高岡市","city_kana":"タカオカシ","town":"中川町","town_kana":"ナカガワマチ","prefecture_code":16},"0944":{"zip_code":"9330944","prefecture":"富山県","prefecture_kana":"トヤマケン","city":"高岡市","city_kana":"タカオカシ","town":"中島町","town_kana":"ナカジママチ","prefecture_code":16},"0331":[{"zip_code":"9330331","prefecture":"富山県","prefecture_kana":"トヤマケン","city":"高岡市","city_kana":"タカオカシ","town":"中保","town_kana":"ナカホ","prefecture_code":16},{"zip_code":"9330331","prefecture":"富山県","prefecture_kana":"トヤマケン","city":"高岡市","city_kana":"タカオカシ","town":"若保町","town_kana":"ワカホチョウ","prefecture_code":16}],"0986":{"zip_code":"9330986","prefecture":"富山県","prefecture_kana":"トヤマケン","city":"高岡市","city_kana":"タカオカシ","town":"西海老坂","town_kana":"ニシエビサカ","prefecture_code":16},"0315":{"zip_code":"9330315","prefecture":"富山県","prefecture_kana":"トヤマケン","city":"高岡市","city_kana":"タカオカシ","town":"西園町","town_kana":"ニシゾノチョウ","prefecture_code":16},"0323":{"zip_code":"9330323","prefecture":"富山県","prefecture_kana":"トヤマケン","city":"高岡市","city_kana":"タカオカシ","town":"西高町","town_kana":"ニシタカチョウ","prefecture_code":16},"0824":{"zip_code":"9330824","prefecture":"富山県","prefecture_kana":"トヤマケン","city":"高岡市","city_kana":"タカオカシ","town":"西藤平蔵","town_kana":"ニシトウヘイゾウ","prefecture_code":16},"0815":{"zip_code":"9330815","prefecture":"富山県","prefecture_kana":"トヤマケン","city":"高岡市","city_kana":"タカオカシ","town":"西広上","town_kana":"ニシヒロカミ","prefecture_code":16},"0302":{"zip_code":"9330302","prefecture":"富山県","prefecture_kana":"トヤマケン","city":"高岡市","city_kana":"タカオカシ","town":"西広谷","town_kana":"ニシヒロタニ","prefecture_code":16},"0848":{"zip_code":"9330848","prefecture":"富山県","prefecture_kana":"トヤマケン","city":"高岡市","city_kana":"タカオカシ","town":"西町","town_kana":"ニシマチ","prefecture_code":16},"0931":{"zip_code":"9330931","prefecture":"富山県","prefecture_kana":"トヤマケン","city":"高岡市","city_kana":"タカオカシ","town":"二番町","town_kana":"ニバンマチ","prefecture_code":16},"0003":{"zip_code":"9330003","prefecture":"富山県","prefecture_kana":"トヤマケン","city":"高岡市","city_kana":"タカオカシ","town":"能町","town_kana":"ノウマチ","prefecture_code":16},"0077":{"zip_code":"9330077","prefecture":"富山県","prefecture_kana":"トヤマケン","city":"高岡市","city_kana":"タカオカシ","town":"能町駅南","town_kana":"ノウマチエキナン","prefecture_code":16},"0004":{"zip_code":"9330004","prefecture":"富山県","prefecture_kana":"トヤマケン","city":"高岡市","city_kana":"タカオカシ","town":"能町東","town_kana":"ノウマチヒガシ","prefecture_code":16},"0005":{"zip_code":"9330005","prefecture":"富山県","prefecture_kana":"トヤマケン","city":"高岡市","city_kana":"タカオカシ","town":"能町南","town_kana":"ノウマチミナミ","prefecture_code":16},"0301":{"zip_code":"9330301","prefecture":"富山県","prefecture_kana":"トヤマケン","city":"高岡市","city_kana":"タカオカシ","town":"勝木原","town_kana":"ノデワラ","prefecture_code":16},"0014":{"zip_code":"9330014","prefecture":"富山県","prefecture_kana":"トヤマケン","city":"高岡市","city_kana":"タカオカシ","town":"野村","town_kana":"ノムラ","prefecture_code":16},"0958":{"zip_code":"9330958","prefecture":"富山県","prefecture_kana":"トヤマケン","city":"高岡市","city_kana":"タカオカシ","town":"波岡","town_kana":"ハオカ","prefecture_code":16},"0935":{"zip_code":"9330935","prefecture":"富山県","prefecture_kana":"トヤマケン","city":"高岡市","city_kana":"タカオカシ","town":"博労本町","town_kana":"バクロウホンマチ","prefecture_code":16},"0934":{"zip_code":"9330934","prefecture":"富山県","prefecture_kana":"トヤマケン","city":"高岡市","city_kana":"タカオカシ","town":"博労町","town_kana":"バクロウマチ","prefecture_code":16},"0865":{"zip_code":"9330865","prefecture":"富山県","prefecture_kana":"トヤマケン","city":"高岡市","city_kana":"タカオカシ","town":"蓮美町","town_kana":"ハスミマチ","prefecture_code":16},"0936":{"zip_code":"9330936","prefecture":"富山県","prefecture_kana":"トヤマケン","city":"高岡市","city_kana":"タカオカシ","town":"旅篭町","town_kana":"ハタゴマチ","prefecture_code":16},"0317":{"zip_code":"9330317","prefecture":"富山県","prefecture_kana":"トヤマケン","city":"高岡市","city_kana":"タカオカシ","town":"蜂ケ島","town_kana":"ハチガシマ","prefecture_code":16},"0982":{"zip_code":"9330982","prefecture":"富山県","prefecture_kana":"トヤマケン","city":"高岡市","city_kana":"タカオカシ","town":"八ケ","town_kana":"ハッカ","prefecture_code":16},"0879":{"zip_code":"9330879","prefecture":"富山県","prefecture_kana":"トヤマケン","city":"高岡市","city_kana":"タカオカシ","town":"八丁道","town_kana":"ハッチョウミチ","prefecture_code":16},"0844":{"zip_code":"9330844","prefecture":"富山県","prefecture_kana":"トヤマケン","city":"高岡市","city_kana":"タカオカシ","town":"羽広","town_kana":"ハビロ","prefecture_code":16},"0957":{"zip_code":"9330957","prefecture":"富山県","prefecture_kana":"トヤマケン","city":"高岡市","city_kana":"タカオカシ","town":"早川","town_kana":"ハヤカワ","prefecture_code":16},"0818":{"zip_code":"9330818","prefecture":"富山県","prefecture_kana":"トヤマケン","city":"高岡市","city_kana":"タカオカシ","town":"林新","town_kana":"ハヤシシン","prefecture_code":16},"0342":{"zip_code":"9330342","prefecture":"富山県","prefecture_kana":"トヤマケン","city":"高岡市","city_kana":"タカオカシ","town":"東石堤","town_kana":"ヒガシイシヅツミ","prefecture_code":16},"0987":{"zip_code":"9330987","prefecture":"富山県","prefecture_kana":"トヤマケン","city":"高岡市","city_kana":"タカオカシ","town":"東海老坂","town_kana":"ヒガシエビサカ","prefecture_code":16},"0878":{"zip_code":"9330878","prefecture":"富山県","prefecture_kana":"トヤマケン","city":"高岡市","city_kana":"タカオカシ","town":"東上関","town_kana":"ヒガシカミゼキ","prefecture_code":16},"0033":{"zip_code":"9330033","prefecture":"富山県","prefecture_kana":"トヤマケン","city":"高岡市","city_kana":"タカオカシ","town":"東下関","town_kana":"ヒガシシモゼキ","prefecture_code":16},"0817":{"zip_code":"9330817","prefecture":"富山県","prefecture_kana":"トヤマケン","city":"高岡市","city_kana":"タカオカシ","town":"東藤平蔵","town_kana":"ヒガシトウヘイゾウ","prefecture_code":16},"0047":{"zip_code":"9330047","prefecture":"富山県","prefecture_kana":"トヤマケン","city":"高岡市","city_kana":"タカオカシ","town":"東中川町","town_kana":"ヒガシナカガワマチ","prefecture_code":16},"0051":{"zip_code":"9330051","prefecture":"富山県","prefecture_kana":"トヤマケン","city":"高岡市","city_kana":"タカオカシ","town":"東野","town_kana":"ヒガシノ","prefecture_code":16},"0322":{"zip_code":"9330322","prefecture":"富山県","prefecture_kana":"トヤマケン","city":"高岡市","city_kana":"タカオカシ","town":"樋詰","town_kana":"ヒヅメ","prefecture_code":16},"0919":{"zip_code":"9330919","prefecture":"富山県","prefecture_kana":"トヤマケン","city":"高岡市","city_kana":"タカオカシ","town":"平米町","town_kana":"ヒラマイチョウ","prefecture_code":16},"0057":{"zip_code":"9330057","prefecture":"富山県","prefecture_kana":"トヤマケン","city":"高岡市","city_kana":"タカオカシ","town":"広小路","town_kana":"ヒロコウジ","prefecture_code":16},"0811":{"zip_code":"9330811","prefecture":"富山県","prefecture_kana":"トヤマケン","city":"高岡市","city_kana":"タカオカシ","town":"深沢","town_kana":"フカサワ","prefecture_code":16},"0314":{"zip_code":"9330314","prefecture":"富山県","prefecture_kana":"トヤマケン","city":"高岡市","city_kana":"タカオカシ","town":"福栄町","town_kana":"フクエイチョウ","prefecture_code":16},"0829":{"zip_code":"9330829","prefecture":"富山県","prefecture_kana":"トヤマケン","city":"高岡市","city_kana":"タカオカシ","town":"福田","town_kana":"フクタ","prefecture_code":16},"0313":{"zip_code":"9330313","prefecture":"富山県","prefecture_kana":"トヤマケン","city":"高岡市","city_kana":"タカオカシ","town":"福田六家","town_kana":"フクタロッケ","prefecture_code":16},"0910":{"zip_code":"9330910","prefecture":"富山県","prefecture_kana":"トヤマケン","city":"高岡市","city_kana":"タカオカシ","town":"袋町","town_kana":"フクロチョウ","prefecture_code":16},"0113":{"zip_code":"9330113","prefecture":"富山県","prefecture_kana":"トヤマケン","city":"高岡市","city_kana":"タカオカシ","town":"伏木","town_kana":"フシキ","prefecture_code":16},"0102":{"zip_code":"9330102","prefecture":"富山県","prefecture_kana":"トヤマケン","city":"高岡市","city_kana":"タカオカシ","town":"伏木磯町","town_kana":"フシキイソマチ","prefecture_code":16},"0116":{"zip_code":"9330116","prefecture":"富山県","prefecture_kana":"トヤマケン","city":"高岡市","city_kana":"タカオカシ","town":"伏木一宮","town_kana":"フシキイチノミヤ","prefecture_code":16},"0101":{"zip_code":"9330101","prefecture":"富山県","prefecture_kana":"トヤマケン","city":"高岡市","city_kana":"タカオカシ","town":"伏木国分","town_kana":"フシキコクブ","prefecture_code":16},"0114":{"zip_code":"9330114","prefecture":"富山県","prefecture_kana":"トヤマケン","city":"高岡市","city_kana":"タカオカシ","town":"伏木古府","town_kana":"フシキコフ","prefecture_code":16},"0115":{"zip_code":"9330115","prefecture":"富山県","prefecture_kana":"トヤマケン","city":"高岡市","city_kana":"タカオカシ","town":"伏木古府元町","town_kana":"フシキコフモトマチ","prefecture_code":16},"0103":{"zip_code":"9330103","prefecture":"富山県","prefecture_kana":"トヤマケン","city":"高岡市","city_kana":"タカオカシ","town":"伏木中央町","town_kana":"フシキチュウオウマチ","prefecture_code":16},"0105":{"zip_code":"9330105","prefecture":"富山県","prefecture_kana":"トヤマケン","city":"高岡市","city_kana":"タカオカシ","town":"伏木錦町","town_kana":"フシキニシキマチ","prefecture_code":16},"0111":{"zip_code":"9330111","prefecture":"富山県","prefecture_kana":"トヤマケン","city":"高岡市","city_kana":"タカオカシ","town":"伏木東一宮","town_kana":"フシキヒガシイチノミヤ","prefecture_code":16},"0112":{"zip_code":"9330112","prefecture":"富山県","prefecture_kana":"トヤマケン","city":"高岡市","city_kana":"タカオカシ","town":"伏木古国府","town_kana":"フシキフルコクフ","prefecture_code":16},"0106":{"zip_code":"9330106","prefecture":"富山県","prefecture_kana":"トヤマケン","city":"高岡市","city_kana":"タカオカシ","town":"伏木本町","town_kana":"フシキホンマチ","prefecture_code":16},"0104":{"zip_code":"9330104","prefecture":"富山県","prefecture_kana":"トヤマケン","city":"高岡市","city_kana":"タカオカシ","town":"伏木湊町","town_kana":"フシキミナトマチ","prefecture_code":16},"0123":{"zip_code":"9330123","prefecture":"富山県","prefecture_kana":"トヤマケン","city":"高岡市","city_kana":"タカオカシ","town":"伏木矢田","town_kana":"フシキヤタ","prefecture_code":16},"0122":{"zip_code":"9330122","prefecture":"富山県","prefecture_kana":"トヤマケン","city":"高岡市","city_kana":"タカオカシ","town":"伏木矢田上町","town_kana":"フシキヤタカミマチ","prefecture_code":16},"0121":{"zip_code":"9330121","prefecture":"富山県","prefecture_kana":"トヤマケン","city":"高岡市","city_kana":"タカオカシ","town":"伏木矢田新町","town_kana":"フシキヤタシンマチ","prefecture_code":16},"0125":{"zip_code":"9330125","prefecture":"富山県","prefecture_kana":"トヤマケン","city":"高岡市","city_kana":"タカオカシ","town":"伏木矢田万葉台","town_kana":"フシキヤタマンヨウダイ","prefecture_code":16},"0981":[{"zip_code":"9330981","prefecture":"富山県","prefecture_kana":"トヤマケン","city":"高岡市","city_kana":"タカオカシ","town":"二上","town_kana":"フタガミ","prefecture_code":16},{"zip_code":"9330981","prefecture":"富山県","prefecture_kana":"トヤマケン","city":"高岡市","city_kana":"タカオカシ","town":"二上新","town_kana":"フタガミシン","prefecture_code":16},{"zip_code":"9330981","prefecture":"富山県","prefecture_kana":"トヤマケン","city":"高岡市","city_kana":"タカオカシ","town":"二上町","town_kana":"フタガミマチ","prefecture_code":16}],"0816":{"zip_code":"9330816","prefecture":"富山県","prefecture_kana":"トヤマケン","city":"高岡市","city_kana":"タカオカシ","town":"二塚","town_kana":"フタヅカ","prefecture_code":16},"0054":{"zip_code":"9330054","prefecture":"富山県","prefecture_kana":"トヤマケン","city":"高岡市","city_kana":"タカオカシ","town":"古定塚","town_kana":"フルジョウヅカ","prefecture_code":16},"0938":{"zip_code":"9330938","prefecture":"富山県","prefecture_kana":"トヤマケン","city":"高岡市","city_kana":"タカオカシ","town":"風呂屋町","town_kana":"フロヤチョウ","prefecture_code":16},"0345":{"zip_code":"9330345","prefecture":"富山県","prefecture_kana":"トヤマケン","city":"高岡市","city_kana":"タカオカシ","town":"平成町","town_kana":"ヘイセイチョウ","prefecture_code":16},"0977":{"zip_code":"9330977","prefecture":"富山県","prefecture_kana":"トヤマケン","city":"高岡市","city_kana":"タカオカシ","town":"細池","town_kana":"ホソイケ","prefecture_code":16},"0924":{"zip_code":"9330924","prefecture":"富山県","prefecture_kana":"トヤマケン","city":"高岡市","city_kana":"タカオカシ","town":"堀上町","town_kana":"ホリカミチョウ","prefecture_code":16},"0947":{"zip_code":"9330947","prefecture":"富山県","prefecture_kana":"トヤマケン","city":"高岡市","city_kana":"タカオカシ","town":"本郷","town_kana":"ホンゴウ","prefecture_code":16},"0333":{"zip_code":"9330333","prefecture":"富山県","prefecture_kana":"トヤマケン","city":"高岡市","city_kana":"タカオカシ","town":"本保","town_kana":"ホンボ","prefecture_code":16},"0913":{"zip_code":"9330913","prefecture":"富山県","prefecture_kana":"トヤマケン","city":"高岡市","city_kana":"タカオカシ","town":"本町","town_kana":"ホンマチ","prefecture_code":16},"0045":{"zip_code":"9330045","prefecture":"富山県","prefecture_kana":"トヤマケン","city":"高岡市","city_kana":"タカオカシ","town":"本丸町","town_kana":"ホンマルマチ","prefecture_code":16},"0017":{"zip_code":"9330017","prefecture":"富山県","prefecture_kana":"トヤマケン","city":"高岡市","city_kana":"タカオカシ","town":"前田町","town_kana":"マエダチョウ","prefecture_code":16},"0845":{"zip_code":"9330845","prefecture":"富山県","prefecture_kana":"トヤマケン","city":"高岡市","city_kana":"タカオカシ","town":"松原町","town_kana":"マツバラチョウ","prefecture_code":16},"0912":{"zip_code":"9330912","prefecture":"富山県","prefecture_kana":"トヤマケン","city":"高岡市","city_kana":"タカオカシ","town":"丸の内","town_kana":"マルノウチ","prefecture_code":16},"0955":{"zip_code":"9330955","prefecture":"富山県","prefecture_kana":"トヤマケン","city":"高岡市","city_kana":"タカオカシ","town":"瑞穂町","town_kana":"ミズホマチ","prefecture_code":16},"0933":{"zip_code":"9330933","prefecture":"富山県","prefecture_kana":"トヤマケン","city":"高岡市","city_kana":"タカオカシ","town":"南幸町","town_kana":"ミナミサイワイマチ","prefecture_code":16},"0873":{"zip_code":"9330873","prefecture":"富山県","prefecture_kana":"トヤマケン","city":"高岡市","city_kana":"タカオカシ","town":"南田町","town_kana":"ミナミダマチ","prefecture_code":16},"0012":{"zip_code":"9330012","prefecture":"富山県","prefecture_kana":"トヤマケン","city":"高岡市","city_kana":"タカオカシ","town":"美原町","town_kana":"ミハラマチ","prefecture_code":16},"0956":{"zip_code":"9330956","prefecture":"富山県","prefecture_kana":"トヤマケン","city":"高岡市","city_kana":"タカオカシ","town":"宮田町","town_kana":"ミヤタマチ","prefecture_code":16},"0024":{"zip_code":"9330024","prefecture":"富山県","prefecture_kana":"トヤマケン","city":"高岡市","city_kana":"タカオカシ","town":"宮脇町","town_kana":"ミヤワキチョウ","prefecture_code":16},"0954":{"zip_code":"9330954","prefecture":"富山県","prefecture_kana":"トヤマケン","city":"高岡市","city_kana":"タカオカシ","town":"美幸町","town_kana":"ミユキマチ","prefecture_code":16},"0354":{"zip_code":"9330354","prefecture":"富山県","prefecture_kana":"トヤマケン","city":"高岡市","city_kana":"タカオカシ","town":"六日市","town_kana":"ムイカイチ","prefecture_code":16},"0901":{"zip_code":"9330901","prefecture":"富山県","prefecture_kana":"トヤマケン","city":"高岡市","city_kana":"タカオカシ","town":"向野本町","town_kana":"ムカイノホンマチ","prefecture_code":16},"0902":{"zip_code":"9330902","prefecture":"富山県","prefecture_kana":"トヤマケン","city":"高岡市","city_kana":"タカオカシ","town":"向野町","town_kana":"ムカイノマチ","prefecture_code":16},"0812":{"zip_code":"9330812","prefecture":"富山県","prefecture_kana":"トヤマケン","city":"高岡市","city_kana":"タカオカシ","town":"明和町","town_kana":"メイワマチ","prefecture_code":16},"0984":{"zip_code":"9330984","prefecture":"富山県","prefecture_kana":"トヤマケン","city":"高岡市","city_kana":"タカオカシ","town":"守山","town_kana":"モリヤマ","prefecture_code":16},"0928":{"zip_code":"9330928","prefecture":"富山県","prefecture_kana":"トヤマケン","city":"高岡市","city_kana":"タカオカシ","town":"守山町","town_kana":"モリヤママチ","prefecture_code":16},"0356":{"zip_code":"9330356","prefecture":"富山県","prefecture_kana":"トヤマケン","city":"高岡市","city_kana":"タカオカシ","town":"谷内","town_kana":"ヤチ","prefecture_code":16},"0308":{"zip_code":"9330308","prefecture":"富山県","prefecture_kana":"トヤマケン","city":"高岡市","city_kana":"タカオカシ","town":"八口","town_kana":"ヤツクチ","prefecture_code":16},"0303":{"zip_code":"9330303","prefecture":"富山県","prefecture_kana":"トヤマケン","city":"高岡市","city_kana":"タカオカシ","town":"山川","town_kana":"ヤマカワ","prefecture_code":16},"0953":{"zip_code":"9330953","prefecture":"富山県","prefecture_kana":"トヤマケン","city":"高岡市","city_kana":"タカオカシ","town":"横田","town_kana":"ヨコタ","prefecture_code":16},"0849":{"zip_code":"9330849","prefecture":"富山県","prefecture_kana":"トヤマケン","city":"高岡市","city_kana":"タカオカシ","town":"横田本町","town_kana":"ヨコタホンマチ","prefecture_code":16},"0842":{"zip_code":"9330842","prefecture":"富山県","prefecture_kana":"トヤマケン","city":"高岡市","city_kana":"タカオカシ","town":"横田町","town_kana":"ヨコタマチ","prefecture_code":16},"0872":{"zip_code":"9330872","prefecture":"富山県","prefecture_kana":"トヤマケン","city":"高岡市","city_kana":"タカオカシ","town":"芳野","town_kana":"ヨシノ","prefecture_code":16},"0002":{"zip_code":"9330002","prefecture":"富山県","prefecture_kana":"トヤマケン","city":"高岡市","city_kana":"タカオカシ","town":"吉久","town_kana":"ヨシヒサ","prefecture_code":16},"0351":{"zip_code":"9330351","prefecture":"富山県","prefecture_kana":"トヤマケン","city":"高岡市","city_kana":"タカオカシ","town":"四日市","town_kana":"ヨッカイチ","prefecture_code":16},"0949":{"zip_code":"9330949","prefecture":"富山県","prefecture_kana":"トヤマケン","city":"高岡市","city_kana":"タカオカシ","town":"四屋","town_kana":"ヨツヤ","prefecture_code":16},"0076":{"zip_code":"9330076","prefecture":"富山県","prefecture_kana":"トヤマケン","city":"高岡市","city_kana":"タカオカシ","town":"米島","town_kana":"ヨネジマ","prefecture_code":16},"0802":{"zip_code":"9330802","prefecture":"富山県","prefecture_kana":"トヤマケン","city":"高岡市","city_kana":"タカオカシ","town":"蓮花寺","town_kana":"レンゲジ","prefecture_code":16},"0801":{"zip_code":"9330801","prefecture":"富山県","prefecture_kana":"トヤマケン","city":"高岡市","city_kana":"タカオカシ","town":"蓮花寺新町","town_kana":"レンゲジシンマチ","prefecture_code":16},"0321":{"zip_code":"9330321","prefecture":"富山県","prefecture_kana":"トヤマケン","city":"高岡市","city_kana":"タカオカシ","town":"六家","town_kana":"ロッケ","prefecture_code":16},"0831":{"zip_code":"9330831","prefecture":"富山県","prefecture_kana":"トヤマケン","city":"高岡市","city_kana":"タカオカシ","town":"若富町","town_kana":"ワカトミチョウ","prefecture_code":16},"0071":{"zip_code":"9330071","prefecture":"富山県","prefecture_kana":"トヤマケン","city":"高岡市","city_kana":"タカオカシ","town":"鷲北新","town_kana":"ワシキタシン","prefecture_code":16},"0832":{"zip_code":"9330832","prefecture":"富山県","prefecture_kana":"トヤマケン","city":"高岡市","city_kana":"タカオカシ","town":"和田","town_kana":"ワダ","prefecture_code":16},"0828":{"zip_code":"9330828","prefecture":"富山県","prefecture_kana":"トヤマケン","city":"高岡市","city_kana":"タカオカシ","town":"和田上町","town_kana":"ワダカミチョウ","prefecture_code":16},"0839":{"zip_code":"9330839","prefecture":"富山県","prefecture_kana":"トヤマケン","city":"高岡市","city_kana":"タカオカシ","town":"和田西町","town_kana":"ワダニシチョウ","prefecture_code":16},"0241":{"zip_code":"9330241","prefecture":"富山県","prefecture_kana":"トヤマケン","city":"射水市","city_kana":"イミズシ","town":"足洗新町","town_kana":"アシアライシンマチ","prefecture_code":16},"0251":{"zip_code":"9330251","prefecture":"富山県","prefecture_kana":"トヤマケン","city":"射水市","city_kana":"イミズシ","town":"有磯","town_kana":"アリソ","prefecture_code":16},"0227":{"zip_code":"9330227","prefecture":"富山県","prefecture_kana":"トヤマケン","city":"射水市","city_kana":"イミズシ","town":"射水町","town_kana":"イミズチョウ","prefecture_code":16},"0233":{"zip_code":"9330233","prefecture":"富山県","prefecture_kana":"トヤマケン","city":"射水市","city_kana":"イミズシ","town":"海老江","town_kana":"エビエ","prefecture_code":16},"0234":{"zip_code":"9330234","prefecture":"富山県","prefecture_kana":"トヤマケン","city":"射水市","city_kana":"イミズシ","town":"海老江七軒","town_kana":"エビエシチケン","prefecture_code":16},"0235":{"zip_code":"9330235","prefecture":"富山県","prefecture_kana":"トヤマケン","city":"射水市","city_kana":"イミズシ","town":"海老江練合","town_kana":"エビエネリヤ","prefecture_code":16},"0231":{"zip_code":"9330231","prefecture":"富山県","prefecture_kana":"トヤマケン","city":"射水市","city_kana":"イミズシ","town":"海老江浜開","town_kana":"エビエハマビラキ","prefecture_code":16},"0222":{"zip_code":"9330222","prefecture":"富山県","prefecture_kana":"トヤマケン","city":"射水市","city_kana":"イミズシ","town":"海竜町","town_kana":"カイリュウマチ","prefecture_code":16},"0205":{"zip_code":"9330205","prefecture":"富山県","prefecture_kana":"トヤマケン","city":"射水市","city_kana":"イミズシ","town":"加茂西部","town_kana":"カモセイブ","prefecture_code":16},"0204":{"zip_code":"9330204","prefecture":"富山県","prefecture_kana":"トヤマケン","city":"射水市","city_kana":"イミズシ","town":"加茂中部","town_kana":"カモチュウブ","prefecture_code":16},"0203":{"zip_code":"9330203","prefecture":"富山県","prefecture_kana":"トヤマケン","city":"射水市","city_kana":"イミズシ","town":"加茂東部","town_kana":"カモトウブ","prefecture_code":16},"0240":{"zip_code":"9330240","prefecture":"富山県","prefecture_kana":"トヤマケン","city":"射水市","city_kana":"イミズシ","town":"かもめ台","town_kana":"カモメダイ","prefecture_code":16},"0058":{"zip_code":"9330058","prefecture":"富山県","prefecture_kana":"トヤマケン","city":"射水市","city_kana":"イミズシ","town":"川口宮袋","town_kana":"カワグチミヤブクロ","prefecture_code":16},"0225":{"zip_code":"9330225","prefecture":"富山県","prefecture_kana":"トヤマケン","city":"射水市","city_kana":"イミズシ","town":"草岡町","town_kana":"クサオカチョウ","prefecture_code":16},"0206":{"zip_code":"9330206","prefecture":"富山県","prefecture_kana":"トヤマケン","city":"射水市","city_kana":"イミズシ","town":"倉垣小杉","town_kana":"クラガキコスギ","prefecture_code":16},"0252":{"zip_code":"9330252","prefecture":"富山県","prefecture_kana":"トヤマケン","city":"射水市","city_kana":"イミズシ","town":"七美","town_kana":"シチミ","prefecture_code":16},"0253":{"zip_code":"9330253","prefecture":"富山県","prefecture_kana":"トヤマケン","city":"射水市","city_kana":"イミズシ","town":"七美中野","town_kana":"シチミナカノ","prefecture_code":16},"0202":{"zip_code":"9330202","prefecture":"富山県","prefecture_kana":"トヤマケン","city":"射水市","city_kana":"イミズシ","town":"下村三箇","town_kana":"シモムラサンガ","prefecture_code":16},"0207":{"zip_code":"9330207","prefecture":"富山県","prefecture_kana":"トヤマケン","city":"射水市","city_kana":"イミズシ","town":"白石","town_kana":"シライシ","prefecture_code":16},"0209":{"zip_code":"9330209","prefecture":"富山県","prefecture_kana":"トヤマケン","city":"射水市","city_kana":"イミズシ","town":"摺出寺","town_kana":"スリデジ","prefecture_code":16},"0236":{"zip_code":"9330236","prefecture":"富山県","prefecture_kana":"トヤマケン","city":"射水市","city_kana":"イミズシ","town":"東明七軒","town_kana":"トウメイシチケン","prefecture_code":16},"0238":{"zip_code":"9330238","prefecture":"富山県","prefecture_kana":"トヤマケン","city":"射水市","city_kana":"イミズシ","town":"東明中町","town_kana":"トウメイナカマチ","prefecture_code":16},"0239":{"zip_code":"9330239","prefecture":"富山県","prefecture_kana":"トヤマケン","city":"射水市","city_kana":"イミズシ","town":"東明西町","town_kana":"トウメイニシマチ","prefecture_code":16},"0237":{"zip_code":"9330237","prefecture":"富山県","prefecture_kana":"トヤマケン","city":"射水市","city_kana":"イミズシ","town":"東明東町","town_kana":"トウメイヒガシマチ","prefecture_code":16},"0208":{"zip_code":"9330208","prefecture":"富山県","prefecture_kana":"トヤマケン","city":"射水市","city_kana":"イミズシ","town":"八講","town_kana":"ハッコウ","prefecture_code":16},"0232":{"zip_code":"9330232","prefecture":"富山県","prefecture_kana":"トヤマケン","city":"射水市","city_kana":"イミズシ","town":"浜開新町","town_kana":"ハマビラキシンマチ","prefecture_code":16},"0226":{"zip_code":"9330226","prefecture":"富山県","prefecture_kana":"トヤマケン","city":"射水市","city_kana":"イミズシ","town":"堀江千石","town_kana":"ホリエセンゴク","prefecture_code":16},"0223":{"zip_code":"9330223","prefecture":"富山県","prefecture_kana":"トヤマケン","city":"射水市","city_kana":"イミズシ","town":"堀岡","town_kana":"ホリオカ","prefecture_code":16},"0224":{"zip_code":"9330224","prefecture":"富山県","prefecture_kana":"トヤマケン","city":"射水市","city_kana":"イミズシ","town":"堀岡古明神","town_kana":"ホリオカフルミョウジン","prefecture_code":16},"0228":{"zip_code":"9330228","prefecture":"富山県","prefecture_kana":"トヤマケン","city":"射水市","city_kana":"イミズシ","town":"堀岡明神新","town_kana":"ホリオカミョウジンシン","prefecture_code":16},"0221":{"zip_code":"9330221","prefecture":"富山県","prefecture_kana":"トヤマケン","city":"射水市","city_kana":"イミズシ","town":"堀岡新明神","town_kana":"ホリオカシンミョウジン","prefecture_code":16},"0244":[{"zip_code":"9330244","prefecture":"富山県","prefecture_kana":"トヤマケン","city":"射水市","city_kana":"イミズシ","town":"本江","town_kana":"ホンゴウ","prefecture_code":16},{"zip_code":"9330244","prefecture":"富山県","prefecture_kana":"トヤマケン","city":"射水市","city_kana":"イミズシ","town":"本江北","town_kana":"ホンゴウキタ","prefecture_code":16},{"zip_code":"9330244","prefecture":"富山県","prefecture_kana":"トヤマケン","city":"射水市","city_kana":"イミズシ","town":"本江三箇","town_kana":"ホンゴウサンガ","prefecture_code":16},{"zip_code":"9330244","prefecture":"富山県","prefecture_kana":"トヤマケン","city":"射水市","city_kana":"イミズシ","town":"本江中","town_kana":"ホンゴウナカ","prefecture_code":16},{"zip_code":"9330244","prefecture":"富山県","prefecture_kana":"トヤマケン","city":"射水市","city_kana":"イミズシ","town":"本江西","town_kana":"ホンゴウニシ","prefecture_code":16},{"zip_code":"9330244","prefecture":"富山県","prefecture_kana":"トヤマケン","city":"射水市","city_kana":"イミズシ","town":"本江後新","town_kana":"ホンゴウノチシン","prefecture_code":16},{"zip_code":"9330244","prefecture":"富山県","prefecture_kana":"トヤマケン","city":"射水市","city_kana":"イミズシ","town":"本江東","town_kana":"ホンゴウヒガシ","prefecture_code":16},{"zip_code":"9330244","prefecture":"富山県","prefecture_kana":"トヤマケン","city":"射水市","city_kana":"イミズシ","town":"本江南","town_kana":"ホンゴウミナミ","prefecture_code":16}],"0243":{"zip_code":"9330243","prefecture":"富山県","prefecture_kana":"トヤマケン","city":"射水市","city_kana":"イミズシ","town":"本江足洗","town_kana":"ホンゴウアシアライ","prefecture_code":16},"0246":{"zip_code":"9330246","prefecture":"富山県","prefecture_kana":"トヤマケン","city":"射水市","city_kana":"イミズシ","town":"本江道番","town_kana":"ホンゴウミチバン","prefecture_code":16},"0245":{"zip_code":"9330245","prefecture":"富山県","prefecture_kana":"トヤマケン","city":"射水市","city_kana":"イミズシ","town":"本江利波","town_kana":"ホンゴウトナミ","prefecture_code":16},"0247":{"zip_code":"9330247","prefecture":"富山県","prefecture_kana":"トヤマケン","city":"射水市","city_kana":"イミズシ","town":"本江中新","town_kana":"ホンゴウナカシン","prefecture_code":16},"0248":{"zip_code":"9330248","prefecture":"富山県","prefecture_kana":"トヤマケン","city":"射水市","city_kana":"イミズシ","town":"本江針山","town_kana":"ホンゴウハリヤマ","prefecture_code":16},"0249":{"zip_code":"9330249","prefecture":"富山県","prefecture_kana":"トヤマケン","city":"射水市","city_kana":"イミズシ","town":"本江針山新","town_kana":"ホンゴウハリヤマシン","prefecture_code":16},"0242":{"zip_code":"9330242","prefecture":"富山県","prefecture_kana":"トヤマケン","city":"射水市","city_kana":"イミズシ","town":"本江針山開","town_kana":"ホンゴウハリヤマビラキ","prefecture_code":16},"0201":{"zip_code":"9330201","prefecture":"富山県","prefecture_kana":"トヤマケン","city":"射水市","city_kana":"イミズシ","town":"山屋","town_kana":"ヤマヤ","prefecture_code":16}}