{"0000":{"zip_code":"9350000","prefecture":"富山県","prefecture_kana":"トヤマケン","city":"氷見市","city_kana":"ヒミシ","town":"","town_kana":"","prefecture_code":16},"0002":{"zip_code":"9350002","prefecture":"富山県","prefecture_kana":"トヤマケン","city":"氷見市","city_kana":"ヒミシ","town":"阿尾","town_kana":"アオ","prefecture_code":16},"0274":{"zip_code":"9350274","prefecture":"富山県","prefecture_kana":"トヤマケン","city":"氷見市","city_kana":"ヒミシ","town":"赤毛","town_kana":"アカゲ","prefecture_code":16},"0023":{"zip_code":"9350023","prefecture":"富山県","prefecture_kana":"トヤマケン","city":"氷見市","city_kana":"ヒミシ","town":"朝日丘","town_kana":"アサヒガオカ","prefecture_code":16},"0022":{"zip_code":"9350022","prefecture":"富山県","prefecture_kana":"トヤマケン","city":"氷見市","city_kana":"ヒミシ","town":"朝日本町","town_kana":"アサヒホンマチ","prefecture_code":16},"0343":{"zip_code":"9350343","prefecture":"富山県","prefecture_kana":"トヤマケン","city":"氷見市","city_kana":"ヒミシ","town":"味川","town_kana":"アジカワ","prefecture_code":16},"0054":{"zip_code":"9350054","prefecture":"富山県","prefecture_kana":"トヤマケン","city":"氷見市","city_kana":"ヒミシ","town":"粟原","town_kana":"アワラ","prefecture_code":16},"0426":{"zip_code":"9350426","prefecture":"富山県","prefecture_kana":"トヤマケン","city":"氷見市","city_kana":"ヒミシ","town":"五十谷","town_kana":"イカダニ","prefecture_code":16},"0112":{"zip_code":"9350112","prefecture":"富山県","prefecture_kana":"トヤマケン","city":"氷見市","city_kana":"ヒミシ","town":"飯久保","town_kana":"イクボ","prefecture_code":16},"0065":{"zip_code":"9350065","prefecture":"富山県","prefecture_kana":"トヤマケン","city":"氷見市","city_kana":"ヒミシ","town":"泉","town_kana":"イズミ","prefecture_code":16},"0015":{"zip_code":"9350015","prefecture":"富山県","prefecture_kana":"トヤマケン","city":"氷見市","city_kana":"ヒミシ","town":"伊勢大町","town_kana":"イセオオマチ","prefecture_code":16},"0338":{"zip_code":"9350338","prefecture":"富山県","prefecture_kana":"トヤマケン","city":"氷見市","city_kana":"ヒミシ","town":"磯辺","town_kana":"イソベ","prefecture_code":16},"0278":{"zip_code":"9350278","prefecture":"富山県","prefecture_kana":"トヤマケン","city":"氷見市","city_kana":"ヒミシ","town":"一の島","town_kana":"イチノシマ","prefecture_code":16},"0006":{"zip_code":"9350006","prefecture":"富山県","prefecture_kana":"トヤマケン","city":"氷見市","city_kana":"ヒミシ","town":"稲積","town_kana":"イナヅミ","prefecture_code":16},"0272":{"zip_code":"9350272","prefecture":"富山県","prefecture_kana":"トヤマケン","city":"氷見市","city_kana":"ヒミシ","town":"岩瀬","town_kana":"イワガセ","prefecture_code":16},"0422":{"zip_code":"9350422","prefecture":"富山県","prefecture_kana":"トヤマケン","city":"氷見市","city_kana":"ヒミシ","town":"宇波","town_kana":"ウナミ","prefecture_code":16},"0056":{"zip_code":"9350056","prefecture":"富山県","prefecture_kana":"トヤマケン","city":"氷見市","city_kana":"ヒミシ","town":"上田","town_kana":"ウワダ","prefecture_code":16},"0271":{"zip_code":"9350271","prefecture":"富山県","prefecture_kana":"トヤマケン","city":"氷見市","city_kana":"ヒミシ","town":"老谷","town_kana":"オイダニ","prefecture_code":16},"0103":{"zip_code":"9350103","prefecture":"富山県","prefecture_kana":"トヤマケン","city":"氷見市","city_kana":"ヒミシ","town":"大浦","town_kana":"オオウラ","prefecture_code":16},"0101":{"zip_code":"9350101","prefecture":"富山県","prefecture_kana":"トヤマケン","city":"氷見市","city_kana":"ヒミシ","town":"大浦新町","town_kana":"オオウラシンマチ","prefecture_code":16},"0416":{"zip_code":"9350416","prefecture":"富山県","prefecture_kana":"トヤマケン","city":"氷見市","city_kana":"ヒミシ","town":"大窪","town_kana":"オオクボ","prefecture_code":16},"0412":{"zip_code":"9350412","prefecture":"富山県","prefecture_kana":"トヤマケン","city":"氷見市","city_kana":"ヒミシ","town":"大境","town_kana":"オオザカイ","prefecture_code":16},"0026":{"zip_code":"9350026","prefecture":"富山県","prefecture_kana":"トヤマケン","city":"氷見市","city_kana":"ヒミシ","town":"大野","town_kana":"オオノ","prefecture_code":16},"0027":{"zip_code":"9350027","prefecture":"富山県","prefecture_kana":"トヤマケン","city":"氷見市","city_kana":"ヒミシ","town":"大野新","town_kana":"オオノシン","prefecture_code":16},"0257":{"zip_code":"9350257","prefecture":"富山県","prefecture_kana":"トヤマケン","city":"氷見市","city_kana":"ヒミシ","town":"小窪","town_kana":"オクボ","prefecture_code":16},"0263":{"zip_code":"9350263","prefecture":"富山県","prefecture_kana":"トヤマケン","city":"氷見市","city_kana":"ヒミシ","town":"小久米","town_kana":"オグメ","prefecture_code":16},"0337":{"zip_code":"9350337","prefecture":"富山県","prefecture_kana":"トヤマケン","city":"氷見市","city_kana":"ヒミシ","town":"小滝","town_kana":"オタキ","prefecture_code":16},"0034":{"zip_code":"9350034","prefecture":"富山県","prefecture_kana":"トヤマケン","city":"氷見市","city_kana":"ヒミシ","town":"小竹","town_kana":"オダケ","prefecture_code":16},"0045":{"zip_code":"9350045","prefecture":"富山県","prefecture_kana":"トヤマケン","city":"氷見市","city_kana":"ヒミシ","town":"海津","town_kana":"カイヅ","prefecture_code":16},"0067":{"zip_code":"9350067","prefecture":"富山県","prefecture_kana":"トヤマケン","city":"氷見市","city_kana":"ヒミシ","town":"柿谷","town_kana":"カキナヤ","prefecture_code":16},"0331":{"zip_code":"9350331","prefecture":"富山県","prefecture_kana":"トヤマケン","city":"氷見市","city_kana":"ヒミシ","town":"角間","town_kana":"カクマ","prefecture_code":16},"0346":{"zip_code":"9350346","prefecture":"富山県","prefecture_kana":"トヤマケン","city":"氷見市","city_kana":"ヒミシ","town":"懸札","town_kana":"カケフダ","prefecture_code":16},"0063":{"zip_code":"9350063","prefecture":"富山県","prefecture_kana":"トヤマケン","city":"氷見市","city_kana":"ヒミシ","town":"加納","town_kana":"カノウ","prefecture_code":16},"0037":{"zip_code":"9350037","prefecture":"富山県","prefecture_kana":"トヤマケン","city":"氷見市","city_kana":"ヒミシ","town":"上泉","town_kana":"カミイズミ","prefecture_code":16},"0047":{"zip_code":"9350047","prefecture":"富山県","prefecture_kana":"トヤマケン","city":"氷見市","city_kana":"ヒミシ","town":"上久津呂","town_kana":"カミクヅロ","prefecture_code":16},"0035":{"zip_code":"9350035","prefecture":"富山県","prefecture_kana":"トヤマケン","city":"氷見市","city_kana":"ヒミシ","town":"上田子","town_kana":"カミタコ","prefecture_code":16},"0344":{"zip_code":"9350344","prefecture":"富山県","prefecture_kana":"トヤマケン","city":"氷見市","city_kana":"ヒミシ","town":"上余川","town_kana":"カミヨカワ","prefecture_code":16},"0043":{"zip_code":"9350043","prefecture":"富山県","prefecture_kana":"トヤマケン","city":"氷見市","city_kana":"ヒミシ","town":"川崎","town_kana":"カワサキ","prefecture_code":16},"0044":{"zip_code":"9350044","prefecture":"富山県","prefecture_kana":"トヤマケン","city":"氷見市","city_kana":"ヒミシ","town":"川尻","town_kana":"カワシリ","prefecture_code":16},"0105":{"zip_code":"9350105","prefecture":"富山県","prefecture_kana":"トヤマケン","city":"氷見市","city_kana":"ヒミシ","town":"蒲田","town_kana":"カワタ","prefecture_code":16},"0004":{"zip_code":"9350004","prefecture":"富山県","prefecture_kana":"トヤマケン","city":"氷見市","city_kana":"ヒミシ","town":"北大町","town_kana":"キタオオマチ","prefecture_code":16},"0001":{"zip_code":"9350001","prefecture":"富山県","prefecture_kana":"トヤマケン","city":"氷見市","city_kana":"ヒミシ","town":"北八代","town_kana":"キタヤシロ","prefecture_code":16},"0268":{"zip_code":"9350268","prefecture":"富山県","prefecture_kana":"トヤマケン","city":"氷見市","city_kana":"ヒミシ","town":"葛葉","town_kana":"クズバ","prefecture_code":16},"0336":{"zip_code":"9350336","prefecture":"富山県","prefecture_kana":"トヤマケン","city":"氷見市","city_kana":"ヒミシ","town":"国見","town_kana":"クニミ","prefecture_code":16},"0024":{"zip_code":"9350024","prefecture":"富山県","prefecture_kana":"トヤマケン","city":"氷見市","city_kana":"ヒミシ","town":"窪","town_kana":"クボ","prefecture_code":16},"0251":{"zip_code":"9350251","prefecture":"富山県","prefecture_kana":"トヤマケン","city":"氷見市","city_kana":"ヒミシ","town":"熊無","town_kana":"クマナシ","prefecture_code":16},"0265":{"zip_code":"9350265","prefecture":"富山県","prefecture_kana":"トヤマケン","city":"氷見市","city_kana":"ヒミシ","town":"久目","town_kana":"クメ","prefecture_code":16},"0025":{"zip_code":"9350025","prefecture":"富山県","prefecture_kana":"トヤマケン","city":"氷見市","city_kana":"ヒミシ","town":"鞍川","town_kana":"クラカワ","prefecture_code":16},"0115":[{"zip_code":"9350115","prefecture":"富山県","prefecture_kana":"トヤマケン","city":"氷見市","city_kana":"ヒミシ","town":"鞍骨","town_kana":"クラボネ","prefecture_code":16},{"zip_code":"9350115","prefecture":"富山県","prefecture_kana":"トヤマケン","city":"氷見市","city_kana":"ヒミシ","town":"鉾根","town_kana":"ホコネ","prefecture_code":16}],"0335":{"zip_code":"9350335","prefecture":"富山県","prefecture_kana":"トヤマケン","city":"氷見市","city_kana":"ヒミシ","town":"胡桃","town_kana":"クルミ","prefecture_code":16},"0273":{"zip_code":"9350273","prefecture":"富山県","prefecture_kana":"トヤマケン","city":"氷見市","city_kana":"ヒミシ","town":"桑院","town_kana":"クワノイン","prefecture_code":16},"0042":{"zip_code":"9350042","prefecture":"富山県","prefecture_kana":"トヤマケン","city":"氷見市","city_kana":"ヒミシ","town":"湖光","town_kana":"コウコウ","prefecture_code":16},"0106":{"zip_code":"9350106","prefecture":"富山県","prefecture_kana":"トヤマケン","city":"氷見市","city_kana":"ヒミシ","town":"神代","town_kana":"コウジロ","prefecture_code":16},"0413":{"zip_code":"9350413","prefecture":"富山県","prefecture_kana":"トヤマケン","city":"氷見市","city_kana":"ヒミシ","town":"小境","town_kana":"コザカイ","prefecture_code":16},"0424":{"zip_code":"9350424","prefecture":"富山県","prefecture_kana":"トヤマケン","city":"氷見市","city_kana":"ヒミシ","town":"小杉","town_kana":"コスギ","prefecture_code":16},"0021":{"zip_code":"9350021","prefecture":"富山県","prefecture_kana":"トヤマケン","city":"氷見市","city_kana":"ヒミシ","town":"幸町","town_kana":"サイワイチョウ","prefecture_code":16},"0005":{"zip_code":"9350005","prefecture":"富山県","prefecture_kana":"トヤマケン","city":"氷見市","city_kana":"ヒミシ","town":"栄町","town_kana":"サカエマチ","prefecture_code":16},"0052":{"zip_code":"9350052","prefecture":"富山県","prefecture_kana":"トヤマケン","city":"氷見市","city_kana":"ヒミシ","town":"坂津","town_kana":"サカツ","prefecture_code":16},"0007":{"zip_code":"9350007","prefecture":"富山県","prefecture_kana":"トヤマケン","city":"氷見市","city_kana":"ヒミシ","town":"指崎","town_kana":"サッサキ","prefecture_code":16},"0014":{"zip_code":"9350014","prefecture":"富山県","prefecture_kana":"トヤマケン","city":"氷見市","city_kana":"ヒミシ","town":"地蔵町","town_kana":"ジゾウマチ","prefecture_code":16},"0066":{"zip_code":"9350066","prefecture":"富山県","prefecture_kana":"トヤマケン","city":"氷見市","city_kana":"ヒミシ","town":"七分一","town_kana":"シチブイチ","prefecture_code":16},"0032":{"zip_code":"9350032","prefecture":"富山県","prefecture_kana":"トヤマケン","city":"氷見市","city_kana":"ヒミシ","town":"島尾","town_kana":"シマオ","prefecture_code":16},"0046":{"zip_code":"9350046","prefecture":"富山県","prefecture_kana":"トヤマケン","city":"氷見市","city_kana":"ヒミシ","town":"下久津呂","town_kana":"シモクヅロ","prefecture_code":16},"0036":{"zip_code":"9350036","prefecture":"富山県","prefecture_kana":"トヤマケン","city":"氷見市","city_kana":"ヒミシ","town":"下田子","town_kana":"シモタコ","prefecture_code":16},"0051":{"zip_code":"9350051","prefecture":"富山県","prefecture_kana":"トヤマケン","city":"氷見市","city_kana":"ヒミシ","town":"十二町","town_kana":"ジュウニチョウ","prefecture_code":16},"0414":{"zip_code":"9350414","prefecture":"富山県","prefecture_kana":"トヤマケン","city":"氷見市","city_kana":"ヒミシ","town":"白川","town_kana":"シラガワ","prefecture_code":16},"0254":{"zip_code":"9350254","prefecture":"富山県","prefecture_kana":"トヤマケン","city":"氷見市","city_kana":"ヒミシ","town":"新保","town_kana":"シンボ","prefecture_code":16},"0411":{"zip_code":"9350411","prefecture":"富山県","prefecture_kana":"トヤマケン","city":"氷見市","city_kana":"ヒミシ","town":"姿","town_kana":"スガタ","prefecture_code":16},"0062":{"zip_code":"9350062","prefecture":"富山県","prefecture_kana":"トヤマケン","city":"氷見市","city_kana":"ヒミシ","town":"諏訪野","town_kana":"スワノ","prefecture_code":16},"0113":{"zip_code":"9350113","prefecture":"富山県","prefecture_kana":"トヤマケン","city":"氷見市","city_kana":"ヒミシ","town":"惣領","town_kana":"ソウリョウ","prefecture_code":16},"0041":{"zip_code":"9350041","prefecture":"富山県","prefecture_kana":"トヤマケン","city":"氷見市","city_kana":"ヒミシ","town":"園","town_kana":"ソノ","prefecture_code":16},"0406":{"zip_code":"9350406","prefecture":"富山県","prefecture_kana":"トヤマケン","city":"氷見市","city_kana":"ヒミシ","town":"平","town_kana":"ダイラ","prefecture_code":16},"0256":{"zip_code":"9350256","prefecture":"富山県","prefecture_kana":"トヤマケン","city":"氷見市","city_kana":"ヒミシ","town":"田江","town_kana":"タエ","prefecture_code":16},"0277":{"zip_code":"9350277","prefecture":"富山県","prefecture_kana":"トヤマケン","city":"氷見市","city_kana":"ヒミシ","town":"棚懸","town_kana":"タナガケ","prefecture_code":16},"0253":{"zip_code":"9350253","prefecture":"富山県","prefecture_kana":"トヤマケン","city":"氷見市","city_kana":"ヒミシ","town":"谷屋","town_kana":"タニヤ","prefecture_code":16},"0011":{"zip_code":"9350011","prefecture":"富山県","prefecture_kana":"トヤマケン","city":"氷見市","city_kana":"ヒミシ","town":"中央町","town_kana":"チュウオウマチ","prefecture_code":16},"0275":{"zip_code":"9350275","prefecture":"富山県","prefecture_kana":"トヤマケン","city":"氷見市","city_kana":"ヒミシ","town":"土倉","town_kana":"ツチクラ","prefecture_code":16},"0276":{"zip_code":"9350276","prefecture":"富山県","prefecture_kana":"トヤマケン","city":"氷見市","city_kana":"ヒミシ","town":"坪池","town_kana":"ツボイケ","prefecture_code":16},"0345":{"zip_code":"9350345","prefecture":"富山県","prefecture_kana":"トヤマケン","city":"氷見市","city_kana":"ヒミシ","town":"寺尾","town_kana":"テラオ","prefecture_code":16},"0269":{"zip_code":"9350269","prefecture":"富山県","prefecture_kana":"トヤマケン","city":"氷見市","city_kana":"ヒミシ","town":"床鍋","town_kana":"トコナベ","prefecture_code":16},"0415":{"zip_code":"9350415","prefecture":"富山県","prefecture_kana":"トヤマケン","city":"氷見市","city_kana":"ヒミシ","town":"戸津宮","town_kana":"トツミヤ","prefecture_code":16},"0423":{"zip_code":"9350423","prefecture":"富山県","prefecture_kana":"トヤマケン","city":"氷見市","city_kana":"ヒミシ","town":"泊","town_kana":"トマリ","prefecture_code":16},"0064":{"zip_code":"9350064","prefecture":"富山県","prefecture_kana":"トヤマケン","city":"氷見市","city_kana":"ヒミシ","town":"中尾","town_kana":"ナカオ","prefecture_code":16},"0417":{"zip_code":"9350417","prefecture":"富山県","prefecture_kana":"トヤマケン","city":"氷見市","city_kana":"ヒミシ","town":"長坂","town_kana":"ナガサカ","prefecture_code":16},"0102":{"zip_code":"9350102","prefecture":"富山県","prefecture_kana":"トヤマケン","city":"氷見市","city_kana":"ヒミシ","town":"中島","town_kana":"ナカジマ","prefecture_code":16},"0403":{"zip_code":"9350403","prefecture":"富山県","prefecture_kana":"トヤマケン","city":"氷見市","city_kana":"ヒミシ","town":"中田","town_kana":"ナカタ","prefecture_code":16},"0402":{"zip_code":"9350402","prefecture":"富山県","prefecture_kana":"トヤマケン","city":"氷見市","city_kana":"ヒミシ","town":"中波","town_kana":"ナカナミ","prefecture_code":16},"0252":{"zip_code":"9350252","prefecture":"富山県","prefecture_kana":"トヤマケン","city":"氷見市","city_kana":"ヒミシ","town":"中村","town_kana":"ナカムラ","prefecture_code":16},"0055":{"zip_code":"9350055","prefecture":"富山県","prefecture_kana":"トヤマケン","city":"氷見市","city_kana":"ヒミシ","town":"中谷内","town_kana":"ナカヤチ","prefecture_code":16},"0057":{"zip_code":"9350057","prefecture":"富山県","prefecture_kana":"トヤマケン","city":"氷見市","city_kana":"ヒミシ","town":"西朴木","town_kana":"ニシホオノキ","prefecture_code":16},"0255":{"zip_code":"9350255","prefecture":"富山県","prefecture_kana":"トヤマケン","city":"氷見市","city_kana":"ヒミシ","town":"早借","town_kana":"ハヤカシ","prefecture_code":16},"0334":{"zip_code":"9350334","prefecture":"富山県","prefecture_kana":"トヤマケン","city":"氷見市","city_kana":"ヒミシ","town":"針木","town_kana":"ハリノキ","prefecture_code":16},"0264":{"zip_code":"9350264","prefecture":"富山県","prefecture_kana":"トヤマケン","city":"氷見市","city_kana":"ヒミシ","town":"日詰","town_kana":"ヒヅメ","prefecture_code":16},"0341":{"zip_code":"9350341","prefecture":"富山県","prefecture_kana":"トヤマケン","city":"氷見市","city_kana":"ヒミシ","town":"一刎","town_kana":"ヒトハネ","prefecture_code":16},"0262":{"zip_code":"9350262","prefecture":"富山県","prefecture_kana":"トヤマケン","city":"氷見市","city_kana":"ヒミシ","town":"日名田","town_kana":"ヒナタ","prefecture_code":16},"0012":{"zip_code":"9350012","prefecture":"富山県","prefecture_kana":"トヤマケン","city":"氷見市","city_kana":"ヒミシ","town":"比美町","town_kana":"ヒミマチ","prefecture_code":16},"0404":{"zip_code":"9350404","prefecture":"富山県","prefecture_kana":"トヤマケン","city":"氷見市","city_kana":"ヒミシ","town":"平沢","town_kana":"ヒラサワ","prefecture_code":16},"0117":{"zip_code":"9350117","prefecture":"富山県","prefecture_kana":"トヤマケン","city":"氷見市","city_kana":"ヒミシ","town":"深原","town_kana":"フカハラ","prefecture_code":16},"0111":{"zip_code":"9350111","prefecture":"富山県","prefecture_kana":"トヤマケン","city":"氷見市","city_kana":"ヒミシ","town":"布施","town_kana":"フセ","prefecture_code":16},"0114":{"zip_code":"9350114","prefecture":"富山県","prefecture_kana":"トヤマケン","city":"氷見市","city_kana":"ヒミシ","town":"仏生寺","town_kana":"ブッショウジ","prefecture_code":16},"0266":{"zip_code":"9350266","prefecture":"富山県","prefecture_kana":"トヤマケン","city":"氷見市","city_kana":"ヒミシ","town":"触坂","town_kana":"フレザカ","prefecture_code":16},"0104":{"zip_code":"9350104","prefecture":"富山県","prefecture_kana":"トヤマケン","city":"氷見市","city_kana":"ヒミシ","town":"堀田","town_kana":"ホリタ","prefecture_code":16},"0016":{"zip_code":"9350016","prefecture":"富山県","prefecture_kana":"トヤマケン","city":"氷見市","city_kana":"ヒミシ","town":"本町","town_kana":"ホンマチ","prefecture_code":16},"0003":{"zip_code":"9350003","prefecture":"富山県","prefecture_kana":"トヤマケン","city":"氷見市","city_kana":"ヒミシ","town":"間島","town_kana":"マシマ","prefecture_code":16},"0017":{"zip_code":"9350017","prefecture":"富山県","prefecture_kana":"トヤマケン","city":"氷見市","city_kana":"ヒミシ","town":"丸の内","town_kana":"マルノウチ","prefecture_code":16},"0267":{"zip_code":"9350267","prefecture":"富山県","prefecture_kana":"トヤマケン","city":"氷見市","city_kana":"ヒミシ","town":"見内","town_kana":"ミウチ","prefecture_code":16},"0261":{"zip_code":"9350261","prefecture":"富山県","prefecture_kana":"トヤマケン","city":"氷見市","city_kana":"ヒミシ","town":"三尾","town_kana":"ミオ","prefecture_code":16},"0116":[{"zip_code":"9350116","prefecture":"富山県","prefecture_kana":"トヤマケン","city":"氷見市","city_kana":"ヒミシ","town":"三田窪","town_kana":"ミタクボ","prefecture_code":16},{"zip_code":"9350116","prefecture":"富山県","prefecture_kana":"トヤマケン","city":"氷見市","city_kana":"ヒミシ","town":"矢田部","town_kana":"ヤタベ","prefecture_code":16}],"0013":{"zip_code":"9350013","prefecture":"富山県","prefecture_kana":"トヤマケン","city":"氷見市","city_kana":"ヒミシ","town":"南大町","town_kana":"ミナミオオマチ","prefecture_code":16},"0033":{"zip_code":"9350033","prefecture":"富山県","prefecture_kana":"トヤマケン","city":"氷見市","city_kana":"ヒミシ","town":"宮田","town_kana":"ミヤダ","prefecture_code":16},"0053":{"zip_code":"9350053","prefecture":"富山県","prefecture_kana":"トヤマケン","city":"氷見市","city_kana":"ヒミシ","town":"万尾","town_kana":"モオ","prefecture_code":16},"0332":{"zip_code":"9350332","prefecture":"富山県","prefecture_kana":"トヤマケン","city":"氷見市","city_kana":"ヒミシ","town":"森寺","town_kana":"モリデラ","prefecture_code":16},"0031":{"zip_code":"9350031","prefecture":"富山県","prefecture_kana":"トヤマケン","city":"氷見市","city_kana":"ヒミシ","town":"柳田","town_kana":"ヤナイダ","prefecture_code":16},"0107":{"zip_code":"9350107","prefecture":"富山県","prefecture_kana":"トヤマケン","city":"氷見市","city_kana":"ヒミシ","town":"矢方","town_kana":"ヤノホウ","prefecture_code":16},"0425":{"zip_code":"9350425","prefecture":"富山県","prefecture_kana":"トヤマケン","city":"氷見市","city_kana":"ヒミシ","town":"薮田","town_kana":"ヤブタ","prefecture_code":16},"0061":{"zip_code":"9350061","prefecture":"富山県","prefecture_kana":"トヤマケン","city":"氷見市","city_kana":"ヒミシ","town":"余川","town_kana":"ヨカワ","prefecture_code":16},"0405":{"zip_code":"9350405","prefecture":"富山県","prefecture_kana":"トヤマケン","city":"氷見市","city_kana":"ヒミシ","town":"吉岡","town_kana":"ヨシオカ","prefecture_code":16},"0342":{"zip_code":"9350342","prefecture":"富山県","prefecture_kana":"トヤマケン","city":"氷見市","city_kana":"ヒミシ","town":"吉懸","town_kana":"ヨシガケ","prefecture_code":16},"0333":{"zip_code":"9350333","prefecture":"富山県","prefecture_kana":"トヤマケン","city":"氷見市","city_kana":"ヒミシ","town":"吉滝","town_kana":"ヨシタキ","prefecture_code":16},"0258":{"zip_code":"9350258","prefecture":"富山県","prefecture_kana":"トヤマケン","city":"氷見市","city_kana":"ヒミシ","town":"論田","town_kana":"ロンデン","prefecture_code":16},"0401":{"zip_code":"9350401","prefecture":"富山県","prefecture_kana":"トヤマケン","city":"氷見市","city_kana":"ヒミシ","town":"脇","town_kana":"ワキ","prefecture_code":16},"0421":{"zip_code":"9350421","prefecture":"富山県","prefecture_kana":"トヤマケン","city":"氷見市","city_kana":"ヒミシ","town":"脇方","town_kana":"ワキガタ","prefecture_code":16}}