{"0000":{"zip_code":"9360000","prefecture":"富山県","prefecture_kana":"トヤマケン","city":"滑川市","city_kana":"ナメリカワシ","town":"","town_kana":"","prefecture_code":16},"0843":{"zip_code":"9360843","prefecture":"富山県","prefecture_kana":"トヤマケン","city":"滑川市","city_kana":"ナメリカワシ","town":"赤浜","town_kana":"アカハマ","prefecture_code":16},"0842":{"zip_code":"9360842","prefecture":"富山県","prefecture_kana":"トヤマケン","city":"滑川市","city_kana":"ナメリカワシ","town":"赤浜栄町","town_kana":"アカハマサカエマチ","prefecture_code":16},"0033":{"zip_code":"9360033","prefecture":"富山県","prefecture_kana":"トヤマケン","city":"滑川市","city_kana":"ナメリカワシ","town":"吾妻町","town_kana":"アヅマチョウ","prefecture_code":16},"0034":{"zip_code":"9360034","prefecture":"富山県","prefecture_kana":"トヤマケン","city":"滑川市","city_kana":"ナメリカワシ","town":"吾妻町","town_kana":"アヅマチョウ","prefecture_code":16},"0006":{"zip_code":"9360006","prefecture":"富山県","prefecture_kana":"トヤマケン","city":"滑川市","city_kana":"ナメリカワシ","town":"荒俣","town_kana":"アラマタ","prefecture_code":16},"0007":{"zip_code":"9360007","prefecture":"富山県","prefecture_kana":"トヤマケン","city":"滑川市","city_kana":"ナメリカワシ","town":"荒俣新町","town_kana":"アラマタシンマチ","prefecture_code":16},"0042":{"zip_code":"9360042","prefecture":"富山県","prefecture_kana":"トヤマケン","city":"滑川市","city_kana":"ナメリカワシ","town":"荒町","town_kana":"アラマチ","prefecture_code":16},"0855":{"zip_code":"9360855","prefecture":"富山県","prefecture_kana":"トヤマケン","city":"滑川市","city_kana":"ナメリカワシ","town":"有金","town_kana":"アリカネ","prefecture_code":16},"0055":{"zip_code":"9360055","prefecture":"富山県","prefecture_kana":"トヤマケン","city":"滑川市","city_kana":"ナメリカワシ","town":"泉ケ丘","town_kana":"イズミガオカ","prefecture_code":16},"0877":{"zip_code":"9360877","prefecture":"富山県","prefecture_kana":"トヤマケン","city":"滑川市","city_kana":"ナメリカワシ","town":"稲泉","town_kana":"イナイズミ","prefecture_code":16},"0876":{"zip_code":"9360876","prefecture":"富山県","prefecture_kana":"トヤマケン","city":"滑川市","city_kana":"ナメリカワシ","town":"稲泉新","town_kana":"イナイズミシン","prefecture_code":16},"0031":{"zip_code":"9360031","prefecture":"富山県","prefecture_kana":"トヤマケン","city":"滑川市","city_kana":"ナメリカワシ","town":"今町","town_kana":"イママチ","prefecture_code":16},"0077":{"zip_code":"9360077","prefecture":"富山県","prefecture_kana":"トヤマケン","city":"滑川市","city_kana":"ナメリカワシ","town":"魚躬","town_kana":"ウオノミ","prefecture_code":16},"0044":{"zip_code":"9360044","prefecture":"富山県","prefecture_kana":"トヤマケン","city":"滑川市","city_kana":"ナメリカワシ","town":"馬町","town_kana":"ウママチ","prefecture_code":16},"0075":{"zip_code":"9360075","prefecture":"富山県","prefecture_kana":"トヤマケン","city":"滑川市","city_kana":"ナメリカワシ","town":"江尻","town_kana":"エジリ","prefecture_code":16},"0039":{"zip_code":"9360039","prefecture":"富山県","prefecture_kana":"トヤマケン","city":"滑川市","city_kana":"ナメリカワシ","town":"夷子町","town_kana":"エビスマチ","prefecture_code":16},"0808":{"zip_code":"9360808","prefecture":"富山県","prefecture_kana":"トヤマケン","city":"滑川市","city_kana":"ナメリカワシ","town":"追分","town_kana":"オイワケ","prefecture_code":16},"0811":[{"zip_code":"9360811","prefecture":"富山県","prefecture_kana":"トヤマケン","city":"滑川市","city_kana":"ナメリカワシ","town":"大浦","town_kana":"オオウラ","prefecture_code":16},{"zip_code":"9360811","prefecture":"富山県","prefecture_kana":"トヤマケン","city":"滑川市","city_kana":"ナメリカワシ","town":"上大浦","town_kana":"カミオオウラ","prefecture_code":16},{"zip_code":"9360811","prefecture":"富山県","prefecture_kana":"トヤマケン","city":"滑川市","city_kana":"ナメリカワシ","town":"下大浦","town_kana":"シモオオウラ","prefecture_code":16}],"0874":{"zip_code":"9360874","prefecture":"富山県","prefecture_kana":"トヤマケン","city":"滑川市","city_kana":"ナメリカワシ","town":"大榎","town_kana":"オオエノキ","prefecture_code":16},"0802":{"zip_code":"9360802","prefecture":"富山県","prefecture_kana":"トヤマケン","city":"滑川市","city_kana":"ナメリカワシ","town":"大掛","town_kana":"オオガケ","prefecture_code":16},"0805":{"zip_code":"9360805","prefecture":"富山県","prefecture_kana":"トヤマケン","city":"滑川市","city_kana":"ナメリカワシ","town":"大窪","town_kana":"オオクボ","prefecture_code":16},"0833":{"zip_code":"9360833","prefecture":"富山県","prefecture_kana":"トヤマケン","city":"滑川市","city_kana":"ナメリカワシ","town":"大崎野","town_kana":"オオサキノ","prefecture_code":16},"0801":{"zip_code":"9360801","prefecture":"富山県","prefecture_kana":"トヤマケン","city":"滑川市","city_kana":"ナメリカワシ","town":"大島","town_kana":"オオジマ","prefecture_code":16},"0871":{"zip_code":"9360871","prefecture":"富山県","prefecture_kana":"トヤマケン","city":"滑川市","city_kana":"ナメリカワシ","town":"大島新","town_kana":"オオジマシン","prefecture_code":16},"0818":{"zip_code":"9360818","prefecture":"富山県","prefecture_kana":"トヤマケン","city":"滑川市","city_kana":"ナメリカワシ","town":"大林","town_kana":"オオバヤシ","prefecture_code":16},"0047":{"zip_code":"9360047","prefecture":"富山県","prefecture_kana":"トヤマケン","city":"滑川市","city_kana":"ナメリカワシ","town":"大町","town_kana":"オオマチ","prefecture_code":16},"0851":{"zip_code":"9360851","prefecture":"富山県","prefecture_kana":"トヤマケン","city":"滑川市","city_kana":"ナメリカワシ","town":"沖田新","town_kana":"オキダシン","prefecture_code":16},"0836":{"zip_code":"9360836","prefecture":"富山県","prefecture_kana":"トヤマケン","city":"滑川市","city_kana":"ナメリカワシ","town":"改養寺","town_kana":"カイヨウジ","prefecture_code":16},"0004":{"zip_code":"9360004","prefecture":"富山県","prefecture_kana":"トヤマケン","city":"滑川市","city_kana":"ナメリカワシ","town":"笠木","town_kana":"カサギ","prefecture_code":16},"0068":{"zip_code":"9360068","prefecture":"富山県","prefecture_kana":"トヤマケン","city":"滑川市","city_kana":"ナメリカワシ","town":"加島町","town_kana":"カシマチョウ","prefecture_code":16},"0864":{"zip_code":"9360864","prefecture":"富山県","prefecture_kana":"トヤマケン","city":"滑川市","city_kana":"ナメリカワシ","town":"金屋","town_kana":"カナヤ","prefecture_code":16},"0853":{"zip_code":"9360853","prefecture":"富山県","prefecture_kana":"トヤマケン","city":"滑川市","city_kana":"ナメリカワシ","town":"上梅沢","town_kana":"カミウメザワ","prefecture_code":16},"0053":{"zip_code":"9360053","prefecture":"富山県","prefecture_kana":"トヤマケン","city":"滑川市","city_kana":"ナメリカワシ","town":"上小泉","town_kana":"カミコイズミ","prefecture_code":16},"0054":{"zip_code":"9360054","prefecture":"富山県","prefecture_kana":"トヤマケン","city":"滑川市","city_kana":"ナメリカワシ","town":"上小泉","town_kana":"カミコイズミ","prefecture_code":16},"0852":{"zip_code":"9360852","prefecture":"富山県","prefecture_kana":"トヤマケン","city":"滑川市","city_kana":"ナメリカワシ","town":"上島","town_kana":"カミジマ","prefecture_code":16},"0046":{"zip_code":"9360046","prefecture":"富山県","prefecture_kana":"トヤマケン","city":"滑川市","city_kana":"ナメリカワシ","town":"河浦町","town_kana":"カワウラチョウ","prefecture_code":16},"0064":{"zip_code":"9360064","prefecture":"富山県","prefecture_kana":"トヤマケン","city":"滑川市","city_kana":"ナメリカワシ","town":"河端町","town_kana":"カワバタマチ","prefecture_code":16},"0806":{"zip_code":"9360806","prefecture":"富山県","prefecture_kana":"トヤマケン","city":"滑川市","city_kana":"ナメリカワシ","town":"北野","town_kana":"キタノ","prefecture_code":16},"0038":{"zip_code":"9360038","prefecture":"富山県","prefecture_kana":"トヤマケン","city":"滑川市","city_kana":"ナメリカワシ","town":"北町","town_kana":"キタマチ","prefecture_code":16},"0803":{"zip_code":"9360803","prefecture":"富山県","prefecture_kana":"トヤマケン","city":"滑川市","city_kana":"ナメリカワシ","town":"栗山","town_kana":"クリヤマ","prefecture_code":16},"0026":{"zip_code":"9360026","prefecture":"富山県","prefecture_kana":"トヤマケン","city":"滑川市","city_kana":"ナメリカワシ","town":"公園通り","town_kana":"コウエンドオリ","prefecture_code":16},"0854":{"zip_code":"9360854","prefecture":"富山県","prefecture_kana":"トヤマケン","city":"滑川市","city_kana":"ナメリカワシ","town":"小林","town_kana":"コバヤシ","prefecture_code":16},"0066":{"zip_code":"9360066","prefecture":"富山県","prefecture_kana":"トヤマケン","city":"滑川市","city_kana":"ナメリカワシ","town":"菰原","town_kana":"コモハラ","prefecture_code":16},"0067":{"zip_code":"9360067","prefecture":"富山県","prefecture_kana":"トヤマケン","city":"滑川市","city_kana":"ナメリカワシ","town":"菰原台","town_kana":"コモハラダイ","prefecture_code":16},"0822":{"zip_code":"9360822","prefecture":"富山県","prefecture_kana":"トヤマケン","city":"滑川市","city_kana":"ナメリカワシ","town":"小森","town_kana":"コモリ","prefecture_code":16},"0073":{"zip_code":"9360073","prefecture":"富山県","prefecture_kana":"トヤマケン","city":"滑川市","city_kana":"ナメリカワシ","town":"幸町","town_kana":"サイワイチョウ","prefecture_code":16},"0059":{"zip_code":"9360059","prefecture":"富山県","prefecture_kana":"トヤマケン","city":"滑川市","city_kana":"ナメリカワシ","town":"晒屋","town_kana":"サラシヤ","prefecture_code":16},"0001":{"zip_code":"9360001","prefecture":"富山県","prefecture_kana":"トヤマケン","city":"滑川市","city_kana":"ナメリカワシ","town":"三ケ","town_kana":"サンガ","prefecture_code":16},"0069":{"zip_code":"9360069","prefecture":"富山県","prefecture_kana":"トヤマケン","city":"滑川市","city_kana":"ナメリカワシ","town":"山王町","town_kana":"サンノウマチ","prefecture_code":16},"0051":{"zip_code":"9360051","prefecture":"富山県","prefecture_kana":"トヤマケン","city":"滑川市","city_kana":"ナメリカワシ","town":"寺家町","town_kana":"ジケイマチ","prefecture_code":16},"0035":{"zip_code":"9360035","prefecture":"富山県","prefecture_kana":"トヤマケン","city":"滑川市","city_kana":"ナメリカワシ","town":"四間町","town_kana":"シケンチョウ","prefecture_code":16},"0045":{"zip_code":"9360045","prefecture":"富山県","prefecture_kana":"トヤマケン","city":"滑川市","city_kana":"ナメリカワシ","town":"七間町","town_kana":"シチケンチョウ","prefecture_code":16},"0841":{"zip_code":"9360841","prefecture":"富山県","prefecture_kana":"トヤマケン","city":"滑川市","city_kana":"ナメリカワシ","town":"柴","town_kana":"シバ","prefecture_code":16},"0052":{"zip_code":"9360052","prefecture":"富山県","prefecture_kana":"トヤマケン","city":"滑川市","city_kana":"ナメリカワシ","town":"清水町","town_kana":"シミズチョウ","prefecture_code":16},"0857":{"zip_code":"9360857","prefecture":"富山県","prefecture_kana":"トヤマケン","city":"滑川市","city_kana":"ナメリカワシ","town":"下梅沢","town_kana":"シモウメザワ","prefecture_code":16},"0058":{"zip_code":"9360058","prefecture":"富山県","prefecture_kana":"トヤマケン","city":"滑川市","city_kana":"ナメリカワシ","town":"下小泉町","town_kana":"シモコイズミマチ","prefecture_code":16},"0065":{"zip_code":"9360065","prefecture":"富山県","prefecture_kana":"トヤマケン","city":"滑川市","city_kana":"ナメリカワシ","town":"下島","town_kana":"シモジマ","prefecture_code":16},"0817":{"zip_code":"9360817","prefecture":"富山県","prefecture_kana":"トヤマケン","city":"滑川市","city_kana":"ナメリカワシ","town":"下野","town_kana":"シモノ","prefecture_code":16},"0848":{"zip_code":"9360848","prefecture":"富山県","prefecture_kana":"トヤマケン","city":"滑川市","city_kana":"ナメリカワシ","town":"常光寺","town_kana":"ジョウコウジ","prefecture_code":16},"0060":{"zip_code":"9360060","prefecture":"富山県","prefecture_kana":"トヤマケン","city":"滑川市","city_kana":"ナメリカワシ","town":"神家町","town_kana":"ジンカマチ","prefecture_code":16},"0074":{"zip_code":"9360074","prefecture":"富山県","prefecture_kana":"トヤマケン","city":"滑川市","city_kana":"ナメリカワシ","town":"新富町","town_kana":"シントミチョウ","prefecture_code":16},"0032":{"zip_code":"9360032","prefecture":"富山県","prefecture_kana":"トヤマケン","city":"滑川市","city_kana":"ナメリカワシ","town":"神明町","town_kana":"シンメイチョウ","prefecture_code":16},"0804":{"zip_code":"9360804","prefecture":"富山県","prefecture_kana":"トヤマケン","city":"滑川市","city_kana":"ナメリカワシ","town":"杉本","town_kana":"スギモト","prefecture_code":16},"0063":{"zip_code":"9360063","prefecture":"富山県","prefecture_kana":"トヤマケン","city":"滑川市","city_kana":"ナメリカワシ","town":"瀬羽町","town_kana":"セワマチ","prefecture_code":16},"0813":{"zip_code":"9360813","prefecture":"富山県","prefecture_kana":"トヤマケン","city":"滑川市","city_kana":"ナメリカワシ","town":"大日","town_kana":"ダイニチ","prefecture_code":16},"0856":{"zip_code":"9360856","prefecture":"富山県","prefecture_kana":"トヤマケン","city":"滑川市","city_kana":"ナメリカワシ","town":"大門","town_kana":"ダイモン","prefecture_code":16},"0011":{"zip_code":"9360011","prefecture":"富山県","prefecture_kana":"トヤマケン","city":"滑川市","city_kana":"ナメリカワシ","town":"高塚","town_kana":"タカツカ","prefecture_code":16},"0012":{"zip_code":"9360012","prefecture":"富山県","prefecture_kana":"トヤマケン","city":"滑川市","city_kana":"ナメリカワシ","town":"高塚曙町","town_kana":"タカツカアケボノチョウ","prefecture_code":16},"0015":{"zip_code":"9360015","prefecture":"富山県","prefecture_kana":"トヤマケン","city":"滑川市","city_kana":"ナメリカワシ","town":"高塚寿町","town_kana":"タカツカコトブキマチ","prefecture_code":16},"0013":{"zip_code":"9360013","prefecture":"富山県","prefecture_kana":"トヤマケン","city":"滑川市","city_kana":"ナメリカワシ","town":"高塚新市営住宅","town_kana":"タカツカシンシエイジュウタク","prefecture_code":16},"0014":{"zip_code":"9360014","prefecture":"富山県","prefecture_kana":"トヤマケン","city":"滑川市","city_kana":"ナメリカワシ","town":"高塚新町","town_kana":"タカツカシンマチ","prefecture_code":16},"0078":{"zip_code":"9360078","prefecture":"富山県","prefecture_kana":"トヤマケン","city":"滑川市","city_kana":"ナメリカワシ","town":"高月町","town_kana":"タカツキマチ","prefecture_code":16},"0076":{"zip_code":"9360076","prefecture":"富山県","prefecture_kana":"トヤマケン","city":"滑川市","city_kana":"ナメリカワシ","town":"高月南台","town_kana":"タカツキミナミダイ","prefecture_code":16},"0849":{"zip_code":"9360849","prefecture":"富山県","prefecture_kana":"トヤマケン","city":"滑川市","city_kana":"ナメリカワシ","town":"高柳","town_kana":"タカヤナギ","prefecture_code":16},"0024":{"zip_code":"9360024","prefecture":"富山県","prefecture_kana":"トヤマケン","city":"滑川市","city_kana":"ナメリカワシ","town":"辰野","town_kana":"タツノ","prefecture_code":16},"0022":{"zip_code":"9360022","prefecture":"富山県","prefecture_kana":"トヤマケン","city":"滑川市","city_kana":"ナメリカワシ","town":"辰野新町","town_kana":"タツノシンマチ","prefecture_code":16},"0056":{"zip_code":"9360056","prefecture":"富山県","prefecture_kana":"トヤマケン","city":"滑川市","city_kana":"ナメリカワシ","town":"田中新町","town_kana":"タナカシンマチ","prefecture_code":16},"0057":{"zip_code":"9360057","prefecture":"富山県","prefecture_kana":"トヤマケン","city":"滑川市","city_kana":"ナメリカワシ","town":"田中町","town_kana":"タナカマチ","prefecture_code":16},"0826":{"zip_code":"9360826","prefecture":"富山県","prefecture_kana":"トヤマケン","city":"滑川市","city_kana":"ナメリカワシ","town":"田林","town_kana":"タバヤシ","prefecture_code":16},"0814":{"zip_code":"9360814","prefecture":"富山県","prefecture_kana":"トヤマケン","city":"滑川市","city_kana":"ナメリカワシ","town":"千鳥","town_kana":"チドリ","prefecture_code":16},"0018":{"zip_code":"9360018","prefecture":"富山県","prefecture_kana":"トヤマケン","city":"滑川市","city_kana":"ナメリカワシ","town":"坪川","town_kana":"ツボカワ","prefecture_code":16},"0019":{"zip_code":"9360019","prefecture":"富山県","prefecture_kana":"トヤマケン","city":"滑川市","city_kana":"ナメリカワシ","town":"坪川新","town_kana":"ツボカワシン","prefecture_code":16},"0844":{"zip_code":"9360844","prefecture":"富山県","prefecture_kana":"トヤマケン","city":"滑川市","city_kana":"ナメリカワシ","town":"寺町","town_kana":"テラマチ","prefecture_code":16},"0847":{"zip_code":"9360847","prefecture":"富山県","prefecture_kana":"トヤマケン","city":"滑川市","city_kana":"ナメリカワシ","town":"天望町","town_kana":"テンボウチョウ","prefecture_code":16},"0838":{"zip_code":"9360838","prefecture":"富山県","prefecture_kana":"トヤマケン","city":"滑川市","city_kana":"ナメリカワシ","town":"道寺","town_kana":"ドウジ","prefecture_code":16},"0827":{"zip_code":"9360827","prefecture":"富山県","prefecture_kana":"トヤマケン","city":"滑川市","city_kana":"ナメリカワシ","town":"東福寺","town_kana":"トウフクジ","prefecture_code":16},"0823":{"zip_code":"9360823","prefecture":"富山県","prefecture_kana":"トヤマケン","city":"滑川市","city_kana":"ナメリカワシ","town":"東福寺野","town_kana":"トウフクジノ","prefecture_code":16},"0834":{"zip_code":"9360834","prefecture":"富山県","prefecture_kana":"トヤマケン","city":"滑川市","city_kana":"ナメリカワシ","town":"東福寺開","town_kana":"トウフクジビラキ","prefecture_code":16},"0027":{"zip_code":"9360027","prefecture":"富山県","prefecture_kana":"トヤマケン","city":"滑川市","city_kana":"ナメリカワシ","town":"常盤町","town_kana":"トキワチョウ","prefecture_code":16},"0863":{"zip_code":"9360863","prefecture":"富山県","prefecture_kana":"トヤマケン","city":"滑川市","city_kana":"ナメリカワシ","town":"栃山","town_kana":"トチヤマ","prefecture_code":16},"0021":{"zip_code":"9360021","prefecture":"富山県","prefecture_kana":"トヤマケン","city":"滑川市","city_kana":"ナメリカワシ","town":"中川原","town_kana":"ナカガワラ","prefecture_code":16},"0861":{"zip_code":"9360861","prefecture":"富山県","prefecture_kana":"トヤマケン","city":"滑川市","city_kana":"ナメリカワシ","town":"中新","town_kana":"ナカシン","prefecture_code":16},"0875":{"zip_code":"9360875","prefecture":"富山県","prefecture_kana":"トヤマケン","city":"滑川市","city_kana":"ナメリカワシ","town":"中塚","town_kana":"ナカツカ","prefecture_code":16},"0816":{"zip_code":"9360816","prefecture":"富山県","prefecture_kana":"トヤマケン","city":"滑川市","city_kana":"ナメリカワシ","town":"中野","town_kana":"ナカノ","prefecture_code":16},"0882":{"zip_code":"9360882","prefecture":"富山県","prefecture_kana":"トヤマケン","city":"滑川市","city_kana":"ナメリカワシ","town":"中野島","town_kana":"ナカノシマ","prefecture_code":16},"0036":{"zip_code":"9360036","prefecture":"富山県","prefecture_kana":"トヤマケン","city":"滑川市","city_kana":"ナメリカワシ","town":"中町","town_kana":"ナカマチ","prefecture_code":16},"0002":{"zip_code":"9360002","prefecture":"富山県","prefecture_kana":"トヤマケン","city":"滑川市","city_kana":"ナメリカワシ","town":"中村","town_kana":"ナカムラ","prefecture_code":16},"0865":{"zip_code":"9360865","prefecture":"富山県","prefecture_kana":"トヤマケン","city":"滑川市","city_kana":"ナメリカワシ","town":"七口","town_kana":"ナナクチ","prefecture_code":16},"0831":{"zip_code":"9360831","prefecture":"富山県","prefecture_kana":"トヤマケン","city":"滑川市","city_kana":"ナメリカワシ","town":"野尻","town_kana":"ノジリ","prefecture_code":16},"0883":{"zip_code":"9360883","prefecture":"富山県","prefecture_kana":"トヤマケン","city":"滑川市","city_kana":"ナメリカワシ","town":"野町","town_kana":"ノマチ","prefecture_code":16},"0062":{"zip_code":"9360062","prefecture":"富山県","prefecture_kana":"トヤマケン","city":"滑川市","city_kana":"ナメリカワシ","town":"橋場町","town_kana":"ハシバマチ","prefecture_code":16},"0061":{"zip_code":"9360061","prefecture":"富山県","prefecture_kana":"トヤマケン","city":"滑川市","city_kana":"ナメリカワシ","town":"浜町","town_kana":"ハママチ","prefecture_code":16},"0005":{"zip_code":"9360005","prefecture":"富山県","prefecture_kana":"トヤマケン","city":"滑川市","city_kana":"ナメリカワシ","town":"浜四ツ屋","town_kana":"ハマヨツヤ","prefecture_code":16},"0837":{"zip_code":"9360837","prefecture":"富山県","prefecture_kana":"トヤマケン","city":"滑川市","city_kana":"ナメリカワシ","town":"東金屋","town_kana":"ヒガシカナヤ","prefecture_code":16},"0835":{"zip_code":"9360835","prefecture":"富山県","prefecture_kana":"トヤマケン","city":"滑川市","city_kana":"ナメリカワシ","town":"開","town_kana":"ヒラキ","prefecture_code":16},"0043":{"zip_code":"9360043","prefecture":"富山県","prefecture_kana":"トヤマケン","city":"滑川市","city_kana":"ナメリカワシ","town":"瓢町","town_kana":"フクベチョウ","prefecture_code":16},"0881":{"zip_code":"9360881","prefecture":"富山県","prefecture_kana":"トヤマケン","city":"滑川市","city_kana":"ナメリカワシ","town":"藤栄","town_kana":"フジエイ","prefecture_code":16},"0872":{"zip_code":"9360872","prefecture":"富山県","prefecture_kana":"トヤマケン","city":"滑川市","city_kana":"ナメリカワシ","town":"二塚","town_kana":"フタツカ","prefecture_code":16},"0017":{"zip_code":"9360017","prefecture":"富山県","prefecture_kana":"トヤマケン","city":"滑川市","city_kana":"ナメリカワシ","town":"二ツ破","town_kana":"フタツヤブリ","prefecture_code":16},"0037":{"zip_code":"9360037","prefecture":"富山県","prefecture_kana":"トヤマケン","city":"滑川市","city_kana":"ナメリカワシ","town":"武平太町","town_kana":"ブヘダマチ","prefecture_code":16},"0885":{"zip_code":"9360885","prefecture":"富山県","prefecture_kana":"トヤマケン","city":"滑川市","city_kana":"ナメリカワシ","town":"法花寺","town_kana":"ホッケジ","prefecture_code":16},"0812":{"zip_code":"9360812","prefecture":"富山県","prefecture_kana":"トヤマケン","city":"滑川市","city_kana":"ナメリカワシ","town":"堀内","town_kana":"ホリウチ","prefecture_code":16},"0846":{"zip_code":"9360846","prefecture":"富山県","prefecture_kana":"トヤマケン","city":"滑川市","city_kana":"ナメリカワシ","town":"堀江","town_kana":"ホリエ","prefecture_code":16},"0824":{"zip_code":"9360824","prefecture":"富山県","prefecture_kana":"トヤマケン","city":"滑川市","city_kana":"ナメリカワシ","town":"本江","town_kana":"ホンゴウ","prefecture_code":16},"0016":{"zip_code":"9360016","prefecture":"富山県","prefecture_kana":"トヤマケン","city":"滑川市","city_kana":"ナメリカワシ","town":"曲渕","town_kana":"マガリブチ","prefecture_code":16},"0041":{"zip_code":"9360041","prefecture":"富山県","prefecture_kana":"トヤマケン","city":"滑川市","city_kana":"ナメリカワシ","town":"松原町","town_kana":"マツバラチョウ","prefecture_code":16},"0072":{"zip_code":"9360072","prefecture":"富山県","prefecture_kana":"トヤマケン","city":"滑川市","city_kana":"ナメリカワシ","town":"緑町","town_kana":"ミドリマチ","prefecture_code":16},"0821":{"zip_code":"9360821","prefecture":"富山県","prefecture_kana":"トヤマケン","city":"滑川市","city_kana":"ナメリカワシ","town":"蓑輪","town_kana":"ミノワ","prefecture_code":16},"0048":{"zip_code":"9360048","prefecture":"富山県","prefecture_kana":"トヤマケン","city":"滑川市","city_kana":"ナメリカワシ","town":"三穂町","town_kana":"ミホマチ","prefecture_code":16},"0868":{"zip_code":"9360868","prefecture":"富山県","prefecture_kana":"トヤマケン","city":"滑川市","city_kana":"ナメリカワシ","town":"宮窪","town_kana":"ミヤノクボ","prefecture_code":16},"0866":{"zip_code":"9360866","prefecture":"富山県","prefecture_kana":"トヤマケン","city":"滑川市","city_kana":"ナメリカワシ","town":"宮窪新","town_kana":"ミヤノクボシン","prefecture_code":16},"0867":{"zip_code":"9360867","prefecture":"富山県","prefecture_kana":"トヤマケン","city":"滑川市","city_kana":"ナメリカワシ","town":"宮窪台","town_kana":"ミヤノクボダイ","prefecture_code":16},"0815":{"zip_code":"9360815","prefecture":"富山県","prefecture_kana":"トヤマケン","city":"滑川市","city_kana":"ナメリカワシ","town":"室山","town_kana":"ムロヤマ","prefecture_code":16},"0845":{"zip_code":"9360845","prefecture":"富山県","prefecture_kana":"トヤマケン","city":"滑川市","city_kana":"ナメリカワシ","town":"森尻新","town_kana":"モリジリシン","prefecture_code":16},"0832":{"zip_code":"9360832","prefecture":"富山県","prefecture_kana":"トヤマケン","city":"滑川市","city_kana":"ナメリカワシ","town":"森野新","town_kana":"モリノシン","prefecture_code":16},"0825":{"zip_code":"9360825","prefecture":"富山県","prefecture_kana":"トヤマケン","city":"滑川市","city_kana":"ナメリカワシ","town":"安田","town_kana":"ヤスダ","prefecture_code":16},"0023":{"zip_code":"9360023","prefecture":"富山県","prefecture_kana":"トヤマケン","city":"滑川市","city_kana":"ナメリカワシ","town":"柳原","town_kana":"ヤナギハラ","prefecture_code":16},"0025":{"zip_code":"9360025","prefecture":"富山県","prefecture_kana":"トヤマケン","city":"滑川市","city_kana":"ナメリカワシ","town":"柳原新町","town_kana":"ヤナギハラシンマチ","prefecture_code":16},"0070":{"zip_code":"9360070","prefecture":"富山県","prefecture_kana":"トヤマケン","city":"滑川市","city_kana":"ナメリカワシ","town":"横町","town_kana":"ヨコチョウ","prefecture_code":16},"0873":{"zip_code":"9360873","prefecture":"富山県","prefecture_kana":"トヤマケン","city":"滑川市","city_kana":"ナメリカワシ","town":"横道","town_kana":"ヨコミチ","prefecture_code":16},"0003":{"zip_code":"9360003","prefecture":"富山県","prefecture_kana":"トヤマケン","city":"滑川市","city_kana":"ナメリカワシ","town":"吉浦","town_kana":"ヨシウラ","prefecture_code":16},"0807":{"zip_code":"9360807","prefecture":"富山県","prefecture_kana":"トヤマケン","city":"滑川市","city_kana":"ナメリカワシ","town":"四ツ屋","town_kana":"ヨツヤ","prefecture_code":16},"0862":{"zip_code":"9360862","prefecture":"富山県","prefecture_kana":"トヤマケン","city":"滑川市","city_kana":"ナメリカワシ","town":"四屋新","town_kana":"ヨツヤシン","prefecture_code":16},"0884":{"zip_code":"9360884","prefecture":"富山県","prefecture_kana":"トヤマケン","city":"滑川市","city_kana":"ナメリカワシ","town":"米島","town_kana":"ヨネジマ","prefecture_code":16},"0071":{"zip_code":"9360071","prefecture":"富山県","prefecture_kana":"トヤマケン","city":"滑川市","city_kana":"ナメリカワシ","town":"領家町","town_kana":"リョウケマチ","prefecture_code":16},"0891":{"zip_code":"9360891","prefecture":"富山県","prefecture_kana":"トヤマケン","city":"中新川郡上市町","city_kana":"ナカニイカワグンカミイチマチ","town":"護摩堂","town_kana":"ゴマドウ","prefecture_code":16}}