{"0000":{"zip_code":"9370000","prefecture":"富山県","prefecture_kana":"トヤマケン","city":"魚津市","city_kana":"ウオヅシ","town":"以下に掲載がない場合","town_kana":"イカニケイサイガナイバアイ","prefecture_code":16},"0045":{"zip_code":"9370045","prefecture":"富山県","prefecture_kana":"トヤマケン","city":"魚津市","city_kana":"ウオヅシ","town":"相木","town_kana":"アイノキ","prefecture_code":16},"0047":{"zip_code":"9370047","prefecture":"富山県","prefecture_kana":"トヤマケン","city":"魚津市","city_kana":"ウオヅシ","town":"相木新","town_kana":"アイノキシン","prefecture_code":16},"0063":{"zip_code":"9370063","prefecture":"富山県","prefecture_kana":"トヤマケン","city":"魚津市","city_kana":"ウオヅシ","town":"青島","town_kana":"アオジマ","prefecture_code":16},"0014":{"zip_code":"9370014","prefecture":"富山県","prefecture_kana":"トヤマケン","city":"魚津市","city_kana":"ウオヅシ","town":"青柳","town_kana":"アオヤナギ","prefecture_code":16},"0036":{"zip_code":"9370036","prefecture":"富山県","prefecture_kana":"トヤマケン","city":"魚津市","city_kana":"ウオヅシ","town":"山女","town_kana":"アケビ","prefecture_code":16},"0847":{"zip_code":"9370847","prefecture":"富山県","prefecture_kana":"トヤマケン","city":"魚津市","city_kana":"ウオヅシ","town":"浅生","town_kana":"アソウ","prefecture_code":16},"0846":{"zip_code":"9370846","prefecture":"富山県","prefecture_kana":"トヤマケン","city":"魚津市","city_kana":"ウオヅシ","town":"有山","town_kana":"アリヤマ","prefecture_code":16},"0828":{"zip_code":"9370828","prefecture":"富山県","prefecture_kana":"トヤマケン","city":"魚津市","city_kana":"ウオヅシ","town":"池谷","town_kana":"イケダニ","prefecture_code":16},"0814":{"zip_code":"9370814","prefecture":"富山県","prefecture_kana":"トヤマケン","city":"魚津市","city_kana":"ウオヅシ","town":"石垣","town_kana":"イシガキ","prefecture_code":16},"0813":{"zip_code":"9370813","prefecture":"富山県","prefecture_kana":"トヤマケン","city":"魚津市","city_kana":"ウオヅシ","town":"石垣新","town_kana":"イシガキシン","prefecture_code":16},"0821":{"zip_code":"9370821","prefecture":"富山県","prefecture_kana":"トヤマケン","city":"魚津市","city_kana":"ウオヅシ","town":"出","town_kana":"イデ","prefecture_code":16},"0812":{"zip_code":"9370812","prefecture":"富山県","prefecture_kana":"トヤマケン","city":"魚津市","city_kana":"ウオヅシ","town":"印田","town_kana":"インデン","prefecture_code":16},"0843":{"zip_code":"9370843","prefecture":"富山県","prefecture_kana":"トヤマケン","city":"魚津市","city_kana":"ウオヅシ","town":"上野","town_kana":"ウワノ","prefecture_code":16},"0051":{"zip_code":"9370051","prefecture":"富山県","prefecture_kana":"トヤマケン","city":"魚津市","city_kana":"ウオヅシ","town":"駅前新町","town_kana":"エキマエシンマチ","prefecture_code":16},"0017":{"zip_code":"9370017","prefecture":"富山県","prefecture_kana":"トヤマケン","city":"魚津市","city_kana":"ウオヅシ","town":"江口","town_kana":"エグチ","prefecture_code":16},"0835":{"zip_code":"9370835","prefecture":"富山県","prefecture_kana":"トヤマケン","city":"魚津市","city_kana":"ウオヅシ","town":"大熊","town_kana":"オオクマ","prefecture_code":16},"0026":{"zip_code":"9370026","prefecture":"富山県","prefecture_kana":"トヤマケン","city":"魚津市","city_kana":"ウオヅシ","town":"大沢","town_kana":"オオサワ","prefecture_code":16},"0039":{"zip_code":"9370039","prefecture":"富山県","prefecture_kana":"トヤマケン","city":"魚津市","city_kana":"ウオヅシ","town":"大菅沼","town_kana":"オオスガヌマ","prefecture_code":16},"0004":{"zip_code":"9370004","prefecture":"富山県","prefecture_kana":"トヤマケン","city":"魚津市","city_kana":"ウオヅシ","town":"岡経田","town_kana":"オカキョウデン","prefecture_code":16},"0022":{"zip_code":"9370022","prefecture":"富山県","prefecture_kana":"トヤマケン","city":"魚津市","city_kana":"ウオヅシ","town":"小川寺","town_kana":"オガワジ","prefecture_code":16},"0032":{"zip_code":"9370032","prefecture":"富山県","prefecture_kana":"トヤマケン","city":"魚津市","city_kana":"ウオヅシ","town":"貝田新","town_kana":"カイダシン","prefecture_code":16},"0834":{"zip_code":"9370834","prefecture":"富山県","prefecture_kana":"トヤマケン","city":"魚津市","city_kana":"ウオヅシ","town":"鹿熊","town_kana":"カクマ","prefecture_code":16},"0054":{"zip_code":"9370054","prefecture":"富山県","prefecture_kana":"トヤマケン","city":"魚津市","city_kana":"ウオヅシ","town":"金浦町","town_kana":"カナウラマチ","prefecture_code":16},"0832":{"zip_code":"9370832","prefecture":"富山県","prefecture_kana":"トヤマケン","city":"魚津市","city_kana":"ウオヅシ","town":"金山谷","town_kana":"カナヤマダニ","prefecture_code":16},"0865":{"zip_code":"9370865","prefecture":"富山県","prefecture_kana":"トヤマケン","city":"魚津市","city_kana":"ウオヅシ","town":"上口","town_kana":"カミグチ","prefecture_code":16},"0046":{"zip_code":"9370046","prefecture":"富山県","prefecture_kana":"トヤマケン","city":"魚津市","city_kana":"ウオヅシ","town":"上村木","town_kana":"カミムラキ","prefecture_code":16},"0861":{"zip_code":"9370861","prefecture":"富山県","prefecture_kana":"トヤマケン","city":"魚津市","city_kana":"ウオヅシ","town":"鴨川町","town_kana":"カモガワマチ","prefecture_code":16},"0855":{"zip_code":"9370855","prefecture":"富山県","prefecture_kana":"トヤマケン","city":"魚津市","city_kana":"ウオヅシ","town":"川原","town_kana":"カワハラ","prefecture_code":16},"0856":{"zip_code":"9370856","prefecture":"富山県","prefecture_kana":"トヤマケン","city":"魚津市","city_kana":"ウオヅシ","town":"川縁","town_kana":"カワベリ","prefecture_code":16},"0831":{"zip_code":"9370831","prefecture":"富山県","prefecture_kana":"トヤマケン","city":"魚津市","city_kana":"ウオヅシ","town":"観音堂","town_kana":"カンノンドウ","prefecture_code":16},"0066":{"zip_code":"9370066","prefecture":"富山県","prefecture_kana":"トヤマケン","city":"魚津市","city_kana":"ウオヅシ","town":"北鬼江","town_kana":"キタオニエ","prefecture_code":16},"0065":{"zip_code":"9370065","prefecture":"富山県","prefecture_kana":"トヤマケン","city":"魚津市","city_kana":"ウオヅシ","town":"北中","town_kana":"キタナカ","prefecture_code":16},"0826":{"zip_code":"9370826","prefecture":"富山県","prefecture_kana":"トヤマケン","city":"魚津市","city_kana":"ウオヅシ","town":"北山","town_kana":"キタヤマ","prefecture_code":16},"0041":{"zip_code":"9370041","prefecture":"富山県","prefecture_kana":"トヤマケン","city":"魚津市","city_kana":"ウオヅシ","town":"吉島","town_kana":"キチジマ","prefecture_code":16},"0011":{"zip_code":"9370011","prefecture":"富山県","prefecture_kana":"トヤマケン","city":"魚津市","city_kana":"ウオヅシ","town":"木下新","town_kana":"キノシタシン","prefecture_code":16},"0007":{"zip_code":"9370007","prefecture":"富山県","prefecture_kana":"トヤマケン","city":"魚津市","city_kana":"ウオヅシ","town":"経田中町","town_kana":"キョウデンナカマチ","prefecture_code":16},"0006":{"zip_code":"9370006","prefecture":"富山県","prefecture_kana":"トヤマケン","city":"魚津市","city_kana":"ウオヅシ","town":"経田西町","town_kana":"キョウデンニシマチ","prefecture_code":16},"0025":{"zip_code":"9370025","prefecture":"富山県","prefecture_kana":"トヤマケン","city":"魚津市","city_kana":"ウオヅシ","town":"黒沢","town_kana":"クロサワ","prefecture_code":16},"0035":{"zip_code":"9370035","prefecture":"富山県","prefecture_kana":"トヤマケン","city":"魚津市","city_kana":"ウオヅシ","town":"黒谷","town_kana":"クロダニ","prefecture_code":16},"0852":{"zip_code":"9370852","prefecture":"富山県","prefecture_kana":"トヤマケン","city":"魚津市","city_kana":"ウオヅシ","town":"慶野","town_kana":"ケイノ","prefecture_code":16},"0833":{"zip_code":"9370833","prefecture":"富山県","prefecture_kana":"トヤマケン","city":"魚津市","city_kana":"ウオヅシ","town":"小菅沼","town_kana":"コスガヌマ","prefecture_code":16},"0009":{"zip_code":"9370009","prefecture":"富山県","prefecture_kana":"トヤマケン","city":"魚津市","city_kana":"ウオヅシ","town":"寿町","town_kana":"コトブキマチ","prefecture_code":16},"0841":{"zip_code":"9370841","prefecture":"富山県","prefecture_kana":"トヤマケン","city":"魚津市","city_kana":"ウオヅシ","town":"佐伯","town_kana":"サエキ","prefecture_code":16},"0857":{"zip_code":"9370857","prefecture":"富山県","prefecture_kana":"トヤマケン","city":"魚津市","city_kana":"ウオヅシ","town":"三ケ","town_kana":"サンガ","prefecture_code":16},"0811":{"zip_code":"9370811","prefecture":"富山県","prefecture_kana":"トヤマケン","city":"魚津市","city_kana":"ウオヅシ","town":"三田","town_kana":"サンダ","prefecture_code":16},"0003":{"zip_code":"9370003","prefecture":"富山県","prefecture_kana":"トヤマケン","city":"魚津市","city_kana":"ウオヅシ","town":"持光寺","town_kana":"ジコウジ","prefecture_code":16},"0033":{"zip_code":"9370033","prefecture":"富山県","prefecture_kana":"トヤマケン","city":"魚津市","city_kana":"ウオヅシ","town":"島尻","town_kana":"シマジリ","prefecture_code":16},"0844":{"zip_code":"9370844","prefecture":"富山県","prefecture_kana":"トヤマケン","city":"魚津市","city_kana":"ウオヅシ","town":"下椿","town_kana":"シモツバキ","prefecture_code":16},"0802":{"zip_code":"9370802","prefecture":"富山県","prefecture_kana":"トヤマケン","city":"魚津市","city_kana":"ウオヅシ","town":"下村木町","town_kana":"シモムラキマチ","prefecture_code":16},"0067":{"zip_code":"9370067","prefecture":"富山県","prefecture_kana":"トヤマケン","city":"魚津市","city_kana":"ウオヅシ","town":"釈迦堂","town_kana":"シャカドウ","prefecture_code":16},"0864":{"zip_code":"9370864","prefecture":"富山県","prefecture_kana":"トヤマケン","city":"魚津市","city_kana":"ウオヅシ","town":"新角川","town_kana":"シンカドガワ","prefecture_code":16},"0801":{"zip_code":"9370801","prefecture":"富山県","prefecture_kana":"トヤマケン","city":"魚津市","city_kana":"ウオヅシ","town":"新金屋","town_kana":"シンカナヤ","prefecture_code":16},"0010":{"zip_code":"9370010","prefecture":"富山県","prefecture_kana":"トヤマケン","city":"魚津市","city_kana":"ウオヅシ","town":"新経田","town_kana":"シンキョウデン","prefecture_code":16},"0863":{"zip_code":"9370863","prefecture":"富山県","prefecture_kana":"トヤマケン","city":"魚津市","city_kana":"ウオヅシ","town":"新宿","town_kana":"シンジュク","prefecture_code":16},"0867":{"zip_code":"9370867","prefecture":"富山県","prefecture_kana":"トヤマケン","city":"魚津市","city_kana":"ウオヅシ","town":"真成寺町","town_kana":"シンジョウジマチ","prefecture_code":16},"0059":{"zip_code":"9370059","prefecture":"富山県","prefecture_kana":"トヤマケン","city":"魚津市","city_kana":"ウオヅシ","town":"末広町","town_kana":"スエヒロチョウ","prefecture_code":16},"0851":{"zip_code":"9370851","prefecture":"富山県","prefecture_kana":"トヤマケン","city":"魚津市","city_kana":"ウオヅシ","town":"住吉","town_kana":"スミヨシ","prefecture_code":16},"0056":{"zip_code":"9370056","prefecture":"富山県","prefecture_kana":"トヤマケン","city":"魚津市","city_kana":"ウオヅシ","town":"諏訪町","town_kana":"スワマチ","prefecture_code":16},"0815":{"zip_code":"9370815","prefecture":"富山県","prefecture_kana":"トヤマケン","city":"魚津市","city_kana":"ウオヅシ","town":"大海寺新","town_kana":"ダイカイジシン","prefecture_code":16},"0816":{"zip_code":"9370816","prefecture":"富山県","prefecture_kana":"トヤマケン","city":"魚津市","city_kana":"ウオヅシ","town":"大海寺野","town_kana":"ダイカイジノ","prefecture_code":16},"0807":{"zip_code":"9370807","prefecture":"富山県","prefecture_kana":"トヤマケン","city":"魚津市","city_kana":"ウオヅシ","town":"大光寺","town_kana":"ダイコウジ","prefecture_code":16},"0064":{"zip_code":"9370064","prefecture":"富山県","prefecture_kana":"トヤマケン","city":"魚津市","city_kana":"ウオヅシ","town":"高畠","town_kana":"タカバタケ","prefecture_code":16},"0016":{"zip_code":"9370016","prefecture":"富山県","prefecture_kana":"トヤマケン","city":"魚津市","city_kana":"ウオヅシ","town":"立石","town_kana":"タテイシ","prefecture_code":16},"0055":{"zip_code":"9370055","prefecture":"富山県","prefecture_kana":"トヤマケン","city":"魚津市","city_kana":"ウオヅシ","town":"中央通り","town_kana":"チュウオウドオリ","prefecture_code":16},"0827":{"zip_code":"9370827","prefecture":"富山県","prefecture_kana":"トヤマケン","city":"魚津市","city_kana":"ウオヅシ","town":"坪野","town_kana":"ツボノ","prefecture_code":16},"0013":{"zip_code":"9370013","prefecture":"富山県","prefecture_kana":"トヤマケン","city":"魚津市","city_kana":"ウオヅシ","town":"天神野新","town_kana":"テンジンノシン","prefecture_code":16},"0005":{"zip_code":"9370005","prefecture":"富山県","prefecture_kana":"トヤマケン","city":"魚津市","city_kana":"ウオヅシ","town":"天王","town_kana":"テンノウ","prefecture_code":16},"0031":{"zip_code":"9370031","prefecture":"富山県","prefecture_kana":"トヤマケン","city":"魚津市","city_kana":"ウオヅシ","town":"道坂","town_kana":"ドウザカ","prefecture_code":16},"0034":{"zip_code":"9370034","prefecture":"富山県","prefecture_kana":"トヤマケン","city":"魚津市","city_kana":"ウオヅシ","town":"東城","town_kana":"トウジョウ","prefecture_code":16},"0037":{"zip_code":"9370037","prefecture":"富山県","prefecture_kana":"トヤマケン","city":"魚津市","city_kana":"ウオヅシ","town":"東蔵","town_kana":"トウゾウ","prefecture_code":16},"0806":{"zip_code":"9370806","prefecture":"富山県","prefecture_kana":"トヤマケン","city":"魚津市","city_kana":"ウオヅシ","town":"友道","town_kana":"トモミチ","prefecture_code":16},"0837":{"zip_code":"9370837","prefecture":"富山県","prefecture_kana":"トヤマケン","city":"魚津市","city_kana":"ウオヅシ","town":"虎谷","town_kana":"トラダニ","prefecture_code":16},"0023":{"zip_code":"9370023","prefecture":"富山県","prefecture_kana":"トヤマケン","city":"魚津市","city_kana":"ウオヅシ","town":"長引野","town_kana":"ナガビキノ","prefecture_code":16},"0804":{"zip_code":"9370804","prefecture":"富山県","prefecture_kana":"トヤマケン","city":"魚津市","city_kana":"ウオヅシ","town":"並木町","town_kana":"ナミキチョウ","prefecture_code":16},"0018":{"zip_code":"9370018","prefecture":"富山県","prefecture_kana":"トヤマケン","city":"魚津市","city_kana":"ウオヅシ","town":"西尾崎","town_kana":"ニシオサキ","prefecture_code":16},"0836":{"zip_code":"9370836","prefecture":"富山県","prefecture_kana":"トヤマケン","city":"魚津市","city_kana":"ウオヅシ","town":"鉢","town_kana":"ハチ","prefecture_code":16},"0001":{"zip_code":"9370001","prefecture":"富山県","prefecture_kana":"トヤマケン","city":"魚津市","city_kana":"ウオヅシ","town":"浜経田","town_kana":"ハマキョウデン","prefecture_code":16},"0825":{"zip_code":"9370825","prefecture":"富山県","prefecture_kana":"トヤマケン","city":"魚津市","city_kana":"ウオヅシ","town":"稗畠","town_kana":"ヒエバタケ","prefecture_code":16},"0028":{"zip_code":"9370028","prefecture":"富山県","prefecture_kana":"トヤマケン","city":"魚津市","city_kana":"ウオヅシ","town":"日尾","town_kana":"ヒオ","prefecture_code":16},"0012":{"zip_code":"9370012","prefecture":"富山県","prefecture_kana":"トヤマケン","city":"魚津市","city_kana":"ウオヅシ","town":"東尾崎","town_kana":"ヒガシオザキ","prefecture_code":16},"0008":{"zip_code":"9370008","prefecture":"富山県","prefecture_kana":"トヤマケン","city":"魚津市","city_kana":"ウオヅシ","town":"東町","town_kana":"ヒガシマチ","prefecture_code":16},"0015":{"zip_code":"9370015","prefecture":"富山県","prefecture_kana":"トヤマケン","city":"魚津市","city_kana":"ウオヅシ","town":"東山","town_kana":"ヒガシヤマ","prefecture_code":16},"0058":{"zip_code":"9370058","prefecture":"富山県","prefecture_kana":"トヤマケン","city":"魚津市","city_kana":"ウオヅシ","town":"火の宮町","town_kana":"ヒノミヤマチ","prefecture_code":16},"0038":{"zip_code":"9370038","prefecture":"富山県","prefecture_kana":"トヤマケン","city":"魚津市","city_kana":"ウオヅシ","town":"平沢","town_kana":"ヒラサワ","prefecture_code":16},"0043":{"zip_code":"9370043","prefecture":"富山県","prefecture_kana":"トヤマケン","city":"魚津市","city_kana":"ウオヅシ","town":"袋","town_kana":"フクロ","prefecture_code":16},"0024":{"zip_code":"9370024","prefecture":"富山県","prefecture_kana":"トヤマケン","city":"魚津市","city_kana":"ウオヅシ","town":"布施爪","town_kana":"フセヅメ","prefecture_code":16},"0868":{"zip_code":"9370868","prefecture":"富山県","prefecture_kana":"トヤマケン","city":"魚津市","city_kana":"ウオヅシ","town":"双葉町","town_kana":"フタバチョウ","prefecture_code":16},"0061":{"zip_code":"9370061","prefecture":"富山県","prefecture_kana":"トヤマケン","city":"魚津市","city_kana":"ウオヅシ","town":"仏田","town_kana":"ブツデン","prefecture_code":16},"0062":{"zip_code":"9370062","prefecture":"富山県","prefecture_kana":"トヤマケン","city":"魚津市","city_kana":"ウオヅシ","town":"仏又","town_kana":"ブツマタ","prefecture_code":16},"0862":{"zip_code":"9370862","prefecture":"富山県","prefecture_kana":"トヤマケン","city":"魚津市","city_kana":"ウオヅシ","town":"文化町","town_kana":"ブンカマチ","prefecture_code":16},"0002":{"zip_code":"9370002","prefecture":"富山県","prefecture_kana":"トヤマケン","city":"魚津市","city_kana":"ウオヅシ","town":"平伝寺","town_kana":"ヘイデンジ","prefecture_code":16},"0021":{"zip_code":"9370021","prefecture":"富山県","prefecture_kana":"トヤマケン","city":"魚津市","city_kana":"ウオヅシ","town":"蛇田","town_kana":"ヘビタ","prefecture_code":16},"0805":{"zip_code":"9370805","prefecture":"富山県","prefecture_kana":"トヤマケン","city":"魚津市","city_kana":"ウオヅシ","town":"本江","town_kana":"ホンゴウ","prefecture_code":16},"0803":{"zip_code":"9370803","prefecture":"富山県","prefecture_kana":"トヤマケン","city":"魚津市","city_kana":"ウオヅシ","town":"本江新町","town_kana":"ホンゴウシンマチ","prefecture_code":16},"0866":{"zip_code":"9370866","prefecture":"富山県","prefecture_kana":"トヤマケン","city":"魚津市","city_kana":"ウオヅシ","town":"本町","town_kana":"ホンマチ","prefecture_code":16},"0845":{"zip_code":"9370845","prefecture":"富山県","prefecture_kana":"トヤマケン","city":"魚津市","city_kana":"ウオヅシ","town":"舛方","town_kana":"マスカタ","prefecture_code":16},"0822":{"zip_code":"9370822","prefecture":"富山県","prefecture_kana":"トヤマケン","city":"魚津市","city_kana":"ウオヅシ","town":"舛田","town_kana":"マスダ","prefecture_code":16},"0027":{"zip_code":"9370027","prefecture":"富山県","prefecture_kana":"トヤマケン","city":"魚津市","city_kana":"ウオヅシ","town":"御影","town_kana":"ミカゲ","prefecture_code":16},"0052":{"zip_code":"9370052","prefecture":"富山県","prefecture_kana":"トヤマケン","city":"魚津市","city_kana":"ウオヅシ","town":"緑町","town_kana":"ミドリチョウ","prefecture_code":16},"0057":{"zip_code":"9370057","prefecture":"富山県","prefecture_kana":"トヤマケン","city":"魚津市","city_kana":"ウオヅシ","town":"港町","town_kana":"ミナトマチ","prefecture_code":16},"0853":{"zip_code":"9370853","prefecture":"富山県","prefecture_kana":"トヤマケン","city":"魚津市","city_kana":"ウオヅシ","town":"宮津","town_kana":"ミヤヅ","prefecture_code":16},"0053":{"zip_code":"9370053","prefecture":"富山県","prefecture_kana":"トヤマケン","city":"魚津市","city_kana":"ウオヅシ","town":"村木町","town_kana":"ムラキマチ","prefecture_code":16},"0824":{"zip_code":"9370824","prefecture":"富山県","prefecture_kana":"トヤマケン","city":"魚津市","city_kana":"ウオヅシ","town":"室田","town_kana":"ムロダ","prefecture_code":16},"0068":[{"zip_code":"9370068","prefecture":"富山県","prefecture_kana":"トヤマケン","city":"魚津市","city_kana":"ウオヅシ","town":"本新","town_kana":"モトシン","prefecture_code":16},{"zip_code":"9370068","prefecture":"富山県","prefecture_kana":"トヤマケン","city":"魚津市","city_kana":"ウオヅシ","town":"本新町","town_kana":"モトシンマチ","prefecture_code":16}],"0854":{"zip_code":"9370854","prefecture":"富山県","prefecture_kana":"トヤマケン","city":"魚津市","city_kana":"ウオヅシ","town":"弥源寺","town_kana":"ヤゲンジ","prefecture_code":16},"0823":{"zip_code":"9370823","prefecture":"富山県","prefecture_kana":"トヤマケン","city":"魚津市","city_kana":"ウオヅシ","town":"湯上","town_kana":"ユノエ","prefecture_code":16},"0044":{"zip_code":"9370044","prefecture":"富山県","prefecture_kana":"トヤマケン","city":"魚津市","city_kana":"ウオヅシ","town":"横枕","town_kana":"ヨコマクラ","prefecture_code":16},"0842":{"zip_code":"9370842","prefecture":"富山県","prefecture_kana":"トヤマケン","city":"魚津市","city_kana":"ウオヅシ","town":"吉野","town_kana":"ヨシノ","prefecture_code":16},"0042":{"zip_code":"9370042","prefecture":"富山県","prefecture_kana":"トヤマケン","city":"魚津市","city_kana":"ウオヅシ","town":"六郎丸","town_kana":"ロクロウマル","prefecture_code":16}}