{"0000":{"zip_code":"9380000","prefecture":"富山県","prefecture_kana":"トヤマケン","city":"黒部市","city_kana":"クロベシ","town":"以下に掲載がない場合","town_kana":"イカニケイサイガナイバアイ","prefecture_code":16},"0048":{"zip_code":"9380048","prefecture":"富山県","prefecture_kana":"トヤマケン","city":"黒部市","city_kana":"クロベシ","town":"阿古屋野","town_kana":"アコヤノ","prefecture_code":16},"0032":{"zip_code":"9380032","prefecture":"富山県","prefecture_kana":"トヤマケン","city":"黒部市","city_kana":"クロベシ","town":"天池","town_kana":"アマイケ","prefecture_code":16},"0824":{"zip_code":"9380824","prefecture":"富山県","prefecture_kana":"トヤマケン","city":"黒部市","city_kana":"クロベシ","town":"阿弥陀堂","town_kana":"アミダドウ","prefecture_code":16},"0001":{"zip_code":"9380001","prefecture":"富山県","prefecture_kana":"トヤマケン","city":"黒部市","city_kana":"クロベシ","town":"荒俣","town_kana":"アラマタ","prefecture_code":16},"0044":{"zip_code":"9380044","prefecture":"富山県","prefecture_kana":"トヤマケン","city":"黒部市","city_kana":"クロベシ","town":"荒町","town_kana":"アラマチ","prefecture_code":16},"0004":{"zip_code":"9380004","prefecture":"富山県","prefecture_kana":"トヤマケン","city":"黒部市","city_kana":"クロベシ","town":"飯沢","town_kana":"イイザワ","prefecture_code":16},"0066":{"zip_code":"9380066","prefecture":"富山県","prefecture_kana":"トヤマケン","city":"黒部市","city_kana":"クロベシ","town":"生地","town_kana":"イクジ","prefecture_code":16},"0074":{"zip_code":"9380074","prefecture":"富山県","prefecture_kana":"トヤマケン","city":"黒部市","city_kana":"クロベシ","town":"生地（四十物町）","town_kana":"イクジ(アイモノチョウ)","prefecture_code":16},"0083":{"zip_code":"9380083","prefecture":"富山県","prefecture_kana":"トヤマケン","city":"黒部市","city_kana":"クロベシ","town":"生地（阿弥陀堂）","town_kana":"イクジ(アミダドウ)","prefecture_code":16},"0075":{"zip_code":"9380075","prefecture":"富山県","prefecture_kana":"トヤマケン","city":"黒部市","city_kana":"クロベシ","town":"生地（大町）","town_kana":"イクジ(オオマチ)","prefecture_code":16},"0073":{"zip_code":"9380073","prefecture":"富山県","prefecture_kana":"トヤマケン","city":"黒部市","city_kana":"クロベシ","town":"生地（上町）","town_kana":"イクジ(カミマチ)","prefecture_code":16},"0065":{"zip_code":"9380065","prefecture":"富山県","prefecture_kana":"トヤマケン","city":"黒部市","city_kana":"クロベシ","town":"生地（神明町）","town_kana":"イクジ(シンメイマチ)","prefecture_code":16},"0062":{"zip_code":"9380062","prefecture":"富山県","prefecture_kana":"トヤマケン","city":"黒部市","city_kana":"クロベシ","town":"生地（轟下）","town_kana":"イクジ(トドロキシタ)","prefecture_code":16},"0064":{"zip_code":"9380064","prefecture":"富山県","prefecture_kana":"トヤマケン","city":"黒部市","city_kana":"クロベシ","town":"生地（緑町）","town_kana":"イクジ(ミドリマチ)","prefecture_code":16},"0076":{"zip_code":"9380076","prefecture":"富山県","prefecture_kana":"トヤマケン","city":"黒部市","city_kana":"クロベシ","town":"生地（宮川町）","town_kana":"イクジ(ミヤガワチョウ)","prefecture_code":16},"0082":{"zip_code":"9380082","prefecture":"富山県","prefecture_kana":"トヤマケン","city":"黒部市","city_kana":"クロベシ","town":"生地芦区","town_kana":"イクジアシク","prefecture_code":16},"0084":{"zip_code":"9380084","prefecture":"富山県","prefecture_kana":"トヤマケン","city":"黒部市","city_kana":"クロベシ","town":"生地芦崎","town_kana":"イクジアシザキ","prefecture_code":16},"0081":{"zip_code":"9380081","prefecture":"富山県","prefecture_kana":"トヤマケン","city":"黒部市","city_kana":"クロベシ","town":"生地経新","town_kana":"イクジキョウシン","prefecture_code":16},"0061":{"zip_code":"9380061","prefecture":"富山県","prefecture_kana":"トヤマケン","city":"黒部市","city_kana":"クロベシ","town":"生地神区","town_kana":"イクジシンク","prefecture_code":16},"0072":{"zip_code":"9380072","prefecture":"富山県","prefecture_kana":"トヤマケン","city":"黒部市","city_kana":"クロベシ","town":"生地中区","town_kana":"イクジナカク","prefecture_code":16},"0071":{"zip_code":"9380071","prefecture":"富山県","prefecture_kana":"トヤマケン","city":"黒部市","city_kana":"クロベシ","town":"生地山新","town_kana":"イクジヤマシン","prefecture_code":16},"0085":{"zip_code":"9380085","prefecture":"富山県","prefecture_kana":"トヤマケン","city":"黒部市","city_kana":"クロベシ","town":"生地吉田","town_kana":"イクジヨシダ","prefecture_code":16},"0086":{"zip_code":"9380086","prefecture":"富山県","prefecture_kana":"トヤマケン","city":"黒部市","city_kana":"クロベシ","town":"生地吉田新","town_kana":"イクジヨシダシン","prefecture_code":16},"0063":{"zip_code":"9380063","prefecture":"富山県","prefecture_kana":"トヤマケン","city":"黒部市","city_kana":"クロベシ","town":"生地四ツ屋新","town_kana":"イクジヨツヤシン","prefecture_code":16},"0816":{"zip_code":"9380816","prefecture":"富山県","prefecture_kana":"トヤマケン","city":"黒部市","city_kana":"クロベシ","town":"池尻","town_kana":"イケジリ","prefecture_code":16},"0059":{"zip_code":"9380059","prefecture":"富山県","prefecture_kana":"トヤマケン","city":"黒部市","city_kana":"クロベシ","town":"石田","town_kana":"イシダ","prefecture_code":16},"0057":{"zip_code":"9380057","prefecture":"富山県","prefecture_kana":"トヤマケン","city":"黒部市","city_kana":"クロベシ","town":"石田新","town_kana":"イシダシン","prefecture_code":16},"0835":{"zip_code":"9380835","prefecture":"富山県","prefecture_kana":"トヤマケン","city":"黒部市","city_kana":"クロベシ","town":"石田野","town_kana":"イシダノ","prefecture_code":16},"0043":{"zip_code":"9380043","prefecture":"富山県","prefecture_kana":"トヤマケン","city":"黒部市","city_kana":"クロベシ","town":"犬山","town_kana":"イヌヤマ","prefecture_code":16},"0014":{"zip_code":"9380014","prefecture":"富山県","prefecture_kana":"トヤマケン","city":"黒部市","city_kana":"クロベシ","town":"植木","town_kana":"ウエキ","prefecture_code":16},"0811":{"zip_code":"9380811","prefecture":"富山県","prefecture_kana":"トヤマケン","city":"黒部市","city_kana":"クロベシ","town":"内生谷","town_kana":"ウチュウダニ","prefecture_code":16},"0282":{"zip_code":"9380282","prefecture":"富山県","prefecture_kana":"トヤマケン","city":"黒部市","city_kana":"クロベシ","town":"宇奈月温泉","town_kana":"ウナヅキオンセン","prefecture_code":16},"0177":{"zip_code":"9380177","prefecture":"富山県","prefecture_kana":"トヤマケン","city":"黒部市","city_kana":"クロベシ","town":"宇奈月町愛本新","town_kana":"ウナヅキマチアイモトシン","prefecture_code":16},"0175":{"zip_code":"9380175","prefecture":"富山県","prefecture_kana":"トヤマケン","city":"黒部市","city_kana":"クロベシ","town":"宇奈月町愛本橋爪東官林地内","town_kana":"ウナヅキマチアイモトハシヅメヒガシカンリンチナイ","prefecture_code":16},"0171":{"zip_code":"9380171","prefecture":"富山県","prefecture_kana":"トヤマケン","city":"黒部市","city_kana":"クロベシ","town":"宇奈月町明日","town_kana":"ウナヅキマチアケビ","prefecture_code":16},"0281":{"zip_code":"9380281","prefecture":"富山県","prefecture_kana":"トヤマケン","city":"黒部市","city_kana":"クロベシ","town":"宇奈月町内山","town_kana":"ウナヅキマチウチヤマ","prefecture_code":16},"0862":{"zip_code":"9380862","prefecture":"富山県","prefecture_kana":"トヤマケン","city":"黒部市","city_kana":"クロベシ","town":"宇奈月町浦山","town_kana":"ウナヅキマチウラヤマ","prefecture_code":16},"0274":{"zip_code":"9380274","prefecture":"富山県","prefecture_kana":"トヤマケン","city":"黒部市","city_kana":"クロベシ","town":"宇奈月町音澤（１０００〜）","town_kana":"ウナヅキマチオトザワ(1000-)","prefecture_code":16},"0174":{"zip_code":"9380174","prefecture":"富山県","prefecture_kana":"トヤマケン","city":"黒部市","city_kana":"クロベシ","town":"宇奈月町音澤（１〜９９９）","town_kana":"ウナヅキマチオトザワ(1-999)","prefecture_code":16},"0861":{"zip_code":"9380861","prefecture":"富山県","prefecture_kana":"トヤマケン","city":"黒部市","city_kana":"クロベシ","town":"宇奈月町下立","town_kana":"ウナヅキマチオリタテ","prefecture_code":16},"0863":{"zip_code":"9380863","prefecture":"富山県","prefecture_kana":"トヤマケン","city":"黒部市","city_kana":"クロベシ","town":"宇奈月町熊野","town_kana":"ウナヅキマチクマノ","prefecture_code":16},"0178":{"zip_code":"9380178","prefecture":"富山県","prefecture_kana":"トヤマケン","city":"黒部市","city_kana":"クロベシ","town":"宇奈月町栗虫","town_kana":"ウナヅキマチクリムシ","prefecture_code":16},"0864":{"zip_code":"9380864","prefecture":"富山県","prefecture_kana":"トヤマケン","city":"黒部市","city_kana":"クロベシ","town":"宇奈月町栃屋","town_kana":"ウナヅキマチトチヤ","prefecture_code":16},"0172":{"zip_code":"9380172","prefecture":"富山県","prefecture_kana":"トヤマケン","city":"黒部市","city_kana":"クロベシ","town":"宇奈月町土山","town_kana":"ウナヅキマチドヤマ","prefecture_code":16},"0173":{"zip_code":"9380173","prefecture":"富山県","prefecture_kana":"トヤマケン","city":"黒部市","city_kana":"クロベシ","town":"宇奈月町中谷","town_kana":"ウナヅキマチナカダン","prefecture_code":16},"0176":{"zip_code":"9380176","prefecture":"富山県","prefecture_kana":"トヤマケン","city":"黒部市","city_kana":"クロベシ","town":"宇奈月町中ノ口","town_kana":"ウナヅキマチナカノクチ","prefecture_code":16},"0179":{"zip_code":"9380179","prefecture":"富山県","prefecture_kana":"トヤマケン","city":"黒部市","city_kana":"クロベシ","town":"宇奈月町舟見","town_kana":"ウナヅキマチフナミ","prefecture_code":16},"0006":{"zip_code":"9380006","prefecture":"富山県","prefecture_kana":"トヤマケン","city":"黒部市","city_kana":"クロベシ","town":"大開","town_kana":"オオビラキ","prefecture_code":16},"0054":{"zip_code":"9380054","prefecture":"富山県","prefecture_kana":"トヤマケン","city":"黒部市","city_kana":"クロベシ","town":"岡","town_kana":"オカ","prefecture_code":16},"0801":{"zip_code":"9380801","prefecture":"富山県","prefecture_kana":"トヤマケン","city":"黒部市","city_kana":"クロベシ","town":"荻生","town_kana":"オギュウ","prefecture_code":16},"0825":{"zip_code":"9380825","prefecture":"富山県","prefecture_kana":"トヤマケン","city":"黒部市","city_kana":"クロベシ","town":"尾山","town_kana":"オヤマ","prefecture_code":16},"0836":{"zip_code":"9380836","prefecture":"富山県","prefecture_kana":"トヤマケン","city":"黒部市","city_kana":"クロベシ","town":"鏡野","town_kana":"カガミノ","prefecture_code":16},"0812":{"zip_code":"9380812","prefecture":"富山県","prefecture_kana":"トヤマケン","city":"黒部市","city_kana":"クロベシ","town":"笠破","town_kana":"カサヤブリ","prefecture_code":16},"0022":{"zip_code":"9380022","prefecture":"富山県","prefecture_kana":"トヤマケン","city":"黒部市","city_kana":"クロベシ","town":"金屋","town_kana":"カナヤ","prefecture_code":16},"0814":{"zip_code":"9380814","prefecture":"富山県","prefecture_kana":"トヤマケン","city":"黒部市","city_kana":"クロベシ","town":"嘉例沢","town_kana":"カレイサワ","prefecture_code":16},"0036":{"zip_code":"9380036","prefecture":"富山県","prefecture_kana":"トヤマケン","city":"黒部市","city_kana":"クロベシ","town":"北新","town_kana":"キタシン","prefecture_code":16},"0015":{"zip_code":"9380015","prefecture":"富山県","prefecture_kana":"トヤマケン","city":"黒部市","city_kana":"クロベシ","town":"北野","town_kana":"キタノ","prefecture_code":16},"0805":{"zip_code":"9380805","prefecture":"富山県","prefecture_kana":"トヤマケン","city":"黒部市","city_kana":"クロベシ","town":"吉城寺","town_kana":"キチジョウジ","prefecture_code":16},"0052":{"zip_code":"9380052","prefecture":"富山県","prefecture_kana":"トヤマケン","city":"黒部市","city_kana":"クロベシ","town":"経立野","town_kana":"キョウタテノ","prefecture_code":16},"0013":{"zip_code":"9380013","prefecture":"富山県","prefecture_kana":"トヤマケン","city":"黒部市","city_kana":"クロベシ","town":"沓掛","town_kana":"クツカケ","prefecture_code":16},"0047":{"zip_code":"9380047","prefecture":"富山県","prefecture_kana":"トヤマケン","city":"黒部市","city_kana":"クロベシ","town":"窪野","town_kana":"クボノ","prefecture_code":16},"0803":{"zip_code":"9380803","prefecture":"富山県","prefecture_kana":"トヤマケン","city":"黒部市","city_kana":"クロベシ","town":"栗寺","town_kana":"クリデラ","prefecture_code":16},"0283":{"zip_code":"9380283","prefecture":"富山県","prefecture_kana":"トヤマケン","city":"黒部市","city_kana":"クロベシ","town":"黒部峡谷口","town_kana":"クロベキョウコクグチ","prefecture_code":16},"0011":{"zip_code":"9380011","prefecture":"富山県","prefecture_kana":"トヤマケン","city":"黒部市","city_kana":"クロベシ","town":"黒部新","town_kana":"クロベシン","prefecture_code":16},"0046":{"zip_code":"9380046","prefecture":"富山県","prefecture_kana":"トヤマケン","city":"黒部市","city_kana":"クロベシ","town":"神谷","town_kana":"コンタニ","prefecture_code":16},"0823":{"zip_code":"9380823","prefecture":"富山県","prefecture_kana":"トヤマケン","city":"黒部市","city_kana":"クロベシ","town":"釈迦堂","town_kana":"シャカドウ","prefecture_code":16},"0058":{"zip_code":"9380058","prefecture":"富山県","prefecture_kana":"トヤマケン","city":"黒部市","city_kana":"クロベシ","town":"正光寺新","town_kana":"ショウコウジシン","prefecture_code":16},"0038":{"zip_code":"9380038","prefecture":"富山県","prefecture_kana":"トヤマケン","city":"黒部市","city_kana":"クロベシ","town":"新天","town_kana":"シンテン","prefecture_code":16},"0037":{"zip_code":"9380037","prefecture":"富山県","prefecture_kana":"トヤマケン","city":"黒部市","city_kana":"クロベシ","town":"新牧野","town_kana":"シンマキノ","prefecture_code":16},"0056":{"zip_code":"9380056","prefecture":"富山県","prefecture_kana":"トヤマケン","city":"黒部市","city_kana":"クロベシ","town":"新町","town_kana":"シンマチ","prefecture_code":16},"0045":{"zip_code":"9380045","prefecture":"富山県","prefecture_kana":"トヤマケン","city":"黒部市","city_kana":"クロベシ","town":"田家新","town_kana":"タイエシン","prefecture_code":16},"0837":{"zip_code":"9380837","prefecture":"富山県","prefecture_kana":"トヤマケン","city":"黒部市","city_kana":"クロベシ","town":"田家野","town_kana":"タイエノ","prefecture_code":16},"0026":{"zip_code":"9380026","prefecture":"富山県","prefecture_kana":"トヤマケン","city":"黒部市","city_kana":"クロベシ","town":"田家角内","town_kana":"タイガグチ","prefecture_code":16},"0024":{"zip_code":"9380024","prefecture":"富山県","prefecture_kana":"トヤマケン","city":"黒部市","city_kana":"クロベシ","town":"高橋","town_kana":"タカハシ","prefecture_code":16},"0051":{"zip_code":"9380051","prefecture":"富山県","prefecture_kana":"トヤマケン","city":"黒部市","city_kana":"クロベシ","town":"立野","town_kana":"タテノ","prefecture_code":16},"0813":{"zip_code":"9380813","prefecture":"富山県","prefecture_kana":"トヤマケン","city":"黒部市","city_kana":"クロベシ","town":"田籾","town_kana":"タモミ","prefecture_code":16},"0012":{"zip_code":"9380012","prefecture":"富山県","prefecture_kana":"トヤマケン","city":"黒部市","city_kana":"クロベシ","town":"出島","town_kana":"デジマ","prefecture_code":16},"0042":{"zip_code":"9380042","prefecture":"富山県","prefecture_kana":"トヤマケン","city":"黒部市","city_kana":"クロベシ","town":"天神新","town_kana":"テンジンシン","prefecture_code":16},"0039":{"zip_code":"9380039","prefecture":"富山県","prefecture_kana":"トヤマケン","city":"黒部市","city_kana":"クロベシ","town":"堂田","town_kana":"ドウダ","prefecture_code":16},"0028":{"zip_code":"9380028","prefecture":"富山県","prefecture_kana":"トヤマケン","city":"黒部市","city_kana":"クロベシ","town":"栃沢","town_kana":"トチザワ","prefecture_code":16},"0027":{"zip_code":"9380027","prefecture":"富山県","prefecture_kana":"トヤマケン","city":"黒部市","city_kana":"クロベシ","town":"中新","town_kana":"ナカシン","prefecture_code":16},"0827":{"zip_code":"9380827","prefecture":"富山県","prefecture_kana":"トヤマケン","city":"黒部市","city_kana":"クロベシ","town":"中陣","town_kana":"ナカジン","prefecture_code":16},"0034":{"zip_code":"9380034","prefecture":"富山県","prefecture_kana":"トヤマケン","city":"黒部市","city_kana":"クロベシ","town":"中野","town_kana":"ナカノ","prefecture_code":16},"0033":{"zip_code":"9380033","prefecture":"富山県","prefecture_kana":"トヤマケン","city":"黒部市","city_kana":"クロベシ","town":"中野道","town_kana":"ナカノミチ","prefecture_code":16},"0834":{"zip_code":"9380834","prefecture":"富山県","prefecture_kana":"トヤマケン","city":"黒部市","city_kana":"クロベシ","town":"中山","town_kana":"ナカヤマ","prefecture_code":16},"0055":{"zip_code":"9380055","prefecture":"富山県","prefecture_kana":"トヤマケン","city":"黒部市","city_kana":"クロベシ","town":"浜石田","town_kana":"ハマイシダ","prefecture_code":16},"0002":{"zip_code":"9380002","prefecture":"富山県","prefecture_kana":"トヤマケン","city":"黒部市","city_kana":"クロベシ","town":"飛騨","town_kana":"ヒダ","prefecture_code":16},"0815":{"zip_code":"9380815","prefecture":"富山県","prefecture_kana":"トヤマケン","city":"黒部市","city_kana":"クロベシ","town":"福平","town_kana":"フクヒラ","prefecture_code":16},"0021":{"zip_code":"9380021","prefecture":"富山県","prefecture_kana":"トヤマケン","city":"黒部市","city_kana":"クロベシ","town":"古御堂","town_kana":"フルミドウ","prefecture_code":16},"0822":{"zip_code":"9380822","prefecture":"富山県","prefecture_kana":"トヤマケン","city":"黒部市","city_kana":"クロベシ","town":"別所","town_kana":"ベッショ","prefecture_code":16},"0826":{"zip_code":"9380826","prefecture":"富山県","prefecture_kana":"トヤマケン","city":"黒部市","city_kana":"クロベシ","town":"朴谷","town_kana":"ホオノキダニ","prefecture_code":16},"0041":{"zip_code":"9380041","prefecture":"富山県","prefecture_kana":"トヤマケン","city":"黒部市","city_kana":"クロベシ","town":"堀切","town_kana":"ホリキリ","prefecture_code":16},"0025":{"zip_code":"9380025","prefecture":"富山県","prefecture_kana":"トヤマケン","city":"黒部市","city_kana":"クロベシ","town":"堀切新","town_kana":"ホリキリシン","prefecture_code":16},"0023":{"zip_code":"9380023","prefecture":"富山県","prefecture_kana":"トヤマケン","city":"黒部市","city_kana":"クロベシ","town":"堀高","town_kana":"ホリタカ","prefecture_code":16},"0806":{"zip_code":"9380806","prefecture":"富山県","prefecture_kana":"トヤマケン","city":"黒部市","city_kana":"クロベシ","town":"前沢","town_kana":"マエザワ","prefecture_code":16},"0035":{"zip_code":"9380035","prefecture":"富山県","prefecture_kana":"トヤマケン","city":"黒部市","city_kana":"クロベシ","town":"牧野","town_kana":"マキノ","prefecture_code":16},"0832":{"zip_code":"9380832","prefecture":"富山県","prefecture_kana":"トヤマケン","city":"黒部市","city_kana":"クロベシ","town":"枕野","town_kana":"マクラノ","prefecture_code":16},"0031":{"zip_code":"9380031","prefecture":"富山県","prefecture_kana":"トヤマケン","city":"黒部市","city_kana":"クロベシ","town":"三日市","town_kana":"ミッカイチ","prefecture_code":16},"0831":{"zip_code":"9380831","prefecture":"富山県","prefecture_kana":"トヤマケン","city":"黒部市","city_kana":"クロベシ","town":"宮沢","town_kana":"ミヤザワ","prefecture_code":16},"0804":{"zip_code":"9380804","prefecture":"富山県","prefecture_kana":"トヤマケン","city":"黒部市","city_kana":"クロベシ","town":"宮野","town_kana":"ミヤノ","prefecture_code":16},"0833":{"zip_code":"9380833","prefecture":"富山県","prefecture_kana":"トヤマケン","city":"黒部市","city_kana":"クロベシ","town":"本野","town_kana":"モトノ","prefecture_code":16},"0821":{"zip_code":"9380821","prefecture":"富山県","prefecture_kana":"トヤマケン","city":"黒部市","city_kana":"クロベシ","town":"柳沢","town_kana":"ヤナギサワ","prefecture_code":16},"0049":{"zip_code":"9380049","prefecture":"富山県","prefecture_kana":"トヤマケン","city":"黒部市","city_kana":"クロベシ","town":"山田","town_kana":"ヤマダ","prefecture_code":16},"0807":{"zip_code":"9380807","prefecture":"富山県","prefecture_kana":"トヤマケン","city":"黒部市","city_kana":"クロベシ","town":"山田新","town_kana":"ヤマダシン","prefecture_code":16},"0053":{"zip_code":"9380053","prefecture":"富山県","prefecture_kana":"トヤマケン","city":"黒部市","city_kana":"クロベシ","town":"山立野","town_kana":"ヤマタテノ","prefecture_code":16},"0005":{"zip_code":"9380005","prefecture":"富山県","prefecture_kana":"トヤマケン","city":"黒部市","city_kana":"クロベシ","town":"吉田","town_kana":"ヨシダ","prefecture_code":16},"0003":{"zip_code":"9380003","prefecture":"富山県","prefecture_kana":"トヤマケン","city":"黒部市","city_kana":"クロベシ","town":"六天","town_kana":"ロクテン","prefecture_code":16},"0802":{"zip_code":"9380802","prefecture":"富山県","prefecture_kana":"トヤマケン","city":"黒部市","city_kana":"クロベシ","town":"若栗","town_kana":"ワカグリ","prefecture_code":16},"0101":{"zip_code":"9380101","prefecture":"富山県","prefecture_kana":"トヤマケン","city":"下新川郡入善町","city_kana":"シモニイカワグンニュウゼンマチ","town":"今江","town_kana":"イマエ","prefecture_code":16},"0105":{"zip_code":"9380105","prefecture":"富山県","prefecture_kana":"トヤマケン","city":"下新川郡入善町","city_kana":"シモニイカワグンニュウゼンマチ","town":"中沢","town_kana":"ナカザワ","prefecture_code":16},"0104":{"zip_code":"9380104","prefecture":"富山県","prefecture_kana":"トヤマケン","city":"下新川郡入善町","city_kana":"シモニイカワグンニュウゼンマチ","town":"西中","town_kana":"ニシナカ","prefecture_code":16},"0106":{"zip_code":"9380106","prefecture":"富山県","prefecture_kana":"トヤマケン","city":"下新川郡入善町","city_kana":"シモニイカワグンニュウゼンマチ","town":"野中","town_kana":"ノナカ","prefecture_code":16},"0103":{"zip_code":"9380103","prefecture":"富山県","prefecture_kana":"トヤマケン","city":"下新川郡入善町","city_kana":"シモニイカワグンニュウゼンマチ","town":"舟見","town_kana":"フナミ","prefecture_code":16},"0102":{"zip_code":"9380102","prefecture":"富山県","prefecture_kana":"トヤマケン","city":"下新川郡入善町","city_kana":"シモニイカワグンニュウゼンマチ","town":"古林","town_kana":"フルバヤシ","prefecture_code":16},"0167":{"zip_code":"9380167","prefecture":"富山県","prefecture_kana":"トヤマケン","city":"下新川郡朝日町","city_kana":"シモニイカワグンアサヒマチ","town":"山王","town_kana":"サンノウ","prefecture_code":16},"0169":{"zip_code":"9380169","prefecture":"富山県","prefecture_kana":"トヤマケン","city":"下新川郡朝日町","city_kana":"シモニイカワグンアサヒマチ","town":"下野","town_kana":"シモノ","prefecture_code":16},"0164":{"zip_code":"9380164","prefecture":"富山県","prefecture_kana":"トヤマケン","city":"下新川郡朝日町","city_kana":"シモニイカワグンアサヒマチ","town":"棚山","town_kana":"タナヤマ","prefecture_code":16},"0161":{"zip_code":"9380161","prefecture":"富山県","prefecture_kana":"トヤマケン","city":"下新川郡朝日町","city_kana":"シモニイカワグンアサヒマチ","town":"殿町","town_kana":"トノマチ","prefecture_code":16},"0168":{"zip_code":"9380168","prefecture":"富山県","prefecture_kana":"トヤマケン","city":"下新川郡朝日町","city_kana":"シモニイカワグンアサヒマチ","town":"藤塚（横道）","town_kana":"フジツカ(ヨコミチ)","prefecture_code":16},"0166":{"zip_code":"9380166","prefecture":"富山県","prefecture_kana":"トヤマケン","city":"下新川郡朝日町","city_kana":"シモニイカワグンアサヒマチ","town":"細野","town_kana":"ホソノ","prefecture_code":16},"0162":[{"zip_code":"9380162","prefecture":"富山県","prefecture_kana":"トヤマケン","city":"下新川郡朝日町","city_kana":"シモニイカワグンアサヒマチ","town":"山崎","town_kana":"ヤマザキ","prefecture_code":16},{"zip_code":"9380162","prefecture":"富山県","prefecture_kana":"トヤマケン","city":"下新川郡朝日町","city_kana":"シモニイカワグンアサヒマチ","town":"山崎（岩崎）","town_kana":"ヤマザキ(イワサキ)","prefecture_code":16},{"zip_code":"9380162","prefecture":"富山県","prefecture_kana":"トヤマケン","city":"下新川郡朝日町","city_kana":"シモニイカワグンアサヒマチ","town":"山崎（小在池）","town_kana":"ヤマザキ(コザイケ)","prefecture_code":16},{"zip_code":"9380162","prefecture":"富山県","prefecture_kana":"トヤマケン","city":"下新川郡朝日町","city_kana":"シモニイカワグンアサヒマチ","town":"山崎（越）","town_kana":"ヤマザキ(コシ)","prefecture_code":16},{"zip_code":"9380162","prefecture":"富山県","prefecture_kana":"トヤマケン","city":"下新川郡朝日町","city_kana":"シモニイカワグンアサヒマチ","town":"山崎（辻）","town_kana":"ヤマザキ(ツジ)","prefecture_code":16},{"zip_code":"9380162","prefecture":"富山県","prefecture_kana":"トヤマケン","city":"下新川郡朝日町","city_kana":"シモニイカワグンアサヒマチ","town":"山崎（花房）","town_kana":"ヤマザキ(ハナフサ)","prefecture_code":16},{"zip_code":"9380162","prefecture":"富山県","prefecture_kana":"トヤマケン","city":"下新川郡朝日町","city_kana":"シモニイカワグンアサヒマチ","town":"山崎（羽入）","town_kana":"ヤマザキ(ハニュウ)","prefecture_code":16},{"zip_code":"9380162","prefecture":"富山県","prefecture_kana":"トヤマケン","city":"下新川郡朝日町","city_kana":"シモニイカワグンアサヒマチ","town":"山崎（坊）","town_kana":"ヤマザキ(ボウ)","prefecture_code":16}],"0165":{"zip_code":"9380165","prefecture":"富山県","prefecture_kana":"トヤマケン","city":"下新川郡朝日町","city_kana":"シモニイカワグンアサヒマチ","town":"山崎新","town_kana":"ヤマザキシン","prefecture_code":16},"0163":{"zip_code":"9380163","prefecture":"富山県","prefecture_kana":"トヤマケン","city":"下新川郡朝日町","city_kana":"シモニイカワグンアサヒマチ","town":"湯ノ瀬","town_kana":"ユノセ","prefecture_code":16}}