{"0000":{"zip_code":"9400000","prefecture":"新潟県","prefecture_kana":"ニイガタケン","city":"長岡市","city_kana":"ナガオカシ","town":"","town_kana":"","prefecture_code":15},"1112":{"zip_code":"9401112","prefecture":"新潟県","prefecture_kana":"ニイガタケン","city":"長岡市","city_kana":"ナガオカシ","town":"青木町","town_kana":"アオキマチ","prefecture_code":15},"1145":{"zip_code":"9401145","prefecture":"新潟県","prefecture_kana":"ニイガタケン","city":"長岡市","city_kana":"ナガオカシ","town":"青島町","town_kana":"アオシママチ","prefecture_code":15},"2145":{"zip_code":"9402145","prefecture":"新潟県","prefecture_kana":"ニイガタケン","city":"長岡市","city_kana":"ナガオカシ","town":"青葉台","town_kana":"アオバダイ","prefecture_code":15},"1149":{"zip_code":"9401149","prefecture":"新潟県","prefecture_kana":"ニイガタケン","city":"長岡市","city_kana":"ナガオカシ","town":"青山新町","town_kana":"アオヤマシンマチ","prefecture_code":15},"1148":{"zip_code":"9401148","prefecture":"新潟県","prefecture_kana":"ニイガタケン","city":"長岡市","city_kana":"ナガオカシ","town":"青山町","town_kana":"アオヤママチ","prefecture_code":15},"0147":{"zip_code":"9400147","prefecture":"新潟県","prefecture_kana":"ニイガタケン","city":"長岡市","city_kana":"ナガオカシ","town":"赤谷","town_kana":"アカタニ","prefecture_code":15},"0105":{"zip_code":"9400105","prefecture":"新潟県","prefecture_kana":"ニイガタケン","city":"長岡市","city_kana":"ナガオカシ","town":"明戸","town_kana":"アケト","prefecture_code":15},"0832":{"zip_code":"9400832","prefecture":"新潟県","prefecture_kana":"ニイガタケン","city":"長岡市","city_kana":"ナガオカシ","town":"曙","town_kana":"アケボノ","prefecture_code":15},"0063":{"zip_code":"9400063","prefecture":"新潟県","prefecture_kana":"ニイガタケン","city":"長岡市","city_kana":"ナガオカシ","town":"旭町","town_kana":"アサヒマチ","prefecture_code":15},"0224":{"zip_code":"9400224","prefecture":"新潟県","prefecture_kana":"ニイガタケン","city":"長岡市","city_kana":"ナガオカシ","town":"東町","town_kana":"アズマチョウ","prefecture_code":15},"0806":{"zip_code":"9400806","prefecture":"新潟県","prefecture_kana":"ニイガタケン","city":"長岡市","city_kana":"ナガオカシ","town":"麻生田町","town_kana":"アソウダマチ","prefecture_code":15},"0036":{"zip_code":"9400036","prefecture":"新潟県","prefecture_kana":"ニイガタケン","city":"長岡市","city_kana":"ナガオカシ","town":"愛宕","town_kana":"アタゴ","prefecture_code":15},"2055":{"zip_code":"9402055","prefecture":"新潟県","prefecture_kana":"ニイガタケン","city":"長岡市","city_kana":"ナガオカシ","town":"雨池町","town_kana":"アマイケマチ","prefecture_code":15},"0232":{"zip_code":"9400232","prefecture":"新潟県","prefecture_kana":"ニイガタケン","city":"長岡市","city_kana":"ナガオカシ","town":"天下島","town_kana":"アマガシマ","prefecture_code":15},"0023":{"zip_code":"9400023","prefecture":"新潟県","prefecture_kana":"ニイガタケン","city":"長岡市","city_kana":"ナガオカシ","town":"新町","town_kana":"アラマチ","prefecture_code":15},"0026":{"zip_code":"9400026","prefecture":"新潟県","prefecture_kana":"ニイガタケン","city":"長岡市","city_kana":"ナガオカシ","town":"石内","town_kana":"イシウチ","prefecture_code":15},"0025":{"zip_code":"9400025","prefecture":"新潟県","prefecture_kana":"ニイガタケン","city":"長岡市","city_kana":"ナガオカシ","town":"泉","town_kana":"イズミ","prefecture_code":15},"2032":{"zip_code":"9402032","prefecture":"新潟県","prefecture_kana":"ニイガタケン","city":"長岡市","city_kana":"ナガオカシ","town":"石動町","town_kana":"イスルギマチ","prefecture_code":15},"2117":{"zip_code":"9402117","prefecture":"新潟県","prefecture_kana":"ニイガタケン","city":"長岡市","city_kana":"ナガオカシ","town":"石動南町","town_kana":"イスルギミナミマチ","prefecture_code":15},"0242":{"zip_code":"9400242","prefecture":"新潟県","prefecture_kana":"ニイガタケン","city":"長岡市","city_kana":"ナガオカシ","town":"一之貝","town_kana":"イチノカイ","prefecture_code":15},"0872":{"zip_code":"9400872","prefecture":"新潟県","prefecture_kana":"ニイガタケン","city":"長岡市","city_kana":"ナガオカシ","town":"稲葉町","town_kana":"イナバマチ","prefecture_code":15},"0877":{"zip_code":"9400877","prefecture":"新潟県","prefecture_kana":"ニイガタケン","city":"長岡市","city_kana":"ナガオカシ","town":"稲保","town_kana":"イナホ","prefecture_code":15},"1166":{"zip_code":"9401166","prefecture":"新潟県","prefecture_kana":"ニイガタケン","city":"長岡市","city_kana":"ナガオカシ","town":"今井","town_kana":"イマイ","prefecture_code":15},"0143":{"zip_code":"9400143","prefecture":"新潟県","prefecture_kana":"ニイガタケン","city":"長岡市","city_kana":"ナガオカシ","town":"入塩川","town_kana":"イリシオガワ","prefecture_code":15},"1171":{"zip_code":"9401171","prefecture":"新潟県","prefecture_kana":"ニイガタケン","city":"長岡市","city_kana":"ナガオカシ","town":"岩野仲島","town_kana":"イワノナカジマ","prefecture_code":15},"0074":{"zip_code":"9400074","prefecture":"新潟県","prefecture_kana":"ニイガタケン","city":"長岡市","city_kana":"ナガオカシ","town":"上田町","town_kana":"ウエダマチ","prefecture_code":15},"0237":{"zip_code":"9400237","prefecture":"新潟県","prefecture_kana":"ニイガタケン","city":"長岡市","city_kana":"ナガオカシ","town":"上の原町","town_kana":"ウエノハラマチ","prefecture_code":15},"0123":{"zip_code":"9400123","prefecture":"新潟県","prefecture_kana":"ニイガタケン","city":"長岡市","city_kana":"ナガオカシ","town":"梅野俣","town_kana":"ウメノマタ","prefecture_code":15},"0805":{"zip_code":"9400805","prefecture":"新潟県","prefecture_kana":"ニイガタケン","city":"長岡市","city_kana":"ナガオカシ","town":"浦瀬町","town_kana":"ウラセマチ","prefecture_code":15},"2303":{"zip_code":"9402303","prefecture":"新潟県","prefecture_kana":"ニイガタケン","city":"長岡市","city_kana":"ナガオカシ","town":"瓜生","town_kana":"ウリュウ","prefecture_code":15},"2056":{"zip_code":"9402056","prefecture":"新潟県","prefecture_kana":"ニイガタケン","city":"長岡市","city_kana":"ナガオカシ","town":"王番田町","town_kana":"オウバデンマチ","prefecture_code":15},"2059":{"zip_code":"9402059","prefecture":"新潟県","prefecture_kana":"ニイガタケン","city":"長岡市","city_kana":"ナガオカシ","town":"大荒戸町","town_kana":"オオアラトマチ","prefecture_code":15},"0148":{"zip_code":"9400148","prefecture":"新潟県","prefecture_kana":"ニイガタケン","city":"長岡市","city_kana":"ナガオカシ","town":"大川戸","town_kana":"オオカワド","prefecture_code":15},"1137":{"zip_code":"9401137","prefecture":"新潟県","prefecture_kana":"ニイガタケン","city":"長岡市","city_kana":"ナガオカシ","town":"大川原町","town_kana":"オオガワラマチ","prefecture_code":15},"2104":{"zip_code":"9402104","prefecture":"新潟県","prefecture_kana":"ニイガタケン","city":"長岡市","city_kana":"ナガオカシ","town":"大島新町","town_kana":"オオジマシンマチ","prefecture_code":15},"2112":{"zip_code":"9402112","prefecture":"新潟県","prefecture_kana":"ニイガタケン","city":"長岡市","city_kana":"ナガオカシ","town":"大島本町","town_kana":"オオジマホンチョウ","prefecture_code":15},"2156":{"zip_code":"9402156","prefecture":"新潟県","prefecture_kana":"ニイガタケン","city":"長岡市","city_kana":"ナガオカシ","town":"大積折渡町","town_kana":"オオヅミオリワタリマチ","prefecture_code":15},"2155":{"zip_code":"9402155","prefecture":"新潟県","prefecture_kana":"ニイガタケン","city":"長岡市","city_kana":"ナガオカシ","town":"大積熊上町","town_kana":"オオヅミクマガミマチ","prefecture_code":15},"2153":{"zip_code":"9402153","prefecture":"新潟県","prefecture_kana":"ニイガタケン","city":"長岡市","city_kana":"ナガオカシ","town":"大積千本町","town_kana":"オオヅミセンボンマチ","prefecture_code":15},"2158":{"zip_code":"9402158","prefecture":"新潟県","prefecture_kana":"ニイガタケン","city":"長岡市","city_kana":"ナガオカシ","town":"大積善間町","town_kana":"オオヅミゼンママチ","prefecture_code":15},"2152":{"zip_code":"9402152","prefecture":"新潟県","prefecture_kana":"ニイガタケン","city":"長岡市","city_kana":"ナガオカシ","town":"大積高鳥町","town_kana":"オオヅミタカトリマチ","prefecture_code":15},"2154":{"zip_code":"9402154","prefecture":"新潟県","prefecture_kana":"ニイガタケン","city":"長岡市","city_kana":"ナガオカシ","town":"大積田代町","town_kana":"オオヅミタシロマチ","prefecture_code":15},"2151":{"zip_code":"9402151","prefecture":"新潟県","prefecture_kana":"ニイガタケン","city":"長岡市","city_kana":"ナガオカシ","town":"大積灰下町","town_kana":"オオヅミハイゲマチ","prefecture_code":15},"2157":{"zip_code":"9402157","prefecture":"新潟県","prefecture_kana":"ニイガタケン","city":"長岡市","city_kana":"ナガオカシ","town":"大積三島谷町","town_kana":"オオヅミミシマダニマチ","prefecture_code":15},"2146":{"zip_code":"9402146","prefecture":"新潟県","prefecture_kana":"ニイガタケン","city":"長岡市","city_kana":"ナガオカシ","town":"大積町","town_kana":"オオヅミマチ","prefecture_code":15},"0062":{"zip_code":"9400062","prefecture":"新潟県","prefecture_kana":"ニイガタケン","city":"長岡市","city_kana":"ナガオカシ","town":"大手通","town_kana":"オオテドオリ","prefecture_code":15},"2305":{"zip_code":"9402305","prefecture":"新潟県","prefecture_kana":"ニイガタケン","city":"長岡市","city_kana":"ナガオカシ","town":"大野","town_kana":"オオノ","prefecture_code":15},"0844":{"zip_code":"9400844","prefecture":"新潟県","prefecture_kana":"ニイガタケン","city":"長岡市","city_kana":"ナガオカシ","town":"大町","town_kana":"オオマチ","prefecture_code":15},"1167":{"zip_code":"9401167","prefecture":"新潟県","prefecture_kana":"ニイガタケン","city":"長岡市","city_kana":"ナガオカシ","town":"大宮町","town_kana":"オオミヤマチ","prefecture_code":15},"2113":{"zip_code":"9402113","prefecture":"新潟県","prefecture_kana":"ニイガタケン","city":"長岡市","city_kana":"ナガオカシ","town":"大山","town_kana":"オオヤマ","prefecture_code":15},"0857":{"zip_code":"9400857","prefecture":"新潟県","prefecture_kana":"ニイガタケン","city":"長岡市","city_kana":"ナガオカシ","town":"沖田","town_kana":"オキタ","prefecture_code":15},"2012":{"zip_code":"9402012","prefecture":"新潟県","prefecture_kana":"ニイガタケン","city":"長岡市","city_kana":"ナガオカシ","town":"荻野","town_kana":"オギノ","prefecture_code":15},"0812":{"zip_code":"9400812","prefecture":"新潟県","prefecture_kana":"ニイガタケン","city":"長岡市","city_kana":"ナガオカシ","town":"乙吉町","town_kana":"オトヨシマチ","prefecture_code":15},"0071":{"zip_code":"9400071","prefecture":"新潟県","prefecture_kana":"ニイガタケン","city":"長岡市","city_kana":"ナガオカシ","town":"表町","town_kana":"オモテマチ","prefecture_code":15},"2134":{"zip_code":"9402134","prefecture":"新潟県","prefecture_kana":"ニイガタケン","city":"長岡市","city_kana":"ナガオカシ","town":"親沢町","town_kana":"オヤザワマチ","prefecture_code":15},"0828":{"zip_code":"9400828","prefecture":"新潟県","prefecture_kana":"ニイガタケン","city":"長岡市","city_kana":"ナガオカシ","town":"御山町","town_kana":"オヤマチョウ","prefecture_code":15},"0822":{"zip_code":"9400822","prefecture":"新潟県","prefecture_kana":"ニイガタケン","city":"長岡市","city_kana":"ナガオカシ","town":"柿町","town_kana":"カギマチ","prefecture_code":15},"0088":{"zip_code":"9400088","prefecture":"新潟県","prefecture_kana":"ニイガタケン","city":"長岡市","city_kana":"ナガオカシ","town":"柏町","town_kana":"カシワチョウ","prefecture_code":15},"0096":{"zip_code":"9400096","prefecture":"新潟県","prefecture_kana":"ニイガタケン","city":"長岡市","city_kana":"ナガオカシ","town":"春日","town_kana":"カスガ","prefecture_code":15},"1143":{"zip_code":"9401143","prefecture":"新潟県","prefecture_kana":"ニイガタケン","city":"長岡市","city_kana":"ナガオカシ","town":"片田町","town_kana":"カタダマチ","prefecture_code":15},"0041":{"zip_code":"9400041","prefecture":"新潟県","prefecture_kana":"ニイガタケン","city":"長岡市","city_kana":"ナガオカシ","town":"学校町","town_kana":"ガッコウチョウ","prefecture_code":15},"0803":{"zip_code":"9400803","prefecture":"新潟県","prefecture_kana":"ニイガタケン","city":"長岡市","city_kana":"ナガオカシ","town":"加津保町","town_kana":"カツボマチ","prefecture_code":15},"0802":{"zip_code":"9400802","prefecture":"新潟県","prefecture_kana":"ニイガタケン","city":"長岡市","city_kana":"ナガオカシ","town":"桂町","town_kana":"カツラマチ","prefecture_code":15},"0135":{"zip_code":"9400135","prefecture":"新潟県","prefecture_kana":"ニイガタケン","city":"長岡市","city_kana":"ナガオカシ","town":"金沢","town_kana":"カナザワ","prefecture_code":15},"1153":{"zip_code":"9401153","prefecture":"新潟県","prefecture_kana":"ニイガタケン","city":"長岡市","city_kana":"ナガオカシ","town":"要町","town_kana":"カナメチョウ","prefecture_code":15},"0045":{"zip_code":"9400045","prefecture":"新潟県","prefecture_kana":"ニイガタケン","city":"長岡市","city_kana":"ナガオカシ","town":"金房","town_kana":"カネフサ","prefecture_code":15},"0221":{"zip_code":"9400221","prefecture":"新潟県","prefecture_kana":"ニイガタケン","city":"長岡市","city_kana":"ナガオカシ","town":"金町","town_kana":"カネマチ","prefecture_code":15},"1172":{"zip_code":"9401172","prefecture":"新潟県","prefecture_kana":"ニイガタケン","city":"長岡市","city_kana":"ナガオカシ","town":"釜ケ島","town_kana":"カマガシマ","prefecture_code":15},"1114":{"zip_code":"9401114","prefecture":"新潟県","prefecture_kana":"ニイガタケン","city":"長岡市","city_kana":"ナガオカシ","town":"釜沢町","town_kana":"カマザワマチ","prefecture_code":15},"2314":{"zip_code":"9402314","prefecture":"新潟県","prefecture_kana":"ニイガタケン","city":"長岡市","city_kana":"ナガオカシ","town":"上岩井","town_kana":"カミイワイ","prefecture_code":15},"0116":{"zip_code":"9400116","prefecture":"新潟県","prefecture_kana":"ニイガタケン","city":"長岡市","city_kana":"ナガオカシ","town":"上樫出","town_kana":"カミカシイデ","prefecture_code":15},"0128":{"zip_code":"9400128","prefecture":"新潟県","prefecture_kana":"ニイガタケン","city":"長岡市","city_kana":"ナガオカシ","town":"上塩","town_kana":"カミシオ","prefecture_code":15},"2136":{"zip_code":"9402136","prefecture":"新潟県","prefecture_kana":"ニイガタケン","city":"長岡市","city_kana":"ナガオカシ","town":"上富岡","town_kana":"カミトミオカ","prefecture_code":15},"2137":{"zip_code":"9402137","prefecture":"新潟県","prefecture_kana":"ニイガタケン","city":"長岡市","city_kana":"ナガオカシ","town":"上富岡町","town_kana":"カミトミオカマチ","prefecture_code":15},"2033":{"zip_code":"9402033","prefecture":"新潟県","prefecture_kana":"ニイガタケン","city":"長岡市","city_kana":"ナガオカシ","town":"上除町","town_kana":"カミノゾキマチ","prefecture_code":15},"2034":{"zip_code":"9402034","prefecture":"新潟県","prefecture_kana":"ニイガタケン","city":"長岡市","city_kana":"ナガオカシ","town":"上除町西","town_kana":"カミノゾキマチニシ","prefecture_code":15},"2004":{"zip_code":"9402004","prefecture":"新潟県","prefecture_kana":"ニイガタケン","city":"長岡市","city_kana":"ナガオカシ","town":"上野町","town_kana":"カミノマチ","prefecture_code":15},"1144":{"zip_code":"9401144","prefecture":"新潟県","prefecture_kana":"ニイガタケン","city":"長岡市","city_kana":"ナガオカシ","town":"上前島町","town_kana":"カミマエジママチ","prefecture_code":15},"2471":{"zip_code":"9402471","prefecture":"新潟県","prefecture_kana":"ニイガタケン","city":"長岡市","city_kana":"ナガオカシ","town":"上柳町","town_kana":"カミヤナギマチ","prefecture_code":15},"0884":{"zip_code":"9400884","prefecture":"新潟県","prefecture_kana":"ニイガタケン","city":"長岡市","city_kana":"ナガオカシ","town":"亀貝町","town_kana":"カメガイマチ","prefecture_code":15},"0801":{"zip_code":"9400801","prefecture":"新潟県","prefecture_kana":"ニイガタケン","city":"長岡市","city_kana":"ナガオカシ","town":"亀崎町","town_kana":"カメザキマチ","prefecture_code":15},"0201":{"zip_code":"9400201","prefecture":"新潟県","prefecture_kana":"ニイガタケン","city":"長岡市","city_kana":"ナガオカシ","town":"鴉ケ島","town_kana":"カラスガシマ","prefecture_code":15},"0243":{"zip_code":"9400243","prefecture":"新潟県","prefecture_kana":"ニイガタケン","city":"長岡市","city_kana":"ナガオカシ","town":"軽井沢","town_kana":"カルイザワ","prefecture_code":15},"0864":{"zip_code":"9400864","prefecture":"新潟県","prefecture_kana":"ニイガタケン","city":"長岡市","city_kana":"ナガオカシ","town":"川崎","town_kana":"カワサキ","prefecture_code":15},"0861":{"zip_code":"9400861","prefecture":"新潟県","prefecture_kana":"ニイガタケン","city":"長岡市","city_kana":"ナガオカシ","town":"川崎町","town_kana":"カワサキマチ","prefecture_code":15},"2058":{"zip_code":"9402058","prefecture":"新潟県","prefecture_kana":"ニイガタケン","city":"長岡市","city_kana":"ナガオカシ","town":"河根川町","town_kana":"カワネガワマチ","prefecture_code":15},"2463":{"zip_code":"9402463","prefecture":"新潟県","prefecture_kana":"ニイガタケン","city":"長岡市","city_kana":"ナガオカシ","town":"川袋町","town_kana":"カワブクロマチ","prefecture_code":15},"0001":{"zip_code":"9400001","prefecture":"新潟県","prefecture_kana":"ニイガタケン","city":"長岡市","city_kana":"ナガオカシ","town":"川辺町","town_kana":"カワベマチ","prefecture_code":15},"0153":{"zip_code":"9400153","prefecture":"新潟県","prefecture_kana":"ニイガタケン","city":"長岡市","city_kana":"ナガオカシ","town":"寒沢","town_kana":"カンザワ","prefecture_code":15},"2474":{"zip_code":"9402474","prefecture":"新潟県","prefecture_kana":"ニイガタケン","city":"長岡市","city_kana":"ナガオカシ","town":"雁島町","town_kana":"ガンジママチ","prefecture_code":15},"0052":{"zip_code":"9400052","prefecture":"新潟県","prefecture_kana":"ニイガタケン","city":"長岡市","city_kana":"ナガオカシ","town":"神田町","town_kana":"カンダマチ","prefecture_code":15},"0067":{"zip_code":"9400067","prefecture":"新潟県","prefecture_kana":"ニイガタケン","city":"長岡市","city_kana":"ナガオカシ","town":"関東町","town_kana":"カントウマチ","prefecture_code":15},"2322":{"zip_code":"9402322","prefecture":"新潟県","prefecture_kana":"ニイガタケン","city":"長岡市","city_kana":"ナガオカシ","town":"気比宮","town_kana":"キイノミヤ","prefecture_code":15},"0014":{"zip_code":"9400014","prefecture":"新潟県","prefecture_kana":"ニイガタケン","city":"長岡市","city_kana":"ナガオカシ","town":"北園町","town_kana":"キタゾノマチ","prefecture_code":15},"0241":{"zip_code":"9400241","prefecture":"新潟県","prefecture_kana":"ニイガタケン","city":"長岡市","city_kana":"ナガオカシ","town":"北荷頃","town_kana":"キタニゴロ","prefecture_code":15},"2121":{"zip_code":"9402121","prefecture":"新潟県","prefecture_kana":"ニイガタケン","city":"長岡市","city_kana":"ナガオカシ","town":"喜多町","town_kana":"キタマチ","prefecture_code":15},"2114":{"zip_code":"9402114","prefecture":"新潟県","prefecture_kana":"ニイガタケン","city":"長岡市","city_kana":"ナガオカシ","town":"北山","town_kana":"キタヤマ","prefecture_code":15},"2124":{"zip_code":"9402124","prefecture":"新潟県","prefecture_kana":"ニイガタケン","city":"長岡市","city_kana":"ナガオカシ","town":"希望が丘","town_kana":"キボウガオカ","prefecture_code":15},"2125":{"zip_code":"9402125","prefecture":"新潟県","prefecture_kana":"ニイガタケン","city":"長岡市","city_kana":"ナガオカシ","town":"希望が丘南","town_kana":"キボウガオカミナミ","prefecture_code":15},"0254":{"zip_code":"9400254","prefecture":"新潟県","prefecture_kana":"ニイガタケン","city":"長岡市","city_kana":"ナガオカシ","town":"木山沢","town_kana":"キヤマザワ","prefecture_code":15},"0121":{"zip_code":"9400121","prefecture":"新潟県","prefecture_kana":"ニイガタケン","city":"長岡市","city_kana":"ナガオカシ","town":"九川","town_kana":"クカワ","prefecture_code":15},"0085":{"zip_code":"9400085","prefecture":"新潟県","prefecture_kana":"ニイガタケン","city":"長岡市","city_kana":"ナガオカシ","town":"草生津","town_kana":"クソウヅ","prefecture_code":15},"0113":{"zip_code":"9400113","prefecture":"新潟県","prefecture_kana":"ニイガタケン","city":"長岡市","city_kana":"ナガオカシ","town":"熊袋","town_kana":"クマノフクロ","prefecture_code":15},"2046":{"zip_code":"9402046","prefecture":"新潟県","prefecture_kana":"ニイガタケン","city":"長岡市","city_kana":"ナガオカシ","town":"雲出町","town_kana":"クモイデマチ","prefecture_code":15},"0155":{"zip_code":"9400155","prefecture":"新潟県","prefecture_kana":"ニイガタケン","city":"長岡市","city_kana":"ナガオカシ","town":"栗山沢","town_kana":"クリヤマザワ","prefecture_code":15},"0007":{"zip_code":"9400007","prefecture":"新潟県","prefecture_kana":"ニイガタケン","city":"長岡市","city_kana":"ナガオカシ","town":"黒津町","town_kana":"クロヅマチ","prefecture_code":15},"0054":{"zip_code":"9400054","prefecture":"新潟県","prefecture_kana":"ニイガタケン","city":"長岡市","city_kana":"ナガオカシ","town":"稽古町","town_kana":"ケイコチョウ","prefecture_code":15},"0033":{"zip_code":"9400033","prefecture":"新潟県","prefecture_kana":"ニイガタケン","city":"長岡市","city_kana":"ナガオカシ","town":"今朝白","town_kana":"ケサジロ","prefecture_code":15},"1146":{"zip_code":"9401146","prefecture":"新潟県","prefecture_kana":"ニイガタケン","city":"長岡市","city_kana":"ナガオカシ","town":"下条町","town_kana":"ゲジョウマチ","prefecture_code":15},"2015":{"zip_code":"9402015","prefecture":"新潟県","prefecture_kana":"ニイガタケン","city":"長岡市","city_kana":"ナガオカシ","town":"江陽","town_kana":"コウヨウ","prefecture_code":15},"2102":{"zip_code":"9402102","prefecture":"新潟県","prefecture_kana":"ニイガタケン","city":"長岡市","city_kana":"ナガオカシ","town":"小沢町","town_kana":"コザワマチ","prefecture_code":15},"2106":{"zip_code":"9402106","prefecture":"新潟県","prefecture_kana":"ニイガタケン","city":"長岡市","city_kana":"ナガオカシ","town":"古正寺","town_kana":"コショウジ","prefecture_code":15},"2103":{"zip_code":"9402103","prefecture":"新潟県","prefecture_kana":"ニイガタケン","city":"長岡市","city_kana":"ナガオカシ","town":"古正寺町","town_kana":"コショウジマチ","prefecture_code":15},"0883":{"zip_code":"9400883","prefecture":"新潟県","prefecture_kana":"ニイガタケン","city":"長岡市","city_kana":"ナガオカシ","town":"小曽根町","town_kana":"コゾネマチ","prefecture_code":15},"2036":{"zip_code":"9402036","prefecture":"新潟県","prefecture_kana":"ニイガタケン","city":"長岡市","city_kana":"ナガオカシ","town":"五反田町","town_kana":"ゴタンダマチ","prefecture_code":15},"0211":{"zip_code":"9400211","prefecture":"新潟県","prefecture_kana":"ニイガタケン","city":"長岡市","city_kana":"ナガオカシ","town":"小貫","town_kana":"コツナギ","prefecture_code":15},"0038":{"zip_code":"9400038","prefecture":"新潟県","prefecture_kana":"ニイガタケン","city":"長岡市","city_kana":"ナガオカシ","town":"琴平","town_kana":"コトヒラ","prefecture_code":15},"0015":{"zip_code":"9400015","prefecture":"新潟県","prefecture_kana":"ニイガタケン","city":"長岡市","city_kana":"ナガオカシ","town":"寿","town_kana":"コトブキ","prefecture_code":15},"0056":{"zip_code":"9400056","prefecture":"新潟県","prefecture_kana":"ニイガタケン","city":"長岡市","city_kana":"ナガオカシ","town":"呉服町","town_kana":"ゴフクマチ","prefecture_code":15},"0146":{"zip_code":"9400146","prefecture":"新潟県","prefecture_kana":"ニイガタケン","city":"長岡市","city_kana":"ナガオカシ","town":"小向","town_kana":"コムカイ","prefecture_code":15},"2133":{"zip_code":"9402133","prefecture":"新潟県","prefecture_kana":"ニイガタケン","city":"長岡市","city_kana":"ナガオカシ","town":"才津西町","town_kana":"サイヅニシマチ","prefecture_code":15},"2131":{"zip_code":"9402131","prefecture":"新潟県","prefecture_kana":"ニイガタケン","city":"長岡市","city_kana":"ナガオカシ","town":"才津東町","town_kana":"サイヅヒガシマチ","prefecture_code":15},"2132":{"zip_code":"9402132","prefecture":"新潟県","prefecture_kana":"ニイガタケン","city":"長岡市","city_kana":"ナガオカシ","town":"才津南町","town_kana":"サイヅミナミマチ","prefecture_code":15},"0084":{"zip_code":"9400084","prefecture":"新潟県","prefecture_kana":"ニイガタケン","city":"長岡市","city_kana":"ナガオカシ","town":"幸町","town_kana":"サイワイチョウ","prefecture_code":15},"0028":{"zip_code":"9400028","prefecture":"新潟県","prefecture_kana":"ニイガタケン","city":"長岡市","city_kana":"ナガオカシ","town":"蔵王","town_kana":"ザオウ","prefecture_code":15},"2026":{"zip_code":"9402026","prefecture":"新潟県","prefecture_kana":"ニイガタケン","city":"長岡市","city_kana":"ナガオカシ","town":"堺東町","town_kana":"サカイヒガシマチ","prefecture_code":15},"2024":{"zip_code":"9402024","prefecture":"新潟県","prefecture_kana":"ニイガタケン","city":"長岡市","city_kana":"ナガオカシ","town":"堺町","town_kana":"サカイマチ","prefecture_code":15},"0205":{"zip_code":"9400205","prefecture":"新潟県","prefecture_kana":"ニイガタケン","city":"長岡市","city_kana":"ナガオカシ","town":"栄町","town_kana":"サカエチョウ","prefecture_code":15},"2321":{"zip_code":"9402321","prefecture":"新潟県","prefecture_kana":"ニイガタケン","city":"長岡市","city_kana":"ナガオカシ","town":"逆谷","town_kana":"サカシダニ","prefecture_code":15},"0065":{"zip_code":"9400065","prefecture":"新潟県","prefecture_kana":"ニイガタケン","city":"長岡市","city_kana":"ナガオカシ","town":"坂之上町","town_kana":"サカノウエマチ","prefecture_code":15},"1113":{"zip_code":"9401113","prefecture":"新潟県","prefecture_kana":"ニイガタケン","city":"長岡市","city_kana":"ナガオカシ","town":"鷺巣町","town_kana":"サギノスマチ","prefecture_code":15},"1161":[{"zip_code":"9401161","prefecture":"新潟県","prefecture_kana":"ニイガタケン","city":"長岡市","city_kana":"ナガオカシ","town":"左近","town_kana":"サコン","prefecture_code":15},{"zip_code":"9401161","prefecture":"新潟県","prefecture_kana":"ニイガタケン","city":"長岡市","city_kana":"ナガオカシ","town":"左近町","town_kana":"サコンマチ","prefecture_code":15}],"0833":{"zip_code":"9400833","prefecture":"新潟県","prefecture_kana":"ニイガタケン","city":"長岡市","city_kana":"ナガオカシ","town":"笹崎","town_kana":"ササザキ","prefecture_code":15},"1101":{"zip_code":"9401101","prefecture":"新潟県","prefecture_kana":"ニイガタケン","city":"長岡市","city_kana":"ナガオカシ","town":"沢田","town_kana":"サワダ","prefecture_code":15},"2472":{"zip_code":"9402472","prefecture":"新潟県","prefecture_kana":"ニイガタケン","city":"長岡市","city_kana":"ナガオカシ","town":"三之宮町","town_kana":"サンノミヤマチ","prefecture_code":15},"1136":{"zip_code":"9401136","prefecture":"新潟県","prefecture_kana":"ニイガタケン","city":"長岡市","city_kana":"ナガオカシ","town":"三俵野町","town_kana":"サンビョウノマチ","prefecture_code":15},"1151":{"zip_code":"9401151","prefecture":"新潟県","prefecture_kana":"ニイガタケン","city":"長岡市","city_kana":"ナガオカシ","town":"三和","town_kana":"サンワ","prefecture_code":15},"1152":{"zip_code":"9401152","prefecture":"新潟県","prefecture_kana":"ニイガタケン","city":"長岡市","city_kana":"ナガオカシ","town":"三和町","town_kana":"サンワマチ","prefecture_code":15},"0129":{"zip_code":"9400129","prefecture":"新潟県","prefecture_kana":"ニイガタケン","city":"長岡市","city_kana":"ナガオカシ","town":"塩新町","town_kana":"シオアラマチ","prefecture_code":15},"0122":{"zip_code":"9400122","prefecture":"新潟県","prefecture_kana":"ニイガタケン","city":"長岡市","city_kana":"ナガオカシ","town":"塩中","town_kana":"シオナカ","prefecture_code":15},"0031":{"zip_code":"9400031","prefecture":"新潟県","prefecture_kana":"ニイガタケン","city":"長岡市","city_kana":"ナガオカシ","town":"地蔵","town_kana":"ジゾウ","prefecture_code":15},"0894":{"zip_code":"9400894","prefecture":"新潟県","prefecture_kana":"ニイガタケン","city":"長岡市","city_kana":"ナガオカシ","town":"七軒町","town_kana":"シチケンマチ","prefecture_code":15},"0098":{"zip_code":"9400098","prefecture":"新潟県","prefecture_kana":"ニイガタケン","city":"長岡市","city_kana":"ナガオカシ","town":"信濃","town_kana":"シナノ","prefecture_code":15},"2057":{"zip_code":"9402057","prefecture":"新潟県","prefecture_kana":"ニイガタケン","city":"長岡市","city_kana":"ナガオカシ","town":"寺宝町","town_kana":"ジホウマチ","prefecture_code":15},"0115":{"zip_code":"9400115","prefecture":"新潟県","prefecture_kana":"ニイガタケン","city":"長岡市","city_kana":"ナガオカシ","town":"下樫出","town_kana":"シモカシイデ","prefecture_code":15},"2304":{"zip_code":"9402304","prefecture":"新潟県","prefecture_kana":"ニイガタケン","city":"長岡市","city_kana":"ナガオカシ","town":"下河根川","town_kana":"シモカワネガワ","prefecture_code":15},"0012":{"zip_code":"9400012","prefecture":"新潟県","prefecture_kana":"ニイガタケン","city":"長岡市","city_kana":"ナガオカシ","town":"下々条","town_kana":"シモゲジョウ","prefecture_code":15},"0011":{"zip_code":"9400011","prefecture":"新潟県","prefecture_kana":"ニイガタケン","city":"長岡市","city_kana":"ナガオカシ","town":"下々条町","town_kana":"シモゲジョウマチ","prefecture_code":15},"0111":{"zip_code":"9400111","prefecture":"新潟県","prefecture_kana":"ニイガタケン","city":"長岡市","city_kana":"ナガオカシ","town":"下塩","town_kana":"シモジオ","prefecture_code":15},"2013":{"zip_code":"9402013","prefecture":"新潟県","prefecture_kana":"ニイガタケン","city":"長岡市","city_kana":"ナガオカシ","town":"下柳","town_kana":"シモヤナギ","prefecture_code":15},"2115":{"zip_code":"9402115","prefecture":"新潟県","prefecture_kana":"ニイガタケン","city":"長岡市","city_kana":"ナガオカシ","town":"下山","town_kana":"シモヤマ","prefecture_code":15},"0002":{"zip_code":"9400002","prefecture":"新潟県","prefecture_kana":"ニイガタケン","city":"長岡市","city_kana":"ナガオカシ","town":"十二潟町","town_kana":"ジュウニガタマチ","prefecture_code":15},"0021":{"zip_code":"9400021","prefecture":"新潟県","prefecture_kana":"ニイガタケン","city":"長岡市","city_kana":"ナガオカシ","town":"城岡","town_kana":"ジョウオカ","prefecture_code":15},"0814":{"zip_code":"9400814","prefecture":"新潟県","prefecture_kana":"ニイガタケン","city":"長岡市","city_kana":"ナガオカシ","town":"成願寺町","town_kana":"ジョウガンジマチ","prefecture_code":15},"0831":{"zip_code":"9400831","prefecture":"新潟県","prefecture_kana":"ニイガタケン","city":"長岡市","city_kana":"ナガオカシ","town":"上条町","town_kana":"ジョウジョウマチ","prefecture_code":15},"0061":{"zip_code":"9400061","prefecture":"新潟県","prefecture_kana":"ニイガタケン","city":"長岡市","city_kana":"ナガオカシ","town":"城内町","town_kana":"ジョウナイチョウ","prefecture_code":15},"1141":{"zip_code":"9401141","prefecture":"新潟県","prefecture_kana":"ニイガタケン","city":"長岡市","city_kana":"ナガオカシ","town":"定明町","town_kana":"ジョウミョウマチ","prefecture_code":15},"0092":{"zip_code":"9400092","prefecture":"新潟県","prefecture_kana":"ニイガタケン","city":"長岡市","city_kana":"ナガオカシ","town":"昭和","town_kana":"ショウワ","prefecture_code":15},"0046":{"zip_code":"9400046","prefecture":"新潟県","prefecture_kana":"ニイガタケン","city":"長岡市","city_kana":"ナガオカシ","town":"四郎丸","town_kana":"シロウマル","prefecture_code":15},"0865":{"zip_code":"9400865","prefecture":"新潟県","prefecture_kana":"ニイガタケン","city":"長岡市","city_kana":"ナガオカシ","town":"四郎丸町","town_kana":"シロウマルマチ","prefecture_code":15},"2041":{"zip_code":"9402041","prefecture":"新潟県","prefecture_kana":"ニイガタケン","city":"長岡市","city_kana":"ナガオカシ","town":"白鳥町","town_kana":"シロトリマチ","prefecture_code":15},"2464":{"zip_code":"9402464","prefecture":"新潟県","prefecture_kana":"ニイガタケン","city":"長岡市","city_kana":"ナガオカシ","town":"新開町","town_kana":"シンカイマチ","prefecture_code":15},"0897":{"zip_code":"9400897","prefecture":"新潟県","prefecture_kana":"ニイガタケン","city":"長岡市","city_kana":"ナガオカシ","town":"新組町","town_kana":"シングミマチ","prefecture_code":15},"0898":{"zip_code":"9400898","prefecture":"新潟県","prefecture_kana":"ニイガタケン","city":"長岡市","city_kana":"ナガオカシ","town":"新組南町","town_kana":"シングミミナミマチ","prefecture_code":15},"0204":{"zip_code":"9400204","prefecture":"新潟県","prefecture_kana":"ニイガタケン","city":"長岡市","city_kana":"ナガオカシ","town":"新栄町","town_kana":"シンサカエチョウ","prefecture_code":15},"2127":{"zip_code":"9402127","prefecture":"新潟県","prefecture_kana":"ニイガタケン","city":"長岡市","city_kana":"ナガオカシ","town":"新産","town_kana":"シンサン","prefecture_code":15},"2128":{"zip_code":"9402128","prefecture":"新潟県","prefecture_kana":"ニイガタケン","city":"長岡市","city_kana":"ナガオカシ","town":"新産東町","town_kana":"シンサンヒガシマチ","prefecture_code":15},"2147":{"zip_code":"9402147","prefecture":"新潟県","prefecture_kana":"ニイガタケン","city":"長岡市","city_kana":"ナガオカシ","town":"新陽","town_kana":"シンヨウ","prefecture_code":15},"0093":{"zip_code":"9400093","prefecture":"新潟県","prefecture_kana":"ニイガタケン","city":"長岡市","city_kana":"ナガオカシ","town":"水道町","town_kana":"スイドウチョウ","prefecture_code":15},"0834":{"zip_code":"9400834","prefecture":"新潟県","prefecture_kana":"ニイガタケン","city":"長岡市","city_kana":"ナガオカシ","town":"末広","town_kana":"スエヒロ","prefecture_code":15},"0144":{"zip_code":"9400144","prefecture":"新潟県","prefecture_kana":"ニイガタケン","city":"長岡市","city_kana":"ナガオカシ","town":"菅畑","town_kana":"スガバタケ","prefecture_code":15},"0044":{"zip_code":"9400044","prefecture":"新潟県","prefecture_kana":"ニイガタケン","city":"長岡市","city_kana":"ナガオカシ","town":"住吉","town_kana":"スミヨシ","prefecture_code":15},"2462":{"zip_code":"9402462","prefecture":"新潟県","prefecture_kana":"ニイガタケン","city":"長岡市","city_kana":"ナガオカシ","town":"李崎町","town_kana":"スモンザキマチ","prefecture_code":15},"0821":{"zip_code":"9400821","prefecture":"新潟県","prefecture_kana":"ニイガタケン","city":"長岡市","city_kana":"ナガオカシ","town":"栖吉町","town_kana":"スヨシマチ","prefecture_code":15},"2045":{"zip_code":"9402045","prefecture":"新潟県","prefecture_kana":"ニイガタケン","city":"長岡市","city_kana":"ナガオカシ","town":"西陵町","town_kana":"セイリョウマチ","prefecture_code":15},"2037":{"zip_code":"9402037","prefecture":"新潟県","prefecture_kana":"ニイガタケン","city":"長岡市","city_kana":"ナガオカシ","town":"関原西町","town_kana":"セキハラニシマチ","prefecture_code":15},"2038":{"zip_code":"9402038","prefecture":"新潟県","prefecture_kana":"ニイガタケン","city":"長岡市","city_kana":"ナガオカシ","town":"関原東町","town_kana":"セキハラヒガシマチ","prefecture_code":15},"2035":{"zip_code":"9402035","prefecture":"新潟県","prefecture_kana":"ニイガタケン","city":"長岡市","city_kana":"ナガオカシ","town":"関原町","town_kana":"セキハラマチ","prefecture_code":15},"2039":{"zip_code":"9402039","prefecture":"新潟県","prefecture_kana":"ニイガタケン","city":"長岡市","city_kana":"ナガオカシ","town":"関原南","town_kana":"セキハラミナミ","prefecture_code":15},"1105":{"zip_code":"9401105","prefecture":"新潟県","prefecture_kana":"ニイガタケン","city":"長岡市","city_kana":"ナガオカシ","town":"摂田屋","town_kana":"セッタヤ","prefecture_code":15},"1104":{"zip_code":"9401104","prefecture":"新潟県","prefecture_kana":"ニイガタケン","city":"長岡市","city_kana":"ナガオカシ","town":"摂田屋町","town_kana":"セッタヤマチ","prefecture_code":15},"2473":{"zip_code":"9402473","prefecture":"新潟県","prefecture_kana":"ニイガタケン","city":"長岡市","city_kana":"ナガオカシ","town":"芹川町","town_kana":"セリカワマチ","prefecture_code":15},"0082":{"zip_code":"9400082","prefecture":"新潟県","prefecture_kana":"ニイガタケン","city":"長岡市","city_kana":"ナガオカシ","town":"千歳","town_kana":"センザイ","prefecture_code":15},"0087":{"zip_code":"9400087","prefecture":"新潟県","prefecture_kana":"ニイガタケン","city":"長岡市","city_kana":"ナガオカシ","town":"千手","town_kana":"センジュ","prefecture_code":15},"2108":{"zip_code":"9402108","prefecture":"新潟県","prefecture_kana":"ニイガタケン","city":"長岡市","city_kana":"ナガオカシ","town":"千秋","town_kana":"センシュウ","prefecture_code":15},"0895":{"zip_code":"9400895","prefecture":"新潟県","prefecture_kana":"ニイガタケン","city":"長岡市","city_kana":"ナガオカシ","town":"大黒町","town_kana":"ダイコクマチ","prefecture_code":15},"0048":{"zip_code":"9400048","prefecture":"新潟県","prefecture_kana":"ニイガタケン","city":"長岡市","city_kana":"ナガオカシ","town":"台町","town_kana":"ダイマチ","prefecture_code":15},"0137":{"zip_code":"9400137","prefecture":"新潟県","prefecture_kana":"ニイガタケン","city":"長岡市","city_kana":"ナガオカシ","town":"平","town_kana":"タイラ","prefecture_code":15},"1139":{"zip_code":"9401139","prefecture":"新潟県","prefecture_kana":"ニイガタケン","city":"長岡市","city_kana":"ナガオカシ","town":"高島町","town_kana":"タカシママチ","prefecture_code":15},"2025":{"zip_code":"9402025","prefecture":"新潟県","prefecture_kana":"ニイガタケン","city":"長岡市","city_kana":"ナガオカシ","town":"高瀬町","town_kana":"タカセマチ","prefecture_code":15},"2143":{"zip_code":"9402143","prefecture":"新潟県","prefecture_kana":"ニイガタケン","city":"長岡市","city_kana":"ナガオカシ","town":"高寺町","town_kana":"タカテラマチ","prefecture_code":15},"2144":{"zip_code":"9402144","prefecture":"新潟県","prefecture_kana":"ニイガタケン","city":"長岡市","city_kana":"ナガオカシ","town":"高頭町","town_kana":"タカトウマチ","prefecture_code":15},"2051":{"zip_code":"9402051","prefecture":"新潟県","prefecture_kana":"ニイガタケン","city":"長岡市","city_kana":"ナガオカシ","town":"高野町","town_kana":"タカノマチ","prefecture_code":15},"0825":{"zip_code":"9400825","prefecture":"新潟県","prefecture_kana":"ニイガタケン","city":"長岡市","city_kana":"ナガオカシ","town":"高畑町","town_kana":"タカバタケマチ","prefecture_code":15},"0824":{"zip_code":"9400824","prefecture":"新潟県","prefecture_kana":"ニイガタケン","city":"長岡市","city_kana":"ナガオカシ","town":"高町","town_kana":"タカマチ","prefecture_code":15},"0003":{"zip_code":"9400003","prefecture":"新潟県","prefecture_kana":"ニイガタケン","city":"長岡市","city_kana":"ナガオカシ","town":"高見","town_kana":"タカミ","prefecture_code":15},"0004":{"zip_code":"9400004","prefecture":"新潟県","prefecture_kana":"ニイガタケン","city":"長岡市","city_kana":"ナガオカシ","town":"高見町","town_kana":"タカミマチ","prefecture_code":15},"0016":{"zip_code":"9400016","prefecture":"新潟県","prefecture_kana":"ニイガタケン","city":"長岡市","city_kana":"ナガオカシ","town":"宝","town_kana":"タカラ","prefecture_code":15},"0127":{"zip_code":"9400127","prefecture":"新潟県","prefecture_kana":"ニイガタケン","city":"長岡市","city_kana":"ナガオカシ","town":"滝之口","town_kana":"タキノクチ","prefecture_code":15},"0226":{"zip_code":"9400226","prefecture":"新潟県","prefecture_kana":"ニイガタケン","city":"長岡市","city_kana":"ナガオカシ","town":"滝の下町","town_kana":"タキノシタマチ","prefecture_code":15},"1138":{"zip_code":"9401138","prefecture":"新潟県","prefecture_kana":"ニイガタケン","city":"長岡市","city_kana":"ナガオカシ","town":"滝谷町","town_kana":"タキヤマチ","prefecture_code":15},"1123":{"zip_code":"9401123","prefecture":"新潟県","prefecture_kana":"ニイガタケン","city":"長岡市","city_kana":"ナガオカシ","town":"竹之高地町","town_kana":"タケノコウチマチ","prefecture_code":15},"1116":{"zip_code":"9401116","prefecture":"新潟県","prefecture_kana":"ニイガタケン","city":"長岡市","city_kana":"ナガオカシ","town":"竹町","town_kana":"タケマチ","prefecture_code":15},"0251":{"zip_code":"9400251","prefecture":"新潟県","prefecture_kana":"ニイガタケン","city":"長岡市","city_kana":"ナガオカシ","town":"田之口","town_kana":"タノクチ","prefecture_code":15},"2324":{"zip_code":"9402324","prefecture":"新潟県","prefecture_kana":"ニイガタケン","city":"長岡市","city_kana":"ナガオカシ","town":"中永","town_kana":"チュウエイ","prefecture_code":15},"0222":{"zip_code":"9400222","prefecture":"新潟県","prefecture_kana":"ニイガタケン","city":"長岡市","city_kana":"ナガオカシ","town":"中央公園","town_kana":"チュウオウコウエン","prefecture_code":15},"0819":{"zip_code":"9400819","prefecture":"新潟県","prefecture_kana":"ニイガタケン","city":"長岡市","city_kana":"ナガオカシ","town":"千代栄町","town_kana":"チヨエマチ","prefecture_code":15},"0212":{"zip_code":"9400212","prefecture":"新潟県","prefecture_kana":"ニイガタケン","city":"長岡市","city_kana":"ナガオカシ","town":"土ケ谷","town_kana":"ツチガヤ","prefecture_code":15},"2014":{"zip_code":"9402014","prefecture":"新潟県","prefecture_kana":"ニイガタケン","city":"長岡市","city_kana":"ナガオカシ","town":"堤町","town_kana":"ツツミチョウ","prefecture_code":15},"2022":{"zip_code":"9402022","prefecture":"新潟県","prefecture_kana":"ニイガタケン","city":"長岡市","city_kana":"ナガオカシ","town":"鉄工町","town_kana":"テッコウチョウ","prefecture_code":15},"2101":{"zip_code":"9402101","prefecture":"新潟県","prefecture_kana":"ニイガタケン","city":"長岡市","city_kana":"ナガオカシ","town":"寺島町","town_kana":"テラジママチ","prefecture_code":15},"2502":{"zip_code":"9402502","prefecture":"新潟県","prefecture_kana":"ニイガタケン","city":"長岡市","city_kana":"ナガオカシ","town":"寺泊","town_kana":"テラドマリ","prefecture_code":15},"2511":{"zip_code":"9402511","prefecture":"新潟県","prefecture_kana":"ニイガタケン","city":"長岡市","city_kana":"ナガオカシ","town":"寺泊円上寺","town_kana":"テラドマリエンジョウジ","prefecture_code":15},"2503":{"zip_code":"9402503","prefecture":"新潟県","prefecture_kana":"ニイガタケン","city":"長岡市","city_kana":"ナガオカシ","town":"寺泊大地","town_kana":"テラドマリオオジ","prefecture_code":15},"2529":{"zip_code":"9402529","prefecture":"新潟県","prefecture_kana":"ニイガタケン","city":"長岡市","city_kana":"ナガオカシ","town":"寺泊大和田","town_kana":"テラドマリオオワダ","prefecture_code":15},"2517":{"zip_code":"9402517","prefecture":"新潟県","prefecture_kana":"ニイガタケン","city":"長岡市","city_kana":"ナガオカシ","town":"寺泊川崎","town_kana":"テラドマリカワサキ","prefecture_code":15},"2512":{"zip_code":"9402512","prefecture":"新潟県","prefecture_kana":"ニイガタケン","city":"長岡市","city_kana":"ナガオカシ","town":"寺泊京ケ入","town_kana":"テラドマリキョウガイリ","prefecture_code":15},"2528":{"zip_code":"9402528","prefecture":"新潟県","prefecture_kana":"ニイガタケン","city":"長岡市","city_kana":"ナガオカシ","town":"寺泊郷本","town_kana":"テラドマリゴウモト","prefecture_code":15},"2527":{"zip_code":"9402527","prefecture":"新潟県","prefecture_kana":"ニイガタケン","city":"長岡市","city_kana":"ナガオカシ","town":"寺泊志戸橋","town_kana":"テラドマリシトバシ","prefecture_code":15},"2516":{"zip_code":"9402516","prefecture":"新潟県","prefecture_kana":"ニイガタケン","city":"長岡市","city_kana":"ナガオカシ","town":"寺泊下曽根","town_kana":"テラドマリシモゾネ","prefecture_code":15},"2523":{"zip_code":"9402523","prefecture":"新潟県","prefecture_kana":"ニイガタケン","city":"長岡市","city_kana":"ナガオカシ","town":"寺泊田頭","town_kana":"テラドマリタガシラ","prefecture_code":15},"2513":{"zip_code":"9402513","prefecture":"新潟県","prefecture_kana":"ニイガタケン","city":"長岡市","city_kana":"ナガオカシ","town":"寺泊当新田","town_kana":"テラドマリトウシンデン","prefecture_code":15},"2518":{"zip_code":"9402518","prefecture":"新潟県","prefecture_kana":"ニイガタケン","city":"長岡市","city_kana":"ナガオカシ","town":"寺泊戸崎","town_kana":"テラドマリトザキ","prefecture_code":15},"2521":{"zip_code":"9402521","prefecture":"新潟県","prefecture_kana":"ニイガタケン","city":"長岡市","city_kana":"ナガオカシ","town":"寺泊年友","town_kana":"テラドマリトシトモ","prefecture_code":15},"2515":{"zip_code":"9402515","prefecture":"新潟県","prefecture_kana":"ニイガタケン","city":"長岡市","city_kana":"ナガオカシ","town":"寺泊中曽根","town_kana":"テラドマリナカゾネ","prefecture_code":15},"2522":{"zip_code":"9402522","prefecture":"新潟県","prefecture_kana":"ニイガタケン","city":"長岡市","city_kana":"ナガオカシ","town":"寺泊夏戸","town_kana":"テラドマリナツド","prefecture_code":15},"2501":{"zip_code":"9402501","prefecture":"新潟県","prefecture_kana":"ニイガタケン","city":"長岡市","city_kana":"ナガオカシ","town":"寺泊野積","town_kana":"テラドマリノヅミ","prefecture_code":15},"2508":{"zip_code":"9402508","prefecture":"新潟県","prefecture_kana":"ニイガタケン","city":"長岡市","city_kana":"ナガオカシ","town":"寺泊引岡","town_kana":"テラドマリヒキオカ","prefecture_code":15},"2514":{"zip_code":"9402514","prefecture":"新潟県","prefecture_kana":"ニイガタケン","city":"長岡市","city_kana":"ナガオカシ","town":"寺泊蛇塚","town_kana":"テラドマリヘビツカ","prefecture_code":15},"2504":{"zip_code":"9402504","prefecture":"新潟県","prefecture_kana":"ニイガタケン","city":"長岡市","city_kana":"ナガオカシ","town":"寺泊弁才天","town_kana":"テラドマリベンザイテン","prefecture_code":15},"2524":{"zip_code":"9402524","prefecture":"新潟県","prefecture_kana":"ニイガタケン","city":"長岡市","city_kana":"ナガオカシ","town":"寺泊松田","town_kana":"テラドマリマツダ","prefecture_code":15},"2525":{"zip_code":"9402525","prefecture":"新潟県","prefecture_kana":"ニイガタケン","city":"長岡市","city_kana":"ナガオカシ","town":"寺泊明ケ谷","town_kana":"テラドマリミョウガダニ","prefecture_code":15},"2505":{"zip_code":"9402505","prefecture":"新潟県","prefecture_kana":"ニイガタケン","city":"長岡市","city_kana":"ナガオカシ","town":"寺泊本弁","town_kana":"テラドマリモトベン","prefecture_code":15},"2506":{"zip_code":"9402506","prefecture":"新潟県","prefecture_kana":"ニイガタケン","city":"長岡市","city_kana":"ナガオカシ","town":"寺泊本山","town_kana":"テラドマリモトヤマ","prefecture_code":15},"2526":{"zip_code":"9402526","prefecture":"新潟県","prefecture_kana":"ニイガタケン","city":"長岡市","city_kana":"ナガオカシ","town":"寺泊山田","town_kana":"テラドマリヤマダ","prefecture_code":15},"2507":{"zip_code":"9402507","prefecture":"新潟県","prefecture_kana":"ニイガタケン","city":"長岡市","city_kana":"ナガオカシ","town":"寺泊吉","town_kana":"テラドマリヨシ","prefecture_code":15},"0008":{"zip_code":"9400008","prefecture":"新潟県","prefecture_kana":"ニイガタケン","city":"長岡市","city_kana":"ナガオカシ","town":"天神町","town_kana":"テンジンマチ","prefecture_code":15},"0043":{"zip_code":"9400043","prefecture":"新潟県","prefecture_kana":"ニイガタケン","city":"長岡市","city_kana":"ナガオカシ","town":"土合","town_kana":"ドアイ","prefecture_code":15},"0847":{"zip_code":"9400847","prefecture":"新潟県","prefecture_kana":"ニイガタケン","city":"長岡市","city_kana":"ナガオカシ","town":"土合町","town_kana":"ドアイマチ","prefecture_code":15},"1131":{"zip_code":"9401131","prefecture":"新潟県","prefecture_kana":"ニイガタケン","city":"長岡市","city_kana":"ナガオカシ","town":"十日町","town_kana":"トオカマチ","prefecture_code":15},"0231":{"zip_code":"9400231","prefecture":"新潟県","prefecture_kana":"ニイガタケン","city":"長岡市","city_kana":"ナガオカシ","town":"栃尾旭町","town_kana":"トチオアサヒチョウ","prefecture_code":15},"0216":{"zip_code":"9400216","prefecture":"新潟県","prefecture_kana":"ニイガタケン","city":"長岡市","city_kana":"ナガオカシ","town":"栃尾新町","town_kana":"トチオアラマチ","prefecture_code":15},"0234":{"zip_code":"9400234","prefecture":"新潟県","prefecture_kana":"ニイガタケン","city":"長岡市","city_kana":"ナガオカシ","town":"栃尾泉","town_kana":"トチオイズミ","prefecture_code":15},"0202":{"zip_code":"9400202","prefecture":"新潟県","prefecture_kana":"ニイガタケン","city":"長岡市","city_kana":"ナガオカシ","town":"栃尾岩野外新田","town_kana":"トチオイワノソトシンデン","prefecture_code":15},"0235":{"zip_code":"9400235","prefecture":"新潟県","prefecture_kana":"ニイガタケン","city":"長岡市","city_kana":"ナガオカシ","town":"栃尾大野","town_kana":"トチオオオノ","prefecture_code":15},"0236":{"zip_code":"9400236","prefecture":"新潟県","prefecture_kana":"ニイガタケン","city":"長岡市","city_kana":"ナガオカシ","town":"栃尾大野町","town_kana":"トチオオオノマチ","prefecture_code":15},"0217":{"zip_code":"9400217","prefecture":"新潟県","prefecture_kana":"ニイガタケン","city":"長岡市","city_kana":"ナガオカシ","town":"栃尾大町","town_kana":"トチオオオマチ","prefecture_code":15},"0218":{"zip_code":"9400218","prefecture":"新潟県","prefecture_kana":"ニイガタケン","city":"長岡市","city_kana":"ナガオカシ","town":"栃尾表町","town_kana":"トチオオモテマチ","prefecture_code":15},"0141":{"zip_code":"9400141","prefecture":"新潟県","prefecture_kana":"ニイガタケン","city":"長岡市","city_kana":"ナガオカシ","town":"栃尾島田","town_kana":"トチオシマダ","prefecture_code":15},"0132":{"zip_code":"9400132","prefecture":"新潟県","prefecture_kana":"ニイガタケン","city":"長岡市","city_kana":"ナガオカシ","town":"栃尾原","town_kana":"トチオハラ","prefecture_code":15},"0134":{"zip_code":"9400134","prefecture":"新潟県","prefecture_kana":"ニイガタケン","city":"長岡市","city_kana":"ナガオカシ","town":"栃尾原町","town_kana":"トチオハラマチ","prefecture_code":15},"0223":{"zip_code":"9400223","prefecture":"新潟県","prefecture_kana":"ニイガタケン","city":"長岡市","city_kana":"ナガオカシ","town":"栃尾本町","town_kana":"トチオホンチョウ","prefecture_code":15},"0233":{"zip_code":"9400233","prefecture":"新潟県","prefecture_kana":"ニイガタケン","city":"長岡市","city_kana":"ナガオカシ","town":"栃尾宮沢","town_kana":"トチオミヤザワ","prefecture_code":15},"0214":{"zip_code":"9400214","prefecture":"新潟県","prefecture_kana":"ニイガタケン","city":"長岡市","city_kana":"ナガオカシ","town":"栃尾山田","town_kana":"トチオヤマダ","prefecture_code":15},"0213":{"zip_code":"9400213","prefecture":"新潟県","prefecture_kana":"ニイガタケン","city":"長岡市","city_kana":"ナガオカシ","town":"栃尾山田町","town_kana":"トチオヤマダチョウ","prefecture_code":15},"0215":{"zip_code":"9400215","prefecture":"新潟県","prefecture_kana":"ニイガタケン","city":"長岡市","city_kana":"ナガオカシ","town":"栃尾町","town_kana":"トチオマチ","prefecture_code":15},"0149":{"zip_code":"9400149","prefecture":"新潟県","prefecture_kana":"ニイガタケン","city":"長岡市","city_kana":"ナガオカシ","town":"栃倉","town_kana":"トチクラ","prefecture_code":15},"0145":{"zip_code":"9400145","prefecture":"新潟県","prefecture_kana":"ニイガタケン","city":"長岡市","city_kana":"ナガオカシ","town":"栃堀","town_kana":"トチボリ","prefecture_code":15},"0064":{"zip_code":"9400064","prefecture":"新潟県","prefecture_kana":"ニイガタケン","city":"長岡市","city_kana":"ナガオカシ","town":"殿町","town_kana":"トノマチ","prefecture_code":15},"0881":{"zip_code":"9400881","prefecture":"新潟県","prefecture_kana":"ニイガタケン","city":"長岡市","city_kana":"ナガオカシ","town":"富島町","town_kana":"トミジママチ","prefecture_code":15},"0836":{"zip_code":"9400836","prefecture":"新潟県","prefecture_kana":"ニイガタケン","city":"長岡市","city_kana":"ナガオカシ","town":"豊田町","town_kana":"トヨダマチ","prefecture_code":15},"1142":{"zip_code":"9401142","prefecture":"新潟県","prefecture_kana":"ニイガタケン","city":"長岡市","city_kana":"ナガオカシ","town":"豊詰町","town_kana":"トヨヅメマチ","prefecture_code":15},"2316":{"zip_code":"9402316","prefecture":"新潟県","prefecture_kana":"ニイガタケン","city":"長岡市","city_kana":"ナガオカシ","town":"鳥越","town_kana":"トリゴエ","prefecture_code":15},"0253":{"zip_code":"9400253","prefecture":"新潟県","prefecture_kana":"ニイガタケン","city":"長岡市","city_kana":"ナガオカシ","town":"中","town_kana":"ナカ","prefecture_code":15},"1135":{"zip_code":"9401135","prefecture":"新潟県","prefecture_kana":"ニイガタケン","city":"長岡市","city_kana":"ナガオカシ","town":"中潟町","town_kana":"ナカガタマチ","prefecture_code":15},"0829":{"zip_code":"9400829","prefecture":"新潟県","prefecture_kana":"ニイガタケン","city":"長岡市","city_kana":"ナガオカシ","town":"長倉","town_kana":"ナガクラ","prefecture_code":15},"0849":{"zip_code":"9400849","prefecture":"新潟県","prefecture_kana":"ニイガタケン","city":"長岡市","city_kana":"ナガオカシ","town":"長倉西町","town_kana":"ナガクラニシマチ","prefecture_code":15},"0826":{"zip_code":"9400826","prefecture":"新潟県","prefecture_kana":"ニイガタケン","city":"長岡市","city_kana":"ナガオカシ","town":"長倉町","town_kana":"ナガクラマチ","prefecture_code":15},"0848":{"zip_code":"9400848","prefecture":"新潟県","prefecture_kana":"ニイガタケン","city":"長岡市","city_kana":"ナガオカシ","town":"長倉南町","town_kana":"ナガクラミナミマチ","prefecture_code":15},"0225":{"zip_code":"9400225","prefecture":"新潟県","prefecture_kana":"ニイガタケン","city":"長岡市","city_kana":"ナガオカシ","town":"仲子町","town_kana":"ナカゴチョウ","prefecture_code":15},"0853":{"zip_code":"9400853","prefecture":"新潟県","prefecture_kana":"ニイガタケン","city":"長岡市","city_kana":"ナガオカシ","town":"中沢","town_kana":"ナカザワ","prefecture_code":15},"0854":{"zip_code":"9400854","prefecture":"新潟県","prefecture_kana":"ニイガタケン","city":"長岡市","city_kana":"ナガオカシ","town":"中沢町","town_kana":"ナカザワマチ","prefecture_code":15},"0094":{"zip_code":"9400094","prefecture":"新潟県","prefecture_kana":"ニイガタケン","city":"長岡市","city_kana":"ナガオカシ","town":"中島","town_kana":"ナカジマ","prefecture_code":15},"0017":{"zip_code":"9400017","prefecture":"新潟県","prefecture_kana":"ニイガタケン","city":"長岡市","city_kana":"ナガオカシ","town":"中瀬","town_kana":"ナカセ","prefecture_code":15},"0874":{"zip_code":"9400874","prefecture":"新潟県","prefecture_kana":"ニイガタケン","city":"長岡市","city_kana":"ナガオカシ","town":"永田","town_kana":"ナガタ","prefecture_code":15},"0873":{"zip_code":"9400873","prefecture":"新潟県","prefecture_kana":"ニイガタケン","city":"長岡市","city_kana":"ナガオカシ","town":"永田町","town_kana":"ナガタマチ","prefecture_code":15},"0053":{"zip_code":"9400053","prefecture":"新潟県","prefecture_kana":"ニイガタケン","city":"長岡市","city_kana":"ナガオカシ","town":"長町","town_kana":"ナガチョウ","prefecture_code":15},"0852":{"zip_code":"9400852","prefecture":"新潟県","prefecture_kana":"ニイガタケン","city":"長岡市","city_kana":"ナガオカシ","town":"中貫町","town_kana":"ナカヌキマチ","prefecture_code":15},"2142":{"zip_code":"9402142","prefecture":"新潟県","prefecture_kana":"ニイガタケン","city":"長岡市","city_kana":"ナガオカシ","town":"長峰町","town_kana":"ナガミネマチ","prefecture_code":15},"2315":{"zip_code":"9402315","prefecture":"新潟県","prefecture_kana":"ニイガタケン","city":"長岡市","city_kana":"ナガオカシ","town":"七日市","town_kana":"ナノカイチ","prefecture_code":15},"2123":{"zip_code":"9402123","prefecture":"新潟県","prefecture_kana":"ニイガタケン","city":"長岡市","city_kana":"ナガオカシ","town":"七日町","town_kana":"ナノカマチ","prefecture_code":15},"2465":{"zip_code":"9402465","prefecture":"新潟県","prefecture_kana":"ニイガタケン","city":"長岡市","city_kana":"ナガオカシ","town":"成沢町","town_kana":"ナリサワマチ","prefecture_code":15},"1164":{"zip_code":"9401164","prefecture":"新潟県","prefecture_kana":"ニイガタケン","city":"長岡市","city_kana":"ナガオカシ","town":"南陽","town_kana":"ナンヨウ","prefecture_code":15},"0875":{"zip_code":"9400875","prefecture":"新潟県","prefecture_kana":"ニイガタケン","city":"長岡市","city_kana":"ナガオカシ","town":"新保","town_kana":"ニイボ","prefecture_code":15},"0876":{"zip_code":"9400876","prefecture":"新潟県","prefecture_kana":"ニイガタケン","city":"長岡市","city_kana":"ナガオカシ","town":"新保町","town_kana":"ニイボマチ","prefecture_code":15},"1121":{"zip_code":"9401121","prefecture":"新潟県","prefecture_kana":"ニイガタケン","city":"長岡市","city_kana":"ナガオカシ","town":"濁沢町","town_kana":"ニゴリサワマチ","prefecture_code":15},"0024":{"zip_code":"9400024","prefecture":"新潟県","prefecture_kana":"ニイガタケン","city":"長岡市","city_kana":"ナガオカシ","town":"西新町","town_kana":"ニシアラマチ","prefecture_code":15},"0817":{"zip_code":"9400817","prefecture":"新潟県","prefecture_kana":"ニイガタケン","city":"長岡市","city_kana":"ナガオカシ","town":"西片貝町","town_kana":"ニシカタカイマチ","prefecture_code":15},"0051":{"zip_code":"9400051","prefecture":"新潟県","prefecture_kana":"ニイガタケン","city":"長岡市","city_kana":"ナガオカシ","town":"西神田町","town_kana":"ニシカンダマチ","prefecture_code":15},"0835":{"zip_code":"9400835","prefecture":"新潟県","prefecture_kana":"ニイガタケン","city":"長岡市","city_kana":"ナガオカシ","town":"錦","town_kana":"ニシキ","prefecture_code":15},"0027":{"zip_code":"9400027","prefecture":"新潟県","prefecture_kana":"ニイガタケン","city":"長岡市","city_kana":"ナガオカシ","town":"西蔵王","town_kana":"ニシザオウ","prefecture_code":15},"0086":{"zip_code":"9400086","prefecture":"新潟県","prefecture_kana":"ニイガタケン","city":"長岡市","city_kana":"ナガオカシ","town":"西千手","town_kana":"ニシセンジュ","prefecture_code":15},"2126":{"zip_code":"9402126","prefecture":"新潟県","prefecture_kana":"ニイガタケン","city":"長岡市","city_kana":"ナガオカシ","town":"西津町","town_kana":"ニシヅマチ","prefecture_code":15},"0256":{"zip_code":"9400256","prefecture":"新潟県","prefecture_kana":"ニイガタケン","city":"長岡市","city_kana":"ナガオカシ","town":"西中野俣","town_kana":"ニシナカノマタ","prefecture_code":15},"0252":{"zip_code":"9400252","prefecture":"新潟県","prefecture_kana":"ニイガタケン","city":"長岡市","city_kana":"ナガオカシ","town":"西野俣","town_kana":"ニシノマタ","prefecture_code":15},"1162":{"zip_code":"9401162","prefecture":"新潟県","prefecture_kana":"ニイガタケン","city":"長岡市","city_kana":"ナガオカシ","town":"西宮内","town_kana":"ニシミヤウチ","prefecture_code":15},"0095":{"zip_code":"9400095","prefecture":"新潟県","prefecture_kana":"ニイガタケン","city":"長岡市","city_kana":"ナガオカシ","town":"日赤町","town_kana":"ニッセキチョウ","prefecture_code":15},"0203":{"zip_code":"9400203","prefecture":"新潟県","prefecture_kana":"ニイガタケン","city":"長岡市","city_kana":"ナガオカシ","town":"楡原","town_kana":"ニレバラ","prefecture_code":15},"2023":{"zip_code":"9402023","prefecture":"新潟県","prefecture_kana":"ニイガタケン","city":"長岡市","city_kana":"ナガオカシ","town":"蓮潟","town_kana":"ハスガタ","prefecture_code":15},"0842":{"zip_code":"9400842","prefecture":"新潟県","prefecture_kana":"ニイガタケン","city":"長岡市","city_kana":"ナガオカシ","town":"鉢伏町","town_kana":"ハチブセマチ","prefecture_code":15},"2475":{"zip_code":"9402475","prefecture":"新潟県","prefecture_kana":"ニイガタケン","city":"長岡市","city_kana":"ナガオカシ","town":"花井町","town_kana":"ハナイマチ","prefecture_code":15},"0845":{"zip_code":"9400845","prefecture":"新潟県","prefecture_kana":"ニイガタケン","city":"長岡市","city_kana":"ナガオカシ","town":"花園","town_kana":"ハナゾノ","prefecture_code":15},"0846":{"zip_code":"9400846","prefecture":"新潟県","prefecture_kana":"ニイガタケン","city":"長岡市","city_kana":"ナガオカシ","town":"花園東","town_kana":"ハナゾノヒガシ","prefecture_code":15},"0013":{"zip_code":"9400013","prefecture":"新潟県","prefecture_kana":"ニイガタケン","city":"長岡市","city_kana":"ナガオカシ","town":"原町","town_kana":"ハラマチ","prefecture_code":15},"0258":{"zip_code":"9400258","prefecture":"新潟県","prefecture_kana":"ニイガタケン","city":"長岡市","city_kana":"ナガオカシ","town":"半蔵金","town_kana":"ハンゾウガネ","prefecture_code":15},"0022":{"zip_code":"9400022","prefecture":"新潟県","prefecture_kana":"ニイガタケン","city":"長岡市","city_kana":"ナガオカシ","town":"東新町","town_kana":"ヒガシアラマチ","prefecture_code":15},"0136":{"zip_code":"9400136","prefecture":"新潟県","prefecture_kana":"ニイガタケン","city":"長岡市","city_kana":"ナガオカシ","town":"東が丘","town_kana":"ヒガシガオカ","prefecture_code":15},"0816":{"zip_code":"9400816","prefecture":"新潟県","prefecture_kana":"ニイガタケン","city":"長岡市","city_kana":"ナガオカシ","town":"東片貝町","town_kana":"ヒガシカタカイマチ","prefecture_code":15},"0035":{"zip_code":"9400035","prefecture":"新潟県","prefecture_kana":"ニイガタケン","city":"長岡市","city_kana":"ナガオカシ","town":"東神田","town_kana":"ヒガシカンダ","prefecture_code":15},"0029":{"zip_code":"9400029","prefecture":"新潟県","prefecture_kana":"ニイガタケン","city":"長岡市","city_kana":"ナガオカシ","town":"東蔵王","town_kana":"ヒガシザオウ","prefecture_code":15},"0037":{"zip_code":"9400037","prefecture":"新潟県","prefecture_kana":"ニイガタケン","city":"長岡市","city_kana":"ナガオカシ","town":"東栄","town_kana":"ヒガシサカエ","prefecture_code":15},"0066":{"zip_code":"9400066","prefecture":"新潟県","prefecture_kana":"ニイガタケン","city":"長岡市","city_kana":"ナガオカシ","town":"東坂之上町","town_kana":"ヒガシサカノウエマチ","prefecture_code":15},"0006":{"zip_code":"9400006","prefecture":"新潟県","prefecture_kana":"ニイガタケン","city":"長岡市","city_kana":"ナガオカシ","town":"東高見","town_kana":"ヒガシタカミ","prefecture_code":15},"0255":{"zip_code":"9400255","prefecture":"新潟県","prefecture_kana":"ニイガタケン","city":"長岡市","city_kana":"ナガオカシ","town":"東中野俣","town_kana":"ヒガシナカノマタ","prefecture_code":15},"1102":{"zip_code":"9401102","prefecture":"新潟県","prefecture_kana":"ニイガタケン","city":"長岡市","city_kana":"ナガオカシ","town":"東宮内町","town_kana":"ヒガシミヤウチマチ","prefecture_code":15},"2138":{"zip_code":"9402138","prefecture":"新潟県","prefecture_kana":"ニイガタケン","city":"長岡市","city_kana":"ナガオカシ","town":"日越","town_kana":"ヒゴシ","prefecture_code":15},"0102":{"zip_code":"9400102","prefecture":"新潟県","prefecture_kana":"ニイガタケン","city":"長岡市","city_kana":"ナガオカシ","town":"人面","town_kana":"ヒトヅラ","prefecture_code":15},"0892":{"zip_code":"9400892","prefecture":"新潟県","prefecture_kana":"ニイガタケン","city":"長岡市","city_kana":"ナガオカシ","town":"百束町","town_kana":"ヒャクソクマチ","prefecture_code":15},"0124":{"zip_code":"9400124","prefecture":"新潟県","prefecture_kana":"ニイガタケン","city":"長岡市","city_kana":"ナガオカシ","town":"平中野俣","town_kana":"ヒラナカノマタ","prefecture_code":15},"0244":{"zip_code":"9400244","prefecture":"新潟県","prefecture_kana":"ニイガタケン","city":"長岡市","city_kana":"ナガオカシ","town":"比礼","town_kana":"ヒレイ","prefecture_code":15},"2135":{"zip_code":"9402135","prefecture":"新潟県","prefecture_kana":"ニイガタケン","city":"長岡市","city_kana":"ナガオカシ","town":"深沢町","town_kana":"フカサワマチ","prefecture_code":15},"0151":{"zip_code":"9400151","prefecture":"新潟県","prefecture_kana":"ニイガタケン","city":"長岡市","city_kana":"ナガオカシ","town":"吹谷","town_kana":"フキダニ","prefecture_code":15},"0893":{"zip_code":"9400893","prefecture":"新潟県","prefecture_kana":"ニイガタケン","city":"長岡市","city_kana":"ナガオカシ","town":"福井町","town_kana":"フクイマチ","prefecture_code":15},"0896":{"zip_code":"9400896","prefecture":"新潟県","prefecture_kana":"ニイガタケン","city":"長岡市","city_kana":"ナガオカシ","town":"福島町","town_kana":"フクシママチ","prefecture_code":15},"0034":{"zip_code":"9400034","prefecture":"新潟県","prefecture_kana":"ニイガタケン","city":"長岡市","city_kana":"ナガオカシ","town":"福住","town_kana":"フクズミ","prefecture_code":15},"2052":{"zip_code":"9402052","prefecture":"新潟県","prefecture_kana":"ニイガタケン","city":"長岡市","city_kana":"ナガオカシ","town":"福戸町","town_kana":"フクトマチ","prefecture_code":15},"2053":{"zip_code":"9402053","prefecture":"新潟県","prefecture_kana":"ニイガタケン","city":"長岡市","city_kana":"ナガオカシ","town":"福道町","town_kana":"フクミチマチ","prefecture_code":15},"2122":{"zip_code":"9402122","prefecture":"新潟県","prefecture_kana":"ニイガタケン","city":"長岡市","city_kana":"ナガオカシ","town":"福山町","town_kana":"フクヤママチ","prefecture_code":15},"0055":{"zip_code":"9400055","prefecture":"新潟県","prefecture_kana":"ニイガタケン","city":"長岡市","city_kana":"ナガオカシ","town":"袋町","town_kana":"フクロマチ","prefecture_code":15},"2302":{"zip_code":"9402302","prefecture":"新潟県","prefecture_kana":"ニイガタケン","city":"長岡市","city_kana":"ナガオカシ","town":"藤川","town_kana":"フジカワ","prefecture_code":15},"2011":{"zip_code":"9402011","prefecture":"新潟県","prefecture_kana":"ニイガタケン","city":"長岡市","city_kana":"ナガオカシ","town":"藤沢","town_kana":"フジサワ","prefecture_code":15},"2141":{"zip_code":"9402141","prefecture":"新潟県","prefecture_kana":"ニイガタケン","city":"長岡市","city_kana":"ナガオカシ","town":"藤橋","town_kana":"フジハシ","prefecture_code":15},"0103":{"zip_code":"9400103","prefecture":"新潟県","prefecture_kana":"ニイガタケン","city":"長岡市","city_kana":"ナガオカシ","town":"二ツ郷屋","town_kana":"フタツゴウヤ","prefecture_code":15},"0112":{"zip_code":"9400112","prefecture":"新潟県","prefecture_kana":"ニイガタケン","city":"長岡市","city_kana":"ナガオカシ","town":"二日町","town_kana":"フツカマチ","prefecture_code":15},"0073":{"zip_code":"9400073","prefecture":"新潟県","prefecture_kana":"ニイガタケン","city":"長岡市","city_kana":"ナガオカシ","town":"船江町","town_kana":"フナエチョウ","prefecture_code":15},"0101":{"zip_code":"9400101","prefecture":"新潟県","prefecture_kana":"ニイガタケン","city":"長岡市","city_kana":"ナガオカシ","town":"文納","town_kana":"ブンノウ","prefecture_code":15},"1163":[{"zip_code":"9401163","prefecture":"新潟県","prefecture_kana":"ニイガタケン","city":"長岡市","city_kana":"ナガオカシ","town":"平島","town_kana":"ヘイジマ","prefecture_code":15},{"zip_code":"9401163","prefecture":"新潟県","prefecture_kana":"ニイガタケン","city":"長岡市","city_kana":"ナガオカシ","town":"平島町","town_kana":"ヘイジママチ","prefecture_code":15}],"2031":{"zip_code":"9402031","prefecture":"新潟県","prefecture_kana":"ニイガタケン","city":"長岡市","city_kana":"ナガオカシ","town":"宝地町","town_kana":"ホウジマチ","prefecture_code":15},"0871":{"zip_code":"9400871","prefecture":"新潟県","prefecture_kana":"ニイガタケン","city":"長岡市","city_kana":"ナガオカシ","town":"北陽","town_kana":"ホクヨウ","prefecture_code":15},"0032":{"zip_code":"9400032","prefecture":"新潟県","prefecture_kana":"ニイガタケン","city":"長岡市","city_kana":"ナガオカシ","town":"干場","town_kana":"ホシバ","prefecture_code":15},"0868":{"zip_code":"9400868","prefecture":"新潟県","prefecture_kana":"ニイガタケン","city":"長岡市","city_kana":"ナガオカシ","town":"堀金","town_kana":"ホリガネ","prefecture_code":15},"0142":{"zip_code":"9400142","prefecture":"新潟県","prefecture_kana":"ニイガタケン","city":"長岡市","city_kana":"ナガオカシ","town":"本所","town_kana":"ホンジョ","prefecture_code":15},"0076":{"zip_code":"9400076","prefecture":"新潟県","prefecture_kana":"ニイガタケン","city":"長岡市","city_kana":"ナガオカシ","town":"本町","town_kana":"ホンチョウ","prefecture_code":15},"0245":{"zip_code":"9400245","prefecture":"新潟県","prefecture_kana":"ニイガタケン","city":"長岡市","city_kana":"ナガオカシ","town":"本津川","town_kana":"ホンツガワ","prefecture_code":15},"1147":{"zip_code":"9401147","prefecture":"新潟県","prefecture_kana":"ニイガタケン","city":"長岡市","city_kana":"ナガオカシ","town":"前島町","town_kana":"マエジママチ","prefecture_code":15},"0042":{"zip_code":"9400042","prefecture":"新潟県","prefecture_kana":"ニイガタケン","city":"長岡市","city_kana":"ナガオカシ","town":"前田","town_kana":"マエダ","prefecture_code":15},"1103":{"zip_code":"9401103","prefecture":"新潟県","prefecture_kana":"ニイガタケン","city":"長岡市","city_kana":"ナガオカシ","town":"曲新町","town_kana":"マガリアラマチ","prefecture_code":15},"2001":{"zip_code":"9402001","prefecture":"新潟県","prefecture_kana":"ニイガタケン","city":"長岡市","city_kana":"ナガオカシ","town":"槇下町","town_kana":"マキシタマチ","prefecture_code":15},"2005":{"zip_code":"9402005","prefecture":"新潟県","prefecture_kana":"ニイガタケン","city":"長岡市","city_kana":"ナガオカシ","town":"巻島","town_kana":"マキジマ","prefecture_code":15},"0133":{"zip_code":"9400133","prefecture":"新潟県","prefecture_kana":"ニイガタケン","city":"長岡市","city_kana":"ナガオカシ","town":"巻渕","town_kana":"マキフチ","prefecture_code":15},"2002":{"zip_code":"9402002","prefecture":"新潟県","prefecture_kana":"ニイガタケン","city":"長岡市","city_kana":"ナガオカシ","town":"槇山町","town_kana":"マキヤママチ","prefecture_code":15},"1111":{"zip_code":"9401111","prefecture":"新潟県","prefecture_kana":"ニイガタケン","city":"長岡市","city_kana":"ナガオカシ","town":"町田町","town_kana":"マチダマチ","prefecture_code":15},"0154":{"zip_code":"9400154","prefecture":"新潟県","prefecture_kana":"ニイガタケン","city":"長岡市","city_kana":"ナガオカシ","town":"松尾","town_kana":"マツオ","prefecture_code":15},"0091":{"zip_code":"9400091","prefecture":"新潟県","prefecture_kana":"ニイガタケン","city":"長岡市","city_kana":"ナガオカシ","town":"松葉","town_kana":"マツバ","prefecture_code":15},"0856":{"zip_code":"9400856","prefecture":"新潟県","prefecture_kana":"ニイガタケン","city":"長岡市","city_kana":"ナガオカシ","town":"美沢","town_kana":"ミサワ","prefecture_code":15},"2323":{"zip_code":"9402323","prefecture":"新潟県","prefecture_kana":"ニイガタケン","city":"長岡市","city_kana":"ナガオカシ","town":"三島上条","town_kana":"ミシマジョウジョウ","prefecture_code":15},"2311":{"zip_code":"9402311","prefecture":"新潟県","prefecture_kana":"ニイガタケン","city":"長岡市","city_kana":"ナガオカシ","town":"三島新保","town_kana":"ミシマシンボ","prefecture_code":15},"2312":{"zip_code":"9402312","prefecture":"新潟県","prefecture_kana":"ニイガタケン","city":"長岡市","city_kana":"ナガオカシ","town":"三島中条","town_kana":"ミシマナカジョウ","prefecture_code":15},"0804":{"zip_code":"9400804","prefecture":"新潟県","prefecture_kana":"ニイガタケン","city":"長岡市","city_kana":"ナガオカシ","town":"水穴町","town_kana":"ミズアナマチ","prefecture_code":15},"0106":{"zip_code":"9400106","prefecture":"新潟県","prefecture_kana":"ニイガタケン","city":"長岡市","city_kana":"ナガオカシ","town":"水沢","town_kana":"ミズサワ","prefecture_code":15},"1165":{"zip_code":"9401165","prefecture":"新潟県","prefecture_kana":"ニイガタケン","city":"長岡市","city_kana":"ナガオカシ","town":"水梨町","town_kana":"ミズナシマチ","prefecture_code":15},"0866":{"zip_code":"9400866","prefecture":"新潟県","prefecture_kana":"ニイガタケン","city":"長岡市","city_kana":"ナガオカシ","town":"美園","town_kana":"ミソノ","prefecture_code":15},"2111":{"zip_code":"9402111","prefecture":"新潟県","prefecture_kana":"ニイガタケン","city":"長岡市","city_kana":"ナガオカシ","town":"三ツ郷屋","town_kana":"ミツゴウヤ","prefecture_code":15},"2105":{"zip_code":"9402105","prefecture":"新潟県","prefecture_kana":"ニイガタケン","city":"長岡市","city_kana":"ナガオカシ","town":"緑町","town_kana":"ミドリチョウ","prefecture_code":15},"2054":{"zip_code":"9402054","prefecture":"新潟県","prefecture_kana":"ニイガタケン","city":"長岡市","city_kana":"ナガオカシ","town":"南新保町","town_kana":"ミナミシンボマチ","prefecture_code":15},"2116":{"zip_code":"9402116","prefecture":"新潟県","prefecture_kana":"ニイガタケン","city":"長岡市","city_kana":"ナガオカシ","town":"南七日町","town_kana":"ミナミナノカマチ","prefecture_code":15},"0081":{"zip_code":"9400081","prefecture":"新潟県","prefecture_kana":"ニイガタケン","city":"長岡市","city_kana":"ナガオカシ","town":"南町","town_kana":"ミナミマチ","prefecture_code":15},"1106":{"zip_code":"9401106","prefecture":"新潟県","prefecture_kana":"ニイガタケン","city":"長岡市","city_kana":"ナガオカシ","town":"宮内","town_kana":"ミヤウチ","prefecture_code":15},"1155":{"zip_code":"9401155","prefecture":"新潟県","prefecture_kana":"ニイガタケン","city":"長岡市","city_kana":"ナガオカシ","town":"宮内町","town_kana":"ミヤウチマチ","prefecture_code":15},"1154":{"zip_code":"9401154","prefecture":"新潟県","prefecture_kana":"ニイガタケン","city":"長岡市","city_kana":"ナガオカシ","town":"宮栄","town_kana":"ミヤサカエ","prefecture_code":15},"2301":{"zip_code":"9402301","prefecture":"新潟県","prefecture_kana":"ニイガタケン","city":"長岡市","city_kana":"ナガオカシ","town":"宮沢","town_kana":"ミヤザワ","prefecture_code":15},"0882":{"zip_code":"9400882","prefecture":"新潟県","prefecture_kana":"ニイガタケン","city":"長岡市","city_kana":"ナガオカシ","town":"宮下町","town_kana":"ミヤシタマチ","prefecture_code":15},"0811":{"zip_code":"9400811","prefecture":"新潟県","prefecture_kana":"ニイガタケン","city":"長岡市","city_kana":"ナガオカシ","town":"宮路町","town_kana":"ミヤジマチ","prefecture_code":15},"2021":{"zip_code":"9402021","prefecture":"新潟県","prefecture_kana":"ニイガタケン","city":"長岡市","city_kana":"ナガオカシ","town":"宮関","town_kana":"ミヤゼキ","prefecture_code":15},"0083":{"zip_code":"9400083","prefecture":"新潟県","prefecture_kana":"ニイガタケン","city":"長岡市","city_kana":"ナガオカシ","town":"宮原","town_kana":"ミヤバラ","prefecture_code":15},"2043":{"zip_code":"9402043","prefecture":"新潟県","prefecture_kana":"ニイガタケン","city":"長岡市","city_kana":"ナガオカシ","town":"宮本東方町","town_kana":"ミヤモトヒガシカタマチ","prefecture_code":15},"2044":{"zip_code":"9402044","prefecture":"新潟県","prefecture_kana":"ニイガタケン","city":"長岡市","city_kana":"ナガオカシ","town":"宮本堀之内町","town_kana":"ミヤモトホリノウチマチ","prefecture_code":15},"2042":{"zip_code":"9402042","prefecture":"新潟県","prefecture_kana":"ニイガタケン","city":"長岡市","city_kana":"ナガオカシ","town":"宮本町","town_kana":"ミヤモトマチ","prefecture_code":15},"1134":{"zip_code":"9401134","prefecture":"新潟県","prefecture_kana":"ニイガタケン","city":"長岡市","city_kana":"ナガオカシ","town":"妙見町","town_kana":"ミョウケンマチ","prefecture_code":15},"1133":{"zip_code":"9401133","prefecture":"新潟県","prefecture_kana":"ニイガタケン","city":"長岡市","city_kana":"ナガオカシ","town":"六日市町","town_kana":"ムイカイチマチ","prefecture_code":15},"0125":{"zip_code":"9400125","prefecture":"新潟県","prefecture_kana":"ニイガタケン","city":"長岡市","city_kana":"ナガオカシ","town":"葎谷","town_kana":"ムグラダニ","prefecture_code":15},"1115":{"zip_code":"9401115","prefecture":"新潟県","prefecture_kana":"ニイガタケン","city":"長岡市","city_kana":"ナガオカシ","town":"村松町","town_kana":"ムラマツマチ","prefecture_code":15},"0257":{"zip_code":"9400257","prefecture":"新潟県","prefecture_kana":"ニイガタケン","city":"長岡市","city_kana":"ナガオカシ","town":"森上","town_kana":"モリアゲ","prefecture_code":15},"0227":{"zip_code":"9400227","prefecture":"新潟県","prefecture_kana":"ニイガタケン","city":"長岡市","city_kana":"ナガオカシ","town":"谷内","town_kana":"ヤチ","prefecture_code":15},"0072":{"zip_code":"9400072","prefecture":"新潟県","prefecture_kana":"ニイガタケン","city":"長岡市","city_kana":"ナガオカシ","town":"柳原町","town_kana":"ヤナギハラマチ","prefecture_code":15},"0114":{"zip_code":"9400114","prefecture":"新潟県","prefecture_kana":"ニイガタケン","city":"長岡市","city_kana":"ナガオカシ","town":"山口","town_kana":"ヤマグチ","prefecture_code":15},"0097":{"zip_code":"9400097","prefecture":"新潟県","prefecture_kana":"ニイガタケン","city":"長岡市","city_kana":"ナガオカシ","town":"山田","town_kana":"ヤマダ","prefecture_code":15},"0104":{"zip_code":"9400104","prefecture":"新潟県","prefecture_kana":"ニイガタケン","city":"長岡市","city_kana":"ナガオカシ","town":"山屋","town_kana":"ヤマヤ","prefecture_code":15},"0827":{"zip_code":"9400827","prefecture":"新潟県","prefecture_kana":"ニイガタケン","city":"長岡市","city_kana":"ナガオカシ","town":"悠久町","town_kana":"ユウキュウチョウ","prefecture_code":15},"0867":{"zip_code":"9400867","prefecture":"新潟県","prefecture_kana":"ニイガタケン","city":"長岡市","city_kana":"ナガオカシ","town":"豊","town_kana":"ユタカ","prefecture_code":15},"0047":{"zip_code":"9400047","prefecture":"新潟県","prefecture_kana":"ニイガタケン","city":"長岡市","city_kana":"ナガオカシ","town":"弓町","town_kana":"ユミチョウ","prefecture_code":15},"2405":{"zip_code":"9402405","prefecture":"新潟県","prefecture_kana":"ニイガタケン","city":"長岡市","city_kana":"ナガオカシ","town":"与板町岩方","town_kana":"ヨイタマチイワカタ","prefecture_code":15},"2406":{"zip_code":"9402406","prefecture":"新潟県","prefecture_kana":"ニイガタケン","city":"長岡市","city_kana":"ナガオカシ","town":"与板町江西","town_kana":"ヨイタマチエニシ","prefecture_code":15},"2407":{"zip_code":"9402407","prefecture":"新潟県","prefecture_kana":"ニイガタケン","city":"長岡市","city_kana":"ナガオカシ","town":"与板町城山","town_kana":"ヨイタマチシロヤマ","prefecture_code":15},"2411":{"zip_code":"9402411","prefecture":"新潟県","prefecture_kana":"ニイガタケン","city":"長岡市","city_kana":"ナガオカシ","town":"与板町蔦都","town_kana":"ヨイタマチツタイチ","prefecture_code":15},"2414":{"zip_code":"9402414","prefecture":"新潟県","prefecture_kana":"ニイガタケン","city":"長岡市","city_kana":"ナガオカシ","town":"与板町中田","town_kana":"ヨイタマチナカダ","prefecture_code":15},"2401":{"zip_code":"9402401","prefecture":"新潟県","prefecture_kana":"ニイガタケン","city":"長岡市","city_kana":"ナガオカシ","town":"与板町東与板","town_kana":"ヨイタマチヒガシヨイタ","prefecture_code":15},"2412":{"zip_code":"9402412","prefecture":"新潟県","prefecture_kana":"ニイガタケン","city":"長岡市","city_kana":"ナガオカシ","town":"与板町広野","town_kana":"ヨイタマチヒロノ","prefecture_code":15},"2416":{"zip_code":"9402416","prefecture":"新潟県","prefecture_kana":"ニイガタケン","city":"長岡市","city_kana":"ナガオカシ","town":"与板町槇原","town_kana":"ヨイタマチマキハラ","prefecture_code":15},"2404":{"zip_code":"9402404","prefecture":"新潟県","prefecture_kana":"ニイガタケン","city":"長岡市","city_kana":"ナガオカシ","town":"与板町馬越","town_kana":"ヨイタマチマゴシ","prefecture_code":15},"2415":{"zip_code":"9402415","prefecture":"新潟県","prefecture_kana":"ニイガタケン","city":"長岡市","city_kana":"ナガオカシ","town":"与板町南中","town_kana":"ヨイタマチミナミナカ","prefecture_code":15},"2403":{"zip_code":"9402403","prefecture":"新潟県","prefecture_kana":"ニイガタケン","city":"長岡市","city_kana":"ナガオカシ","town":"与板町本与板","town_kana":"ヨイタマチモトヨイタ","prefecture_code":15},"2417":{"zip_code":"9402417","prefecture":"新潟県","prefecture_kana":"ニイガタケン","city":"長岡市","city_kana":"ナガオカシ","town":"与板町山沢","town_kana":"ヨイタマチヤマザワ","prefecture_code":15},"2402":{"zip_code":"9402402","prefecture":"新潟県","prefecture_kana":"ニイガタケン","city":"長岡市","city_kana":"ナガオカシ","town":"与板町与板","town_kana":"ヨイタマチヨイタ","prefecture_code":15},"2413":{"zip_code":"9402413","prefecture":"新潟県","prefecture_kana":"ニイガタケン","city":"長岡市","city_kana":"ナガオカシ","town":"与板町吉津","town_kana":"ヨイタマチヨシヅ","prefecture_code":15},"2148":{"zip_code":"9402148","prefecture":"新潟県","prefecture_kana":"ニイガタケン","city":"長岡市","city_kana":"ナガオカシ","town":"陽光台","town_kana":"ヨウコウダイ","prefecture_code":15},"1117":{"zip_code":"9401117","prefecture":"新潟県","prefecture_kana":"ニイガタケン","city":"長岡市","city_kana":"ナガオカシ","town":"横枕町","town_kana":"ヨコマクラマチ","prefecture_code":15},"2313":{"zip_code":"9402313","prefecture":"新潟県","prefecture_kana":"ニイガタケン","city":"長岡市","city_kana":"ナガオカシ","town":"吉崎","town_kana":"ヨシザキ","prefecture_code":15},"0131":{"zip_code":"9400131","prefecture":"新潟県","prefecture_kana":"ニイガタケン","city":"長岡市","city_kana":"ナガオカシ","town":"吉水","town_kana":"ヨシミズ","prefecture_code":15},"0891":{"zip_code":"9400891","prefecture":"新潟県","prefecture_kana":"ニイガタケン","city":"長岡市","city_kana":"ナガオカシ","town":"四ツ屋町","town_kana":"ヨツヤマチ","prefecture_code":15},"1122":{"zip_code":"9401122","prefecture":"新潟県","prefecture_kana":"ニイガタケン","city":"長岡市","city_kana":"ナガオカシ","town":"蓬平町","town_kana":"ヨモギヒラマチ","prefecture_code":15},"0152":{"zip_code":"9400152","prefecture":"新潟県","prefecture_kana":"ニイガタケン","city":"長岡市","city_kana":"ナガオカシ","town":"来伝","town_kana":"ライデン","prefecture_code":15},"2325":{"zip_code":"9402325","prefecture":"新潟県","prefecture_kana":"ニイガタケン","city":"長岡市","city_kana":"ナガオカシ","town":"蓮花寺","town_kana":"レンゲジ","prefecture_code":15},"0851":{"zip_code":"9400851","prefecture":"新潟県","prefecture_kana":"ニイガタケン","city":"長岡市","city_kana":"ナガオカシ","town":"若草町","town_kana":"ワカクサマチ","prefecture_code":15},"2461":{"zip_code":"9402461","prefecture":"新潟県","prefecture_kana":"ニイガタケン","city":"長岡市","city_kana":"ナガオカシ","town":"脇川新田町","town_kana":"ワキガワシンデンマチ","prefecture_code":15},"2306":{"zip_code":"9402306","prefecture":"新潟県","prefecture_kana":"ニイガタケン","city":"長岡市","city_kana":"ナガオカシ","town":"脇野町","town_kana":"ワキノマチ","prefecture_code":15},"0126":{"zip_code":"9400126","prefecture":"新潟県","prefecture_kana":"ニイガタケン","city":"長岡市","city_kana":"ナガオカシ","town":"山葵谷","town_kana":"ワサビダニ","prefecture_code":15},"1132":{"zip_code":"9401132","prefecture":"新潟県","prefecture_kana":"ニイガタケン","city":"長岡市","city_kana":"ナガオカシ","town":"渡沢町","town_kana":"ワタザワマチ","prefecture_code":15},"2003":{"zip_code":"9402003","prefecture":"新潟県","prefecture_kana":"ニイガタケン","city":"長岡市","city_kana":"ナガオカシ","town":"渡場町","town_kana":"ワタリバマチ","prefecture_code":15},"0075":{"zip_code":"9400075","prefecture":"新潟県","prefecture_kana":"ニイガタケン","city":"長岡市","city_kana":"ナガオカシ","town":"渡里町","town_kana":"ワタリマチ","prefecture_code":15}}