{"0000":{"zip_code":"9430000","prefecture":"新潟県","prefecture_kana":"ニイガタケン","city":"上越市","city_kana":"ジョウエツシ","town":"","town_kana":"","prefecture_code":15},"0871":{"zip_code":"9430871","prefecture":"新潟県","prefecture_kana":"ニイガタケン","city":"上越市","city_kana":"ジョウエツシ","town":"青木","town_kana":"アオキ","prefecture_code":15},"0886":{"zip_code":"9430886","prefecture":"新潟県","prefecture_kana":"ニイガタケン","city":"上越市","city_kana":"ジョウエツシ","town":"朝日","town_kana":"アサヒ","prefecture_code":15},"0139":{"zip_code":"9430139","prefecture":"新潟県","prefecture_kana":"ニイガタケン","city":"上越市","city_kana":"ジョウエツシ","town":"天野原新田","town_kana":"アマノハラシンデン","prefecture_code":15},"0862":{"zip_code":"9430862","prefecture":"新潟県","prefecture_kana":"ニイガタケン","city":"上越市","city_kana":"ジョウエツシ","town":"荒町","town_kana":"アラマチ","prefecture_code":15},"0187":{"zip_code":"9430187","prefecture":"新潟県","prefecture_kana":"ニイガタケン","city":"上越市","city_kana":"ジョウエツシ","town":"荒屋","town_kana":"アラヤ","prefecture_code":15},"0896":{"zip_code":"9430896","prefecture":"新潟県","prefecture_kana":"ニイガタケン","city":"上越市","city_kana":"ジョウエツシ","town":"飯","town_kana":"イイ","prefecture_code":15},"0422":{"zip_code":"9430422","prefecture":"新潟県","prefecture_kana":"ニイガタケン","city":"上越市","city_kana":"ジョウエツシ","town":"飯田","town_kana":"イイダ","prefecture_code":15},"0128":{"zip_code":"9430128","prefecture":"新潟県","prefecture_kana":"ニイガタケン","city":"上越市","city_kana":"ジョウエツシ","town":"池","town_kana":"イケ","prefecture_code":15},"0872":{"zip_code":"9430872","prefecture":"新潟県","prefecture_kana":"ニイガタケン","city":"上越市","city_kana":"ジョウエツシ","town":"石沢","town_kana":"イシザワ","prefecture_code":15},"0186":{"zip_code":"9430186","prefecture":"新潟県","prefecture_kana":"ニイガタケン","city":"上越市","city_kana":"ジョウエツシ","town":"市野江","town_kana":"イチノエ","prefecture_code":15},"0117":{"zip_code":"9430117","prefecture":"新潟県","prefecture_kana":"ニイガタケン","city":"上越市","city_kana":"ジョウエツシ","town":"稲","town_kana":"イナ","prefecture_code":15},"0154":{"zip_code":"9430154","prefecture":"新潟県","prefecture_kana":"ニイガタケン","city":"上越市","city_kana":"ジョウエツシ","town":"稲田","town_kana":"イナダ","prefecture_code":15},"0425":{"zip_code":"9430425","prefecture":"新潟県","prefecture_kana":"ニイガタケン","city":"上越市","city_kana":"ジョウエツシ","town":"稲谷","town_kana":"イナダニ","prefecture_code":15},"0874":{"zip_code":"9430874","prefecture":"新潟県","prefecture_kana":"ニイガタケン","city":"上越市","city_kana":"ジョウエツシ","town":"稲荷","town_kana":"イナリ","prefecture_code":15},"0129":{"zip_code":"9430129","prefecture":"新潟県","prefecture_kana":"ニイガタケン","city":"上越市","city_kana":"ジョウエツシ","town":"茨沢","town_kana":"イバラサワ","prefecture_code":15},"0145":{"zip_code":"9430145","prefecture":"新潟県","prefecture_kana":"ニイガタケン","city":"上越市","city_kana":"ジョウエツシ","town":"今池","town_kana":"イマイケ","prefecture_code":15},"0864":{"zip_code":"9430864","prefecture":"新潟県","prefecture_kana":"ニイガタケン","city":"上越市","city_kana":"ジョウエツシ","town":"今泉","town_kana":"イマイズミ","prefecture_code":15},"0814":{"zip_code":"9430814","prefecture":"新潟県","prefecture_kana":"ニイガタケン","city":"上越市","city_kana":"ジョウエツシ","town":"岩木","town_kana":"イワキ","prefecture_code":15},"0889":{"zip_code":"9430889","prefecture":"新潟県","prefecture_kana":"ニイガタケン","city":"上越市","city_kana":"ジョウエツシ","town":"後谷","town_kana":"ウシロダニ","prefecture_code":15},"0818":{"zip_code":"9430818","prefecture":"新潟県","prefecture_kana":"ニイガタケン","city":"上越市","city_kana":"ジョウエツシ","town":"宇津尾","town_kana":"ウツオ","prefecture_code":15},"0414":{"zip_code":"9430414","prefecture":"新潟県","prefecture_kana":"ニイガタケン","city":"上越市","city_kana":"ジョウエツシ","town":"大口","town_kana":"オオクチ","prefecture_code":15},"0838":{"zip_code":"9430838","prefecture":"新潟県","prefecture_kana":"ニイガタケン","city":"上越市","city_kana":"ジョウエツシ","town":"大手町","town_kana":"オオテマチ","prefecture_code":15},"0893":{"zip_code":"9430893","prefecture":"新潟県","prefecture_kana":"ニイガタケン","city":"上越市","city_kana":"ジョウエツシ","town":"大貫","town_kana":"オオヌキ","prefecture_code":15},"0833":{"zip_code":"9430833","prefecture":"新潟県","prefecture_kana":"ニイガタケン","city":"上越市","city_kana":"ジョウエツシ","town":"大町","town_kana":"オオマチ","prefecture_code":15},"0858":{"zip_code":"9430858","prefecture":"新潟県","prefecture_kana":"ニイガタケン","city":"上越市","city_kana":"ジョウエツシ","town":"岡原","town_kana":"オカバラ","prefecture_code":15},"0809":{"zip_code":"9430809","prefecture":"新潟県","prefecture_kana":"ニイガタケン","city":"上越市","city_kana":"ジョウエツシ","town":"春日","town_kana":"カスガ","prefecture_code":15},"0803":{"zip_code":"9430803","prefecture":"新潟県","prefecture_kana":"ニイガタケン","city":"上越市","city_kana":"ジョウエツシ","town":"春日野","town_kana":"カスガノ","prefecture_code":15},"0807":{"zip_code":"9430807","prefecture":"新潟県","prefecture_kana":"ニイガタケン","city":"上越市","city_kana":"ジョウエツシ","town":"春日山町","town_kana":"カスガヤママチ","prefecture_code":15},"0113":{"zip_code":"9430113","prefecture":"新潟県","prefecture_kana":"ニイガタケン","city":"上越市","city_kana":"ジョウエツシ","town":"上池部","town_kana":"カミイケベ","prefecture_code":15},"0168":{"zip_code":"9430168","prefecture":"新潟県","prefecture_kana":"ニイガタケン","city":"上越市","city_kana":"ジョウエツシ","town":"上稲田","town_kana":"カミイナダ","prefecture_code":15},"0165":{"zip_code":"9430165","prefecture":"新潟県","prefecture_kana":"ニイガタケン","city":"上越市","city_kana":"ジョウエツシ","town":"上島","town_kana":"カミジマ","prefecture_code":15},"0811":{"zip_code":"9430811","prefecture":"新潟県","prefecture_kana":"ニイガタケン","city":"上越市","city_kana":"ジョウエツシ","town":"上正善寺","town_kana":"カミショウゼンジ","prefecture_code":15},"0894":{"zip_code":"9430894","prefecture":"新潟県","prefecture_kana":"ニイガタケン","city":"上越市","city_kana":"ジョウエツシ","town":"上昭和町","town_kana":"カミショウワマチ","prefecture_code":15},"0143":{"zip_code":"9430143","prefecture":"新潟県","prefecture_kana":"ニイガタケン","city":"上越市","city_kana":"ジョウエツシ","town":"上新町","town_kana":"カミシンマチ","prefecture_code":15},"0424":{"zip_code":"9430424","prefecture":"新潟県","prefecture_kana":"ニイガタケン","city":"上越市","city_kana":"ジョウエツシ","town":"上曾根","town_kana":"カミゾネ","prefecture_code":15},"0126":{"zip_code":"9430126","prefecture":"新潟県","prefecture_kana":"ニイガタケン","city":"上越市","city_kana":"ジョウエツシ","town":"上富川","town_kana":"カミトミガワ","prefecture_code":15},"0884":{"zip_code":"9430884","prefecture":"新潟県","prefecture_kana":"ニイガタケン","city":"上越市","city_kana":"ジョウエツシ","town":"上中田","town_kana":"カミナカダ","prefecture_code":15},"0112":{"zip_code":"9430112","prefecture":"新潟県","prefecture_kana":"ニイガタケン","city":"上越市","city_kana":"ジョウエツシ","town":"上野田","town_kana":"カミノタ","prefecture_code":15},"0856":{"zip_code":"9430856","prefecture":"新潟県","prefecture_kana":"ニイガタケン","city":"上越市","city_kana":"ジョウエツシ","town":"上箱井","town_kana":"カミハコイ","prefecture_code":15},"0101":{"zip_code":"9430101","prefecture":"新潟県","prefecture_kana":"ニイガタケン","city":"上越市","city_kana":"ジョウエツシ","town":"上真砂","town_kana":"カミマナゴ","prefecture_code":15},"0876":{"zip_code":"9430876","prefecture":"新潟県","prefecture_kana":"ニイガタケン","city":"上越市","city_kana":"ジョウエツシ","town":"上門前","town_kana":"カミモンゼン","prefecture_code":15},"0839":{"zip_code":"9430839","prefecture":"新潟県","prefecture_kana":"ニイガタケン","city":"上越市","city_kana":"ジョウエツシ","town":"上湯谷","town_kana":"カミユダニ","prefecture_code":15},"0153":{"zip_code":"9430153","prefecture":"新潟県","prefecture_kana":"ニイガタケン","city":"上越市","city_kana":"ジョウエツシ","town":"鴨島","town_kana":"カモジマ","prefecture_code":15},"0855":{"zip_code":"9430855","prefecture":"新潟県","prefecture_kana":"ニイガタケン","city":"上越市","city_kana":"ジョウエツシ","town":"木島","town_kana":"キジマ","prefecture_code":15},"0805":{"zip_code":"9430805","prefecture":"新潟県","prefecture_kana":"ニイガタケン","city":"上越市","city_kana":"ジョウエツシ","town":"木田","town_kana":"キダ","prefecture_code":15},"0412":{"zip_code":"9430412","prefecture":"新潟県","prefecture_kana":"ニイガタケン","city":"上越市","city_kana":"ジョウエツシ","town":"北方","town_kana":"キタガタ","prefecture_code":15},"0824":{"zip_code":"9430824","prefecture":"新潟県","prefecture_kana":"ニイガタケン","city":"上越市","city_kana":"ジョウエツシ","town":"北城町","town_kana":"キタシロチョウ","prefecture_code":15},"0806":{"zip_code":"9430806","prefecture":"新潟県","prefecture_kana":"ニイガタケン","city":"上越市","city_kana":"ジョウエツシ","town":"木田新田","town_kana":"キダシンデン","prefecture_code":15},"0109":{"zip_code":"9430109","prefecture":"新潟県","prefecture_kana":"ニイガタケン","city":"上越市","city_kana":"ジョウエツシ","town":"北新保","town_kana":"キタシンボ","prefecture_code":15},"0106":{"zip_code":"9430106","prefecture":"新潟県","prefecture_kana":"ニイガタケン","city":"上越市","city_kana":"ジョウエツシ","town":"北田中","town_kana":"キタタナカ","prefecture_code":15},"0161":{"zip_code":"9430161","prefecture":"新潟県","prefecture_kana":"ニイガタケン","city":"上越市","city_kana":"ジョウエツシ","town":"北田屋新田","town_kana":"キタタヤシンデン","prefecture_code":15},"0828":{"zip_code":"9430828","prefecture":"新潟県","prefecture_kana":"ニイガタケン","city":"上越市","city_kana":"ジョウエツシ","town":"北本町","town_kana":"キタホンチョウ","prefecture_code":15},"0848":{"zip_code":"9430848","prefecture":"新潟県","prefecture_kana":"ニイガタケン","city":"上越市","city_kana":"ジョウエツシ","town":"儀明","town_kana":"ギミョウ","prefecture_code":15},"0881":{"zip_code":"9430881","prefecture":"新潟県","prefecture_kana":"ニイガタケン","city":"上越市","city_kana":"ジョウエツシ","town":"京田","town_kana":"キョウデン","prefecture_code":15},"0531":{"zip_code":"9430531","prefecture":"新潟県","prefecture_kana":"ニイガタケン","city":"上越市","city_kana":"ジョウエツシ","town":"清里区青柳","town_kana":"キヨサトクアオヤナギ","prefecture_code":15},"0527":{"zip_code":"9430527","prefecture":"新潟県","prefecture_kana":"ニイガタケン","city":"上越市","city_kana":"ジョウエツシ","town":"清里区赤池","town_kana":"キヨサトクアカイケ","prefecture_code":15},"0502":{"zip_code":"9430502","prefecture":"新潟県","prefecture_kana":"ニイガタケン","city":"上越市","city_kana":"ジョウエツシ","town":"清里区荒牧","town_kana":"キヨサトクアラマキ","prefecture_code":15},"0513":{"zip_code":"9430513","prefecture":"新潟県","prefecture_kana":"ニイガタケン","city":"上越市","city_kana":"ジョウエツシ","town":"清里区今曽根","town_kana":"キヨサトクイマゾネ","prefecture_code":15},"0533":{"zip_code":"9430533","prefecture":"新潟県","prefecture_kana":"ニイガタケン","city":"上越市","city_kana":"ジョウエツシ","town":"清里区鶯沢","town_kana":"キヨサトクウグイスサワ","prefecture_code":15},"0501":{"zip_code":"9430501","prefecture":"新潟県","prefecture_kana":"ニイガタケン","city":"上越市","city_kana":"ジョウエツシ","town":"清里区岡野町","town_kana":"キヨサトクオカノマチ","prefecture_code":15},"0507":{"zip_code":"9430507","prefecture":"新潟県","prefecture_kana":"ニイガタケン","city":"上越市","city_kana":"ジョウエツシ","town":"清里区岡嶺新田","town_kana":"キヨサトクオカミネシンデン","prefecture_code":15},"0516":{"zip_code":"9430516","prefecture":"新潟県","prefecture_kana":"ニイガタケン","city":"上越市","city_kana":"ジョウエツシ","town":"清里区上稲塚","town_kana":"キヨサトクカミイナヅカ","prefecture_code":15},"0504":{"zip_code":"9430504","prefecture":"新潟県","prefecture_kana":"ニイガタケン","city":"上越市","city_kana":"ジョウエツシ","town":"清里区上田島","town_kana":"キヨサトクカミタジマ","prefecture_code":15},"0534":{"zip_code":"9430534","prefecture":"新潟県","prefecture_kana":"ニイガタケン","city":"上越市","city_kana":"ジョウエツシ","town":"清里区上中条","town_kana":"キヨサトクカミナカジョウ","prefecture_code":15},"0503":{"zip_code":"9430503","prefecture":"新潟県","prefecture_kana":"ニイガタケン","city":"上越市","city_kana":"ジョウエツシ","town":"清里区上深沢","town_kana":"キヨサトクカミフカサワ","prefecture_code":15},"0525":{"zip_code":"9430525","prefecture":"新潟県","prefecture_kana":"ニイガタケン","city":"上越市","city_kana":"ジョウエツシ","town":"清里区北野","town_kana":"キヨサトクキタノ","prefecture_code":15},"0511":{"zip_code":"9430511","prefecture":"新潟県","prefecture_kana":"ニイガタケン","city":"上越市","city_kana":"ジョウエツシ","town":"清里区塩曽根","town_kana":"キヨサトクシオゾネ","prefecture_code":15},"0506":{"zip_code":"9430506","prefecture":"新潟県","prefecture_kana":"ニイガタケン","city":"上越市","city_kana":"ジョウエツシ","town":"清里区菅原","town_kana":"キヨサトクスガハラ","prefecture_code":15},"0535":{"zip_code":"9430535","prefecture":"新潟県","prefecture_kana":"ニイガタケン","city":"上越市","city_kana":"ジョウエツシ","town":"清里区鈴倉","town_kana":"キヨサトクスズクラ","prefecture_code":15},"0523":{"zip_code":"9430523","prefecture":"新潟県","prefecture_kana":"ニイガタケン","city":"上越市","city_kana":"ジョウエツシ","town":"清里区棚田","town_kana":"キヨサトクタナダ","prefecture_code":15},"0521":{"zip_code":"9430521","prefecture":"新潟県","prefecture_kana":"ニイガタケン","city":"上越市","city_kana":"ジョウエツシ","town":"清里区寺脇","town_kana":"キヨサトクテラワキ","prefecture_code":15},"0532":{"zip_code":"9430532","prefecture":"新潟県","prefecture_kana":"ニイガタケン","city":"上越市","city_kana":"ジョウエツシ","town":"清里区梨窪","town_kana":"キヨサトクナシクボ","prefecture_code":15},"0526":{"zip_code":"9430526","prefecture":"新潟県","prefecture_kana":"ニイガタケン","city":"上越市","city_kana":"ジョウエツシ","town":"清里区梨平","town_kana":"キヨサトクナシダイラ","prefecture_code":15},"0522":{"zip_code":"9430522","prefecture":"新潟県","prefecture_kana":"ニイガタケン","city":"上越市","city_kana":"ジョウエツシ","town":"清里区東戸野","town_kana":"キヨサトクヒガシトノ","prefecture_code":15},"0505":{"zip_code":"9430505","prefecture":"新潟県","prefecture_kana":"ニイガタケン","city":"上越市","city_kana":"ジョウエツシ","town":"清里区東福島","town_kana":"キヨサトクヒガシフクシマ","prefecture_code":15},"0508":{"zip_code":"9430508","prefecture":"新潟県","prefecture_kana":"ニイガタケン","city":"上越市","city_kana":"ジョウエツシ","town":"清里区平成","town_kana":"キヨサトクヘイセイ","prefecture_code":15},"0512":{"zip_code":"9430512","prefecture":"新潟県","prefecture_kana":"ニイガタケン","city":"上越市","city_kana":"ジョウエツシ","town":"清里区馬屋","town_kana":"キヨサトクマヤ","prefecture_code":15},"0524":{"zip_code":"9430524","prefecture":"新潟県","prefecture_kana":"ニイガタケン","city":"上越市","city_kana":"ジョウエツシ","town":"清里区水草","town_kana":"キヨサトクミズクサ","prefecture_code":15},"0514":{"zip_code":"9430514","prefecture":"新潟県","prefecture_kana":"ニイガタケン","city":"上越市","city_kana":"ジョウエツシ","town":"清里区南田中","town_kana":"キヨサトクミナミタナカ","prefecture_code":15},"0510":{"zip_code":"9430510","prefecture":"新潟県","prefecture_kana":"ニイガタケン","city":"上越市","city_kana":"ジョウエツシ","town":"清里区みらい","town_kana":"キヨサトクミライ","prefecture_code":15},"0515":{"zip_code":"9430515","prefecture":"新潟県","prefecture_kana":"ニイガタケン","city":"上越市","city_kana":"ジョウエツシ","town":"清里区武士","town_kana":"キヨサトクモノノフ","prefecture_code":15},"0509":{"zip_code":"9430509","prefecture":"新潟県","prefecture_kana":"ニイガタケン","city":"上越市","city_kana":"ジョウエツシ","town":"清里区弥生","town_kana":"キヨサトクヤヨイ","prefecture_code":15},"0183":{"zip_code":"9430183","prefecture":"新潟県","prefecture_kana":"ニイガタケン","city":"上越市","city_kana":"ジョウエツシ","town":"桐原","town_kana":"キリハラ","prefecture_code":15},"0127":{"zip_code":"9430127","prefecture":"新潟県","prefecture_kana":"ニイガタケン","city":"上越市","city_kana":"ジョウエツシ","town":"熊塚","town_kana":"クマヅカ","prefecture_code":15},"0885":{"zip_code":"9430885","prefecture":"新潟県","prefecture_kana":"ニイガタケン","city":"上越市","city_kana":"ジョウエツシ","town":"黒田","town_kana":"クロダ","prefecture_code":15},"0823":{"zip_code":"9430823","prefecture":"新潟県","prefecture_kana":"ニイガタケン","city":"上越市","city_kana":"ジョウエツシ","town":"高土町","town_kana":"コウドチョウ","prefecture_code":15},"0421":{"zip_code":"9430421","prefecture":"新潟県","prefecture_kana":"ニイガタケン","city":"上越市","city_kana":"ジョウエツシ","town":"高和町","town_kana":"コウワマチ","prefecture_code":15},"0842":{"zip_code":"9430842","prefecture":"新潟県","prefecture_kana":"ニイガタケン","city":"上越市","city_kana":"ジョウエツシ","town":"五ケ所新田","town_kana":"ゴカショシンデン","prefecture_code":15},"0877":{"zip_code":"9430877","prefecture":"新潟県","prefecture_kana":"ニイガタケン","city":"上越市","city_kana":"ジョウエツシ","town":"小滝","town_kana":"コタキ","prefecture_code":15},"0895":{"zip_code":"9430895","prefecture":"新潟県","prefecture_kana":"ニイガタケン","city":"上越市","city_kana":"ジョウエツシ","town":"御殿山町","town_kana":"ゴテンヤマチョウ","prefecture_code":15},"0141":{"zip_code":"9430141","prefecture":"新潟県","prefecture_kana":"ニイガタケン","city":"上越市","city_kana":"ジョウエツシ","town":"子安","town_kana":"コヤス","prefecture_code":15},"0148":{"zip_code":"9430148","prefecture":"新潟県","prefecture_kana":"ニイガタケン","city":"上越市","city_kana":"ジョウエツシ","town":"子安新田","town_kana":"コヤスシンデン","prefecture_code":15},"0826":{"zip_code":"9430826","prefecture":"新潟県","prefecture_kana":"ニイガタケン","city":"上越市","city_kana":"ジョウエツシ","town":"幸町","town_kana":"サイワイチョウ","prefecture_code":15},"0827":{"zip_code":"9430827","prefecture":"新潟県","prefecture_kana":"ニイガタケン","city":"上越市","city_kana":"ジョウエツシ","town":"栄町","town_kana":"サカエマチ","prefecture_code":15},"0144":{"zip_code":"9430144","prefecture":"新潟県","prefecture_kana":"ニイガタケン","city":"上越市","city_kana":"ジョウエツシ","town":"桜町","town_kana":"サクラチョウ","prefecture_code":15},"0221":{"zip_code":"9430221","prefecture":"新潟県","prefecture_kana":"ニイガタケン","city":"上越市","city_kana":"ジョウエツシ","town":"三和区稲原","town_kana":"サンワクイナハラ","prefecture_code":15},"0316":{"zip_code":"9430316","prefecture":"新潟県","prefecture_kana":"ニイガタケン","city":"上越市","city_kana":"ジョウエツシ","town":"三和区井ノ口","town_kana":"サンワクイノクチ","prefecture_code":15},"0313":{"zip_code":"9430313","prefecture":"新潟県","prefecture_kana":"ニイガタケン","city":"上越市","city_kana":"ジョウエツシ","town":"三和区今保","town_kana":"サンワクイマポ","prefecture_code":15},"0317":{"zip_code":"9430317","prefecture":"新潟県","prefecture_kana":"ニイガタケン","city":"上越市","city_kana":"ジョウエツシ","town":"三和区浮島","town_kana":"サンワクウキシマ","prefecture_code":15},"0314":{"zip_code":"9430314","prefecture":"新潟県","prefecture_kana":"ニイガタケン","city":"上越市","city_kana":"ジョウエツシ","town":"三和区大","town_kana":"サンワクオオ","prefecture_code":15},"0305":{"zip_code":"9430305","prefecture":"新潟県","prefecture_kana":"ニイガタケン","city":"上越市","city_kana":"ジョウエツシ","town":"三和区岡田","town_kana":"サンワクオカダ","prefecture_code":15},"0231":{"zip_code":"9430231","prefecture":"新潟県","prefecture_kana":"ニイガタケン","city":"上越市","city_kana":"ジョウエツシ","town":"三和区鴨井","town_kana":"サンワクカモイ","prefecture_code":15},"0224":{"zip_code":"9430224","prefecture":"新潟県","prefecture_kana":"ニイガタケン","city":"上越市","city_kana":"ジョウエツシ","town":"三和区川浦","town_kana":"サンワクカワウラ","prefecture_code":15},"0301":{"zip_code":"9430301","prefecture":"新潟県","prefecture_kana":"ニイガタケン","city":"上越市","city_kana":"ジョウエツシ","town":"三和区北代","town_kana":"サンワクキタダイ","prefecture_code":15},"0235":{"zip_code":"9430235","prefecture":"新潟県","prefecture_kana":"ニイガタケン","city":"上越市","city_kana":"ジョウエツシ","town":"三和区窪","town_kana":"サンワククボ","prefecture_code":15},"0304":{"zip_code":"9430304","prefecture":"新潟県","prefecture_kana":"ニイガタケン","city":"上越市","city_kana":"ジョウエツシ","town":"三和区桑曽根","town_kana":"サンワククワゾネ","prefecture_code":15},"0311":{"zip_code":"9430311","prefecture":"新潟県","prefecture_kana":"ニイガタケン","city":"上越市","city_kana":"ジョウエツシ","town":"三和区島倉","town_kana":"サンワクシマクラ","prefecture_code":15},"0307":{"zip_code":"9430307","prefecture":"新潟県","prefecture_kana":"ニイガタケン","city":"上越市","city_kana":"ジョウエツシ","town":"三和区下新保","town_kana":"サンワクシモシンボ","prefecture_code":15},"0312":{"zip_code":"9430312","prefecture":"新潟県","prefecture_kana":"ニイガタケン","city":"上越市","city_kana":"ジョウエツシ","town":"三和区下田島","town_kana":"サンワクシモタジマ","prefecture_code":15},"0222":{"zip_code":"9430222","prefecture":"新潟県","prefecture_kana":"ニイガタケン","city":"上越市","city_kana":"ジョウエツシ","town":"三和区下中","town_kana":"サンワクシモナカ","prefecture_code":15},"0306":{"zip_code":"9430306","prefecture":"新潟県","prefecture_kana":"ニイガタケン","city":"上越市","city_kana":"ジョウエツシ","town":"三和区所山田","town_kana":"サンワクショヤマダ","prefecture_code":15},"0228":{"zip_code":"9430228","prefecture":"新潟県","prefecture_kana":"ニイガタケン","city":"上越市","city_kana":"ジョウエツシ","town":"三和区神明町","town_kana":"サンワクシンメイチョウ","prefecture_code":15},"0223":{"zip_code":"9430223","prefecture":"新潟県","prefecture_kana":"ニイガタケン","city":"上越市","city_kana":"ジョウエツシ","town":"三和区田","town_kana":"サンワクタ","prefecture_code":15},"0236":{"zip_code":"9430236","prefecture":"新潟県","prefecture_kana":"ニイガタケン","city":"上越市","city_kana":"ジョウエツシ","town":"三和区中野","town_kana":"サンワクナカノ","prefecture_code":15},"0225":{"zip_code":"9430225","prefecture":"新潟県","prefecture_kana":"ニイガタケン","city":"上越市","city_kana":"ジョウエツシ","town":"三和区野","town_kana":"サンワクノ","prefecture_code":15},"0302":{"zip_code":"9430302","prefecture":"新潟県","prefecture_kana":"ニイガタケン","city":"上越市","city_kana":"ジョウエツシ","town":"三和区払沢","town_kana":"サンワクハライザワ","prefecture_code":15},"0227":{"zip_code":"9430227","prefecture":"新潟県","prefecture_kana":"ニイガタケン","city":"上越市","city_kana":"ジョウエツシ","town":"三和区番町","town_kana":"サンワクバンマチ","prefecture_code":15},"0226":{"zip_code":"9430226","prefecture":"新潟県","prefecture_kana":"ニイガタケン","city":"上越市","city_kana":"ジョウエツシ","town":"三和区日和町","town_kana":"サンワクヒヨリチョウ","prefecture_code":15},"0234":{"zip_code":"9430234","prefecture":"新潟県","prefecture_kana":"ニイガタケン","city":"上越市","city_kana":"ジョウエツシ","town":"三和区法花寺","town_kana":"サンワクホッケイジ","prefecture_code":15},"0233":{"zip_code":"9430233","prefecture":"新潟県","prefecture_kana":"ニイガタケン","city":"上越市","city_kana":"ジョウエツシ","town":"三和区水科","town_kana":"サンワクミズシナ","prefecture_code":15},"0232":{"zip_code":"9430232","prefecture":"新潟県","prefecture_kana":"ニイガタケン","city":"上越市","city_kana":"ジョウエツシ","town":"三和区水吉","town_kana":"サンワクミズヨシ","prefecture_code":15},"0315":{"zip_code":"9430315","prefecture":"新潟県","prefecture_kana":"ニイガタケン","city":"上越市","city_kana":"ジョウエツシ","town":"三和区三村新田","town_kana":"サンワクミムラシンデン","prefecture_code":15},"0318":{"zip_code":"9430318","prefecture":"新潟県","prefecture_kana":"ニイガタケン","city":"上越市","city_kana":"ジョウエツシ","town":"三和区宮崎新田","town_kana":"サンワクミヤザキシンデン","prefecture_code":15},"0303":{"zip_code":"9430303","prefecture":"新潟県","prefecture_kana":"ニイガタケン","city":"上越市","city_kana":"ジョウエツシ","town":"三和区山高津","town_kana":"サンワクヤマタカツ","prefecture_code":15},"0849":{"zip_code":"9430849","prefecture":"新潟県","prefecture_kana":"ニイガタケン","city":"上越市","city_kana":"ジョウエツシ","town":"塩荷谷","town_kana":"シオニダニ","prefecture_code":15},"0155":{"zip_code":"9430155","prefecture":"新潟県","prefecture_kana":"ニイガタケン","city":"上越市","city_kana":"ジョウエツシ","town":"四ケ所","town_kana":"シカショ","prefecture_code":15},"0865":{"zip_code":"9430865","prefecture":"新潟県","prefecture_kana":"ニイガタケン","city":"上越市","city_kana":"ジョウエツシ","town":"七ケ所新田","town_kana":"シチカショシンデン","prefecture_code":15},"0875":{"zip_code":"9430875","prefecture":"新潟県","prefecture_kana":"ニイガタケン","city":"上越市","city_kana":"ジョウエツシ","town":"地頭方","town_kana":"ジトウガタ","prefecture_code":15},"0853":{"zip_code":"9430853","prefecture":"新潟県","prefecture_kana":"ニイガタケン","city":"上越市","city_kana":"ジョウエツシ","town":"島田","town_kana":"シマダ","prefecture_code":15},"0854":{"zip_code":"9430854","prefecture":"新潟県","prefecture_kana":"ニイガタケン","city":"上越市","city_kana":"ジョウエツシ","town":"島田上新田","town_kana":"シマダカミシンデン","prefecture_code":15},"0852":{"zip_code":"9430852","prefecture":"新潟県","prefecture_kana":"ニイガタケン","city":"上越市","city_kana":"ジョウエツシ","town":"島田下新田","town_kana":"シマダシモシンデン","prefecture_code":15},"0119":{"zip_code":"9430119","prefecture":"新潟県","prefecture_kana":"ニイガタケン","city":"上越市","city_kana":"ジョウエツシ","town":"下池部","town_kana":"シモイケベ","prefecture_code":15},"0167":{"zip_code":"9430167","prefecture":"新潟県","prefecture_kana":"ニイガタケン","city":"上越市","city_kana":"ジョウエツシ","town":"下稲田","town_kana":"シモイナダ","prefecture_code":15},"0134":{"zip_code":"9430134","prefecture":"新潟県","prefecture_kana":"ニイガタケン","city":"上越市","city_kana":"ジョウエツシ","town":"下稲塚","town_kana":"シモイナヅカ","prefecture_code":15},"0813":{"zip_code":"9430813","prefecture":"新潟県","prefecture_kana":"ニイガタケン","city":"上越市","city_kana":"ジョウエツシ","town":"下正善寺","town_kana":"シモショウゼンジ","prefecture_code":15},"0843":{"zip_code":"9430843","prefecture":"新潟県","prefecture_kana":"ニイガタケン","city":"上越市","city_kana":"ジョウエツシ","town":"下新田","town_kana":"シモシンデン","prefecture_code":15},"0142":{"zip_code":"9430142","prefecture":"新潟県","prefecture_kana":"ニイガタケン","city":"上越市","city_kana":"ジョウエツシ","town":"下新町","town_kana":"シモシンマチ","prefecture_code":15},"0426":{"zip_code":"9430426","prefecture":"新潟県","prefecture_kana":"ニイガタケン","city":"上越市","city_kana":"ジョウエツシ","town":"下曾根","town_kana":"シモゾネ","prefecture_code":15},"0125":{"zip_code":"9430125","prefecture":"新潟県","prefecture_kana":"ニイガタケン","city":"上越市","city_kana":"ジョウエツシ","town":"下富川","town_kana":"シモトミガワ","prefecture_code":15},"0899":{"zip_code":"9430899","prefecture":"新潟県","prefecture_kana":"ニイガタケン","city":"上越市","city_kana":"ジョウエツシ","town":"下中田","town_kana":"シモナカダ","prefecture_code":15},"0111":{"zip_code":"9430111","prefecture":"新潟県","prefecture_kana":"ニイガタケン","city":"上越市","city_kana":"ジョウエツシ","town":"下野田","town_kana":"シモノダ","prefecture_code":15},"0851":{"zip_code":"9430851","prefecture":"新潟県","prefecture_kana":"ニイガタケン","city":"上越市","city_kana":"ジョウエツシ","town":"下箱井","town_kana":"シモハコイ","prefecture_code":15},"0878":{"zip_code":"9430878","prefecture":"新潟県","prefecture_kana":"ニイガタケン","city":"上越市","city_kana":"ジョウエツシ","town":"下馬場","town_kana":"シモババ","prefecture_code":15},"0135":{"zip_code":"9430135","prefecture":"新潟県","prefecture_kana":"ニイガタケン","city":"上越市","city_kana":"ジョウエツシ","town":"下四ツ屋","town_kana":"シモヨツヤ","prefecture_code":15},"0416":{"zip_code":"9430416","prefecture":"新潟県","prefecture_kana":"ニイガタケン","city":"上越市","city_kana":"ジョウエツシ","town":"十二ノ木","town_kana":"ジュウニノキ","prefecture_code":15},"0124":{"zip_code":"9430124","prefecture":"新潟県","prefecture_kana":"ニイガタケン","city":"上越市","city_kana":"ジョウエツシ","town":"上雲寺","town_kana":"ジョウウンジ","prefecture_code":15},"0891":{"zip_code":"9430891","prefecture":"新潟県","prefecture_kana":"ニイガタケン","city":"上越市","city_kana":"ジョウエツシ","town":"昭和町","town_kana":"ショウワマチ","prefecture_code":15},"0804":{"zip_code":"9430804","prefecture":"新潟県","prefecture_kana":"ニイガタケン","city":"上越市","city_kana":"ジョウエツシ","town":"新光町","town_kana":"シンコウチョウ","prefecture_code":15},"0147":{"zip_code":"9430147","prefecture":"新潟県","prefecture_kana":"ニイガタケン","city":"上越市","city_kana":"ジョウエツシ","town":"新南町","town_kana":"シンナンチョウ","prefecture_code":15},"0122":{"zip_code":"9430122","prefecture":"新潟県","prefecture_kana":"ニイガタケン","city":"上越市","city_kana":"ジョウエツシ","town":"新保古新田","town_kana":"シンボコシンデン","prefecture_code":15},"0822":{"zip_code":"9430822","prefecture":"新潟県","prefecture_kana":"ニイガタケン","city":"上越市","city_kana":"ジョウエツシ","town":"新町","town_kana":"シンマチ","prefecture_code":15},"0102":{"zip_code":"9430102","prefecture":"新潟県","prefecture_kana":"ニイガタケン","city":"上越市","city_kana":"ジョウエツシ","town":"杉野袋","town_kana":"スギノフクロ","prefecture_code":15},"0829":{"zip_code":"9430829","prefecture":"新潟県","prefecture_kana":"ニイガタケン","city":"上越市","city_kana":"ジョウエツシ","town":"薄袋","town_kana":"ススキブクロ","prefecture_code":15},"0107":{"zip_code":"9430107","prefecture":"新潟県","prefecture_kana":"ニイガタケン","city":"上越市","city_kana":"ジョウエツシ","town":"諏訪","town_kana":"スワ","prefecture_code":15},"0810":{"zip_code":"9430810","prefecture":"新潟県","prefecture_kana":"ニイガタケン","city":"上越市","city_kana":"ジョウエツシ","town":"大学前","town_kana":"ダイガクマエ","prefecture_code":15},"0802":{"zip_code":"9430802","prefecture":"新潟県","prefecture_kana":"ニイガタケン","city":"上越市","city_kana":"ジョウエツシ","town":"大豆","town_kana":"ダイズ","prefecture_code":15},"0172":{"zip_code":"9430172","prefecture":"新潟県","prefecture_kana":"ニイガタケン","city":"上越市","city_kana":"ジョウエツシ","town":"大道福田","town_kana":"ダイドウフクダ","prefecture_code":15},"0175":{"zip_code":"9430175","prefecture":"新潟県","prefecture_kana":"ニイガタケン","city":"上越市","city_kana":"ジョウエツシ","town":"大日","town_kana":"ダイニチ","prefecture_code":15},"0845":{"zip_code":"9430845","prefecture":"新潟県","prefecture_kana":"ニイガタケン","city":"上越市","city_kana":"ジョウエツシ","town":"高田新田","town_kana":"タカダシンデン","prefecture_code":15},"0423":{"zip_code":"9430423","prefecture":"新潟県","prefecture_kana":"ニイガタケン","city":"上越市","city_kana":"ジョウエツシ","town":"高津","town_kana":"タカツ","prefecture_code":15},"0182":{"zip_code":"9430182","prefecture":"新潟県","prefecture_kana":"ニイガタケン","city":"上越市","city_kana":"ジョウエツシ","town":"高森","town_kana":"タカモリ","prefecture_code":15},"0897":{"zip_code":"9430897","prefecture":"新潟県","prefecture_kana":"ニイガタケン","city":"上越市","city_kana":"ジョウエツシ","town":"滝寺","town_kana":"タキデラ","prefecture_code":15},"0132":{"zip_code":"9430132","prefecture":"新潟県","prefecture_kana":"ニイガタケン","city":"上越市","city_kana":"ジョウエツシ","town":"辰尾新田","town_kana":"タツオシンデン","prefecture_code":15},"0137":{"zip_code":"9430137","prefecture":"新潟県","prefecture_kana":"ニイガタケン","city":"上越市","city_kana":"ジョウエツシ","town":"長者町","town_kana":"チョウジャマチ","prefecture_code":15},"0898":{"zip_code":"9430898","prefecture":"新潟県","prefecture_kana":"ニイガタケン","city":"上越市","city_kana":"ジョウエツシ","town":"塚田新田","town_kana":"ツカダシンデン","prefecture_code":15},"0821":{"zip_code":"9430821","prefecture":"新潟県","prefecture_kana":"ニイガタケン","city":"上越市","city_kana":"ジョウエツシ","town":"土橋","town_kana":"ツチハシ","prefecture_code":15},"0115":{"zip_code":"9430115","prefecture":"新潟県","prefecture_kana":"ニイガタケン","city":"上越市","city_kana":"ジョウエツシ","town":"劔","town_kana":"ツルギ","prefecture_code":15},"0104":{"zip_code":"9430104","prefecture":"新潟県","prefecture_kana":"ニイガタケン","city":"上越市","city_kana":"ジョウエツシ","town":"鶴町","town_kana":"ツルマチ","prefecture_code":15},"0166":{"zip_code":"9430166","prefecture":"新潟県","prefecture_kana":"ニイガタケン","city":"上越市","city_kana":"ジョウエツシ","town":"寺","town_kana":"テラ","prefecture_code":15},"0892":{"zip_code":"9430892","prefecture":"新潟県","prefecture_kana":"ニイガタケン","city":"上越市","city_kana":"ジョウエツシ","town":"寺町","town_kana":"テラマチ","prefecture_code":15},"0859":{"zip_code":"9430859","prefecture":"新潟県","prefecture_kana":"ニイガタケン","city":"上越市","city_kana":"ジョウエツシ","town":"寺町","town_kana":"テラマチ","prefecture_code":15},"0866":{"zip_code":"9430866","prefecture":"新潟県","prefecture_kana":"ニイガタケン","city":"上越市","city_kana":"ジョウエツシ","town":"土合","town_kana":"ドアイ","prefecture_code":15},"0178":{"zip_code":"9430178","prefecture":"新潟県","prefecture_kana":"ニイガタケン","city":"上越市","city_kana":"ジョウエツシ","town":"戸野目","town_kana":"トノメ","prefecture_code":15},"0176":{"zip_code":"9430176","prefecture":"新潟県","prefecture_kana":"ニイガタケン","city":"上越市","city_kana":"ジョウエツシ","town":"戸野目古新田","town_kana":"トノメコシンデン","prefecture_code":15},"0173":{"zip_code":"9430173","prefecture":"新潟県","prefecture_kana":"ニイガタケン","city":"上越市","city_kana":"ジョウエツシ","town":"富岡","town_kana":"トミオカ","prefecture_code":15},"0146":{"zip_code":"9430146","prefecture":"新潟県","prefecture_kana":"ニイガタケン","city":"上越市","city_kana":"ジョウエツシ","town":"とよば","town_kana":"トヨバ","prefecture_code":15},"0185":{"zip_code":"9430185","prefecture":"新潟県","prefecture_kana":"ニイガタケン","city":"上越市","city_kana":"ジョウエツシ","town":"長面","town_kana":"ナガオモテ","prefecture_code":15},"0812":{"zip_code":"9430812","prefecture":"新潟県","prefecture_kana":"ニイガタケン","city":"上越市","city_kana":"ジョウエツシ","town":"中正善寺","town_kana":"ナカショウゼンジ","prefecture_code":15},"0174":{"zip_code":"9430174","prefecture":"新潟県","prefecture_kana":"ニイガタケン","city":"上越市","city_kana":"ジョウエツシ","town":"中田新田","town_kana":"ナカダシンデン","prefecture_code":15},"0882":{"zip_code":"9430882","prefecture":"新潟県","prefecture_kana":"ニイガタケン","city":"上越市","city_kana":"ジョウエツシ","town":"中田原","town_kana":"ナカダハラ","prefecture_code":15},"0883":{"zip_code":"9430883","prefecture":"新潟県","prefecture_kana":"ニイガタケン","city":"上越市","city_kana":"ジョウエツシ","town":"中通町","town_kana":"ナカドオリマチ","prefecture_code":15},"0164":{"zip_code":"9430164","prefecture":"新潟県","prefecture_kana":"ニイガタケン","city":"上越市","city_kana":"ジョウエツシ","town":"中々村新田","town_kana":"ナカナカムラシンデン","prefecture_code":15},"0857":{"zip_code":"9430857","prefecture":"新潟県","prefecture_kana":"ニイガタケン","city":"上越市","city_kana":"ジョウエツシ","town":"中箱井","town_kana":"ナカハコイ","prefecture_code":15},"0831":{"zip_code":"9430831","prefecture":"新潟県","prefecture_kana":"ニイガタケン","city":"上越市","city_kana":"ジョウエツシ","town":"仲町","town_kana":"ナカマチ","prefecture_code":15},"0801":{"zip_code":"9430801","prefecture":"新潟県","prefecture_kana":"ニイガタケン","city":"上越市","city_kana":"ジョウエツシ","town":"中門前","town_kana":"ナカモンゼン","prefecture_code":15},"0819":{"zip_code":"9430819","prefecture":"新潟県","prefecture_kana":"ニイガタケン","city":"上越市","city_kana":"ジョウエツシ","town":"中屋敷","town_kana":"ナカヤシキ","prefecture_code":15},"0152":{"zip_code":"9430152","prefecture":"新潟県","prefecture_kana":"ニイガタケン","city":"上越市","city_kana":"ジョウエツシ","town":"西市野口","town_kana":"ニシイチノクチ","prefecture_code":15},"0834":{"zip_code":"9430834","prefecture":"新潟県","prefecture_kana":"ニイガタケン","city":"上越市","city_kana":"ジョウエツシ","town":"西城町","town_kana":"ニシシロチョウ","prefecture_code":15},"0873":{"zip_code":"9430873","prefecture":"新潟県","prefecture_kana":"ニイガタケン","city":"上越市","city_kana":"ジョウエツシ","town":"西田中","town_kana":"ニシタナカ","prefecture_code":15},"0136":{"zip_code":"9430136","prefecture":"新潟県","prefecture_kana":"ニイガタケン","city":"上越市","city_kana":"ジョウエツシ","town":"西松野木","town_kana":"ニシマツノキ","prefecture_code":15},"0116":{"zip_code":"9430116","prefecture":"新潟県","prefecture_kana":"ニイガタケン","city":"上越市","city_kana":"ジョウエツシ","town":"野尻","town_kana":"ノジリ","prefecture_code":15},"0887":{"zip_code":"9430887","prefecture":"新潟県","prefecture_kana":"ニイガタケン","city":"上越市","city_kana":"ジョウエツシ","town":"灰塚","town_kana":"ハイヅカ","prefecture_code":15},"0118":{"zip_code":"9430118","prefecture":"新潟県","prefecture_kana":"ニイガタケン","city":"上越市","city_kana":"ジョウエツシ","town":"東市野口","town_kana":"ヒガシイチノクチ","prefecture_code":15},"0133":{"zip_code":"9430133","prefecture":"新潟県","prefecture_kana":"ニイガタケン","city":"上越市","city_kana":"ジョウエツシ","town":"東稲塚新田","town_kana":"ヒガシイナヅカシンデン","prefecture_code":15},"0415":{"zip_code":"9430415","prefecture":"新潟県","prefecture_kana":"ニイガタケン","city":"上越市","city_kana":"ジョウエツシ","town":"東京田","town_kana":"ヒガシキョウデン","prefecture_code":15},"0836":{"zip_code":"9430836","prefecture":"新潟県","prefecture_kana":"ニイガタケン","city":"上越市","city_kana":"ジョウエツシ","town":"東城町","town_kana":"ヒガシシロチョウ","prefecture_code":15},"0105":{"zip_code":"9430105","prefecture":"新潟県","prefecture_kana":"ニイガタケン","city":"上越市","city_kana":"ジョウエツシ","town":"東原","town_kana":"ヒガシハラ","prefecture_code":15},"0825":{"zip_code":"9430825","prefecture":"新潟県","prefecture_kana":"ニイガタケン","city":"上越市","city_kana":"ジョウエツシ","town":"東本町","town_kana":"ヒガシホンチョウ","prefecture_code":15},"0163":{"zip_code":"9430163","prefecture":"新潟県","prefecture_kana":"ニイガタケン","city":"上越市","city_kana":"ジョウエツシ","town":"平岡","town_kana":"ヒラオカ","prefecture_code":15},"0816":{"zip_code":"9430816","prefecture":"新潟県","prefecture_kana":"ニイガタケン","city":"上越市","city_kana":"ジョウエツシ","town":"藤新田","town_kana":"フジシンデン","prefecture_code":15},"0121":{"zip_code":"9430121","prefecture":"新潟県","prefecture_kana":"ニイガタケン","city":"上越市","city_kana":"ジョウエツシ","town":"藤塚","town_kana":"フジヅカ","prefecture_code":15},"0171":{"zip_code":"9430171","prefecture":"新潟県","prefecture_kana":"ニイガタケン","city":"上越市","city_kana":"ジョウエツシ","town":"藤野新田","town_kana":"フジノシンデン","prefecture_code":15},"0817":{"zip_code":"9430817","prefecture":"新潟県","prefecture_kana":"ニイガタケン","city":"上越市","city_kana":"ジョウエツシ","town":"藤巻","town_kana":"フジマキ","prefecture_code":15},"0151":{"zip_code":"9430151","prefecture":"新潟県","prefecture_kana":"ニイガタケン","city":"上越市","city_kana":"ジョウエツシ","town":"平成町","town_kana":"ヘイセイチョウ","prefecture_code":15},"0123":{"zip_code":"9430123","prefecture":"新潟県","prefecture_kana":"ニイガタケン","city":"上越市","city_kana":"ジョウエツシ","town":"本新保","town_kana":"ホンシンボ","prefecture_code":15},"0832":{"zip_code":"9430832","prefecture":"新潟県","prefecture_kana":"ニイガタケン","city":"上越市","city_kana":"ジョウエツシ","town":"本町","town_kana":"ホンチョウ","prefecture_code":15},"0184":{"zip_code":"9430184","prefecture":"新潟県","prefecture_kana":"ニイガタケン","city":"上越市","city_kana":"ジョウエツシ","town":"本道","town_kana":"ホンドウ","prefecture_code":15},"0642":{"zip_code":"9430642","prefecture":"新潟県","prefecture_kana":"ニイガタケン","city":"上越市","city_kana":"ジョウエツシ","town":"牧区荒井","town_kana":"マキクアライ","prefecture_code":15},"0645":{"zip_code":"9430645","prefecture":"新潟県","prefecture_kana":"ニイガタケン","city":"上越市","city_kana":"ジョウエツシ","town":"牧区池舟","town_kana":"マキクイケフネ","prefecture_code":15},"0617":{"zip_code":"9430617","prefecture":"新潟県","prefecture_kana":"ニイガタケン","city":"上越市","city_kana":"ジョウエツシ","town":"牧区泉","town_kana":"マキクイズミ","prefecture_code":15},"0615":{"zip_code":"9430615","prefecture":"新潟県","prefecture_kana":"ニイガタケン","city":"上越市","city_kana":"ジョウエツシ","town":"牧区今清水","town_kana":"マキクイマシミズ","prefecture_code":15},"0635":{"zip_code":"9430635","prefecture":"新潟県","prefecture_kana":"ニイガタケン","city":"上越市","city_kana":"ジョウエツシ","town":"牧区岩神","town_kana":"マキクイワガミ","prefecture_code":15},"0623":{"zip_code":"9430623","prefecture":"新潟県","prefecture_kana":"ニイガタケン","city":"上越市","city_kana":"ジョウエツシ","town":"牧区宇津俣","town_kana":"マキクウツノマタ","prefecture_code":15},"0606":{"zip_code":"9430606","prefecture":"新潟県","prefecture_kana":"ニイガタケン","city":"上越市","city_kana":"ジョウエツシ","town":"牧区大月","town_kana":"マキクオオツキ","prefecture_code":15},"0648":{"zip_code":"9430648","prefecture":"新潟県","prefecture_kana":"ニイガタケン","city":"上越市","city_kana":"ジョウエツシ","town":"牧区小川","town_kana":"マキクオガワ","prefecture_code":15},"0646":{"zip_code":"9430646","prefecture":"新潟県","prefecture_kana":"ニイガタケン","city":"上越市","city_kana":"ジョウエツシ","town":"牧区落田","town_kana":"マキクオチダ","prefecture_code":15},"0616":{"zip_code":"9430616","prefecture":"新潟県","prefecture_kana":"ニイガタケン","city":"上越市","city_kana":"ジョウエツシ","town":"牧区樫谷","town_kana":"マキクカシダニ","prefecture_code":15},"0611":{"zip_code":"9430611","prefecture":"新潟県","prefecture_kana":"ニイガタケン","city":"上越市","city_kana":"ジョウエツシ","town":"牧区片町","town_kana":"マキクカタマチ","prefecture_code":15},"0632":{"zip_code":"9430632","prefecture":"新潟県","prefecture_kana":"ニイガタケン","city":"上越市","city_kana":"ジョウエツシ","town":"牧区上昆子","town_kana":"マキクカミビリゴ","prefecture_code":15},"0625":{"zip_code":"9430625","prefecture":"新潟県","prefecture_kana":"ニイガタケン","city":"上越市","city_kana":"ジョウエツシ","town":"牧区上牧","town_kana":"マキクカミマキ","prefecture_code":15},"0605":{"zip_code":"9430605","prefecture":"新潟県","prefecture_kana":"ニイガタケン","city":"上越市","city_kana":"ジョウエツシ","town":"牧区神谷","town_kana":"マキクカミヤ","prefecture_code":15},"0607":{"zip_code":"9430607","prefecture":"新潟県","prefecture_kana":"ニイガタケン","city":"上越市","city_kana":"ジョウエツシ","town":"牧区川井沢","town_kana":"マキクカワイザワ","prefecture_code":15},"0626":{"zip_code":"9430626","prefecture":"新潟県","prefecture_kana":"ニイガタケン","city":"上越市","city_kana":"ジョウエツシ","town":"牧区倉下","town_kana":"マキククラシタ","prefecture_code":15},"0636":{"zip_code":"9430636","prefecture":"新潟県","prefecture_kana":"ニイガタケン","city":"上越市","city_kana":"ジョウエツシ","town":"牧区国川","town_kana":"マキクコクガワ","prefecture_code":15},"0637":{"zip_code":"9430637","prefecture":"新潟県","prefecture_kana":"ニイガタケン","city":"上越市","city_kana":"ジョウエツシ","town":"牧区桜滝","town_kana":"マキクサクラタキ","prefecture_code":15},"0633":{"zip_code":"9430633","prefecture":"新潟県","prefecture_kana":"ニイガタケン","city":"上越市","city_kana":"ジョウエツシ","town":"牧区下昆子","town_kana":"マキクシモビリゴ","prefecture_code":15},"0631":{"zip_code":"9430631","prefecture":"新潟県","prefecture_kana":"ニイガタケン","city":"上越市","city_kana":"ジョウエツシ","town":"牧区下湯谷","town_kana":"マキクシモユウヤ","prefecture_code":15},"0614":{"zip_code":"9430614","prefecture":"新潟県","prefecture_kana":"ニイガタケン","city":"上越市","city_kana":"ジョウエツシ","town":"牧区切光","town_kana":"マキクセッコウ","prefecture_code":15},"0603":{"zip_code":"9430603","prefecture":"新潟県","prefecture_kana":"ニイガタケン","city":"上越市","city_kana":"ジョウエツシ","town":"牧区平山","town_kana":"マキクタイラヤマ","prefecture_code":15},"0621":{"zip_code":"9430621","prefecture":"新潟県","prefecture_kana":"ニイガタケン","city":"上越市","city_kana":"ジョウエツシ","town":"牧区高尾","town_kana":"マキクタカオ","prefecture_code":15},"0613":{"zip_code":"9430613","prefecture":"新潟県","prefecture_kana":"ニイガタケン","city":"上越市","city_kana":"ジョウエツシ","town":"牧区高谷","town_kana":"マキクタカタニ","prefecture_code":15},"0634":{"zip_code":"9430634","prefecture":"新潟県","prefecture_kana":"ニイガタケン","city":"上越市","city_kana":"ジョウエツシ","town":"牧区田島","town_kana":"マキクタジマ","prefecture_code":15},"0628":{"zip_code":"9430628","prefecture":"新潟県","prefecture_kana":"ニイガタケン","city":"上越市","city_kana":"ジョウエツシ","town":"牧区棚広","town_kana":"マキクタナヒロ","prefecture_code":15},"0622":{"zip_code":"9430622","prefecture":"新潟県","prefecture_kana":"ニイガタケン","city":"上越市","city_kana":"ジョウエツシ","town":"牧区棚広新田","town_kana":"マキクタナヒロシンデン","prefecture_code":15},"0601":{"zip_code":"9430601","prefecture":"新潟県","prefecture_kana":"ニイガタケン","city":"上越市","city_kana":"ジョウエツシ","town":"牧区坪山","town_kana":"マキクツボヤマ","prefecture_code":15},"0604":{"zip_code":"9430604","prefecture":"新潟県","prefecture_kana":"ニイガタケン","city":"上越市","city_kana":"ジョウエツシ","town":"牧区七森","town_kana":"マキクナナモリ","prefecture_code":15},"0627":{"zip_code":"9430627","prefecture":"新潟県","prefecture_kana":"ニイガタケン","city":"上越市","city_kana":"ジョウエツシ","town":"牧区原","town_kana":"マキクハラ","prefecture_code":15},"0641":{"zip_code":"9430641","prefecture":"新潟県","prefecture_kana":"ニイガタケン","city":"上越市","city_kana":"ジョウエツシ","town":"牧区東松ノ木","town_kana":"マキクヒガシマツノキ","prefecture_code":15},"0602":{"zip_code":"9430602","prefecture":"新潟県","prefecture_kana":"ニイガタケン","city":"上越市","city_kana":"ジョウエツシ","town":"牧区平方","town_kana":"マキクヒラカタ","prefecture_code":15},"0624":{"zip_code":"9430624","prefecture":"新潟県","prefecture_kana":"ニイガタケン","city":"上越市","city_kana":"ジョウエツシ","town":"牧区府殿","town_kana":"マキクフドノ","prefecture_code":15},"0644":{"zip_code":"9430644","prefecture":"新潟県","prefecture_kana":"ニイガタケン","city":"上越市","city_kana":"ジョウエツシ","town":"牧区宮口","town_kana":"マキクミヤグチ","prefecture_code":15},"0647":{"zip_code":"9430647","prefecture":"新潟県","prefecture_kana":"ニイガタケン","city":"上越市","city_kana":"ジョウエツシ","town":"牧区柳島","town_kana":"マキクヤナギシマ","prefecture_code":15},"0643":{"zip_code":"9430643","prefecture":"新潟県","prefecture_kana":"ニイガタケン","city":"上越市","city_kana":"ジョウエツシ","town":"牧区山口","town_kana":"マキクヤマグチ","prefecture_code":15},"0612":{"zip_code":"9430612","prefecture":"新潟県","prefecture_kana":"ニイガタケン","city":"上越市","city_kana":"ジョウエツシ","town":"牧区吉坪","town_kana":"マキクヨシツボ","prefecture_code":15},"0844":{"zip_code":"9430844","prefecture":"新潟県","prefecture_kana":"ニイガタケン","city":"上越市","city_kana":"ジョウエツシ","town":"丸山新田","town_kana":"マルヤマシンデン","prefecture_code":15},"0413":{"zip_code":"9430413","prefecture":"新潟県","prefecture_kana":"ニイガタケン","city":"上越市","city_kana":"ジョウエツシ","town":"南方","town_kana":"ミナミガタ","prefecture_code":15},"0837":{"zip_code":"9430837","prefecture":"新潟県","prefecture_kana":"ニイガタケン","city":"上越市","city_kana":"ジョウエツシ","town":"南城町","town_kana":"ミナミシロチョウ","prefecture_code":15},"0108":{"zip_code":"9430108","prefecture":"新潟県","prefecture_kana":"ニイガタケン","city":"上越市","city_kana":"ジョウエツシ","town":"南新保","town_kana":"ミナミシンボ","prefecture_code":15},"0847":{"zip_code":"9430847","prefecture":"新潟県","prefecture_kana":"ニイガタケン","city":"上越市","city_kana":"ジョウエツシ","town":"南新町","town_kana":"ミナミシンマチ","prefecture_code":15},"0846":{"zip_code":"9430846","prefecture":"新潟県","prefecture_kana":"ニイガタケン","city":"上越市","city_kana":"ジョウエツシ","town":"南高田町","town_kana":"ミナミタカダマチ","prefecture_code":15},"0162":{"zip_code":"9430162","prefecture":"新潟県","prefecture_kana":"ニイガタケン","city":"上越市","city_kana":"ジョウエツシ","town":"南田屋新田","town_kana":"ミナミタヤシンデン","prefecture_code":15},"0841":{"zip_code":"9430841","prefecture":"新潟県","prefecture_kana":"ニイガタケン","city":"上越市","city_kana":"ジョウエツシ","town":"南本町","town_kana":"ミナミホンチョウ","prefecture_code":15},"0808":{"zip_code":"9430808","prefecture":"新潟県","prefecture_kana":"ニイガタケン","city":"上越市","city_kana":"ジョウエツシ","town":"宮野尾","town_kana":"ミヤノオ","prefecture_code":15},"0411":{"zip_code":"9430411","prefecture":"新潟県","prefecture_kana":"ニイガタケン","city":"上越市","city_kana":"ジョウエツシ","town":"妙油","town_kana":"ミョウユ","prefecture_code":15},"0888":{"zip_code":"9430888","prefecture":"新潟県","prefecture_kana":"ニイガタケン","city":"上越市","city_kana":"ジョウエツシ","town":"向橋","town_kana":"ムカバシ","prefecture_code":15},"0181":{"zip_code":"9430181","prefecture":"新潟県","prefecture_kana":"ニイガタケン","city":"上越市","city_kana":"ジョウエツシ","town":"虫川","town_kana":"ムシカワ","prefecture_code":15},"0835":{"zip_code":"9430835","prefecture":"新潟県","prefecture_kana":"ニイガタケン","city":"上越市","city_kana":"ジョウエツシ","town":"本城町","town_kana":"モトシロチョウ","prefecture_code":15},"0138":{"zip_code":"9430138","prefecture":"新潟県","prefecture_kana":"ニイガタケン","city":"上越市","city_kana":"ジョウエツシ","town":"本長者原","town_kana":"モトチョウジャハラ","prefecture_code":15},"0427":{"zip_code":"9430427","prefecture":"新潟県","prefecture_kana":"ニイガタケン","city":"上越市","city_kana":"ジョウエツシ","town":"元屋敷","town_kana":"モトヤシキ","prefecture_code":15},"0417":{"zip_code":"9430417","prefecture":"新潟県","prefecture_kana":"ニイガタケン","city":"上越市","city_kana":"ジョウエツシ","town":"森田","town_kana":"モリタ","prefecture_code":15},"0177":{"zip_code":"9430177","prefecture":"新潟県","prefecture_kana":"ニイガタケン","city":"上越市","city_kana":"ジョウエツシ","town":"門田新田","town_kana":"モンデンシンデン","prefecture_code":15},"0131":{"zip_code":"9430131","prefecture":"新潟県","prefecture_kana":"ニイガタケン","city":"上越市","city_kana":"ジョウエツシ","town":"薮野","town_kana":"ヤブノ","prefecture_code":15},"0861":{"zip_code":"9430861","prefecture":"新潟県","prefecture_kana":"ニイガタケン","city":"上越市","city_kana":"ジョウエツシ","town":"大和","town_kana":"ヤマト","prefecture_code":15},"0815":{"zip_code":"9430815","prefecture":"新潟県","prefecture_kana":"ニイガタケン","city":"上越市","city_kana":"ジョウエツシ","town":"山屋敷町","town_kana":"ヤマヤシキマチ","prefecture_code":15},"0114":{"zip_code":"9430114","prefecture":"新潟県","prefecture_kana":"ニイガタケン","city":"上越市","city_kana":"ジョウエツシ","town":"吉岡","town_kana":"ヨシオカ","prefecture_code":15},"0201":{"zip_code":"9430201","prefecture":"新潟県","prefecture_kana":"ニイガタケン","city":"上越市","city_kana":"ジョウエツシ","town":"四辻町","town_kana":"ヨツジマチ","prefecture_code":15},"0103":{"zip_code":"9430103","prefecture":"新潟県","prefecture_kana":"ニイガタケン","city":"上越市","city_kana":"ジョウエツシ","town":"米岡","town_kana":"ヨネオカ","prefecture_code":15},"0202":{"zip_code":"9430202","prefecture":"新潟県","prefecture_kana":"ニイガタケン","city":"上越市","city_kana":"ジョウエツシ","town":"米町","town_kana":"ヨネマチ","prefecture_code":15},"0863":{"zip_code":"9430863","prefecture":"新潟県","prefecture_kana":"ニイガタケン","city":"上越市","city_kana":"ジョウエツシ","town":"脇野田","town_kana":"ワキノダ","prefecture_code":15}}