{"0000":{"zip_code":"9440000","prefecture":"新潟県","prefecture_kana":"ニイガタケン","city":"妙高市","city_kana":"ミョウコウシ","town":"","town_kana":"","prefecture_code":15},"0091":{"zip_code":"9440091","prefecture":"新潟県","prefecture_kana":"ニイガタケン","city":"妙高市","city_kana":"ミョウコウシ","town":"青田","town_kana":"アオタ","prefecture_code":15},"0043":{"zip_code":"9440043","prefecture":"新潟県","prefecture_kana":"ニイガタケン","city":"妙高市","city_kana":"ミョウコウシ","town":"朝日町","town_kana":"アサヒチョウ","prefecture_code":15},"0041":{"zip_code":"9440041","prefecture":"新潟県","prefecture_kana":"ニイガタケン","city":"妙高市","city_kana":"ミョウコウシ","town":"新井","town_kana":"アライ","prefecture_code":15},"0054":{"zip_code":"9440054","prefecture":"新潟県","prefecture_kana":"ニイガタケン","city":"妙高市","city_kana":"ミョウコウシ","town":"新井新田","town_kana":"アライシンデン","prefecture_code":15},"0011":{"zip_code":"9440011","prefecture":"新潟県","prefecture_kana":"ニイガタケン","city":"妙高市","city_kana":"ミョウコウシ","town":"石塚町","town_kana":"イシヅカチョウ","prefecture_code":15},"0084":{"zip_code":"9440084","prefecture":"新潟県","prefecture_kana":"ニイガタケン","city":"妙高市","city_kana":"ミョウコウシ","town":"五日市","town_kana":"イツカイチ","prefecture_code":15},"0006":[{"zip_code":"9440006","prefecture":"新潟県","prefecture_kana":"ニイガタケン","city":"妙高市","city_kana":"ミョウコウシ","town":"稲塚","town_kana":"イナヅカ","prefecture_code":15},{"zip_code":"9440006","prefecture":"新潟県","prefecture_kana":"ニイガタケン","city":"妙高市","city_kana":"ミョウコウシ","town":"大崎町","town_kana":"オオサキチョウ","prefecture_code":15}],"0075":{"zip_code":"9440075","prefecture":"新潟県","prefecture_kana":"ニイガタケン","city":"妙高市","city_kana":"ミョウコウシ","town":"猪野山","town_kana":"イノヤマ","prefecture_code":15},"0032":{"zip_code":"9440032","prefecture":"新潟県","prefecture_kana":"ニイガタケン","city":"妙高市","city_kana":"ミョウコウシ","town":"小出雲","town_kana":"オイズモ","prefecture_code":15},"0215":{"zip_code":"9440215","prefecture":"新潟県","prefecture_kana":"ニイガタケン","city":"妙高市","city_kana":"ミョウコウシ","town":"大貝","town_kana":"オオガイ","prefecture_code":15},"0333":{"zip_code":"9440333","prefecture":"新潟県","prefecture_kana":"ニイガタケン","city":"妙高市","city_kana":"ミョウコウシ","town":"大沢新田","town_kana":"オオサワシンデン","prefecture_code":15},"0216":{"zip_code":"9440216","prefecture":"新潟県","prefecture_kana":"ニイガタケン","city":"妙高市","city_kana":"ミョウコウシ","town":"大下","town_kana":"オオシモ","prefecture_code":15},"0224":{"zip_code":"9440224","prefecture":"新潟県","prefecture_kana":"ニイガタケン","city":"妙高市","city_kana":"ミョウコウシ","town":"大濁","town_kana":"オオニゴリ","prefecture_code":15},"0332":{"zip_code":"9440332","prefecture":"新潟県","prefecture_kana":"ニイガタケン","city":"妙高市","city_kana":"ミョウコウシ","town":"大原新田","town_kana":"オオハラシンデン","prefecture_code":15},"0094":{"zip_code":"9440094","prefecture":"新潟県","prefecture_kana":"ニイガタケン","city":"妙高市","city_kana":"ミョウコウシ","town":"岡崎新田","town_kana":"オカザキシンデン","prefecture_code":15},"0082":{"zip_code":"9440082","prefecture":"新潟県","prefecture_kana":"ニイガタケン","city":"妙高市","city_kana":"ミョウコウシ","town":"乙吉","town_kana":"オトヨシ","prefecture_code":15},"0081":{"zip_code":"9440081","prefecture":"新潟県","prefecture_kana":"ニイガタケン","city":"妙高市","city_kana":"ミョウコウシ","town":"籠町","town_kana":"カゴマチ","prefecture_code":15},"0037":{"zip_code":"9440037","prefecture":"新潟県","prefecture_kana":"ニイガタケン","city":"妙高市","city_kana":"ミョウコウシ","town":"学校町","town_kana":"ガッコウチョウ","prefecture_code":15},"0223":{"zip_code":"9440223","prefecture":"新潟県","prefecture_kana":"ニイガタケン","city":"妙高市","city_kana":"ミョウコウシ","town":"上小沢","town_kana":"カミコザワ","prefecture_code":15},"0025":{"zip_code":"9440025","prefecture":"新潟県","prefecture_kana":"ニイガタケン","city":"妙高市","city_kana":"ミョウコウシ","town":"上新保","town_kana":"カミシンボ","prefecture_code":15},"0001":{"zip_code":"9440001","prefecture":"新潟県","prefecture_kana":"ニイガタケン","city":"妙高市","city_kana":"ミョウコウシ","town":"上百々","town_kana":"カミドウドウ","prefecture_code":15},"0052":{"zip_code":"9440052","prefecture":"新潟県","prefecture_kana":"ニイガタケン","city":"妙高市","city_kana":"ミョウコウシ","town":"上中","town_kana":"カミナカ","prefecture_code":15},"0212":{"zip_code":"9440212","prefecture":"新潟県","prefecture_kana":"ニイガタケン","city":"妙高市","city_kana":"ミョウコウシ","town":"上濁川","town_kana":"カミニゴリカワ","prefecture_code":15},"0088":{"zip_code":"9440088","prefecture":"新潟県","prefecture_kana":"ニイガタケン","city":"妙高市","city_kana":"ミョウコウシ","town":"上八幡新田","town_kana":"カミハチマンシンデン","prefecture_code":15},"0225":{"zip_code":"9440225","prefecture":"新潟県","prefecture_kana":"ニイガタケン","city":"妙高市","city_kana":"ミョウコウシ","town":"上馬場","town_kana":"カミババ","prefecture_code":15},"0344":{"zip_code":"9440344","prefecture":"新潟県","prefecture_kana":"ニイガタケン","city":"妙高市","city_kana":"ミョウコウシ","town":"上平丸","town_kana":"カミヒラマル","prefecture_code":15},"0205":{"zip_code":"9440205","prefecture":"新潟県","prefecture_kana":"ニイガタケン","city":"妙高市","city_kana":"ミョウコウシ","town":"上堀之内","town_kana":"カミホリノウチ","prefecture_code":15},"0046":{"zip_code":"9440046","prefecture":"新潟県","prefecture_kana":"ニイガタケン","city":"妙高市","city_kana":"ミョウコウシ","town":"上町","town_kana":"カミマチ","prefecture_code":15},"0083":{"zip_code":"9440083","prefecture":"新潟県","prefecture_kana":"ニイガタケン","city":"妙高市","city_kana":"ミョウコウシ","town":"上四ツ屋","town_kana":"カミヨツヤ","prefecture_code":15},"0026":{"zip_code":"9440026","prefecture":"新潟県","prefecture_kana":"ニイガタケン","city":"妙高市","city_kana":"ミョウコウシ","town":"川上","town_kana":"カワカミ","prefecture_code":15},"0021":{"zip_code":"9440021","prefecture":"新潟県","prefecture_kana":"ニイガタケン","city":"妙高市","city_kana":"ミョウコウシ","town":"北条","town_kana":"キタジョウ","prefecture_code":15},"0034":{"zip_code":"9440034","prefecture":"新潟県","prefecture_kana":"ニイガタケン","city":"妙高市","city_kana":"ミョウコウシ","town":"経塚町","town_kana":"キョウヅカチョウ","prefecture_code":15},"0061":{"zip_code":"9440061","prefecture":"新潟県","prefecture_kana":"ニイガタケン","city":"妙高市","city_kana":"ミョウコウシ","town":"窪松原","town_kana":"クボマツバラ","prefecture_code":15},"0007":{"zip_code":"9440007","prefecture":"新潟県","prefecture_kana":"ニイガタケン","city":"妙高市","city_kana":"ミョウコウシ","town":"栗原","town_kana":"クリハラ","prefecture_code":15},"0020":{"zip_code":"9440020","prefecture":"新潟県","prefecture_kana":"ニイガタケン","city":"妙高市","city_kana":"ミョウコウシ","town":"工団町","town_kana":"コウダンチョウ","prefecture_code":15},"0004":{"zip_code":"9440004","prefecture":"新潟県","prefecture_kana":"ニイガタケン","city":"妙高市","city_kana":"ミョウコウシ","town":"国賀","town_kana":"コクカ","prefecture_code":15},"0213":{"zip_code":"9440213","prefecture":"新潟県","prefecture_kana":"ニイガタケン","city":"妙高市","city_kana":"ミョウコウシ","town":"小局","town_kana":"コツボネ","prefecture_code":15},"0226":{"zip_code":"9440226","prefecture":"新潟県","prefecture_kana":"ニイガタケン","city":"妙高市","city_kana":"ミョウコウシ","town":"木成","town_kana":"コナリ","prefecture_code":15},"0221":{"zip_code":"9440221","prefecture":"新潟県","prefecture_kana":"ニイガタケン","city":"妙高市","city_kana":"ミョウコウシ","town":"小濁","town_kana":"コニゴリ","prefecture_code":15},"0331":{"zip_code":"9440331","prefecture":"新潟県","prefecture_kana":"ニイガタケン","city":"妙高市","city_kana":"ミョウコウシ","town":"小原新田","town_kana":"コバラシンデン","prefecture_code":15},"0072":{"zip_code":"9440072","prefecture":"新潟県","prefecture_kana":"ニイガタケン","city":"妙高市","city_kana":"ミョウコウシ","town":"小丸山新田","town_kana":"コマルヤマシンデン","prefecture_code":15},"0086":{"zip_code":"9440086","prefecture":"新潟県","prefecture_kana":"ニイガタケン","city":"妙高市","city_kana":"ミョウコウシ","town":"坂井新田","town_kana":"サカイシンデン","prefecture_code":15},"0044":{"zip_code":"9440044","prefecture":"新潟県","prefecture_kana":"ニイガタケン","city":"妙高市","city_kana":"ミョウコウシ","town":"栄町","town_kana":"サカエチョウ","prefecture_code":15},"0341":{"zip_code":"9440341","prefecture":"新潟県","prefecture_kana":"ニイガタケン","city":"妙高市","city_kana":"ミョウコウシ","town":"猿橋","town_kana":"サルハシ","prefecture_code":15},"0053":{"zip_code":"9440053","prefecture":"新潟県","prefecture_kana":"ニイガタケン","city":"妙高市","city_kana":"ミョウコウシ","town":"三本木新田","town_kana":"サンボンギシンデン","prefecture_code":15},"0056":{"zip_code":"9440056","prefecture":"新潟県","prefecture_kana":"ニイガタケン","city":"妙高市","city_kana":"ミョウコウシ","town":"志","town_kana":"シ","prefecture_code":15},"0042":{"zip_code":"9440042","prefecture":"新潟県","prefecture_kana":"ニイガタケン","city":"妙高市","city_kana":"ミョウコウシ","town":"東雲町","town_kana":"シノノメチョウ","prefecture_code":15},"0035":{"zip_code":"9440035","prefecture":"新潟県","prefecture_kana":"ニイガタケン","city":"妙高市","city_kana":"ミョウコウシ","town":"渋江町","town_kana":"シブエチョウ","prefecture_code":15},"0203":{"zip_code":"9440203","prefecture":"新潟県","prefecture_kana":"ニイガタケン","city":"妙高市","city_kana":"ミョウコウシ","town":"下濁川","town_kana":"シモニゴリカワ","prefecture_code":15},"0343":{"zip_code":"9440343","prefecture":"新潟県","prefecture_kana":"ニイガタケン","city":"妙高市","city_kana":"ミョウコウシ","town":"下平丸","town_kana":"シモヒラマル","prefecture_code":15},"0048":{"zip_code":"9440048","prefecture":"新潟県","prefecture_kana":"ニイガタケン","city":"妙高市","city_kana":"ミョウコウシ","town":"下町","town_kana":"シモマチ","prefecture_code":15},"0096":{"zip_code":"9440096","prefecture":"新潟県","prefecture_kana":"ニイガタケン","city":"妙高市","city_kana":"ミョウコウシ","town":"神宮寺","town_kana":"ジングウジ","prefecture_code":15},"0005":[{"zip_code":"9440005","prefecture":"新潟県","prefecture_kana":"ニイガタケン","city":"妙高市","city_kana":"ミョウコウシ","town":"新栄町","town_kana":"シンサカエチョウ","prefecture_code":15},{"zip_code":"9440005","prefecture":"新潟県","prefecture_kana":"ニイガタケン","city":"妙高市","city_kana":"ミョウコウシ","town":"中川","town_kana":"ナカガワ","prefecture_code":15}],"0019":{"zip_code":"9440019","prefecture":"新潟県","prefecture_kana":"ニイガタケン","city":"妙高市","city_kana":"ミョウコウシ","town":"新工町","town_kana":"シンコウチョウ","prefecture_code":15},"0087":{"zip_code":"9440087","prefecture":"新潟県","prefecture_kana":"ニイガタケン","city":"妙高市","city_kana":"ミョウコウシ","town":"新保新田","town_kana":"シンボシンデン","prefecture_code":15},"0036":{"zip_code":"9440036","prefecture":"新潟県","prefecture_kana":"ニイガタケン","city":"妙高市","city_kana":"ミョウコウシ","town":"末広町","town_kana":"スエヒロチョウ","prefecture_code":15},"0057":{"zip_code":"9440057","prefecture":"新潟県","prefecture_kana":"ニイガタケン","city":"妙高市","city_kana":"ミョウコウシ","town":"菅沼","town_kana":"スガヌマ","prefecture_code":15},"0018":{"zip_code":"9440018","prefecture":"新潟県","prefecture_kana":"ニイガタケン","city":"妙高市","city_kana":"ミョウコウシ","town":"諏訪町","town_kana":"スワチョウ","prefecture_code":15},"0014":{"zip_code":"9440014","prefecture":"新潟県","prefecture_kana":"ニイガタケン","city":"妙高市","city_kana":"ミョウコウシ","town":"関川町","town_kana":"セキガワチョウ","prefecture_code":15},"0013":{"zip_code":"9440013","prefecture":"新潟県","prefecture_kana":"ニイガタケン","city":"妙高市","city_kana":"ミョウコウシ","town":"高柳","town_kana":"タカヤナギ","prefecture_code":15},"0031":{"zip_code":"9440031","prefecture":"新潟県","prefecture_kana":"ニイガタケン","city":"妙高市","city_kana":"ミョウコウシ","town":"田町","town_kana":"タマチ","prefecture_code":15},"0017":{"zip_code":"9440017","prefecture":"新潟県","prefecture_kana":"ニイガタケン","city":"妙高市","city_kana":"ミョウコウシ","town":"中央町","town_kana":"チュウオウチョウ","prefecture_code":15},"0003":{"zip_code":"9440003","prefecture":"新潟県","prefecture_kana":"ニイガタケン","city":"妙高市","city_kana":"ミョウコウシ","town":"月岡","town_kana":"ツキオカ","prefecture_code":15},"0222":{"zip_code":"9440222","prefecture":"新潟県","prefecture_kana":"ニイガタケン","city":"妙高市","city_kana":"ミョウコウシ","town":"坪山","town_kana":"ツボヤマ","prefecture_code":15},"0009":{"zip_code":"9440009","prefecture":"新潟県","prefecture_kana":"ニイガタケン","city":"妙高市","city_kana":"ミョウコウシ","town":"東陽町","town_kana":"トウヨウチョウ","prefecture_code":15},"0095":{"zip_code":"9440095","prefecture":"新潟県","prefecture_kana":"ニイガタケン","city":"妙高市","city_kana":"ミョウコウシ","town":"十日市","town_kana":"トオカイチ","prefecture_code":15},"0076":{"zip_code":"9440076","prefecture":"新潟県","prefecture_kana":"ニイガタケン","city":"妙高市","city_kana":"ミョウコウシ","town":"土田","town_kana":"ドダ","prefecture_code":15},"0345":{"zip_code":"9440345","prefecture":"新潟県","prefecture_kana":"ニイガタケン","city":"妙高市","city_kana":"ミョウコウシ","town":"長沢","town_kana":"ナガサワ","prefecture_code":15},"0342":{"zip_code":"9440342","prefecture":"新潟県","prefecture_kana":"ニイガタケン","city":"妙高市","city_kana":"ミョウコウシ","town":"長沢原","town_kana":"ナガサワラ","prefecture_code":15},"0027":{"zip_code":"9440027","prefecture":"新潟県","prefecture_kana":"ニイガタケン","city":"妙高市","city_kana":"ミョウコウシ","town":"中宿","town_kana":"ナカジク","prefecture_code":15},"0045":{"zip_code":"9440045","prefecture":"新潟県","prefecture_kana":"ニイガタケン","city":"妙高市","city_kana":"ミョウコウシ","town":"中町","town_kana":"ナカマチ","prefecture_code":15},"0073":{"zip_code":"9440073","prefecture":"新潟県","prefecture_kana":"ニイガタケン","city":"妙高市","city_kana":"ミョウコウシ","town":"長森","town_kana":"ナガモリ","prefecture_code":15},"0217":{"zip_code":"9440217","prefecture":"新潟県","prefecture_kana":"ニイガタケン","city":"妙高市","city_kana":"ミョウコウシ","town":"中横山","town_kana":"ナカヨコヤマ","prefecture_code":15},"0077":{"zip_code":"9440077","prefecture":"新潟県","prefecture_kana":"ニイガタケン","city":"妙高市","city_kana":"ミョウコウシ","town":"梨木","town_kana":"ナシノキ","prefecture_code":15},"0051":{"zip_code":"9440051","prefecture":"新潟県","prefecture_kana":"ニイガタケン","city":"妙高市","city_kana":"ミョウコウシ","town":"錦町","town_kana":"ニシキチョウ","prefecture_code":15},"0023":{"zip_code":"9440023","prefecture":"新潟県","prefecture_kana":"ニイガタケン","city":"妙高市","city_kana":"ミョウコウシ","town":"西条","town_kana":"ニシジョウ","prefecture_code":15},"0058":{"zip_code":"9440058","prefecture":"新潟県","prefecture_kana":"ニイガタケン","city":"妙高市","city_kana":"ミョウコウシ","town":"西菅沼新田","town_kana":"ニシスガヌマシンデン","prefecture_code":15},"0064":{"zip_code":"9440064","prefecture":"新潟県","prefecture_kana":"ニイガタケン","city":"妙高市","city_kana":"ミョウコウシ","town":"西野谷","town_kana":"ニシノヤ","prefecture_code":15},"0063":{"zip_code":"9440063","prefecture":"新潟県","prefecture_kana":"ニイガタケン","city":"妙高市","city_kana":"ミョウコウシ","town":"西野谷新田","town_kana":"ニシノヤシンデン","prefecture_code":15},"0334":{"zip_code":"9440334","prefecture":"新潟県","prefecture_kana":"ニイガタケン","city":"妙高市","city_kana":"ミョウコウシ","town":"楡島","town_kana":"ニレシマ","prefecture_code":15},"0204":{"zip_code":"9440204","prefecture":"新潟県","prefecture_kana":"ニイガタケン","city":"妙高市","city_kana":"ミョウコウシ","town":"除戸","town_kana":"ノゾキド","prefecture_code":15},"0047":{"zip_code":"9440047","prefecture":"新潟県","prefecture_kana":"ニイガタケン","city":"妙高市","city_kana":"ミョウコウシ","town":"白山町","town_kana":"ハクサンチョウ","prefecture_code":15},"0055":{"zip_code":"9440055","prefecture":"新潟県","prefecture_kana":"ニイガタケン","city":"妙高市","city_kana":"ミョウコウシ","town":"東志","town_kana":"ヒガシシ","prefecture_code":15},"0214":{"zip_code":"9440214","prefecture":"新潟県","prefecture_kana":"ニイガタケン","city":"妙高市","city_kana":"ミョウコウシ","town":"東菅沼","town_kana":"ヒガシスガヌマ","prefecture_code":15},"0335":{"zip_code":"9440335","prefecture":"新潟県","prefecture_kana":"ニイガタケン","city":"妙高市","city_kana":"ミョウコウシ","town":"東関","town_kana":"ヒガシセキ","prefecture_code":15},"0092":{"zip_code":"9440092","prefecture":"新潟県","prefecture_kana":"ニイガタケン","city":"妙高市","city_kana":"ミョウコウシ","town":"飛田","town_kana":"ヒダ","prefecture_code":15},"0093":{"zip_code":"9440093","prefecture":"新潟県","prefecture_kana":"ニイガタケン","city":"妙高市","city_kana":"ミョウコウシ","town":"飛田新田","town_kana":"ヒダシンデン","prefecture_code":15},"0016":{"zip_code":"9440016","prefecture":"新潟県","prefecture_kana":"ニイガタケン","city":"妙高市","city_kana":"ミョウコウシ","town":"美守","town_kana":"ヒダノモリ","prefecture_code":15},"0201":{"zip_code":"9440201","prefecture":"新潟県","prefecture_kana":"ニイガタケン","city":"妙高市","city_kana":"ミョウコウシ","town":"姫川原","town_kana":"ヒメカワラ","prefecture_code":15},"0028":{"zip_code":"9440028","prefecture":"新潟県","prefecture_kana":"ニイガタケン","city":"妙高市","city_kana":"ミョウコウシ","town":"姫川原","town_kana":"ヒメカワラ","prefecture_code":15},"0002":{"zip_code":"9440002","prefecture":"新潟県","prefecture_kana":"ニイガタケン","city":"妙高市","city_kana":"ミョウコウシ","town":"広島","town_kana":"ヒロシマ","prefecture_code":15},"0033":{"zip_code":"9440033","prefecture":"新潟県","prefecture_kana":"ニイガタケン","city":"妙高市","city_kana":"ミョウコウシ","town":"広田町","town_kana":"ヒロタチョウ","prefecture_code":15},"0071":{"zip_code":"9440071","prefecture":"新潟県","prefecture_kana":"ニイガタケン","city":"妙高市","city_kana":"ミョウコウシ","town":"藤塚新田","town_kana":"フジヅカシンデン","prefecture_code":15},"0202":{"zip_code":"9440202","prefecture":"新潟県","prefecture_kana":"ニイガタケン","city":"妙高市","city_kana":"ミョウコウシ","town":"巻淵","town_kana":"マキブチ","prefecture_code":15},"0074":{"zip_code":"9440074","prefecture":"新潟県","prefecture_kana":"ニイガタケン","city":"妙高市","city_kana":"ミョウコウシ","town":"三ツ俣","town_kana":"ミツマタ","prefecture_code":15},"0097":{"zip_code":"9440097","prefecture":"新潟県","prefecture_kana":"ニイガタケン","city":"妙高市","city_kana":"ミョウコウシ","town":"宮内","town_kana":"ミヤウチ","prefecture_code":15},"0085":{"zip_code":"9440085","prefecture":"新潟県","prefecture_kana":"ニイガタケン","city":"妙高市","city_kana":"ミョウコウシ","town":"谷内林新田","town_kana":"ヤチバヤシシンデン","prefecture_code":15},"0008":{"zip_code":"9440008","prefecture":"新潟県","prefecture_kana":"ニイガタケン","city":"妙高市","city_kana":"ミョウコウシ","town":"柳井田町","town_kana":"ヤナイダチョウ","prefecture_code":15},"0098":{"zip_code":"9440098","prefecture":"新潟県","prefecture_kana":"ニイガタケン","city":"妙高市","city_kana":"ミョウコウシ","town":"雪森","town_kana":"ユキモリ","prefecture_code":15},"0022":{"zip_code":"9440022","prefecture":"新潟県","prefecture_kana":"ニイガタケン","city":"妙高市","city_kana":"ミョウコウシ","town":"吉木","town_kana":"ヨシキ","prefecture_code":15},"0024":{"zip_code":"9440024","prefecture":"新潟県","prefecture_kana":"ニイガタケン","city":"妙高市","city_kana":"ミョウコウシ","town":"吉木新田","town_kana":"ヨシキシンデン","prefecture_code":15},"0062":{"zip_code":"9440062","prefecture":"新潟県","prefecture_kana":"ニイガタケン","city":"妙高市","city_kana":"ミョウコウシ","town":"両善寺","town_kana":"リョウゼンジ","prefecture_code":15},"0211":{"zip_code":"9440211","prefecture":"新潟県","prefecture_kana":"ニイガタケン","city":"妙高市","city_kana":"ミョウコウシ","town":"和屋","town_kana":"ワヤ","prefecture_code":15},"0150":{"zip_code":"9440150","prefecture":"新潟県","prefecture_kana":"ニイガタケン","city":"上越市","city_kana":"ジョウエツシ","town":"板倉区青葉","town_kana":"イタクラクアオバ","prefecture_code":15},"0101":{"zip_code":"9440101","prefecture":"新潟県","prefecture_kana":"ニイガタケン","city":"上越市","city_kana":"ジョウエツシ","town":"板倉区稲増","town_kana":"イタクラクイナマス","prefecture_code":15},"0119":{"zip_code":"9440119","prefecture":"新潟県","prefecture_kana":"ニイガタケン","city":"上越市","city_kana":"ジョウエツシ","town":"板倉区大野新田","town_kana":"イタクラクオオノシンデン","prefecture_code":15},"0123":{"zip_code":"9440123","prefecture":"新潟県","prefecture_kana":"ニイガタケン","city":"上越市","city_kana":"ジョウエツシ","town":"板倉区釜塚","town_kana":"イタクラクカマヅカ","prefecture_code":15},"0147":{"zip_code":"9440147","prefecture":"新潟県","prefecture_kana":"ニイガタケン","city":"上越市","city_kana":"ジョウエツシ","town":"板倉区上中島新田","town_kana":"イタクラクカミナカジマシンデン","prefecture_code":15},"0102":{"zip_code":"9440102","prefecture":"新潟県","prefecture_kana":"ニイガタケン","city":"上越市","city_kana":"ジョウエツシ","town":"板倉区上福田新田","town_kana":"イタクラクカミフクダシンデン","prefecture_code":15},"0124":{"zip_code":"9440124","prefecture":"新潟県","prefecture_kana":"ニイガタケン","city":"上越市","city_kana":"ジョウエツシ","town":"板倉区久々野","town_kana":"イタクラククグノ","prefecture_code":15},"0139":{"zip_code":"9440139","prefecture":"新潟県","prefecture_kana":"ニイガタケン","city":"上越市","city_kana":"ジョウエツシ","town":"板倉区熊川","town_kana":"イタクラククマガワ","prefecture_code":15},"0138":{"zip_code":"9440138","prefecture":"新潟県","prefecture_kana":"ニイガタケン","city":"上越市","city_kana":"ジョウエツシ","town":"板倉区熊川新田","town_kana":"イタクラククマガワシンデン","prefecture_code":15},"0118":{"zip_code":"9440118","prefecture":"新潟県","prefecture_kana":"ニイガタケン","city":"上越市","city_kana":"ジョウエツシ","town":"板倉区栗沢","town_kana":"イタクラククリザワ","prefecture_code":15},"0115":{"zip_code":"9440115","prefecture":"新潟県","prefecture_kana":"ニイガタケン","city":"上越市","city_kana":"ジョウエツシ","town":"板倉区玄藤寺新田","town_kana":"イタクラクゲンドウジシンデン","prefecture_code":15},"0146":{"zip_code":"9440146","prefecture":"新潟県","prefecture_kana":"ニイガタケン","city":"上越市","city_kana":"ジョウエツシ","town":"板倉区小石原","town_kana":"イタクラクコイシハラ","prefecture_code":15},"0133":{"zip_code":"9440133","prefecture":"新潟県","prefecture_kana":"ニイガタケン","city":"上越市","city_kana":"ジョウエツシ","town":"板倉区国川","town_kana":"イタクラクコクガワ","prefecture_code":15},"0129":{"zip_code":"9440129","prefecture":"新潟県","prefecture_kana":"ニイガタケン","city":"上越市","city_kana":"ジョウエツシ","town":"板倉区菰立","town_kana":"イタクラクコモダテ","prefecture_code":15},"0107":{"zip_code":"9440107","prefecture":"新潟県","prefecture_kana":"ニイガタケン","city":"上越市","city_kana":"ジョウエツシ","town":"板倉区坂井","town_kana":"イタクラクサカイ","prefecture_code":15},"0125":{"zip_code":"9440125","prefecture":"新潟県","prefecture_kana":"ニイガタケン","city":"上越市","city_kana":"ジョウエツシ","town":"板倉区猿供養寺","town_kana":"イタクラクサルクヨウジ","prefecture_code":15},"0106":{"zip_code":"9440106","prefecture":"新潟県","prefecture_kana":"ニイガタケン","city":"上越市","city_kana":"ジョウエツシ","town":"板倉区沢田","town_kana":"イタクラクサワダ","prefecture_code":15},"0149":{"zip_code":"9440149","prefecture":"新潟県","prefecture_kana":"ニイガタケン","city":"上越市","city_kana":"ジョウエツシ","town":"板倉区下田屋","town_kana":"イタクラクシモタヤ","prefecture_code":15},"0144":{"zip_code":"9440144","prefecture":"新潟県","prefecture_kana":"ニイガタケン","city":"上越市","city_kana":"ジョウエツシ","town":"板倉区下米沢","town_kana":"イタクラクシモヨネザワ","prefecture_code":15},"0116":{"zip_code":"9440116","prefecture":"新潟県","prefecture_kana":"ニイガタケン","city":"上越市","city_kana":"ジョウエツシ","town":"板倉区関田","town_kana":"イタクラクセキダ","prefecture_code":15},"0143":{"zip_code":"9440143","prefecture":"新潟県","prefecture_kana":"ニイガタケン","city":"上越市","city_kana":"ジョウエツシ","town":"板倉区関根","town_kana":"イタクラクセキネ","prefecture_code":15},"0132":{"zip_code":"9440132","prefecture":"新潟県","prefecture_kana":"ニイガタケン","city":"上越市","city_kana":"ジョウエツシ","town":"板倉区曽根田","town_kana":"イタクラクソネダ","prefecture_code":15},"0141":{"zip_code":"9440141","prefecture":"新潟県","prefecture_kana":"ニイガタケン","city":"上越市","city_kana":"ジョウエツシ","town":"板倉区田井","town_kana":"イタクラクタイ","prefecture_code":15},"0142":{"zip_code":"9440142","prefecture":"新潟県","prefecture_kana":"ニイガタケン","city":"上越市","city_kana":"ジョウエツシ","town":"板倉区高野","town_kana":"イタクラクタカノ","prefecture_code":15},"0114":{"zip_code":"9440114","prefecture":"新潟県","prefecture_kana":"ニイガタケン","city":"上越市","city_kana":"ジョウエツシ","town":"板倉区達野","town_kana":"イタクラクタテノ","prefecture_code":15},"0105":{"zip_code":"9440105","prefecture":"新潟県","prefecture_kana":"ニイガタケン","city":"上越市","city_kana":"ジョウエツシ","town":"板倉区田屋","town_kana":"イタクラクタヤ","prefecture_code":15},"0117":{"zip_code":"9440117","prefecture":"新潟県","prefecture_kana":"ニイガタケン","city":"上越市","city_kana":"ジョウエツシ","town":"板倉区筒方","town_kana":"イタクラクドウガタ","prefecture_code":15},"0109":{"zip_code":"9440109","prefecture":"新潟県","prefecture_kana":"ニイガタケン","city":"上越市","city_kana":"ジョウエツシ","town":"板倉区戸狩","town_kana":"イタクラクトガリ","prefecture_code":15},"0104":{"zip_code":"9440104","prefecture":"新潟県","prefecture_kana":"ニイガタケン","city":"上越市","city_kana":"ジョウエツシ","town":"板倉区長塚","town_kana":"イタクラクナガツカ","prefecture_code":15},"0122":{"zip_code":"9440122","prefecture":"新潟県","prefecture_kana":"ニイガタケン","city":"上越市","city_kana":"ジョウエツシ","town":"板倉区中之宮","town_kana":"イタクラクナカノミヤ","prefecture_code":15},"0108":{"zip_code":"9440108","prefecture":"新潟県","prefecture_kana":"ニイガタケン","city":"上越市","city_kana":"ジョウエツシ","town":"板倉区長嶺","town_kana":"イタクラクナガミネ","prefecture_code":15},"0112":{"zip_code":"9440112","prefecture":"新潟県","prefecture_kana":"ニイガタケン","city":"上越市","city_kana":"ジョウエツシ","town":"板倉区中四ツ屋","town_kana":"イタクラクナカヨツヤ","prefecture_code":15},"0128":{"zip_code":"9440128","prefecture":"新潟県","prefecture_kana":"ニイガタケン","city":"上越市","city_kana":"ジョウエツシ","town":"板倉区機織","town_kana":"イタクラクハタオリ","prefecture_code":15},"0131":{"zip_code":"9440131","prefecture":"新潟県","prefecture_kana":"ニイガタケン","city":"上越市","city_kana":"ジョウエツシ","town":"板倉区針","town_kana":"イタクラクハリ","prefecture_code":15},"0126":{"zip_code":"9440126","prefecture":"新潟県","prefecture_kana":"ニイガタケン","city":"上越市","city_kana":"ジョウエツシ","town":"板倉区東山寺","town_kana":"イタクラクヒガシヤマデラ","prefecture_code":15},"0134":{"zip_code":"9440134","prefecture":"新潟県","prefecture_kana":"ニイガタケン","city":"上越市","city_kana":"ジョウエツシ","town":"板倉区福王寺","town_kana":"イタクラクフクオウジ","prefecture_code":15},"0127":{"zip_code":"9440127","prefecture":"新潟県","prefecture_kana":"ニイガタケン","city":"上越市","city_kana":"ジョウエツシ","town":"板倉区不動新田","town_kana":"イタクラクフドウシンデン","prefecture_code":15},"0113":{"zip_code":"9440113","prefecture":"新潟県","prefecture_kana":"ニイガタケン","city":"上越市","city_kana":"ジョウエツシ","town":"板倉区別所","town_kana":"イタクラクベッショ","prefecture_code":15},"0151":{"zip_code":"9440151","prefecture":"新潟県","prefecture_kana":"ニイガタケン","city":"上越市","city_kana":"ジョウエツシ","town":"板倉区緑ケ丘","town_kana":"イタクラクミドリガオカ","prefecture_code":15},"0145":{"zip_code":"9440145","prefecture":"新潟県","prefecture_kana":"ニイガタケン","city":"上越市","city_kana":"ジョウエツシ","town":"板倉区南中島","town_kana":"イタクラクミナミナカジマ","prefecture_code":15},"0103":{"zip_code":"9440103","prefecture":"新潟県","prefecture_kana":"ニイガタケン","city":"上越市","city_kana":"ジョウエツシ","town":"板倉区南四ツ屋新田","town_kana":"イタクラクミナミヨツヤシンデン","prefecture_code":15},"0111":{"zip_code":"9440111","prefecture":"新潟県","prefecture_kana":"ニイガタケン","city":"上越市","city_kana":"ジョウエツシ","town":"板倉区宮島","town_kana":"イタクラクミヤジマ","prefecture_code":15},"0136":{"zip_code":"9440136","prefecture":"新潟県","prefecture_kana":"ニイガタケン","city":"上越市","city_kana":"ジョウエツシ","town":"板倉区山越","town_kana":"イタクラクヤマゴシ","prefecture_code":15},"0121":{"zip_code":"9440121","prefecture":"新潟県","prefecture_kana":"ニイガタケン","city":"上越市","city_kana":"ジョウエツシ","town":"板倉区山部","town_kana":"イタクラクヤマベ","prefecture_code":15},"0148":{"zip_code":"9440148","prefecture":"新潟県","prefecture_kana":"ニイガタケン","city":"上越市","city_kana":"ジョウエツシ","town":"板倉区横町","town_kana":"イタクラクヨコチョウ","prefecture_code":15},"0137":{"zip_code":"9440137","prefecture":"新潟県","prefecture_kana":"ニイガタケン","city":"上越市","city_kana":"ジョウエツシ","town":"板倉区吉増","town_kana":"イタクラクヨシマス","prefecture_code":15},"0135":{"zip_code":"9440135","prefecture":"新潟県","prefecture_kana":"ニイガタケン","city":"上越市","city_kana":"ジョウエツシ","town":"板倉区米増","town_kana":"イタクラクヨネマス","prefecture_code":15}}