{"0000":{"zip_code":"9450000","prefecture":"新潟県","prefecture_kana":"ニイガタケン","city":"柏崎市","city_kana":"カシワザキシ","town":"","town_kana":"","prefecture_code":15},"0016":{"zip_code":"9450016","prefecture":"新潟県","prefecture_kana":"ニイガタケン","city":"柏崎市","city_kana":"カシワザキシ","town":"青山町","town_kana":"アオヤマチョウ","prefecture_code":15},"0847":{"zip_code":"9450847","prefecture":"新潟県","prefecture_kana":"ニイガタケン","city":"柏崎市","city_kana":"カシワザキシ","town":"赤坂町","town_kana":"アカサカチョウ","prefecture_code":15},"0814":{"zip_code":"9450814","prefecture":"新潟県","prefecture_kana":"ニイガタケン","city":"柏崎市","city_kana":"カシワザキシ","town":"朝日が丘","town_kana":"アサヒガオカ","prefecture_code":15},"0112":{"zip_code":"9450112","prefecture":"新潟県","prefecture_kana":"ニイガタケン","city":"柏崎市","city_kana":"カシワザキシ","town":"畔屋","town_kana":"アゼヤ","prefecture_code":15},"0017":{"zip_code":"9450017","prefecture":"新潟県","prefecture_kana":"ニイガタケン","city":"柏崎市","city_kana":"カシワザキシ","town":"荒浜","town_kana":"アラハマ","prefecture_code":15},"0071":{"zip_code":"9450071","prefecture":"新潟県","prefecture_kana":"ニイガタケン","city":"柏崎市","city_kana":"カシワザキシ","town":"安政町","town_kana":"アンセイチョウ","prefecture_code":15},"0219":{"zip_code":"9450219","prefecture":"新潟県","prefecture_kana":"ニイガタケン","city":"柏崎市","city_kana":"カシワザキシ","town":"飯塚","town_kana":"イイヅカ","prefecture_code":15},"0212":{"zip_code":"9450212","prefecture":"新潟県","prefecture_kana":"ニイガタケン","city":"柏崎市","city_kana":"カシワザキシ","town":"五十土","town_kana":"イカヅチ","prefecture_code":15},"1436":{"zip_code":"9451436","prefecture":"新潟県","prefecture_kana":"ニイガタケン","city":"柏崎市","city_kana":"カシワザキシ","town":"石曽根","town_kana":"イシゾネ","prefecture_code":15},"1251":{"zip_code":"9451251","prefecture":"新潟県","prefecture_kana":"ニイガタケン","city":"柏崎市","city_kana":"カシワザキシ","town":"市野新田","town_kana":"イチノシンデン","prefecture_code":15},"1341":{"zip_code":"9451341","prefecture":"新潟県","prefecture_kana":"ニイガタケン","city":"柏崎市","city_kana":"カシワザキシ","town":"茨目","town_kana":"イバラメ","prefecture_code":15},"1114":{"zip_code":"9451114","prefecture":"新潟県","prefecture_kana":"ニイガタケン","city":"柏崎市","city_kana":"カシワザキシ","town":"芋川","town_kana":"イモガワ","prefecture_code":15},"0811":{"zip_code":"9450811","prefecture":"新潟県","prefecture_kana":"ニイガタケン","city":"柏崎市","city_kana":"カシワザキシ","town":"岩上","town_kana":"イワカミ","prefecture_code":15},"0055":{"zip_code":"9450055","prefecture":"新潟県","prefecture_kana":"ニイガタケン","city":"柏崎市","city_kana":"カシワザキシ","town":"駅前","town_kana":"エキマエ","prefecture_code":15},"0044":{"zip_code":"9450044","prefecture":"新潟県","prefecture_kana":"ニイガタケン","city":"柏崎市","city_kana":"カシワザキシ","town":"扇町","town_kana":"オウギマチ","prefecture_code":15},"0851":{"zip_code":"9450851","prefecture":"新潟県","prefecture_kana":"ニイガタケン","city":"柏崎市","city_kana":"カシワザキシ","town":"大久保","town_kana":"オオクボ","prefecture_code":15},"1126":{"zip_code":"9451126","prefecture":"新潟県","prefecture_kana":"ニイガタケン","city":"柏崎市","city_kana":"カシワザキシ","town":"大河内新田","town_kana":"オオコウチシンデン","prefecture_code":15},"1438":{"zip_code":"9451438","prefecture":"新潟県","prefecture_kana":"ニイガタケン","city":"柏崎市","city_kana":"カシワザキシ","town":"大沢","town_kana":"オオサワ","prefecture_code":15},"0403":{"zip_code":"9450403","prefecture":"新潟県","prefecture_kana":"ニイガタケン","city":"柏崎市","city_kana":"カシワザキシ","town":"大湊","town_kana":"オオミナト","prefecture_code":15},"0076":{"zip_code":"9450076","prefecture":"新潟県","prefecture_kana":"ニイガタケン","city":"柏崎市","city_kana":"カシワザキシ","town":"小倉町","town_kana":"オクラチョウ","prefecture_code":15},"1252":{"zip_code":"9451252","prefecture":"新潟県","prefecture_kana":"ニイガタケン","city":"柏崎市","city_kana":"カシワザキシ","town":"女谷","town_kana":"オナダニ","prefecture_code":15},"1253":{"zip_code":"9451253","prefecture":"新潟県","prefecture_kana":"ニイガタケン","city":"柏崎市","city_kana":"カシワザキシ","town":"折居","town_kana":"オリイ","prefecture_code":15},"1123":{"zip_code":"9451123","prefecture":"新潟県","prefecture_kana":"ニイガタケン","city":"柏崎市","city_kana":"カシワザキシ","town":"貝渕","town_kana":"カイブチ","prefecture_code":15},"0053":{"zip_code":"9450053","prefecture":"新潟県","prefecture_kana":"ニイガタケン","city":"柏崎市","city_kana":"カシワザキシ","town":"鏡町","town_kana":"カガミチョウ","prefecture_code":15},"0074":{"zip_code":"9450074","prefecture":"新潟県","prefecture_kana":"ニイガタケン","city":"柏崎市","city_kana":"カシワザキシ","town":"春日","town_kana":"カスガ","prefecture_code":15},"0065":{"zip_code":"9450065","prefecture":"新潟県","prefecture_kana":"ニイガタケン","city":"柏崎市","city_kana":"カシワザキシ","town":"学校町","town_kana":"ガッコウチョウ","prefecture_code":15},"1431":{"zip_code":"9451431","prefecture":"新潟県","prefecture_kana":"ニイガタケン","city":"柏崎市","city_kana":"カシワザキシ","town":"加納","town_kana":"カノウ","prefecture_code":15},"1121":{"zip_code":"9451121","prefecture":"新潟県","prefecture_kana":"ニイガタケン","city":"柏崎市","city_kana":"カシワザキシ","town":"上方","town_kana":"カミガタ","prefecture_code":15},"1351":{"zip_code":"9451351","prefecture":"新潟県","prefecture_kana":"ニイガタケン","city":"柏崎市","city_kana":"カシワザキシ","town":"上田尻","town_kana":"カミタジリ","prefecture_code":15},"0021":{"zip_code":"9450021","prefecture":"新潟県","prefecture_kana":"ニイガタケン","city":"柏崎市","city_kana":"カシワザキシ","town":"上原","town_kana":"カミハラ","prefecture_code":15},"1355":{"zip_code":"9451355","prefecture":"新潟県","prefecture_kana":"ニイガタケン","city":"柏崎市","city_kana":"カシワザキシ","town":"軽井川","town_kana":"カルイガワ","prefecture_code":15},"1247":{"zip_code":"9451247","prefecture":"新潟県","prefecture_kana":"ニイガタケン","city":"柏崎市","city_kana":"カシワザキシ","town":"木沢","town_kana":"キザワ","prefecture_code":15},"0072":{"zip_code":"9450072","prefecture":"新潟県","prefecture_kana":"ニイガタケン","city":"柏崎市","city_kana":"カシワザキシ","town":"北園町","town_kana":"キタゾノチョウ","prefecture_code":15},"0035":{"zip_code":"9450035","prefecture":"新潟県","prefecture_kana":"ニイガタケン","city":"柏崎市","city_kana":"カシワザキシ","town":"北半田","town_kana":"キタハンダ","prefecture_code":15},"0815":{"zip_code":"9450815","prefecture":"新潟県","prefecture_kana":"ニイガタケン","city":"柏崎市","city_kana":"カシワザキシ","town":"希望が丘","town_kana":"キボウガオカ","prefecture_code":15},"0855":{"zip_code":"9450855","prefecture":"新潟県","prefecture_kana":"ニイガタケン","city":"柏崎市","city_kana":"カシワザキシ","town":"鯨波","town_kana":"クジラナミ","prefecture_code":15},"1124":{"zip_code":"9451124","prefecture":"新潟県","prefecture_kana":"ニイガタケン","city":"柏崎市","city_kana":"カシワザキシ","town":"黒滝","town_kana":"クロタキ","prefecture_code":15},"1243":{"zip_code":"9451243","prefecture":"新潟県","prefecture_kana":"ニイガタケン","city":"柏崎市","city_kana":"カシワザキシ","town":"久米","town_kana":"クンメ","prefecture_code":15},"0836":{"zip_code":"9450836","prefecture":"新潟県","prefecture_kana":"ニイガタケン","city":"柏崎市","city_kana":"カシワザキシ","town":"剣野","town_kana":"ケンノ","prefecture_code":15},"0835":{"zip_code":"9450835","prefecture":"新潟県","prefecture_kana":"ニイガタケン","city":"柏崎市","city_kana":"カシワザキシ","town":"剣野町","town_kana":"ケンノチョウ","prefecture_code":15},"1102":{"zip_code":"9451102","prefecture":"新潟県","prefecture_kana":"ニイガタケン","city":"柏崎市","city_kana":"カシワザキシ","town":"向陽町","town_kana":"コウヨウチョウ","prefecture_code":15},"0024":{"zip_code":"9450024","prefecture":"新潟県","prefecture_kana":"ニイガタケン","city":"柏崎市","city_kana":"カシワザキシ","town":"小金町","town_kana":"コガネチョウ","prefecture_code":15},"0211":{"zip_code":"9450211","prefecture":"新潟県","prefecture_kana":"ニイガタケン","city":"柏崎市","city_kana":"カシワザキシ","town":"小黒須","town_kana":"コグロス","prefecture_code":15},"0858":{"zip_code":"9450858","prefecture":"新潟県","prefecture_kana":"ニイガタケン","city":"柏崎市","city_kana":"カシワザキシ","town":"小杉","town_kana":"コスギ","prefecture_code":15},"1125":{"zip_code":"9451125","prefecture":"新潟県","prefecture_kana":"ニイガタケン","city":"柏崎市","city_kana":"カシワザキシ","town":"小田山新田","town_kana":"コダヤマシンデン","prefecture_code":15},"0846":{"zip_code":"9450846","prefecture":"新潟県","prefecture_kana":"ニイガタケン","city":"柏崎市","city_kana":"カシワザキシ","town":"寿町","town_kana":"コトブキチョウ","prefecture_code":15},"0821":{"zip_code":"9450821","prefecture":"新潟県","prefecture_kana":"ニイガタケン","city":"柏崎市","city_kana":"カシワザキシ","town":"幸町","town_kana":"サイワイチョウ","prefecture_code":15},"0061":{"zip_code":"9450061","prefecture":"新潟県","prefecture_kana":"ニイガタケン","city":"柏崎市","city_kana":"カシワザキシ","town":"栄町","town_kana":"サカエチョウ","prefecture_code":15},"0073":{"zip_code":"9450073","prefecture":"新潟県","prefecture_kana":"ニイガタケン","city":"柏崎市","city_kana":"カシワザキシ","town":"桜木町","town_kana":"サクラギチョウ","prefecture_code":15},"1354":{"zip_code":"9451354","prefecture":"新潟県","prefecture_kana":"ニイガタケン","city":"柏崎市","city_kana":"カシワザキシ","town":"佐藤池新田","town_kana":"サトウガイケシンデン","prefecture_code":15},"1115":{"zip_code":"9451115","prefecture":"新潟県","prefecture_kana":"ニイガタケン","city":"柏崎市","city_kana":"カシワザキシ","town":"佐水","town_kana":"サミズ","prefecture_code":15},"1342":{"zip_code":"9451342","prefecture":"新潟県","prefecture_kana":"ニイガタケン","city":"柏崎市","city_kana":"カシワザキシ","town":"三和町","town_kana":"サンワチョウ","prefecture_code":15},"0034":{"zip_code":"9450034","prefecture":"新潟県","prefecture_kana":"ニイガタケン","city":"柏崎市","city_kana":"カシワザキシ","town":"三和町","town_kana":"サンワチョウ","prefecture_code":15},"0401":{"zip_code":"9450401","prefecture":"新潟県","prefecture_kana":"ニイガタケン","city":"柏崎市","city_kana":"カシワザキシ","town":"椎谷","town_kana":"シイヤ","prefecture_code":15},"1246":{"zip_code":"9451246","prefecture":"新潟県","prefecture_kana":"ニイガタケン","city":"柏崎市","city_kana":"カシワザキシ","town":"清水谷","town_kana":"シミズタニ","prefecture_code":15},"0103":{"zip_code":"9450103","prefecture":"新潟県","prefecture_kana":"ニイガタケン","city":"柏崎市","city_kana":"カシワザキシ","town":"下大新田","town_kana":"シモオオシンデン","prefecture_code":15},"1104":{"zip_code":"9451104","prefecture":"新潟県","prefecture_kana":"ニイガタケン","city":"柏崎市","city_kana":"カシワザキシ","town":"下方","town_kana":"シモガタ","prefecture_code":15},"1345":{"zip_code":"9451345","prefecture":"新潟県","prefecture_kana":"ニイガタケン","city":"柏崎市","city_kana":"カシワザキシ","town":"下田尻","town_kana":"シモタジリ","prefecture_code":15},"1118":{"zip_code":"9451118","prefecture":"新潟県","prefecture_kana":"ニイガタケン","city":"柏崎市","city_kana":"カシワザキシ","town":"上条","town_kana":"ジョウジョウ","prefecture_code":15},"1343":{"zip_code":"9451343","prefecture":"新潟県","prefecture_kana":"ニイガタケン","city":"柏崎市","city_kana":"カシワザキシ","town":"城塚","town_kana":"ジョウヅカ","prefecture_code":15},"0825":{"zip_code":"9450825","prefecture":"新潟県","prefecture_kana":"ニイガタケン","city":"柏崎市","city_kana":"カシワザキシ","town":"城東","town_kana":"ジョウトウ","prefecture_code":15},"0845":{"zip_code":"9450845","prefecture":"新潟県","prefecture_kana":"ニイガタケン","city":"柏崎市","city_kana":"カシワザキシ","town":"新赤坂","town_kana":"シンアカサカ","prefecture_code":15},"0031":{"zip_code":"9450031","prefecture":"新潟県","prefecture_kana":"ニイガタケン","city":"柏崎市","city_kana":"カシワザキシ","town":"新田畑","town_kana":"シンデンハタ","prefecture_code":15},"1122":{"zip_code":"9451122","prefecture":"新潟県","prefecture_kana":"ニイガタケン","city":"柏崎市","city_kana":"カシワザキシ","town":"新道","town_kana":"シンドウ","prefecture_code":15},"0056":{"zip_code":"9450056","prefecture":"新潟県","prefecture_kana":"ニイガタケン","city":"柏崎市","city_kana":"カシワザキシ","town":"新橋","town_kana":"シンバシ","prefecture_code":15},"0062":{"zip_code":"9450062","prefecture":"新潟県","prefecture_kana":"ニイガタケン","city":"柏崎市","city_kana":"カシワザキシ","town":"新花町","town_kana":"シンハナチョウ","prefecture_code":15},"0063":{"zip_code":"9450063","prefecture":"新潟県","prefecture_kana":"ニイガタケン","city":"柏崎市","city_kana":"カシワザキシ","town":"諏訪町","town_kana":"スワチョウ","prefecture_code":15},"0832":{"zip_code":"9450832","prefecture":"新潟県","prefecture_kana":"ニイガタケン","city":"柏崎市","city_kana":"カシワザキシ","town":"関町","town_kana":"セキマチ","prefecture_code":15},"1432":{"zip_code":"9451432","prefecture":"新潟県","prefecture_kana":"ニイガタケン","city":"柏崎市","city_kana":"カシワザキシ","town":"善根","town_kana":"ゼゴン","prefecture_code":15},"0214":{"zip_code":"9450214","prefecture":"新潟県","prefecture_kana":"ニイガタケン","city":"柏崎市","city_kana":"カシワザキシ","town":"曽地","town_kana":"ソチ","prefecture_code":15},"0217":{"zip_code":"9450217","prefecture":"新潟県","prefecture_kana":"ニイガタケン","city":"柏崎市","city_kana":"カシワザキシ","town":"曽地新田","town_kana":"ソチシンデン","prefecture_code":15},"1515":{"zip_code":"9451515","prefecture":"新潟県","prefecture_kana":"ニイガタケン","city":"柏崎市","city_kana":"カシワザキシ","town":"高柳町石黒","town_kana":"タカヤナギチョウイシグロ","prefecture_code":15},"1511":{"zip_code":"9451511","prefecture":"新潟県","prefecture_kana":"ニイガタケン","city":"柏崎市","city_kana":"カシワザキシ","town":"高柳町漆島","town_kana":"タカヤナギチョウウルシジマ","prefecture_code":15},"1501":{"zip_code":"9451501","prefecture":"新潟県","prefecture_kana":"ニイガタケン","city":"柏崎市","city_kana":"カシワザキシ","town":"高柳町岡田","town_kana":"タカヤナギチョウオカダ","prefecture_code":15},"1502":{"zip_code":"9451502","prefecture":"新潟県","prefecture_kana":"ニイガタケン","city":"柏崎市","city_kana":"カシワザキシ","town":"高柳町岡野町","town_kana":"タカヤナギチョウオカノマチ","prefecture_code":15},"1512":{"zip_code":"9451512","prefecture":"新潟県","prefecture_kana":"ニイガタケン","city":"柏崎市","city_kana":"カシワザキシ","town":"高柳町荻ノ島","town_kana":"タカヤナギチョウオギノシマ","prefecture_code":15},"1513":{"zip_code":"9451513","prefecture":"新潟県","prefecture_kana":"ニイガタケン","city":"柏崎市","city_kana":"カシワザキシ","town":"高柳町門出","town_kana":"タカヤナギチョウカドイデ","prefecture_code":15},"1505":{"zip_code":"9451505","prefecture":"新潟県","prefecture_kana":"ニイガタケン","city":"柏崎市","city_kana":"カシワザキシ","town":"高柳町高尾","town_kana":"タカヤナギチョウタカオ","prefecture_code":15},"1514":{"zip_code":"9451514","prefecture":"新潟県","prefecture_kana":"ニイガタケン","city":"柏崎市","city_kana":"カシワザキシ","town":"高柳町田代","town_kana":"タカヤナギチョウタシロ","prefecture_code":15},"1504":{"zip_code":"9451504","prefecture":"新潟県","prefecture_kana":"ニイガタケン","city":"柏崎市","city_kana":"カシワザキシ","town":"高柳町栃ケ原","town_kana":"タカヤナギチョウトチガハラ","prefecture_code":15},"1503":{"zip_code":"9451503","prefecture":"新潟県","prefecture_kana":"ニイガタケン","city":"柏崎市","city_kana":"カシワザキシ","town":"高柳町山中","town_kana":"タカヤナギチョウヤマナカ","prefecture_code":15},"0817":{"zip_code":"9450817","prefecture":"新潟県","prefecture_kana":"ニイガタケン","city":"柏崎市","city_kana":"カシワザキシ","town":"宝町","town_kana":"タカラマチ","prefecture_code":15},"0032":{"zip_code":"9450032","prefecture":"新潟県","prefecture_kana":"ニイガタケン","city":"柏崎市","city_kana":"カシワザキシ","town":"田塚","town_kana":"タツカ","prefecture_code":15},"0816":{"zip_code":"9450816","prefecture":"新潟県","prefecture_kana":"ニイガタケン","city":"柏崎市","city_kana":"カシワザキシ","town":"田中","town_kana":"タナカ","prefecture_code":15},"1248":{"zip_code":"9451248","prefecture":"新潟県","prefecture_kana":"ニイガタケン","city":"柏崎市","city_kana":"カシワザキシ","town":"田屋","town_kana":"タヤ","prefecture_code":15},"0857":{"zip_code":"9450857","prefecture":"新潟県","prefecture_kana":"ニイガタケン","city":"柏崎市","city_kana":"カシワザキシ","town":"谷根","town_kana":"タンネ","prefecture_code":15},"0064":{"zip_code":"9450064","prefecture":"新潟県","prefecture_kana":"ニイガタケン","city":"柏崎市","city_kana":"カシワザキシ","town":"中央町","town_kana":"チュウオウチョウ","prefecture_code":15},"0105":{"zip_code":"9450105","prefecture":"新潟県","prefecture_kana":"ニイガタケン","city":"柏崎市","city_kana":"カシワザキシ","town":"剣","town_kana":"ツルギ","prefecture_code":15},"0106":{"zip_code":"9450106","prefecture":"新潟県","prefecture_kana":"ニイガタケン","city":"柏崎市","city_kana":"カシワザキシ","town":"土合","town_kana":"ドアイ","prefecture_code":15},"0104":{"zip_code":"9450104","prefecture":"新潟県","prefecture_kana":"ニイガタケン","city":"柏崎市","city_kana":"カシワザキシ","town":"土合新田","town_kana":"ドアイシンデン","prefecture_code":15},"0854":{"zip_code":"9450854","prefecture":"新潟県","prefecture_kana":"ニイガタケン","city":"柏崎市","city_kana":"カシワザキシ","town":"東の輪町","town_kana":"トウノワチョウ","prefecture_code":15},"0834":{"zip_code":"9450834","prefecture":"新潟県","prefecture_kana":"ニイガタケン","city":"柏崎市","city_kana":"カシワザキシ","town":"常盤台","town_kana":"トキワダイ","prefecture_code":15},"0101":{"zip_code":"9450101","prefecture":"新潟県","prefecture_kana":"ニイガタケン","city":"柏崎市","city_kana":"カシワザキシ","town":"長崎","town_kana":"ナガサキ","prefecture_code":15},"0102":{"zip_code":"9450102","prefecture":"新潟県","prefecture_kana":"ニイガタケン","city":"柏崎市","city_kana":"カシワザキシ","town":"長崎新田","town_kana":"ナガサキシンデン","prefecture_code":15},"0113":{"zip_code":"9450113","prefecture":"新潟県","prefecture_kana":"ニイガタケン","city":"柏崎市","city_kana":"カシワザキシ","town":"中田","town_kana":"ナカダ","prefecture_code":15},"0852":{"zip_code":"9450852","prefecture":"新潟県","prefecture_kana":"ニイガタケン","city":"柏崎市","city_kana":"カシワザキシ","town":"中浜","town_kana":"ナカハマ","prefecture_code":15},"0042":{"zip_code":"9450042","prefecture":"新潟県","prefecture_kana":"ニイガタケン","city":"柏崎市","city_kana":"カシワザキシ","town":"長浜町","town_kana":"ナガハマチョウ","prefecture_code":15},"1105":{"zip_code":"9451105","prefecture":"新潟県","prefecture_kana":"ニイガタケン","city":"柏崎市","city_kana":"カシワザキシ","town":"長峰町","town_kana":"ナガミネチョウ","prefecture_code":15},"0213":{"zip_code":"9450213","prefecture":"新潟県","prefecture_kana":"ニイガタケン","city":"柏崎市","city_kana":"カシワザキシ","town":"成沢","town_kana":"ナリサワ","prefecture_code":15},"0823":{"zip_code":"9450823","prefecture":"新潟県","prefecture_kana":"ニイガタケン","city":"柏崎市","city_kana":"カシワザキシ","town":"南光町","town_kana":"ナンコウチョウ","prefecture_code":15},"0052":{"zip_code":"9450052","prefecture":"新潟県","prefecture_kana":"ニイガタケン","city":"柏崎市","city_kana":"カシワザキシ","town":"錦町","town_kana":"ニシキチョウ","prefecture_code":15},"0066":{"zip_code":"9450066","prefecture":"新潟県","prefecture_kana":"ニイガタケン","city":"柏崎市","city_kana":"カシワザキシ","town":"西本町","town_kana":"ニシホンチョウ","prefecture_code":15},"0067":{"zip_code":"9450067","prefecture":"新潟県","prefecture_kana":"ニイガタケン","city":"柏崎市","city_kana":"カシワザキシ","town":"西港町","town_kana":"ニシミナトチョウ","prefecture_code":15},"0054":{"zip_code":"9450054","prefecture":"新潟県","prefecture_kana":"ニイガタケン","city":"柏崎市","city_kana":"カシワザキシ","town":"日石町","town_kana":"ニツセキチョウ","prefecture_code":15},"1112":{"zip_code":"9451112","prefecture":"新潟県","prefecture_kana":"ニイガタケン","city":"柏崎市","city_kana":"カシワザキシ","town":"南下","town_kana":"ノウゲ","prefecture_code":15},"1241":{"zip_code":"9451241","prefecture":"新潟県","prefecture_kana":"ニイガタケン","city":"柏崎市","city_kana":"カシワザキシ","town":"野田","town_kana":"ノタ","prefecture_code":15},"0012":{"zip_code":"9450012","prefecture":"新潟県","prefecture_kana":"ニイガタケン","city":"柏崎市","city_kana":"カシワザキシ","town":"橋場","town_kana":"ハシバ","prefecture_code":15},"0014":{"zip_code":"9450014","prefecture":"新潟県","prefecture_kana":"ニイガタケン","city":"柏崎市","city_kana":"カシワザキシ","town":"橋場町","town_kana":"ハシバチョウ","prefecture_code":15},"0218":{"zip_code":"9450218","prefecture":"新潟県","prefecture_kana":"ニイガタケン","city":"柏崎市","city_kana":"カシワザキシ","town":"花田","town_kana":"ハナダ","prefecture_code":15},"0023":{"zip_code":"9450023","prefecture":"新潟県","prefecture_kana":"ニイガタケン","city":"柏崎市","city_kana":"カシワザキシ","town":"原町","town_kana":"ハラマチ","prefecture_code":15},"0853":{"zip_code":"9450853","prefecture":"新潟県","prefecture_kana":"ニイガタケン","city":"柏崎市","city_kana":"カシワザキシ","town":"番神","town_kana":"バンジン","prefecture_code":15},"0812":{"zip_code":"9450812","prefecture":"新潟県","prefecture_kana":"ニイガタケン","city":"柏崎市","city_kana":"カシワザキシ","town":"半田","town_kana":"ハンダ","prefecture_code":15},"0033":{"zip_code":"9450033","prefecture":"新潟県","prefecture_kana":"ニイガタケン","city":"柏崎市","city_kana":"カシワザキシ","town":"東長浜町","town_kana":"ヒガシナガハマチョウ","prefecture_code":15},"0022":{"zip_code":"9450022","prefecture":"新潟県","prefecture_kana":"ニイガタケン","city":"柏崎市","city_kana":"カシワザキシ","town":"東原町","town_kana":"ヒガシハラマチ","prefecture_code":15},"0051":{"zip_code":"9450051","prefecture":"新潟県","prefecture_kana":"ニイガタケン","city":"柏崎市","city_kana":"カシワザキシ","town":"東本町","town_kana":"ヒガシホンチョウ","prefecture_code":15},"0068":{"zip_code":"9450068","prefecture":"新潟県","prefecture_kana":"ニイガタケン","city":"柏崎市","city_kana":"カシワザキシ","town":"東港町","town_kana":"ヒガシミナトチョウ","prefecture_code":15},"0036":{"zip_code":"9450036","prefecture":"新潟県","prefecture_kana":"ニイガタケン","city":"柏崎市","city_kana":"カシワザキシ","town":"東柳田","town_kana":"ヒガシヤナギダ","prefecture_code":15},"0047":{"zip_code":"9450047","prefecture":"新潟県","prefecture_kana":"ニイガタケン","city":"柏崎市","city_kana":"カシワザキシ","town":"比角","town_kana":"ヒスミ","prefecture_code":15},"0043":{"zip_code":"9450043","prefecture":"新潟県","prefecture_kana":"ニイガタケン","city":"柏崎市","city_kana":"カシワザキシ","town":"日吉町","town_kana":"ヒヨシチョウ","prefecture_code":15},"1353":{"zip_code":"9451353","prefecture":"新潟県","prefecture_kana":"ニイガタケン","city":"柏崎市","city_kana":"カシワザキシ","town":"平井","town_kana":"ヒライ","prefecture_code":15},"0824":{"zip_code":"9450824","prefecture":"新潟県","prefecture_kana":"ニイガタケン","city":"柏崎市","city_kana":"カシワザキシ","town":"枇杷島","town_kana":"ビワジマ","prefecture_code":15},"0114":{"zip_code":"9450114","prefecture":"新潟県","prefecture_kana":"ニイガタケン","city":"柏崎市","city_kana":"カシワザキシ","town":"藤井","town_kana":"フジイ","prefecture_code":15},"1103":{"zip_code":"9451103","prefecture":"新潟県","prefecture_kana":"ニイガタケン","city":"柏崎市","city_kana":"カシワザキシ","town":"藤橋","town_kana":"フジハシ","prefecture_code":15},"0026":{"zip_code":"9450026","prefecture":"新潟県","prefecture_kana":"ニイガタケン","city":"柏崎市","city_kana":"カシワザキシ","town":"藤元町","town_kana":"フジモトチョウ","prefecture_code":15},"1113":{"zip_code":"9451113","prefecture":"新潟県","prefecture_kana":"ニイガタケン","city":"柏崎市","city_kana":"カシワザキシ","town":"古町","town_kana":"フルマチ","prefecture_code":15},"0027":{"zip_code":"9450027","prefecture":"新潟県","prefecture_kana":"ニイガタケン","city":"柏崎市","city_kana":"カシワザキシ","town":"北斗町","town_kana":"ホクトチョウ","prefecture_code":15},"1242":{"zip_code":"9451242","prefecture":"新潟県","prefecture_kana":"ニイガタケン","city":"柏崎市","city_kana":"カシワザキシ","town":"細越","town_kana":"ホソゴエ","prefecture_code":15},"0822":{"zip_code":"9450822","prefecture":"新潟県","prefecture_kana":"ニイガタケン","city":"柏崎市","city_kana":"カシワザキシ","town":"穂波町","town_kana":"ホナミチョウ","prefecture_code":15},"1111":{"zip_code":"9451111","prefecture":"新潟県","prefecture_kana":"ニイガタケン","city":"柏崎市","city_kana":"カシワザキシ","town":"堀","town_kana":"ホリ","prefecture_code":15},"0015":{"zip_code":"9450015","prefecture":"新潟県","prefecture_kana":"ニイガタケン","city":"柏崎市","city_kana":"カシワザキシ","town":"槇原町","town_kana":"マキハラチョウ","prefecture_code":15},"0011":{"zip_code":"9450011","prefecture":"新潟県","prefecture_kana":"ニイガタケン","city":"柏崎市","city_kana":"カシワザキシ","town":"松波","town_kana":"マツナミ","prefecture_code":15},"0041":{"zip_code":"9450041","prefecture":"新潟県","prefecture_kana":"ニイガタケン","city":"柏崎市","city_kana":"カシワザキシ","town":"松美","town_kana":"マツミ","prefecture_code":15},"0837":{"zip_code":"9450837","prefecture":"新潟県","prefecture_kana":"ニイガタケン","city":"柏崎市","city_kana":"カシワザキシ","town":"三島町","town_kana":"ミシマチョウ","prefecture_code":15},"0838":{"zip_code":"9450838","prefecture":"新潟県","prefecture_kana":"ニイガタケン","city":"柏崎市","city_kana":"カシワザキシ","town":"三島西","town_kana":"ミシマニシ","prefecture_code":15},"1244":{"zip_code":"9451244","prefecture":"新潟県","prefecture_kana":"ニイガタケン","city":"柏崎市","city_kana":"カシワザキシ","town":"水上","town_kana":"ミズカミ","prefecture_code":15},"0841":{"zip_code":"9450841","prefecture":"新潟県","prefecture_kana":"ニイガタケン","city":"柏崎市","city_kana":"カシワザキシ","town":"緑町","town_kana":"ミドリチョウ","prefecture_code":15},"0813":{"zip_code":"9450813","prefecture":"新潟県","prefecture_kana":"ニイガタケン","city":"柏崎市","city_kana":"カシワザキシ","town":"南半田","town_kana":"ミナミハンダ","prefecture_code":15},"0402":{"zip_code":"9450402","prefecture":"新潟県","prefecture_kana":"ニイガタケン","city":"柏崎市","city_kana":"カシワザキシ","town":"宮川","town_kana":"ミヤガワ","prefecture_code":15},"1245":{"zip_code":"9451245","prefecture":"新潟県","prefecture_kana":"ニイガタケン","city":"柏崎市","city_kana":"カシワザキシ","town":"宮川新田","town_kana":"ミヤガワシンデン","prefecture_code":15},"1434":{"zip_code":"9451434","prefecture":"新潟県","prefecture_kana":"ニイガタケン","city":"柏崎市","city_kana":"カシワザキシ","town":"宮平","town_kana":"ミヤダイラ","prefecture_code":15},"1117":{"zip_code":"9451117","prefecture":"新潟県","prefecture_kana":"ニイガタケン","city":"柏崎市","city_kana":"カシワザキシ","town":"宮之窪","town_kana":"ミヤノクボ","prefecture_code":15},"0827":{"zip_code":"9450827","prefecture":"新潟県","prefecture_kana":"ニイガタケン","city":"柏崎市","city_kana":"カシワザキシ","town":"宮場町","town_kana":"ミヤバチョウ","prefecture_code":15},"0826":{"zip_code":"9450826","prefecture":"新潟県","prefecture_kana":"ニイガタケン","city":"柏崎市","city_kana":"カシワザキシ","town":"元城町","town_kana":"モトシロチョウ","prefecture_code":15},"1435":{"zip_code":"9451435","prefecture":"新潟県","prefecture_kana":"ニイガタケン","city":"柏崎市","city_kana":"カシワザキシ","town":"森近","town_kana":"モリチカ","prefecture_code":15},"1352":{"zip_code":"9451352","prefecture":"新潟県","prefecture_kana":"ニイガタケン","city":"柏崎市","city_kana":"カシワザキシ","town":"安田","town_kana":"ヤスダ","prefecture_code":15},"0215":{"zip_code":"9450215","prefecture":"新潟県","prefecture_kana":"ニイガタケン","city":"柏崎市","city_kana":"カシワザキシ","town":"矢田","town_kana":"ヤタ","prefecture_code":15},"0025":{"zip_code":"9450025","prefecture":"新潟県","prefecture_kana":"ニイガタケン","city":"柏崎市","city_kana":"カシワザキシ","town":"柳田町","town_kana":"ヤナギダチョウ","prefecture_code":15},"0831":{"zip_code":"9450831","prefecture":"新潟県","prefecture_kana":"ニイガタケン","city":"柏崎市","city_kana":"カシワザキシ","town":"柳橋町","town_kana":"ヤナギバシチョウ","prefecture_code":15},"1116":{"zip_code":"9451116","prefecture":"新潟県","prefecture_kana":"ニイガタケン","city":"柏崎市","city_kana":"カシワザキシ","town":"山口","town_kana":"ヤマグチ","prefecture_code":15},"0075":{"zip_code":"9450075","prefecture":"新潟県","prefecture_kana":"ニイガタケン","city":"柏崎市","city_kana":"カシワザキシ","town":"大和町","town_kana":"ヤマトチョウ","prefecture_code":15},"1437":{"zip_code":"9451437","prefecture":"新潟県","prefecture_kana":"ニイガタケン","city":"柏崎市","city_kana":"カシワザキシ","town":"山室","town_kana":"ヤマムロ","prefecture_code":15},"0013":{"zip_code":"9450013","prefecture":"新潟県","prefecture_kana":"ニイガタケン","city":"柏崎市","city_kana":"カシワザキシ","town":"山本","town_kana":"ヤマモト","prefecture_code":15},"0045":{"zip_code":"9450045","prefecture":"新潟県","prefecture_kana":"ニイガタケン","city":"柏崎市","city_kana":"カシワザキシ","town":"豊町","town_kana":"ユタカチョウ","prefecture_code":15},"1106":{"zip_code":"9451106","prefecture":"新潟県","prefecture_kana":"ニイガタケン","city":"柏崎市","city_kana":"カシワザキシ","town":"ゆりが丘","town_kana":"ユリガオカ","prefecture_code":15},"1433":{"zip_code":"9451433","prefecture":"新潟県","prefecture_kana":"ニイガタケン","city":"柏崎市","city_kana":"カシワザキシ","town":"与板","town_kana":"ヨイタ","prefecture_code":15},"1101":{"zip_code":"9451101","prefecture":"新潟県","prefecture_kana":"ニイガタケン","city":"柏崎市","city_kana":"カシワザキシ","town":"横山","town_kana":"ヨコヤマ","prefecture_code":15},"0216":{"zip_code":"9450216","prefecture":"新潟県","prefecture_kana":"ニイガタケン","city":"柏崎市","city_kana":"カシワザキシ","town":"吉井","town_kana":"ヨシイ","prefecture_code":15},"0111":{"zip_code":"9450111","prefecture":"新潟県","prefecture_kana":"ニイガタケン","city":"柏崎市","city_kana":"カシワザキシ","town":"与三","town_kana":"ヨソウ","prefecture_code":15},"0046":{"zip_code":"9450046","prefecture":"新潟県","prefecture_kana":"ニイガタケン","city":"柏崎市","city_kana":"カシワザキシ","town":"四谷","town_kana":"ヨツヤ","prefecture_code":15},"0842":{"zip_code":"9450842","prefecture":"新潟県","prefecture_kana":"ニイガタケン","city":"柏崎市","city_kana":"カシワザキシ","town":"米山台","town_kana":"ヨネヤマダイ","prefecture_code":15},"0843":{"zip_code":"9450843","prefecture":"新潟県","prefecture_kana":"ニイガタケン","city":"柏崎市","city_kana":"カシワザキシ","town":"米山台東","town_kana":"ヨネヤマダイヒガシ","prefecture_code":15},"0844":{"zip_code":"9450844","prefecture":"新潟県","prefecture_kana":"ニイガタケン","city":"柏崎市","city_kana":"カシワザキシ","town":"米山台西","town_kana":"ヨネヤマダイニシ","prefecture_code":15},"1344":{"zip_code":"9451344","prefecture":"新潟県","prefecture_kana":"ニイガタケン","city":"柏崎市","city_kana":"カシワザキシ","town":"両田尻","town_kana":"リョウタジリ","prefecture_code":15},"0833":{"zip_code":"9450833","prefecture":"新潟県","prefecture_kana":"ニイガタケン","city":"柏崎市","city_kana":"カシワザキシ","town":"若葉町","town_kana":"ワカバチョウ","prefecture_code":15},"0300":{"zip_code":"9450300","prefecture":"新潟県","prefecture_kana":"ニイガタケン","city":"刈羽郡刈羽村","city_kana":"カリワグンカリワムラ","town":"","town_kana":"","prefecture_code":15},"0325":{"zip_code":"9450325","prefecture":"新潟県","prefecture_kana":"ニイガタケン","city":"刈羽郡刈羽村","city_kana":"カリワグンカリワムラ","town":"赤田北方","town_kana":"アカダキタガタ","prefecture_code":15},"0323":{"zip_code":"9450323","prefecture":"新潟県","prefecture_kana":"ニイガタケン","city":"刈羽郡刈羽村","city_kana":"カリワグンカリワムラ","town":"赤田町方","town_kana":"アカダマチガタ","prefecture_code":15},"0321":{"zip_code":"9450321","prefecture":"新潟県","prefecture_kana":"ニイガタケン","city":"刈羽郡刈羽村","city_kana":"カリワグンカリワムラ","town":"油田","town_kana":"アブラデン","prefecture_code":15},"0314":{"zip_code":"9450314","prefecture":"新潟県","prefecture_kana":"ニイガタケン","city":"刈羽郡刈羽村","city_kana":"カリワグンカリワムラ","town":"新屋敷","town_kana":"アラヤシキ","prefecture_code":15},"0311":{"zip_code":"9450311","prefecture":"新潟県","prefecture_kana":"ニイガタケン","city":"刈羽郡刈羽村","city_kana":"カリワグンカリワムラ","town":"井岡","town_kana":"イノオカ","prefecture_code":15},"0301":{"zip_code":"9450301","prefecture":"新潟県","prefecture_kana":"ニイガタケン","city":"刈羽郡刈羽村","city_kana":"カリワグンカリワムラ","town":"入和田","town_kana":"イリワダ","prefecture_code":15},"0313":{"zip_code":"9450313","prefecture":"新潟県","prefecture_kana":"ニイガタケン","city":"刈羽郡刈羽村","city_kana":"カリワグンカリワムラ","town":"大塚","town_kana":"オオツカ","prefecture_code":15},"0315":{"zip_code":"9450315","prefecture":"新潟県","prefecture_kana":"ニイガタケン","city":"刈羽郡刈羽村","city_kana":"カリワグンカリワムラ","town":"上高町","town_kana":"カミタカマチ","prefecture_code":15},"0307":{"zip_code":"9450307","prefecture":"新潟県","prefecture_kana":"ニイガタケン","city":"刈羽郡刈羽村","city_kana":"カリワグンカリワムラ","town":"刈羽","town_kana":"カリワ","prefecture_code":15},"0324":{"zip_code":"9450324","prefecture":"新潟県","prefecture_kana":"ニイガタケン","city":"刈羽郡刈羽村","city_kana":"カリワグンカリワムラ","town":"枯木","town_kana":"カレキ","prefecture_code":15},"0322":{"zip_code":"9450322","prefecture":"新潟県","prefecture_kana":"ニイガタケン","city":"刈羽郡刈羽村","city_kana":"カリワグンカリワムラ","town":"黒川","town_kana":"クロカワ","prefecture_code":15},"0305":{"zip_code":"9450305","prefecture":"新潟県","prefecture_kana":"ニイガタケン","city":"刈羽郡刈羽村","city_kana":"カリワグンカリワムラ","town":"西元寺","town_kana":"サイゲンジ","prefecture_code":15},"0316":{"zip_code":"9450316","prefecture":"新潟県","prefecture_kana":"ニイガタケン","city":"刈羽郡刈羽村","city_kana":"カリワグンカリワムラ","town":"下高町","town_kana":"シモタカマチ","prefecture_code":15},"0317":{"zip_code":"9450317","prefecture":"新潟県","prefecture_kana":"ニイガタケン","city":"刈羽郡刈羽村","city_kana":"カリワグンカリワムラ","town":"正明寺","town_kana":"ショウミョウジ","prefecture_code":15},"0303":{"zip_code":"9450303","prefecture":"新潟県","prefecture_kana":"ニイガタケン","city":"刈羽郡刈羽村","city_kana":"カリワグンカリワムラ","town":"滝谷","town_kana":"タキヤ","prefecture_code":15},"0302":{"zip_code":"9450302","prefecture":"新潟県","prefecture_kana":"ニイガタケン","city":"刈羽郡刈羽村","city_kana":"カリワグンカリワムラ","town":"滝谷新田","town_kana":"タキヤシンデン","prefecture_code":15},"0304":{"zip_code":"9450304","prefecture":"新潟県","prefecture_kana":"ニイガタケン","city":"刈羽郡刈羽村","city_kana":"カリワグンカリワムラ","town":"寺尾","town_kana":"テラオ","prefecture_code":15},"0306":{"zip_code":"9450306","prefecture":"新潟県","prefecture_kana":"ニイガタケン","city":"刈羽郡刈羽村","city_kana":"カリワグンカリワムラ","town":"十日市","town_kana":"トオカイチ","prefecture_code":15},"0312":{"zip_code":"9450312","prefecture":"新潟県","prefecture_kana":"ニイガタケン","city":"刈羽郡刈羽村","city_kana":"カリワグンカリワムラ","town":"西谷","town_kana":"ニシダニ","prefecture_code":15},"0308":{"zip_code":"9450308","prefecture":"新潟県","prefecture_kana":"ニイガタケン","city":"刈羽郡刈羽村","city_kana":"カリワグンカリワムラ","town":"割町新田","town_kana":"ワリマチシンデン","prefecture_code":15}}