{"0000":{"zip_code":"9460000","prefecture":"新潟県","prefecture_kana":"ニイガタケン","city":"魚沼市","city_kana":"ウオヌマシ","town":"","town_kana":"","prefecture_code":15},"0043":{"zip_code":"9460043","prefecture":"新潟県","prefecture_kana":"ニイガタケン","city":"魚沼市","city_kana":"ウオヌマシ","town":"青島","town_kana":"アオシマ","prefecture_code":15},"0224":{"zip_code":"9460224","prefecture":"新潟県","prefecture_kana":"ニイガタケン","city":"魚沼市","city_kana":"ウオヌマシ","town":"赤土","town_kana":"アカツチ","prefecture_code":15},"0304":{"zip_code":"9460304","prefecture":"新潟県","prefecture_kana":"ニイガタケン","city":"魚沼市","city_kana":"ウオヌマシ","town":"穴沢","town_kana":"アナザワ","prefecture_code":15},"0064":[{"zip_code":"9460064","prefecture":"新潟県","prefecture_kana":"ニイガタケン","city":"魚沼市","city_kana":"ウオヌマシ","town":"池平","town_kana":"イケダイラ","prefecture_code":15},{"zip_code":"9460064","prefecture":"新潟県","prefecture_kana":"ニイガタケン","city":"魚沼市","city_kana":"ウオヌマシ","town":"池平新田","town_kana":"イケダイラシンデン","prefecture_code":15}],"0114":{"zip_code":"9460114","prefecture":"新潟県","prefecture_kana":"ニイガタケン","city":"魚沼市","city_kana":"ウオヌマシ","town":"泉沢","town_kana":"イズミサワ","prefecture_code":15},"0038":{"zip_code":"9460038","prefecture":"新潟県","prefecture_kana":"ニイガタケン","city":"魚沼市","city_kana":"ウオヌマシ","town":"伊勢島","town_kana":"イセジマ","prefecture_code":15},"0032":{"zip_code":"9460032","prefecture":"新潟県","prefecture_kana":"ニイガタケン","city":"魚沼市","city_kana":"ウオヌマシ","town":"板木","town_kana":"イタギ","prefecture_code":15},"0002":{"zip_code":"9460002","prefecture":"新潟県","prefecture_kana":"ニイガタケン","city":"魚沼市","city_kana":"ウオヌマシ","town":"稲荷町","town_kana":"イナリチョウ","prefecture_code":15},"0076":{"zip_code":"9460076","prefecture":"新潟県","prefecture_kana":"ニイガタケン","city":"魚沼市","city_kana":"ウオヌマシ","town":"井口新田","town_kana":"イノクチシンデン","prefecture_code":15},"0051":{"zip_code":"9460051","prefecture":"新潟県","prefecture_kana":"ニイガタケン","city":"魚沼市","city_kana":"ウオヌマシ","town":"今泉","town_kana":"イマイズミ","prefecture_code":15},"0302":{"zip_code":"9460302","prefecture":"新潟県","prefecture_kana":"ニイガタケン","city":"魚沼市","city_kana":"ウオヌマシ","town":"芋鞘","town_kana":"イモザヤ","prefecture_code":15},"0084":{"zip_code":"9460084","prefecture":"新潟県","prefecture_kana":"ニイガタケン","city":"魚沼市","city_kana":"ウオヌマシ","town":"宇津野","town_kana":"ウツノ","prefecture_code":15},"0012":{"zip_code":"9460012","prefecture":"新潟県","prefecture_kana":"ニイガタケン","city":"魚沼市","city_kana":"ウオヌマシ","town":"浦町","town_kana":"ウラマチ","prefecture_code":15},"0052":[{"zip_code":"9460052","prefecture":"新潟県","prefecture_kana":"ニイガタケン","city":"魚沼市","city_kana":"ウオヌマシ","town":"江口","town_kana":"エグチ","prefecture_code":15},{"zip_code":"9460052","prefecture":"新潟県","prefecture_kana":"ニイガタケン","city":"魚沼市","city_kana":"ウオヌマシ","town":"江口新田","town_kana":"エグチシンデン","prefecture_code":15}],"0124":{"zip_code":"9460124","prefecture":"新潟県","prefecture_kana":"ニイガタケン","city":"魚沼市","city_kana":"ウオヌマシ","town":"大芋川","town_kana":"オオイモガワ","prefecture_code":15},"0033":{"zip_code":"9460033","prefecture":"新潟県","prefecture_kana":"ニイガタケン","city":"魚沼市","city_kana":"ウオヌマシ","town":"大浦","town_kana":"オオウラ","prefecture_code":15},"0034":{"zip_code":"9460034","prefecture":"新潟県","prefecture_kana":"ニイガタケン","city":"魚沼市","city_kana":"ウオヌマシ","town":"大浦新田","town_kana":"オオウラシンデン","prefecture_code":15},"0226":{"zip_code":"9460226","prefecture":"新潟県","prefecture_kana":"ニイガタケン","city":"魚沼市","city_kana":"ウオヌマシ","town":"大倉","town_kana":"オオクラ","prefecture_code":15},"0223":{"zip_code":"9460223","prefecture":"新潟県","prefecture_kana":"ニイガタケン","city":"魚沼市","city_kana":"ウオヌマシ","town":"大倉沢","town_kana":"オオクラサワ","prefecture_code":15},"0073":{"zip_code":"9460073","prefecture":"新潟県","prefecture_kana":"ニイガタケン","city":"魚沼市","city_kana":"ウオヌマシ","town":"大沢","town_kana":"オオサワ","prefecture_code":15},"0303":{"zip_code":"9460303","prefecture":"新潟県","prefecture_kana":"ニイガタケン","city":"魚沼市","city_kana":"ウオヌマシ","town":"大白川","town_kana":"オオシラカワ","prefecture_code":15},"0004":{"zip_code":"9460004","prefecture":"新潟県","prefecture_kana":"ニイガタケン","city":"魚沼市","city_kana":"ウオヌマシ","town":"大塚新田","town_kana":"オオヅカシンデン","prefecture_code":15},"0305":{"zip_code":"9460305","prefecture":"新潟県","prefecture_kana":"ニイガタケン","city":"魚沼市","city_kana":"ウオヌマシ","town":"大栃山","town_kana":"オオトチヤマ","prefecture_code":15},"0215":{"zip_code":"9460215","prefecture":"新潟県","prefecture_kana":"ニイガタケン","city":"魚沼市","city_kana":"ウオヌマシ","town":"大原新田","town_kana":"オオハラシンデン","prefecture_code":15},"0088":{"zip_code":"9460088","prefecture":"新潟県","prefecture_kana":"ニイガタケン","city":"魚沼市","city_kana":"ウオヌマシ","town":"大湯温泉","town_kana":"オオユオンセン","prefecture_code":15},"0036":{"zip_code":"9460036","prefecture":"新潟県","prefecture_kana":"ニイガタケン","city":"魚沼市","city_kana":"ウオヌマシ","town":"岡新田","town_kana":"オカシンデン","prefecture_code":15},"0101":{"zip_code":"9460101","prefecture":"新潟県","prefecture_kana":"ニイガタケン","city":"魚沼市","city_kana":"ウオヌマシ","town":"小平尾","town_kana":"オビロオ","prefecture_code":15},"0108":{"zip_code":"9460108","prefecture":"新潟県","prefecture_kana":"ニイガタケン","city":"魚沼市","city_kana":"ウオヌマシ","town":"親柄","town_kana":"オヤガラ","prefecture_code":15},"0086":{"zip_code":"9460086","prefecture":"新潟県","prefecture_kana":"ニイガタケン","city":"魚沼市","city_kana":"ウオヌマシ","town":"折立又新田","town_kana":"オリタテマタシンデン","prefecture_code":15},"0105":[{"zip_code":"9460105","prefecture":"新潟県","prefecture_kana":"ニイガタケン","city":"魚沼市","city_kana":"ウオヌマシ","town":"金ケ沢","town_kana":"カネガサワ","prefecture_code":15},{"zip_code":"9460105","prefecture":"新潟県","prefecture_kana":"ニイガタケン","city":"魚沼市","city_kana":"ウオヌマシ","town":"宮沢新田","town_kana":"ミヤザワシンデン","prefecture_code":15}],"0087":{"zip_code":"9460087","prefecture":"新潟県","prefecture_kana":"ニイガタケン","city":"魚沼市","city_kana":"ウオヌマシ","town":"上折立","town_kana":"カミオリタテ","prefecture_code":15},"0211":{"zip_code":"9460211","prefecture":"新潟県","prefecture_kana":"ニイガタケン","city":"魚沼市","city_kana":"ウオヌマシ","town":"上長鳥新田","town_kana":"カミナガトリシンデン","prefecture_code":15},"0022":{"zip_code":"9460022","prefecture":"新潟県","prefecture_kana":"ニイガタケン","city":"魚沼市","city_kana":"ウオヌマシ","town":"上原","town_kana":"カミハラ","prefecture_code":15},"0107":[{"zip_code":"9460107","prefecture":"新潟県","prefecture_kana":"ニイガタケン","city":"魚沼市","city_kana":"ウオヌマシ","town":"雁坂下","town_kana":"ガンザカシタ","prefecture_code":15},{"zip_code":"9460107","prefecture":"新潟県","prefecture_kana":"ニイガタケン","city":"魚沼市","city_kana":"ウオヌマシ","town":"清本","town_kana":"キヨモト","prefecture_code":15},{"zip_code":"9460107","prefecture":"新潟県","prefecture_kana":"ニイガタケン","city":"魚沼市","city_kana":"ウオヌマシ","town":"下田","town_kana":"シモダ","prefecture_code":15},{"zip_code":"9460107","prefecture":"新潟県","prefecture_kana":"ニイガタケン","city":"魚沼市","city_kana":"ウオヌマシ","town":"長堀新田","town_kana":"ナガホリシンデン","prefecture_code":15},{"zip_code":"9460107","prefecture":"新潟県","prefecture_kana":"ニイガタケン","city":"魚沼市","city_kana":"ウオヌマシ","town":"横瀬","town_kana":"ヨコゼ","prefecture_code":15}],"0104":{"zip_code":"9460104","prefecture":"新潟県","prefecture_kana":"ニイガタケン","city":"魚沼市","city_kana":"ウオヌマシ","town":"栗山","town_kana":"クリヤマ","prefecture_code":15},"0011":{"zip_code":"9460011","prefecture":"新潟県","prefecture_kana":"ニイガタケン","city":"魚沼市","city_kana":"ウオヌマシ","town":"小出島","town_kana":"コイデジマ","prefecture_code":15},"0125":{"zip_code":"9460125","prefecture":"新潟県","prefecture_kana":"ニイガタケン","city":"魚沼市","city_kana":"ウオヌマシ","town":"越又","town_kana":"コシマタ","prefecture_code":15},"0025":{"zip_code":"9460025","prefecture":"新潟県","prefecture_kana":"ニイガタケン","city":"魚沼市","city_kana":"ウオヌマシ","town":"古新田","town_kana":"コシンデン","prefecture_code":15},"0121":[{"zip_code":"9460121","prefecture":"新潟県","prefecture_kana":"ニイガタケン","city":"魚沼市","city_kana":"ウオヌマシ","town":"小庭名","town_kana":"コテンミョウ","prefecture_code":15},{"zip_code":"9460121","prefecture":"新潟県","prefecture_kana":"ニイガタケン","city":"魚沼市","city_kana":"ウオヌマシ","town":"小庭名新田","town_kana":"コテンミョウシンデン","prefecture_code":15},{"zip_code":"9460121","prefecture":"新潟県","prefecture_kana":"ニイガタケン","city":"魚沼市","city_kana":"ウオヌマシ","town":"吉平","town_kana":"ヨシダイラ","prefecture_code":15},{"zip_code":"9460121","prefecture":"新潟県","prefecture_kana":"ニイガタケン","city":"魚沼市","city_kana":"ウオヌマシ","town":"連日","town_kana":"レンニチ","prefecture_code":15}],"0021":{"zip_code":"9460021","prefecture":"新潟県","prefecture_kana":"ニイガタケン","city":"魚沼市","city_kana":"ウオヌマシ","town":"佐梨","town_kana":"サナシ","prefecture_code":15},"0203":{"zip_code":"9460203","prefecture":"新潟県","prefecture_kana":"ニイガタケン","city":"魚沼市","city_kana":"ウオヌマシ","town":"渋川","town_kana":"シブカワ","prefecture_code":15},"0085":{"zip_code":"9460085","prefecture":"新潟県","prefecture_kana":"ニイガタケン","city":"魚沼市","city_kana":"ウオヌマシ","town":"下折立","town_kana":"シモオリタテ","prefecture_code":15},"0061":[{"zip_code":"9460061","prefecture":"新潟県","prefecture_kana":"ニイガタケン","city":"魚沼市","city_kana":"ウオヌマシ","town":"新保","town_kana":"シンボ","prefecture_code":15},{"zip_code":"9460061","prefecture":"新潟県","prefecture_kana":"ニイガタケン","city":"魚沼市","city_kana":"ウオヌマシ","town":"新保新田","town_kana":"シンボシンデン","prefecture_code":15}],"0221":{"zip_code":"9460221","prefecture":"新潟県","prefecture_kana":"ニイガタケン","city":"魚沼市","city_kana":"ウオヌマシ","town":"須川","town_kana":"スガワ","prefecture_code":15},"0216":{"zip_code":"9460216","prefecture":"新潟県","prefecture_kana":"ニイガタケン","city":"魚沼市","city_kana":"ウオヌマシ","town":"須原","town_kana":"スハラ","prefecture_code":15},"0003":{"zip_code":"9460003","prefecture":"新潟県","prefecture_kana":"ニイガタケン","city":"魚沼市","city_kana":"ウオヌマシ","town":"諏訪町","town_kana":"スワチョウ","prefecture_code":15},"0102":{"zip_code":"9460102","prefecture":"新潟県","prefecture_kana":"ニイガタケン","city":"魚沼市","city_kana":"ウオヌマシ","town":"外山","town_kana":"ソデヤマ","prefecture_code":15},"0201":{"zip_code":"9460201","prefecture":"新潟県","prefecture_kana":"ニイガタケン","city":"魚沼市","city_kana":"ウオヌマシ","town":"高倉","town_kana":"タカクラ","prefecture_code":15},"0103":{"zip_code":"9460103","prefecture":"新潟県","prefecture_kana":"ニイガタケン","city":"魚沼市","city_kana":"ウオヌマシ","town":"滝之又","town_kana":"タキノマタ","prefecture_code":15},"0301":{"zip_code":"9460301","prefecture":"新潟県","prefecture_kana":"ニイガタケン","city":"魚沼市","city_kana":"ウオヌマシ","town":"田小屋","town_kana":"タゴヤ","prefecture_code":15},"0112":{"zip_code":"9460112","prefecture":"新潟県","prefecture_kana":"ニイガタケン","city":"魚沼市","city_kana":"ウオヌマシ","town":"田尻","town_kana":"タジリ","prefecture_code":15},"0106":{"zip_code":"9460106","prefecture":"新潟県","prefecture_kana":"ニイガタケン","city":"魚沼市","city_kana":"ウオヌマシ","town":"田中","town_kana":"タナカ","prefecture_code":15},"0063":[{"zip_code":"9460063","prefecture":"新潟県","prefecture_kana":"ニイガタケン","city":"魚沼市","city_kana":"ウオヌマシ","town":"中家","town_kana":"チュウカ","prefecture_code":15},{"zip_code":"9460063","prefecture":"新潟県","prefecture_kana":"ニイガタケン","city":"魚沼市","city_kana":"ウオヌマシ","town":"中家新田","town_kana":"チュウカシンデン","prefecture_code":15}],"0065":{"zip_code":"9460065","prefecture":"新潟県","prefecture_kana":"ニイガタケン","city":"魚沼市","city_kana":"ウオヌマシ","town":"中子沢","town_kana":"チュウシザワ","prefecture_code":15},"0035":{"zip_code":"9460035","prefecture":"新潟県","prefecture_kana":"ニイガタケン","city":"魚沼市","city_kana":"ウオヌマシ","town":"十日町","town_kana":"トオカマチ","prefecture_code":15},"0057":{"zip_code":"9460057","prefecture":"新潟県","prefecture_kana":"ニイガタケン","city":"魚沼市","city_kana":"ウオヌマシ","town":"中島","town_kana":"ナカジマ","prefecture_code":15},"0058":{"zip_code":"9460058","prefecture":"新潟県","prefecture_kana":"ニイガタケン","city":"魚沼市","city_kana":"ウオヌマシ","town":"中島新田","town_kana":"ナカジマシンデン","prefecture_code":15},"0212":{"zip_code":"9460212","prefecture":"新潟県","prefecture_kana":"ニイガタケン","city":"魚沼市","city_kana":"ウオヌマシ","town":"長鳥","town_kana":"ナガトリ","prefecture_code":15},"0006":{"zip_code":"9460006","prefecture":"新潟県","prefecture_kana":"ニイガタケン","city":"魚沼市","city_kana":"ウオヌマシ","town":"中之島","town_kana":"ナカノシマ","prefecture_code":15},"0024":{"zip_code":"9460024","prefecture":"新潟県","prefecture_kana":"ニイガタケン","city":"魚沼市","city_kana":"ウオヌマシ","town":"中原","town_kana":"ナカハラ","prefecture_code":15},"0053":{"zip_code":"9460053","prefecture":"新潟県","prefecture_kana":"ニイガタケン","city":"魚沼市","city_kana":"ウオヌマシ","town":"長松","town_kana":"ナガマツ","prefecture_code":15},"0071":{"zip_code":"9460071","prefecture":"新潟県","prefecture_kana":"ニイガタケン","city":"魚沼市","city_kana":"ウオヌマシ","town":"七日市","town_kana":"ナノカイチ","prefecture_code":15},"0072":{"zip_code":"9460072","prefecture":"新潟県","prefecture_kana":"ニイガタケン","city":"魚沼市","city_kana":"ウオヌマシ","town":"七日市新田","town_kana":"ナノカイチシンデン","prefecture_code":15},"0111":{"zip_code":"9460111","prefecture":"新潟県","prefecture_kana":"ニイガタケン","city":"魚沼市","city_kana":"ウオヌマシ","town":"並柳","town_kana":"ナミヤナギ","prefecture_code":15},"0204":{"zip_code":"9460204","prefecture":"新潟県","prefecture_kana":"ニイガタケン","city":"魚沼市","city_kana":"ウオヌマシ","town":"西名","town_kana":"ニシミョウ","prefecture_code":15},"0206":{"zip_code":"9460206","prefecture":"新潟県","prefecture_kana":"ニイガタケン","city":"魚沼市","city_kana":"ウオヌマシ","town":"西名新田","town_kana":"ニシミョウシンデン","prefecture_code":15},"0031":{"zip_code":"9460031","prefecture":"新潟県","prefecture_kana":"ニイガタケン","city":"魚沼市","city_kana":"ウオヌマシ","town":"原虫野","town_kana":"ハラムシノ","prefecture_code":15},"0113":{"zip_code":"9460113","prefecture":"新潟県","prefecture_kana":"ニイガタケン","city":"魚沼市","city_kana":"ウオヌマシ","town":"東中","town_kana":"ヒガシナカ","prefecture_code":15},"0202":{"zip_code":"9460202","prefecture":"新潟県","prefecture_kana":"ニイガタケン","city":"魚沼市","city_kana":"ウオヌマシ","town":"東野名","town_kana":"ヒガシノミョウ","prefecture_code":15},"0062":{"zip_code":"9460062","prefecture":"新潟県","prefecture_kana":"ニイガタケン","city":"魚沼市","city_kana":"ウオヌマシ","town":"一日市","town_kana":"ヒトイチ","prefecture_code":15},"0023":{"zip_code":"9460023","prefecture":"新潟県","prefecture_kana":"ニイガタケン","city":"魚沼市","city_kana":"ウオヌマシ","town":"干溝","town_kana":"ヒミゾ","prefecture_code":15},"0306":{"zip_code":"9460306","prefecture":"新潟県","prefecture_kana":"ニイガタケン","city":"魚沼市","city_kana":"ウオヌマシ","town":"平野又","town_kana":"ヒラノマタ","prefecture_code":15},"0001":{"zip_code":"9460001","prefecture":"新潟県","prefecture_kana":"ニイガタケン","city":"魚沼市","city_kana":"ウオヌマシ","town":"日渡新田","town_kana":"ヒワタシシンデン","prefecture_code":15},"0222":{"zip_code":"9460222","prefecture":"新潟県","prefecture_kana":"ニイガタケン","city":"魚沼市","city_kana":"ウオヌマシ","town":"福田新田","town_kana":"フクダシンデン","prefecture_code":15},"0207":{"zip_code":"9460207","prefecture":"新潟県","prefecture_kana":"ニイガタケン","city":"魚沼市","city_kana":"ウオヌマシ","town":"福山新田","town_kana":"フクヤマシンデン","prefecture_code":15},"0213":{"zip_code":"9460213","prefecture":"新潟県","prefecture_kana":"ニイガタケン","city":"魚沼市","city_kana":"ウオヌマシ","town":"細野","town_kana":"ホソノ","prefecture_code":15},"0041":{"zip_code":"9460041","prefecture":"新潟県","prefecture_kana":"ニイガタケン","city":"魚沼市","city_kana":"ウオヌマシ","town":"本町","town_kana":"ホンチョウ","prefecture_code":15},"0214":{"zip_code":"9460214","prefecture":"新潟県","prefecture_kana":"ニイガタケン","city":"魚沼市","city_kana":"ウオヌマシ","town":"松川","town_kana":"マツカワ","prefecture_code":15},"0123":[{"zip_code":"9460123","prefecture":"新潟県","prefecture_kana":"ニイガタケン","city":"魚沼市","city_kana":"ウオヌマシ","town":"水沢","town_kana":"ミズサワ","prefecture_code":15},{"zip_code":"9460123","prefecture":"新潟県","prefecture_kana":"ニイガタケン","city":"魚沼市","city_kana":"ウオヌマシ","town":"茂沢","town_kana":"モサワ","prefecture_code":15}],"0066":{"zip_code":"9460066","prefecture":"新潟県","prefecture_kana":"ニイガタケン","city":"魚沼市","city_kana":"ウオヌマシ","town":"三ツ又","town_kana":"ミツマタ","prefecture_code":15},"0083":{"zip_code":"9460083","prefecture":"新潟県","prefecture_kana":"ニイガタケン","city":"魚沼市","city_kana":"ウオヌマシ","town":"蓑和田","town_kana":"ミノワダ","prefecture_code":15},"0225":{"zip_code":"9460225","prefecture":"新潟県","prefecture_kana":"ニイガタケン","city":"魚沼市","city_kana":"ウオヌマシ","town":"三渕沢","town_kana":"ミフチサワ","prefecture_code":15},"0205":{"zip_code":"9460205","prefecture":"新潟県","prefecture_kana":"ニイガタケン","city":"魚沼市","city_kana":"ウオヌマシ","town":"宮椿新田","town_kana":"ミヤツバキシンデン","prefecture_code":15},"0081":{"zip_code":"9460081","prefecture":"新潟県","prefecture_kana":"ニイガタケン","city":"魚沼市","city_kana":"ウオヌマシ","town":"葎沢","town_kana":"ムグラザワ","prefecture_code":15},"0037":{"zip_code":"9460037","prefecture":"新潟県","prefecture_kana":"ニイガタケン","city":"魚沼市","city_kana":"ウオヌマシ","town":"虫野","town_kana":"ムシノ","prefecture_code":15},"0042":{"zip_code":"9460042","prefecture":"新潟県","prefecture_kana":"ニイガタケン","city":"魚沼市","city_kana":"ウオヌマシ","town":"柳原","town_kana":"ヤナギハラ","prefecture_code":15},"0115":{"zip_code":"9460115","prefecture":"新潟県","prefecture_kana":"ニイガタケン","city":"魚沼市","city_kana":"ウオヌマシ","town":"山口","town_kana":"ヤマグチ","prefecture_code":15},"0055":{"zip_code":"9460055","prefecture":"新潟県","prefecture_kana":"ニイガタケン","city":"魚沼市","city_kana":"ウオヌマシ","town":"山田","town_kana":"ヤマダ","prefecture_code":15},"0056":{"zip_code":"9460056","prefecture":"新潟県","prefecture_kana":"ニイガタケン","city":"魚沼市","city_kana":"ウオヌマシ","town":"山田下","town_kana":"ヤマダシタ","prefecture_code":15},"0082":{"zip_code":"9460082","prefecture":"新潟県","prefecture_kana":"ニイガタケン","city":"魚沼市","city_kana":"ウオヌマシ","town":"湯之谷芋川","town_kana":"ユノタニイモガワ","prefecture_code":15},"0005":{"zip_code":"9460005","prefecture":"新潟県","prefecture_kana":"ニイガタケン","city":"魚沼市","city_kana":"ウオヌマシ","town":"横町","town_kana":"ヨコチョウ","prefecture_code":15},"0307":{"zip_code":"9460307","prefecture":"新潟県","prefecture_kana":"ニイガタケン","city":"魚沼市","city_kana":"ウオヌマシ","town":"横根","town_kana":"ヨコネ","prefecture_code":15},"0075":{"zip_code":"9460075","prefecture":"新潟県","prefecture_kana":"ニイガタケン","city":"魚沼市","city_kana":"ウオヌマシ","town":"吉田","town_kana":"ヨシダ","prefecture_code":15},"0122":{"zip_code":"9460122","prefecture":"新潟県","prefecture_kana":"ニイガタケン","city":"魚沼市","city_kana":"ウオヌマシ","town":"吉原","town_kana":"ヨシワラ","prefecture_code":15},"0007":{"zip_code":"9460007","prefecture":"新潟県","prefecture_kana":"ニイガタケン","city":"魚沼市","city_kana":"ウオヌマシ","town":"四日町","town_kana":"ヨッカマチ","prefecture_code":15},"0054":{"zip_code":"9460054","prefecture":"新潟県","prefecture_kana":"ニイガタケン","city":"魚沼市","city_kana":"ウオヌマシ","town":"米沢","town_kana":"ヨネザワ","prefecture_code":15},"0109":{"zip_code":"9460109","prefecture":"新潟県","prefecture_kana":"ニイガタケン","city":"魚沼市","city_kana":"ウオヌマシ","town":"和田","town_kana":"ワダ","prefecture_code":15}}