{"0204":{"zip_code":"9470204","prefecture":"新潟県","prefecture_kana":"ニイガタケン","city":"長岡市","city_kana":"ナガオカシ","town":"山古志竹沢","town_kana":"ヤマコシタケザワ","prefecture_code":15},"0201":{"zip_code":"9470201","prefecture":"新潟県","prefecture_kana":"ニイガタケン","city":"長岡市","city_kana":"ナガオカシ","town":"山古志種苧原","town_kana":"ヤマコシタネスハラ","prefecture_code":15},"0202":{"zip_code":"9470202","prefecture":"新潟県","prefecture_kana":"ニイガタケン","city":"長岡市","city_kana":"ナガオカシ","town":"山古志南平","town_kana":"ヤマコシナンペイ","prefecture_code":15},"0203":{"zip_code":"9470203","prefecture":"新潟県","prefecture_kana":"ニイガタケン","city":"長岡市","city_kana":"ナガオカシ","town":"山古志東竹沢","town_kana":"ヤマコシヒガシタケザワ","prefecture_code":15},"0205":{"zip_code":"9470205","prefecture":"新潟県","prefecture_kana":"ニイガタケン","city":"長岡市","city_kana":"ナガオカシ","town":"山古志虫亀","town_kana":"ヤマコシムシガメ","prefecture_code":15},"0000":{"zip_code":"9470000","prefecture":"新潟県","prefecture_kana":"ニイガタケン","city":"小千谷市","city_kana":"オヂヤシ","town":"","town_kana":"","prefecture_code":15},"0005":{"zip_code":"9470005","prefecture":"新潟県","prefecture_kana":"ニイガタケン","city":"小千谷市","city_kana":"オヂヤシ","town":"旭町","town_kana":"アサヒチョウ","prefecture_code":15},"0025":{"zip_code":"9470025","prefecture":"新潟県","prefecture_kana":"ニイガタケン","city":"小千谷市","city_kana":"オヂヤシ","town":"稲荷町","town_kana":"イナリマチ","prefecture_code":15},"0026":{"zip_code":"9470026","prefecture":"新潟県","prefecture_kana":"ニイガタケン","city":"小千谷市","city_kana":"オヂヤシ","town":"上ノ山","town_kana":"ウエノヤマ","prefecture_code":15},"0001":{"zip_code":"9470001","prefecture":"新潟県","prefecture_kana":"ニイガタケン","city":"小千谷市","city_kana":"オヂヤシ","town":"浦柄","town_kana":"ウラガラ","prefecture_code":15},"0101":{"zip_code":"9470101","prefecture":"新潟県","prefecture_kana":"ニイガタケン","city":"小千谷市","city_kana":"オヂヤシ","town":"片貝町","town_kana":"カタカイマチ","prefecture_code":15},"0103":{"zip_code":"9470103","prefecture":"新潟県","prefecture_kana":"ニイガタケン","city":"小千谷市","city_kana":"オヂヤシ","town":"片貝山屋町","town_kana":"カタカイヤマヤチョウ","prefecture_code":15},"0013":{"zip_code":"9470013","prefecture":"新潟県","prefecture_kana":"ニイガタケン","city":"小千谷市","city_kana":"オヂヤシ","town":"上片貝","town_kana":"カミガタカイ","prefecture_code":15},"0045":{"zip_code":"9470045","prefecture":"新潟県","prefecture_kana":"ニイガタケン","city":"小千谷市","city_kana":"オヂヤシ","town":"鴻巣町","town_kana":"コウノスチョウ","prefecture_code":15},"0211":{"zip_code":"9470211","prefecture":"新潟県","prefecture_kana":"ニイガタケン","city":"小千谷市","city_kana":"オヂヤシ","town":"小栗山","town_kana":"コグリヤマ","prefecture_code":15},"0041":{"zip_code":"9470041","prefecture":"新潟県","prefecture_kana":"ニイガタケン","city":"小千谷市","city_kana":"オヂヤシ","town":"小粟田","town_kana":"コワダ","prefecture_code":15},"0011":{"zip_code":"9470011","prefecture":"新潟県","prefecture_kana":"ニイガタケン","city":"小千谷市","city_kana":"オヂヤシ","town":"栄町","town_kana":"サカエチョウ","prefecture_code":15},"0035":{"zip_code":"9470035","prefecture":"新潟県","prefecture_kana":"ニイガタケン","city":"小千谷市","city_kana":"オヂヤシ","town":"桜町","town_kana":"サクラマチ","prefecture_code":15},"0051":{"zip_code":"9470051","prefecture":"新潟県","prefecture_kana":"ニイガタケン","city":"小千谷市","city_kana":"オヂヤシ","town":"三仏生","town_kana":"サンブショウ","prefecture_code":15},"0213":{"zip_code":"9470213","prefecture":"新潟県","prefecture_kana":"ニイガタケン","city":"小千谷市","city_kana":"オヂヤシ","town":"塩谷","town_kana":"シオダニ","prefecture_code":15},"0028":{"zip_code":"9470028","prefecture":"新潟県","prefecture_kana":"ニイガタケン","city":"小千谷市","city_kana":"オヂヤシ","town":"城内","town_kana":"ジョウナイ","prefecture_code":15},"0102":{"zip_code":"9470102","prefecture":"新潟県","prefecture_kana":"ニイガタケン","city":"小千谷市","city_kana":"オヂヤシ","town":"高梨町","town_kana":"タカナシチョウ","prefecture_code":15},"0052":{"zip_code":"9470052","prefecture":"新潟県","prefecture_kana":"ニイガタケン","city":"小千谷市","city_kana":"オヂヤシ","town":"千谷","town_kana":"チヤ","prefecture_code":15},"0053":{"zip_code":"9470053","prefecture":"新潟県","prefecture_kana":"ニイガタケン","city":"小千谷市","city_kana":"オヂヤシ","town":"千谷川","town_kana":"チヤガワ","prefecture_code":15},"0031":{"zip_code":"9470031","prefecture":"新潟県","prefecture_kana":"ニイガタケン","city":"小千谷市","city_kana":"オヂヤシ","town":"土川","town_kana":"ツチカワ","prefecture_code":15},"0044":{"zip_code":"9470044","prefecture":"新潟県","prefecture_kana":"ニイガタケン","city":"小千谷市","city_kana":"オヂヤシ","town":"坪野","town_kana":"ツボノ","prefecture_code":15},"0004":{"zip_code":"9470004","prefecture":"新潟県","prefecture_kana":"ニイガタケン","city":"小千谷市","city_kana":"オヂヤシ","town":"東栄","town_kana":"トウエイ","prefecture_code":15},"0033":{"zip_code":"9470033","prefecture":"新潟県","prefecture_kana":"ニイガタケン","city":"小千谷市","city_kana":"オヂヤシ","town":"時水","town_kana":"トキミズ","prefecture_code":15},"0014":{"zip_code":"9470014","prefecture":"新潟県","prefecture_kana":"ニイガタケン","city":"小千谷市","city_kana":"オヂヤシ","town":"西中","town_kana":"ニシナカ","prefecture_code":15},"0018":{"zip_code":"9470018","prefecture":"新潟県","prefecture_kana":"ニイガタケン","city":"小千谷市","city_kana":"オヂヤシ","town":"西吉谷","town_kana":"ニシヨシダニ","prefecture_code":15},"0003":{"zip_code":"9470003","prefecture":"新潟県","prefecture_kana":"ニイガタケン","city":"小千谷市","city_kana":"オヂヤシ","town":"ひ生","town_kana":"ヒウ","prefecture_code":15},"0017":{"zip_code":"9470017","prefecture":"新潟県","prefecture_kana":"ニイガタケン","city":"小千谷市","city_kana":"オヂヤシ","town":"東吉谷","town_kana":"ヒガシヨシダニ","prefecture_code":15},"0023":{"zip_code":"9470023","prefecture":"新潟県","prefecture_kana":"ニイガタケン","city":"小千谷市","city_kana":"オヂヤシ","town":"日吉","town_kana":"ヒヨシ","prefecture_code":15},"0042":[{"zip_code":"9470042","prefecture":"新潟県","prefecture_kana":"ニイガタケン","city":"小千谷市","city_kana":"オヂヤシ","town":"平沢","town_kana":"ヒラサワ","prefecture_code":15},{"zip_code":"9470042","prefecture":"新潟県","prefecture_kana":"ニイガタケン","city":"小千谷市","city_kana":"オヂヤシ","town":"平沢新田","town_kana":"ヒラサワシンデン","prefecture_code":15}],"0024":{"zip_code":"9470024","prefecture":"新潟県","prefecture_kana":"ニイガタケン","city":"小千谷市","city_kana":"オヂヤシ","town":"船岡","town_kana":"フナオカ","prefecture_code":15},"0027":{"zip_code":"9470027","prefecture":"新潟県","prefecture_kana":"ニイガタケン","city":"小千谷市","city_kana":"オヂヤシ","town":"平成","town_kana":"ヘイセイ","prefecture_code":15},"0021":{"zip_code":"9470021","prefecture":"新潟県","prefecture_kana":"ニイガタケン","city":"小千谷市","city_kana":"オヂヤシ","town":"本町","town_kana":"ホンチョウ","prefecture_code":15},"0212":{"zip_code":"9470212","prefecture":"新潟県","prefecture_kana":"ニイガタケン","city":"小千谷市","city_kana":"オヂヤシ","town":"南荷頃","town_kana":"ミナミニゴロ","prefecture_code":15},"0022":{"zip_code":"9470022","prefecture":"新潟県","prefecture_kana":"ニイガタケン","city":"小千谷市","city_kana":"オヂヤシ","town":"元町","town_kana":"モトマチ","prefecture_code":15},"0015":{"zip_code":"9470015","prefecture":"新潟県","prefecture_kana":"ニイガタケン","city":"小千谷市","city_kana":"オヂヤシ","town":"谷内","town_kana":"ヤチ","prefecture_code":15},"0032":{"zip_code":"9470032","prefecture":"新潟県","prefecture_kana":"ニイガタケン","city":"小千谷市","city_kana":"オヂヤシ","town":"薮川","town_kana":"ヤブカワ","prefecture_code":15},"0012":{"zip_code":"9470012","prefecture":"新潟県","prefecture_kana":"ニイガタケン","city":"小千谷市","city_kana":"オヂヤシ","town":"山本","town_kana":"ヤマモト","prefecture_code":15},"0043":{"zip_code":"9470043","prefecture":"新潟県","prefecture_kana":"ニイガタケン","city":"小千谷市","city_kana":"オヂヤシ","town":"山谷","town_kana":"ヤマヤ","prefecture_code":15},"0002":{"zip_code":"9470002","prefecture":"新潟県","prefecture_kana":"ニイガタケン","city":"小千谷市","city_kana":"オヂヤシ","town":"横渡","town_kana":"ヨコワタシ","prefecture_code":15},"0016":{"zip_code":"9470016","prefecture":"新潟県","prefecture_kana":"ニイガタケン","city":"小千谷市","city_kana":"オヂヤシ","town":"四ツ子","town_kana":"ヨツコ","prefecture_code":15},"0034":{"zip_code":"9470034","prefecture":"新潟県","prefecture_kana":"ニイガタケン","city":"小千谷市","city_kana":"オヂヤシ","town":"両新田","town_kana":"リョウシンデン","prefecture_code":15},"0054":{"zip_code":"9470054","prefecture":"新潟県","prefecture_kana":"ニイガタケン","city":"小千谷市","city_kana":"オヂヤシ","town":"若葉","town_kana":"ワカバ","prefecture_code":15}}