{"0000":{"zip_code":"9480000","prefecture":"新潟県","prefecture_kana":"ニイガタケン","city":"十日町市","city_kana":"トオカマチシ","town":"","town_kana":"","prefecture_code":15},"0046":{"zip_code":"9480046","prefecture":"新潟県","prefecture_kana":"ニイガタケン","city":"十日町市","city_kana":"トオカマチシ","town":"明石町","town_kana":"アカシチョウ","prefecture_code":15},"0213":{"zip_code":"9480213","prefecture":"新潟県","prefecture_kana":"ニイガタケン","city":"十日町市","city_kana":"トオカマチシ","town":"赤谷","town_kana":"アカタニ","prefecture_code":15},"0045":{"zip_code":"9480045","prefecture":"新潟県","prefecture_kana":"ニイガタケン","city":"十日町市","city_kana":"トオカマチシ","town":"麻畑","town_kana":"アサバタケ","prefecture_code":15},"0079":{"zip_code":"9480079","prefecture":"新潟県","prefecture_kana":"ニイガタケン","city":"十日町市","city_kana":"トオカマチシ","town":"旭町","town_kana":"アサヒチョウ","prefecture_code":15},"0121":{"zip_code":"9480121","prefecture":"新潟県","prefecture_kana":"ニイガタケン","city":"十日町市","city_kana":"トオカマチシ","town":"新町新田","town_kana":"アラマチシンデン","prefecture_code":15},"0062":{"zip_code":"9480062","prefecture":"新潟県","prefecture_kana":"ニイガタケン","city":"十日町市","city_kana":"トオカマチシ","town":"泉町","town_kana":"イズミチョウ","prefecture_code":15},"0131":{"zip_code":"9480131","prefecture":"新潟県","prefecture_kana":"ニイガタケン","city":"十日町市","city_kana":"トオカマチシ","town":"伊勢平治","town_kana":"イセヘイジ","prefecture_code":15},"0101":{"zip_code":"9480101","prefecture":"新潟県","prefecture_kana":"ニイガタケン","city":"十日町市","city_kana":"トオカマチシ","town":"稲葉","town_kana":"イナバ","prefecture_code":15},"0073":[{"zip_code":"9480073","prefecture":"新潟県","prefecture_kana":"ニイガタケン","city":"十日町市","city_kana":"トオカマチシ","town":"稲荷町","town_kana":"イナリチョウ","prefecture_code":15},{"zip_code":"9480073","prefecture":"新潟県","prefecture_kana":"ニイガタケン","city":"十日町市","city_kana":"トオカマチシ","town":"稲荷町一丁目","town_kana":"イナリチョウイッチョウメ","prefecture_code":15},{"zip_code":"9480073","prefecture":"新潟県","prefecture_kana":"ニイガタケン","city":"十日町市","city_kana":"トオカマチシ","town":"稲荷町二丁目","town_kana":"イナリチョウニチョウメ","prefecture_code":15},{"zip_code":"9480073","prefecture":"新潟県","prefecture_kana":"ニイガタケン","city":"十日町市","city_kana":"トオカマチシ","town":"稲荷町三丁目東","town_kana":"イナリチョウサンチョウメヒガシ","prefecture_code":15},{"zip_code":"9480073","prefecture":"新潟県","prefecture_kana":"ニイガタケン","city":"十日町市","city_kana":"トオカマチシ","town":"稲荷町西","town_kana":"イナリチョウニシ","prefecture_code":15}],"0091":{"zip_code":"9480091","prefecture":"新潟県","prefecture_kana":"ニイガタケン","city":"十日町市","city_kana":"トオカマチシ","town":"稲荷町三丁目","town_kana":"イナリチョウサンチョウメ","prefecture_code":15},"0092":{"zip_code":"9480092","prefecture":"新潟県","prefecture_kana":"ニイガタケン","city":"十日町市","city_kana":"トオカマチシ","town":"稲荷町三丁目北","town_kana":"イナリチョウサンチョウメキタ","prefecture_code":15},"0093":{"zip_code":"9480093","prefecture":"新潟県","prefecture_kana":"ニイガタケン","city":"十日町市","city_kana":"トオカマチシ","town":"稲荷町三丁目南","town_kana":"イナリチョウサンチョウメミナミ","prefecture_code":15},"0212":{"zip_code":"9480212","prefecture":"新潟県","prefecture_kana":"ニイガタケン","city":"十日町市","city_kana":"トオカマチシ","town":"岩瀬","town_kana":"イワセ","prefecture_code":15},"0122":{"zip_code":"9480122","prefecture":"新潟県","prefecture_kana":"ニイガタケン","city":"十日町市","city_kana":"トオカマチシ","town":"上野","town_kana":"ウエノ","prefecture_code":15},"0088":{"zip_code":"9480088","prefecture":"新潟県","prefecture_kana":"ニイガタケン","city":"十日町市","city_kana":"トオカマチシ","town":"駅通り","town_kana":"エキドオリ","prefecture_code":15},"0014":{"zip_code":"9480014","prefecture":"新潟県","prefecture_kana":"ニイガタケン","city":"十日町市","city_kana":"トオカマチシ","town":"江道","town_kana":"エドウ","prefecture_code":15},"0018":{"zip_code":"9480018","prefecture":"新潟県","prefecture_kana":"ニイガタケン","city":"十日町市","city_kana":"トオカマチシ","town":"大池","town_kana":"オオイケ","prefecture_code":15},"0211":{"zip_code":"9480211","prefecture":"新潟県","prefecture_kana":"ニイガタケン","city":"十日町市","city_kana":"トオカマチシ","town":"大倉","town_kana":"オオクラ","prefecture_code":15},"0305":{"zip_code":"9480305","prefecture":"新潟県","prefecture_kana":"ニイガタケン","city":"十日町市","city_kana":"トオカマチシ","town":"大白倉","town_kana":"オオジラクラ","prefecture_code":15},"0133":{"zip_code":"9480133","prefecture":"新潟県","prefecture_kana":"ニイガタケン","city":"十日町市","city_kana":"トオカマチシ","town":"沖立","town_kana":"オキダテ","prefecture_code":15},"0008":{"zip_code":"9480008","prefecture":"新潟県","prefecture_kana":"ニイガタケン","city":"十日町市","city_kana":"トオカマチシ","town":"尾崎","town_kana":"オサキ","prefecture_code":15},"0086":{"zip_code":"9480086","prefecture":"新潟県","prefecture_kana":"ニイガタケン","city":"十日町市","city_kana":"トオカマチシ","town":"加賀糸屋町","town_kana":"カガイトヤチョウ","prefecture_code":15},"0057":{"zip_code":"9480057","prefecture":"新潟県","prefecture_kana":"ニイガタケン","city":"十日町市","city_kana":"トオカマチシ","town":"春日町","town_kana":"カスガチョウ","prefecture_code":15},"0022":{"zip_code":"9480022","prefecture":"新潟県","prefecture_kana":"ニイガタケン","city":"十日町市","city_kana":"トオカマチシ","town":"学校町","town_kana":"ガッコウチョウ","prefecture_code":15},"0134":{"zip_code":"9480134","prefecture":"新潟県","prefecture_kana":"ニイガタケン","city":"十日町市","city_kana":"トオカマチシ","town":"上新井","town_kana":"カミアライ","prefecture_code":15},"0029":{"zip_code":"9480029","prefecture":"新潟県","prefecture_kana":"ニイガタケン","city":"十日町市","city_kana":"トオカマチシ","town":"上川町","town_kana":"カミカワチョウ","prefecture_code":15},"0038":{"zip_code":"9480038","prefecture":"新潟県","prefecture_kana":"ニイガタケン","city":"十日町市","city_kana":"トオカマチシ","town":"河内町","town_kana":"カワウチチョウ","prefecture_code":15},"0036":{"zip_code":"9480036","prefecture":"新潟県","prefecture_kana":"ニイガタケン","city":"十日町市","city_kana":"トオカマチシ","town":"川治","town_kana":"カワジ","prefecture_code":15},"0035":{"zip_code":"9480035","prefecture":"新潟県","prefecture_kana":"ニイガタケン","city":"十日町市","city_kana":"トオカマチシ","town":"川治下町","town_kana":"カワジシモチョウ","prefecture_code":15},"0013":{"zip_code":"9480013","prefecture":"新潟県","prefecture_kana":"ニイガタケン","city":"十日町市","city_kana":"トオカマチシ","town":"川原町","town_kana":"カワハラチョウ","prefecture_code":15},"0304":{"zip_code":"9480304","prefecture":"新潟県","prefecture_kana":"ニイガタケン","city":"十日町市","city_kana":"トオカマチシ","town":"木落","town_kana":"キオトシ","prefecture_code":15},"0105":{"zip_code":"9480105","prefecture":"新潟県","prefecture_kana":"ニイガタケン","city":"十日町市","city_kana":"トオカマチシ","town":"北鐙坂","town_kana":"キタアブザカ","prefecture_code":15},"0041":{"zip_code":"9480041","prefecture":"新潟県","prefecture_kana":"ニイガタケン","city":"十日町市","city_kana":"トオカマチシ","town":"北新田","town_kana":"キタシンデン","prefecture_code":15},"0103":{"zip_code":"9480103","prefecture":"新潟県","prefecture_kana":"ニイガタケン","city":"十日町市","city_kana":"トオカマチシ","town":"小泉","town_kana":"コイズミ","prefecture_code":15},"0001":{"zip_code":"9480001","prefecture":"新潟県","prefecture_kana":"ニイガタケン","city":"十日町市","city_kana":"トオカマチシ","town":"五軒新田","town_kana":"ゴケンシンデン","prefecture_code":15},"0219":{"zip_code":"9480219","prefecture":"新潟県","prefecture_kana":"ニイガタケン","city":"十日町市","city_kana":"トオカマチシ","town":"越ケ沢","town_kana":"コシガサワ","prefecture_code":15},"0306":{"zip_code":"9480306","prefecture":"新潟県","prefecture_kana":"ニイガタケン","city":"十日町市","city_kana":"トオカマチシ","town":"小白倉","town_kana":"コジラクラ","prefecture_code":15},"0051":{"zip_code":"9480051","prefecture":"新潟県","prefecture_kana":"ニイガタケン","city":"十日町市","city_kana":"トオカマチシ","town":"寿町","town_kana":"コトブキチョウ","prefecture_code":15},"0125":{"zip_code":"9480125","prefecture":"新潟県","prefecture_kana":"ニイガタケン","city":"十日町市","city_kana":"トオカマチシ","town":"小根岸","town_kana":"コネギシ","prefecture_code":15},"0218":{"zip_code":"9480218","prefecture":"新潟県","prefecture_kana":"ニイガタケン","city":"十日町市","city_kana":"トオカマチシ","town":"小脇","town_kana":"コワキ","prefecture_code":15},"0068":{"zip_code":"9480068","prefecture":"新潟県","prefecture_kana":"ニイガタケン","city":"十日町市","city_kana":"トオカマチシ","town":"栄町","town_kana":"サカエチョウ","prefecture_code":15},"0058":{"zip_code":"9480058","prefecture":"新潟県","prefecture_kana":"ニイガタケン","city":"十日町市","city_kana":"トオカマチシ","town":"桜木町","town_kana":"サクラギチョウ","prefecture_code":15},"0112":{"zip_code":"9480112","prefecture":"新潟県","prefecture_kana":"ニイガタケン","city":"十日町市","city_kana":"トオカマチシ","town":"真田乙","town_kana":"サナダオツ","prefecture_code":15},"0111":{"zip_code":"9480111","prefecture":"新潟県","prefecture_kana":"ニイガタケン","city":"十日町市","city_kana":"トオカマチシ","town":"真田甲","town_kana":"サナダコウ","prefecture_code":15},"0113":{"zip_code":"9480113","prefecture":"新潟県","prefecture_kana":"ニイガタケン","city":"十日町市","city_kana":"トオカマチシ","town":"真田丁","town_kana":"サナダテイ","prefecture_code":15},"0114":{"zip_code":"9480114","prefecture":"新潟県","prefecture_kana":"ニイガタケン","city":"十日町市","city_kana":"トオカマチシ","town":"真田丙","town_kana":"サナダヘイ","prefecture_code":15},"0015":{"zip_code":"9480015","prefecture":"新潟県","prefecture_kana":"ニイガタケン","city":"十日町市","city_kana":"トオカマチシ","town":"猿倉","town_kana":"サルクラ","prefecture_code":15},"0124":{"zip_code":"9480124","prefecture":"新潟県","prefecture_kana":"ニイガタケン","city":"十日町市","city_kana":"トオカマチシ","town":"三領","town_kana":"サンリョウ","prefecture_code":15},"0002":{"zip_code":"9480002","prefecture":"新潟県","prefecture_kana":"ニイガタケン","city":"十日町市","city_kana":"トオカマチシ","town":"三和町","town_kana":"サンワチョウ","prefecture_code":15},"0039":{"zip_code":"9480039","prefecture":"新潟県","prefecture_kana":"ニイガタケン","city":"十日町市","city_kana":"トオカマチシ","town":"塩ノ又","town_kana":"シオノマタ","prefecture_code":15},"0123":{"zip_code":"9480123","prefecture":"新潟県","prefecture_kana":"ニイガタケン","city":"十日町市","city_kana":"トオカマチシ","town":"下平新田","town_kana":"シタダイラシンデン","prefecture_code":15},"0084":{"zip_code":"9480084","prefecture":"新潟県","prefecture_kana":"ニイガタケン","city":"十日町市","city_kana":"トオカマチシ","town":"七軒町","town_kana":"シチケンチョウ","prefecture_code":15},"0077":{"zip_code":"9480077","prefecture":"新潟県","prefecture_kana":"ニイガタケン","city":"十日町市","city_kana":"トオカマチシ","town":"島","town_kana":"シマ","prefecture_code":15},"0004":{"zip_code":"9480004","prefecture":"新潟県","prefecture_kana":"ニイガタケン","city":"十日町市","city_kana":"トオカマチシ","town":"下川原町","town_kana":"シモガワラチョウ","prefecture_code":15},"0141":{"zip_code":"9480141","prefecture":"新潟県","prefecture_kana":"ニイガタケン","city":"十日町市","city_kana":"トオカマチシ","town":"霜条","town_kana":"シモジョウ","prefecture_code":15},"0061":{"zip_code":"9480061","prefecture":"新潟県","prefecture_kana":"ニイガタケン","city":"十日町市","city_kana":"トオカマチシ","town":"昭和町","town_kana":"ショウワチョウ","prefecture_code":15},"0012":{"zip_code":"9480012","prefecture":"新潟県","prefecture_kana":"ニイガタケン","city":"十日町市","city_kana":"トオカマチシ","town":"新座","town_kana":"シンザ","prefecture_code":15},"0011":{"zip_code":"9480011","prefecture":"新潟県","prefecture_kana":"ニイガタケン","city":"十日町市","city_kana":"トオカマチシ","town":"新座","town_kana":"シンザ","prefecture_code":15},"0025":{"zip_code":"9480025","prefecture":"新潟県","prefecture_kana":"ニイガタケン","city":"十日町市","city_kana":"トオカマチシ","town":"神明町","town_kana":"シンメイチョウ","prefecture_code":15},"0017":{"zip_code":"9480017","prefecture":"新潟県","prefecture_kana":"ニイガタケン","city":"十日町市","city_kana":"トオカマチシ","town":"菅沼","town_kana":"スガヌマ","prefecture_code":15},"0076":{"zip_code":"9480076","prefecture":"新潟県","prefecture_kana":"ニイガタケン","city":"十日町市","city_kana":"トオカマチシ","town":"住吉町","town_kana":"スミヨシチョウ","prefecture_code":15},"0024":{"zip_code":"9480024","prefecture":"新潟県","prefecture_kana":"ニイガタケン","city":"十日町市","city_kana":"トオカマチシ","town":"諏訪町","town_kana":"スワチョウ","prefecture_code":15},"0087":{"zip_code":"9480087","prefecture":"新潟県","prefecture_kana":"ニイガタケン","city":"十日町市","city_kana":"トオカマチシ","town":"関口樋口町","town_kana":"セキグチヒグチチョウ","prefecture_code":15},"0032":{"zip_code":"9480032","prefecture":"新潟県","prefecture_kana":"ニイガタケン","city":"十日町市","city_kana":"トオカマチシ","town":"関根","town_kana":"セキネ","prefecture_code":15},"0217":{"zip_code":"9480217","prefecture":"新潟県","prefecture_kana":"ニイガタケン","city":"十日町市","city_kana":"トオカマチシ","town":"高倉","town_kana":"タカクラ","prefecture_code":15},"0107":{"zip_code":"9480107","prefecture":"新潟県","prefecture_kana":"ニイガタケン","city":"十日町市","city_kana":"トオカマチシ","town":"高島","town_kana":"タカシマ","prefecture_code":15},"0065":[{"zip_code":"9480065","prefecture":"新潟県","prefecture_kana":"ニイガタケン","city":"十日町市","city_kana":"トオカマチシ","town":"高田町","town_kana":"タカダチョウ","prefecture_code":15},{"zip_code":"9480065","prefecture":"新潟県","prefecture_kana":"ニイガタケン","city":"十日町市","city_kana":"トオカマチシ","town":"高田町三丁目","town_kana":"タカダチョウサンチョウメ","prefecture_code":15}],"0056":{"zip_code":"9480056","prefecture":"新潟県","prefecture_kana":"ニイガタケン","city":"十日町市","city_kana":"トオカマチシ","town":"高田町","town_kana":"タカダチョウ","prefecture_code":15},"0063":{"zip_code":"9480063","prefecture":"新潟県","prefecture_kana":"ニイガタケン","city":"十日町市","city_kana":"トオカマチシ","town":"高田町一丁目","town_kana":"タカダチョウイッチョウメ","prefecture_code":15},"0064":{"zip_code":"9480064","prefecture":"新潟県","prefecture_kana":"ニイガタケン","city":"十日町市","city_kana":"トオカマチシ","town":"高田町二丁目","town_kana":"タカダチョウニチョウメ","prefecture_code":15},"0136":{"zip_code":"9480136","prefecture":"新潟県","prefecture_kana":"ニイガタケン","city":"十日町市","city_kana":"トオカマチシ","town":"高原田","town_kana":"タカハラダ","prefecture_code":15},"0055":{"zip_code":"9480055","prefecture":"新潟県","prefecture_kana":"ニイガタケン","city":"十日町市","city_kana":"トオカマチシ","town":"高山","town_kana":"タカヤマ","prefecture_code":15},"0021":{"zip_code":"9480021","prefecture":"新潟県","prefecture_kana":"ニイガタケン","city":"十日町市","city_kana":"トオカマチシ","town":"田川町","town_kana":"タガワチョウ","prefecture_code":15},"0047":{"zip_code":"9480047","prefecture":"新潟県","prefecture_kana":"ニイガタケン","city":"十日町市","city_kana":"トオカマチシ","town":"城之古","town_kana":"タテノコシ","prefecture_code":15},"0215":{"zip_code":"9480215","prefecture":"新潟県","prefecture_kana":"ニイガタケン","city":"十日町市","city_kana":"トオカマチシ","town":"田戸","town_kana":"タド","prefecture_code":15},"0028":[{"zip_code":"9480028","prefecture":"新潟県","prefecture_kana":"ニイガタケン","city":"十日町市","city_kana":"トオカマチシ","town":"田中町西","town_kana":"タナカチョウニシ","prefecture_code":15},{"zip_code":"9480028","prefecture":"新潟県","prefecture_kana":"ニイガタケン","city":"十日町市","city_kana":"トオカマチシ","town":"田中町東","town_kana":"タナカチョウヒガシ","prefecture_code":15},{"zip_code":"9480028","prefecture":"新潟県","prefecture_kana":"ニイガタケン","city":"十日町市","city_kana":"トオカマチシ","town":"田中町本通り","town_kana":"タナカチョウホンドオリ","prefecture_code":15}],"0044":{"zip_code":"9480044","prefecture":"新潟県","prefecture_kana":"ニイガタケン","city":"十日町市","city_kana":"トオカマチシ","town":"田麦","town_kana":"タムギ","prefecture_code":15},"0104":{"zip_code":"9480104","prefecture":"新潟県","prefecture_kana":"ニイガタケン","city":"十日町市","city_kana":"トオカマチシ","town":"樽沢","town_kana":"タルサワ","prefecture_code":15},"0067":{"zip_code":"9480067","prefecture":"新潟県","prefecture_kana":"ニイガタケン","city":"十日町市","city_kana":"トオカマチシ","town":"千歳町","town_kana":"チトセチョウ","prefecture_code":15},"0078":{"zip_code":"9480078","prefecture":"新潟県","prefecture_kana":"ニイガタケン","city":"十日町市","city_kana":"トオカマチシ","town":"千代田町","town_kana":"チヨダチョウ","prefecture_code":15},"0016":{"zip_code":"9480016","prefecture":"新潟県","prefecture_kana":"ニイガタケン","city":"十日町市","city_kana":"トオカマチシ","town":"津池","town_kana":"ツイケ","prefecture_code":15},"0054":{"zip_code":"9480054","prefecture":"新潟県","prefecture_kana":"ニイガタケン","city":"十日町市","city_kana":"トオカマチシ","town":"塚原町","town_kana":"ツカハラチョウ","prefecture_code":15},"0145":{"zip_code":"9480145","prefecture":"新潟県","prefecture_kana":"ニイガタケン","city":"十日町市","city_kana":"トオカマチシ","town":"坪山","town_kana":"ツボヤマ","prefecture_code":15},"0037":{"zip_code":"9480037","prefecture":"新潟県","prefecture_kana":"ニイガタケン","city":"十日町市","city_kana":"トオカマチシ","town":"妻有町","town_kana":"ツマアリチョウ","prefecture_code":15},"0146":{"zip_code":"9480146","prefecture":"新潟県","prefecture_kana":"ニイガタケン","city":"十日町市","city_kana":"トオカマチシ","town":"鶴吉","town_kana":"ツルヨシ","prefecture_code":15},"0303":{"zip_code":"9480303","prefecture":"新潟県","prefecture_kana":"ニイガタケン","city":"十日町市","city_kana":"トオカマチシ","town":"寺ケ崎","town_kana":"テラガサキ","prefecture_code":15},"0142":{"zip_code":"9480142","prefecture":"新潟県","prefecture_kana":"ニイガタケン","city":"十日町市","city_kana":"トオカマチシ","town":"東善寺","town_kana":"トウゼンジ","prefecture_code":15},"0019":{"zip_code":"9480019","prefecture":"新潟県","prefecture_kana":"ニイガタケン","city":"十日町市","city_kana":"トオカマチシ","town":"十日町赤倉","town_kana":"トオカマチアカクラ","prefecture_code":15},"0132":{"zip_code":"9480132","prefecture":"新潟県","prefecture_kana":"ニイガタケン","city":"十日町市","city_kana":"トオカマチシ","town":"友重","town_kana":"トモシゲ","prefecture_code":15},"0214":{"zip_code":"9480214","prefecture":"新潟県","prefecture_kana":"ニイガタケン","city":"十日町市","city_kana":"トオカマチシ","town":"中仙田","town_kana":"ナカセンダ","prefecture_code":15},"0042":{"zip_code":"9480042","prefecture":"新潟県","prefecture_kana":"ニイガタケン","city":"十日町市","city_kana":"トオカマチシ","town":"中村","town_kana":"ナカムラ","prefecture_code":15},"0135":{"zip_code":"9480135","prefecture":"新潟県","prefecture_kana":"ニイガタケン","city":"十日町市","city_kana":"トオカマチシ","town":"中屋敷","town_kana":"ナカヤシキ","prefecture_code":15},"0074":[{"zip_code":"9480074","prefecture":"新潟県","prefecture_kana":"ニイガタケン","city":"十日町市","city_kana":"トオカマチシ","town":"西浦町西","town_kana":"ニシウラチョウニシ","prefecture_code":15},{"zip_code":"9480074","prefecture":"新潟県","prefecture_kana":"ニイガタケン","city":"十日町市","city_kana":"トオカマチシ","town":"西浦町東","town_kana":"ニシウラチョウヒガシ","prefecture_code":15}],"0053":{"zip_code":"9480053","prefecture":"新潟県","prefecture_kana":"ニイガタケン","city":"十日町市","city_kana":"トオカマチシ","town":"錦町","town_kana":"ニシキチョウ","prefecture_code":15},"0085":{"zip_code":"9480085","prefecture":"新潟県","prefecture_kana":"ニイガタケン","city":"十日町市","city_kana":"トオカマチシ","town":"西寺町","town_kana":"ニシデラチョウ","prefecture_code":15},"0072":{"zip_code":"9480072","prefecture":"新潟県","prefecture_kana":"ニイガタケン","city":"十日町市","city_kana":"トオカマチシ","town":"西本町","town_kana":"ニシホンチョウ","prefecture_code":15},"0302":{"zip_code":"9480302","prefecture":"新潟県","prefecture_kana":"ニイガタケン","city":"十日町市","city_kana":"トオカマチシ","town":"仁田","town_kana":"ニタ","prefecture_code":15},"0301":{"zip_code":"9480301","prefecture":"新潟県","prefecture_kana":"ニイガタケン","city":"十日町市","city_kana":"トオカマチシ","town":"野口","town_kana":"ノグチ","prefecture_code":15},"0071":{"zip_code":"9480071","prefecture":"新潟県","prefecture_kana":"ニイガタケン","city":"十日町市","city_kana":"トオカマチシ","town":"八幡田町","town_kana":"ハチマンダチョウ","prefecture_code":15},"0033":{"zip_code":"9480033","prefecture":"新潟県","prefecture_kana":"ニイガタケン","city":"十日町市","city_kana":"トオカマチシ","town":"八箇","town_kana":"ハッカ","prefecture_code":15},"0066":[{"zip_code":"9480066","prefecture":"新潟県","prefecture_kana":"ニイガタケン","city":"十日町市","city_kana":"トオカマチシ","town":"袋町中","town_kana":"フクロチョウナカ","prefecture_code":15},{"zip_code":"9480066","prefecture":"新潟県","prefecture_kana":"ニイガタケン","city":"十日町市","city_kana":"トオカマチシ","town":"袋町西","town_kana":"フクロチョウニシ","prefecture_code":15},{"zip_code":"9480066","prefecture":"新潟県","prefecture_kana":"ニイガタケン","city":"十日町市","city_kana":"トオカマチシ","town":"袋町東","town_kana":"フクロチョウヒガシ","prefecture_code":15}],"0034":{"zip_code":"9480034","prefecture":"新潟県","prefecture_kana":"ニイガタケン","city":"十日町市","city_kana":"トオカマチシ","town":"二ツ屋","town_kana":"フタツヤ","prefecture_code":15},"0049":{"zip_code":"9480049","prefecture":"新潟県","prefecture_kana":"ニイガタケン","city":"十日町市","city_kana":"トオカマチシ","town":"船坂","town_kana":"フナザカ","prefecture_code":15},"0003":{"zip_code":"9480003","prefecture":"新潟県","prefecture_kana":"ニイガタケン","city":"十日町市","city_kana":"トオカマチシ","town":"本町","town_kana":"ホンチョウ","prefecture_code":15},"0083":[{"zip_code":"9480083","prefecture":"新潟県","prefecture_kana":"ニイガタケン","city":"十日町市","city_kana":"トオカマチシ","town":"本町一丁目上","town_kana":"ホンチョウイッチョウメカミ","prefecture_code":15},{"zip_code":"9480083","prefecture":"新潟県","prefecture_kana":"ニイガタケン","city":"十日町市","city_kana":"トオカマチシ","town":"本町一丁目下","town_kana":"ホンチョウイッチョウメシモ","prefecture_code":15},{"zip_code":"9480083","prefecture":"新潟県","prefecture_kana":"ニイガタケン","city":"十日町市","city_kana":"トオカマチシ","town":"本町西一丁目","town_kana":"ホンチョウニシイッチョウメ","prefecture_code":15},{"zip_code":"9480083","prefecture":"新潟県","prefecture_kana":"ニイガタケン","city":"十日町市","city_kana":"トオカマチシ","town":"本町東一丁目","town_kana":"ホンチョウヒガシイッチョウメ","prefecture_code":15}],"0082":[{"zip_code":"9480082","prefecture":"新潟県","prefecture_kana":"ニイガタケン","city":"十日町市","city_kana":"トオカマチシ","town":"本町二丁目","town_kana":"ホンチョウニチョウメ","prefecture_code":15},{"zip_code":"9480082","prefecture":"新潟県","prefecture_kana":"ニイガタケン","city":"十日町市","city_kana":"トオカマチシ","town":"本町三丁目","town_kana":"ホンチョウサンチョウメ","prefecture_code":15},{"zip_code":"9480082","prefecture":"新潟県","prefecture_kana":"ニイガタケン","city":"十日町市","city_kana":"トオカマチシ","town":"本町四丁目","town_kana":"ホンチョウヨンチョウメ","prefecture_code":15}],"0081":{"zip_code":"9480081","prefecture":"新潟県","prefecture_kana":"ニイガタケン","city":"十日町市","city_kana":"トオカマチシ","town":"本町五丁目","town_kana":"ホンチョウゴチョウメ","prefecture_code":15},"0075":{"zip_code":"9480075","prefecture":"新潟県","prefecture_kana":"ニイガタケン","city":"十日町市","city_kana":"トオカマチシ","town":"丸山町","town_kana":"マルヤマチョウ","prefecture_code":15},"0026":{"zip_code":"9480026","prefecture":"新潟県","prefecture_kana":"ニイガタケン","city":"十日町市","city_kana":"トオカマチシ","town":"水野町","town_kana":"ミズノチョウ","prefecture_code":15},"0144":{"zip_code":"9480144","prefecture":"新潟県","prefecture_kana":"ニイガタケン","city":"十日町市","city_kana":"トオカマチシ","town":"水口沢","town_kana":"ミナクチザワ","prefecture_code":15},"0106":{"zip_code":"9480106","prefecture":"新潟県","prefecture_kana":"ニイガタケン","city":"十日町市","city_kana":"トオカマチシ","town":"南鐙坂","town_kana":"ミナミアブザカ","prefecture_code":15},"0005":{"zip_code":"9480005","prefecture":"新潟県","prefecture_kana":"ニイガタケン","city":"十日町市","city_kana":"トオカマチシ","town":"南新田町","town_kana":"ミナミシンデンチョウ","prefecture_code":15},"0023":[{"zip_code":"9480023","prefecture":"新潟県","prefecture_kana":"ニイガタケン","city":"十日町市","city_kana":"トオカマチシ","town":"宮下町西","town_kana":"ミヤシタチョウニシ","prefecture_code":15},{"zip_code":"9480023","prefecture":"新潟県","prefecture_kana":"ニイガタケン","city":"十日町市","city_kana":"トオカマチシ","town":"宮下町東","town_kana":"ミヤシタチョウヒガシ","prefecture_code":15}],"0052":{"zip_code":"9480052","prefecture":"新潟県","prefecture_kana":"ニイガタケン","city":"十日町市","city_kana":"トオカマチシ","town":"美雪町","town_kana":"ミユキチョウ","prefecture_code":15},"0216":{"zip_code":"9480216","prefecture":"新潟県","prefecture_kana":"ニイガタケン","city":"十日町市","city_kana":"トオカマチシ","town":"室島","town_kana":"ムロジマ","prefecture_code":15},"0048":{"zip_code":"9480048","prefecture":"新潟県","prefecture_kana":"ニイガタケン","city":"十日町市","city_kana":"トオカマチシ","town":"谷内丑","town_kana":"ヤチウシ","prefecture_code":15},"0143":{"zip_code":"9480143","prefecture":"新潟県","prefecture_kana":"ニイガタケン","city":"十日町市","city_kana":"トオカマチシ","town":"山野田","town_kana":"ヤマノタ","prefecture_code":15},"0031":{"zip_code":"9480031","prefecture":"新潟県","prefecture_kana":"ニイガタケン","city":"十日町市","city_kana":"トオカマチシ","town":"山本町","town_kana":"ヤマモトチョウ","prefecture_code":15},"0102":{"zip_code":"9480102","prefecture":"新潟県","prefecture_kana":"ニイガタケン","city":"十日町市","city_kana":"トオカマチシ","town":"山谷","town_kana":"ヤマヤ","prefecture_code":15},"0006":{"zip_code":"9480006","prefecture":"新潟県","prefecture_kana":"ニイガタケン","city":"十日町市","city_kana":"トオカマチシ","town":"四日町","town_kana":"ヨッカマチ","prefecture_code":15},"0007":{"zip_code":"9480007","prefecture":"新潟県","prefecture_kana":"ニイガタケン","city":"十日町市","city_kana":"トオカマチシ","town":"四日町新田","town_kana":"ヨッカマチシンデン","prefecture_code":15},"0043":{"zip_code":"9480043","prefecture":"新潟県","prefecture_kana":"ニイガタケン","city":"十日町市","city_kana":"トオカマチシ","town":"六箇山谷","town_kana":"ロッカヤマヤ","prefecture_code":15},"0027":{"zip_code":"9480027","prefecture":"新潟県","prefecture_kana":"ニイガタケン","city":"十日町市","city_kana":"トオカマチシ","town":"若宮町","town_kana":"ワカミヤチョウ","prefecture_code":15}}