{"5412":{"zip_code":"9495412","prefecture":"新潟県","prefecture_kana":"ニイガタケン","city":"長岡市","city_kana":"ナガオカシ","town":"朝日","town_kana":"アサヒ","prefecture_code":15},"4513":{"zip_code":"9494513","prefecture":"新潟県","prefecture_kana":"ニイガタケン","city":"長岡市","city_kana":"ナガオカシ","town":"阿弥陀瀬","town_kana":"アミダセ","prefecture_code":15},"4506":{"zip_code":"9494506","prefecture":"新潟県","prefecture_kana":"ニイガタケン","city":"長岡市","city_kana":"ナガオカシ","town":"荒巻","town_kana":"アラマキ","prefecture_code":15},"5401":{"zip_code":"9495401","prefecture":"新潟県","prefecture_kana":"ニイガタケン","city":"長岡市","city_kana":"ナガオカシ","town":"飯島","town_kana":"イイジマ","prefecture_code":15},"5414":{"zip_code":"9495414","prefecture":"新潟県","prefecture_kana":"ニイガタケン","city":"長岡市","city_kana":"ナガオカシ","town":"飯塚","town_kana":"イイヅカ","prefecture_code":15},"5415":{"zip_code":"9495415","prefecture":"新潟県","prefecture_kana":"ニイガタケン","city":"長岡市","city_kana":"ナガオカシ","town":"岩田","town_kana":"イワダ","prefecture_code":15},"5405":{"zip_code":"9495405","prefecture":"新潟県","prefecture_kana":"ニイガタケン","city":"長岡市","city_kana":"ナガオカシ","town":"岩野","town_kana":"イワノ","prefecture_code":15},"4517":{"zip_code":"9494517","prefecture":"新潟県","prefecture_kana":"ニイガタケン","city":"長岡市","city_kana":"ナガオカシ","town":"梅田","town_kana":"ウメダ","prefecture_code":15},"5406":{"zip_code":"9495406","prefecture":"新潟県","prefecture_kana":"ニイガタケン","city":"長岡市","city_kana":"ナガオカシ","town":"浦","town_kana":"ウラ","prefecture_code":15},"5216":{"zip_code":"9495216","prefecture":"新潟県","prefecture_kana":"ニイガタケン","city":"長岡市","city_kana":"ナガオカシ","town":"小国町相野原","town_kana":"オグニマチアイノハラ","prefecture_code":15},"5215":{"zip_code":"9495215","prefecture":"新潟県","prefecture_kana":"ニイガタケン","city":"長岡市","city_kana":"ナガオカシ","town":"小国町新町","town_kana":"オグニマチアラマチ","prefecture_code":15},"5346":{"zip_code":"9495346","prefecture":"新潟県","prefecture_kana":"ニイガタケン","city":"長岡市","city_kana":"ナガオカシ","town":"小国町大貝","town_kana":"オグニマチオオガイ","prefecture_code":15},"5333":{"zip_code":"9495333","prefecture":"新潟県","prefecture_kana":"ニイガタケン","city":"長岡市","city_kana":"ナガオカシ","town":"小国町小国沢","town_kana":"オグニマチオグニサワ","prefecture_code":15},"5332":{"zip_code":"9495332","prefecture":"新潟県","prefecture_kana":"ニイガタケン","city":"長岡市","city_kana":"ナガオカシ","town":"小国町上岩田","town_kana":"オグニマチカミイワタ","prefecture_code":15},"5214":{"zip_code":"9495214","prefecture":"新潟県","prefecture_kana":"ニイガタケン","city":"長岡市","city_kana":"ナガオカシ","town":"小国町上谷内新田","town_kana":"オグニマチカミヤウチシンデン","prefecture_code":15},"5212":{"zip_code":"9495212","prefecture":"新潟県","prefecture_kana":"ニイガタケン","city":"長岡市","city_kana":"ナガオカシ","town":"小国町桐沢","town_kana":"オグニマチキリサワ","prefecture_code":15},"5341":{"zip_code":"9495341","prefecture":"新潟県","prefecture_kana":"ニイガタケン","city":"長岡市","city_kana":"ナガオカシ","town":"小国町小栗山","town_kana":"オグニマチコグリヤマ","prefecture_code":15},"5344":{"zip_code":"9495344","prefecture":"新潟県","prefecture_kana":"ニイガタケン","city":"長岡市","city_kana":"ナガオカシ","town":"小国町苔野島","town_kana":"オグニマチコケノシマ","prefecture_code":15},"5336":{"zip_code":"9495336","prefecture":"新潟県","prefecture_kana":"ニイガタケン","city":"長岡市","city_kana":"ナガオカシ","town":"小国町諏訪井","town_kana":"オグニマチスワイ","prefecture_code":15},"5221":{"zip_code":"9495221","prefecture":"新潟県","prefecture_kana":"ニイガタケン","city":"長岡市","city_kana":"ナガオカシ","town":"小国町武石","town_kana":"オグニマチタケイシ","prefecture_code":15},"5335":{"zip_code":"9495335","prefecture":"新潟県","prefecture_kana":"ニイガタケン","city":"長岡市","city_kana":"ナガオカシ","town":"小国町太郎丸","town_kana":"オグニマチタロウマル","prefecture_code":15},"5201":{"zip_code":"9495201","prefecture":"新潟県","prefecture_kana":"ニイガタケン","city":"長岡市","city_kana":"ナガオカシ","town":"小国町千谷沢","town_kana":"オグニマチチヤザワ","prefecture_code":15},"5211":{"zip_code":"9495211","prefecture":"新潟県","prefecture_kana":"ニイガタケン","city":"長岡市","city_kana":"ナガオカシ","town":"小国町七日町","town_kana":"オグニマチナノカマチ","prefecture_code":15},"5331":{"zip_code":"9495331","prefecture":"新潟県","prefecture_kana":"ニイガタケン","city":"長岡市","city_kana":"ナガオカシ","town":"小国町楢沢","town_kana":"オグニマチナラサワ","prefecture_code":15},"5217":{"zip_code":"9495217","prefecture":"新潟県","prefecture_kana":"ニイガタケン","city":"長岡市","city_kana":"ナガオカシ","town":"小国町二本柳","town_kana":"オグニマチニホンヤナギ","prefecture_code":15},"5223":{"zip_code":"9495223","prefecture":"新潟県","prefecture_kana":"ニイガタケン","city":"長岡市","city_kana":"ナガオカシ","town":"小国町八王子","town_kana":"オグニマチハチオウジ","prefecture_code":15},"5343":{"zip_code":"9495343","prefecture":"新潟県","prefecture_kana":"ニイガタケン","city":"長岡市","city_kana":"ナガオカシ","town":"小国町原","town_kana":"オグニマチハラ","prefecture_code":15},"5213":{"zip_code":"9495213","prefecture":"新潟県","prefecture_kana":"ニイガタケン","city":"長岡市","city_kana":"ナガオカシ","town":"小国町法坂","town_kana":"オグニマチホウザカ","prefecture_code":15},"5334":{"zip_code":"9495334","prefecture":"新潟県","prefecture_kana":"ニイガタケン","city":"長岡市","city_kana":"ナガオカシ","town":"小国町法末","town_kana":"オグニマチホウスエ","prefecture_code":15},"5345":{"zip_code":"9495345","prefecture":"新潟県","prefecture_kana":"ニイガタケン","city":"長岡市","city_kana":"ナガオカシ","town":"小国町三桶","town_kana":"オグニマチミオケ","prefecture_code":15},"5342":{"zip_code":"9495342","prefecture":"新潟県","prefecture_kana":"ニイガタケン","city":"長岡市","city_kana":"ナガオカシ","town":"小国町森光","town_kana":"オグニマチモリミツ","prefecture_code":15},"5347":{"zip_code":"9495347","prefecture":"新潟県","prefecture_kana":"ニイガタケン","city":"長岡市","city_kana":"ナガオカシ","town":"小国町山野田","town_kana":"オグニマチヤマノタ","prefecture_code":15},"5222":{"zip_code":"9495222","prefecture":"新潟県","prefecture_kana":"ニイガタケン","city":"長岡市","city_kana":"ナガオカシ","town":"小国町横沢","town_kana":"オグニマチヨコサワ","prefecture_code":15},"4511":{"zip_code":"9494511","prefecture":"新潟県","prefecture_kana":"ニイガタケン","city":"長岡市","city_kana":"ナガオカシ","town":"小島谷","town_kana":"オジマヤ","prefecture_code":15},"5404":{"zip_code":"9495404","prefecture":"新潟県","prefecture_kana":"ニイガタケン","city":"長岡市","city_kana":"ナガオカシ","town":"釜ケ島","town_kana":"カマガシマ","prefecture_code":15},"4501":{"zip_code":"9494501","prefecture":"新潟県","prefecture_kana":"ニイガタケン","city":"長岡市","city_kana":"ナガオカシ","town":"上桐","town_kana":"カミギリ","prefecture_code":15},"5407":{"zip_code":"9495407","prefecture":"新潟県","prefecture_kana":"ニイガタケン","city":"長岡市","city_kana":"ナガオカシ","town":"神谷","town_kana":"カミヤ","prefecture_code":15},"7507":{"zip_code":"9497507","prefecture":"新潟県","prefecture_kana":"ニイガタケン","city":"長岡市","city_kana":"ナガオカシ","town":"川口相川","town_kana":"カワグチアイカワ","prefecture_code":15},"7508":{"zip_code":"9497508","prefecture":"新潟県","prefecture_kana":"ニイガタケン","city":"長岡市","city_kana":"ナガオカシ","town":"川口荒谷","town_kana":"カワグチアラヤ","prefecture_code":15},"8731":{"zip_code":"9498731","prefecture":"新潟県","prefecture_kana":"ニイガタケン","city":"長岡市","city_kana":"ナガオカシ","town":"川口牛ケ島","town_kana":"カワグチウシガシマ","prefecture_code":15},"7505":{"zip_code":"9497505","prefecture":"新潟県","prefecture_kana":"ニイガタケン","city":"長岡市","city_kana":"ナガオカシ","town":"川口牛ケ島","town_kana":"カワグチウシガシマ","prefecture_code":15},"7502":{"zip_code":"9497502","prefecture":"新潟県","prefecture_kana":"ニイガタケン","city":"長岡市","city_kana":"ナガオカシ","town":"川口木沢","town_kana":"カワグチキザワ","prefecture_code":15},"7512":{"zip_code":"9497512","prefecture":"新潟県","prefecture_kana":"ニイガタケン","city":"長岡市","city_kana":"ナガオカシ","town":"川口田麦山","town_kana":"カワグチタムギヤマ","prefecture_code":15},"7501":{"zip_code":"9497501","prefecture":"新潟県","prefecture_kana":"ニイガタケン","city":"長岡市","city_kana":"ナガオカシ","town":"川口峠","town_kana":"カワグチトウゲ","prefecture_code":15},"7503":{"zip_code":"9497503","prefecture":"新潟県","prefecture_kana":"ニイガタケン","city":"長岡市","city_kana":"ナガオカシ","town":"川口中山","town_kana":"カワグチナカヤマ","prefecture_code":15},"7506":{"zip_code":"9497506","prefecture":"新潟県","prefecture_kana":"ニイガタケン","city":"長岡市","city_kana":"ナガオカシ","town":"川口武道窪","town_kana":"カワグチブドウクボ","prefecture_code":15},"7511":{"zip_code":"9497511","prefecture":"新潟県","prefecture_kana":"ニイガタケン","city":"長岡市","city_kana":"ナガオカシ","town":"川口和南津","town_kana":"カワグチワナヅ","prefecture_code":15},"4502":{"zip_code":"9494502","prefecture":"新潟県","prefecture_kana":"ニイガタケン","city":"長岡市","city_kana":"ナガオカシ","town":"黒坂","town_kana":"クロサカ","prefecture_code":15},"5408":{"zip_code":"9495408","prefecture":"新潟県","prefecture_kana":"ニイガタケン","city":"長岡市","city_kana":"ナガオカシ","town":"越路中沢","town_kana":"コシジナカザワ","prefecture_code":15},"5403":{"zip_code":"9495403","prefecture":"新潟県","prefecture_kana":"ニイガタケン","city":"長岡市","city_kana":"ナガオカシ","town":"越路中島","town_kana":"コシジナカジマ","prefecture_code":15},"5402":{"zip_code":"9495402","prefecture":"新潟県","prefecture_kana":"ニイガタケン","city":"長岡市","city_kana":"ナガオカシ","town":"篠花","town_kana":"ササバナ","prefecture_code":15},"5413":{"zip_code":"9495413","prefecture":"新潟県","prefecture_kana":"ニイガタケン","city":"長岡市","city_kana":"ナガオカシ","town":"沢下条","town_kana":"サワゲイジョウ","prefecture_code":15},"4504":{"zip_code":"9494504","prefecture":"新潟県","prefecture_kana":"ニイガタケン","city":"長岡市","city_kana":"ナガオカシ","town":"三瀬ケ谷","town_kana":"サンゼガヤ","prefecture_code":15},"4525":{"zip_code":"9494525","prefecture":"新潟県","prefecture_kana":"ニイガタケン","city":"長岡市","city_kana":"ナガオカシ","town":"島崎","town_kana":"シマザキ","prefecture_code":15},"4507":{"zip_code":"9494507","prefecture":"新潟県","prefecture_kana":"ニイガタケン","city":"長岡市","city_kana":"ナガオカシ","town":"下富岡","town_kana":"シモトミオカ","prefecture_code":15},"4523":{"zip_code":"9494523","prefecture":"新潟県","prefecture_kana":"ニイガタケン","city":"長岡市","city_kana":"ナガオカシ","town":"城之丘","town_kana":"ジョウノオカ","prefecture_code":15},"5124":{"zip_code":"9495124","prefecture":"新潟県","prefecture_kana":"ニイガタケン","city":"長岡市","city_kana":"ナガオカシ","town":"千谷沢","town_kana":"チヤザワ","prefecture_code":15},"5123":{"zip_code":"9495123","prefecture":"新潟県","prefecture_kana":"ニイガタケン","city":"長岡市","city_kana":"ナガオカシ","town":"塚野山","town_kana":"ツカノヤマ","prefecture_code":15},"7513":{"zip_code":"9497513","prefecture":"新潟県","prefecture_kana":"ニイガタケン","city":"長岡市","city_kana":"ナガオカシ","town":"西川口","town_kana":"ニシカワグチ","prefecture_code":15},"5121":{"zip_code":"9495121","prefecture":"新潟県","prefecture_kana":"ニイガタケン","city":"長岡市","city_kana":"ナガオカシ","town":"西谷","town_kana":"ニシダニ","prefecture_code":15},"5409":{"zip_code":"9495409","prefecture":"新潟県","prefecture_kana":"ニイガタケン","city":"長岡市","city_kana":"ナガオカシ","town":"西野","town_kana":"ニシノ","prefecture_code":15},"4505":{"zip_code":"9494505","prefecture":"新潟県","prefecture_kana":"ニイガタケン","city":"長岡市","city_kana":"ナガオカシ","town":"根小屋","town_kana":"ネゴヤ","prefecture_code":15},"7504":{"zip_code":"9497504","prefecture":"新潟県","prefecture_kana":"ニイガタケン","city":"長岡市","city_kana":"ナガオカシ","town":"東川口","town_kana":"ヒガシカワグチ","prefecture_code":15},"5122":{"zip_code":"9495122","prefecture":"新潟県","prefecture_kana":"ニイガタケン","city":"長岡市","city_kana":"ナガオカシ","town":"東谷","town_kana":"ヒガシダニ","prefecture_code":15},"4521":{"zip_code":"9494521","prefecture":"新潟県","prefecture_kana":"ニイガタケン","city":"長岡市","city_kana":"ナガオカシ","town":"東保内","town_kana":"ヒガシホナイ","prefecture_code":15},"4514":{"zip_code":"9494514","prefecture":"新潟県","prefecture_kana":"ニイガタケン","city":"長岡市","city_kana":"ナガオカシ","town":"日野浦","town_kana":"ヒノウラ","prefecture_code":15},"5416":{"zip_code":"9495416","prefecture":"新潟県","prefecture_kana":"ニイガタケン","city":"長岡市","city_kana":"ナガオカシ","town":"不動沢","town_kana":"フドウサワ","prefecture_code":15},"4522":{"zip_code":"9494522","prefecture":"新潟県","prefecture_kana":"ニイガタケン","city":"長岡市","city_kana":"ナガオカシ","town":"村田","town_kana":"ムラタ","prefecture_code":15},"5411":{"zip_code":"9495411","prefecture":"新潟県","prefecture_kana":"ニイガタケン","city":"長岡市","city_kana":"ナガオカシ","town":"来迎寺","town_kana":"ライコウジ","prefecture_code":15},"4524":{"zip_code":"9494524","prefecture":"新潟県","prefecture_kana":"ニイガタケン","city":"長岡市","city_kana":"ナガオカシ","town":"両高","town_kana":"リョウタカ","prefecture_code":15},"4512":{"zip_code":"9494512","prefecture":"新潟県","prefecture_kana":"ニイガタケン","city":"長岡市","city_kana":"ナガオカシ","town":"若野浦","town_kana":"ワカノウラ","prefecture_code":15},"4503":{"zip_code":"9494503","prefecture":"新潟県","prefecture_kana":"ニイガタケン","city":"長岡市","city_kana":"ナガオカシ","town":"和島北野","town_kana":"ワシマキタノ","prefecture_code":15},"4515":{"zip_code":"9494515","prefecture":"新潟県","prefecture_kana":"ニイガタケン","city":"長岡市","city_kana":"ナガオカシ","town":"和島高畑","town_kana":"ワシマタカバタケ","prefecture_code":15},"4516":{"zip_code":"9494516","prefecture":"新潟県","prefecture_kana":"ニイガタケン","city":"長岡市","city_kana":"ナガオカシ","town":"和島中沢","town_kana":"ワシマナカサワ","prefecture_code":15},"3664":{"zip_code":"9493664","prefecture":"新潟県","prefecture_kana":"ニイガタケン","city":"柏崎市","city_kana":"カシワザキシ","town":"上輪","town_kana":"アゲワ","prefecture_code":15},"3663":{"zip_code":"9493663","prefecture":"新潟県","prefecture_kana":"ニイガタケン","city":"柏崎市","city_kana":"カシワザキシ","town":"上輪新田","town_kana":"アゲワシンデン","prefecture_code":15},"3661":{"zip_code":"9493661","prefecture":"新潟県","prefecture_kana":"ニイガタケン","city":"柏崎市","city_kana":"カシワザキシ","town":"青海川","town_kana":"オウミガワ","prefecture_code":15},"3674":{"zip_code":"9493674","prefecture":"新潟県","prefecture_kana":"ニイガタケン","city":"柏崎市","city_kana":"カシワザキシ","town":"大清水","town_kana":"オオシミズ","prefecture_code":15},"3672":{"zip_code":"9493672","prefecture":"新潟県","prefecture_kana":"ニイガタケン","city":"柏崎市","city_kana":"カシワザキシ","town":"大平","town_kana":"オオダイラ","prefecture_code":15},"3724":{"zip_code":"9493724","prefecture":"新潟県","prefecture_kana":"ニイガタケン","city":"柏崎市","city_kana":"カシワザキシ","town":"大広田","town_kana":"オオヒロタ","prefecture_code":15},"3662":{"zip_code":"9493662","prefecture":"新潟県","prefecture_kana":"ニイガタケン","city":"柏崎市","city_kana":"カシワザキシ","town":"笠島","town_kana":"カサシマ","prefecture_code":15},"3732":{"zip_code":"9493732","prefecture":"新潟県","prefecture_kana":"ニイガタケン","city":"柏崎市","city_kana":"カシワザキシ","town":"北条","town_kana":"キタジョウ","prefecture_code":15},"3725":{"zip_code":"9493725","prefecture":"新潟県","prefecture_kana":"ニイガタケン","city":"柏崎市","city_kana":"カシワザキシ","town":"旧広田","town_kana":"キュウヒロタ","prefecture_code":15},"3735":{"zip_code":"9493735","prefecture":"新潟県","prefecture_kana":"ニイガタケン","city":"柏崎市","city_kana":"カシワザキシ","town":"小島","town_kana":"コジマ","prefecture_code":15},"3673":{"zip_code":"9493673","prefecture":"新潟県","prefecture_kana":"ニイガタケン","city":"柏崎市","city_kana":"カシワザキシ","town":"高畔","town_kana":"タカゼ","prefecture_code":15},"3731":{"zip_code":"9493731","prefecture":"新潟県","prefecture_kana":"ニイガタケン","city":"柏崎市","city_kana":"カシワザキシ","town":"東条","town_kana":"トウジョウ","prefecture_code":15},"3723":{"zip_code":"9493723","prefecture":"新潟県","prefecture_kana":"ニイガタケン","city":"柏崎市","city_kana":"カシワザキシ","town":"西長鳥","town_kana":"ニシナガトリ","prefecture_code":15},"4123":{"zip_code":"9494123","prefecture":"新潟県","prefecture_kana":"ニイガタケン","city":"柏崎市","city_kana":"カシワザキシ","town":"西山町池浦","town_kana":"ニシヤマチョウイケウラ","prefecture_code":15},"4201":{"zip_code":"9494201","prefecture":"新潟県","prefecture_kana":"ニイガタケン","city":"柏崎市","city_kana":"カシワザキシ","town":"西山町石地","town_kana":"ニシヤマチョウイシジ","prefecture_code":15},"4149":{"zip_code":"9494149","prefecture":"新潟県","prefecture_kana":"ニイガタケン","city":"柏崎市","city_kana":"カシワザキシ","town":"西山町五日市","town_kana":"ニシヤマチョウイツカイチ","prefecture_code":15},"4128":{"zip_code":"9494128","prefecture":"新潟県","prefecture_kana":"ニイガタケン","city":"柏崎市","city_kana":"カシワザキシ","town":"西山町伊毛","town_kana":"ニシヤマチョウイモ","prefecture_code":15},"4131":{"zip_code":"9494131","prefecture":"新潟県","prefecture_kana":"ニイガタケン","city":"柏崎市","city_kana":"カシワザキシ","town":"西山町後谷","town_kana":"ニシヤマチョウウシロダニ","prefecture_code":15},"4148":{"zip_code":"9494148","prefecture":"新潟県","prefecture_kana":"ニイガタケン","city":"柏崎市","city_kana":"カシワザキシ","town":"西山町内方","town_kana":"ニシヤマチョウウチカタ","prefecture_code":15},"4204":{"zip_code":"9494204","prefecture":"新潟県","prefecture_kana":"ニイガタケン","city":"柏崎市","city_kana":"カシワザキシ","town":"西山町大崎","town_kana":"ニシヤマチョウオオサキ","prefecture_code":15},"4203":{"zip_code":"9494203","prefecture":"新潟県","prefecture_kana":"ニイガタケン","city":"柏崎市","city_kana":"カシワザキシ","town":"西山町大津","town_kana":"ニシヤマチョウオオヅ","prefecture_code":15},"4147":{"zip_code":"9494147","prefecture":"新潟県","prefecture_kana":"ニイガタケン","city":"柏崎市","city_kana":"カシワザキシ","town":"西山町大坪","town_kana":"ニシヤマチョウオオツボ","prefecture_code":15},"4133":{"zip_code":"9494133","prefecture":"新潟県","prefecture_kana":"ニイガタケン","city":"柏崎市","city_kana":"カシワザキシ","town":"西山町鬼王","town_kana":"ニシヤマチョウオニオ","prefecture_code":15},"4112":{"zip_code":"9494112","prefecture":"新潟県","prefecture_kana":"ニイガタケン","city":"柏崎市","city_kana":"カシワザキシ","town":"西山町尾野内","town_kana":"ニシヤマチョウオノウチ","prefecture_code":15},"4202":{"zip_code":"9494202","prefecture":"新潟県","prefecture_kana":"ニイガタケン","city":"柏崎市","city_kana":"カシワザキシ","town":"西山町尾町","town_kana":"ニシヤマチョウオマチ","prefecture_code":15},"4127":{"zip_code":"9494127","prefecture":"新潟県","prefecture_kana":"ニイガタケン","city":"柏崎市","city_kana":"カシワザキシ","town":"西山町鎌田","town_kana":"ニシヤマチョウカマタ","prefecture_code":15},"4113":{"zip_code":"9494113","prefecture":"新潟県","prefecture_kana":"ニイガタケン","city":"柏崎市","city_kana":"カシワザキシ","town":"西山町上山田","town_kana":"ニシヤマチョウカミヤマダ","prefecture_code":15},"4145":{"zip_code":"9494145","prefecture":"新潟県","prefecture_kana":"ニイガタケン","city":"柏崎市","city_kana":"カシワザキシ","town":"西山町北野","town_kana":"ニシヤマチョウキタノ","prefecture_code":15},"4142":{"zip_code":"9494142","prefecture":"新潟県","prefecture_kana":"ニイガタケン","city":"柏崎市","city_kana":"カシワザキシ","town":"西山町黒部","town_kana":"ニシヤマチョウクロベ","prefecture_code":15},"4206":{"zip_code":"9494206","prefecture":"新潟県","prefecture_kana":"ニイガタケン","city":"柏崎市","city_kana":"カシワザキシ","town":"西山町甲田","town_kana":"ニシヤマチョウコウダ","prefecture_code":15},"4135":{"zip_code":"9494135","prefecture":"新潟県","prefecture_kana":"ニイガタケン","city":"柏崎市","city_kana":"カシワザキシ","town":"西山町坂田","town_kana":"ニシヤマチョウサカタ","prefecture_code":15},"4126":{"zip_code":"9494126","prefecture":"新潟県","prefecture_kana":"ニイガタケン","city":"柏崎市","city_kana":"カシワザキシ","town":"西山町下山田","town_kana":"ニシヤマチョウシモヤマダ","prefecture_code":15},"4144":{"zip_code":"9494144","prefecture":"新潟県","prefecture_kana":"ニイガタケン","city":"柏崎市","city_kana":"カシワザキシ","town":"西山町新保","town_kana":"ニシヤマチョウシンボ","prefecture_code":15},"4121":{"zip_code":"9494121","prefecture":"新潟県","prefecture_kana":"ニイガタケン","city":"柏崎市","city_kana":"カシワザキシ","town":"西山町田沢","town_kana":"ニシヤマチョウタザワ","prefecture_code":15},"4125":{"zip_code":"9494125","prefecture":"新潟県","prefecture_kana":"ニイガタケン","city":"柏崎市","city_kana":"カシワザキシ","town":"西山町中央台","town_kana":"ニシヤマチョウチュウオウダイ","prefecture_code":15},"4132":{"zip_code":"9494132","prefecture":"新潟県","prefecture_kana":"ニイガタケン","city":"柏崎市","city_kana":"カシワザキシ","town":"西山町長嶺","town_kana":"ニシヤマチョウナガミネ","prefecture_code":15},"4141":{"zip_code":"9494141","prefecture":"新潟県","prefecture_kana":"ニイガタケン","city":"柏崎市","city_kana":"カシワザキシ","town":"西山町西山","town_kana":"ニシヤマチョウニシヤマ","prefecture_code":15},"4114":{"zip_code":"9494114","prefecture":"新潟県","prefecture_kana":"ニイガタケン","city":"柏崎市","city_kana":"カシワザキシ","town":"西山町灰爪","town_kana":"ニシヤマチョウハイヅメ","prefecture_code":15},"4205":{"zip_code":"9494205","prefecture":"新潟県","prefecture_kana":"ニイガタケン","city":"柏崎市","city_kana":"カシワザキシ","town":"西山町浜忠","town_kana":"ニシヤマチョウハマツダ","prefecture_code":15},"4122":{"zip_code":"9494122","prefecture":"新潟県","prefecture_kana":"ニイガタケン","city":"柏崎市","city_kana":"カシワザキシ","town":"西山町藤掛","town_kana":"ニシヤマチョウフジカケ","prefecture_code":15},"4134":{"zip_code":"9494134","prefecture":"新潟県","prefecture_kana":"ニイガタケン","city":"柏崎市","city_kana":"カシワザキシ","town":"西山町二田","town_kana":"ニシヤマチョウフタダ","prefecture_code":15},"4111":{"zip_code":"9494111","prefecture":"新潟県","prefecture_kana":"ニイガタケン","city":"柏崎市","city_kana":"カシワザキシ","town":"西山町別山","town_kana":"ニシヤマチョウベツヤマ","prefecture_code":15},"4136":{"zip_code":"9494136","prefecture":"新潟県","prefecture_kana":"ニイガタケン","city":"柏崎市","city_kana":"カシワザキシ","town":"西山町緑が丘","town_kana":"ニシヤマチョウミドリガオカ","prefecture_code":15},"4146":{"zip_code":"9494146","prefecture":"新潟県","prefecture_kana":"ニイガタケン","city":"柏崎市","city_kana":"カシワザキシ","town":"西山町妙法寺","town_kana":"ニシヤマチョウミョウホウジ","prefecture_code":15},"4124":{"zip_code":"9494124","prefecture":"新潟県","prefecture_kana":"ニイガタケン","city":"柏崎市","city_kana":"カシワザキシ","town":"西山町礼拝","town_kana":"ニシヤマチョウライハイ","prefecture_code":15},"4143":{"zip_code":"9494143","prefecture":"新潟県","prefecture_kana":"ニイガタケン","city":"柏崎市","city_kana":"カシワザキシ","town":"西山町和田","town_kana":"ニシヤマチョウワダ","prefecture_code":15},"3722":{"zip_code":"9493722","prefecture":"新潟県","prefecture_kana":"ニイガタケン","city":"柏崎市","city_kana":"カシワザキシ","town":"東長鳥","town_kana":"ヒガシナガトリ","prefecture_code":15},"3733":{"zip_code":"9493733","prefecture":"新潟県","prefecture_kana":"ニイガタケン","city":"柏崎市","city_kana":"カシワザキシ","town":"本条","town_kana":"ホンジョウ","prefecture_code":15},"3734":{"zip_code":"9493734","prefecture":"新潟県","prefecture_kana":"ニイガタケン","city":"柏崎市","city_kana":"カシワザキシ","town":"南条","town_kana":"ミナミジョウ","prefecture_code":15},"3726":{"zip_code":"9493726","prefecture":"新潟県","prefecture_kana":"ニイガタケン","city":"柏崎市","city_kana":"カシワザキシ","town":"山澗","town_kana":"ヤマダニ","prefecture_code":15},"3721":{"zip_code":"9493721","prefecture":"新潟県","prefecture_kana":"ニイガタケン","city":"柏崎市","city_kana":"カシワザキシ","town":"吉井黒川","town_kana":"ヨシイクロカワ","prefecture_code":15},"3675":{"zip_code":"9493675","prefecture":"新潟県","prefecture_kana":"ニイガタケン","city":"柏崎市","city_kana":"カシワザキシ","town":"米山町","town_kana":"ヨネヤマチョウ","prefecture_code":15},"3671":{"zip_code":"9493671","prefecture":"新潟県","prefecture_kana":"ニイガタケン","city":"柏崎市","city_kana":"カシワザキシ","town":"蕨野","town_kana":"ワラビノ","prefecture_code":15},"8728":{"zip_code":"9498728","prefecture":"新潟県","prefecture_kana":"ニイガタケン","city":"小千谷市","city_kana":"オヂヤシ","town":"池ケ原","town_kana":"イケガハラ","prefecture_code":15},"8727":{"zip_code":"9498727","prefecture":"新潟県","prefecture_kana":"ニイガタケン","city":"小千谷市","city_kana":"オヂヤシ","town":"池中新田","town_kana":"イケナカシンデン","prefecture_code":15},"8724":{"zip_code":"9498724","prefecture":"新潟県","prefecture_kana":"ニイガタケン","city":"小千谷市","city_kana":"オヂヤシ","town":"岩沢","town_kana":"イワサワ","prefecture_code":15},"8722":{"zip_code":"9498722","prefecture":"新潟県","prefecture_kana":"ニイガタケン","city":"小千谷市","city_kana":"オヂヤシ","town":"川井","town_kana":"カワイ","prefecture_code":15},"8723":{"zip_code":"9498723","prefecture":"新潟県","prefecture_kana":"ニイガタケン","city":"小千谷市","city_kana":"オヂヤシ","town":"川井新田","town_kana":"カワイシンデン","prefecture_code":15},"8721":{"zip_code":"9498721","prefecture":"新潟県","prefecture_kana":"ニイガタケン","city":"小千谷市","city_kana":"オヂヤシ","town":"塩殿","town_kana":"シオドノ","prefecture_code":15},"8725":{"zip_code":"9498725","prefecture":"新潟県","prefecture_kana":"ニイガタケン","city":"小千谷市","city_kana":"オヂヤシ","town":"豊久新田","town_kana":"ホウキュウシンデン","prefecture_code":15},"8726":{"zip_code":"9498726","prefecture":"新潟県","prefecture_kana":"ニイガタケン","city":"小千谷市","city_kana":"オヂヤシ","town":"真人町","town_kana":"マットチョウ","prefecture_code":15},"8544":{"zip_code":"9498544","prefecture":"新潟県","prefecture_kana":"ニイガタケン","city":"十日町市","city_kana":"トオカマチシ","town":"当間","town_kana":"アテマ","prefecture_code":15},"8531":{"zip_code":"9498531","prefecture":"新潟県","prefecture_kana":"ニイガタケン","city":"十日町市","city_kana":"トオカマチシ","town":"天池","town_kana":"アマイケ","prefecture_code":15},"8445":{"zip_code":"9498445","prefecture":"新潟県","prefecture_kana":"ニイガタケン","city":"十日町市","city_kana":"トオカマチシ","town":"新里","town_kana":"アラサト","prefecture_code":15},"8414":{"zip_code":"9498414","prefecture":"新潟県","prefecture_kana":"ニイガタケン","city":"十日町市","city_kana":"トオカマチシ","town":"荒屋","town_kana":"アラヤ","prefecture_code":15},"8502":{"zip_code":"9498502","prefecture":"新潟県","prefecture_kana":"ニイガタケン","city":"十日町市","city_kana":"トオカマチシ","town":"新屋敷","town_kana":"アラヤシキ","prefecture_code":15},"8562":{"zip_code":"9498562","prefecture":"新潟県","prefecture_kana":"ニイガタケン","city":"十日町市","city_kana":"トオカマチシ","town":"安養寺","town_kana":"アンヨウジ","prefecture_code":15},"8541":{"zip_code":"9498541","prefecture":"新潟県","prefecture_kana":"ニイガタケン","city":"十日町市","city_kana":"トオカマチシ","town":"池沢","town_kana":"イケザワ","prefecture_code":15},"8532":{"zip_code":"9498532","prefecture":"新潟県","prefecture_kana":"ニイガタケン","city":"十日町市","city_kana":"トオカマチシ","town":"池之尻","town_kana":"イケノシリ","prefecture_code":15},"8422":{"zip_code":"9498422","prefecture":"新潟県","prefecture_kana":"ニイガタケン","city":"十日町市","city_kana":"トオカマチシ","town":"市之越","town_kana":"イチノコシ","prefecture_code":15},"8441":{"zip_code":"9498441","prefecture":"新潟県","prefecture_kana":"ニイガタケン","city":"十日町市","city_kana":"トオカマチシ","town":"芋川","town_kana":"イモガワ","prefecture_code":15},"8421":{"zip_code":"9498421","prefecture":"新潟県","prefecture_kana":"ニイガタケン","city":"十日町市","city_kana":"トオカマチシ","town":"芋川新田","town_kana":"イモガワシンデン","prefecture_code":15},"8405":{"zip_code":"9498405","prefecture":"新潟県","prefecture_kana":"ニイガタケン","city":"十日町市","city_kana":"トオカマチシ","town":"芋沢","town_kana":"イモザワ","prefecture_code":15},"8533":{"zip_code":"9498533","prefecture":"新潟県","prefecture_kana":"ニイガタケン","city":"十日町市","city_kana":"トオカマチシ","town":"漆島","town_kana":"ウルシジマ","prefecture_code":15},"8401":{"zip_code":"9498401","prefecture":"新潟県","prefecture_kana":"ニイガタケン","city":"十日町市","city_kana":"トオカマチシ","town":"上山","town_kana":"ウワヤマ","prefecture_code":15},"8555":{"zip_code":"9498555","prefecture":"新潟県","prefecture_kana":"ニイガタケン","city":"十日町市","city_kana":"トオカマチシ","town":"大石","town_kana":"オオイシ","prefecture_code":15},"8521":{"zip_code":"9498521","prefecture":"新潟県","prefecture_kana":"ニイガタケン","city":"十日町市","city_kana":"トオカマチシ","town":"大黒沢","town_kana":"オオグロサワ","prefecture_code":15},"8524":{"zip_code":"9498524","prefecture":"新潟県","prefecture_kana":"ニイガタケン","city":"十日町市","city_kana":"トオカマチシ","town":"太田島","town_kana":"オオタジマ","prefecture_code":15},"8435":{"zip_code":"9498435","prefecture":"新潟県","prefecture_kana":"ニイガタケン","city":"十日町市","city_kana":"トオカマチシ","town":"角間","town_kana":"カクマ","prefecture_code":15},"8402":{"zip_code":"9498402","prefecture":"新潟県","prefecture_kana":"ニイガタケン","city":"十日町市","city_kana":"トオカマチシ","town":"桂","town_kana":"カツラ","prefecture_code":15},"8602":{"zip_code":"9498602","prefecture":"新潟県","prefecture_kana":"ニイガタケン","city":"十日町市","city_kana":"トオカマチシ","town":"上組","town_kana":"カミグミ","prefecture_code":15},"8419":{"zip_code":"9498419","prefecture":"新潟県","prefecture_kana":"ニイガタケン","city":"十日町市","city_kana":"トオカマチシ","town":"桔梗原","town_kana":"キキョウハラ","prefecture_code":15},"8432":{"zip_code":"9498432","prefecture":"新潟県","prefecture_kana":"ニイガタケン","city":"十日町市","city_kana":"トオカマチシ","town":"倉下","town_kana":"クラシタ","prefecture_code":15},"8412":{"zip_code":"9498412","prefecture":"新潟県","prefecture_kana":"ニイガタケン","city":"十日町市","city_kana":"トオカマチシ","town":"倉俣","town_kana":"クラマタ","prefecture_code":15},"8543":{"zip_code":"9498543","prefecture":"新潟県","prefecture_kana":"ニイガタケン","city":"十日町市","city_kana":"トオカマチシ","town":"鍬柄沢","town_kana":"クワガラザワ","prefecture_code":15},"8603":{"zip_code":"9498603","prefecture":"新潟県","prefecture_kana":"ニイガタケン","city":"十日町市","city_kana":"トオカマチシ","town":"下条","town_kana":"ゲジョウ","prefecture_code":15},"8542":{"zip_code":"9498542","prefecture":"新潟県","prefecture_kana":"ニイガタケン","city":"十日町市","city_kana":"トオカマチシ","town":"源田","town_kana":"ゲンタ","prefecture_code":15},"8433":{"zip_code":"9498433","prefecture":"新潟県","prefecture_kana":"ニイガタケン","city":"十日町市","city_kana":"トオカマチシ","town":"小出","town_kana":"コイデ","prefecture_code":15},"8416":{"zip_code":"9498416","prefecture":"新潟県","prefecture_kana":"ニイガタケン","city":"十日町市","city_kana":"トオカマチシ","town":"高道山","town_kana":"コウミチヤマ","prefecture_code":15},"8527":{"zip_code":"9498527","prefecture":"新潟県","prefecture_kana":"ニイガタケン","city":"十日町市","city_kana":"トオカマチシ","town":"小黒沢","town_kana":"コグロサワ","prefecture_code":15},"8409":{"zip_code":"9498409","prefecture":"新潟県","prefecture_kana":"ニイガタケン","city":"十日町市","city_kana":"トオカマチシ","town":"小原","town_kana":"コハラ","prefecture_code":15},"8436":{"zip_code":"9498436","prefecture":"新潟県","prefecture_kana":"ニイガタケン","city":"十日町市","city_kana":"トオカマチシ","town":"西方","town_kana":"サイホウ","prefecture_code":15},"8525":{"zip_code":"9498525","prefecture":"新潟県","prefecture_kana":"ニイガタケン","city":"十日町市","city_kana":"トオカマチシ","town":"幸町","town_kana":"サイワイチョウ","prefecture_code":15},"8604":{"zip_code":"9498604","prefecture":"新潟県","prefecture_kana":"ニイガタケン","city":"十日町市","city_kana":"トオカマチシ","town":"下組","town_kana":"シモグミ","prefecture_code":15},"8442":{"zip_code":"9498442","prefecture":"新潟県","prefecture_kana":"ニイガタケン","city":"十日町市","city_kana":"トオカマチシ","town":"重地","town_kana":"ジュウジ","prefecture_code":15},"8427":{"zip_code":"9498427","prefecture":"新潟県","prefecture_kana":"ニイガタケン","city":"十日町市","city_kana":"トオカマチシ","town":"白羽毛","town_kana":"シラハケ","prefecture_code":15},"8612":{"zip_code":"9498612","prefecture":"新潟県","prefecture_kana":"ニイガタケン","city":"十日町市","city_kana":"トオカマチシ","town":"新座乙","town_kana":"シンザオツ","prefecture_code":15},"8526":{"zip_code":"9498526","prefecture":"新潟県","prefecture_kana":"ニイガタケン","city":"十日町市","city_kana":"トオカマチシ","town":"新宮","town_kana":"シンミヤ","prefecture_code":15},"8561":{"zip_code":"9498561","prefecture":"新潟県","prefecture_kana":"ニイガタケン","city":"十日町市","city_kana":"トオカマチシ","town":"姿","town_kana":"スガタ","prefecture_code":15},"8444":{"zip_code":"9498444","prefecture":"新潟県","prefecture_kana":"ニイガタケン","city":"十日町市","city_kana":"トオカマチシ","town":"清田山","town_kana":"セイダヤマ","prefecture_code":15},"8423":{"zip_code":"9498423","prefecture":"新潟県","prefecture_kana":"ニイガタケン","city":"十日町市","city_kana":"トオカマチシ","town":"鷹羽","town_kana":"タカバ","prefecture_code":15},"8403":{"zip_code":"9498403","prefecture":"新潟県","prefecture_kana":"ニイガタケン","city":"十日町市","city_kana":"トオカマチシ","town":"田沢本村","town_kana":"タザワホンソン","prefecture_code":15},"8413":{"zip_code":"9498413","prefecture":"新潟県","prefecture_kana":"ニイガタケン","city":"十日町市","city_kana":"トオカマチシ","town":"田代","town_kana":"タシロ","prefecture_code":15},"8522":{"zip_code":"9498522","prefecture":"新潟県","prefecture_kana":"ニイガタケン","city":"十日町市","city_kana":"トオカマチシ","town":"伊達","town_kana":"ダテ","prefecture_code":15},"8407":{"zip_code":"9498407","prefecture":"新潟県","prefecture_kana":"ニイガタケン","city":"十日町市","city_kana":"トオカマチシ","town":"田中","town_kana":"タナカ","prefecture_code":15},"8556":{"zip_code":"9498556","prefecture":"新潟県","prefecture_kana":"ニイガタケン","city":"十日町市","city_kana":"トオカマチシ","town":"珠川","town_kana":"タマガワ","prefecture_code":15},"8431":{"zip_code":"9498431","prefecture":"新潟県","prefecture_kana":"ニイガタケン","city":"十日町市","city_kana":"トオカマチシ","town":"土倉","town_kana":"ツチクラ","prefecture_code":15},"8523":{"zip_code":"9498523","prefecture":"新潟県","prefecture_kana":"ニイガタケン","city":"十日町市","city_kana":"トオカマチシ","town":"土市","town_kana":"ドイチ","prefecture_code":15},"8415":{"zip_code":"9498415","prefecture":"新潟県","prefecture_kana":"ニイガタケン","city":"十日町市","city_kana":"トオカマチシ","town":"通り山","town_kana":"トオリヤマ","prefecture_code":15},"8552":{"zip_code":"9498552","prefecture":"新潟県","prefecture_kana":"ニイガタケン","city":"十日町市","city_kana":"トオカマチシ","town":"中在家","town_kana":"ナカザイケ","prefecture_code":15},"8443":{"zip_code":"9498443","prefecture":"新潟県","prefecture_kana":"ニイガタケン","city":"十日町市","city_kana":"トオカマチシ","town":"中里下山","town_kana":"ナカサトシモヤマ","prefecture_code":15},"8616":{"zip_code":"9498616","prefecture":"新潟県","prefecture_kana":"ニイガタケン","city":"十日町市","city_kana":"トオカマチシ","town":"中条乙","town_kana":"ナカジョウオツ","prefecture_code":15},"8613":{"zip_code":"9498613","prefecture":"新潟県","prefecture_kana":"ニイガタケン","city":"十日町市","city_kana":"トオカマチシ","town":"中条庚","town_kana":"ナカジョウカノエ","prefecture_code":15},"8617":{"zip_code":"9498617","prefecture":"新潟県","prefecture_kana":"ニイガタケン","city":"十日町市","city_kana":"トオカマチシ","town":"中条己","town_kana":"ナカジョウキ","prefecture_code":15},"8615":{"zip_code":"9498615","prefecture":"新潟県","prefecture_kana":"ニイガタケン","city":"十日町市","city_kana":"トオカマチシ","town":"中条甲","town_kana":"ナカジョウコウ","prefecture_code":15},"8611":{"zip_code":"9498611","prefecture":"新潟県","prefecture_kana":"ニイガタケン","city":"十日町市","city_kana":"トオカマチシ","town":"中条丁","town_kana":"ナカジョウテイ","prefecture_code":15},"8614":{"zip_code":"9498614","prefecture":"新潟県","prefecture_kana":"ニイガタケン","city":"十日町市","city_kana":"トオカマチシ","town":"中条丙","town_kana":"ナカジョウヘイ","prefecture_code":15},"8618":{"zip_code":"9498618","prefecture":"新潟県","prefecture_kana":"ニイガタケン","city":"十日町市","city_kana":"トオカマチシ","town":"中条戊","town_kana":"ナカジョウボ","prefecture_code":15},"8554":{"zip_code":"9498554","prefecture":"新潟県","prefecture_kana":"ニイガタケン","city":"十日町市","city_kana":"トオカマチシ","town":"南雲","town_kana":"ナグモ","prefecture_code":15},"8437":{"zip_code":"9498437","prefecture":"新潟県","prefecture_kana":"ニイガタケン","city":"十日町市","city_kana":"トオカマチシ","town":"西田尻","town_kana":"ニシタジリ","prefecture_code":15},"8404":{"zip_code":"9498404","prefecture":"新潟県","prefecture_kana":"ニイガタケン","city":"十日町市","city_kana":"トオカマチシ","town":"如来寺","town_kana":"ニョライジ","prefecture_code":15},"8545":{"zip_code":"9498545","prefecture":"新潟県","prefecture_kana":"ニイガタケン","city":"十日町市","city_kana":"トオカマチシ","town":"野中","town_kana":"ノナカ","prefecture_code":15},"8551":{"zip_code":"9498551","prefecture":"新潟県","prefecture_kana":"ニイガタケン","city":"十日町市","city_kana":"トオカマチシ","town":"馬場","town_kana":"ババ","prefecture_code":15},"8446":{"zip_code":"9498446","prefecture":"新潟県","prefecture_kana":"ニイガタケン","city":"十日町市","city_kana":"トオカマチシ","town":"原町","town_kana":"ハラマチ","prefecture_code":15},"8601":{"zip_code":"9498601","prefecture":"新潟県","prefecture_kana":"ニイガタケン","city":"十日町市","city_kana":"トオカマチシ","town":"東下組","town_kana":"ヒガシシモグミ","prefecture_code":15},"8424":{"zip_code":"9498424","prefecture":"新潟県","prefecture_kana":"ニイガタケン","city":"十日町市","city_kana":"トオカマチシ","town":"東田沢","town_kana":"ヒガシタザワ","prefecture_code":15},"8425":{"zip_code":"9498425","prefecture":"新潟県","prefecture_kana":"ニイガタケン","city":"十日町市","city_kana":"トオカマチシ","town":"東田尻","town_kana":"ヒガシタジリ","prefecture_code":15},"8408":{"zip_code":"9498408","prefecture":"新潟県","prefecture_kana":"ニイガタケン","city":"十日町市","city_kana":"トオカマチシ","town":"干溝","town_kana":"ヒミゾ","prefecture_code":15},"8417":{"zip_code":"9498417","prefecture":"新潟県","prefecture_kana":"ニイガタケン","city":"十日町市","city_kana":"トオカマチシ","town":"朴木沢","town_kana":"ホキザワ","prefecture_code":15},"8534":{"zip_code":"9498534","prefecture":"新潟県","prefecture_kana":"ニイガタケン","city":"十日町市","city_kana":"トオカマチシ","town":"細尾","town_kana":"ホソオ","prefecture_code":15},"8426":{"zip_code":"9498426","prefecture":"新潟県","prefecture_kana":"ニイガタケン","city":"十日町市","city_kana":"トオカマチシ","town":"程島","town_kana":"ホトジマ","prefecture_code":15},"8504":{"zip_code":"9498504","prefecture":"新潟県","prefecture_kana":"ニイガタケン","city":"十日町市","city_kana":"トオカマチシ","town":"堀之内","town_kana":"ホリノウチ","prefecture_code":15},"8558":{"zip_code":"9498558","prefecture":"新潟県","prefecture_kana":"ニイガタケン","city":"十日町市","city_kana":"トオカマチシ","town":"水沢","town_kana":"ミズサワ","prefecture_code":15},"8557":{"zip_code":"9498557","prefecture":"新潟県","prefecture_kana":"ニイガタケン","city":"十日町市","city_kana":"トオカマチシ","town":"水沢市之沢","town_kana":"ミズサワイチノサワ","prefecture_code":15},"8418":{"zip_code":"9498418","prefecture":"新潟県","prefecture_kana":"ニイガタケン","city":"十日町市","city_kana":"トオカマチシ","town":"宮沢","town_kana":"ミヤザワ","prefecture_code":15},"8505":{"zip_code":"9498505","prefecture":"新潟県","prefecture_kana":"ニイガタケン","city":"十日町市","city_kana":"トオカマチシ","town":"宮中","town_kana":"ミヤナカ","prefecture_code":15},"8434":{"zip_code":"9498434","prefecture":"新潟県","prefecture_kana":"ニイガタケン","city":"十日町市","city_kana":"トオカマチシ","town":"葎沢","town_kana":"ムグラサワ","prefecture_code":15},"8503":{"zip_code":"9498503","prefecture":"新潟県","prefecture_kana":"ニイガタケン","city":"十日町市","city_kana":"トオカマチシ","town":"本屋敷","town_kana":"モトヤシキ","prefecture_code":15},"8406":{"zip_code":"9498406","prefecture":"新潟県","prefecture_kana":"ニイガタケン","city":"十日町市","city_kana":"トオカマチシ","town":"山崎","town_kana":"ヤマザキ","prefecture_code":15},"0112":{"zip_code":"9490112","prefecture":"新潟県","prefecture_kana":"ニイガタケン","city":"糸魚川市","city_kana":"イトイガワシ","town":"上路","town_kana":"アゲロ","prefecture_code":15},"1211":{"zip_code":"9491211","prefecture":"新潟県","prefecture_kana":"ニイガタケン","city":"糸魚川市","city_kana":"イトイガワシ","town":"五十原","town_kana":"イカハラ","prefecture_code":15},"0534":{"zip_code":"9490534","prefecture":"新潟県","prefecture_kana":"ニイガタケン","city":"糸魚川市","city_kana":"イトイガワシ","town":"和泉","town_kana":"イズミ","prefecture_code":15},"0111":{"zip_code":"9490111","prefecture":"新潟県","prefecture_kana":"ニイガタケン","city":"糸魚川市","city_kana":"イトイガワシ","town":"市振","town_kana":"イチブリ","prefecture_code":15},"0302":{"zip_code":"9490302","prefecture":"新潟県","prefecture_kana":"ニイガタケン","city":"糸魚川市","city_kana":"イトイガワシ","town":"今村新田","town_kana":"イマムラシンデン","prefecture_code":15},"0551":{"zip_code":"9490551","prefecture":"新潟県","prefecture_kana":"ニイガタケン","city":"糸魚川市","city_kana":"イトイガワシ","town":"上野山","town_kana":"ウエノヤマ","prefecture_code":15},"0553":{"zip_code":"9490553","prefecture":"新潟県","prefecture_kana":"ニイガタケン","city":"糸魚川市","city_kana":"イトイガワシ","town":"上横","town_kana":"ウエヨコ","prefecture_code":15},"1336":{"zip_code":"9491336","prefecture":"新潟県","prefecture_kana":"ニイガタケン","city":"糸魚川市","city_kana":"イトイガワシ","town":"鶉石","town_kana":"ウズライシ","prefecture_code":15},"0307":{"zip_code":"9490307","prefecture":"新潟県","prefecture_kana":"ニイガタケン","city":"糸魚川市","city_kana":"イトイガワシ","town":"歌","town_kana":"ウタ","prefecture_code":15},"0532":{"zip_code":"9490532","prefecture":"新潟県","prefecture_kana":"ニイガタケン","city":"糸魚川市","city_kana":"イトイガワシ","town":"上野","town_kana":"ウワノ","prefecture_code":15},"0305":{"zip_code":"9490305","prefecture":"新潟県","prefecture_kana":"ニイガタケン","city":"糸魚川市","city_kana":"イトイガワシ","town":"青海","town_kana":"オウミ","prefecture_code":15},"0545":{"zip_code":"9490545","prefecture":"新潟県","prefecture_kana":"ニイガタケン","city":"糸魚川市","city_kana":"イトイガワシ","town":"大久保","town_kana":"オオクボ","prefecture_code":15},"1331":{"zip_code":"9491331","prefecture":"新潟県","prefecture_kana":"ニイガタケン","city":"糸魚川市","city_kana":"イトイガワシ","town":"大沢","town_kana":"オオサワ","prefecture_code":15},"1221":{"zip_code":"9491221","prefecture":"新潟県","prefecture_kana":"ニイガタケン","city":"糸魚川市","city_kana":"イトイガワシ","town":"大平","town_kana":"オオダイラ","prefecture_code":15},"0464":{"zip_code":"9490464","prefecture":"新潟県","prefecture_kana":"ニイガタケン","city":"糸魚川市","city_kana":"イトイガワシ","town":"大所","town_kana":"オオトコロ","prefecture_code":15},"1303":{"zip_code":"9491303","prefecture":"新潟県","prefecture_kana":"ニイガタケン","city":"糸魚川市","city_kana":"イトイガワシ","town":"大洞","town_kana":"オオホラ","prefecture_code":15},"1343":{"zip_code":"9491343","prefecture":"新潟県","prefecture_kana":"ニイガタケン","city":"糸魚川市","city_kana":"イトイガワシ","town":"鬼伏","town_kana":"オニブシ","prefecture_code":15},"1335":{"zip_code":"9491335","prefecture":"新潟県","prefecture_kana":"ニイガタケン","city":"糸魚川市","city_kana":"イトイガワシ","town":"小見","town_kana":"オミ","prefecture_code":15},"1225":{"zip_code":"9491225","prefecture":"新潟県","prefecture_kana":"ニイガタケン","city":"糸魚川市","city_kana":"イトイガワシ","town":"角間","town_kana":"カクマ","prefecture_code":15},"0544":{"zip_code":"9490544","prefecture":"新潟県","prefecture_kana":"ニイガタケン","city":"糸魚川市","city_kana":"イトイガワシ","town":"梶山","town_kana":"カジヤマ","prefecture_code":15},"1337":{"zip_code":"9491337","prefecture":"新潟県","prefecture_kana":"ニイガタケン","city":"糸魚川市","city_kana":"イトイガワシ","town":"桂","town_kana":"カツラ","prefecture_code":15},"0552":{"zip_code":"9490552","prefecture":"新潟県","prefecture_kana":"ニイガタケン","city":"糸魚川市","city_kana":"イトイガワシ","town":"蒲池","town_kana":"ガマイケ","prefecture_code":15},"0541":{"zip_code":"9490541","prefecture":"新潟県","prefecture_kana":"ニイガタケン","city":"糸魚川市","city_kana":"イトイガワシ","town":"上沢","town_kana":"カミザワ","prefecture_code":15},"1329":{"zip_code":"9491329","prefecture":"新潟県","prefecture_kana":"ニイガタケン","city":"糸魚川市","city_kana":"イトイガワシ","town":"川詰","town_kana":"カワヅメ","prefecture_code":15},"1226":{"zip_code":"9491226","prefecture":"新潟県","prefecture_kana":"ニイガタケン","city":"糸魚川市","city_kana":"イトイガワシ","town":"北山","town_kana":"キタヤマ","prefecture_code":15},"1344":{"zip_code":"9491344","prefecture":"新潟県","prefecture_kana":"ニイガタケン","city":"糸魚川市","city_kana":"イトイガワシ","town":"鬼舞","town_kana":"キブ","prefecture_code":15},"1325":{"zip_code":"9491325","prefecture":"新潟県","prefecture_kana":"ニイガタケン","city":"糸魚川市","city_kana":"イトイガワシ","town":"崩","town_kana":"クズレ","prefecture_code":15},"0535":{"zip_code":"9490535","prefecture":"新潟県","prefecture_kana":"ニイガタケン","city":"糸魚川市","city_kana":"イトイガワシ","town":"栗山","town_kana":"クリヤマ","prefecture_code":15},"1201":{"zip_code":"9491201","prefecture":"新潟県","prefecture_kana":"ニイガタケン","city":"糸魚川市","city_kana":"イトイガワシ","town":"越","town_kana":"コシ","prefecture_code":15},"0462":{"zip_code":"9490462","prefecture":"新潟県","prefecture_kana":"ニイガタケン","city":"糸魚川市","city_kana":"イトイガワシ","town":"小滝","town_kana":"コタキ","prefecture_code":15},"1342":{"zip_code":"9491342","prefecture":"新潟県","prefecture_kana":"ニイガタケン","city":"糸魚川市","city_kana":"イトイガワシ","town":"木浦","town_kana":"コノウラ","prefecture_code":15},"1353":{"zip_code":"9491353","prefecture":"新潟県","prefecture_kana":"ニイガタケン","city":"糸魚川市","city_kana":"イトイガワシ","town":"栄","town_kana":"サカエ","prefecture_code":15},"1354":{"zip_code":"9491354","prefecture":"新潟県","prefecture_kana":"ニイガタケン","city":"糸魚川市","city_kana":"イトイガワシ","town":"桜木","town_kana":"サクラギ","prefecture_code":15},"1315":{"zip_code":"9491315","prefecture":"新潟県","prefecture_kana":"ニイガタケン","city":"糸魚川市","city_kana":"イトイガワシ","town":"指塩","town_kana":"サシオ","prefecture_code":15},"1206":{"zip_code":"9491206","prefecture":"新潟県","prefecture_kana":"ニイガタケン","city":"糸魚川市","city_kana":"イトイガワシ","town":"猿倉","town_kana":"サルクラ","prefecture_code":15},"1313":{"zip_code":"9491313","prefecture":"新潟県","prefecture_kana":"ニイガタケン","city":"糸魚川市","city_kana":"イトイガワシ","town":"下倉","town_kana":"シタクラ","prefecture_code":15},"1333":{"zip_code":"9491333","prefecture":"新潟県","prefecture_kana":"ニイガタケン","city":"糸魚川市","city_kana":"イトイガワシ","town":"島道","town_kana":"シマミチ","prefecture_code":15},"1327":{"zip_code":"9491327","prefecture":"新潟県","prefecture_kana":"ニイガタケン","city":"糸魚川市","city_kana":"イトイガワシ","town":"須川","town_kana":"スガワ","prefecture_code":15},"0556":{"zip_code":"9490556","prefecture":"新潟県","prefecture_kana":"ニイガタケン","city":"糸魚川市","city_kana":"イトイガワシ","town":"杉之当","town_kana":"スギノトウ","prefecture_code":15},"0301":{"zip_code":"9490301","prefecture":"新潟県","prefecture_kana":"ニイガタケン","city":"糸魚川市","city_kana":"イトイガワシ","town":"須沢","town_kana":"スザワ","prefecture_code":15},"1224":{"zip_code":"9491224","prefecture":"新潟県","prefecture_kana":"ニイガタケン","city":"糸魚川市","city_kana":"イトイガワシ","town":"砂場","town_kana":"スナバ","prefecture_code":15},"1302":{"zip_code":"9491302","prefecture":"新潟県","prefecture_kana":"ニイガタケン","city":"糸魚川市","city_kana":"イトイガワシ","town":"仙納","town_kana":"センノウ","prefecture_code":15},"1319":{"zip_code":"9491319","prefecture":"新潟県","prefecture_kana":"ニイガタケン","city":"糸魚川市","city_kana":"イトイガワシ","town":"大王","town_kana":"タイオウ","prefecture_code":15},"0533":{"zip_code":"9490533","prefecture":"新潟県","prefecture_kana":"ニイガタケン","city":"糸魚川市","city_kana":"イトイガワシ","town":"大工屋敷","town_kana":"ダイクヤシキ","prefecture_code":15},"0542":{"zip_code":"9490542","prefecture":"新潟県","prefecture_kana":"ニイガタケン","city":"糸魚川市","city_kana":"イトイガワシ","town":"大神堂","town_kana":"ダイジンドウ","prefecture_code":15},"1317":{"zip_code":"9491317","prefecture":"新潟県","prefecture_kana":"ニイガタケン","city":"糸魚川市","city_kana":"イトイガワシ","town":"大道寺","town_kana":"ダイドウジ","prefecture_code":15},"1341":{"zip_code":"9491341","prefecture":"新潟県","prefecture_kana":"ニイガタケン","city":"糸魚川市","city_kana":"イトイガワシ","town":"大平寺","town_kana":"タイヘイジ","prefecture_code":15},"1334":{"zip_code":"9491334","prefecture":"新潟県","prefecture_kana":"ニイガタケン","city":"糸魚川市","city_kana":"イトイガワシ","town":"平","town_kana":"タイラ","prefecture_code":15},"1311":{"zip_code":"9491311","prefecture":"新潟県","prefecture_kana":"ニイガタケン","city":"糸魚川市","city_kana":"イトイガワシ","town":"高倉","town_kana":"タカクラ","prefecture_code":15},"1323":{"zip_code":"9491323","prefecture":"新潟県","prefecture_kana":"ニイガタケン","city":"糸魚川市","city_kana":"イトイガワシ","town":"田麦平","town_kana":"タムギダイラ","prefecture_code":15},"1215":{"zip_code":"9491215","prefecture":"新潟県","prefecture_kana":"ニイガタケン","city":"糸魚川市","city_kana":"イトイガワシ","town":"谷根","town_kana":"タンネ","prefecture_code":15},"1222":{"zip_code":"9491222","prefecture":"新潟県","prefecture_kana":"ニイガタケン","city":"糸魚川市","city_kana":"イトイガワシ","town":"土倉","town_kana":"ツチクラ","prefecture_code":15},"1205":{"zip_code":"9491205","prefecture":"新潟県","prefecture_kana":"ニイガタケン","city":"糸魚川市","city_kana":"イトイガワシ","town":"土塩","town_kana":"ツチシオ","prefecture_code":15},"1306":{"zip_code":"9491306","prefecture":"新潟県","prefecture_kana":"ニイガタケン","city":"糸魚川市","city_kana":"イトイガワシ","town":"筒石","town_kana":"ツツイシ","prefecture_code":15},"1208":{"zip_code":"9491208","prefecture":"新潟県","prefecture_kana":"ニイガタケン","city":"糸魚川市","city_kana":"イトイガワシ","town":"坪野","town_kana":"ツボノ","prefecture_code":15},"0304":{"zip_code":"9490304","prefecture":"新潟県","prefecture_kana":"ニイガタケン","city":"糸魚川市","city_kana":"イトイガワシ","town":"寺地","town_kana":"テラジ","prefecture_code":15},"1338":{"zip_code":"9491338","prefecture":"新潟県","prefecture_kana":"ニイガタケン","city":"糸魚川市","city_kana":"イトイガワシ","town":"寺山","town_kana":"テラヤマ","prefecture_code":15},"1332":{"zip_code":"9491332","prefecture":"新潟県","prefecture_kana":"ニイガタケン","city":"糸魚川市","city_kana":"イトイガワシ","town":"藤後","town_kana":"トウゴ","prefecture_code":15},"1305":{"zip_code":"9491305","prefecture":"新潟県","prefecture_kana":"ニイガタケン","city":"糸魚川市","city_kana":"イトイガワシ","town":"藤崎","town_kana":"トウザキ","prefecture_code":15},"0303":{"zip_code":"9490303","prefecture":"新潟県","prefecture_kana":"ニイガタケン","city":"糸魚川市","city_kana":"イトイガワシ","town":"田海","town_kana":"トウミ","prefecture_code":15},"1301":{"zip_code":"9491301","prefecture":"新潟県","prefecture_kana":"ニイガタケン","city":"糸魚川市","city_kana":"イトイガワシ","town":"徳合","town_kana":"トクアイ","prefecture_code":15},"0308":{"zip_code":"9490308","prefecture":"新潟県","prefecture_kana":"ニイガタケン","city":"糸魚川市","city_kana":"イトイガワシ","town":"外波","town_kana":"トナミ","prefecture_code":15},"1223":{"zip_code":"9491223","prefecture":"新潟県","prefecture_kana":"ニイガタケン","city":"糸魚川市","city_kana":"イトイガワシ","town":"中川原新田","town_kana":"ナカガワラシンデン","prefecture_code":15},"1203":{"zip_code":"9491203","prefecture":"新潟県","prefecture_kana":"ニイガタケン","city":"糸魚川市","city_kana":"イトイガワシ","town":"中野","town_kana":"ナカノ","prefecture_code":15},"1314":{"zip_code":"9491314","prefecture":"新潟県","prefecture_kana":"ニイガタケン","city":"糸魚川市","city_kana":"イトイガワシ","town":"中野口","town_kana":"ナカノクチ","prefecture_code":15},"1204":{"zip_code":"9491204","prefecture":"新潟県","prefecture_kana":"ニイガタケン","city":"糸魚川市","city_kana":"イトイガワシ","town":"中林","town_kana":"ナカバヤシ","prefecture_code":15},"1213":{"zip_code":"9491213","prefecture":"新潟県","prefecture_kana":"ニイガタケン","city":"糸魚川市","city_kana":"イトイガワシ","town":"西塚","town_kana":"ニシツカ","prefecture_code":15},"1322":{"zip_code":"9491322","prefecture":"新潟県","prefecture_kana":"ニイガタケン","city":"糸魚川市","city_kana":"イトイガワシ","town":"西飛山","town_kana":"ニシヒヤマ","prefecture_code":15},"0461":{"zip_code":"9490461","prefecture":"新潟県","prefecture_kana":"ニイガタケン","city":"糸魚川市","city_kana":"イトイガワシ","town":"西山","town_kana":"ニシヤマ","prefecture_code":15},"0557":{"zip_code":"9490557","prefecture":"新潟県","prefecture_kana":"ニイガタケン","city":"糸魚川市","city_kana":"イトイガワシ","town":"西山","town_kana":"ニシヤマ","prefecture_code":15},"0536":{"zip_code":"9490536","prefecture":"新潟県","prefecture_kana":"ニイガタケン","city":"糸魚川市","city_kana":"イトイガワシ","town":"根小屋","town_kana":"ネゴヤ","prefecture_code":15},"1352":{"zip_code":"9491352","prefecture":"新潟県","prefecture_kana":"ニイガタケン","city":"糸魚川市","city_kana":"イトイガワシ","town":"能生","town_kana":"ノウ","prefecture_code":15},"1351":{"zip_code":"9491351","prefecture":"新潟県","prefecture_kana":"ニイガタケン","city":"糸魚川市","city_kana":"イトイガワシ","town":"能生小泊","town_kana":"ノウコドマリ","prefecture_code":15},"0306":{"zip_code":"9490306","prefecture":"新潟県","prefecture_kana":"ニイガタケン","city":"糸魚川市","city_kana":"イトイガワシ","town":"橋立","town_kana":"ハシダテ","prefecture_code":15},"1316":{"zip_code":"9491316","prefecture":"新潟県","prefecture_kana":"ニイガタケン","city":"糸魚川市","city_kana":"イトイガワシ","town":"柱道","town_kana":"ハシラミチ","prefecture_code":15},"1321":{"zip_code":"9491321","prefecture":"新潟県","prefecture_kana":"ニイガタケン","city":"糸魚川市","city_kana":"イトイガワシ","town":"東谷内","town_kana":"ヒガシタニウチ","prefecture_code":15},"1212":{"zip_code":"9491212","prefecture":"新潟県","prefecture_kana":"ニイガタケン","city":"糸魚川市","city_kana":"イトイガワシ","town":"東塚","town_kana":"ヒガシツカ","prefecture_code":15},"0531":{"zip_code":"9490531","prefecture":"新潟県","prefecture_kana":"ニイガタケン","city":"糸魚川市","city_kana":"イトイガワシ","town":"東中","town_kana":"ヒガシナカ","prefecture_code":15},"1207":{"zip_code":"9491207","prefecture":"新潟県","prefecture_kana":"ニイガタケン","city":"糸魚川市","city_kana":"イトイガワシ","town":"吹原","town_kana":"フキハラ","prefecture_code":15},"0555":{"zip_code":"9490555","prefecture":"新潟県","prefecture_kana":"ニイガタケン","city":"糸魚川市","city_kana":"イトイガワシ","town":"別所","town_kana":"ベッショ","prefecture_code":15},"1312":{"zip_code":"9491312","prefecture":"新潟県","prefecture_kana":"ニイガタケン","city":"糸魚川市","city_kana":"イトイガワシ","town":"槇","town_kana":"マキ","prefecture_code":15},"1324":{"zip_code":"9491324","prefecture":"新潟県","prefecture_kana":"ニイガタケン","city":"糸魚川市","city_kana":"イトイガワシ","town":"柵口","town_kana":"マセグチ","prefecture_code":15},"1328":{"zip_code":"9491328","prefecture":"新潟県","prefecture_kana":"ニイガタケン","city":"糸魚川市","city_kana":"イトイガワシ","town":"溝尾","town_kana":"ミゾオ","prefecture_code":15},"1214":{"zip_code":"9491214","prefecture":"新潟県","prefecture_kana":"ニイガタケン","city":"糸魚川市","city_kana":"イトイガワシ","town":"見滝","town_kana":"ミタキ","prefecture_code":15},"1202":{"zip_code":"9491202","prefecture":"新潟県","prefecture_kana":"ニイガタケン","city":"糸魚川市","city_kana":"イトイガワシ","town":"宮平","town_kana":"ミヤダイラ","prefecture_code":15},"1326":{"zip_code":"9491326","prefecture":"新潟県","prefecture_kana":"ニイガタケン","city":"糸魚川市","city_kana":"イトイガワシ","town":"物出","town_kana":"モノイデ","prefecture_code":15},"1304":{"zip_code":"9491304","prefecture":"新潟県","prefecture_kana":"ニイガタケン","city":"糸魚川市","city_kana":"イトイガワシ","town":"百川","town_kana":"モモガワ","prefecture_code":15},"0554":{"zip_code":"9490554","prefecture":"新潟県","prefecture_kana":"ニイガタケン","city":"糸魚川市","city_kana":"イトイガワシ","town":"山口","town_kana":"ヤマグチ","prefecture_code":15},"0543":{"zip_code":"9490543","prefecture":"新潟県","prefecture_kana":"ニイガタケン","city":"糸魚川市","city_kana":"イトイガワシ","town":"山寺","town_kana":"ヤマデラ","prefecture_code":15},"0463":{"zip_code":"9490463","prefecture":"新潟県","prefecture_kana":"ニイガタケン","city":"糸魚川市","city_kana":"イトイガワシ","town":"山之坊","town_kana":"ヤマノボウ","prefecture_code":15},"0558":{"zip_code":"9490558","prefecture":"新潟県","prefecture_kana":"ニイガタケン","city":"糸魚川市","city_kana":"イトイガワシ","town":"余所","town_kana":"ヨショ","prefecture_code":15},"1318":{"zip_code":"9491318","prefecture":"新潟県","prefecture_kana":"ニイガタケン","city":"糸魚川市","city_kana":"イトイガワシ","town":"鷲尾","town_kana":"ワシオ","prefecture_code":15},"2111":{"zip_code":"9492111","prefecture":"新潟県","prefecture_kana":"ニイガタケン","city":"妙高市","city_kana":"ミョウコウシ","town":"赤倉","town_kana":"アカクラ","prefecture_code":15},"2208":{"zip_code":"9492208","prefecture":"新潟県","prefecture_kana":"ニイガタケン","city":"妙高市","city_kana":"ミョウコウシ","town":"今府","town_kana":"イマブ","prefecture_code":15},"2221":{"zip_code":"9492221","prefecture":"新潟県","prefecture_kana":"ニイガタケン","city":"妙高市","city_kana":"ミョウコウシ","town":"大鹿","town_kana":"オオシカ","prefecture_code":15},"2225":{"zip_code":"9492225","prefecture":"新潟県","prefecture_kana":"ニイガタケン","city":"妙高市","city_kana":"ミョウコウシ","town":"大谷","town_kana":"オオタニ","prefecture_code":15},"2212":{"zip_code":"9492212","prefecture":"新潟県","prefecture_kana":"ニイガタケン","city":"妙高市","city_kana":"ミョウコウシ","town":"岡新田","town_kana":"オカシンデン","prefecture_code":15},"2224":{"zip_code":"9492224","prefecture":"新潟県","prefecture_kana":"ニイガタケン","city":"妙高市","city_kana":"ミョウコウシ","town":"桶海","town_kana":"オケミ","prefecture_code":15},"2104":{"zip_code":"9492104","prefecture":"新潟県","prefecture_kana":"ニイガタケン","city":"妙高市","city_kana":"ミョウコウシ","town":"兼俣","town_kana":"カネマタ","prefecture_code":15},"2205":{"zip_code":"9492205","prefecture":"新潟県","prefecture_kana":"ニイガタケン","city":"妙高市","city_kana":"ミョウコウシ","town":"上大塚新田","town_kana":"カミオオツカシンデン","prefecture_code":15},"2233":{"zip_code":"9492233","prefecture":"新潟県","prefecture_kana":"ニイガタケン","city":"妙高市","city_kana":"ミョウコウシ","town":"上中村新田","town_kana":"カミナカムラシンデン","prefecture_code":15},"2203":{"zip_code":"9492203","prefecture":"新潟県","prefecture_kana":"ニイガタケン","city":"妙高市","city_kana":"ミョウコウシ","town":"北田屋新田","town_kana":"キタタヤシンデン","prefecture_code":15},"2207":{"zip_code":"9492207","prefecture":"新潟県","prefecture_kana":"ニイガタケン","city":"妙高市","city_kana":"ミョウコウシ","town":"窪田新田","town_kana":"クボタシンデン","prefecture_code":15},"2105":{"zip_code":"9492105","prefecture":"新潟県","prefecture_kana":"ニイガタケン","city":"妙高市","city_kana":"ミョウコウシ","town":"毛祝坂","town_kana":"ケワイザカ","prefecture_code":15},"2234":{"zip_code":"9492234","prefecture":"新潟県","prefecture_kana":"ニイガタケン","city":"妙高市","city_kana":"ミョウコウシ","town":"坂口新田","town_kana":"サカグチシンデン","prefecture_code":15},"2202":{"zip_code":"9492202","prefecture":"新潟県","prefecture_kana":"ニイガタケン","city":"妙高市","city_kana":"ミョウコウシ","town":"坂下新田","town_kana":"サカシタシンデン","prefecture_code":15},"2113":{"zip_code":"9492113","prefecture":"新潟県","prefecture_kana":"ニイガタケン","city":"妙高市","city_kana":"ミョウコウシ","town":"杉野沢","town_kana":"スギノサワ","prefecture_code":15},"2226":{"zip_code":"9492226","prefecture":"新潟県","prefecture_kana":"ニイガタケン","city":"妙高市","city_kana":"ミョウコウシ","town":"住吉","town_kana":"スミヨシ","prefecture_code":15},"2112":{"zip_code":"9492112","prefecture":"新潟県","prefecture_kana":"ニイガタケン","city":"妙高市","city_kana":"ミョウコウシ","town":"関川","town_kana":"セキガワ","prefecture_code":15},"2141":{"zip_code":"9492141","prefecture":"新潟県","prefecture_kana":"ニイガタケン","city":"妙高市","city_kana":"ミョウコウシ","town":"関山","town_kana":"セキヤマ","prefecture_code":15},"2235":{"zip_code":"9492235","prefecture":"新潟県","prefecture_kana":"ニイガタケン","city":"妙高市","city_kana":"ミョウコウシ","town":"関山","town_kana":"セキヤマ","prefecture_code":15},"2103":{"zip_code":"9492103","prefecture":"新潟県","prefecture_kana":"ニイガタケン","city":"妙高市","city_kana":"ミョウコウシ","town":"蔵々","town_kana":"ゾウゾウ","prefecture_code":15},"2209":{"zip_code":"9492209","prefecture":"新潟県","prefecture_kana":"ニイガタケン","city":"妙高市","city_kana":"ミョウコウシ","town":"祖父竹","town_kana":"ソフタケ","prefecture_code":15},"2102":{"zip_code":"9492102","prefecture":"新潟県","prefecture_kana":"ニイガタケン","city":"妙高市","city_kana":"ミョウコウシ","town":"田切","town_kana":"タギリ","prefecture_code":15},"2106":{"zip_code":"9492106","prefecture":"新潟県","prefecture_kana":"ニイガタケン","city":"妙高市","city_kana":"ミョウコウシ","town":"田口","town_kana":"タグチ","prefecture_code":15},"2211":{"zip_code":"9492211","prefecture":"新潟県","prefecture_kana":"ニイガタケン","city":"妙高市","city_kana":"ミョウコウシ","town":"田中村新田","town_kana":"タナカムラシンデン","prefecture_code":15},"2223":{"zip_code":"9492223","prefecture":"新潟県","prefecture_kana":"ニイガタケン","city":"妙高市","city_kana":"ミョウコウシ","town":"樽本","town_kana":"タルモト","prefecture_code":15},"2201":{"zip_code":"9492201","prefecture":"新潟県","prefecture_kana":"ニイガタケン","city":"妙高市","city_kana":"ミョウコウシ","town":"寺尾","town_kana":"テラオ","prefecture_code":15},"2222":{"zip_code":"9492222","prefecture":"新潟県","prefecture_kana":"ニイガタケン","city":"妙高市","city_kana":"ミョウコウシ","town":"土路","town_kana":"ドロ","prefecture_code":15},"2214":{"zip_code":"9492214","prefecture":"新潟県","prefecture_kana":"ニイガタケン","city":"妙高市","city_kana":"ミョウコウシ","town":"中島新田","town_kana":"ナカジマシンデン","prefecture_code":15},"2204":{"zip_code":"9492204","prefecture":"新潟県","prefecture_kana":"ニイガタケン","city":"妙高市","city_kana":"ミョウコウシ","town":"中原新田","town_kana":"ナカバラシンデン","prefecture_code":15},"2206":{"zip_code":"9492206","prefecture":"新潟県","prefecture_kana":"ニイガタケン","city":"妙高市","city_kana":"ミョウコウシ","town":"西田屋新田","town_kana":"ニシタヤシンデン","prefecture_code":15},"2215":{"zip_code":"9492215","prefecture":"新潟県","prefecture_kana":"ニイガタケン","city":"妙高市","city_kana":"ミョウコウシ","town":"橋本新田","town_kana":"ハシモトシンデン","prefecture_code":15},"2218":{"zip_code":"9492218","prefecture":"新潟県","prefecture_kana":"ニイガタケン","city":"妙高市","city_kana":"ミョウコウシ","town":"花房","town_kana":"ハナブサ","prefecture_code":15},"2219":{"zip_code":"9492219","prefecture":"新潟県","prefecture_kana":"ニイガタケン","city":"妙高市","city_kana":"ミョウコウシ","town":"原通","town_kana":"ハラドオリ","prefecture_code":15},"2213":{"zip_code":"9492213","prefecture":"新潟県","prefecture_kana":"ニイガタケン","city":"妙高市","city_kana":"ミョウコウシ","town":"東田屋新田","town_kana":"ヒガシタヤシンデン","prefecture_code":15},"2217":{"zip_code":"9492217","prefecture":"新潟県","prefecture_kana":"ニイガタケン","city":"妙高市","city_kana":"ミョウコウシ","town":"東福田新田","town_kana":"ヒガシフクダシンデン","prefecture_code":15},"2216":{"zip_code":"9492216","prefecture":"新潟県","prefecture_kana":"ニイガタケン","city":"妙高市","city_kana":"ミョウコウシ","town":"東四ツ屋新田","town_kana":"ヒガシヨツヤシンデン","prefecture_code":15},"2101":{"zip_code":"9492101","prefecture":"新潟県","prefecture_kana":"ニイガタケン","city":"妙高市","city_kana":"ミョウコウシ","town":"二俣","town_kana":"フタマタ","prefecture_code":15},"2232":{"zip_code":"9492232","prefecture":"新潟県","prefecture_kana":"ニイガタケン","city":"妙高市","city_kana":"ミョウコウシ","town":"葎生","town_kana":"モグロウ","prefecture_code":15},"2231":{"zip_code":"9492231","prefecture":"新潟県","prefecture_kana":"ニイガタケン","city":"妙高市","city_kana":"ミョウコウシ","town":"米島新田","town_kana":"ヨネジマシンデン","prefecture_code":15},"1702":{"zip_code":"9491702","prefecture":"新潟県","prefecture_kana":"ニイガタケン","city":"上越市","city_kana":"ジョウエツシ","town":"有間川","town_kana":"アリマガワ","prefecture_code":15},"1723":{"zip_code":"9491723","prefecture":"新潟県","prefecture_kana":"ニイガタケン","city":"上越市","city_kana":"ジョウエツシ","town":"小池","town_kana":"オイケ","prefecture_code":15},"1724":{"zip_code":"9491724","prefecture":"新潟県","prefecture_kana":"ニイガタケン","city":"上越市","city_kana":"ジョウエツシ","town":"小池新田","town_kana":"オイケシンデン","prefecture_code":15},"3134":{"zip_code":"9493134","prefecture":"新潟県","prefecture_kana":"ニイガタケン","city":"上越市","city_kana":"ジョウエツシ","town":"大潟区和泉新田","town_kana":"オオガタクイズミシンデン","prefecture_code":15},"3122":{"zip_code":"9493122","prefecture":"新潟県","prefecture_kana":"ニイガタケン","city":"上越市","city_kana":"ジョウエツシ","town":"大潟区岩野古新田","town_kana":"オオガタクイワノコシンデン","prefecture_code":15},"3135":{"zip_code":"9493135","prefecture":"新潟県","prefecture_kana":"ニイガタケン","city":"上越市","city_kana":"ジョウエツシ","town":"大潟区内雁子","town_kana":"オオガタクウチガンゴ","prefecture_code":15},"3136":{"zip_code":"9493136","prefecture":"新潟県","prefecture_kana":"ニイガタケン","city":"上越市","city_kana":"ジョウエツシ","town":"大潟区内雁子新田","town_kana":"オオガタクウチガンゴシンデン","prefecture_code":15},"3121":{"zip_code":"9493121","prefecture":"新潟県","prefecture_kana":"ニイガタケン","city":"上越市","city_kana":"ジョウエツシ","town":"大潟区潟田","town_kana":"オオガタクカタダ","prefecture_code":15},"3103":{"zip_code":"9493103","prefecture":"新潟県","prefecture_kana":"ニイガタケン","city":"上越市","city_kana":"ジョウエツシ","town":"大潟区潟町","town_kana":"オオガタクカタマチ","prefecture_code":15},"3137":{"zip_code":"9493137","prefecture":"新潟県","prefecture_kana":"ニイガタケン","city":"上越市","city_kana":"ジョウエツシ","town":"大潟区潟守新田","town_kana":"オオガタクカタモリシンデン","prefecture_code":15},"3114":{"zip_code":"9493114","prefecture":"新潟県","prefecture_kana":"ニイガタケン","city":"上越市","city_kana":"ジョウエツシ","town":"大潟区上小船津浜","town_kana":"オオガタクカミコブナツハマ","prefecture_code":15},"3101":{"zip_code":"9493101","prefecture":"新潟県","prefecture_kana":"ニイガタケン","city":"上越市","city_kana":"ジョウエツシ","town":"大潟区雁子浜","town_kana":"オオガタクガンコハマ","prefecture_code":15},"3102":{"zip_code":"9493102","prefecture":"新潟県","prefecture_kana":"ニイガタケン","city":"上越市","city_kana":"ジョウエツシ","town":"大潟区九戸浜","town_kana":"オオガタククドハマ","prefecture_code":15},"3117":{"zip_code":"9493117","prefecture":"新潟県","prefecture_kana":"ニイガタケン","city":"上越市","city_kana":"ジョウエツシ","town":"大潟区蜘ケ池","town_kana":"オオガタククモガイケ","prefecture_code":15},"3116":{"zip_code":"9493116","prefecture":"新潟県","prefecture_kana":"ニイガタケン","city":"上越市","city_kana":"ジョウエツシ","town":"大潟区犀潟","town_kana":"オオガタクサイガタ","prefecture_code":15},"3131":{"zip_code":"9493131","prefecture":"新潟県","prefecture_kana":"ニイガタケン","city":"上越市","city_kana":"ジョウエツシ","town":"大潟区里鵜島新田","town_kana":"オオガタクサトウジマシンデン","prefecture_code":15},"3115":{"zip_code":"9493115","prefecture":"新潟県","prefecture_kana":"ニイガタケン","city":"上越市","city_kana":"ジョウエツシ","town":"大潟区渋柿浜","town_kana":"オオガタクシブカキハマ","prefecture_code":15},"3113":{"zip_code":"9493113","prefecture":"新潟県","prefecture_kana":"ニイガタケン","city":"上越市","city_kana":"ジョウエツシ","town":"大潟区下小船津浜","town_kana":"オオガタクシモコブナツハマ","prefecture_code":15},"3133":{"zip_code":"9493133","prefecture":"新潟県","prefecture_kana":"ニイガタケン","city":"上越市","city_kana":"ジョウエツシ","town":"大潟区高橋新田","town_kana":"オオガタクタカハシシンデン","prefecture_code":15},"3112":{"zip_code":"9493112","prefecture":"新潟県","prefecture_kana":"ニイガタケン","city":"上越市","city_kana":"ジョウエツシ","town":"大潟区土底浜","town_kana":"オオガタクドソコハマ","prefecture_code":15},"3123":{"zip_code":"9493123","prefecture":"新潟県","prefecture_kana":"ニイガタケン","city":"上越市","city_kana":"ジョウエツシ","town":"大潟区長崎","town_kana":"オオガタクナガサキ","prefecture_code":15},"3125":{"zip_code":"9493125","prefecture":"新潟県","prefecture_kana":"ニイガタケン","city":"上越市","city_kana":"ジョウエツシ","town":"大潟区山鵜島新田","town_kana":"オオガタクヤマウジマシンデン","prefecture_code":15},"3124":{"zip_code":"9493124","prefecture":"新潟県","prefecture_kana":"ニイガタケン","city":"上越市","city_kana":"ジョウエツシ","town":"大潟区吉崎新田","town_kana":"オオガタクヨシザキシンデン","prefecture_code":15},"3111":{"zip_code":"9493111","prefecture":"新潟県","prefecture_kana":"ニイガタケン","city":"上越市","city_kana":"ジョウエツシ","town":"大潟区四ツ屋浜","town_kana":"オオガタクヨツヤハマ","prefecture_code":15},"3132":{"zip_code":"9493132","prefecture":"新潟県","prefecture_kana":"ニイガタケン","city":"上越市","city_kana":"ジョウエツシ","town":"大潟区米倉新田","town_kana":"オオガタクヨネグラシンデン","prefecture_code":15},"1733":{"zip_code":"9491733","prefecture":"新潟県","prefecture_kana":"ニイガタケン","city":"上越市","city_kana":"ジョウエツシ","town":"大渕","town_kana":"オオブチ","prefecture_code":15},"3363":{"zip_code":"9493363","prefecture":"新潟県","prefecture_kana":"ニイガタケン","city":"上越市","city_kana":"ジョウエツシ","town":"柿崎区旭平","town_kana":"カキザキクアサヒダイラ","prefecture_code":15},"3236":{"zip_code":"9493236","prefecture":"新潟県","prefecture_kana":"ニイガタケン","city":"上越市","city_kana":"ジョウエツシ","town":"柿崎区阿弥陀瀬","town_kana":"カキザキクアミダセ","prefecture_code":15},"3374":{"zip_code":"9493374","prefecture":"新潟県","prefecture_kana":"ニイガタケン","city":"上越市","city_kana":"ジョウエツシ","town":"柿崎区芋島","town_kana":"カキザキクイモノシマ","prefecture_code":15},"3376":{"zip_code":"9493376","prefecture":"新潟県","prefecture_kana":"ニイガタケン","city":"上越市","city_kana":"ジョウエツシ","town":"柿崎区岩手","town_kana":"カキザキクイワデ","prefecture_code":15},"3378":{"zip_code":"9493378","prefecture":"新潟県","prefecture_kana":"ニイガタケン","city":"上越市","city_kana":"ジョウエツシ","town":"柿崎区岩野","town_kana":"カキザキクイワノ","prefecture_code":15},"3253":{"zip_code":"9493253","prefecture":"新潟県","prefecture_kana":"ニイガタケン","city":"上越市","city_kana":"ジョウエツシ","town":"柿崎区江島新田","town_kana":"カキザキクエジマシンデン","prefecture_code":15},"3221":{"zip_code":"9493221","prefecture":"新潟県","prefecture_kana":"ニイガタケン","city":"上越市","city_kana":"ジョウエツシ","town":"柿崎区小萱","town_kana":"カキザキクオガヤ","prefecture_code":15},"3235":{"zip_code":"9493235","prefecture":"新潟県","prefecture_kana":"ニイガタケン","city":"上越市","city_kana":"ジョウエツシ","town":"柿崎区荻谷","town_kana":"カキザキクオギノタニ","prefecture_code":15},"3246":{"zip_code":"9493246","prefecture":"新潟県","prefecture_kana":"ニイガタケン","city":"上越市","city_kana":"ジョウエツシ","town":"柿崎区落合","town_kana":"カキザキクオチアイ","prefecture_code":15},"3216":{"zip_code":"9493216","prefecture":"新潟県","prefecture_kana":"ニイガタケン","city":"上越市","city_kana":"ジョウエツシ","town":"柿崎区柿崎","town_kana":"カキザキクカキザキ","prefecture_code":15},"3225":{"zip_code":"9493225","prefecture":"新潟県","prefecture_kana":"ニイガタケン","city":"上越市","city_kana":"ジョウエツシ","town":"柿崎区金谷","town_kana":"カキザキクカナヤ","prefecture_code":15},"3231":{"zip_code":"9493231","prefecture":"新潟県","prefecture_kana":"ニイガタケン","city":"上越市","city_kana":"ジョウエツシ","town":"柿崎区上小野","town_kana":"カキザキクカミオノ","prefecture_code":15},"3243":{"zip_code":"9493243","prefecture":"新潟県","prefecture_kana":"ニイガタケン","city":"上越市","city_kana":"ジョウエツシ","town":"柿崎区上金原","town_kana":"カキザキクカミカナハラ","prefecture_code":15},"3366":{"zip_code":"9493366","prefecture":"新潟県","prefecture_kana":"ニイガタケン","city":"上越市","city_kana":"ジョウエツシ","town":"柿崎区上中山","town_kana":"カキザキクカミナカヤマ","prefecture_code":15},"3252":{"zip_code":"9493252","prefecture":"新潟県","prefecture_kana":"ニイガタケン","city":"上越市","city_kana":"ジョウエツシ","town":"柿崎区上直海","town_kana":"カキザキクカミノウミ","prefecture_code":15},"3213":{"zip_code":"9493213","prefecture":"新潟県","prefecture_kana":"ニイガタケン","city":"上越市","city_kana":"ジョウエツシ","town":"柿崎区川井","town_kana":"カキザキクカワイ","prefecture_code":15},"3237":{"zip_code":"9493237","prefecture":"新潟県","prefecture_kana":"ニイガタケン","city":"上越市","city_kana":"ジョウエツシ","town":"柿崎区川田","town_kana":"カキザキクカワタ","prefecture_code":15},"3223":{"zip_code":"9493223","prefecture":"新潟県","prefecture_kana":"ニイガタケン","city":"上越市","city_kana":"ジョウエツシ","town":"柿崎区雁海","town_kana":"カキザキクガンカイ","prefecture_code":15},"3245":{"zip_code":"9493245","prefecture":"新潟県","prefecture_kana":"ニイガタケン","city":"上越市","city_kana":"ジョウエツシ","town":"柿崎区行法","town_kana":"カキザキクギョウホウ","prefecture_code":15},"3362":{"zip_code":"9493362","prefecture":"新潟県","prefecture_kana":"ニイガタケン","city":"上越市","city_kana":"ジョウエツシ","town":"柿崎区黒岩","town_kana":"カキザキククロイワ","prefecture_code":15},"3251":{"zip_code":"9493251","prefecture":"新潟県","prefecture_kana":"ニイガタケン","city":"上越市","city_kana":"ジョウエツシ","town":"柿崎区下条","town_kana":"カキザキクゲジョウ","prefecture_code":15},"3254":{"zip_code":"9493254","prefecture":"新潟県","prefecture_kana":"ニイガタケン","city":"上越市","city_kana":"ジョウエツシ","town":"柿崎区坂田新田","town_kana":"カキザキクサカタシンデン","prefecture_code":15},"3242":{"zip_code":"9493242","prefecture":"新潟県","prefecture_kana":"ニイガタケン","city":"上越市","city_kana":"ジョウエツシ","town":"柿崎区桜町新田","town_kana":"カキザキクサクラマチシンデン","prefecture_code":15},"3367":{"zip_code":"9493367","prefecture":"新潟県","prefecture_kana":"ニイガタケン","city":"上越市","city_kana":"ジョウエツシ","town":"柿崎区猿毛","town_kana":"カキザキクサルゲ","prefecture_code":15},"3232":{"zip_code":"9493232","prefecture":"新潟県","prefecture_kana":"ニイガタケン","city":"上越市","city_kana":"ジョウエツシ","town":"柿崎区下小野","town_kana":"カキザキクシモオノ","prefecture_code":15},"3244":{"zip_code":"9493244","prefecture":"新潟県","prefecture_kana":"ニイガタケン","city":"上越市","city_kana":"ジョウエツシ","town":"柿崎区下金原","town_kana":"カキザキクシモカナハラ","prefecture_code":15},"3226":{"zip_code":"9493226","prefecture":"新潟県","prefecture_kana":"ニイガタケン","city":"上越市","city_kana":"ジョウエツシ","town":"柿崎区下中山","town_kana":"カキザキクシモナカヤマ","prefecture_code":15},"3375":{"zip_code":"9493375","prefecture":"新潟県","prefecture_kana":"ニイガタケン","city":"上越市","city_kana":"ジョウエツシ","town":"柿崎区下灰庭新田","town_kana":"カキザキクシモハイニワシンデン","prefecture_code":15},"3371":{"zip_code":"9493371","prefecture":"新潟県","prefecture_kana":"ニイガタケン","city":"上越市","city_kana":"ジョウエツシ","town":"柿崎区下牧","town_kana":"カキザキクシモマキ","prefecture_code":15},"3255":{"zip_code":"9493255","prefecture":"新潟県","prefecture_kana":"ニイガタケン","city":"上越市","city_kana":"ジョウエツシ","town":"柿崎区上下浜","town_kana":"カキザキクジョウゲハマ","prefecture_code":15},"3361":{"zip_code":"9493361","prefecture":"新潟県","prefecture_kana":"ニイガタケン","city":"上越市","city_kana":"ジョウエツシ","town":"柿崎区城腰","town_kana":"カキザキクジョウノコシ","prefecture_code":15},"3234":{"zip_code":"9493234","prefecture":"新潟県","prefecture_kana":"ニイガタケン","city":"上越市","city_kana":"ジョウエツシ","town":"柿崎区高寺","town_kana":"カキザキクタカテラ","prefecture_code":15},"3377":{"zip_code":"9493377","prefecture":"新潟県","prefecture_kana":"ニイガタケン","city":"上越市","city_kana":"ジョウエツシ","town":"柿崎区高畑","town_kana":"カキザキクタカバタケ","prefecture_code":15},"3201":{"zip_code":"9493201","prefecture":"新潟県","prefecture_kana":"ニイガタケン","city":"上越市","city_kana":"ジョウエツシ","town":"柿崎区竹鼻","town_kana":"カキザキクタケガハナ","prefecture_code":15},"3247":{"zip_code":"9493247","prefecture":"新潟県","prefecture_kana":"ニイガタケン","city":"上越市","city_kana":"ジョウエツシ","town":"柿崎区角取","town_kana":"カキザキクツノドリ","prefecture_code":15},"3222":{"zip_code":"9493222","prefecture":"新潟県","prefecture_kana":"ニイガタケン","city":"上越市","city_kana":"ジョウエツシ","town":"柿崎区栃窪","town_kana":"カキザキクトチクボ","prefecture_code":15},"3215":{"zip_code":"9493215","prefecture":"新潟県","prefecture_kana":"ニイガタケン","city":"上越市","city_kana":"ジョウエツシ","town":"柿崎区直海浜","town_kana":"カキザキクノウミハマ","prefecture_code":15},"3214":{"zip_code":"9493214","prefecture":"新潟県","prefecture_kana":"ニイガタケン","city":"上越市","city_kana":"ジョウエツシ","town":"柿崎区馬正面","town_kana":"カキザキクバショウメン","prefecture_code":15},"3224":{"zip_code":"9493224","prefecture":"新潟県","prefecture_kana":"ニイガタケン","city":"上越市","city_kana":"ジョウエツシ","town":"柿崎区東谷内","town_kana":"カキザキクヒガシヤチ","prefecture_code":15},"3364":{"zip_code":"9493364","prefecture":"新潟県","prefecture_kana":"ニイガタケン","city":"上越市","city_kana":"ジョウエツシ","town":"柿崎区東横山","town_kana":"カキザキクヒガシヨコヤマ","prefecture_code":15},"3379":{"zip_code":"9493379","prefecture":"新潟県","prefecture_kana":"ニイガタケン","city":"上越市","city_kana":"ジョウエツシ","town":"柿崎区平沢","town_kana":"カキザキクヒラサワ","prefecture_code":15},"3373":{"zip_code":"9493373","prefecture":"新潟県","prefecture_kana":"ニイガタケン","city":"上越市","city_kana":"ジョウエツシ","town":"柿崎区米山寺","town_kana":"カキザキクベイサンジ","prefecture_code":15},"3211":{"zip_code":"9493211","prefecture":"新潟県","prefecture_kana":"ニイガタケン","city":"上越市","city_kana":"ジョウエツシ","town":"柿崎区法音寺","town_kana":"カキザキクホウオンジ","prefecture_code":15},"3365":{"zip_code":"9493365","prefecture":"新潟県","prefecture_kana":"ニイガタケン","city":"上越市","city_kana":"ジョウエツシ","town":"柿崎区松留","town_kana":"カキザキクマツドメ","prefecture_code":15},"3372":{"zip_code":"9493372","prefecture":"新潟県","prefecture_kana":"ニイガタケン","city":"上越市","city_kana":"ジョウエツシ","town":"柿崎区水野","town_kana":"カキザキクミズノ","prefecture_code":15},"3256":{"zip_code":"9493256","prefecture":"新潟県","prefecture_kana":"ニイガタケン","city":"上越市","city_kana":"ジョウエツシ","town":"柿崎区三ツ屋浜","town_kana":"カキザキクミツヤハマ","prefecture_code":15},"3241":{"zip_code":"9493241","prefecture":"新潟県","prefecture_kana":"ニイガタケン","city":"上越市","city_kana":"ジョウエツシ","town":"柿崎区百木","town_kana":"カキザキクモモキ","prefecture_code":15},"3233":{"zip_code":"9493233","prefecture":"新潟県","prefecture_kana":"ニイガタケン","city":"上越市","city_kana":"ジョウエツシ","town":"柿崎区柳ケ崎","town_kana":"カキザキクヤナガサキ","prefecture_code":15},"3212":{"zip_code":"9493212","prefecture":"新潟県","prefecture_kana":"ニイガタケン","city":"上越市","city_kana":"ジョウエツシ","town":"柿崎区山谷","town_kana":"カキザキクヤマヤ","prefecture_code":15},"1712":{"zip_code":"9491712","prefecture":"新潟県","prefecture_kana":"ニイガタケン","city":"上越市","city_kana":"ジョウエツシ","town":"鍛冶免分","town_kana":"カジメンブン","prefecture_code":15},"1741":{"zip_code":"9491741","prefecture":"新潟県","prefecture_kana":"ニイガタケン","city":"上越市","city_kana":"ジョウエツシ","town":"上綱子","town_kana":"カミツナゴ","prefecture_code":15},"1736":{"zip_code":"9491736","prefecture":"新潟県","prefecture_kana":"ニイガタケン","city":"上越市","city_kana":"ジョウエツシ","town":"北谷","town_kana":"キタダニ","prefecture_code":15},"1714":{"zip_code":"9491714","prefecture":"新潟県","prefecture_kana":"ニイガタケン","city":"上越市","city_kana":"ジョウエツシ","town":"三伝","town_kana":"サンデン","prefecture_code":15},"1721":{"zip_code":"9491721","prefecture":"新潟県","prefecture_kana":"ニイガタケン","city":"上越市","city_kana":"ジョウエツシ","town":"下綱子","town_kana":"シモツナゴ","prefecture_code":15},"1726":{"zip_code":"9491726","prefecture":"新潟県","prefecture_kana":"ニイガタケン","city":"上越市","city_kana":"ジョウエツシ","town":"諏訪分","town_kana":"スワブン","prefecture_code":15},"1716":{"zip_code":"9491716","prefecture":"新潟県","prefecture_kana":"ニイガタケン","city":"上越市","city_kana":"ジョウエツシ","town":"高住","town_kana":"タカスミ","prefecture_code":15},"1703":{"zip_code":"9491703","prefecture":"新潟県","prefecture_kana":"ニイガタケン","city":"上越市","city_kana":"ジョウエツシ","town":"丹原","town_kana":"タンバラ","prefecture_code":15},"1706":{"zip_code":"9491706","prefecture":"新潟県","prefecture_kana":"ニイガタケン","city":"上越市","city_kana":"ジョウエツシ","town":"茶屋ケ原","town_kana":"チャヤガハラ","prefecture_code":15},"1735":{"zip_code":"9491735","prefecture":"新潟県","prefecture_kana":"ニイガタケン","city":"上越市","city_kana":"ジョウエツシ","town":"土口","town_kana":"ドグチ","prefecture_code":15},"1715":{"zip_code":"9491715","prefecture":"新潟県","prefecture_kana":"ニイガタケン","city":"上越市","city_kana":"ジョウエツシ","town":"中桑取","town_kana":"ナカクワドリ","prefecture_code":15},"2301":{"zip_code":"9492301","prefecture":"新潟県","prefecture_kana":"ニイガタケン","city":"上越市","city_kana":"ジョウエツシ","town":"中郷区板橋","town_kana":"ナカゴウクイタバシ","prefecture_code":15},"2317":{"zip_code":"9492317","prefecture":"新潟県","prefecture_kana":"ニイガタケン","city":"上越市","city_kana":"ジョウエツシ","town":"中郷区市屋","town_kana":"ナカゴウクイチヤ","prefecture_code":15},"2315":{"zip_code":"9492315","prefecture":"新潟県","prefecture_kana":"ニイガタケン","city":"上越市","city_kana":"ジョウエツシ","town":"中郷区稲荷山","town_kana":"ナカゴウクイナリヤマ","prefecture_code":15},"2316":{"zip_code":"9492316","prefecture":"新潟県","prefecture_kana":"ニイガタケン","city":"上越市","city_kana":"ジョウエツシ","town":"中郷区江口","town_kana":"ナカゴウクエグチ","prefecture_code":15},"2318":{"zip_code":"9492318","prefecture":"新潟県","prefecture_kana":"ニイガタケン","city":"上越市","city_kana":"ジョウエツシ","town":"中郷区岡川","town_kana":"ナカゴウクオカカワ","prefecture_code":15},"2322":{"zip_code":"9492322","prefecture":"新潟県","prefecture_kana":"ニイガタケン","city":"上越市","city_kana":"ジョウエツシ","town":"中郷区岡沢","town_kana":"ナカゴウクオカザワ","prefecture_code":15},"2312":{"zip_code":"9492312","prefecture":"新潟県","prefecture_kana":"ニイガタケン","city":"上越市","city_kana":"ジョウエツシ","town":"中郷区片貝","town_kana":"ナカゴウクカタカイ","prefecture_code":15},"2303":{"zip_code":"9492303","prefecture":"新潟県","prefecture_kana":"ニイガタケン","city":"上越市","city_kana":"ジョウエツシ","town":"中郷区坂本","town_kana":"ナカゴウクサカモト","prefecture_code":15},"2304":{"zip_code":"9492304","prefecture":"新潟県","prefecture_kana":"ニイガタケン","city":"上越市","city_kana":"ジョウエツシ","town":"中郷区二本木","town_kana":"ナカゴウクニホンギ","prefecture_code":15},"2306":{"zip_code":"9492306","prefecture":"新潟県","prefecture_kana":"ニイガタケン","city":"上越市","city_kana":"ジョウエツシ","town":"中郷区八斗蒔","town_kana":"ナカゴウクハツトウマキ","prefecture_code":15},"2313":{"zip_code":"9492313","prefecture":"新潟県","prefecture_kana":"ニイガタケン","city":"上越市","city_kana":"ジョウエツシ","town":"中郷区福崎","town_kana":"ナカゴウクフクザキ","prefecture_code":15},"2321":{"zip_code":"9492321","prefecture":"新潟県","prefecture_kana":"ニイガタケン","city":"上越市","city_kana":"ジョウエツシ","town":"中郷区福田","town_kana":"ナカゴウクフクダ","prefecture_code":15},"2302":{"zip_code":"9492302","prefecture":"新潟県","prefecture_kana":"ニイガタケン","city":"上越市","city_kana":"ジョウエツシ","town":"中郷区藤沢","town_kana":"ナカゴウクフジサワ","prefecture_code":15},"2311":{"zip_code":"9492311","prefecture":"新潟県","prefecture_kana":"ニイガタケン","city":"上越市","city_kana":"ジョウエツシ","town":"中郷区松崎","town_kana":"ナカゴウクマツザキ","prefecture_code":15},"2314":{"zip_code":"9492314","prefecture":"新潟県","prefecture_kana":"ニイガタケン","city":"上越市","city_kana":"ジョウエツシ","town":"中郷区宮野原","town_kana":"ナカゴウクミヤノハラ","prefecture_code":15},"2305":{"zip_code":"9492305","prefecture":"新潟県","prefecture_kana":"ニイガタケン","city":"上越市","city_kana":"ジョウエツシ","town":"中郷区四ツ屋","town_kana":"ナカゴウクヨツヤ","prefecture_code":15},"1742":{"zip_code":"9491742","prefecture":"新潟県","prefecture_kana":"ニイガタケン","city":"上越市","city_kana":"ジョウエツシ","town":"中ノ俣","town_kana":"ナカノマタ","prefecture_code":15},"1701":{"zip_code":"9491701","prefecture":"新潟県","prefecture_kana":"ニイガタケン","city":"上越市","city_kana":"ジョウエツシ","town":"長浜","town_kana":"ナガハマ","prefecture_code":15},"1604":{"zip_code":"9491604","prefecture":"新潟県","prefecture_kana":"ニイガタケン","city":"上越市","city_kana":"ジョウエツシ","town":"名立区赤野俣","town_kana":"ナダチクアカノマタ","prefecture_code":15},"1616":{"zip_code":"9491616","prefecture":"新潟県","prefecture_kana":"ニイガタケン","city":"上越市","city_kana":"ジョウエツシ","town":"名立区池田","town_kana":"ナダチクイケダ","prefecture_code":15},"1605":{"zip_code":"9491605","prefecture":"新潟県","prefecture_kana":"ニイガタケン","city":"上越市","city_kana":"ジョウエツシ","town":"名立区大菅","town_kana":"ナダチクオオスガ","prefecture_code":15},"1622":{"zip_code":"9491622","prefecture":"新潟県","prefecture_kana":"ニイガタケン","city":"上越市","city_kana":"ジョウエツシ","town":"名立区小田島","town_kana":"ナダチクオダジマ","prefecture_code":15},"1614":{"zip_code":"9491614","prefecture":"新潟県","prefecture_kana":"ニイガタケン","city":"上越市","city_kana":"ジョウエツシ","town":"名立区折居","town_kana":"ナダチクオリイ","prefecture_code":15},"1621":{"zip_code":"9491621","prefecture":"新潟県","prefecture_kana":"ニイガタケン","city":"上越市","city_kana":"ジョウエツシ","town":"名立区折戸","town_kana":"ナダチクオリト","prefecture_code":15},"1618":{"zip_code":"9491618","prefecture":"新潟県","prefecture_kana":"ニイガタケン","city":"上越市","city_kana":"ジョウエツシ","town":"名立区桂谷","town_kana":"ナダチクカツラダニ","prefecture_code":15},"1607":{"zip_code":"9491607","prefecture":"新潟県","prefecture_kana":"ニイガタケン","city":"上越市","city_kana":"ジョウエツシ","town":"名立区車路","town_kana":"ナダチククルマジ","prefecture_code":15},"1611":{"zip_code":"9491611","prefecture":"新潟県","prefecture_kana":"ニイガタケン","city":"上越市","city_kana":"ジョウエツシ","town":"名立区杉野瀬","town_kana":"ナダチクスギノセ","prefecture_code":15},"1625":{"zip_code":"9491625","prefecture":"新潟県","prefecture_kana":"ニイガタケン","city":"上越市","city_kana":"ジョウエツシ","town":"名立区瀬戸","town_kana":"ナダチクセト","prefecture_code":15},"1608":{"zip_code":"9491608","prefecture":"新潟県","prefecture_kana":"ニイガタケン","city":"上越市","city_kana":"ジョウエツシ","town":"名立区躰畑","town_kana":"ナダチクタイバタケ","prefecture_code":15},"1606":{"zip_code":"9491606","prefecture":"新潟県","prefecture_kana":"ニイガタケン","city":"上越市","city_kana":"ジョウエツシ","town":"名立区谷口","town_kana":"ナダチクタニグチ","prefecture_code":15},"1609":{"zip_code":"9491609","prefecture":"新潟県","prefecture_kana":"ニイガタケン","city":"上越市","city_kana":"ジョウエツシ","town":"名立区田野上","town_kana":"ナダチクタノウエ","prefecture_code":15},"1603":{"zip_code":"9491603","prefecture":"新潟県","prefecture_kana":"ニイガタケン","city":"上越市","city_kana":"ジョウエツシ","town":"名立区坪山","town_kana":"ナダチクツボヤマ","prefecture_code":15},"1615":{"zip_code":"9491615","prefecture":"新潟県","prefecture_kana":"ニイガタケン","city":"上越市","city_kana":"ジョウエツシ","town":"名立区峠","town_kana":"ナダチクトウゲ","prefecture_code":15},"1602":{"zip_code":"9491602","prefecture":"新潟県","prefecture_kana":"ニイガタケン","city":"上越市","city_kana":"ジョウエツシ","town":"名立区名立大町","town_kana":"ナダチクナダチオオマチ","prefecture_code":15},"1601":{"zip_code":"9491601","prefecture":"新潟県","prefecture_kana":"ニイガタケン","city":"上越市","city_kana":"ジョウエツシ","town":"名立区名立小泊","town_kana":"ナダチクナダチコドマリ","prefecture_code":15},"1613":{"zip_code":"9491613","prefecture":"新潟県","prefecture_kana":"ニイガタケン","city":"上越市","city_kana":"ジョウエツシ","town":"名立区濁沢","town_kana":"ナダチクニゴリサワ","prefecture_code":15},"1624":{"zip_code":"9491624","prefecture":"新潟県","prefecture_kana":"ニイガタケン","city":"上越市","city_kana":"ジョウエツシ","town":"名立区西蒲生田","town_kana":"ナダチクニシカモウダ","prefecture_code":15},"1623":{"zip_code":"9491623","prefecture":"新潟県","prefecture_kana":"ニイガタケン","city":"上越市","city_kana":"ジョウエツシ","town":"名立区東蒲生田","town_kana":"ナダチクヒガシカモウダ","prefecture_code":15},"1626":{"zip_code":"9491626","prefecture":"新潟県","prefecture_kana":"ニイガタケン","city":"上越市","city_kana":"ジョウエツシ","town":"名立区東飛山","town_kana":"ナダチクヒガシヒヤマ","prefecture_code":15},"1619":{"zip_code":"9491619","prefecture":"新潟県","prefecture_kana":"ニイガタケン","city":"上越市","city_kana":"ジョウエツシ","town":"名立区平谷","town_kana":"ナダチクヒラタニ","prefecture_code":15},"1612":{"zip_code":"9491612","prefecture":"新潟県","prefecture_kana":"ニイガタケン","city":"上越市","city_kana":"ジョウエツシ","town":"名立区丸田","town_kana":"ナダチクマルダ","prefecture_code":15},"1617":{"zip_code":"9491617","prefecture":"新潟県","prefecture_kana":"ニイガタケン","city":"上越市","city_kana":"ジョウエツシ","town":"名立区森","town_kana":"ナダチクモリ","prefecture_code":15},"1704":{"zip_code":"9491704","prefecture":"新潟県","prefecture_kana":"ニイガタケン","city":"上越市","city_kana":"ジョウエツシ","town":"鍋ケ浦","town_kana":"ナベガウラ","prefecture_code":15},"1711":{"zip_code":"9491711","prefecture":"新潟県","prefecture_kana":"ニイガタケン","city":"上越市","city_kana":"ジョウエツシ","town":"西戸野","town_kana":"ニシトノ","prefecture_code":15},"1725":{"zip_code":"9491725","prefecture":"新潟県","prefecture_kana":"ニイガタケン","city":"上越市","city_kana":"ジョウエツシ","town":"西鳥越","town_kana":"ニシトリゴエ","prefecture_code":15},"1737":{"zip_code":"9491737","prefecture":"新潟県","prefecture_kana":"ニイガタケン","city":"上越市","city_kana":"ジョウエツシ","town":"西谷内","town_kana":"ニシヤチ","prefecture_code":15},"1722":{"zip_code":"9491722","prefecture":"新潟県","prefecture_kana":"ニイガタケン","city":"上越市","city_kana":"ジョウエツシ","town":"西山寺","town_kana":"ニシヤマデラ","prefecture_code":15},"1727":{"zip_code":"9491727","prefecture":"新潟県","prefecture_kana":"ニイガタケン","city":"上越市","city_kana":"ジョウエツシ","town":"西横山","town_kana":"ニシヨコヤマ","prefecture_code":15},"1731":{"zip_code":"9491731","prefecture":"新潟県","prefecture_kana":"ニイガタケン","city":"上越市","city_kana":"ジョウエツシ","town":"西吉尾","town_kana":"ニシヨシオ","prefecture_code":15},"1713":{"zip_code":"9491713","prefecture":"新潟県","prefecture_kana":"ニイガタケン","city":"上越市","city_kana":"ジョウエツシ","town":"花立","town_kana":"ハナタテ","prefecture_code":15},"1732":{"zip_code":"9491732","prefecture":"新潟県","prefecture_kana":"ニイガタケン","city":"上越市","city_kana":"ジョウエツシ","town":"東吉尾","town_kana":"ヒガシヨシオ","prefecture_code":15},"1734":{"zip_code":"9491734","prefecture":"新潟県","prefecture_kana":"ニイガタケン","city":"上越市","city_kana":"ジョウエツシ","town":"増沢","town_kana":"マスザワ","prefecture_code":15},"1738":{"zip_code":"9491738","prefecture":"新潟県","prefecture_kana":"ニイガタケン","city":"上越市","city_kana":"ジョウエツシ","town":"皆口","town_kana":"ミナクチ","prefecture_code":15},"1739":{"zip_code":"9491739","prefecture":"新潟県","prefecture_kana":"ニイガタケン","city":"上越市","city_kana":"ジョウエツシ","town":"横畑","town_kana":"ヨコバタケ","prefecture_code":15},"1705":{"zip_code":"9491705","prefecture":"新潟県","prefecture_kana":"ニイガタケン","city":"上越市","city_kana":"ジョウエツシ","town":"吉浦","town_kana":"ヨシウラ","prefecture_code":15},"3408":{"zip_code":"9493408","prefecture":"新潟県","prefecture_kana":"ニイガタケン","city":"上越市","city_kana":"ジョウエツシ","town":"吉川区赤沢","town_kana":"ヨシカワクアカサワ","prefecture_code":15},"3554":{"zip_code":"9493554","prefecture":"新潟県","prefecture_kana":"ニイガタケン","city":"上越市","city_kana":"ジョウエツシ","town":"吉川区石谷","town_kana":"ヨシカワクイシダニ","prefecture_code":15},"3409":{"zip_code":"9493409","prefecture":"新潟県","prefecture_kana":"ニイガタケン","city":"上越市","city_kana":"ジョウエツシ","town":"吉川区泉","town_kana":"ヨシカワクイズミ","prefecture_code":15},"3412":{"zip_code":"9493412","prefecture":"新潟県","prefecture_kana":"ニイガタケン","city":"上越市","city_kana":"ジョウエツシ","town":"吉川区泉谷","town_kana":"ヨシカワクイズミダニ","prefecture_code":15},"3421":{"zip_code":"9493421","prefecture":"新潟県","prefecture_kana":"ニイガタケン","city":"上越市","city_kana":"ジョウエツシ","town":"吉川区入河沢","town_kana":"ヨシカワクイリコウゾウ","prefecture_code":15},"3564":{"zip_code":"9493564","prefecture":"新潟県","prefecture_kana":"ニイガタケン","city":"上越市","city_kana":"ジョウエツシ","town":"吉川区岩沢","town_kana":"ヨシカワクイワサワ","prefecture_code":15},"3563":{"zip_code":"9493563","prefecture":"新潟県","prefecture_kana":"ニイガタケン","city":"上越市","city_kana":"ジョウエツシ","town":"吉川区大賀","town_kana":"ヨシカワクオオガ","prefecture_code":15},"3552":{"zip_code":"9493552","prefecture":"新潟県","prefecture_kana":"ニイガタケン","city":"上越市","city_kana":"ジョウエツシ","town":"吉川区尾神","town_kana":"ヨシカワクオカミ","prefecture_code":15},"3442":{"zip_code":"9493442","prefecture":"新潟県","prefecture_kana":"ニイガタケン","city":"上越市","city_kana":"ジョウエツシ","town":"吉川区小苗代","town_kana":"ヨシカワクオナワシロ","prefecture_code":15},"3402":{"zip_code":"9493402","prefecture":"新潟県","prefecture_kana":"ニイガタケン","city":"上越市","city_kana":"ジョウエツシ","town":"吉川区伯母ケ沢","town_kana":"ヨシカワクオバガサワ","prefecture_code":15},"3437":{"zip_code":"9493437","prefecture":"新潟県","prefecture_kana":"ニイガタケン","city":"上越市","city_kana":"ジョウエツシ","town":"吉川区梶","town_kana":"ヨシカワクカジ","prefecture_code":15},"3418":{"zip_code":"9493418","prefecture":"新潟県","prefecture_kana":"ニイガタケン","city":"上越市","city_kana":"ジョウエツシ","town":"吉川区片田","town_kana":"ヨシカワクカタタ","prefecture_code":15},"3555":{"zip_code":"9493555","prefecture":"新潟県","prefecture_kana":"ニイガタケン","city":"上越市","city_kana":"ジョウエツシ","town":"吉川区上名木","town_kana":"ヨシカワクカミナギ","prefecture_code":15},"3411":{"zip_code":"9493411","prefecture":"新潟県","prefecture_kana":"ニイガタケン","city":"上越市","city_kana":"ジョウエツシ","town":"吉川区川崎","town_kana":"ヨシカワクカワサキ","prefecture_code":15},"3553":{"zip_code":"9493553","prefecture":"新潟県","prefecture_kana":"ニイガタケン","city":"上越市","city_kana":"ジョウエツシ","town":"吉川区川谷","town_kana":"ヨシカワクカワダニ","prefecture_code":15},"3438":{"zip_code":"9493438","prefecture":"新潟県","prefecture_kana":"ニイガタケン","city":"上越市","city_kana":"ジョウエツシ","town":"吉川区神田町","town_kana":"ヨシカワクカンダマチ","prefecture_code":15},"3427":{"zip_code":"9493427","prefecture":"新潟県","prefecture_kana":"ニイガタケン","city":"上越市","city_kana":"ジョウエツシ","town":"吉川区顕法寺","town_kana":"ヨシカワクケンポウジ","prefecture_code":15},"3429":{"zip_code":"9493429","prefecture":"新潟県","prefecture_kana":"ニイガタケン","city":"上越市","city_kana":"ジョウエツシ","town":"吉川区河沢","town_kana":"ヨシカワクコウゾウ","prefecture_code":15},"3422":{"zip_code":"9493422","prefecture":"新潟県","prefecture_kana":"ニイガタケン","city":"上越市","city_kana":"ジョウエツシ","town":"吉川区国田","town_kana":"ヨシカワクコクタ","prefecture_code":15},"3401":{"zip_code":"9493401","prefecture":"新潟県","prefecture_kana":"ニイガタケン","city":"上越市","city_kana":"ジョウエツシ","town":"吉川区後生寺","town_kana":"ヨシカワクゴショウジ","prefecture_code":15},"3565":{"zip_code":"9493565","prefecture":"新潟県","prefecture_kana":"ニイガタケン","city":"上越市","city_kana":"ジョウエツシ","town":"吉川区米山","town_kana":"ヨシカワクコメヤマ","prefecture_code":15},"3443":{"zip_code":"9493443","prefecture":"新潟県","prefecture_kana":"ニイガタケン","city":"上越市","city_kana":"ジョウエツシ","town":"吉川区下町","town_kana":"ヨシカワクシタマチ","prefecture_code":15},"3428":{"zip_code":"9493428","prefecture":"新潟県","prefecture_kana":"ニイガタケン","city":"上越市","city_kana":"ジョウエツシ","town":"吉川区十町歩","town_kana":"ヨシカワクジッチョウブ","prefecture_code":15},"3406":{"zip_code":"9493406","prefecture":"新潟県","prefecture_kana":"ニイガタケン","city":"上越市","city_kana":"ジョウエツシ","town":"吉川区下小沢","town_kana":"ヨシカワクシモオザワ","prefecture_code":15},"3407":{"zip_code":"9493407","prefecture":"新潟県","prefecture_kana":"ニイガタケン","city":"上越市","city_kana":"ジョウエツシ","town":"吉川区下中条","town_kana":"ヨシカワクシモチュウジョウ","prefecture_code":15},"3435":{"zip_code":"9493435","prefecture":"新潟県","prefecture_kana":"ニイガタケン","city":"上越市","city_kana":"ジョウエツシ","town":"吉川区下八幡","town_kana":"ヨシカワクシモハチマン","prefecture_code":15},"3417":{"zip_code":"9493417","prefecture":"新潟県","prefecture_kana":"ニイガタケン","city":"上越市","city_kana":"ジョウエツシ","town":"吉川区下深沢","town_kana":"ヨシカワクシモフカサワ","prefecture_code":15},"3441":{"zip_code":"9493441","prefecture":"新潟県","prefecture_kana":"ニイガタケン","city":"上越市","city_kana":"ジョウエツシ","town":"吉川区代石","town_kana":"ヨシカワクタイシ","prefecture_code":15},"3444":{"zip_code":"9493444","prefecture":"新潟県","prefecture_kana":"ニイガタケン","city":"上越市","city_kana":"ジョウエツシ","town":"吉川区大乗寺","town_kana":"ヨシカワクダイジョウジ","prefecture_code":15},"3557":{"zip_code":"9493557","prefecture":"新潟県","prefecture_kana":"ニイガタケン","city":"上越市","city_kana":"ジョウエツシ","town":"吉川区高沢入","town_kana":"ヨシカワクタカサワイリ","prefecture_code":15},"3447":{"zip_code":"9493447","prefecture":"新潟県","prefecture_kana":"ニイガタケン","city":"上越市","city_kana":"ジョウエツシ","town":"吉川区竹直","town_kana":"ヨシカワクタケナオ","prefecture_code":15},"3431":{"zip_code":"9493431","prefecture":"新潟県","prefecture_kana":"ニイガタケン","city":"上越市","city_kana":"ジョウエツシ","town":"吉川区田尻","town_kana":"ヨシカワクタジリ","prefecture_code":15},"3551":{"zip_code":"9493551","prefecture":"新潟県","prefecture_kana":"ニイガタケン","city":"上越市","city_kana":"ジョウエツシ","town":"吉川区坪野","town_kana":"ヨシカワクツボノ","prefecture_code":15},"3436":{"zip_code":"9493436","prefecture":"新潟県","prefecture_kana":"ニイガタケン","city":"上越市","city_kana":"ジョウエツシ","town":"吉川区坪野内","town_kana":"ヨシカワクツボノウチ","prefecture_code":15},"3414":{"zip_code":"9493414","prefecture":"新潟県","prefecture_kana":"ニイガタケン","city":"上越市","city_kana":"ジョウエツシ","town":"吉川区天林寺","town_kana":"ヨシカワクテンリンジ","prefecture_code":15},"3404":{"zip_code":"9493404","prefecture":"新潟県","prefecture_kana":"ニイガタケン","city":"上越市","city_kana":"ジョウエツシ","town":"吉川区東寺","town_kana":"ヨシカワクトウジ","prefecture_code":15},"3449":{"zip_code":"9493449","prefecture":"新潟県","prefecture_kana":"ニイガタケン","city":"上越市","city_kana":"ジョウエツシ","town":"吉川区杜氏の郷","town_kana":"ヨシカワクトウジノサト","prefecture_code":15},"3426":{"zip_code":"9493426","prefecture":"新潟県","prefecture_kana":"ニイガタケン","city":"上越市","city_kana":"ジョウエツシ","town":"吉川区道之下","town_kana":"ヨシカワクドウノシタ","prefecture_code":15},"3413":{"zip_code":"9493413","prefecture":"新潟県","prefecture_kana":"ニイガタケン","city":"上越市","city_kana":"ジョウエツシ","town":"吉川区土尻","town_kana":"ヨシカワクドジリ","prefecture_code":15},"3425":{"zip_code":"9493425","prefecture":"新潟県","prefecture_kana":"ニイガタケン","city":"上越市","city_kana":"ジョウエツシ","town":"吉川区長坂","town_kana":"ヨシカワクナガサカ","prefecture_code":15},"3439":{"zip_code":"9493439","prefecture":"新潟県","prefecture_kana":"ニイガタケン","city":"上越市","city_kana":"ジョウエツシ","town":"吉川区長沢","town_kana":"ヨシカワクナガサワ","prefecture_code":15},"3448":{"zip_code":"9493448","prefecture":"新潟県","prefecture_kana":"ニイガタケン","city":"上越市","city_kana":"ジョウエツシ","town":"吉川区長峰","town_kana":"ヨシカワクナガミネ","prefecture_code":15},"3416":{"zip_code":"9493416","prefecture":"新潟県","prefecture_kana":"ニイガタケン","city":"上越市","city_kana":"ジョウエツシ","town":"吉川区中谷内","town_kana":"ヨシカワクナカヤチ","prefecture_code":15},"3556":{"zip_code":"9493556","prefecture":"新潟県","prefecture_kana":"ニイガタケン","city":"上越市","city_kana":"ジョウエツシ","town":"吉川区名木山","town_kana":"ヨシカワクナギヤマ","prefecture_code":15},"3434":{"zip_code":"9493434","prefecture":"新潟県","prefecture_kana":"ニイガタケン","city":"上越市","city_kana":"ジョウエツシ","town":"吉川区西野島","town_kana":"ヨシカワクニシノシマ","prefecture_code":15},"3445":{"zip_code":"9493445","prefecture":"新潟県","prefecture_kana":"ニイガタケン","city":"上越市","city_kana":"ジョウエツシ","town":"吉川区原之町","town_kana":"ヨシカワクハラノマチ","prefecture_code":15},"3423":{"zip_code":"9493423","prefecture":"新潟県","prefecture_kana":"ニイガタケン","city":"上越市","city_kana":"ジョウエツシ","town":"吉川区東田中","town_kana":"ヨシカワクヒガシタナカ","prefecture_code":15},"3419":{"zip_code":"9493419","prefecture":"新潟県","prefecture_kana":"ニイガタケン","city":"上越市","city_kana":"ジョウエツシ","town":"吉川区東鳥越","town_kana":"ヨシカワクヒガシトリゴエ","prefecture_code":15},"3403":{"zip_code":"9493403","prefecture":"新潟県","prefecture_kana":"ニイガタケン","city":"上越市","city_kana":"ジョウエツシ","town":"吉川区平等寺","town_kana":"ヨシカワクビョウドウジ","prefecture_code":15},"3424":{"zip_code":"9493424","prefecture":"新潟県","prefecture_kana":"ニイガタケン","city":"上越市","city_kana":"ジョウエツシ","town":"吉川区福平","town_kana":"ヨシカワクフクダイラ","prefecture_code":15},"3433":{"zip_code":"9493433","prefecture":"新潟県","prefecture_kana":"ニイガタケン","city":"上越市","city_kana":"ジョウエツシ","town":"吉川区町田","town_kana":"ヨシカワクマチダ","prefecture_code":15},"3446":{"zip_code":"9493446","prefecture":"新潟県","prefecture_kana":"ニイガタケン","city":"上越市","city_kana":"ジョウエツシ","town":"吉川区山方","town_kana":"ヨシカワクヤマガタ","prefecture_code":15},"3415":{"zip_code":"9493415","prefecture":"新潟県","prefecture_kana":"ニイガタケン","city":"上越市","city_kana":"ジョウエツシ","town":"吉川区山口","town_kana":"ヨシカワクヤマグチ","prefecture_code":15},"3561":{"zip_code":"9493561","prefecture":"新潟県","prefecture_kana":"ニイガタケン","city":"上越市","city_kana":"ジョウエツシ","town":"吉川区山中","town_kana":"ヨシカワクヤマナカ","prefecture_code":15},"3562":{"zip_code":"9493562","prefecture":"新潟県","prefecture_kana":"ニイガタケン","city":"上越市","city_kana":"ジョウエツシ","town":"吉川区山直海","town_kana":"ヨシカワクヤマノウミ","prefecture_code":15},"3405":{"zip_code":"9493405","prefecture":"新潟県","prefecture_kana":"ニイガタケン","city":"上越市","city_kana":"ジョウエツシ","town":"吉川区吉井","town_kana":"ヨシカワクヨシイ","prefecture_code":15},"3432":{"zip_code":"9493432","prefecture":"新潟県","prefecture_kana":"ニイガタケン","city":"上越市","city_kana":"ジョウエツシ","town":"吉川区六万部","town_kana":"ヨシカワクロクマンブ","prefecture_code":15},"7423":{"zip_code":"9497423","prefecture":"新潟県","prefecture_kana":"ニイガタケン","city":"魚沼市","city_kana":"ウオヌマシ","town":"魚野地","town_kana":"ウオノジ","prefecture_code":15},"7411":{"zip_code":"9497411","prefecture":"新潟県","prefecture_kana":"ニイガタケン","city":"魚沼市","city_kana":"ウオヌマシ","town":"大石","town_kana":"オオイシ","prefecture_code":15},"7401":{"zip_code":"9497401","prefecture":"新潟県","prefecture_kana":"ニイガタケン","city":"魚沼市","city_kana":"ウオヌマシ","town":"下倉","town_kana":"シタグラ","prefecture_code":15},"7416":{"zip_code":"9497416","prefecture":"新潟県","prefecture_kana":"ニイガタケン","city":"魚沼市","city_kana":"ウオヌマシ","town":"下島","town_kana":"シモジマ","prefecture_code":15},"7417":{"zip_code":"9497417","prefecture":"新潟県","prefecture_kana":"ニイガタケン","city":"魚沼市","city_kana":"ウオヌマシ","town":"下新田","town_kana":"シモシンデン","prefecture_code":15},"7405":{"zip_code":"9497405","prefecture":"新潟県","prefecture_kana":"ニイガタケン","city":"魚沼市","city_kana":"ウオヌマシ","town":"新道島","town_kana":"シンドウジマ","prefecture_code":15},"7415":{"zip_code":"9497415","prefecture":"新潟県","prefecture_kana":"ニイガタケン","city":"魚沼市","city_kana":"ウオヌマシ","town":"田川","town_kana":"タガワ","prefecture_code":15},"7402":{"zip_code":"9497402","prefecture":"新潟県","prefecture_kana":"ニイガタケン","city":"魚沼市","city_kana":"ウオヌマシ","town":"田戸","town_kana":"タド","prefecture_code":15},"7418":{"zip_code":"9497418","prefecture":"新潟県","prefecture_kana":"ニイガタケン","city":"魚沼市","city_kana":"ウオヌマシ","town":"徳田","town_kana":"トクダ","prefecture_code":15},"7403":{"zip_code":"9497403","prefecture":"新潟県","prefecture_kana":"ニイガタケン","city":"魚沼市","city_kana":"ウオヌマシ","town":"根小屋","town_kana":"ネゴヤ","prefecture_code":15},"7422":{"zip_code":"9497422","prefecture":"新潟県","prefecture_kana":"ニイガタケン","city":"魚沼市","city_kana":"ウオヌマシ","town":"原","town_kana":"ハラ","prefecture_code":15},"7413":{"zip_code":"9497413","prefecture":"新潟県","prefecture_kana":"ニイガタケン","city":"魚沼市","city_kana":"ウオヌマシ","town":"堀之内","town_kana":"ホリノウチ","prefecture_code":15},"7424":{"zip_code":"9497424","prefecture":"新潟県","prefecture_kana":"ニイガタケン","city":"魚沼市","city_kana":"ウオヌマシ","town":"明神","town_kana":"ミョウジン","prefecture_code":15},"7412":{"zip_code":"9497412","prefecture":"新潟県","prefecture_kana":"ニイガタケン","city":"魚沼市","city_kana":"ウオヌマシ","town":"与五郎新田","town_kana":"ヨゴロウシンデン","prefecture_code":15},"7421":{"zip_code":"9497421","prefecture":"新潟県","prefecture_kana":"ニイガタケン","city":"魚沼市","city_kana":"ウオヌマシ","town":"吉水","town_kana":"ヨシミズ","prefecture_code":15},"7404":{"zip_code":"9497404","prefecture":"新潟県","prefecture_kana":"ニイガタケン","city":"魚沼市","city_kana":"ウオヌマシ","town":"竜光","town_kana":"リュウコウ","prefecture_code":15},"7414":{"zip_code":"9497414","prefecture":"新潟県","prefecture_kana":"ニイガタケン","city":"魚沼市","city_kana":"ウオヌマシ","town":"和長島","town_kana":"ワナガシマ","prefecture_code":15},"6600":{"zip_code":"9496600","prefecture":"新潟県","prefecture_kana":"ニイガタケン","city":"南魚沼市","city_kana":"ミナミウオヌマシ","town":"","town_kana":"","prefecture_code":15},"6605":{"zip_code":"9496605","prefecture":"新潟県","prefecture_kana":"ニイガタケン","city":"南魚沼市","city_kana":"ミナミウオヌマシ","town":"青木新田","town_kana":"アオキシンデン","prefecture_code":15},"7141":{"zip_code":"9497141","prefecture":"新潟県","prefecture_kana":"ニイガタケン","city":"南魚沼市","city_kana":"ミナミウオヌマシ","town":"青木新田","town_kana":"アオキシンデン","prefecture_code":15},"6746":{"zip_code":"9496746","prefecture":"新潟県","prefecture_kana":"ニイガタケン","city":"南魚沼市","city_kana":"ミナミウオヌマシ","town":"畔地","town_kana":"アゼチ","prefecture_code":15},"6751":{"zip_code":"9496751","prefecture":"新潟県","prefecture_kana":"ニイガタケン","city":"南魚沼市","city_kana":"ミナミウオヌマシ","town":"畔地新田","town_kana":"アゼチシンデン","prefecture_code":15},"7245":{"zip_code":"9497245","prefecture":"新潟県","prefecture_kana":"ニイガタケン","city":"南魚沼市","city_kana":"ミナミウオヌマシ","town":"穴地","town_kana":"アナジ","prefecture_code":15},"7246":{"zip_code":"9497246","prefecture":"新潟県","prefecture_kana":"ニイガタケン","city":"南魚沼市","city_kana":"ミナミウオヌマシ","town":"穴地新田","town_kana":"アナジシンデン","prefecture_code":15},"7256":{"zip_code":"9497256","prefecture":"新潟県","prefecture_kana":"ニイガタケン","city":"南魚沼市","city_kana":"ミナミウオヌマシ","town":"海士ケ島新田","town_kana":"アマガシマシンデン","prefecture_code":15},"6434":{"zip_code":"9496434","prefecture":"新潟県","prefecture_kana":"ニイガタケン","city":"南魚沼市","city_kana":"ミナミウオヌマシ","town":"天野沢","town_kana":"アマノサワ","prefecture_code":15},"7235":{"zip_code":"9497235","prefecture":"新潟県","prefecture_kana":"ニイガタケン","city":"南魚沼市","city_kana":"ミナミウオヌマシ","town":"荒金","town_kana":"アラカネ","prefecture_code":15},"7234":{"zip_code":"9497234","prefecture":"新潟県","prefecture_kana":"ニイガタケン","city":"南魚沼市","city_kana":"ミナミウオヌマシ","town":"荒山","town_kana":"アラヤマ","prefecture_code":15},"7228":{"zip_code":"9497228","prefecture":"新潟県","prefecture_kana":"ニイガタケン","city":"南魚沼市","city_kana":"ミナミウオヌマシ","town":"雷土","town_kana":"イカヅチ","prefecture_code":15},"7227":{"zip_code":"9497227","prefecture":"新潟県","prefecture_kana":"ニイガタケン","city":"南魚沼市","city_kana":"ミナミウオヌマシ","town":"雷土新田","town_kana":"イカヅチシンデン","prefecture_code":15},"6372":{"zip_code":"9496372","prefecture":"新潟県","prefecture_kana":"ニイガタケン","city":"南魚沼市","city_kana":"ミナミウオヌマシ","town":"石打","town_kana":"イシウチ","prefecture_code":15},"7114":{"zip_code":"9497114","prefecture":"新潟県","prefecture_kana":"ニイガタケン","city":"南魚沼市","city_kana":"ミナミウオヌマシ","town":"泉","town_kana":"イズミ","prefecture_code":15},"7115":{"zip_code":"9497115","prefecture":"新潟県","prefecture_kana":"ニイガタケン","city":"南魚沼市","city_kana":"ミナミウオヌマシ","town":"泉新田","town_kana":"イズミシンデン","prefecture_code":15},"7318":{"zip_code":"9497318","prefecture":"新潟県","prefecture_kana":"ニイガタケン","city":"南魚沼市","city_kana":"ミナミウオヌマシ","town":"市野江乙","town_kana":"イチノエオツ","prefecture_code":15},"7317":{"zip_code":"9497317","prefecture":"新潟県","prefecture_kana":"ニイガタケン","city":"南魚沼市","city_kana":"ミナミウオヌマシ","town":"市野江甲","town_kana":"イチノエコウ","prefecture_code":15},"7319":{"zip_code":"9497319","prefecture":"新潟県","prefecture_kana":"ニイガタケン","city":"南魚沼市","city_kana":"ミナミウオヌマシ","town":"市野江丙","town_kana":"イチノエヘイ","prefecture_code":15},"6554":{"zip_code":"9496554","prefecture":"新潟県","prefecture_kana":"ニイガタケン","city":"南魚沼市","city_kana":"ミナミウオヌマシ","town":"一之沢","town_kana":"イチノサワ","prefecture_code":15},"7101":{"zip_code":"9497101","prefecture":"新潟県","prefecture_kana":"ニイガタケン","city":"南魚沼市","city_kana":"ミナミウオヌマシ","town":"五日町","town_kana":"イツカマチ","prefecture_code":15},"7313":{"zip_code":"9497313","prefecture":"新潟県","prefecture_kana":"ニイガタケン","city":"南魚沼市","city_kana":"ミナミウオヌマシ","town":"今町","town_kana":"イママチ","prefecture_code":15},"7254":{"zip_code":"9497254","prefecture":"新潟県","prefecture_kana":"ニイガタケン","city":"南魚沼市","city_kana":"ミナミウオヌマシ","town":"今町新田","town_kana":"イママチシンデン","prefecture_code":15},"7222":{"zip_code":"9497222","prefecture":"新潟県","prefecture_kana":"ニイガタケン","city":"南魚沼市","city_kana":"ミナミウオヌマシ","town":"芋赤","town_kana":"イモアカ","prefecture_code":15},"6765":{"zip_code":"9496765","prefecture":"新潟県","prefecture_kana":"ニイガタケン","city":"南魚沼市","city_kana":"ミナミウオヌマシ","town":"岩崎","town_kana":"イワサキ","prefecture_code":15},"6607":{"zip_code":"9496607","prefecture":"新潟県","prefecture_kana":"ニイガタケン","city":"南魚沼市","city_kana":"ミナミウオヌマシ","town":"宇津野新田","town_kana":"ウツノシンデン","prefecture_code":15},"7142":{"zip_code":"9497142","prefecture":"新潟県","prefecture_kana":"ニイガタケン","city":"南魚沼市","city_kana":"ミナミウオヌマシ","town":"宇津野新田","town_kana":"ウツノシンデン","prefecture_code":15},"6551":{"zip_code":"9496551","prefecture":"新潟県","prefecture_kana":"ニイガタケン","city":"南魚沼市","city_kana":"ミナミウオヌマシ","town":"姥沢新田","town_kana":"ウバサワシンデン","prefecture_code":15},"6425":{"zip_code":"9496425","prefecture":"新潟県","prefecture_kana":"ニイガタケン","city":"南魚沼市","city_kana":"ミナミウオヌマシ","town":"姥島新田","town_kana":"ウバシマシンデン","prefecture_code":15},"7302":{"zip_code":"9497302","prefecture":"新潟県","prefecture_kana":"ニイガタケン","city":"南魚沼市","city_kana":"ミナミウオヌマシ","town":"浦佐","town_kana":"ウラサ","prefecture_code":15},"6373":{"zip_code":"9496373","prefecture":"新潟県","prefecture_kana":"ニイガタケン","city":"南魚沼市","city_kana":"ミナミウオヌマシ","town":"上野","town_kana":"ウワノ","prefecture_code":15},"6542":{"zip_code":"9496542","prefecture":"新潟県","prefecture_kana":"ニイガタケン","city":"南魚沼市","city_kana":"ミナミウオヌマシ","town":"雲洞","town_kana":"ウントウ","prefecture_code":15},"6544":{"zip_code":"9496544","prefecture":"新潟県","prefecture_kana":"ニイガタケン","city":"南魚沼市","city_kana":"ミナミウオヌマシ","town":"枝吉","town_kana":"エダヨシ","prefecture_code":15},"6416":{"zip_code":"9496416","prefecture":"新潟県","prefecture_kana":"ニイガタケン","city":"南魚沼市","city_kana":"ミナミウオヌマシ","town":"大木六","town_kana":"オオキロク","prefecture_code":15},"6438":{"zip_code":"9496438","prefecture":"新潟県","prefecture_kana":"ニイガタケン","city":"南魚沼市","city_kana":"ミナミウオヌマシ","town":"大木六新田","town_kana":"オオキロクシンデン","prefecture_code":15},"7243":{"zip_code":"9497243","prefecture":"新潟県","prefecture_kana":"ニイガタケン","city":"南魚沼市","city_kana":"ミナミウオヌマシ","town":"大倉","town_kana":"オオクラ","prefecture_code":15},"7224":{"zip_code":"9497224","prefecture":"新潟県","prefecture_kana":"ニイガタケン","city":"南魚沼市","city_kana":"ミナミウオヌマシ","town":"大桑原","town_kana":"オオクワバラ","prefecture_code":15},"7251":{"zip_code":"9497251","prefecture":"新潟県","prefecture_kana":"ニイガタケン","city":"南魚沼市","city_kana":"ミナミウオヌマシ","town":"大崎","town_kana":"オオサキ","prefecture_code":15},"6412":{"zip_code":"9496412","prefecture":"新潟県","prefecture_kana":"ニイガタケン","city":"南魚沼市","city_kana":"ミナミウオヌマシ","town":"大里","town_kana":"オオザト","prefecture_code":15},"6361":{"zip_code":"9496361","prefecture":"新潟県","prefecture_kana":"ニイガタケン","city":"南魚沼市","city_kana":"ミナミウオヌマシ","town":"大沢","town_kana":"オオサワ","prefecture_code":15},"7103":{"zip_code":"9497103","prefecture":"新潟県","prefecture_kana":"ニイガタケン","city":"南魚沼市","city_kana":"ミナミウオヌマシ","town":"大杉新田","town_kana":"オオスギシンデン","prefecture_code":15},"6682":{"zip_code":"9496682","prefecture":"新潟県","prefecture_kana":"ニイガタケン","city":"南魚沼市","city_kana":"ミナミウオヌマシ","town":"大月","town_kana":"オオヅキ","prefecture_code":15},"7122":{"zip_code":"9497122","prefecture":"新潟県","prefecture_kana":"ニイガタケン","city":"南魚沼市","city_kana":"ミナミウオヌマシ","town":"岡","town_kana":"オカ","prefecture_code":15},"6745":{"zip_code":"9496745","prefecture":"新潟県","prefecture_kana":"ニイガタケン","city":"南魚沼市","city_kana":"ミナミウオヌマシ","town":"小川","town_kana":"オガワ","prefecture_code":15},"7102":{"zip_code":"9497102","prefecture":"新潟県","prefecture_kana":"ニイガタケン","city":"南魚沼市","city_kana":"ミナミウオヌマシ","town":"奥","town_kana":"オク","prefecture_code":15},"6403":{"zip_code":"9496403","prefecture":"新潟県","prefecture_kana":"ニイガタケン","city":"南魚沼市","city_kana":"ミナミウオヌマシ","town":"思川","town_kana":"オモイガワ","prefecture_code":15},"6602":{"zip_code":"9496602","prefecture":"新潟県","prefecture_kana":"ニイガタケン","city":"南魚沼市","city_kana":"ミナミウオヌマシ","town":"欠之上","town_kana":"カケノウエ","prefecture_code":15},"6404":{"zip_code":"9496404","prefecture":"新潟県","prefecture_kana":"ニイガタケン","city":"南魚沼市","city_kana":"ミナミウオヌマシ","town":"片田","town_kana":"カタタ","prefecture_code":15},"6552":{"zip_code":"9496552","prefecture":"新潟県","prefecture_kana":"ニイガタケン","city":"南魚沼市","city_kana":"ミナミウオヌマシ","town":"蟹沢新田","town_kana":"カニサワシンデン","prefecture_code":15},"6431":{"zip_code":"9496431","prefecture":"新潟県","prefecture_kana":"ニイガタケン","city":"南魚沼市","city_kana":"ミナミウオヌマシ","town":"樺野沢","town_kana":"カバノサワ","prefecture_code":15},"6432":{"zip_code":"9496432","prefecture":"新潟県","prefecture_kana":"ニイガタケン","city":"南魚沼市","city_kana":"ミナミウオヌマシ","town":"樺野沢新田","town_kana":"カバノサワシンデン","prefecture_code":15},"7126":{"zip_code":"9497126","prefecture":"新潟県","prefecture_kana":"ニイガタケン","city":"南魚沼市","city_kana":"ミナミウオヌマシ","town":"上出浦","town_kana":"カミイズナ","prefecture_code":15},"6411":{"zip_code":"9496411","prefecture":"新潟県","prefecture_kana":"ニイガタケン","city":"南魚沼市","city_kana":"ミナミウオヌマシ","town":"上十日町","town_kana":"カミトオカマチ","prefecture_code":15},"7137":{"zip_code":"9497137","prefecture":"新潟県","prefecture_kana":"ニイガタケン","city":"南魚沼市","city_kana":"ミナミウオヌマシ","town":"上原","town_kana":"カミハラ","prefecture_code":15},"7138":{"zip_code":"9497138","prefecture":"新潟県","prefecture_kana":"ニイガタケン","city":"南魚沼市","city_kana":"ミナミウオヌマシ","town":"上原新田","town_kana":"カミハラシンデン","prefecture_code":15},"6364":{"zip_code":"9496364","prefecture":"新潟県","prefecture_kana":"ニイガタケン","city":"南魚沼市","city_kana":"ミナミウオヌマシ","town":"上一日市","town_kana":"カミヒトイチ","prefecture_code":15},"7124":{"zip_code":"9497124","prefecture":"新潟県","prefecture_kana":"ニイガタケン","city":"南魚沼市","city_kana":"ミナミウオヌマシ","town":"上薬師堂","town_kana":"カミヤクシドウ","prefecture_code":15},"6603":{"zip_code":"9496603","prefecture":"新潟県","prefecture_kana":"ニイガタケン","city":"南魚沼市","city_kana":"ミナミウオヌマシ","town":"川窪","town_kana":"カワクボ","prefecture_code":15},"7143":{"zip_code":"9497143","prefecture":"新潟県","prefecture_kana":"ニイガタケン","city":"南魚沼市","city_kana":"ミナミウオヌマシ","town":"北田中","town_kana":"キタタナカ","prefecture_code":15},"6601":{"zip_code":"9496601","prefecture":"新潟県","prefecture_kana":"ニイガタケン","city":"南魚沼市","city_kana":"ミナミウオヌマシ","town":"君帰","town_kana":"キミガエリ","prefecture_code":15},"6366":{"zip_code":"9496366","prefecture":"新潟県","prefecture_kana":"ニイガタケン","city":"南魚沼市","city_kana":"ミナミウオヌマシ","town":"君沢","town_kana":"キミザワ","prefecture_code":15},"6756":{"zip_code":"9496756","prefecture":"新潟県","prefecture_kana":"ニイガタケン","city":"南魚沼市","city_kana":"ミナミウオヌマシ","town":"京岡","town_kana":"キョウオカ","prefecture_code":15},"6757":{"zip_code":"9496757","prefecture":"新潟県","prefecture_kana":"ニイガタケン","city":"南魚沼市","city_kana":"ミナミウオヌマシ","town":"京岡新田","town_kana":"キョウオカシンデン","prefecture_code":15},"7233":{"zip_code":"9497233","prefecture":"新潟県","prefecture_kana":"ニイガタケン","city":"南魚沼市","city_kana":"ミナミウオヌマシ","town":"桐沢","town_kana":"キリサワ","prefecture_code":15},"7242":{"zip_code":"9497242","prefecture":"新潟県","prefecture_kana":"ニイガタケン","city":"南魚沼市","city_kana":"ミナミウオヌマシ","town":"黒土","town_kana":"クロツチ","prefecture_code":15},"7241":{"zip_code":"9497241","prefecture":"新潟県","prefecture_kana":"ニイガタケン","city":"南魚沼市","city_kana":"ミナミウオヌマシ","town":"黒土新田","town_kana":"クロツチシンデン","prefecture_code":15},"7301":{"zip_code":"9497301","prefecture":"新潟県","prefecture_kana":"ニイガタケン","city":"南魚沼市","city_kana":"ミナミウオヌマシ","town":"五箇","town_kana":"ゴカ","prefecture_code":15},"6413":{"zip_code":"9496413","prefecture":"新潟県","prefecture_kana":"ニイガタケン","city":"南魚沼市","city_kana":"ミナミウオヌマシ","town":"小木六","town_kana":"コギロク","prefecture_code":15},"7248":{"zip_code":"9497248","prefecture":"新潟県","prefecture_kana":"ニイガタケン","city":"南魚沼市","city_kana":"ミナミウオヌマシ","town":"国際町","town_kana":"コクサイチョウ","prefecture_code":15},"6636":{"zip_code":"9496636","prefecture":"新潟県","prefecture_kana":"ニイガタケン","city":"南魚沼市","city_kana":"ミナミウオヌマシ","town":"小栗山","town_kana":"コグリヤマ","prefecture_code":15},"7312":{"zip_code":"9497312","prefecture":"新潟県","prefecture_kana":"ニイガタケン","city":"南魚沼市","city_kana":"ミナミウオヌマシ","town":"九日町","town_kana":"ココノカマチ","prefecture_code":15},"6415":{"zip_code":"9496415","prefecture":"新潟県","prefecture_kana":"ニイガタケン","city":"南魚沼市","city_kana":"ミナミウオヌマシ","town":"小杉新田","town_kana":"コスギシンデン","prefecture_code":15},"6556":{"zip_code":"9496556","prefecture":"新潟県","prefecture_kana":"ニイガタケン","city":"南魚沼市","city_kana":"ミナミウオヌマシ","town":"小松沢","town_kana":"コマツザワ","prefecture_code":15},"6428":{"zip_code":"9496428","prefecture":"新潟県","prefecture_kana":"ニイガタケン","city":"南魚沼市","city_kana":"ミナミウオヌマシ","town":"五郎丸","town_kana":"ゴロウマル","prefecture_code":15},"6611":{"zip_code":"9496611","prefecture":"新潟県","prefecture_kana":"ニイガタケン","city":"南魚沼市","city_kana":"ミナミウオヌマシ","town":"坂戸","town_kana":"サカド","prefecture_code":15},"6541":{"zip_code":"9496541","prefecture":"新潟県","prefecture_kana":"ニイガタケン","city":"南魚沼市","city_kana":"ミナミウオヌマシ","town":"三郎丸","town_kana":"サブロウマル","prefecture_code":15},"6408":{"zip_code":"9496408","prefecture":"新潟県","prefecture_kana":"ニイガタケン","city":"南魚沼市","city_kana":"ミナミウオヌマシ","town":"塩沢","town_kana":"シオザワ","prefecture_code":15},"7145":{"zip_code":"9497145","prefecture":"新潟県","prefecture_kana":"ニイガタケン","city":"南魚沼市","city_kana":"ミナミウオヌマシ","town":"四十日","town_kana":"シトカ","prefecture_code":15},"6407":{"zip_code":"9496407","prefecture":"新潟県","prefecture_kana":"ニイガタケン","city":"南魚沼市","city_kana":"ミナミウオヌマシ","town":"島新田","town_kana":"シマシンデン","prefecture_code":15},"6553":{"zip_code":"9496553","prefecture":"新潟県","prefecture_kana":"ニイガタケン","city":"南魚沼市","city_kana":"ミナミウオヌマシ","town":"清水","town_kana":"シミズ","prefecture_code":15},"6741":{"zip_code":"9496741","prefecture":"新潟県","prefecture_kana":"ニイガタケン","city":"南魚沼市","city_kana":"ミナミウオヌマシ","town":"清水瀬","town_kana":"シミズセ","prefecture_code":15},"7127":{"zip_code":"9497127","prefecture":"新潟県","prefecture_kana":"ニイガタケン","city":"南魚沼市","city_kana":"ミナミウオヌマシ","town":"下出浦","town_kana":"シモイズナ","prefecture_code":15},"7113":{"zip_code":"9497113","prefecture":"新潟県","prefecture_kana":"ニイガタケン","city":"南魚沼市","city_kana":"ミナミウオヌマシ","town":"下原","town_kana":"シモハラ","prefecture_code":15},"7116":{"zip_code":"9497116","prefecture":"新潟県","prefecture_kana":"ニイガタケン","city":"南魚沼市","city_kana":"ミナミウオヌマシ","town":"下原新田","town_kana":"シモハラシンデン","prefecture_code":15},"6363":{"zip_code":"9496363","prefecture":"新潟県","prefecture_kana":"ニイガタケン","city":"南魚沼市","city_kana":"ミナミウオヌマシ","town":"下一日市","town_kana":"シモヒトイチ","prefecture_code":15},"7125":{"zip_code":"9497125","prefecture":"新潟県","prefecture_kana":"ニイガタケン","city":"南魚沼市","city_kana":"ミナミウオヌマシ","town":"下薬師堂","town_kana":"シモヤクシドウ","prefecture_code":15},"7314":{"zip_code":"9497314","prefecture":"新潟県","prefecture_kana":"ニイガタケン","city":"南魚沼市","city_kana":"ミナミウオヌマシ","town":"城山新田","town_kana":"ジョウヤマシンデン","prefecture_code":15},"6371":{"zip_code":"9496371","prefecture":"新潟県","prefecture_kana":"ニイガタケン","city":"南魚沼市","city_kana":"ミナミウオヌマシ","town":"関","town_kana":"セキ","prefecture_code":15},"7311":{"zip_code":"9497311","prefecture":"新潟県","prefecture_kana":"ニイガタケン","city":"南魚沼市","city_kana":"ミナミウオヌマシ","town":"芹田","town_kana":"セリダ","prefecture_code":15},"6418":{"zip_code":"9496418","prefecture":"新潟県","prefecture_kana":"ニイガタケン","city":"南魚沼市","city_kana":"ミナミウオヌマシ","town":"仙石","town_kana":"センゴク","prefecture_code":15},"6433":{"zip_code":"9496433","prefecture":"新潟県","prefecture_kana":"ニイガタケン","city":"南魚沼市","city_kana":"ミナミウオヌマシ","town":"泉盛寺","town_kana":"センジョウジ","prefecture_code":15},"6557":{"zip_code":"9496557","prefecture":"新潟県","prefecture_kana":"ニイガタケン","city":"南魚沼市","city_kana":"ミナミウオヌマシ","town":"台上","town_kana":"ダイウエ","prefecture_code":15},"6555":{"zip_code":"9496555","prefecture":"新潟県","prefecture_kana":"ニイガタケン","city":"南魚沼市","city_kana":"ミナミウオヌマシ","town":"滝谷","town_kana":"タキヤ","prefecture_code":15},"6405":{"zip_code":"9496405","prefecture":"新潟県","prefecture_kana":"ニイガタケン","city":"南魚沼市","city_kana":"ミナミウオヌマシ","town":"竹俣","town_kana":"タケマタ","prefecture_code":15},"6406":{"zip_code":"9496406","prefecture":"新潟県","prefecture_kana":"ニイガタケン","city":"南魚沼市","city_kana":"ミナミウオヌマシ","town":"竹俣新田","town_kana":"タケマタシンデン","prefecture_code":15},"7134":{"zip_code":"9497134","prefecture":"新潟県","prefecture_kana":"ニイガタケン","city":"南魚沼市","city_kana":"ミナミウオヌマシ","town":"田崎","town_kana":"タザキ","prefecture_code":15},"6771":{"zip_code":"9496771","prefecture":"新潟県","prefecture_kana":"ニイガタケン","city":"南魚沼市","city_kana":"ミナミウオヌマシ","town":"津久野","town_kana":"ツクノ","prefecture_code":15},"6766":{"zip_code":"9496766","prefecture":"新潟県","prefecture_kana":"ニイガタケン","city":"南魚沼市","city_kana":"ミナミウオヌマシ","town":"津久野上新田","town_kana":"ツクノカミシンデン","prefecture_code":15},"6773":{"zip_code":"9496773","prefecture":"新潟県","prefecture_kana":"ニイガタケン","city":"南魚沼市","city_kana":"ミナミウオヌマシ","town":"津久野下新田","town_kana":"ツクノシモシンデン","prefecture_code":15},"6744":{"zip_code":"9496744","prefecture":"新潟県","prefecture_kana":"ニイガタケン","city":"南魚沼市","city_kana":"ミナミウオヌマシ","town":"土沢","town_kana":"ツチサワ","prefecture_code":15},"7104":{"zip_code":"9497104","prefecture":"新潟県","prefecture_kana":"ニイガタケン","city":"南魚沼市","city_kana":"ミナミウオヌマシ","town":"寺尾","town_kana":"テラオ","prefecture_code":15},"7232":{"zip_code":"9497232","prefecture":"新潟県","prefecture_kana":"ニイガタケン","city":"南魚沼市","city_kana":"ミナミウオヌマシ","town":"堂島新田","town_kana":"ドウジマシンデン","prefecture_code":15},"6422":{"zip_code":"9496422","prefecture":"新潟県","prefecture_kana":"ニイガタケン","city":"南魚沼市","city_kana":"ミナミウオヌマシ","town":"徳田新田","town_kana":"トクダシンデン","prefecture_code":15},"6401":{"zip_code":"9496401","prefecture":"新潟県","prefecture_kana":"ニイガタケン","city":"南魚沼市","city_kana":"ミナミウオヌマシ","town":"栃窪","town_kana":"トチクボ","prefecture_code":15},"6436":{"zip_code":"9496436","prefecture":"新潟県","prefecture_kana":"ニイガタケン","city":"南魚沼市","city_kana":"ミナミウオヌマシ","town":"中","town_kana":"ナカ","prefecture_code":15},"6761":{"zip_code":"9496761","prefecture":"新潟県","prefecture_kana":"ニイガタケン","city":"南魚沼市","city_kana":"ミナミウオヌマシ","town":"中川","town_kana":"ナカガワ","prefecture_code":15},"6762":{"zip_code":"9496762","prefecture":"新潟県","prefecture_kana":"ニイガタケン","city":"南魚沼市","city_kana":"ミナミウオヌマシ","town":"中川新田","town_kana":"ナカガワシンデン","prefecture_code":15},"6427":{"zip_code":"9496427","prefecture":"新潟県","prefecture_kana":"ニイガタケン","city":"南魚沼市","city_kana":"ミナミウオヌマシ","town":"中子新田乙","town_kana":"ナカゴシンデンオツ","prefecture_code":15},"6421":{"zip_code":"9496421","prefecture":"新潟県","prefecture_kana":"ニイガタケン","city":"南魚沼市","city_kana":"ミナミウオヌマシ","town":"中子新田甲","town_kana":"ナカゴシンデンコウ","prefecture_code":15},"6545":{"zip_code":"9496545","prefecture":"新潟県","prefecture_kana":"ニイガタケン","city":"南魚沼市","city_kana":"ミナミウオヌマシ","town":"長崎","town_kana":"ナガサキ","prefecture_code":15},"6437":{"zip_code":"9496437","prefecture":"新潟県","prefecture_kana":"ニイガタケン","city":"南魚沼市","city_kana":"ミナミウオヌマシ","town":"中野","town_kana":"ナカノ","prefecture_code":15},"6754":{"zip_code":"9496754","prefecture":"新潟県","prefecture_kana":"ニイガタケン","city":"南魚沼市","city_kana":"ミナミウオヌマシ","town":"永松","town_kana":"ナガマツ","prefecture_code":15},"7112":{"zip_code":"9497112","prefecture":"新潟県","prefecture_kana":"ニイガタケン","city":"南魚沼市","city_kana":"ミナミウオヌマシ","town":"長森","town_kana":"ナガモリ","prefecture_code":15},"7117":{"zip_code":"9497117","prefecture":"新潟県","prefecture_kana":"ニイガタケン","city":"南魚沼市","city_kana":"ミナミウオヌマシ","town":"長森新田","town_kana":"ナガモリシンデン","prefecture_code":15},"7315":{"zip_code":"9497315","prefecture":"新潟県","prefecture_kana":"ニイガタケン","city":"南魚沼市","city_kana":"ミナミウオヌマシ","town":"名木沢","town_kana":"ナギサワ","prefecture_code":15},"7136":{"zip_code":"9497136","prefecture":"新潟県","prefecture_kana":"ニイガタケン","city":"南魚沼市","city_kana":"ミナミウオヌマシ","town":"新堀","town_kana":"ニイボリ","prefecture_code":15},"7135":{"zip_code":"9497135","prefecture":"新潟県","prefecture_kana":"ニイガタケン","city":"南魚沼市","city_kana":"ミナミウオヌマシ","town":"新堀新田","town_kana":"ニイボリシンデン","prefecture_code":15},"6615":{"zip_code":"9496615","prefecture":"新潟県","prefecture_kana":"ニイガタケン","city":"南魚沼市","city_kana":"ミナミウオヌマシ","town":"西泉田","town_kana":"ニシイズミダ","prefecture_code":15},"7131":{"zip_code":"9497131","prefecture":"新潟県","prefecture_kana":"ニイガタケン","city":"南魚沼市","city_kana":"ミナミウオヌマシ","town":"野際","town_kana":"ノギワ","prefecture_code":15},"7144":{"zip_code":"9497144","prefecture":"新潟県","prefecture_kana":"ニイガタケン","city":"南魚沼市","city_kana":"ミナミウオヌマシ","town":"野田","town_kana":"ノダ","prefecture_code":15},"6742":{"zip_code":"9496742","prefecture":"新潟県","prefecture_kana":"ニイガタケン","city":"南魚沼市","city_kana":"ミナミウオヌマシ","town":"野中","town_kana":"ノナカ","prefecture_code":15},"6414":{"zip_code":"9496414","prefecture":"新潟県","prefecture_kana":"ニイガタケン","city":"南魚沼市","city_kana":"ミナミウオヌマシ","town":"八竜新田","town_kana":"ハチリュウシンデン","prefecture_code":15},"6543":{"zip_code":"9496543","prefecture":"新潟県","prefecture_kana":"ニイガタケン","city":"南魚沼市","city_kana":"ミナミウオヌマシ","town":"早川","town_kana":"ハヤカワ","prefecture_code":15},"6755":{"zip_code":"9496755","prefecture":"新潟県","prefecture_kana":"ニイガタケン","city":"南魚沼市","city_kana":"ミナミウオヌマシ","town":"原","town_kana":"ハラ","prefecture_code":15},"6612":{"zip_code":"9496612","prefecture":"新潟県","prefecture_kana":"ニイガタケン","city":"南魚沼市","city_kana":"ミナミウオヌマシ","town":"東泉田","town_kana":"ヒガシイズミダ","prefecture_code":15},"7316":{"zip_code":"9497316","prefecture":"新潟県","prefecture_kana":"ニイガタケン","city":"南魚沼市","city_kana":"ミナミウオヌマシ","town":"一村尾","town_kana":"ヒトムラオ","prefecture_code":15},"6753":{"zip_code":"9496753","prefecture":"新潟県","prefecture_kana":"ニイガタケン","city":"南魚沼市","city_kana":"ミナミウオヌマシ","town":"蛭窪","town_kana":"ヒルクボ","prefecture_code":15},"6774":{"zip_code":"9496774","prefecture":"新潟県","prefecture_kana":"ニイガタケン","city":"南魚沼市","city_kana":"ミナミウオヌマシ","town":"深沢","town_kana":"フカサワ","prefecture_code":15},"7132":{"zip_code":"9497132","prefecture":"新潟県","prefecture_kana":"ニイガタケン","city":"南魚沼市","city_kana":"ミナミウオヌマシ","town":"藤原","town_kana":"フジハラ","prefecture_code":15},"6743":{"zip_code":"9496743","prefecture":"新潟県","prefecture_kana":"ニイガタケン","city":"南魚沼市","city_kana":"ミナミウオヌマシ","town":"舞台","town_kana":"ブタイ","prefecture_code":15},"6772":{"zip_code":"9496772","prefecture":"新潟県","prefecture_kana":"ニイガタケン","city":"南魚沼市","city_kana":"ミナミウオヌマシ","town":"二日町","town_kana":"フツカマチ","prefecture_code":15},"7244":{"zip_code":"9497244","prefecture":"新潟県","prefecture_kana":"ニイガタケン","city":"南魚沼市","city_kana":"ミナミウオヌマシ","town":"船ケ沢新田","town_kana":"フネガサワシンデン","prefecture_code":15},"7111":{"zip_code":"9497111","prefecture":"新潟県","prefecture_kana":"ニイガタケン","city":"南魚沼市","city_kana":"ミナミウオヌマシ","town":"麓","town_kana":"フモト","prefecture_code":15},"7133":{"zip_code":"9497133","prefecture":"新潟県","prefecture_kana":"ニイガタケン","city":"南魚沼市","city_kana":"ミナミウオヌマシ","town":"法音寺","town_kana":"ホウオンジ","prefecture_code":15},"6423":{"zip_code":"9496423","prefecture":"新潟県","prefecture_kana":"ニイガタケン","city":"南魚沼市","city_kana":"ミナミウオヌマシ","town":"舞子","town_kana":"マイゴ","prefecture_code":15},"7229":{"zip_code":"9497229","prefecture":"新潟県","prefecture_kana":"ニイガタケン","city":"南魚沼市","city_kana":"ミナミウオヌマシ","town":"前原町","town_kana":"マエハラチョウ","prefecture_code":15},"6426":{"zip_code":"9496426","prefecture":"新潟県","prefecture_kana":"ニイガタケン","city":"南魚沼市","city_kana":"ミナミウオヌマシ","town":"丸池新田","town_kana":"マルイケシンデン","prefecture_code":15},"6424":{"zip_code":"9496424","prefecture":"新潟県","prefecture_kana":"ニイガタケン","city":"南魚沼市","city_kana":"ミナミウオヌマシ","town":"万条新田","town_kana":"マンジョウシンデン","prefecture_code":15},"6608":{"zip_code":"9496608","prefecture":"新潟県","prefecture_kana":"ニイガタケン","city":"南魚沼市","city_kana":"ミナミウオヌマシ","town":"美佐島","town_kana":"ミサシマ","prefecture_code":15},"7252":{"zip_code":"9497252","prefecture":"新潟県","prefecture_kana":"ニイガタケン","city":"南魚沼市","city_kana":"ミナミウオヌマシ","town":"水尾","town_kana":"ミズオ","prefecture_code":15},"7253":{"zip_code":"9497253","prefecture":"新潟県","prefecture_kana":"ニイガタケン","city":"南魚沼市","city_kana":"ミナミウオヌマシ","town":"水尾新田","town_kana":"ミズオシンデン","prefecture_code":15},"6362":{"zip_code":"9496362","prefecture":"新潟県","prefecture_kana":"ニイガタケン","city":"南魚沼市","city_kana":"ミナミウオヌマシ","town":"南田中","town_kana":"ミナミタナカ","prefecture_code":15},"6775":{"zip_code":"9496775","prefecture":"新潟県","prefecture_kana":"ニイガタケン","city":"南魚沼市","city_kana":"ミナミウオヌマシ","town":"宮","town_kana":"ミヤ","prefecture_code":15},"6365":{"zip_code":"9496365","prefecture":"新潟県","prefecture_kana":"ニイガタケン","city":"南魚沼市","city_kana":"ミナミウオヌマシ","town":"宮野下","town_kana":"ミヤノシタ","prefecture_code":15},"6764":{"zip_code":"9496764","prefecture":"新潟県","prefecture_kana":"ニイガタケン","city":"南魚沼市","city_kana":"ミナミウオヌマシ","town":"宮村下新田","town_kana":"ミヤムラシモシンデン","prefecture_code":15},"7123":{"zip_code":"9497123","prefecture":"新潟県","prefecture_kana":"ニイガタケン","city":"南魚沼市","city_kana":"ミナミウオヌマシ","town":"妙音寺","town_kana":"ミョウオンジ","prefecture_code":15},"7231":{"zip_code":"9497231","prefecture":"新潟県","prefecture_kana":"ニイガタケン","city":"南魚沼市","city_kana":"ミナミウオヌマシ","town":"茗荷沢","town_kana":"ミョウガサワ","prefecture_code":15},"7236":{"zip_code":"9497236","prefecture":"新潟県","prefecture_kana":"ニイガタケン","city":"南魚沼市","city_kana":"ミナミウオヌマシ","town":"茗荷沢新田","town_kana":"ミョウガサワシンデン","prefecture_code":15},"6680":{"zip_code":"9496680","prefecture":"新潟県","prefecture_kana":"ニイガタケン","city":"南魚沼市","city_kana":"ミナミウオヌマシ","town":"六日町","town_kana":"ムイカマチ","prefecture_code":15},"6435":{"zip_code":"9496435","prefecture":"新潟県","prefecture_kana":"ニイガタケン","city":"南魚沼市","city_kana":"ミナミウオヌマシ","town":"目来田","town_kana":"モクライデン","prefecture_code":15},"7223":{"zip_code":"9497223","prefecture":"新潟県","prefecture_kana":"ニイガタケン","city":"南魚沼市","city_kana":"ミナミウオヌマシ","town":"門前","town_kana":"モンゼン","prefecture_code":15},"7247":{"zip_code":"9497247","prefecture":"新潟県","prefecture_kana":"ニイガタケン","city":"南魚沼市","city_kana":"ミナミウオヌマシ","town":"八色原","town_kana":"ヤイロハラ","prefecture_code":15},"7121":{"zip_code":"9497121","prefecture":"新潟県","prefecture_kana":"ニイガタケン","city":"南魚沼市","city_kana":"ミナミウオヌマシ","town":"山口","town_kana":"ヤマグチ","prefecture_code":15},"7225":{"zip_code":"9497225","prefecture":"新潟県","prefecture_kana":"ニイガタケン","city":"南魚沼市","city_kana":"ミナミウオヌマシ","town":"山崎","town_kana":"ヤマザキ","prefecture_code":15},"7226":{"zip_code":"9497226","prefecture":"新潟県","prefecture_kana":"ニイガタケン","city":"南魚沼市","city_kana":"ミナミウオヌマシ","town":"山崎新田","town_kana":"ヤマザキシンデン","prefecture_code":15},"6763":{"zip_code":"9496763","prefecture":"新潟県","prefecture_kana":"ニイガタケン","city":"南魚沼市","city_kana":"ミナミウオヌマシ","town":"山谷","town_kana":"ヤマヤ","prefecture_code":15},"6609":{"zip_code":"9496609","prefecture":"新潟県","prefecture_kana":"ニイガタケン","city":"南魚沼市","city_kana":"ミナミウオヌマシ","town":"八幡","town_kana":"ヤワタ","prefecture_code":15},"7221":{"zip_code":"9497221","prefecture":"新潟県","prefecture_kana":"ニイガタケン","city":"南魚沼市","city_kana":"ミナミウオヌマシ","town":"湯谷","town_kana":"ユヤ","prefecture_code":15},"6681":{"zip_code":"9496681","prefecture":"新潟県","prefecture_kana":"ニイガタケン","city":"南魚沼市","city_kana":"ミナミウオヌマシ","town":"余川","town_kana":"ヨカワ","prefecture_code":15},"6402":{"zip_code":"9496402","prefecture":"新潟県","prefecture_kana":"ニイガタケン","city":"南魚沼市","city_kana":"ミナミウオヌマシ","town":"吉里","town_kana":"ヨシザト","prefecture_code":15},"6417":{"zip_code":"9496417","prefecture":"新潟県","prefecture_kana":"ニイガタケン","city":"南魚沼市","city_kana":"ミナミウオヌマシ","town":"吉山新田","town_kana":"ヨシヤマシンデン","prefecture_code":15},"7255":{"zip_code":"9497255","prefecture":"新潟県","prefecture_kana":"ニイガタケン","city":"南魚沼市","city_kana":"ミナミウオヌマシ","town":"柳古新田","town_kana":"リュウコシンデン","prefecture_code":15},"4300":{"zip_code":"9494300","prefecture":"新潟県","prefecture_kana":"ニイガタケン","city":"三島郡出雲崎町","city_kana":"サントウグンイズモザキマチ","town":"","town_kana":"","prefecture_code":15},"4325":{"zip_code":"9494325","prefecture":"新潟県","prefecture_kana":"ニイガタケン","city":"三島郡出雲崎町","city_kana":"サントウグンイズモザキマチ","town":"相田","town_kana":"アイダ","prefecture_code":15},"4308":{"zip_code":"9494308","prefecture":"新潟県","prefecture_kana":"ニイガタケン","city":"三島郡出雲崎町","city_kana":"サントウグンイズモザキマチ","town":"尼瀬","town_kana":"アマゼ","prefecture_code":15},"4306":{"zip_code":"9494306","prefecture":"新潟県","prefecture_kana":"ニイガタケン","city":"三島郡出雲崎町","city_kana":"サントウグンイズモザキマチ","town":"石井町","town_kana":"イシイチョウ","prefecture_code":15},"4335":{"zip_code":"9494335","prefecture":"新潟県","prefecture_kana":"ニイガタケン","city":"三島郡出雲崎町","city_kana":"サントウグンイズモザキマチ","town":"市野坪","town_kana":"イチノツボ","prefecture_code":15},"4331":{"zip_code":"9494331","prefecture":"新潟県","prefecture_kana":"ニイガタケン","city":"三島郡出雲崎町","city_kana":"サントウグンイズモザキマチ","town":"稲川","town_kana":"イナガワ","prefecture_code":15},"4302":{"zip_code":"9494302","prefecture":"新潟県","prefecture_kana":"ニイガタケン","city":"三島郡出雲崎町","city_kana":"サントウグンイズモザキマチ","town":"井鼻","town_kana":"イノハナ","prefecture_code":15},"4346":{"zip_code":"9494346","prefecture":"新潟県","prefecture_kana":"ニイガタケン","city":"三島郡出雲崎町","city_kana":"サントウグンイズモザキマチ","town":"上野山","town_kana":"ウエノヤマ","prefecture_code":15},"4323":{"zip_code":"9494323","prefecture":"新潟県","prefecture_kana":"ニイガタケン","city":"三島郡出雲崎町","city_kana":"サントウグンイズモザキマチ","town":"大釜谷","town_kana":"オオガマヤ","prefecture_code":15},"4312":{"zip_code":"9494312","prefecture":"新潟県","prefecture_kana":"ニイガタケン","city":"三島郡出雲崎町","city_kana":"サントウグンイズモザキマチ","town":"大寺","town_kana":"オオテラ","prefecture_code":15},"4332":{"zip_code":"9494332","prefecture":"新潟県","prefecture_kana":"ニイガタケン","city":"三島郡出雲崎町","city_kana":"サントウグンイズモザキマチ","town":"小木","town_kana":"オギ","prefecture_code":15},"4311":{"zip_code":"9494311","prefecture":"新潟県","prefecture_kana":"ニイガタケン","city":"三島郡出雲崎町","city_kana":"サントウグンイズモザキマチ","town":"乙茂","town_kana":"オトモ","prefecture_code":15},"4315":{"zip_code":"9494315","prefecture":"新潟県","prefecture_kana":"ニイガタケン","city":"三島郡出雲崎町","city_kana":"サントウグンイズモザキマチ","town":"柿木","town_kana":"カキノキ","prefecture_code":15},"4309":{"zip_code":"9494309","prefecture":"新潟県","prefecture_kana":"ニイガタケン","city":"三島郡出雲崎町","city_kana":"サントウグンイズモザキマチ","town":"勝見","town_kana":"カツミ","prefecture_code":15},"4326":{"zip_code":"9494326","prefecture":"新潟県","prefecture_kana":"ニイガタケン","city":"三島郡出雲崎町","city_kana":"サントウグンイズモザキマチ","town":"桂沢","town_kana":"カツラサワ","prefecture_code":15},"4318":{"zip_code":"9494318","prefecture":"新潟県","prefecture_kana":"ニイガタケン","city":"三島郡出雲崎町","city_kana":"サントウグンイズモザキマチ","town":"神条","town_kana":"カミジョウ","prefecture_code":15},"4341":{"zip_code":"9494341","prefecture":"新潟県","prefecture_kana":"ニイガタケン","city":"三島郡出雲崎町","city_kana":"サントウグンイズモザキマチ","town":"上中条","town_kana":"カミナカジョウ","prefecture_code":15},"4353":{"zip_code":"9494353","prefecture":"新潟県","prefecture_kana":"ニイガタケン","city":"三島郡出雲崎町","city_kana":"サントウグンイズモザキマチ","town":"川西","town_kana":"カワニシ","prefecture_code":15},"4303":{"zip_code":"9494303","prefecture":"新潟県","prefecture_kana":"ニイガタケン","city":"三島郡出雲崎町","city_kana":"サントウグンイズモザキマチ","town":"木折町","town_kana":"キオリチョウ","prefecture_code":15},"4301":{"zip_code":"9494301","prefecture":"新潟県","prefecture_kana":"ニイガタケン","city":"三島郡出雲崎町","city_kana":"サントウグンイズモザキマチ","town":"久田","town_kana":"クッタ","prefecture_code":15},"4322":{"zip_code":"9494322","prefecture":"新潟県","prefecture_kana":"ニイガタケン","city":"三島郡出雲崎町","city_kana":"サントウグンイズモザキマチ","town":"小釜谷","town_kana":"コガマヤ","prefecture_code":15},"4344":{"zip_code":"9494344","prefecture":"新潟県","prefecture_kana":"ニイガタケン","city":"三島郡出雲崎町","city_kana":"サントウグンイズモザキマチ","town":"小竹","town_kana":"コダケ","prefecture_code":15},"4342":{"zip_code":"9494342","prefecture":"新潟県","prefecture_kana":"ニイガタケン","city":"三島郡出雲崎町","city_kana":"サントウグンイズモザキマチ","town":"米田","town_kana":"コメダ","prefecture_code":15},"4351":{"zip_code":"9494351","prefecture":"新潟県","prefecture_kana":"ニイガタケン","city":"三島郡出雲崎町","city_kana":"サントウグンイズモザキマチ","town":"沢田","town_kana":"サワダ","prefecture_code":15},"4333":{"zip_code":"9494333","prefecture":"新潟県","prefecture_kana":"ニイガタケン","city":"三島郡出雲崎町","city_kana":"サントウグンイズモザキマチ","town":"常楽寺","town_kana":"ジョウラクジ","prefecture_code":15},"4307":{"zip_code":"9494307","prefecture":"新潟県","prefecture_kana":"ニイガタケン","city":"三島郡出雲崎町","city_kana":"サントウグンイズモザキマチ","town":"住吉町","town_kana":"スミヨシチョウ","prefecture_code":15},"4352":{"zip_code":"9494352","prefecture":"新潟県","prefecture_kana":"ニイガタケン","city":"三島郡出雲崎町","city_kana":"サントウグンイズモザキマチ","town":"大門","town_kana":"ダイモン","prefecture_code":15},"4316":{"zip_code":"9494316","prefecture":"新潟県","prefecture_kana":"ニイガタケン","city":"三島郡出雲崎町","city_kana":"サントウグンイズモザキマチ","town":"滝谷","town_kana":"タキヤ","prefecture_code":15},"4343":{"zip_code":"9494343","prefecture":"新潟県","prefecture_kana":"ニイガタケン","city":"三島郡出雲崎町","city_kana":"サントウグンイズモザキマチ","town":"立石","town_kana":"タテイシ","prefecture_code":15},"4337":{"zip_code":"9494337","prefecture":"新潟県","prefecture_kana":"ニイガタケン","city":"三島郡出雲崎町","city_kana":"サントウグンイズモザキマチ","town":"田中","town_kana":"タナカ","prefecture_code":15},"4334":{"zip_code":"9494334","prefecture":"新潟県","prefecture_kana":"ニイガタケン","city":"三島郡出雲崎町","city_kana":"サントウグンイズモザキマチ","town":"豊橋","town_kana":"トヨバシ","prefecture_code":15},"4345":{"zip_code":"9494345","prefecture":"新潟県","prefecture_kana":"ニイガタケン","city":"三島郡出雲崎町","city_kana":"サントウグンイズモザキマチ","town":"中山","town_kana":"ナカヤマ","prefecture_code":15},"4304":{"zip_code":"9494304","prefecture":"新潟県","prefecture_kana":"ニイガタケン","city":"三島郡出雲崎町","city_kana":"サントウグンイズモザキマチ","town":"鳴滝町","town_kana":"ナルタキチョウ","prefecture_code":15},"4305":{"zip_code":"9494305","prefecture":"新潟県","prefecture_kana":"ニイガタケン","city":"三島郡出雲崎町","city_kana":"サントウグンイズモザキマチ","town":"羽黒町","town_kana":"ハグロチョウ","prefecture_code":15},"4314":{"zip_code":"9494314","prefecture":"新潟県","prefecture_kana":"ニイガタケン","city":"三島郡出雲崎町","city_kana":"サントウグンイズモザキマチ","town":"藤巻","town_kana":"フジマキ","prefecture_code":15},"4336":{"zip_code":"9494336","prefecture":"新潟県","prefecture_kana":"ニイガタケン","city":"三島郡出雲崎町","city_kana":"サントウグンイズモザキマチ","town":"船橋","town_kana":"フナバシ","prefecture_code":15},"4327":{"zip_code":"9494327","prefecture":"新潟県","prefecture_kana":"ニイガタケン","city":"三島郡出雲崎町","city_kana":"サントウグンイズモザキマチ","town":"別ケ谷","town_kana":"ベツガタニ","prefecture_code":15},"4313":{"zip_code":"9494313","prefecture":"新潟県","prefecture_kana":"ニイガタケン","city":"三島郡出雲崎町","city_kana":"サントウグンイズモザキマチ","town":"馬草","town_kana":"マグサ","prefecture_code":15},"4321":{"zip_code":"9494321","prefecture":"新潟県","prefecture_kana":"ニイガタケン","city":"三島郡出雲崎町","city_kana":"サントウグンイズモザキマチ","town":"松本","town_kana":"マツモト","prefecture_code":15},"4328":{"zip_code":"9494328","prefecture":"新潟県","prefecture_kana":"ニイガタケン","city":"三島郡出雲崎町","city_kana":"サントウグンイズモザキマチ","town":"山谷","town_kana":"ヤマヤ","prefecture_code":15},"4317":{"zip_code":"9494317","prefecture":"新潟県","prefecture_kana":"ニイガタケン","city":"三島郡出雲崎町","city_kana":"サントウグンイズモザキマチ","town":"吉川","town_kana":"ヨシカワ","prefecture_code":15},"4324":{"zip_code":"9494324","prefecture":"新潟県","prefecture_kana":"ニイガタケン","city":"三島郡出雲崎町","city_kana":"サントウグンイズモザキマチ","town":"吉水","town_kana":"ヨシミズ","prefecture_code":15},"6100":{"zip_code":"9496100","prefecture":"新潟県","prefecture_kana":"ニイガタケン","city":"南魚沼郡湯沢町","city_kana":"ミナミウオヌマグンユザワマチ","town":"","town_kana":"","prefecture_code":15},"6102":{"zip_code":"9496102","prefecture":"新潟県","prefecture_kana":"ニイガタケン","city":"南魚沼郡湯沢町","city_kana":"ミナミウオヌマグンユザワマチ","town":"神立","town_kana":"カンダツ","prefecture_code":15},"6103":{"zip_code":"9496103","prefecture":"新潟県","prefecture_kana":"ニイガタケン","city":"南魚沼郡湯沢町","city_kana":"ミナミウオヌマグンユザワマチ","town":"土樽","town_kana":"ツチダル","prefecture_code":15},"6212":{"zip_code":"9496212","prefecture":"新潟県","prefecture_kana":"ニイガタケン","city":"南魚沼郡湯沢町","city_kana":"ミナミウオヌマグンユザワマチ","town":"三国","town_kana":"ミクニ","prefecture_code":15},"6211":{"zip_code":"9496211","prefecture":"新潟県","prefecture_kana":"ニイガタケン","city":"南魚沼郡湯沢町","city_kana":"ミナミウオヌマグンユザワマチ","town":"三俣","town_kana":"ミツマタ","prefecture_code":15},"6101":{"zip_code":"9496101","prefecture":"新潟県","prefecture_kana":"ニイガタケン","city":"南魚沼郡湯沢町","city_kana":"ミナミウオヌマグンユザワマチ","town":"湯沢","town_kana":"ユザワ","prefecture_code":15},"8200":{"zip_code":"9498200","prefecture":"新潟県","prefecture_kana":"ニイガタケン","city":"中魚沼郡津南町","city_kana":"ナカウオヌマグンツナンマチ","town":"","town_kana":"","prefecture_code":15},"8203":{"zip_code":"9498203","prefecture":"新潟県","prefecture_kana":"ニイガタケン","city":"中魚沼郡津南町","city_kana":"ナカウオヌマグンツナンマチ","town":"赤沢","town_kana":"アカサワ","prefecture_code":15},"8313":{"zip_code":"9498313","prefecture":"新潟県","prefecture_kana":"ニイガタケン","city":"中魚沼郡津南町","city_kana":"ナカウオヌマグンツナンマチ","town":"秋成","town_kana":"アキナリ","prefecture_code":15},"8314":{"zip_code":"9498314","prefecture":"新潟県","prefecture_kana":"ニイガタケン","city":"中魚沼郡津南町","city_kana":"ナカウオヌマグンツナンマチ","town":"芦ケ崎","town_kana":"アシガサキ","prefecture_code":15},"8202":{"zip_code":"9498202","prefecture":"新潟県","prefecture_kana":"ニイガタケン","city":"中魚沼郡津南町","city_kana":"ナカウオヌマグンツナンマチ","town":"芦ケ崎","town_kana":"アシガサキ","prefecture_code":15},"8317":{"zip_code":"9498317","prefecture":"新潟県","prefecture_kana":"ニイガタケン","city":"中魚沼郡津南町","city_kana":"ナカウオヌマグンツナンマチ","town":"大赤沢","town_kana":"オオアカサワ","prefecture_code":15},"8122":{"zip_code":"9498122","prefecture":"新潟県","prefecture_kana":"ニイガタケン","city":"中魚沼郡津南町","city_kana":"ナカウオヌマグンツナンマチ","town":"上郷上田甲","town_kana":"カミゴウウエダコウ","prefecture_code":15},"8121":{"zip_code":"9498121","prefecture":"新潟県","prefecture_kana":"ニイガタケン","city":"中魚沼郡津南町","city_kana":"ナカウオヌマグンツナンマチ","town":"上郷上田乙","town_kana":"カミゴウウエダオツ","prefecture_code":15},"8205":{"zip_code":"9498205","prefecture":"新潟県","prefecture_kana":"ニイガタケン","city":"中魚沼郡津南町","city_kana":"ナカウオヌマグンツナンマチ","town":"上郷上田乙","town_kana":"カミゴウウエダオツ","prefecture_code":15},"8123":{"zip_code":"9498123","prefecture":"新潟県","prefecture_kana":"ニイガタケン","city":"中魚沼郡津南町","city_kana":"ナカウオヌマグンツナンマチ","town":"上郷大井平","town_kana":"カミゴウオオイダイラ","prefecture_code":15},"8124":{"zip_code":"9498124","prefecture":"新潟県","prefecture_kana":"ニイガタケン","city":"中魚沼郡津南町","city_kana":"ナカウオヌマグンツナンマチ","town":"上郷子種新田","town_kana":"カミゴウコタネシンデン","prefecture_code":15},"8126":{"zip_code":"9498126","prefecture":"新潟県","prefecture_kana":"ニイガタケン","city":"中魚沼郡津南町","city_kana":"ナカウオヌマグンツナンマチ","town":"上郷寺石","town_kana":"カミゴウテライシ","prefecture_code":15},"8125":{"zip_code":"9498125","prefecture":"新潟県","prefecture_kana":"ニイガタケン","city":"中魚沼郡津南町","city_kana":"ナカウオヌマグンツナンマチ","town":"上郷宮野原","town_kana":"カミゴウミヤノハラ","prefecture_code":15},"8315":{"zip_code":"9498315","prefecture":"新潟県","prefecture_kana":"ニイガタケン","city":"中魚沼郡津南町","city_kana":"ナカウオヌマグンツナンマチ","town":"穴藤","town_kana":"ケットウ","prefecture_code":15},"8316":{"zip_code":"9498316","prefecture":"新潟県","prefecture_kana":"ニイガタケン","city":"中魚沼郡津南町","city_kana":"ナカウオヌマグンツナンマチ","town":"結東","town_kana":"ケットウ","prefecture_code":15},"8127":{"zip_code":"9498127","prefecture":"新潟県","prefecture_kana":"ニイガタケン","city":"中魚沼郡津南町","city_kana":"ナカウオヌマグンツナンマチ","town":"結東","town_kana":"ケットウ","prefecture_code":15},"8207":{"zip_code":"9498207","prefecture":"新潟県","prefecture_kana":"ニイガタケン","city":"中魚沼郡津南町","city_kana":"ナカウオヌマグンツナンマチ","town":"三箇","town_kana":"サンガ","prefecture_code":15},"8201":{"zip_code":"9498201","prefecture":"新潟県","prefecture_kana":"ニイガタケン","city":"中魚沼郡津南町","city_kana":"ナカウオヌマグンツナンマチ","town":"下船渡","town_kana":"シモフナト","prefecture_code":15},"8206":{"zip_code":"9498206","prefecture":"新潟県","prefecture_kana":"ニイガタケン","city":"中魚沼郡津南町","city_kana":"ナカウオヌマグンツナンマチ","town":"外丸","town_kana":"トマル","prefecture_code":15},"8311":{"zip_code":"9498311","prefecture":"新潟県","prefecture_kana":"ニイガタケン","city":"中魚沼郡津南町","city_kana":"ナカウオヌマグンツナンマチ","town":"中深見","town_kana":"ナカフカミ","prefecture_code":15},"8312":{"zip_code":"9498312","prefecture":"新潟県","prefecture_kana":"ニイガタケン","city":"中魚沼郡津南町","city_kana":"ナカウオヌマグンツナンマチ","town":"米原","town_kana":"マイバラ","prefecture_code":15},"8204":{"zip_code":"9498204","prefecture":"新潟県","prefecture_kana":"ニイガタケン","city":"中魚沼郡津南町","city_kana":"ナカウオヌマグンツナンマチ","town":"谷内","town_kana":"ヤチ","prefecture_code":15},"8321":{"zip_code":"9498321","prefecture":"長野県","prefecture_kana":"ナガノケン","city":"下水内郡栄村","city_kana":"シモミノチグンサカエムラ","town":"堺","town_kana":"サカイ","prefecture_code":20}}