{"0000":[{"zip_code":"9500000","prefecture":"新潟県","prefecture_kana":"ニイガタケン","city":"新潟市北区","city_kana":"ニイガタシキタク","town":"","town_kana":"","prefecture_code":15},{"zip_code":"9500000","prefecture":"新潟県","prefecture_kana":"ニイガタケン","city":"新潟市東区","city_kana":"ニイガタシヒガシク","town":"","town_kana":"","prefecture_code":15},{"zip_code":"9500000","prefecture":"新潟県","prefecture_kana":"ニイガタケン","city":"新潟市中央区","city_kana":"ニイガタシチュウオウク","town":"","town_kana":"","prefecture_code":15},{"zip_code":"9500000","prefecture":"新潟県","prefecture_kana":"ニイガタケン","city":"新潟市江南区","city_kana":"ニイガタシコウナンク","town":"","town_kana":"","prefecture_code":15},{"zip_code":"9500000","prefecture":"新潟県","prefecture_kana":"ニイガタケン","city":"新潟市西区","city_kana":"ニイガタシニシク","town":"","town_kana":"","prefecture_code":15},{"zip_code":"9500000","prefecture":"新潟県","prefecture_kana":"ニイガタケン","city":"新潟市西蒲区","city_kana":"ニイガタシニシカンク","town":"","town_kana":"","prefecture_code":15}],"3315":{"zip_code":"9503315","prefecture":"新潟県","prefecture_kana":"ニイガタケン","city":"新潟市北区","city_kana":"ニイガタシキタク","town":"朝日町","town_kana":"アサヒマチ","prefecture_code":15},"3377":{"zip_code":"9503377","prefecture":"新潟県","prefecture_kana":"ニイガタケン","city":"新潟市北区","city_kana":"ニイガタシキタク","town":"彩野","town_kana":"アヤノ","prefecture_code":15},"3327":{"zip_code":"9503327","prefecture":"新潟県","prefecture_kana":"ニイガタケン","city":"新潟市北区","city_kana":"ニイガタシキタク","town":"石動","town_kana":"イスルギ","prefecture_code":15},"3306":{"zip_code":"9503306","prefecture":"新潟県","prefecture_kana":"ニイガタケン","city":"新潟市北区","city_kana":"ニイガタシキタク","town":"内島見","town_kana":"ウチシマミ","prefecture_code":15},"3333":{"zip_code":"9503333","prefecture":"新潟県","prefecture_kana":"ニイガタケン","city":"新潟市北区","city_kana":"ニイガタシキタク","town":"内沼","town_kana":"ウチヌマ","prefecture_code":15},"3381":{"zip_code":"9503381","prefecture":"新潟県","prefecture_kana":"ニイガタケン","city":"新潟市北区","city_kana":"ニイガタシキタク","town":"内沼沖","town_kana":"ウチヌマオキ","prefecture_code":15},"3344":{"zip_code":"9503344","prefecture":"新潟県","prefecture_kana":"ニイガタケン","city":"新潟市北区","city_kana":"ニイガタシキタク","town":"浦木","town_kana":"ウラギ","prefecture_code":15},"3305":{"zip_code":"9503305","prefecture":"新潟県","prefecture_kana":"ニイガタケン","city":"新潟市北区","city_kana":"ニイガタシキタク","town":"浦ノ入","town_kana":"ウラノイリ","prefecture_code":15},"3363":{"zip_code":"9503363","prefecture":"新潟県","prefecture_kana":"ニイガタケン","city":"新潟市北区","city_kana":"ニイガタシキタク","town":"大久保","town_kana":"オオクボ","prefecture_code":15},"3351":{"zip_code":"9503351","prefecture":"新潟県","prefecture_kana":"ニイガタケン","city":"新潟市北区","city_kana":"ニイガタシキタク","town":"大瀬柳","town_kana":"オオセヤナギ","prefecture_code":15},"3313":{"zip_code":"9503313","prefecture":"新潟県","prefecture_kana":"ニイガタケン","city":"新潟市北区","city_kana":"ニイガタシキタク","town":"太田","town_kana":"オオタ","prefecture_code":15},"3334":{"zip_code":"9503334","prefecture":"新潟県","prefecture_kana":"ニイガタケン","city":"新潟市北区","city_kana":"ニイガタシキタク","town":"大月","town_kana":"オオヅキ","prefecture_code":15},"3364":{"zip_code":"9503364","prefecture":"新潟県","prefecture_kana":"ニイガタケン","city":"新潟市北区","city_kana":"ニイガタシキタク","town":"大迎","town_kana":"オオムカエ","prefecture_code":15},"3336":{"zip_code":"9503336","prefecture":"新潟県","prefecture_kana":"ニイガタケン","city":"新潟市北区","city_kana":"ニイガタシキタク","town":"岡新田","town_kana":"オカシンデン","prefecture_code":15},"3312":{"zip_code":"9503312","prefecture":"新潟県","prefecture_kana":"ニイガタケン","city":"新潟市北区","city_kana":"ニイガタシキタク","town":"笠柳","town_kana":"カサヤナギ","prefecture_code":15},"3317":{"zip_code":"9503317","prefecture":"新潟県","prefecture_kana":"ニイガタケン","city":"新潟市北区","city_kana":"ニイガタシキタク","town":"かぶとやま","town_kana":"カブトヤマ","prefecture_code":15},"3335":{"zip_code":"9503335","prefecture":"新潟県","prefecture_kana":"ニイガタケン","city":"新潟市北区","city_kana":"ニイガタシキタク","town":"上大月","town_kana":"カミオオヅキ","prefecture_code":15},"3343":{"zip_code":"9503343","prefecture":"新潟県","prefecture_kana":"ニイガタケン","city":"新潟市北区","city_kana":"ニイガタシキタク","town":"上土地亀","town_kana":"カミドチガメ","prefecture_code":15},"3355":{"zip_code":"9503355","prefecture":"新潟県","prefecture_kana":"ニイガタケン","city":"新潟市北区","city_kana":"ニイガタシキタク","town":"上堀田","town_kana":"カミホリダ","prefecture_code":15},"3116":{"zip_code":"9503116","prefecture":"新潟県","prefecture_kana":"ニイガタケン","city":"新潟市北区","city_kana":"ニイガタシキタク","town":"神谷内","town_kana":"カミヤチ","prefecture_code":15},"3322":{"zip_code":"9503322","prefecture":"新潟県","prefecture_kana":"ニイガタケン","city":"新潟市北区","city_kana":"ニイガタシキタク","town":"嘉山","town_kana":"カヤマ","prefecture_code":15},"3341":{"zip_code":"9503341","prefecture":"新潟県","prefecture_kana":"ニイガタケン","city":"新潟市北区","city_kana":"ニイガタシキタク","town":"川西","town_kana":"カワニシ","prefecture_code":15},"3304":{"zip_code":"9503304","prefecture":"新潟県","prefecture_kana":"ニイガタケン","city":"新潟市北区","city_kana":"ニイガタシキタク","town":"木崎","town_kana":"キザキ","prefecture_code":15},"3321":{"zip_code":"9503321","prefecture":"新潟県","prefecture_kana":"ニイガタケン","city":"新潟市北区","city_kana":"ニイガタシキタク","town":"葛塚","town_kana":"クズツカ","prefecture_code":15},"3360":{"zip_code":"9503360","prefecture":"新潟県","prefecture_kana":"ニイガタケン","city":"新潟市北区","city_kana":"ニイガタシキタク","town":"小杉","town_kana":"コスギ","prefecture_code":15},"3301":{"zip_code":"9503301","prefecture":"新潟県","prefecture_kana":"ニイガタケン","city":"新潟市北区","city_kana":"ニイガタシキタク","town":"笹山","town_kana":"ササヤマ","prefecture_code":15},"3337":{"zip_code":"9503337","prefecture":"新潟県","prefecture_kana":"ニイガタケン","city":"新潟市北区","city_kana":"ニイガタシキタク","town":"里飯野","town_kana":"サトイイノ","prefecture_code":15},"3124":{"zip_code":"9503124","prefecture":"新潟県","prefecture_kana":"ニイガタケン","city":"新潟市北区","city_kana":"ニイガタシキタク","town":"三軒屋町","town_kana":"サンゲンヤチョウ","prefecture_code":15},"3102":{"zip_code":"9503102","prefecture":"新潟県","prefecture_kana":"ニイガタケン","city":"新潟市北区","city_kana":"ニイガタシキタク","town":"島見町","town_kana":"シマミチョウ","prefecture_code":15},"3308":{"zip_code":"9503308","prefecture":"新潟県","prefecture_kana":"ニイガタケン","city":"新潟市北区","city_kana":"ニイガタシキタク","town":"下大谷内","town_kana":"シモオオヤチ","prefecture_code":15},"3346":{"zip_code":"9503346","prefecture":"新潟県","prefecture_kana":"ニイガタケン","city":"新潟市北区","city_kana":"ニイガタシキタク","town":"下土地亀","town_kana":"シモドチガメ","prefecture_code":15},"3371":{"zip_code":"9503371","prefecture":"新潟県","prefecture_kana":"ニイガタケン","city":"新潟市北区","city_kana":"ニイガタシキタク","town":"下早通","town_kana":"シモハヤドオリ","prefecture_code":15},"3354":{"zip_code":"9503354","prefecture":"新潟県","prefecture_kana":"ニイガタケン","city":"新潟市北区","city_kana":"ニイガタシキタク","town":"十二","town_kana":"ジュウニ","prefecture_code":15},"3359":{"zip_code":"9503359","prefecture":"新潟県","prefecture_kana":"ニイガタケン","city":"新潟市北区","city_kana":"ニイガタシキタク","town":"十二前","town_kana":"ジュウニマエ","prefecture_code":15},"3103":{"zip_code":"9503103","prefecture":"新潟県","prefecture_kana":"ニイガタケン","city":"新潟市北区","city_kana":"ニイガタシキタク","town":"白勢町","town_kana":"シロセチョウ","prefecture_code":15},"3105":{"zip_code":"9503105","prefecture":"新潟県","prefecture_kana":"ニイガタケン","city":"新潟市北区","city_kana":"ニイガタシキタク","town":"新富町","town_kana":"シントミチョウ","prefecture_code":15},"3331":{"zip_code":"9503331","prefecture":"新潟県","prefecture_kana":"ニイガタケン","city":"新潟市北区","city_kana":"ニイガタシキタク","town":"新鼻","town_kana":"シンバナ","prefecture_code":15},"3339":{"zip_code":"9503339","prefecture":"新潟県","prefecture_kana":"ニイガタケン","city":"新潟市北区","city_kana":"ニイガタシキタク","town":"新鼻乙","town_kana":"シンバナオツ","prefecture_code":15},"3332":{"zip_code":"9503332","prefecture":"新潟県","prefecture_kana":"ニイガタケン","city":"新潟市北区","city_kana":"ニイガタシキタク","town":"新鼻甲","town_kana":"シンバナコウ","prefecture_code":15},"3123":{"zip_code":"9503123","prefecture":"新潟県","prefecture_kana":"ニイガタケン","city":"新潟市北区","city_kana":"ニイガタシキタク","town":"新元島町","town_kana":"シンモトジマチョウ","prefecture_code":15},"3373":{"zip_code":"9503373","prefecture":"新潟県","prefecture_kana":"ニイガタケン","city":"新潟市北区","city_kana":"ニイガタシキタク","town":"須戸","town_kana":"スド","prefecture_code":15},"3133":{"zip_code":"9503133","prefecture":"新潟県","prefecture_kana":"ニイガタケン","city":"新潟市北区","city_kana":"ニイガタシキタク","town":"すみれ野","town_kana":"スミレノ","prefecture_code":15},"3365":{"zip_code":"9503365","prefecture":"新潟県","prefecture_kana":"ニイガタケン","city":"新潟市北区","city_kana":"ニイガタシキタク","town":"太子堂","town_kana":"タイシドウ","prefecture_code":15},"3367":{"zip_code":"9503367","prefecture":"新潟県","prefecture_kana":"ニイガタケン","city":"新潟市北区","city_kana":"ニイガタシキタク","town":"高森","town_kana":"タカモリ","prefecture_code":15},"3362":{"zip_code":"9503362","prefecture":"新潟県","prefecture_kana":"ニイガタケン","city":"新潟市北区","city_kana":"ニイガタシキタク","town":"高森新田","town_kana":"タカモリシンデン","prefecture_code":15},"3112":{"zip_code":"9503112","prefecture":"新潟県","prefecture_kana":"ニイガタケン","city":"新潟市北区","city_kana":"ニイガタシキタク","town":"太夫浜","town_kana":"タユウハマ","prefecture_code":15},"3111":{"zip_code":"9503111","prefecture":"新潟県","prefecture_kana":"ニイガタケン","city":"新潟市北区","city_kana":"ニイガタシキタク","town":"太夫浜新町","town_kana":"タユウハマシンマチ","prefecture_code":15},"3101":{"zip_code":"9503101","prefecture":"新潟県","prefecture_kana":"ニイガタケン","city":"新潟市北区","city_kana":"ニイガタシキタク","town":"太郎代","town_kana":"タロウダイ","prefecture_code":15},"3135":{"zip_code":"9503135","prefecture":"新潟県","prefecture_kana":"ニイガタケン","city":"新潟市北区","city_kana":"ニイガタシキタク","town":"つくし野","town_kana":"ツクシノ","prefecture_code":15},"3323":{"zip_code":"9503323","prefecture":"新潟県","prefecture_kana":"ニイガタケン","city":"新潟市北区","city_kana":"ニイガタシキタク","town":"東栄町","town_kana":"トウエイチョウ","prefecture_code":15},"3307":{"zip_code":"9503307","prefecture":"新潟県","prefecture_kana":"ニイガタケン","city":"新潟市北区","city_kana":"ニイガタシキタク","town":"樋ノ入","town_kana":"ドノイリ","prefecture_code":15},"3316":{"zip_code":"9503316","prefecture":"新潟県","prefecture_kana":"ニイガタケン","city":"新潟市北区","city_kana":"ニイガタシキタク","town":"鳥屋","town_kana":"トヤ","prefecture_code":15},"3345":{"zip_code":"9503345","prefecture":"新潟県","prefecture_kana":"ニイガタケン","city":"新潟市北区","city_kana":"ニイガタシキタク","town":"長戸","town_kana":"ナガト","prefecture_code":15},"3353":{"zip_code":"9503353","prefecture":"新潟県","prefecture_kana":"ニイガタケン","city":"新潟市北区","city_kana":"ニイガタシキタク","town":"長戸呂","town_kana":"ナガトロ","prefecture_code":15},"3352":{"zip_code":"9503352","prefecture":"新潟県","prefecture_kana":"ニイガタケン","city":"新潟市北区","city_kana":"ニイガタシキタク","town":"長戸呂新田","town_kana":"ナガトロシンデン","prefecture_code":15},"3338":{"zip_code":"9503338","prefecture":"新潟県","prefecture_kana":"ニイガタケン","city":"新潟市北区","city_kana":"ニイガタシキタク","town":"長場","town_kana":"ナガバ","prefecture_code":15},"3114":{"zip_code":"9503114","prefecture":"新潟県","prefecture_kana":"ニイガタケン","city":"新潟市北区","city_kana":"ニイガタシキタク","town":"名目所","town_kana":"ナメトコロ","prefecture_code":15},"3361":{"zip_code":"9503361","prefecture":"新潟県","prefecture_kana":"ニイガタケン","city":"新潟市北区","city_kana":"ニイガタシキタク","town":"新井郷","town_kana":"ニイゴウ","prefecture_code":15},"3134":{"zip_code":"9503134","prefecture":"新潟県","prefecture_kana":"ニイガタケン","city":"新潟市北区","city_kana":"ニイガタシキタク","town":"新崎","town_kana":"ニイザキ","prefecture_code":15},"3131":{"zip_code":"9503131","prefecture":"新潟県","prefecture_kana":"ニイガタケン","city":"新潟市北区","city_kana":"ニイガタシキタク","town":"濁川","town_kana":"ニゴリカワ","prefecture_code":15},"3122":{"zip_code":"9503122","prefecture":"新潟県","prefecture_kana":"ニイガタケン","city":"新潟市北区","city_kana":"ニイガタシキタク","town":"西名目所","town_kana":"ニシナメトコロ","prefecture_code":15},"3358":{"zip_code":"9503358","prefecture":"新潟県","prefecture_kana":"ニイガタケン","city":"新潟市北区","city_kana":"ニイガタシキタク","town":"灰塚","town_kana":"ハイズカ","prefecture_code":15},"3325":{"zip_code":"9503325","prefecture":"新潟県","prefecture_kana":"ニイガタケン","city":"新潟市北区","city_kana":"ニイガタシキタク","town":"白新町","town_kana":"ハクシンチョウ","prefecture_code":15},"3302":{"zip_code":"9503302","prefecture":"新潟県","prefecture_kana":"ニイガタケン","city":"新潟市北区","city_kana":"ニイガタシキタク","town":"浜浦","town_kana":"ハマウラ","prefecture_code":15},"3372":{"zip_code":"9503372","prefecture":"新潟県","prefecture_kana":"ニイガタケン","city":"新潟市北区","city_kana":"ニイガタシキタク","town":"早通","town_kana":"ハヤドオリ","prefecture_code":15},"3376":{"zip_code":"9503376","prefecture":"新潟県","prefecture_kana":"ニイガタケン","city":"新潟市北区","city_kana":"ニイガタシキタク","town":"早通北","town_kana":"ハヤドオリキタ","prefecture_code":15},"3375":{"zip_code":"9503375","prefecture":"新潟県","prefecture_kana":"ニイガタケン","city":"新潟市北区","city_kana":"ニイガタシキタク","town":"早通南","town_kana":"ハヤドオリミナミ","prefecture_code":15},"3104":{"zip_code":"9503104","prefecture":"新潟県","prefecture_kana":"ニイガタケン","city":"新潟市北区","city_kana":"ニイガタシキタク","town":"東栄町","town_kana":"ヒガシサカエマチ","prefecture_code":15},"3357":{"zip_code":"9503357","prefecture":"新潟県","prefecture_kana":"ニイガタケン","city":"新潟市北区","city_kana":"ニイガタシキタク","town":"平林","town_kana":"ヒラバヤシ","prefecture_code":15},"3374":{"zip_code":"9503374","prefecture":"新潟県","prefecture_kana":"ニイガタケン","city":"新潟市北区","city_kana":"ニイガタシキタク","town":"仏伝","town_kana":"ブツデン","prefecture_code":15},"3309":{"zip_code":"9503309","prefecture":"新潟県","prefecture_kana":"ニイガタケン","city":"新潟市北区","city_kana":"ニイガタシキタク","town":"北陽","town_kana":"ホクヨウ","prefecture_code":15},"0102":[{"zip_code":"9500102","prefecture":"新潟県","prefecture_kana":"ニイガタケン","city":"新潟市北区","city_kana":"ニイガタシキタク","town":"細山","town_kana":"ホソヤマ","prefecture_code":15},{"zip_code":"9500102","prefecture":"新潟県","prefecture_kana":"ニイガタケン","city":"新潟市江南区","city_kana":"ニイガタシコウナンク","town":"細山","town_kana":"ホソヤマ","prefecture_code":15}],"3324":{"zip_code":"9503324","prefecture":"新潟県","prefecture_kana":"ニイガタケン","city":"新潟市北区","city_kana":"ニイガタシキタク","town":"前新田","town_kana":"マエシンデン","prefecture_code":15},"3328":{"zip_code":"9503328","prefecture":"新潟県","prefecture_kana":"ニイガタケン","city":"新潟市北区","city_kana":"ニイガタシキタク","town":"前新田沖","town_kana":"マエシンデンオキ","prefecture_code":15},"3113":{"zip_code":"9503113","prefecture":"新潟県","prefecture_kana":"ニイガタケン","city":"新潟市北区","city_kana":"ニイガタシキタク","town":"松栄町","town_kana":"マツエイチョウ","prefecture_code":15},"3132":{"zip_code":"9503132","prefecture":"新潟県","prefecture_kana":"ニイガタケン","city":"新潟市北区","city_kana":"ニイガタシキタク","town":"松潟","town_kana":"マツカタ","prefecture_code":15},"3126":{"zip_code":"9503126","prefecture":"新潟県","prefecture_kana":"ニイガタケン","city":"新潟市北区","city_kana":"ニイガタシキタク","town":"松浜","town_kana":"マツハマ","prefecture_code":15},"3115":{"zip_code":"9503115","prefecture":"新潟県","prefecture_kana":"ニイガタケン","city":"新潟市北区","city_kana":"ニイガタシキタク","town":"松浜新町","town_kana":"マツハマシンマチ","prefecture_code":15},"3121":{"zip_code":"9503121","prefecture":"新潟県","prefecture_kana":"ニイガタケン","city":"新潟市北区","city_kana":"ニイガタシキタク","town":"松浜町","town_kana":"マツハマチョウ","prefecture_code":15},"3128":{"zip_code":"9503128","prefecture":"新潟県","prefecture_kana":"ニイガタケン","city":"新潟市北区","city_kana":"ニイガタシキタク","town":"松浜東町","town_kana":"マツハマヒガシマチ","prefecture_code":15},"3125":{"zip_code":"9503125","prefecture":"新潟県","prefecture_kana":"ニイガタケン","city":"新潟市北区","city_kana":"ニイガタシキタク","town":"松浜本町","town_kana":"マツハマホンチョウ","prefecture_code":15},"3127":{"zip_code":"9503127","prefecture":"新潟県","prefecture_kana":"ニイガタケン","city":"新潟市北区","city_kana":"ニイガタシキタク","town":"松浜みなと","town_kana":"マツハマミナト","prefecture_code":15},"3342":{"zip_code":"9503342","prefecture":"新潟県","prefecture_kana":"ニイガタケン","city":"新潟市北区","city_kana":"ニイガタシキタク","town":"美里","town_kana":"ミサト","prefecture_code":15},"3369":{"zip_code":"9503369","prefecture":"新潟県","prefecture_kana":"ニイガタケン","city":"新潟市北区","city_kana":"ニイガタシキタク","town":"三ツ森川原","town_kana":"ミツモリカワラ","prefecture_code":15},"3366":{"zip_code":"9503366","prefecture":"新潟県","prefecture_kana":"ニイガタケン","city":"新潟市北区","city_kana":"ニイガタシキタク","town":"三ツ屋","town_kana":"ミツヤ","prefecture_code":15},"3314":{"zip_code":"9503314","prefecture":"新潟県","prefecture_kana":"ニイガタケン","city":"新潟市北区","city_kana":"ニイガタシキタク","town":"村新田","town_kana":"ムラシンデン","prefecture_code":15},"3368":{"zip_code":"9503368","prefecture":"新潟県","prefecture_kana":"ニイガタケン","city":"新潟市北区","city_kana":"ニイガタシキタク","town":"森下","town_kana":"モリシタ","prefecture_code":15},"3326":{"zip_code":"9503326","prefecture":"新潟県","prefecture_kana":"ニイガタケン","city":"新潟市北区","city_kana":"ニイガタシキタク","town":"柳原","town_kana":"ヤナギハラ","prefecture_code":15},"3356":{"zip_code":"9503356","prefecture":"新潟県","prefecture_kana":"ニイガタケン","city":"新潟市北区","city_kana":"ニイガタシキタク","town":"山飯野","town_kana":"ヤマイイノ","prefecture_code":15},"3311":{"zip_code":"9503311","prefecture":"新潟県","prefecture_kana":"ニイガタケン","city":"新潟市北区","city_kana":"ニイガタシキタク","town":"横井","town_kana":"ヨコイ","prefecture_code":15},"3350":{"zip_code":"9503350","prefecture":"新潟県","prefecture_kana":"ニイガタケン","city":"新潟市北区","city_kana":"ニイガタシキタク","town":"横越","town_kana":"ヨコゴシ","prefecture_code":15},"3303":{"zip_code":"9503303","prefecture":"新潟県","prefecture_kana":"ニイガタケン","city":"新潟市北区","city_kana":"ニイガタシキタク","town":"横土居","town_kana":"ヨコドイ","prefecture_code":15},"0054":{"zip_code":"9500054","prefecture":"新潟県","prefecture_kana":"ニイガタケン","city":"新潟市東区","city_kana":"ニイガタシヒガシク","town":"秋葉","town_kana":"アキバ","prefecture_code":15},"0052":{"zip_code":"9500052","prefecture":"新潟県","prefecture_kana":"ニイガタケン","city":"新潟市東区","city_kana":"ニイガタシヒガシク","town":"秋葉通","town_kana":"アキバドオリ","prefecture_code":15},"0843":[{"zip_code":"9500843","prefecture":"新潟県","prefecture_kana":"ニイガタケン","city":"新潟市東区","city_kana":"ニイガタシヒガシク","town":"粟山","town_kana":"アワヤマ","prefecture_code":15},{"zip_code":"9500843","prefecture":"新潟県","prefecture_kana":"ニイガタケン","city":"新潟市江南区","city_kana":"ニイガタシコウナンク","town":"粟山","town_kana":"アワヤマ","prefecture_code":15}],"0852":{"zip_code":"9500852","prefecture":"新潟県","prefecture_kana":"ニイガタケン","city":"新潟市東区","city_kana":"ニイガタシヒガシク","town":"石山","town_kana":"イシヤマ","prefecture_code":15},"0834":{"zip_code":"9500834","prefecture":"新潟県","prefecture_kana":"ニイガタケン","city":"新潟市東区","city_kana":"ニイガタシヒガシク","town":"石山団地","town_kana":"イシヤマダンチ","prefecture_code":15},"0805":{"zip_code":"9500805","prefecture":"新潟県","prefecture_kana":"ニイガタケン","city":"新潟市東区","city_kana":"ニイガタシヒガシク","town":"石動","town_kana":"イスルギ","prefecture_code":15},"0101":[{"zip_code":"9500101","prefecture":"新潟県","prefecture_kana":"ニイガタケン","city":"新潟市東区","city_kana":"ニイガタシヒガシク","town":"江口","town_kana":"エグチ","prefecture_code":15},{"zip_code":"9500101","prefecture":"新潟県","prefecture_kana":"ニイガタケン","city":"新潟市江南区","city_kana":"ニイガタシコウナンク","town":"江口","town_kana":"エグチ","prefecture_code":15}],"0884":{"zip_code":"9500884","prefecture":"新潟県","prefecture_kana":"ニイガタケン","city":"新潟市東区","city_kana":"ニイガタシヒガシク","town":"榎","town_kana":"エノキ","prefecture_code":15},"0881":{"zip_code":"9500881","prefecture":"新潟県","prefecture_kana":"ニイガタケン","city":"新潟市東区","city_kana":"ニイガタシヒガシク","town":"榎町","town_kana":"エノキチョウ","prefecture_code":15},"0806":{"zip_code":"9500806","prefecture":"新潟県","prefecture_kana":"ニイガタケン","city":"新潟市東区","city_kana":"ニイガタシヒガシク","town":"海老ケ瀬","town_kana":"エビガセ","prefecture_code":15},"0808":{"zip_code":"9500808","prefecture":"新潟県","prefecture_kana":"ニイガタケン","city":"新潟市東区","city_kana":"ニイガタシヒガシク","town":"海老ケ瀬新町","town_kana":"エビガセシンマチ","prefecture_code":15},"0882":{"zip_code":"9500882","prefecture":"新潟県","prefecture_kana":"ニイガタケン","city":"新潟市東区","city_kana":"ニイガタシヒガシク","town":"王瀬新町","town_kana":"オウセシンマチ","prefecture_code":15},"0814":{"zip_code":"9500814","prefecture":"新潟県","prefecture_kana":"ニイガタケン","city":"新潟市東区","city_kana":"ニイガタシヒガシク","town":"逢谷内","town_kana":"オウヤチ","prefecture_code":15},"0813":{"zip_code":"9500813","prefecture":"新潟県","prefecture_kana":"ニイガタケン","city":"新潟市東区","city_kana":"ニイガタシヒガシク","town":"大形本町","town_kana":"オオガタホンチョウ","prefecture_code":15},"0067":{"zip_code":"9500067","prefecture":"新潟県","prefecture_kana":"ニイガタケン","city":"新潟市東区","city_kana":"ニイガタシヒガシク","town":"大山","town_kana":"オオヤマ","prefecture_code":15},"0821":{"zip_code":"9500821","prefecture":"新潟県","prefecture_kana":"ニイガタケン","city":"新潟市東区","city_kana":"ニイガタシヒガシク","town":"岡山","town_kana":"オカヤマ","prefecture_code":15},"0863":{"zip_code":"9500863","prefecture":"新潟県","prefecture_kana":"ニイガタケン","city":"新潟市東区","city_kana":"ニイガタシヒガシク","town":"卸新町","town_kana":"オロシシンマチ","prefecture_code":15},"0063":{"zip_code":"9500063","prefecture":"新潟県","prefecture_kana":"ニイガタケン","city":"新潟市東区","city_kana":"ニイガタシヒガシク","town":"上王瀬町","town_kana":"カミオウセマチ","prefecture_code":15},"0891":{"zip_code":"9500891","prefecture":"新潟県","prefecture_kana":"ニイガタケン","city":"新潟市東区","city_kana":"ニイガタシヒガシク","town":"上木戸","town_kana":"カミキド","prefecture_code":15},"0161":[{"zip_code":"9500161","prefecture":"新潟県","prefecture_kana":"ニイガタケン","city":"新潟市東区","city_kana":"ニイガタシヒガシク","town":"亀田中島","town_kana":"カメダナカジマ","prefecture_code":15},{"zip_code":"9500161","prefecture":"新潟県","prefecture_kana":"ニイガタケン","city":"新潟市江南区","city_kana":"ニイガタシコウナンク","town":"亀田中島","town_kana":"カメダナカジマ","prefecture_code":15}],"0883":{"zip_code":"9500883","prefecture":"新潟県","prefecture_kana":"ニイガタケン","city":"新潟市東区","city_kana":"ニイガタシヒガシク","town":"鴎島町","town_kana":"カモメジマチョウ","prefecture_code":15},"0055":{"zip_code":"9500055","prefecture":"新潟県","prefecture_kana":"ニイガタケン","city":"新潟市東区","city_kana":"ニイガタシヒガシク","town":"北葉町","town_kana":"キタバチョウ","prefecture_code":15},"0116":[{"zip_code":"9500116","prefecture":"新潟県","prefecture_kana":"ニイガタケン","city":"新潟市東区","city_kana":"ニイガタシヒガシク","town":"北山","town_kana":"キタヤマ","prefecture_code":15},{"zip_code":"9500116","prefecture":"新潟県","prefecture_kana":"ニイガタケン","city":"新潟市江南区","city_kana":"ニイガタシコウナンク","town":"北山","town_kana":"キタヤマ","prefecture_code":15}],"0036":{"zip_code":"9500036","prefecture":"新潟県","prefecture_kana":"ニイガタケン","city":"新潟市東区","city_kana":"ニイガタシヒガシク","town":"空港西","town_kana":"クウコウニシ","prefecture_code":15},"0831":{"zip_code":"9500831","prefecture":"新潟県","prefecture_kana":"ニイガタケン","city":"新潟市東区","city_kana":"ニイガタシヒガシク","town":"下場","town_kana":"ゲバ","prefecture_code":15},"0832":{"zip_code":"9500832","prefecture":"新潟県","prefecture_kana":"ニイガタケン","city":"新潟市東区","city_kana":"ニイガタシヒガシク","town":"下場新町","town_kana":"ゲバシンマチ","prefecture_code":15},"0833":{"zip_code":"9500833","prefecture":"新潟県","prefecture_kana":"ニイガタケン","city":"新潟市東区","city_kana":"ニイガタシヒガシク","town":"下場本町","town_kana":"ゲバホンチョウ","prefecture_code":15},"0022":{"zip_code":"9500022","prefecture":"新潟県","prefecture_kana":"ニイガタケン","city":"新潟市東区","city_kana":"ニイガタシヒガシク","town":"幸栄","town_kana":"コウエイ","prefecture_code":15},"0024":{"zip_code":"9500024","prefecture":"新潟県","prefecture_kana":"ニイガタケン","city":"新潟市東区","city_kana":"ニイガタシヒガシク","town":"河渡","town_kana":"コウド","prefecture_code":15},"0015":{"zip_code":"9500015","prefecture":"新潟県","prefecture_kana":"ニイガタケン","city":"新潟市東区","city_kana":"ニイガタシヒガシク","town":"河渡庚","town_kana":"コウドカノエ","prefecture_code":15},"0032":{"zip_code":"9500032","prefecture":"新潟県","prefecture_kana":"ニイガタケン","city":"新潟市東区","city_kana":"ニイガタシヒガシク","town":"河渡甲","town_kana":"コウドコウ","prefecture_code":15},"0033":{"zip_code":"9500033","prefecture":"新潟県","prefecture_kana":"ニイガタケン","city":"新潟市東区","city_kana":"ニイガタシヒガシク","town":"河渡新町","town_kana":"コウドシンマチ","prefecture_code":15},"0016":{"zip_code":"9500016","prefecture":"新潟県","prefecture_kana":"ニイガタケン","city":"新潟市東区","city_kana":"ニイガタシヒガシク","town":"河渡本町","town_kana":"コウドホンチョウ","prefecture_code":15},"0855":{"zip_code":"9500855","prefecture":"新潟県","prefecture_kana":"ニイガタケン","city":"新潟市東区","city_kana":"ニイガタシヒガシク","town":"江南","town_kana":"コウナン","prefecture_code":15},"0011":{"zip_code":"9500011","prefecture":"新潟県","prefecture_kana":"ニイガタケン","city":"新潟市東区","city_kana":"ニイガタシヒガシク","town":"向陽","town_kana":"コウヨウ","prefecture_code":15},"0028":{"zip_code":"9500028","prefecture":"新潟県","prefecture_kana":"ニイガタケン","city":"新潟市東区","city_kana":"ニイガタシヒガシク","town":"小金台","town_kana":"コガネダイ","prefecture_code":15},"0026":{"zip_code":"9500026","prefecture":"新潟県","prefecture_kana":"ニイガタケン","city":"新潟市東区","city_kana":"ニイガタシヒガシク","town":"小金町","town_kana":"コガネチョウ","prefecture_code":15},"0811":{"zip_code":"9500811","prefecture":"新潟県","prefecture_kana":"ニイガタケン","city":"新潟市東区","city_kana":"ニイガタシヒガシク","town":"材木町","town_kana":"ザイモクチョウ","prefecture_code":15},"0835":{"zip_code":"9500835","prefecture":"新潟県","prefecture_kana":"ニイガタケン","city":"新潟市東区","city_kana":"ニイガタシヒガシク","town":"猿ケ馬場","town_kana":"サルガババ","prefecture_code":15},"0003":{"zip_code":"9500003","prefecture":"新潟県","prefecture_kana":"ニイガタケン","city":"新潟市東区","city_kana":"ニイガタシヒガシク","town":"下山","town_kana":"シタヤマ","prefecture_code":15},"0864":[{"zip_code":"9500864","prefecture":"新潟県","prefecture_kana":"ニイガタケン","city":"新潟市東区","city_kana":"ニイガタシヒガシク","town":"紫竹","town_kana":"シチク","prefecture_code":15},{"zip_code":"9500864","prefecture":"新潟県","prefecture_kana":"ニイガタケン","city":"新潟市中央区","city_kana":"ニイガタシチュウオウク","town":"紫竹","town_kana":"シチク","prefecture_code":15}],"0868":{"zip_code":"9500868","prefecture":"新潟県","prefecture_kana":"ニイガタケン","city":"新潟市東区","city_kana":"ニイガタシヒガシク","town":"紫竹卸新町","town_kana":"シチクオロシシンマチ","prefecture_code":15},"0914":[{"zip_code":"9500914","prefecture":"新潟県","prefecture_kana":"ニイガタケン","city":"新潟市東区","city_kana":"ニイガタシヒガシク","town":"紫竹山","town_kana":"シチクヤマ","prefecture_code":15},{"zip_code":"9500914","prefecture":"新潟県","prefecture_kana":"ニイガタケン","city":"新潟市中央区","city_kana":"ニイガタシチュウオウク","town":"紫竹山","town_kana":"シチクヤマ","prefecture_code":15}],"0885":{"zip_code":"9500885","prefecture":"新潟県","prefecture_kana":"ニイガタケン","city":"新潟市東区","city_kana":"ニイガタシヒガシク","town":"下木戸","town_kana":"シモキド","prefecture_code":15},"0013":{"zip_code":"9500013","prefecture":"新潟県","prefecture_kana":"ニイガタケン","city":"新潟市東区","city_kana":"ニイガタシヒガシク","town":"白銀","town_kana":"シロガネ","prefecture_code":15},"0851":{"zip_code":"9500851","prefecture":"新潟県","prefecture_kana":"ニイガタケン","city":"新潟市東区","city_kana":"ニイガタシヒガシク","town":"新石山","town_kana":"シンイシヤマ","prefecture_code":15},"0822":{"zip_code":"9500822","prefecture":"新潟県","prefecture_kana":"ニイガタケン","city":"新潟市東区","city_kana":"ニイガタシヒガシク","town":"新岡山","town_kana":"シンオカヤマ","prefecture_code":15},"0004":{"zip_code":"9500004","prefecture":"新潟県","prefecture_kana":"ニイガタケン","city":"新潟市東区","city_kana":"ニイガタシヒガシク","town":"新川町","town_kana":"シンカワチョウ","prefecture_code":15},"0017":{"zip_code":"9500017","prefecture":"新潟県","prefecture_kana":"ニイガタケン","city":"新潟市東区","city_kana":"ニイガタシヒガシク","town":"新松崎","town_kana":"シンマツサキ","prefecture_code":15},"0045":{"zip_code":"9500045","prefecture":"新潟県","prefecture_kana":"ニイガタケン","city":"新潟市東区","city_kana":"ニイガタシヒガシク","town":"神明町","town_kana":"シンメイチョウ","prefecture_code":15},"0071":{"zip_code":"9500071","prefecture":"新潟県","prefecture_kana":"ニイガタケン","city":"新潟市東区","city_kana":"ニイガタシヒガシク","town":"末広町","town_kana":"スエヒロチョウ","prefecture_code":15},"0005":{"zip_code":"9500005","prefecture":"新潟県","prefecture_kana":"ニイガタケン","city":"新潟市東区","city_kana":"ニイガタシヒガシク","town":"太平","town_kana":"タイヘイ","prefecture_code":15},"0053":{"zip_code":"9500053","prefecture":"新潟県","prefecture_kana":"ニイガタケン","city":"新潟市東区","city_kana":"ニイガタシヒガシク","town":"宝町","town_kana":"タカラマチ","prefecture_code":15},"0862":{"zip_code":"9500862","prefecture":"新潟県","prefecture_kana":"ニイガタケン","city":"新潟市東区","city_kana":"ニイガタシヒガシク","town":"竹尾","town_kana":"タケオ","prefecture_code":15},"0867":{"zip_code":"9500867","prefecture":"新潟県","prefecture_kana":"ニイガタケン","city":"新潟市東区","city_kana":"ニイガタシヒガシク","town":"竹尾卸新町","town_kana":"タケオオロシシンマチ","prefecture_code":15},"0825":{"zip_code":"9500825","prefecture":"新潟県","prefecture_kana":"ニイガタケン","city":"新潟市東区","city_kana":"ニイガタシヒガシク","town":"児池","town_kana":"チゴイケ","prefecture_code":15},"0066":{"zip_code":"9500066","prefecture":"新潟県","prefecture_kana":"ニイガタケン","city":"新潟市東区","city_kana":"ニイガタシヒガシク","town":"長者町","town_kana":"チョウジャマチ","prefecture_code":15},"0061":{"zip_code":"9500061","prefecture":"新潟県","prefecture_kana":"ニイガタケン","city":"新潟市東区","city_kana":"ニイガタシヒガシク","town":"月見町","town_kana":"ツキミチョウ","prefecture_code":15},"0801":{"zip_code":"9500801","prefecture":"新潟県","prefecture_kana":"ニイガタケン","city":"新潟市東区","city_kana":"ニイガタシヒガシク","town":"津島屋","town_kana":"ツシマヤ","prefecture_code":15},"0892":{"zip_code":"9500892","prefecture":"新潟県","prefecture_kana":"ニイガタケン","city":"新潟市東区","city_kana":"ニイガタシヒガシク","town":"寺山","town_kana":"テラヤマ","prefecture_code":15},"0065":{"zip_code":"9500065","prefecture":"新潟県","prefecture_kana":"ニイガタケン","city":"新潟市東区","city_kana":"ニイガタシヒガシク","town":"東新町","town_kana":"トウシンチョウ","prefecture_code":15},"0853":{"zip_code":"9500853","prefecture":"新潟県","prefecture_kana":"ニイガタケン","city":"新潟市東区","city_kana":"ニイガタシヒガシク","town":"東明","town_kana":"トウメイ","prefecture_code":15},"0886":{"zip_code":"9500886","prefecture":"新潟県","prefecture_kana":"ニイガタケン","city":"新潟市東区","city_kana":"ニイガタシヒガシク","town":"中木戸","town_kana":"ナカキド","prefecture_code":15},"0803":{"zip_code":"9500803","prefecture":"新潟県","prefecture_kana":"ニイガタケン","city":"新潟市東区","city_kana":"ニイガタシヒガシク","town":"中興野","town_kana":"ナカゴウヤ","prefecture_code":15},"0824":{"zip_code":"9500824","prefecture":"新潟県","prefecture_kana":"ニイガタケン","city":"新潟市東区","city_kana":"ニイガタシヒガシク","town":"中島","town_kana":"ナカジマ","prefecture_code":15},"0841":[{"zip_code":"9500841","prefecture":"新潟県","prefecture_kana":"ニイガタケン","city":"新潟市東区","city_kana":"ニイガタシヒガシク","town":"中野山","town_kana":"ナカノヤマ","prefecture_code":15},{"zip_code":"9500841","prefecture":"新潟県","prefecture_kana":"ニイガタケン","city":"新潟市江南区","city_kana":"ニイガタシコウナンク","town":"中野山","town_kana":"ナカノヤマ","prefecture_code":15}],"0861":{"zip_code":"9500861","prefecture":"新潟県","prefecture_kana":"ニイガタケン","city":"新潟市東区","city_kana":"ニイガタシヒガシク","town":"中山","town_kana":"ナカヤマ","prefecture_code":15},"0062":{"zip_code":"9500062","prefecture":"新潟県","prefecture_kana":"ニイガタケン","city":"新潟市東区","city_kana":"ニイガタシヒガシク","town":"錦町","town_kana":"ニシキマチ","prefecture_code":15},"0106":[{"zip_code":"9500106","prefecture":"新潟県","prefecture_kana":"ニイガタケン","city":"新潟市東区","city_kana":"ニイガタシヒガシク","town":"西野","town_kana":"ニシノ","prefecture_code":15},{"zip_code":"9500106","prefecture":"新潟県","prefecture_kana":"ニイガタケン","city":"新潟市江南区","city_kana":"ニイガタシコウナンク","town":"西野","town_kana":"ニシノ","prefecture_code":15}],"0002":{"zip_code":"9500002","prefecture":"新潟県","prefecture_kana":"ニイガタケン","city":"新潟市東区","city_kana":"ニイガタシヒガシク","town":"根室新町","town_kana":"ネムロシンマチ","prefecture_code":15},"0893":{"zip_code":"9500893","prefecture":"新潟県","prefecture_kana":"ニイガタケン","city":"新潟市東区","city_kana":"ニイガタシヒガシク","town":"はなみずき","town_kana":"ハナミズキ","prefecture_code":15},"0046":{"zip_code":"9500046","prefecture":"新潟県","prefecture_kana":"ニイガタケン","city":"新潟市東区","city_kana":"ニイガタシヒガシク","town":"浜町","town_kana":"ハマチョウ","prefecture_code":15},"0034":{"zip_code":"9500034","prefecture":"新潟県","prefecture_kana":"ニイガタケン","city":"新潟市東区","city_kana":"ニイガタシヒガシク","town":"浜谷町","town_kana":"ハマヤチョウ","prefecture_code":15},"0823":{"zip_code":"9500823","prefecture":"新潟県","prefecture_kana":"ニイガタケン","city":"新潟市東区","city_kana":"ニイガタシヒガシク","town":"東中島","town_kana":"ヒガシナカジマ","prefecture_code":15},"0836":{"zip_code":"9500836","prefecture":"新潟県","prefecture_kana":"ニイガタケン","city":"新潟市東区","city_kana":"ニイガタシヒガシク","town":"東中野山","town_kana":"ヒガシナカノヤマ","prefecture_code":15},"0042":{"zip_code":"9500042","prefecture":"新潟県","prefecture_kana":"ニイガタケン","city":"新潟市東区","city_kana":"ニイガタシヒガシク","town":"東臨港町","town_kana":"ヒガシリンコウチョウ","prefecture_code":15},"0802":{"zip_code":"9500802","prefecture":"新潟県","prefecture_kana":"ニイガタケン","city":"新潟市東区","city_kana":"ニイガタシヒガシク","town":"一日市","town_kana":"ヒトイチ","prefecture_code":15},"0025":{"zip_code":"9500025","prefecture":"新潟県","prefecture_kana":"ニイガタケン","city":"新潟市東区","city_kana":"ニイガタシヒガシク","town":"藤見町","town_kana":"フジミチョウ","prefecture_code":15},"0031":{"zip_code":"9500031","prefecture":"新潟県","prefecture_kana":"ニイガタケン","city":"新潟市東区","city_kana":"ニイガタシヒガシク","town":"船江町","town_kana":"フナエチョウ","prefecture_code":15},"0056":{"zip_code":"9500056","prefecture":"新潟県","prefecture_kana":"ニイガタケン","city":"新潟市東区","city_kana":"ニイガタシヒガシク","town":"古川町","town_kana":"フルカワチョウ","prefecture_code":15},"0044":{"zip_code":"9500044","prefecture":"新潟県","prefecture_kana":"ニイガタケン","city":"新潟市東区","city_kana":"ニイガタシヒガシク","town":"古湊町","town_kana":"フルミナトマチ","prefecture_code":15},"0035":{"zip_code":"9500035","prefecture":"新潟県","prefecture_kana":"ニイガタケン","city":"新潟市東区","city_kana":"ニイガタシヒガシク","town":"平和町","town_kana":"ヘイワチョウ","prefecture_code":15},"0872":{"zip_code":"9500872","prefecture":"新潟県","prefecture_kana":"ニイガタケン","city":"新潟市東区","city_kana":"ニイガタシヒガシク","town":"牡丹山","town_kana":"ボタンヤマ","prefecture_code":15},"0804":{"zip_code":"9500804","prefecture":"新潟県","prefecture_kana":"ニイガタケン","city":"新潟市東区","city_kana":"ニイガタシヒガシク","town":"本所","town_kana":"ホンジョ","prefecture_code":15},"0014":{"zip_code":"9500014","prefecture":"新潟県","prefecture_kana":"ニイガタケン","city":"新潟市東区","city_kana":"ニイガタシヒガシク","town":"松崎","town_kana":"マツサキ","prefecture_code":15},"0064":{"zip_code":"9500064","prefecture":"新潟県","prefecture_kana":"ニイガタケン","city":"新潟市東区","city_kana":"ニイガタシヒガシク","town":"松島","town_kana":"マツシマ","prefecture_code":15},"0023":{"zip_code":"9500023","prefecture":"新潟県","prefecture_kana":"ニイガタケン","city":"新潟市東区","city_kana":"ニイガタシヒガシク","town":"松園","town_kana":"マツゾノ","prefecture_code":15},"0001":{"zip_code":"9500001","prefecture":"新潟県","prefecture_kana":"ニイガタケン","city":"新潟市東区","city_kana":"ニイガタシヒガシク","town":"松浜町","town_kana":"マツハマチョウ","prefecture_code":15},"0027":{"zip_code":"9500027","prefecture":"新潟県","prefecture_kana":"ニイガタケン","city":"新潟市東区","city_kana":"ニイガタシヒガシク","town":"松和町","town_kana":"マツワチョウ","prefecture_code":15},"0854":{"zip_code":"9500854","prefecture":"新潟県","prefecture_kana":"ニイガタケン","city":"新潟市東区","city_kana":"ニイガタシヒガシク","town":"南紫竹","town_kana":"ミナミシチク","prefecture_code":15},"0842":{"zip_code":"9500842","prefecture":"新潟県","prefecture_kana":"ニイガタケン","city":"新潟市東区","city_kana":"ニイガタシヒガシク","town":"もえぎ野","town_kana":"モエギノ","prefecture_code":15},"0807":{"zip_code":"9500807","prefecture":"新潟県","prefecture_kana":"ニイガタケン","city":"新潟市東区","city_kana":"ニイガタシヒガシク","town":"木工新町","town_kana":"モッコウシンマチ","prefecture_code":15},"0021":{"zip_code":"9500021","prefecture":"新潟県","prefecture_kana":"ニイガタケン","city":"新潟市東区","city_kana":"ニイガタシヒガシク","town":"物見山","town_kana":"モノミヤマ","prefecture_code":15},"0051":{"zip_code":"9500051","prefecture":"新潟県","prefecture_kana":"ニイガタケン","city":"新潟市東区","city_kana":"ニイガタシヒガシク","town":"桃山町","town_kana":"モモヤマチョウ","prefecture_code":15},"0809":{"zip_code":"9500809","prefecture":"新潟県","prefecture_kana":"ニイガタケン","city":"新潟市東区","city_kana":"ニイガタシヒガシク","town":"柳ケ丘","town_kana":"ヤナギガオカ","prefecture_code":15},"0871":[{"zip_code":"9500871","prefecture":"新潟県","prefecture_kana":"ニイガタケン","city":"新潟市東区","city_kana":"ニイガタシヒガシク","town":"山木戸","town_kana":"ヤマキド","prefecture_code":15},{"zip_code":"9500871","prefecture":"新潟県","prefecture_kana":"ニイガタケン","city":"新潟市中央区","city_kana":"ニイガタシチュウオウク","town":"山木戸","town_kana":"ヤマキド","prefecture_code":15}],"0057":{"zip_code":"9500057","prefecture":"新潟県","prefecture_kana":"ニイガタケン","city":"新潟市東区","city_kana":"ニイガタシヒガシク","town":"山の下町","town_kana":"ヤマノシタマチ","prefecture_code":15},"0012":{"zip_code":"9500012","prefecture":"新潟県","prefecture_kana":"ニイガタケン","city":"新潟市東区","city_kana":"ニイガタシヒガシク","town":"有楽","town_kana":"ユウラク","prefecture_code":15},"0812":{"zip_code":"9500812","prefecture":"新潟県","prefecture_kana":"ニイガタケン","city":"新潟市東区","city_kana":"ニイガタシヒガシク","town":"豊","town_kana":"ユタカ","prefecture_code":15},"0047":{"zip_code":"9500047","prefecture":"新潟県","prefecture_kana":"ニイガタケン","city":"新潟市東区","city_kana":"ニイガタシヒガシク","town":"臨海町","town_kana":"リンカイチョウ","prefecture_code":15},"0043":{"zip_code":"9500043","prefecture":"新潟県","prefecture_kana":"ニイガタケン","city":"新潟市東区","city_kana":"ニイガタシヒガシク","town":"臨港","town_kana":"リンコウ","prefecture_code":15},"0041":{"zip_code":"9500041","prefecture":"新潟県","prefecture_kana":"ニイガタケン","city":"新潟市東区","city_kana":"ニイガタシヒガシク","town":"臨港町","town_kana":"リンコウチョウ","prefecture_code":15},"0837":{"zip_code":"9500837","prefecture":"新潟県","prefecture_kana":"ニイガタケン","city":"新潟市東区","city_kana":"ニイガタシヒガシク","town":"若葉町","town_kana":"ワカバチョウ","prefecture_code":15},"0084":{"zip_code":"9500084","prefecture":"新潟県","prefecture_kana":"ニイガタケン","city":"新潟市中央区","city_kana":"ニイガタシチュウオウク","town":"明石","town_kana":"アカシ","prefecture_code":15},"0944":{"zip_code":"9500944","prefecture":"新潟県","prefecture_kana":"ニイガタケン","city":"新潟市中央区","city_kana":"ニイガタシチュウオウク","town":"愛宕","town_kana":"アタゴ","prefecture_code":15},"0913":{"zip_code":"9500913","prefecture":"新潟県","prefecture_kana":"ニイガタケン","city":"新潟市中央区","city_kana":"ニイガタシチュウオウク","town":"鐙","town_kana":"アブミ","prefecture_code":15},"0915":{"zip_code":"9500915","prefecture":"新潟県","prefecture_kana":"ニイガタケン","city":"新潟市中央区","city_kana":"ニイガタシチュウオウク","town":"鐙西","town_kana":"アブミニシ","prefecture_code":15},"0964":{"zip_code":"9500964","prefecture":"新潟県","prefecture_kana":"ニイガタケン","city":"新潟市中央区","city_kana":"ニイガタシチュウオウク","town":"網川原","town_kana":"アミガワラ","prefecture_code":15},"0157":[{"zip_code":"9500157","prefecture":"新潟県","prefecture_kana":"ニイガタケン","city":"新潟市中央区","city_kana":"ニイガタシチュウオウク","town":"鵜ノ子","town_kana":"ウノコ","prefecture_code":15},{"zip_code":"9500157","prefecture":"新潟県","prefecture_kana":"ニイガタケン","city":"新潟市江南区","city_kana":"ニイガタシコウナンク","town":"鵜ノ子","town_kana":"ウノコ","prefecture_code":15}],"0923":[{"zip_code":"9500923","prefecture":"新潟県","prefecture_kana":"ニイガタケン","city":"新潟市中央区","city_kana":"ニイガタシチュウオウク","town":"姥ケ山","town_kana":"ウバガヤマ","prefecture_code":15},{"zip_code":"9500923","prefecture":"新潟県","prefecture_kana":"ニイガタケン","city":"新潟市江南区","city_kana":"ニイガタシコウナンク","town":"姥ケ山","town_kana":"ウバガヤマ","prefecture_code":15}],"1148":{"zip_code":"9501148","prefecture":"新潟県","prefecture_kana":"ニイガタケン","city":"新潟市中央区","city_kana":"ニイガタシチュウオウク","town":"上沼","town_kana":"ウワヌマ","prefecture_code":15},"0971":{"zip_code":"9500971","prefecture":"新潟県","prefecture_kana":"ニイガタケン","city":"新潟市中央区","city_kana":"ニイガタシチュウオウク","town":"近江","town_kana":"オウミ","prefecture_code":15},"0953":{"zip_code":"9500953","prefecture":"新潟県","prefecture_kana":"ニイガタケン","city":"新潟市中央区","city_kana":"ニイガタシチュウオウク","town":"大島","town_kana":"オオジマ","prefecture_code":15},"1144":[{"zip_code":"9501144","prefecture":"新潟県","prefecture_kana":"ニイガタケン","city":"新潟市中央区","city_kana":"ニイガタシチュウオウク","town":"祖父興野","town_kana":"オジゴヤ","prefecture_code":15},{"zip_code":"9501144","prefecture":"新潟県","prefecture_kana":"ニイガタケン","city":"新潟市江南区","city_kana":"ニイガタシコウナンク","town":"祖父興野","town_kana":"オジゴヤ","prefecture_code":15}],"0952":{"zip_code":"9500952","prefecture":"新潟県","prefecture_kana":"ニイガタケン","city":"新潟市中央区","city_kana":"ニイガタシチュウオウク","town":"親松","town_kana":"オヤマツ","prefecture_code":15},"0074":{"zip_code":"9500074","prefecture":"新潟県","prefecture_kana":"ニイガタケン","city":"新潟市中央区","city_kana":"ニイガタシチュウオウク","town":"鏡が岡","town_kana":"カガミガオカ","prefecture_code":15},"1133":[{"zip_code":"9501133","prefecture":"新潟県","prefecture_kana":"ニイガタケン","city":"新潟市中央区","city_kana":"ニイガタシチュウオウク","town":"嘉木","town_kana":"カギ","prefecture_code":15},{"zip_code":"9501133","prefecture":"新潟県","prefecture_kana":"ニイガタケン","city":"新潟市江南区","city_kana":"ニイガタシコウナンク","town":"嘉木","town_kana":"カギ","prefecture_code":15}],"0903":{"zip_code":"9500903","prefecture":"新潟県","prefecture_kana":"ニイガタケン","city":"新潟市中央区","city_kana":"ニイガタシチュウオウク","town":"春日町","town_kana":"カスガチョウ","prefecture_code":15},"0973":{"zip_code":"9500973","prefecture":"新潟県","prefecture_kana":"ニイガタケン","city":"新潟市中央区","city_kana":"ニイガタシチュウオウク","town":"上近江","town_kana":"カミオウミ","prefecture_code":15},"0994":{"zip_code":"9500994","prefecture":"新潟県","prefecture_kana":"ニイガタケン","city":"新潟市中央区","city_kana":"ニイガタシチュウオウク","town":"上所","town_kana":"カミトコロ","prefecture_code":15},"0992":{"zip_code":"9500992","prefecture":"新潟県","prefecture_kana":"ニイガタケン","city":"新潟市中央区","city_kana":"ニイガタシチュウオウク","town":"上所上","town_kana":"カミトコロカミ","prefecture_code":15},"0993":{"zip_code":"9500993","prefecture":"新潟県","prefecture_kana":"ニイガタケン","city":"新潟市中央区","city_kana":"ニイガタシチュウオウク","town":"上所中","town_kana":"カミトコロナカ","prefecture_code":15},"0145":[{"zip_code":"9500145","prefecture":"新潟県","prefecture_kana":"ニイガタケン","city":"新潟市中央区","city_kana":"ニイガタシチュウオウク","town":"亀田早通","town_kana":"カメダハヤドオリ","prefecture_code":15},{"zip_code":"9500145","prefecture":"新潟県","prefecture_kana":"ニイガタケン","city":"新潟市江南区","city_kana":"ニイガタシコウナンク","town":"亀田早通","town_kana":"カメダハヤドオリ","prefecture_code":15}],"0983":{"zip_code":"9500983","prefecture":"新潟県","prefecture_kana":"ニイガタケン","city":"新潟市中央区","city_kana":"ニイガタシチュウオウク","town":"神道寺","town_kana":"カンドウジ","prefecture_code":15},"0986":{"zip_code":"9500986","prefecture":"新潟県","prefecture_kana":"ニイガタケン","city":"新潟市中央区","city_kana":"ニイガタシチュウオウク","town":"神道寺南","town_kana":"カンドウジミナミ","prefecture_code":15},"0083":{"zip_code":"9500083","prefecture":"新潟県","prefecture_kana":"ニイガタケン","city":"新潟市中央区","city_kana":"ニイガタシチュウオウク","town":"蒲原町","town_kana":"カンバラマチ","prefecture_code":15},"1145":[{"zip_code":"9501145","prefecture":"新潟県","prefecture_kana":"ニイガタケン","city":"新潟市中央区","city_kana":"ニイガタシチュウオウク","town":"久蔵興野","town_kana":"キュウゾウゴヤ","prefecture_code":15},{"zip_code":"9501145","prefecture":"新潟県","prefecture_kana":"ニイガタケン","city":"新潟市江南区","city_kana":"ニイガタシコウナンク","town":"久蔵興野","town_kana":"キュウゾウゴヤ","prefecture_code":15}],"0921":{"zip_code":"9500921","prefecture":"新潟県","prefecture_kana":"ニイガタケン","city":"新潟市中央区","city_kana":"ニイガタシチュウオウク","town":"京王","town_kana":"ケイオウ","prefecture_code":15},"0926":{"zip_code":"9500926","prefecture":"新潟県","prefecture_kana":"ニイガタケン","city":"新潟市中央区","city_kana":"ニイガタシチュウオウク","town":"高志","town_kana":"コウシ","prefecture_code":15},"1151":{"zip_code":"9501151","prefecture":"新潟県","prefecture_kana":"ニイガタケン","city":"新潟市中央区","city_kana":"ニイガタシチュウオウク","town":"湖南","town_kana":"コナン","prefecture_code":15},"0942":{"zip_code":"9500942","prefecture":"新潟県","prefecture_kana":"ニイガタケン","city":"新潟市中央区","city_kana":"ニイガタシチュウオウク","town":"小張木","town_kana":"コバリノキ","prefecture_code":15},"0907":{"zip_code":"9500907","prefecture":"新潟県","prefecture_kana":"ニイガタケン","city":"新潟市中央区","city_kana":"ニイガタシチュウオウク","town":"幸町","town_kana":"サイワイチョウ","prefecture_code":15},"0908":{"zip_code":"9500908","prefecture":"新潟県","prefecture_kana":"ニイガタケン","city":"新潟市中央区","city_kana":"ニイガタシチュウオウク","town":"幸西","town_kana":"サイワイニシ","prefecture_code":15},"0949":{"zip_code":"9500949","prefecture":"新潟県","prefecture_kana":"ニイガタケン","city":"新潟市中央区","city_kana":"ニイガタシチュウオウク","town":"桜木町","town_kana":"サクラギチョウ","prefecture_code":15},"0911":{"zip_code":"9500911","prefecture":"新潟県","prefecture_kana":"ニイガタケン","city":"新潟市中央区","city_kana":"ニイガタシチュウオウク","town":"笹口","town_kana":"ササグチ","prefecture_code":15},"0081":{"zip_code":"9500081","prefecture":"新潟県","prefecture_kana":"ニイガタケン","city":"新潟市中央区","city_kana":"ニイガタシチュウオウク","town":"三和町","town_kana":"サンワチョウ","prefecture_code":15},"0991":{"zip_code":"9500991","prefecture":"新潟県","prefecture_kana":"ニイガタケン","city":"新潟市中央区","city_kana":"ニイガタシチュウオウク","town":"下所島","town_kana":"シモトコロジマ","prefecture_code":15},"1141":[{"zip_code":"9501141","prefecture":"新潟県","prefecture_kana":"ニイガタケン","city":"新潟市中央区","city_kana":"ニイガタシチュウオウク","town":"鐘木","town_kana":"シュモク","prefecture_code":15},{"zip_code":"9501141","prefecture":"新潟県","prefecture_kana":"ニイガタケン","city":"新潟市江南区","city_kana":"ニイガタシコウナンク","town":"鐘木","town_kana":"シュモク","prefecture_code":15}],"0965":{"zip_code":"9500965","prefecture":"新潟県","prefecture_kana":"ニイガタケン","city":"新潟市中央区","city_kana":"ニイガタシチュウオウク","town":"新光町","town_kana":"シンコウチョウ","prefecture_code":15},"0972":{"zip_code":"9500972","prefecture":"新潟県","prefecture_kana":"ニイガタケン","city":"新潟市中央区","city_kana":"ニイガタシチュウオウク","town":"新和","town_kana":"シンワ","prefecture_code":15},"0933":[{"zip_code":"9500933","prefecture":"新潟県","prefecture_kana":"ニイガタケン","city":"新潟市中央区","city_kana":"ニイガタシチュウオウク","town":"清五郎","town_kana":"セイゴロウ","prefecture_code":15},{"zip_code":"9500933","prefecture":"新潟県","prefecture_kana":"ニイガタケン","city":"新潟市江南区","city_kana":"ニイガタシコウナンク","town":"清五郎","town_kana":"セイゴロウ","prefecture_code":15}],"1136":[{"zip_code":"9501136","prefecture":"新潟県","prefecture_kana":"ニイガタケン","city":"新潟市中央区","city_kana":"ニイガタシチュウオウク","town":"曽川","town_kana":"ソガワ","prefecture_code":15},{"zip_code":"9501136","prefecture":"新潟県","prefecture_kana":"ニイガタケン","city":"新潟市江南区","city_kana":"ニイガタシコウナンク","town":"曽川","town_kana":"ソガワ","prefecture_code":15}],"1146":[{"zip_code":"9501146","prefecture":"新潟県","prefecture_kana":"ニイガタケン","city":"新潟市中央区","city_kana":"ニイガタシチュウオウク","town":"太右エ門新田","town_kana":"タウエモンシンデン","prefecture_code":15},{"zip_code":"9501146","prefecture":"新潟県","prefecture_kana":"ニイガタケン","city":"新潟市江南区","city_kana":"ニイガタシコウナンク","town":"太右エ門新田","town_kana":"タウエモンシンデン","prefecture_code":15}],"1147":{"zip_code":"9501147","prefecture":"新潟県","prefecture_kana":"ニイガタケン","city":"新潟市中央区","city_kana":"ニイガタシチュウオウク","town":"高美町","town_kana":"タカミチョウ","prefecture_code":15},"1143":[{"zip_code":"9501143","prefecture":"新潟県","prefecture_kana":"ニイガタケン","city":"新潟市中央区","city_kana":"ニイガタシチュウオウク","town":"俵柳","town_kana":"タワラヤナギ","prefecture_code":15},{"zip_code":"9501143","prefecture":"新潟県","prefecture_kana":"ニイガタケン","city":"新潟市江南区","city_kana":"ニイガタシコウナンク","town":"俵柳","town_kana":"タワラヤナギ","prefecture_code":15}],"0962":{"zip_code":"9500962","prefecture":"新潟県","prefecture_kana":"ニイガタケン","city":"新潟市中央区","city_kana":"ニイガタシチュウオウク","town":"出来島","town_kana":"デキジマ","prefecture_code":15},"0917":{"zip_code":"9500917","prefecture":"新潟県","prefecture_kana":"ニイガタケン","city":"新潟市中央区","city_kana":"ニイガタシチュウオウク","town":"天神","town_kana":"テンジン","prefecture_code":15},"0905":{"zip_code":"9500905","prefecture":"新潟県","prefecture_kana":"ニイガタケン","city":"新潟市中央区","city_kana":"ニイガタシチュウオウク","town":"天神尾","town_kana":"テンジンオ","prefecture_code":15},"0077":{"zip_code":"9500077","prefecture":"新潟県","prefecture_kana":"ニイガタケン","city":"新潟市中央区","city_kana":"ニイガタシチュウオウク","town":"天明町","town_kana":"テンメイチョウ","prefecture_code":15},"0951":{"zip_code":"9500951","prefecture":"新潟県","prefecture_kana":"ニイガタケン","city":"新潟市中央区","city_kana":"ニイガタシチュウオウク","town":"鳥屋野","town_kana":"トヤノ","prefecture_code":15},"0950":{"zip_code":"9500950","prefecture":"新潟県","prefecture_kana":"ニイガタケン","city":"新潟市中央区","city_kana":"ニイガタシチュウオウク","town":"鳥屋野南","town_kana":"トヤノミナミ","prefecture_code":15},"0932":[{"zip_code":"9500932","prefecture":"新潟県","prefecture_kana":"ニイガタケン","city":"新潟市中央区","city_kana":"ニイガタシチュウオウク","town":"長潟","town_kana":"ナガタ","prefecture_code":15},{"zip_code":"9500932","prefecture":"新潟県","prefecture_kana":"ニイガタケン","city":"新潟市江南区","city_kana":"ニイガタシコウナンク","town":"長潟","town_kana":"ナガタ","prefecture_code":15}],"0085":{"zip_code":"9500085","prefecture":"新潟県","prefecture_kana":"ニイガタケン","city":"新潟市中央区","city_kana":"ニイガタシチュウオウク","town":"長嶺町","town_kana":"ナガミネマチ","prefecture_code":15},"1131":[{"zip_code":"9501131","prefecture":"新潟県","prefecture_kana":"ニイガタケン","city":"新潟市中央区","city_kana":"ニイガタシチュウオウク","town":"鍋潟新田","town_kana":"ナベガタシンデン","prefecture_code":15},{"zip_code":"9501131","prefecture":"新潟県","prefecture_kana":"ニイガタケン","city":"新潟市江南区","city_kana":"ニイガタシコウナンク","town":"鍋潟新田","town_kana":"ナベガタシンデン","prefecture_code":15}],"0866":{"zip_code":"9500866","prefecture":"新潟県","prefecture_kana":"ニイガタケン","city":"新潟市中央区","city_kana":"ニイガタシチュウオウク","town":"西馬越","town_kana":"ニシウマコシ","prefecture_code":15},"0076":{"zip_code":"9500076","prefecture":"新潟県","prefecture_kana":"ニイガタケン","city":"新潟市中央区","city_kana":"ニイガタシチュウオウク","town":"沼垂西","town_kana":"ヌッタリニシ","prefecture_code":15},"0075":{"zip_code":"9500075","prefecture":"新潟県","prefecture_kana":"ニイガタケン","city":"新潟市中央区","city_kana":"ニイガタシチュウオウク","town":"沼垂東","town_kana":"ヌッタリヒガシ","prefecture_code":15},"0086":{"zip_code":"9500086","prefecture":"新潟県","prefecture_kana":"ニイガタケン","city":"新潟市中央区","city_kana":"ニイガタシチュウオウク","town":"花園","town_kana":"ハナゾノ","prefecture_code":15},"0088":{"zip_code":"9500088","prefecture":"新潟県","prefecture_kana":"ニイガタケン","city":"新潟市中央区","city_kana":"ニイガタシチュウオウク","town":"万代","town_kana":"バンダイ","prefecture_code":15},"0078":{"zip_code":"9500078","prefecture":"新潟県","prefecture_kana":"ニイガタケン","city":"新潟市中央区","city_kana":"ニイガタシチュウオウク","town":"万代島","town_kana":"バンダイジマ","prefecture_code":15},"0087":{"zip_code":"9500087","prefecture":"新潟県","prefecture_kana":"ニイガタケン","city":"新潟市中央区","city_kana":"ニイガタシチュウオウク","town":"東大通","town_kana":"ヒガシオオドオリ","prefecture_code":15},"0906":{"zip_code":"9500906","prefecture":"新潟県","prefecture_kana":"ニイガタケン","city":"新潟市中央区","city_kana":"ニイガタシチュウオウク","town":"東幸町","town_kana":"ヒガシサイワイチョウ","prefecture_code":15},"0961":{"zip_code":"9500961","prefecture":"新潟県","prefecture_kana":"ニイガタケン","city":"新潟市中央区","city_kana":"ニイガタシチュウオウク","town":"東出来島","town_kana":"ヒガシデキジマ","prefecture_code":15},"0082":{"zip_code":"9500082","prefecture":"新潟県","prefecture_kana":"ニイガタケン","city":"新潟市中央区","city_kana":"ニイガタシチュウオウク","town":"東万代町","town_kana":"ヒガシバンダイチョウ","prefecture_code":15},"0073":{"zip_code":"9500073","prefecture":"新潟県","prefecture_kana":"ニイガタケン","city":"新潟市中央区","city_kana":"ニイガタシチュウオウク","town":"日の出","town_kana":"ヒノデ","prefecture_code":15},"0901":{"zip_code":"9500901","prefecture":"新潟県","prefecture_kana":"ニイガタケン","city":"新潟市中央区","city_kana":"ニイガタシチュウオウク","town":"弁天","town_kana":"ベンテン","prefecture_code":15},"0925":{"zip_code":"9500925","prefecture":"新潟県","prefecture_kana":"ニイガタケン","city":"新潟市中央区","city_kana":"ニイガタシチュウオウク","town":"弁天橋通","town_kana":"ベンテンバシドオリ","prefecture_code":15},"0981":{"zip_code":"9500981","prefecture":"新潟県","prefecture_kana":"ニイガタケン","city":"新潟市中央区","city_kana":"ニイガタシチュウオウク","town":"堀之内","town_kana":"ホリノウチ","prefecture_code":15},"0982":{"zip_code":"9500982","prefecture":"新潟県","prefecture_kana":"ニイガタケン","city":"新潟市中央区","city_kana":"ニイガタシチュウオウク","town":"堀之内南","town_kana":"ホリノウチミナミ","prefecture_code":15},"1132":[{"zip_code":"9501132","prefecture":"新潟県","prefecture_kana":"ニイガタケン","city":"新潟市中央区","city_kana":"ニイガタシチュウオウク","town":"丸潟新田","town_kana":"マルガタシンデン","prefecture_code":15},{"zip_code":"9501132","prefecture":"新潟県","prefecture_kana":"ニイガタケン","city":"新潟市江南区","city_kana":"ニイガタシコウナンク","town":"丸潟新田","town_kana":"マルガタシンデン","prefecture_code":15}],"0954":{"zip_code":"9500954","prefecture":"新潟県","prefecture_kana":"ニイガタケン","city":"新潟市中央区","city_kana":"ニイガタシチュウオウク","town":"美咲町","town_kana":"ミサキチョウ","prefecture_code":15},"0904":{"zip_code":"9500904","prefecture":"新潟県","prefecture_kana":"ニイガタケン","city":"新潟市中央区","city_kana":"ニイガタシチュウオウク","town":"水島町","town_kana":"ミズシマチョウ","prefecture_code":15},"0912":{"zip_code":"9500912","prefecture":"新潟県","prefecture_kana":"ニイガタケン","city":"新潟市中央区","city_kana":"ニイガタシチュウオウク","town":"南笹口","town_kana":"ミナミササグチ","prefecture_code":15},"0963":{"zip_code":"9500963","prefecture":"新潟県","prefecture_kana":"ニイガタケン","city":"新潟市中央区","city_kana":"ニイガタシチュウオウク","town":"南出来島","town_kana":"ミナミデキジマ","prefecture_code":15},"0931":{"zip_code":"9500931","prefecture":"新潟県","prefecture_kana":"ニイガタケン","city":"新潟市中央区","city_kana":"ニイガタシチュウオウク","town":"南長潟","town_kana":"ミナミナガタ","prefecture_code":15},"0902":{"zip_code":"9500902","prefecture":"新潟県","prefecture_kana":"ニイガタケン","city":"新潟市中央区","city_kana":"ニイガタシチュウオウク","town":"南万代町","town_kana":"ミナミバンダイチョウ","prefecture_code":15},"0924":{"zip_code":"9500924","prefecture":"新潟県","prefecture_kana":"ニイガタケン","city":"新潟市中央区","city_kana":"ニイガタシチュウオウク","town":"美の里","town_kana":"ミノリ","prefecture_code":15},"0941":{"zip_code":"9500941","prefecture":"新潟県","prefecture_kana":"ニイガタケン","city":"新潟市中央区","city_kana":"ニイガタシチュウオウク","town":"女池","town_kana":"メイケ","prefecture_code":15},"0945":{"zip_code":"9500945","prefecture":"新潟県","prefecture_kana":"ニイガタケン","city":"新潟市中央区","city_kana":"ニイガタシチュウオウク","town":"女池上山","town_kana":"メイケカミヤマ","prefecture_code":15},"0947":{"zip_code":"9500947","prefecture":"新潟県","prefecture_kana":"ニイガタケン","city":"新潟市中央区","city_kana":"ニイガタシチュウオウク","town":"女池北","town_kana":"メイケキタ","prefecture_code":15},"0943":{"zip_code":"9500943","prefecture":"新潟県","prefecture_kana":"ニイガタケン","city":"新潟市中央区","city_kana":"ニイガタシチュウオウク","town":"女池神明","town_kana":"メイケシンメイ","prefecture_code":15},"0946":{"zip_code":"9500946","prefecture":"新潟県","prefecture_kana":"ニイガタケン","city":"新潟市中央区","city_kana":"ニイガタシチュウオウク","town":"女池西","town_kana":"メイケニシ","prefecture_code":15},"0984":{"zip_code":"9500984","prefecture":"新潟県","prefecture_kana":"ニイガタケン","city":"新潟市中央区","city_kana":"ニイガタシチュウオウク","town":"女池東","town_kana":"メイケヒガシ","prefecture_code":15},"0948":{"zip_code":"9500948","prefecture":"新潟県","prefecture_kana":"ニイガタケン","city":"新潟市中央区","city_kana":"ニイガタシチュウオウク","town":"女池南","town_kana":"メイケミナミ","prefecture_code":15},"0865":{"zip_code":"9500865","prefecture":"新潟県","prefecture_kana":"ニイガタケン","city":"新潟市中央区","city_kana":"ニイガタシチュウオウク","town":"本馬越","town_kana":"モトウマコシ","prefecture_code":15},"0909":{"zip_code":"9500909","prefecture":"新潟県","prefecture_kana":"ニイガタケン","city":"新潟市中央区","city_kana":"ニイガタシチュウオウク","town":"八千代","town_kana":"ヤチヨ","prefecture_code":15},"0922":[{"zip_code":"9500922","prefecture":"新潟県","prefecture_kana":"ニイガタケン","city":"新潟市中央区","city_kana":"ニイガタシチュウオウク","town":"山二ツ","town_kana":"ヤマフタツ","prefecture_code":15},{"zip_code":"9500922","prefecture":"新潟県","prefecture_kana":"ニイガタケン","city":"新潟市江南区","city_kana":"ニイガタシコウナンク","town":"山二ツ","town_kana":"ヤマフタツ","prefecture_code":15}],"0916":{"zip_code":"9500916","prefecture":"新潟県","prefecture_kana":"ニイガタケン","city":"新潟市中央区","city_kana":"ニイガタシチュウオウク","town":"米山","town_kana":"ヨネヤマ","prefecture_code":15},"0072":{"zip_code":"9500072","prefecture":"新潟県","prefecture_kana":"ニイガタケン","city":"新潟市中央区","city_kana":"ニイガタシチュウオウク","town":"竜が島","town_kana":"リュウガシマ","prefecture_code":15},"0985":{"zip_code":"9500985","prefecture":"新潟県","prefecture_kana":"ニイガタケン","city":"新潟市中央区","city_kana":"ニイガタシチュウオウク","town":"和合町","town_kana":"ワゴウチョウ","prefecture_code":15},"0212":{"zip_code":"9500212","prefecture":"新潟県","prefecture_kana":"ニイガタケン","city":"新潟市江南区","city_kana":"ニイガタシコウナンク","town":"茜ケ丘","town_kana":"アカネガオカ","prefecture_code":15},"0217":{"zip_code":"9500217","prefecture":"新潟県","prefecture_kana":"ニイガタケン","city":"新潟市江南区","city_kana":"ニイガタシコウナンク","town":"阿賀野","town_kana":"アガノ","prefecture_code":15},"0134":{"zip_code":"9500134","prefecture":"新潟県","prefecture_kana":"ニイガタケン","city":"新潟市江南区","city_kana":"ニイガタシコウナンク","town":"曙町","town_kana":"アケボノチョウ","prefecture_code":15},"0166":{"zip_code":"9500166","prefecture":"新潟県","prefecture_kana":"ニイガタケン","city":"新潟市江南区","city_kana":"ニイガタシコウナンク","town":"旭","town_kana":"アサヒ","prefecture_code":15},"1134":[{"zip_code":"9501134","prefecture":"新潟県","prefecture_kana":"ニイガタケン","city":"新潟市江南区","city_kana":"ニイガタシコウナンク","town":"天野","town_kana":"アマノ","prefecture_code":15},{"zip_code":"9501134","prefecture":"新潟県","prefecture_kana":"ニイガタケン","city":"新潟市南区","city_kana":"ニイガタシミナミク","town":"天野","town_kana":"アマノ","prefecture_code":15}],"0155":{"zip_code":"9500155","prefecture":"新潟県","prefecture_kana":"ニイガタケン","city":"新潟市江南区","city_kana":"ニイガタシコウナンク","town":"泉町","town_kana":"イズミチョウ","prefecture_code":15},"0122":{"zip_code":"9500122","prefecture":"新潟県","prefecture_kana":"ニイガタケン","city":"新潟市江南区","city_kana":"ニイガタシコウナンク","town":"稲葉","town_kana":"イナバ","prefecture_code":15},"0218":{"zip_code":"9500218","prefecture":"新潟県","prefecture_kana":"ニイガタケン","city":"新潟市江南区","city_kana":"ニイガタシコウナンク","town":"いぶき野","town_kana":"イブキノ","prefecture_code":15},"0214":{"zip_code":"9500214","prefecture":"新潟県","prefecture_kana":"ニイガタケン","city":"新潟市江南区","city_kana":"ニイガタシコウナンク","town":"うぐいす","town_kana":"ウグイス","prefecture_code":15},"0140":{"zip_code":"9500140","prefecture":"新潟県","prefecture_kana":"ニイガタケン","city":"新潟市江南区","city_kana":"ニイガタシコウナンク","town":"梅見台","town_kana":"ウメミダイ","prefecture_code":15},"0105":{"zip_code":"9500105","prefecture":"新潟県","prefecture_kana":"ニイガタケン","city":"新潟市江南区","city_kana":"ニイガタシコウナンク","town":"大渕","town_kana":"オオブチ","prefecture_code":15},"0154":{"zip_code":"9500154","prefecture":"新潟県","prefecture_kana":"ニイガタケン","city":"新潟市江南区","city_kana":"ニイガタシコウナンク","town":"荻曽根","town_kana":"オギゾネ","prefecture_code":15},"0323":{"zip_code":"9500323","prefecture":"新潟県","prefecture_kana":"ニイガタケン","city":"新潟市江南区","city_kana":"ニイガタシコウナンク","town":"嘉瀬","town_kana":"カセ","prefecture_code":15},"0326":{"zip_code":"9500326","prefecture":"新潟県","prefecture_kana":"ニイガタケン","city":"新潟市江南区","city_kana":"ニイガタシコウナンク","town":"上和田","town_kana":"カミワダ","prefecture_code":15},"0124":{"zip_code":"9500124","prefecture":"新潟県","prefecture_kana":"ニイガタケン","city":"新潟市江南区","city_kana":"ニイガタシコウナンク","town":"亀田東町","town_kana":"カメダアヅマチョウ","prefecture_code":15},"0162":{"zip_code":"9500162","prefecture":"新潟県","prefecture_kana":"ニイガタケン","city":"新潟市江南区","city_kana":"ニイガタシコウナンク","town":"亀田大月","town_kana":"カメダオオツキ","prefecture_code":15},"0141":{"zip_code":"9500141","prefecture":"新潟県","prefecture_kana":"ニイガタケン","city":"新潟市江南区","city_kana":"ニイガタシコウナンク","town":"亀田工業団地","town_kana":"カメダコウギョウダンチ","prefecture_code":15},"0121":{"zip_code":"9500121","prefecture":"新潟県","prefecture_kana":"ニイガタケン","city":"新潟市江南区","city_kana":"ニイガタシコウナンク","town":"亀田向陽","town_kana":"カメダコウヨウ","prefecture_code":15},"0125":{"zip_code":"9500125","prefecture":"新潟県","prefecture_kana":"ニイガタケン","city":"新潟市江南区","city_kana":"ニイガタシコウナンク","town":"亀田新明町","town_kana":"カメダシンメイチョウ","prefecture_code":15},"0123":{"zip_code":"9500123","prefecture":"新潟県","prefecture_kana":"ニイガタケン","city":"新潟市江南区","city_kana":"ニイガタシコウナンク","town":"亀田水道町","town_kana":"カメダスイドウチョウ","prefecture_code":15},"0169":{"zip_code":"9500169","prefecture":"新潟県","prefecture_kana":"ニイガタケン","city":"新潟市江南区","city_kana":"ニイガタシコウナンク","town":"亀田長潟","town_kana":"カメダナガタ","prefecture_code":15},"0164":{"zip_code":"9500164","prefecture":"新潟県","prefecture_kana":"ニイガタケン","city":"新潟市江南区","city_kana":"ニイガタシコウナンク","town":"亀田本町","town_kana":"カメダホンチョウ","prefecture_code":15},"0152":{"zip_code":"9500152","prefecture":"新潟県","prefecture_kana":"ニイガタケン","city":"新潟市江南区","city_kana":"ニイガタシコウナンク","town":"亀田緑町","town_kana":"カメダミドリチョウ","prefecture_code":15},"0151":{"zip_code":"9500151","prefecture":"新潟県","prefecture_kana":"ニイガタケン","city":"新潟市江南区","city_kana":"ニイガタシコウナンク","town":"亀田四ツ興野","town_kana":"カメダヨツゴヤ","prefecture_code":15},"0206":{"zip_code":"9500206","prefecture":"新潟県","prefecture_kana":"ニイガタケン","city":"新潟市江南区","city_kana":"ニイガタシコウナンク","town":"木津","town_kana":"キツ","prefecture_code":15},"0213":{"zip_code":"9500213","prefecture":"新潟県","prefecture_kana":"ニイガタケン","city":"新潟市江南区","city_kana":"ニイガタシコウナンク","town":"木津工業団地","town_kana":"キツコウギョウダンチ","prefecture_code":15},"0103":{"zip_code":"9500103","prefecture":"新潟県","prefecture_kana":"ニイガタケン","city":"新潟市江南区","city_kana":"ニイガタシコウナンク","town":"蔵岡","town_kana":"クラオカ","prefecture_code":15},"0203":{"zip_code":"9500203","prefecture":"新潟県","prefecture_kana":"ニイガタケン","city":"新潟市江南区","city_kana":"ニイガタシコウナンク","town":"小杉","town_kana":"コスギ","prefecture_code":15},"0201":{"zip_code":"9500201","prefecture":"新潟県","prefecture_kana":"ニイガタケン","city":"新潟市江南区","city_kana":"ニイガタシコウナンク","town":"駒込","town_kana":"コマゴミ","prefecture_code":15},"0324":{"zip_code":"9500324","prefecture":"新潟県","prefecture_kana":"ニイガタケン","city":"新潟市江南区","city_kana":"ニイガタシコウナンク","town":"酒屋町","town_kana":"サカヤチョウ","prefecture_code":15},"0104":{"zip_code":"9500104","prefecture":"新潟県","prefecture_kana":"ニイガタケン","city":"新潟市江南区","city_kana":"ニイガタシコウナンク","town":"笹山","town_kana":"ササヤマ","prefecture_code":15},"0167":{"zip_code":"9500167","prefecture":"新潟県","prefecture_kana":"ニイガタケン","city":"新潟市江南区","city_kana":"ニイガタシコウナンク","town":"五月町","town_kana":"サツキチョウ","prefecture_code":15},"0156":{"zip_code":"9500156","prefecture":"新潟県","prefecture_kana":"ニイガタケン","city":"新潟市江南区","city_kana":"ニイガタシコウナンク","town":"早苗","town_kana":"サナエ","prefecture_code":15},"0129":{"zip_code":"9500129","prefecture":"新潟県","prefecture_kana":"ニイガタケン","city":"新潟市江南区","city_kana":"ニイガタシコウナンク","town":"三條岡","town_kana":"サンジョウオカ","prefecture_code":15},"0107":{"zip_code":"9500107","prefecture":"新潟県","prefecture_kana":"ニイガタケン","city":"新潟市江南区","city_kana":"ニイガタシコウナンク","town":"三百地","town_kana":"サンビャクジ","prefecture_code":15},"0149":{"zip_code":"9500149","prefecture":"新潟県","prefecture_kana":"ニイガタケン","city":"新潟市江南区","city_kana":"ニイガタシコウナンク","town":"下早通","town_kana":"シモハヤドオリ","prefecture_code":15},"0150":{"zip_code":"9500150","prefecture":"新潟県","prefecture_kana":"ニイガタケン","city":"新潟市江南区","city_kana":"ニイガタシコウナンク","town":"下早通柳田","town_kana":"シモハヤドオリヤナギダ","prefecture_code":15},"0136":{"zip_code":"9500136","prefecture":"新潟県","prefecture_kana":"ニイガタケン","city":"新潟市江南区","city_kana":"ニイガタシコウナンク","town":"城所","town_kana":"ジョウショ","prefecture_code":15},"0137":{"zip_code":"9500137","prefecture":"新潟県","prefecture_kana":"ニイガタケン","city":"新潟市江南区","city_kana":"ニイガタシコウナンク","town":"城山","town_kana":"ジョウヤマ","prefecture_code":15},"0132":{"zip_code":"9500132","prefecture":"新潟県","prefecture_kana":"ニイガタケン","city":"新潟市江南区","city_kana":"ニイガタシコウナンク","town":"砂岡","town_kana":"スナオカ","prefecture_code":15},"0133":{"zip_code":"9500133","prefecture":"新潟県","prefecture_kana":"ニイガタケン","city":"新潟市江南区","city_kana":"ニイガタシコウナンク","town":"砂崩","town_kana":"スナクズレ","prefecture_code":15},"0130":{"zip_code":"9500130","prefecture":"新潟県","prefecture_kana":"ニイガタケン","city":"新潟市江南区","city_kana":"ニイガタシコウナンク","town":"砂山","town_kana":"スナヤマ","prefecture_code":15},"0127":{"zip_code":"9500127","prefecture":"新潟県","prefecture_kana":"ニイガタケン","city":"新潟市江南区","city_kana":"ニイガタシコウナンク","town":"諏訪","town_kana":"スワ","prefecture_code":15},"0205":{"zip_code":"9500205","prefecture":"新潟県","prefecture_kana":"ニイガタケン","city":"新潟市江南区","city_kana":"ニイガタシコウナンク","town":"沢海","town_kana":"ソウミ","prefecture_code":15},"1142":{"zip_code":"9501142","prefecture":"新潟県","prefecture_kana":"ニイガタケン","city":"新潟市江南区","city_kana":"ニイガタシコウナンク","town":"楚川","town_kana":"ソガワ","prefecture_code":15},"1135":{"zip_code":"9501135","prefecture":"新潟県","prefecture_kana":"ニイガタケン","city":"新潟市江南区","city_kana":"ニイガタシコウナンク","town":"曽野木","town_kana":"ソノキ","prefecture_code":15},"0144":{"zip_code":"9500144","prefecture":"新潟県","prefecture_kana":"ニイガタケン","city":"新潟市江南区","city_kana":"ニイガタシコウナンク","town":"茅野山","town_kana":"チノヤマ","prefecture_code":15},"0139":{"zip_code":"9500139","prefecture":"新潟県","prefecture_kana":"ニイガタケン","city":"新潟市江南区","city_kana":"ニイガタシコウナンク","town":"手代山","town_kana":"テシロヤマ","prefecture_code":15},"0135":{"zip_code":"9500135","prefecture":"新潟県","prefecture_kana":"ニイガタケン","city":"新潟市江南区","city_kana":"ニイガタシコウナンク","town":"所島","town_kana":"トコロジマ","prefecture_code":15},"0142":{"zip_code":"9500142","prefecture":"新潟県","prefecture_kana":"ニイガタケン","city":"新潟市江南区","city_kana":"ニイガタシコウナンク","town":"泥潟","town_kana":"ドロガタ","prefecture_code":15},"0111":{"zip_code":"9500111","prefecture":"新潟県","prefecture_kana":"ニイガタケン","city":"新潟市江南区","city_kana":"ニイガタシコウナンク","town":"直り山","town_kana":"ナオリヤマ","prefecture_code":15},"0147":{"zip_code":"9500147","prefecture":"新潟県","prefecture_kana":"ニイガタケン","city":"新潟市江南区","city_kana":"ニイガタシコウナンク","town":"長潟","town_kana":"ナガタ","prefecture_code":15},"0165":{"zip_code":"9500165","prefecture":"新潟県","prefecture_kana":"ニイガタケン","city":"新潟市江南区","city_kana":"ニイガタシコウナンク","town":"西町","town_kana":"ニシマチ","prefecture_code":15},"0113":{"zip_code":"9500113","prefecture":"新潟県","prefecture_kana":"ニイガタケン","city":"新潟市江南区","city_kana":"ニイガタシコウナンク","town":"西山","town_kana":"ニシヤマ","prefecture_code":15},"0207":{"zip_code":"9500207","prefecture":"新潟県","prefecture_kana":"ニイガタケン","city":"新潟市江南区","city_kana":"ニイガタシコウナンク","town":"二本木","town_kana":"ニホンギ","prefecture_code":15},"0325":{"zip_code":"9500325","prefecture":"新潟県","prefecture_kana":"ニイガタケン","city":"新潟市江南区","city_kana":"ニイガタシコウナンク","town":"花ノ牧","town_kana":"ハナノマキ","prefecture_code":15},"0168":{"zip_code":"9500168","prefecture":"新潟県","prefecture_kana":"ニイガタケン","city":"新潟市江南区","city_kana":"ニイガタシコウナンク","town":"早通","town_kana":"ハヤドオリ","prefecture_code":15},"0148":{"zip_code":"9500148","prefecture":"新潟県","prefecture_kana":"ニイガタケン","city":"新潟市江南区","city_kana":"ニイガタシコウナンク","town":"東早通","town_kana":"ヒガシハヤドオリ","prefecture_code":15},"0163":{"zip_code":"9500163","prefecture":"新潟県","prefecture_kana":"ニイガタケン","city":"新潟市江南区","city_kana":"ニイガタシコウナンク","town":"東船場","town_kana":"ヒガシフナバ","prefecture_code":15},"0126":{"zip_code":"9500126","prefecture":"新潟県","prefecture_kana":"ニイガタケン","city":"新潟市江南区","city_kana":"ニイガタシコウナンク","town":"東本町","town_kana":"ヒガシホンチョウ","prefecture_code":15},"0138":{"zip_code":"9500138","prefecture":"新潟県","prefecture_kana":"ニイガタケン","city":"新潟市江南区","city_kana":"ニイガタシコウナンク","town":"日水","town_kana":"ヒミズ","prefecture_code":15},"0329":{"zip_code":"9500329","prefecture":"新潟県","prefecture_kana":"ニイガタケン","city":"新潟市江南区","city_kana":"ニイガタシコウナンク","town":"平賀","town_kana":"ヒラガ","prefecture_code":15},"0215":{"zip_code":"9500215","prefecture":"新潟県","prefecture_kana":"ニイガタケン","city":"新潟市江南区","city_kana":"ニイガタシコウナンク","town":"平山","town_kana":"ヒラヤマ","prefecture_code":15},"0131":{"zip_code":"9500131","prefecture":"新潟県","prefecture_kana":"ニイガタケン","city":"新潟市江南区","city_kana":"ニイガタシコウナンク","town":"袋津","town_kana":"フクロヅ","prefecture_code":15},"0202":{"zip_code":"9500202","prefecture":"新潟県","prefecture_kana":"ニイガタケン","city":"新潟市江南区","city_kana":"ニイガタシコウナンク","town":"藤山","town_kana":"フジヤマ","prefecture_code":15},"0153":{"zip_code":"9500153","prefecture":"新潟県","prefecture_kana":"ニイガタケン","city":"新潟市江南区","city_kana":"ニイガタシコウナンク","town":"船戸山","town_kana":"フナトヤマ","prefecture_code":15},"0328":{"zip_code":"9500328","prefecture":"新潟県","prefecture_kana":"ニイガタケン","city":"新潟市江南区","city_kana":"ニイガタシコウナンク","town":"舞潟","town_kana":"マイガタ","prefecture_code":15},"0112":{"zip_code":"9500112","prefecture":"新潟県","prefecture_kana":"ニイガタケン","city":"新潟市江南区","city_kana":"ニイガタシコウナンク","town":"松山","town_kana":"マツヤマ","prefecture_code":15},"0146":{"zip_code":"9500146","prefecture":"新潟県","prefecture_kana":"ニイガタケン","city":"新潟市江南区","city_kana":"ニイガタシコウナンク","town":"丸潟","town_kana":"マルガタ","prefecture_code":15},"0115":{"zip_code":"9500115","prefecture":"新潟県","prefecture_kana":"ニイガタケン","city":"新潟市江南区","city_kana":"ニイガタシコウナンク","town":"丸山","town_kana":"マルヤマ","prefecture_code":15},"0114":{"zip_code":"9500114","prefecture":"新潟県","prefecture_kana":"ニイガタケン","city":"新潟市江南区","city_kana":"ニイガタシコウナンク","town":"茗荷谷","town_kana":"ミョウガダニ","prefecture_code":15},"0143":{"zip_code":"9500143","prefecture":"新潟県","prefecture_kana":"ニイガタケン","city":"新潟市江南区","city_kana":"ニイガタシコウナンク","town":"元町","town_kana":"モトマチ","prefecture_code":15},"0204":{"zip_code":"9500204","prefecture":"新潟県","prefecture_kana":"ニイガタケン","city":"新潟市江南区","city_kana":"ニイガタシコウナンク","town":"横越","town_kana":"ヨコゴシ","prefecture_code":15},"0210":{"zip_code":"9500210","prefecture":"新潟県","prefecture_kana":"ニイガタケン","city":"新潟市江南区","city_kana":"ニイガタシコウナンク","town":"横越上町","town_kana":"ヨコゴシカミチョウ","prefecture_code":15},"0211":{"zip_code":"9500211","prefecture":"新潟県","prefecture_kana":"ニイガタケン","city":"新潟市江南区","city_kana":"ニイガタシコウナンク","town":"横越川根町","town_kana":"ヨコゴシカワネチョウ","prefecture_code":15},"0208":{"zip_code":"9500208","prefecture":"新潟県","prefecture_kana":"ニイガタケン","city":"新潟市江南区","city_kana":"ニイガタシコウナンク","town":"横越中央","town_kana":"ヨコゴシチュウオウ","prefecture_code":15},"0209":{"zip_code":"9500209","prefecture":"新潟県","prefecture_kana":"ニイガタケン","city":"新潟市江南区","city_kana":"ニイガタシコウナンク","town":"横越東町","town_kana":"ヨコゴシヒガシチョウ","prefecture_code":15},"0322":{"zip_code":"9500322","prefecture":"新潟県","prefecture_kana":"ニイガタケン","city":"新潟市江南区","city_kana":"ニイガタシコウナンク","town":"両川","town_kana":"リョウカワ","prefecture_code":15},"0327":{"zip_code":"9500327","prefecture":"新潟県","prefecture_kana":"ニイガタケン","city":"新潟市江南区","city_kana":"ニイガタシコウナンク","town":"和田","town_kana":"ワダ","prefecture_code":15},"0321":{"zip_code":"9500321","prefecture":"新潟県","prefecture_kana":"ニイガタケン","city":"新潟市江南区","city_kana":"ニイガタシコウナンク","town":"割野","town_kana":"ワリノ","prefecture_code":15},"1200":{"zip_code":"9501200","prefecture":"新潟県","prefecture_kana":"ニイガタケン","city":"新潟市南区","city_kana":"ニイガタシミナミク","town":"","town_kana":"","prefecture_code":15},"1411":{"zip_code":"9501411","prefecture":"新潟県","prefecture_kana":"ニイガタケン","city":"新潟市南区","city_kana":"ニイガタシミナミク","town":"赤渋","town_kana":"アカシブ","prefecture_code":15},"1413":{"zip_code":"9501413","prefecture":"新潟県","prefecture_kana":"ニイガタケン","city":"新潟市南区","city_kana":"ニイガタシミナミク","town":"朝捲","town_kana":"アサマクリ","prefecture_code":15},"1261":[{"zip_code":"9501261","prefecture":"新潟県","prefecture_kana":"ニイガタケン","city":"新潟市南区","city_kana":"ニイガタシミナミク","town":"味方","town_kana":"アジカタ","prefecture_code":15},{"zip_code":"9501261","prefecture":"新潟県","prefecture_kana":"ニイガタケン","city":"新潟市西蒲区","city_kana":"ニイガタシニシカンク","town":"味方","town_kana":"アジカタ","prefecture_code":15}],"1227":{"zip_code":"9501227","prefecture":"新潟県","prefecture_kana":"ニイガタケン","city":"新潟市南区","city_kana":"ニイガタシミナミク","town":"鰺潟","town_kana":"アジガタ","prefecture_code":15},"1447":{"zip_code":"9501447","prefecture":"新潟県","prefecture_kana":"ニイガタケン","city":"新潟市南区","city_kana":"ニイガタシミナミク","town":"飯島","town_kana":"イイジマ","prefecture_code":15},"1251":{"zip_code":"9501251","prefecture":"新潟県","prefecture_kana":"ニイガタケン","city":"新潟市南区","city_kana":"ニイガタシミナミク","town":"居宿","town_kana":"イシュク","prefecture_code":15},"1471":{"zip_code":"9501471","prefecture":"新潟県","prefecture_kana":"ニイガタケン","city":"新潟市南区","city_kana":"ニイガタシミナミク","town":"和泉","town_kana":"イズミ","prefecture_code":15},"1403":{"zip_code":"9501403","prefecture":"新潟県","prefecture_kana":"ニイガタケン","city":"新潟市南区","city_kana":"ニイガタシミナミク","town":"犬帰新田","town_kana":"イヌカエリシンデン","prefecture_code":15},"1456":{"zip_code":"9501456","prefecture":"新潟県","prefecture_kana":"ニイガタケン","city":"新潟市南区","city_kana":"ニイガタシミナミク","town":"茨曽根","town_kana":"イバラソネ","prefecture_code":15},"1442":{"zip_code":"9501442","prefecture":"新潟県","prefecture_kana":"ニイガタケン","city":"新潟市南区","city_kana":"ニイガタシミナミク","town":"鋳物師興野","town_kana":"イモノシゴウヤ","prefecture_code":15},"1453":{"zip_code":"9501453","prefecture":"新潟県","prefecture_kana":"ニイガタケン","city":"新潟市南区","city_kana":"ニイガタシミナミク","town":"兎新田","town_kana":"ウサギシンデン","prefecture_code":15},"1444":{"zip_code":"9501444","prefecture":"新潟県","prefecture_kana":"ニイガタケン","city":"新潟市南区","city_kana":"ニイガタシミナミク","town":"牛崎","town_kana":"ウシザキ","prefecture_code":15},"1412":{"zip_code":"9501412","prefecture":"新潟県","prefecture_kana":"ニイガタケン","city":"新潟市南区","city_kana":"ニイガタシミナミク","town":"臼井","town_kana":"ウスイ","prefecture_code":15},"1401":{"zip_code":"9501401","prefecture":"新潟県","prefecture_kana":"ニイガタケン","city":"新潟市南区","city_kana":"ニイガタシミナミク","town":"獺ヶ通","town_kana":"ウスガドオリ","prefecture_code":15},"1472":{"zip_code":"9501472","prefecture":"新潟県","prefecture_kana":"ニイガタケン","city":"新潟市南区","city_kana":"ニイガタシミナミク","town":"浦梨","town_kana":"ウラナシ","prefecture_code":15},"1252":{"zip_code":"9501252","prefecture":"新潟県","prefecture_kana":"ニイガタケン","city":"新潟市南区","city_kana":"ニイガタシミナミク","town":"大倉","town_kana":"オオクラ","prefecture_code":15},"1253":{"zip_code":"9501253","prefecture":"新潟県","prefecture_kana":"ニイガタケン","city":"新潟市南区","city_kana":"ニイガタシミナミク","town":"大倉新田","town_kana":"オオクラシンデン","prefecture_code":15},"1201":{"zip_code":"9501201","prefecture":"新潟県","prefecture_kana":"ニイガタケン","city":"新潟市南区","city_kana":"ニイガタシミナミク","town":"大通","town_kana":"オオドオリ","prefecture_code":15},"1203":{"zip_code":"9501203","prefecture":"新潟県","prefecture_kana":"ニイガタケン","city":"新潟市南区","city_kana":"ニイガタシミナミク","town":"大通黄金","town_kana":"オオドオリコガネ","prefecture_code":15},"1204":{"zip_code":"9501204","prefecture":"新潟県","prefecture_kana":"ニイガタケン","city":"新潟市南区","city_kana":"ニイガタシミナミク","town":"大通西","town_kana":"オオドオリニシ","prefecture_code":15},"1202":{"zip_code":"9501202","prefecture":"新潟県","prefecture_kana":"ニイガタケン","city":"新潟市南区","city_kana":"ニイガタシミナミク","town":"大通南","town_kana":"オオドオリミナミ","prefecture_code":15},"1305":{"zip_code":"9501305","prefecture":"新潟県","prefecture_kana":"ニイガタケン","city":"新潟市南区","city_kana":"ニイガタシミナミク","town":"大別當","town_kana":"オオベツトウ","prefecture_code":15},"1466":{"zip_code":"9501466","prefecture":"新潟県","prefecture_kana":"ニイガタケン","city":"新潟市南区","city_kana":"ニイガタシミナミク","town":"沖新保","town_kana":"オキシンボ","prefecture_code":15},"1428":{"zip_code":"9501428","prefecture":"新潟県","prefecture_kana":"ニイガタケン","city":"新潟市南区","city_kana":"ニイガタシミナミク","town":"上浦","town_kana":"カミウラ","prefecture_code":15},"1474":{"zip_code":"9501474","prefecture":"新潟県","prefecture_kana":"ニイガタケン","city":"新潟市南区","city_kana":"ニイガタシミナミク","town":"上木山","town_kana":"カミキヤマ","prefecture_code":15},"1244":{"zip_code":"9501244","prefecture":"新潟県","prefecture_kana":"ニイガタケン","city":"新潟市南区","city_kana":"ニイガタシミナミク","town":"上塩俵","town_kana":"カミシオダワラ","prefecture_code":15},"1454":{"zip_code":"9501454","prefecture":"新潟県","prefecture_kana":"ニイガタケン","city":"新潟市南区","city_kana":"ニイガタシミナミク","town":"上新田","town_kana":"カミシンデン","prefecture_code":15},"1465":{"zip_code":"9501465","prefecture":"新潟県","prefecture_kana":"ニイガタケン","city":"新潟市南区","city_kana":"ニイガタシミナミク","town":"上道潟","town_kana":"カミドウガタ","prefecture_code":15},"1431":{"zip_code":"9501431","prefecture":"新潟県","prefecture_kana":"ニイガタケン","city":"新潟市南区","city_kana":"ニイガタシミナミク","town":"上八枚","town_kana":"カミハチマイ","prefecture_code":15},"1302":{"zip_code":"9501302","prefecture":"新潟県","prefecture_kana":"ニイガタケン","city":"新潟市南区","city_kana":"ニイガタシミナミク","town":"上曲通","town_kana":"カミマガリドオリ","prefecture_code":15},"1221":{"zip_code":"9501221","prefecture":"新潟県","prefecture_kana":"ニイガタケン","city":"新潟市南区","city_kana":"ニイガタシミナミク","town":"神屋","town_kana":"カミヤ","prefecture_code":15},"1237":{"zip_code":"9501237","prefecture":"新潟県","prefecture_kana":"ニイガタケン","city":"新潟市南区","city_kana":"ニイガタシミナミク","town":"北田中","town_kana":"キタタナカ","prefecture_code":15},"1311":{"zip_code":"9501311","prefecture":"新潟県","prefecture_kana":"ニイガタケン","city":"新潟市南区","city_kana":"ニイガタシミナミク","town":"木滑","town_kana":"キナメリ","prefecture_code":15},"1434":{"zip_code":"9501434","prefecture":"新潟県","prefecture_kana":"ニイガタケン","city":"新潟市南区","city_kana":"ニイガタシミナミク","town":"櫛笥","town_kana":"クシゲ","prefecture_code":15},"1441":{"zip_code":"9501441","prefecture":"新潟県","prefecture_kana":"ニイガタケン","city":"新潟市南区","city_kana":"ニイガタシミナミク","town":"蜘手興野","town_kana":"クモデコウヤ","prefecture_code":15},"1231":{"zip_code":"9501231","prefecture":"新潟県","prefecture_kana":"ニイガタケン","city":"新潟市南区","city_kana":"ニイガタシミナミク","town":"小坂","town_kana":"コサカ","prefecture_code":15},"1414":{"zip_code":"9501414","prefecture":"新潟県","prefecture_kana":"ニイガタケン","city":"新潟市南区","city_kana":"ニイガタシミナミク","town":"小蔵子","town_kana":"コゾウス","prefecture_code":15},"1255":{"zip_code":"9501255","prefecture":"新潟県","prefecture_kana":"ニイガタケン","city":"新潟市南区","city_kana":"ニイガタシミナミク","town":"山王","town_kana":"サンノウ","prefecture_code":15},"1256":{"zip_code":"9501256","prefecture":"新潟県","prefecture_kana":"ニイガタケン","city":"新潟市南区","city_kana":"ニイガタシミナミク","town":"山王新田","town_kana":"サンノウシンデン","prefecture_code":15},"1212":{"zip_code":"9501212","prefecture":"新潟県","prefecture_kana":"ニイガタケン","city":"新潟市南区","city_kana":"ニイガタシミナミク","town":"七軒","town_kana":"シチケン","prefecture_code":15},"1225":{"zip_code":"9501225","prefecture":"新潟県","prefecture_kana":"ニイガタケン","city":"新潟市南区","city_kana":"ニイガタシミナミク","town":"七軒町","town_kana":"シチケンチョウ","prefecture_code":15},"1457":{"zip_code":"9501457","prefecture":"新潟県","prefecture_kana":"ニイガタケン","city":"新潟市南区","city_kana":"ニイガタシミナミク","town":"清水","town_kana":"シミズ","prefecture_code":15},"1473":{"zip_code":"9501473","prefecture":"新潟県","prefecture_kana":"ニイガタケン","city":"新潟市南区","city_kana":"ニイガタシミナミク","town":"下木山","town_kana":"シモキヤマ","prefecture_code":15},"1241":{"zip_code":"9501241","prefecture":"新潟県","prefecture_kana":"ニイガタケン","city":"新潟市南区","city_kana":"ニイガタシミナミク","town":"下塩俵","town_kana":"シモシオダワラ","prefecture_code":15},"1464":{"zip_code":"9501464","prefecture":"新潟県","prefecture_kana":"ニイガタケン","city":"新潟市南区","city_kana":"ニイガタシミナミク","town":"下道潟","town_kana":"シモドウガタ","prefecture_code":15},"1424":{"zip_code":"9501424","prefecture":"新潟県","prefecture_kana":"ニイガタケン","city":"新潟市南区","city_kana":"ニイガタシミナミク","town":"下八枚","town_kana":"シモハチマイ","prefecture_code":15},"1301":{"zip_code":"9501301","prefecture":"新潟県","prefecture_kana":"ニイガタケン","city":"新潟市南区","city_kana":"ニイガタシミナミク","town":"下曲通","town_kana":"シモマガリドオリ","prefecture_code":15},"1246":{"zip_code":"9501246","prefecture":"新潟県","prefecture_kana":"ニイガタケン","city":"新潟市南区","city_kana":"ニイガタシミナミク","town":"下山崎","town_kana":"シモヤマザキ","prefecture_code":15},"1232":{"zip_code":"9501232","prefecture":"新潟県","prefecture_kana":"ニイガタケン","city":"新潟市南区","city_kana":"ニイガタシミナミク","town":"十五間","town_kana":"ジュウゴケン","prefecture_code":15},"1432":{"zip_code":"9501432","prefecture":"新潟県","prefecture_kana":"ニイガタケン","city":"新潟市南区","city_kana":"ニイガタシミナミク","town":"十二道島","town_kana":"ジュウニドウシマ","prefecture_code":15},"1214":{"zip_code":"9501214","prefecture":"新潟県","prefecture_kana":"ニイガタケン","city":"新潟市南区","city_kana":"ニイガタシミナミク","town":"上下諏訪木","town_kana":"ジョウゲスワノキ","prefecture_code":15},"1446":{"zip_code":"9501446","prefecture":"新潟県","prefecture_kana":"ニイガタケン","city":"新潟市南区","city_kana":"ニイガタシミナミク","town":"庄瀬","town_kana":"ショウゼ","prefecture_code":15},"1433":{"zip_code":"9501433","prefecture":"新潟県","prefecture_kana":"ニイガタケン","city":"新潟市南区","city_kana":"ニイガタシミナミク","town":"次郎右エ門興野","town_kana":"ジロウウエモンコウヤ","prefecture_code":15},"1217":{"zip_code":"9501217","prefecture":"新潟県","prefecture_kana":"ニイガタケン","city":"新潟市南区","city_kana":"ニイガタシミナミク","town":"白根","town_kana":"シロネ","prefecture_code":15},"1222":{"zip_code":"9501222","prefecture":"新潟県","prefecture_kana":"ニイガタケン","city":"新潟市南区","city_kana":"ニイガタシミナミク","town":"白根東町","town_kana":"シロネアズマチョウ","prefecture_code":15},"1218":{"zip_code":"9501218","prefecture":"新潟県","prefecture_kana":"ニイガタケン","city":"新潟市南区","city_kana":"ニイガタシミナミク","town":"白根魚町","town_kana":"シロネサカナマチ","prefecture_code":15},"1224":{"zip_code":"9501224","prefecture":"新潟県","prefecture_kana":"ニイガタケン","city":"新潟市南区","city_kana":"ニイガタシミナミク","town":"白根水道町","town_kana":"シロネスイドウチョウ","prefecture_code":15},"1216":{"zip_code":"9501216","prefecture":"新潟県","prefecture_kana":"ニイガタケン","city":"新潟市南区","city_kana":"ニイガタシミナミク","town":"白根ノ内七軒","town_kana":"シロネノウチシチケン","prefecture_code":15},"1223":{"zip_code":"9501223","prefecture":"新潟県","prefecture_kana":"ニイガタケン","city":"新潟市南区","city_kana":"ニイガタシミナミク","town":"白根日の出町","town_kana":"シロネヒノデチョウ","prefecture_code":15},"1211":{"zip_code":"9501211","prefecture":"新潟県","prefecture_kana":"ニイガタケン","city":"新潟市南区","city_kana":"ニイガタシミナミク","town":"白根古川","town_kana":"シロネフルカワ","prefecture_code":15},"1226":{"zip_code":"9501226","prefecture":"新潟県","prefecture_kana":"ニイガタケン","city":"新潟市南区","city_kana":"ニイガタシミナミク","town":"白根四ツ興野","town_kana":"シロネヨツゴウヤ","prefecture_code":15},"1426":{"zip_code":"9501426","prefecture":"新潟県","prefecture_kana":"ニイガタケン","city":"新潟市南区","city_kana":"ニイガタシミナミク","town":"新生町","town_kana":"シンセイチョウ","prefecture_code":15},"1245":{"zip_code":"9501245","prefecture":"新潟県","prefecture_kana":"ニイガタケン","city":"新潟市南区","city_kana":"ニイガタシミナミク","town":"新山崎町","town_kana":"シンヤマザキチョウ","prefecture_code":15},"1209":{"zip_code":"9501209","prefecture":"新潟県","prefecture_kana":"ニイガタケン","city":"新潟市南区","city_kana":"ニイガタシミナミク","town":"親和町","town_kana":"シンワチョウ","prefecture_code":15},"1208":{"zip_code":"9501208","prefecture":"新潟県","prefecture_kana":"ニイガタケン","city":"新潟市南区","city_kana":"ニイガタシミナミク","town":"杉菜","town_kana":"スギナ","prefecture_code":15},"1215":{"zip_code":"9501215","prefecture":"新潟県","prefecture_kana":"ニイガタケン","city":"新潟市南区","city_kana":"ニイガタシミナミク","town":"助次右エ門組","town_kana":"スケジウエモングミ","prefecture_code":15},"1462":{"zip_code":"9501462","prefecture":"新潟県","prefecture_kana":"ニイガタケン","city":"新潟市南区","city_kana":"ニイガタシミナミク","town":"蔵主","town_kana":"ゾウス","prefecture_code":15},"1404":{"zip_code":"9501404","prefecture":"新潟県","prefecture_kana":"ニイガタケン","city":"新潟市南区","city_kana":"ニイガタシミナミク","town":"大郷","town_kana":"ダイゴウ","prefecture_code":15},"1436":{"zip_code":"9501436","prefecture":"新潟県","prefecture_kana":"ニイガタケン","city":"新潟市南区","city_kana":"ニイガタシミナミク","town":"田尾","town_kana":"ダオ","prefecture_code":15},"1235":{"zip_code":"9501235","prefecture":"新潟県","prefecture_kana":"ニイガタケン","city":"新潟市南区","city_kana":"ニイガタシミナミク","town":"高井興野","town_kana":"タカイコウヤ","prefecture_code":15},"1236":{"zip_code":"9501236","prefecture":"新潟県","prefecture_kana":"ニイガタケン","city":"新潟市南区","city_kana":"ニイガタシミナミク","town":"高井東","town_kana":"タカイヒガシ","prefecture_code":15},"1477":{"zip_code":"9501477","prefecture":"新潟県","prefecture_kana":"ニイガタケン","city":"新潟市南区","city_kana":"ニイガタシミナミク","town":"田中","town_kana":"タナカ","prefecture_code":15},"1304":{"zip_code":"9501304","prefecture":"新潟県","prefecture_kana":"ニイガタケン","city":"新潟市南区","city_kana":"ニイガタシミナミク","town":"月潟","town_kana":"ツキガタ","prefecture_code":15},"1313":[{"zip_code":"9501313","prefecture":"新潟県","prefecture_kana":"ニイガタケン","city":"新潟市南区","city_kana":"ニイガタシミナミク","town":"釣寄","town_kana":"ツリヨセ","prefecture_code":15},{"zip_code":"9501313","prefecture":"新潟県","prefecture_kana":"ニイガタケン","city":"新潟市西蒲区","city_kana":"ニイガタシニシカンク","town":"釣寄","town_kana":"ツリヨセ","prefecture_code":15}],"1312":[{"zip_code":"9501312","prefecture":"新潟県","prefecture_kana":"ニイガタケン","city":"新潟市南区","city_kana":"ニイガタシミナミク","town":"釣寄新","town_kana":"ツリヨセシン","prefecture_code":15},{"zip_code":"9501312","prefecture":"新潟県","prefecture_kana":"ニイガタケン","city":"新潟市西蒲区","city_kana":"ニイガタシニシカンク","town":"釣寄新","town_kana":"ツリヨセシン","prefecture_code":15}],"1425":{"zip_code":"9501425","prefecture":"新潟県","prefecture_kana":"ニイガタケン","city":"新潟市南区","city_kana":"ニイガタシミナミク","town":"戸石","town_kana":"トイシ","prefecture_code":15},"1475":{"zip_code":"9501475","prefecture":"新潟県","prefecture_kana":"ニイガタケン","city":"新潟市南区","city_kana":"ニイガタシミナミク","town":"戸頭","town_kana":"トガシラ","prefecture_code":15},"1423":{"zip_code":"9501423","prefecture":"新潟県","prefecture_kana":"ニイガタケン","city":"新潟市南区","city_kana":"ニイガタシミナミク","town":"中小見","town_kana":"ナカオミ","prefecture_code":15},"1242":{"zip_code":"9501242","prefecture":"新潟県","prefecture_kana":"ニイガタケン","city":"新潟市南区","city_kana":"ニイガタシミナミク","town":"中塩俵","town_kana":"ナカシオダワラ","prefecture_code":15},"1421":{"zip_code":"9501421","prefecture":"新潟県","prefecture_kana":"ニイガタケン","city":"新潟市南区","city_kana":"ニイガタシミナミク","town":"中山","town_kana":"ナカヤマ","prefecture_code":15},"1254":{"zip_code":"9501254","prefecture":"新潟県","prefecture_kana":"ニイガタケン","city":"新潟市南区","city_kana":"ニイガタシミナミク","town":"七穂","town_kana":"ナナホ","prefecture_code":15},"1437":{"zip_code":"9501437","prefecture":"新潟県","prefecture_kana":"ニイガタケン","city":"新潟市南区","city_kana":"ニイガタシミナミク","town":"鍋潟","town_kana":"ナベガタ","prefecture_code":15},"1455":{"zip_code":"9501455","prefecture":"新潟県","prefecture_kana":"ニイガタケン","city":"新潟市南区","city_kana":"ニイガタシミナミク","town":"新飯田","town_kana":"ニイダ","prefecture_code":15},"1416":{"zip_code":"9501416","prefecture":"新潟県","prefecture_kana":"ニイガタケン","city":"新潟市南区","city_kana":"ニイガタシミナミク","town":"西笠巻","town_kana":"ニシカサマキ","prefecture_code":15},"1417":{"zip_code":"9501417","prefecture":"新潟県","prefecture_kana":"ニイガタケン","city":"新潟市南区","city_kana":"ニイガタシミナミク","town":"西笠巻新田","town_kana":"ニシカサマキシンデン","prefecture_code":15},"1303":{"zip_code":"9501303","prefecture":"新潟県","prefecture_kana":"ニイガタケン","city":"新潟市南区","city_kana":"ニイガタシミナミク","town":"西萱場","town_kana":"ニシカヤバ","prefecture_code":15},"1402":{"zip_code":"9501402","prefecture":"新潟県","prefecture_kana":"ニイガタケン","city":"新潟市南区","city_kana":"ニイガタシミナミク","town":"西酒屋","town_kana":"ニシサカヤ","prefecture_code":15},"1262":{"zip_code":"9501262","prefecture":"新潟県","prefecture_kana":"ニイガタケン","city":"新潟市南区","city_kana":"ニイガタシミナミク","town":"西白根","town_kana":"ニシシロネ","prefecture_code":15},"1234":{"zip_code":"9501234","prefecture":"新潟県","prefecture_kana":"ニイガタケン","city":"新潟市南区","city_kana":"ニイガタシミナミク","town":"根岸","town_kana":"ネギシ","prefecture_code":15},"1213":{"zip_code":"9501213","prefecture":"新潟県","prefecture_kana":"ニイガタケン","city":"新潟市南区","city_kana":"ニイガタシミナミク","town":"能登","town_kana":"ノト","prefecture_code":15},"1405":{"zip_code":"9501405","prefecture":"新潟県","prefecture_kana":"ニイガタケン","city":"新潟市南区","city_kana":"ニイガタシミナミク","town":"東笠巻","town_kana":"ヒガシカサマキ","prefecture_code":15},"1406":{"zip_code":"9501406","prefecture":"新潟県","prefecture_kana":"ニイガタケン","city":"新潟市南区","city_kana":"ニイガタシミナミク","town":"東笠巻新田","town_kana":"ヒガシカサマキシンデン","prefecture_code":15},"1467":{"zip_code":"9501467","prefecture":"新潟県","prefecture_kana":"ニイガタケン","city":"新潟市南区","city_kana":"ニイガタシミナミク","town":"東萱場","town_kana":"ヒガシカヤバ","prefecture_code":15},"1314":{"zip_code":"9501314","prefecture":"新潟県","prefecture_kana":"ニイガタケン","city":"新潟市南区","city_kana":"ニイガタシミナミク","town":"東長嶋","town_kana":"ヒガシナガシマ","prefecture_code":15},"1443":{"zip_code":"9501443","prefecture":"新潟県","prefecture_kana":"ニイガタケン","city":"新潟市南区","city_kana":"ニイガタシミナミク","town":"菱潟","town_kana":"ヒシガタ","prefecture_code":15},"1445":{"zip_code":"9501445","prefecture":"新潟県","prefecture_kana":"ニイガタケン","city":"新潟市南区","city_kana":"ニイガタシミナミク","town":"菱潟新田","town_kana":"ヒシガタシンデン","prefecture_code":15},"1415":{"zip_code":"9501415","prefecture":"新潟県","prefecture_kana":"ニイガタケン","city":"新潟市南区","city_kana":"ニイガタシミナミク","town":"引越","town_kana":"ヒッコシ","prefecture_code":15},"1461":{"zip_code":"9501461","prefecture":"新潟県","prefecture_kana":"ニイガタケン","city":"新潟市南区","city_kana":"ニイガタシミナミク","town":"平潟","town_kana":"ヒラカタ","prefecture_code":15},"1463":{"zip_code":"9501463","prefecture":"新潟県","prefecture_kana":"ニイガタケン","city":"新潟市南区","city_kana":"ニイガタシミナミク","town":"平潟新田","town_kana":"ヒラカタシンデン","prefecture_code":15},"1344":[{"zip_code":"9501344","prefecture":"新潟県","prefecture_kana":"ニイガタケン","city":"新潟市南区","city_kana":"ニイガタシミナミク","town":"福島","town_kana":"フクジマ","prefecture_code":15},{"zip_code":"9501344","prefecture":"新潟県","prefecture_kana":"ニイガタケン","city":"新潟市西蒲区","city_kana":"ニイガタシニシカンク","town":"福島","town_kana":"フクジマ","prefecture_code":15}],"1452":{"zip_code":"9501452","prefecture":"新潟県","prefecture_kana":"ニイガタケン","city":"新潟市南区","city_kana":"ニイガタシミナミク","town":"古川新田","town_kana":"フルカワシンデン","prefecture_code":15},"1476":{"zip_code":"9501476","prefecture":"新潟県","prefecture_kana":"ニイガタケン","city":"新潟市南区","city_kana":"ニイガタシミナミク","town":"平成町","town_kana":"ヘイセイチョウ","prefecture_code":15},"1233":{"zip_code":"9501233","prefecture":"新潟県","prefecture_kana":"ニイガタケン","city":"新潟市南区","city_kana":"ニイガタシミナミク","town":"保坂","town_kana":"ホサカ","prefecture_code":15},"1422":{"zip_code":"9501422","prefecture":"新潟県","prefecture_kana":"ニイガタケン","city":"新潟市南区","city_kana":"ニイガタシミナミク","town":"堀掛","town_kana":"ホッカケ","prefecture_code":15},"1451":{"zip_code":"9501451","prefecture":"新潟県","prefecture_kana":"ニイガタケン","city":"新潟市南区","city_kana":"ニイガタシミナミク","town":"真木","town_kana":"マキ","prefecture_code":15},"1243":{"zip_code":"9501243","prefecture":"新潟県","prefecture_kana":"ニイガタケン","city":"新潟市南区","city_kana":"ニイガタシミナミク","town":"松橋","town_kana":"マツハシ","prefecture_code":15},"1435":{"zip_code":"9501435","prefecture":"新潟県","prefecture_kana":"ニイガタケン","city":"新潟市南区","city_kana":"ニイガタシミナミク","town":"万年","town_kana":"マンネン","prefecture_code":15},"1247":{"zip_code":"9501247","prefecture":"新潟県","prefecture_kana":"ニイガタケン","city":"新潟市南区","city_kana":"ニイガタシミナミク","town":"山崎興野","town_kana":"ヤマザキコウヤ","prefecture_code":15},"1258":{"zip_code":"9501258","prefecture":"新潟県","prefecture_kana":"ニイガタケン","city":"新潟市南区","city_kana":"ニイガタシミナミク","town":"吉江","town_kana":"ヨシエ","prefecture_code":15},"1257":{"zip_code":"9501257","prefecture":"新潟県","prefecture_kana":"ニイガタケン","city":"新潟市南区","city_kana":"ニイガタシミナミク","town":"吉田新田","town_kana":"ヨシダシンデン","prefecture_code":15},"1407":{"zip_code":"9501407","prefecture":"新潟県","prefecture_kana":"ニイガタケン","city":"新潟市南区","city_kana":"ニイガタシミナミク","town":"鷲ノ木新田","town_kana":"ワシノキシンデン","prefecture_code":15},"2002":{"zip_code":"9502002","prefecture":"新潟県","prefecture_kana":"ニイガタケン","city":"新潟市西区","city_kana":"ニイガタシニシク","town":"青山","town_kana":"アオヤマ","prefecture_code":15},"2006":{"zip_code":"9502006","prefecture":"新潟県","prefecture_kana":"ニイガタケン","city":"新潟市西区","city_kana":"ニイガタシニシク","town":"青山新町","town_kana":"アオヤマシンマチ","prefecture_code":15},"2005":{"zip_code":"9502005","prefecture":"新潟県","prefecture_kana":"ニイガタケン","city":"新潟市西区","city_kana":"ニイガタシニシク","town":"青山水道","town_kana":"アオヤマスイドウ","prefecture_code":15},"2261":{"zip_code":"9502261","prefecture":"新潟県","prefecture_kana":"ニイガタケン","city":"新潟市西区","city_kana":"ニイガタシニシク","town":"赤塚","town_kana":"アカツカ","prefecture_code":15},"2073":{"zip_code":"9502073","prefecture":"新潟県","prefecture_kana":"ニイガタケン","city":"新潟市西区","city_kana":"ニイガタシニシク","town":"有明町","town_kana":"アリアケチョウ","prefecture_code":15},"2101":{"zip_code":"9502101","prefecture":"新潟県","prefecture_kana":"ニイガタケン","city":"新潟市西区","city_kana":"ニイガタシニシク","town":"五十嵐一の町","town_kana":"イカラシ1ノチョウ","prefecture_code":15},"2102":{"zip_code":"9502102","prefecture":"新潟県","prefecture_kana":"ニイガタケン","city":"新潟市西区","city_kana":"ニイガタシニシク","town":"五十嵐二の町","town_kana":"イカラシ2ノチョウ","prefecture_code":15},"2171":{"zip_code":"9502171","prefecture":"新潟県","prefecture_kana":"ニイガタケン","city":"新潟市西区","city_kana":"ニイガタシニシク","town":"五十嵐三の町","town_kana":"イカラシ3ノチョウ","prefecture_code":15},"2176":{"zip_code":"9502176","prefecture":"新潟県","prefecture_kana":"ニイガタケン","city":"新潟市西区","city_kana":"ニイガタシニシク","town":"五十嵐三の町北","town_kana":"イカラシ3ノチョウキタ","prefecture_code":15},"2177":{"zip_code":"9502177","prefecture":"新潟県","prefecture_kana":"ニイガタケン","city":"新潟市西区","city_kana":"ニイガタシニシク","town":"五十嵐三の町中","town_kana":"イカラシ3ノチョウナカ","prefecture_code":15},"2174":{"zip_code":"9502174","prefecture":"新潟県","prefecture_kana":"ニイガタケン","city":"新潟市西区","city_kana":"ニイガタシニシク","town":"五十嵐三の町西","town_kana":"イカラシ3ノチョウニシ","prefecture_code":15},"2173":{"zip_code":"9502173","prefecture":"新潟県","prefecture_kana":"ニイガタケン","city":"新潟市西区","city_kana":"ニイガタシニシク","town":"五十嵐三の町東","town_kana":"イカラシ3ノチョウヒガシ","prefecture_code":15},"2175":{"zip_code":"9502175","prefecture":"新潟県","prefecture_kana":"ニイガタケン","city":"新潟市西区","city_kana":"ニイガタシニシク","town":"五十嵐三の町南","town_kana":"イカラシ3ノチョウミナミ","prefecture_code":15},"2155":{"zip_code":"9502155","prefecture":"新潟県","prefecture_kana":"ニイガタケン","city":"新潟市西区","city_kana":"ニイガタシニシク","town":"五十嵐上崎山","town_kana":"イカラシカミサキヤマ","prefecture_code":15},"2152":{"zip_code":"9502152","prefecture":"新潟県","prefecture_kana":"ニイガタケン","city":"新潟市西区","city_kana":"ニイガタシニシク","town":"五十嵐下崎山","town_kana":"イカラシシモサキヤマ","prefecture_code":15},"2162":{"zip_code":"9502162","prefecture":"新潟県","prefecture_kana":"ニイガタケン","city":"新潟市西区","city_kana":"ニイガタシニシク","town":"五十嵐中島","town_kana":"イカラシナカジマ","prefecture_code":15},"2161":{"zip_code":"9502161","prefecture":"新潟県","prefecture_kana":"ニイガタケン","city":"新潟市西区","city_kana":"ニイガタシニシク","town":"五十嵐西","town_kana":"イカラシニシ","prefecture_code":15},"2045":{"zip_code":"9502045","prefecture":"新潟県","prefecture_kana":"ニイガタケン","city":"新潟市西区","city_kana":"ニイガタシニシク","town":"五十嵐東","town_kana":"イカラシヒガシ","prefecture_code":15},"1121":{"zip_code":"9501121","prefecture":"新潟県","prefecture_kana":"ニイガタケン","city":"新潟市西区","city_kana":"ニイガタシニシク","town":"板井","town_kana":"イタイ","prefecture_code":15},"2141":{"zip_code":"9502141","prefecture":"新潟県","prefecture_kana":"ニイガタケン","city":"新潟市西区","city_kana":"ニイガタシニシク","town":"内野潟端","town_kana":"ウチノカタバタ","prefecture_code":15},"2154":{"zip_code":"9502154","prefecture":"新潟県","prefecture_kana":"ニイガタケン","city":"新潟市西区","city_kana":"ニイガタシニシク","town":"内野潟向","town_kana":"ウチノカタムカイ","prefecture_code":15},"2172":{"zip_code":"9502172","prefecture":"新潟県","prefecture_kana":"ニイガタケン","city":"新潟市西区","city_kana":"ニイガタシニシク","town":"内野上新町","town_kana":"ウチノカミシンマチ","prefecture_code":15},"2153":{"zip_code":"9502153","prefecture":"新潟県","prefecture_kana":"ニイガタケン","city":"新潟市西区","city_kana":"ニイガタシニシク","town":"内野崎山","town_kana":"ウチノサキヤマ","prefecture_code":15},"2156":{"zip_code":"9502156","prefecture":"新潟県","prefecture_kana":"ニイガタケン","city":"新潟市西区","city_kana":"ニイガタシニシク","town":"内野関場","town_kana":"ウチノセキバ","prefecture_code":15},"2142":{"zip_code":"9502142","prefecture":"新潟県","prefecture_kana":"ニイガタケン","city":"新潟市西区","city_kana":"ニイガタシニシク","town":"内野戸中才","town_kana":"ウチノドナカサイ","prefecture_code":15},"2164":{"zip_code":"9502164","prefecture":"新潟県","prefecture_kana":"ニイガタケン","city":"新潟市西区","city_kana":"ニイガタシニシク","town":"内野中浜","town_kana":"ウチノナカハマ","prefecture_code":15},"2151":{"zip_code":"9502151","prefecture":"新潟県","prefecture_kana":"ニイガタケン","city":"新潟市西区","city_kana":"ニイガタシニシク","town":"内野西","town_kana":"ウチノニシ","prefecture_code":15},"2143":{"zip_code":"9502143","prefecture":"新潟県","prefecture_kana":"ニイガタケン","city":"新潟市西区","city_kana":"ニイガタシニシク","town":"内野早角","town_kana":"ウチノハヤツノ","prefecture_code":15},"2112":{"zip_code":"9502112","prefecture":"新潟県","prefecture_kana":"ニイガタケン","city":"新潟市西区","city_kana":"ニイガタシニシク","town":"内野町","town_kana":"ウチノマチ","prefecture_code":15},"2113":{"zip_code":"9502113","prefecture":"新潟県","prefecture_kana":"ニイガタケン","city":"新潟市西区","city_kana":"ニイガタシニシク","town":"内野山手","town_kana":"ウチノヤマテ","prefecture_code":15},"2001":{"zip_code":"9502001","prefecture":"新潟県","prefecture_kana":"ニイガタケン","city":"新潟市西区","city_kana":"ニイガタシニシク","town":"浦山","town_kana":"ウラヤマ","prefecture_code":15},"1127":{"zip_code":"9501127","prefecture":"新潟県","prefecture_kana":"ニイガタケン","city":"新潟市西区","city_kana":"ニイガタシニシク","town":"大潟","town_kana":"オオガタ","prefecture_code":15},"2126":{"zip_code":"9502126","prefecture":"新潟県","prefecture_kana":"ニイガタケン","city":"新潟市西区","city_kana":"ニイガタシニシク","town":"大友","town_kana":"オオトモ","prefecture_code":15},"2037":{"zip_code":"9502037","prefecture":"新潟県","prefecture_kana":"ニイガタケン","city":"新潟市西区","city_kana":"ニイガタシニシク","town":"大野","town_kana":"オオノ","prefecture_code":15},"1111":{"zip_code":"9501111","prefecture":"新潟県","prefecture_kana":"ニイガタケン","city":"新潟市西区","city_kana":"ニイガタシニシク","town":"大野町","town_kana":"オオノマチ","prefecture_code":15},"1124":{"zip_code":"9501124","prefecture":"新潟県","prefecture_kana":"ニイガタケン","city":"新潟市西区","city_kana":"ニイガタシニシク","town":"緒立流通","town_kana":"オタテリュウツウ","prefecture_code":15},"2137":{"zip_code":"9502137","prefecture":"新潟県","prefecture_kana":"ニイガタケン","city":"新潟市西区","city_kana":"ニイガタシニシク","town":"小見郷屋","town_kana":"オミゴウヤ","prefecture_code":15},"2123":{"zip_code":"9502123","prefecture":"新潟県","prefecture_kana":"ニイガタケン","city":"新潟市西区","city_kana":"ニイガタシニシク","town":"笠木","town_kana":"カサギ","prefecture_code":15},"1112":{"zip_code":"9501112","prefecture":"新潟県","prefecture_kana":"ニイガタケン","city":"新潟市西区","city_kana":"ニイガタシニシク","town":"金巻","town_kana":"カネマキ","prefecture_code":15},"2146":{"zip_code":"9502146","prefecture":"新潟県","prefecture_kana":"ニイガタケン","city":"新潟市西区","city_kana":"ニイガタシニシク","town":"金巻新田","town_kana":"カネマキシンデン","prefecture_code":15},"2076":{"zip_code":"9502076","prefecture":"新潟県","prefecture_kana":"ニイガタケン","city":"新潟市西区","city_kana":"ニイガタシニシク","town":"上新栄町","town_kana":"カミシンエイチョウ","prefecture_code":15},"2255":{"zip_code":"9502255","prefecture":"新潟県","prefecture_kana":"ニイガタケン","city":"新潟市西区","city_kana":"ニイガタシニシク","town":"神山","town_kana":"カミヤマ","prefecture_code":15},"2033":{"zip_code":"9502033","prefecture":"新潟県","prefecture_kana":"ニイガタケン","city":"新潟市西区","city_kana":"ニイガタシニシク","town":"亀貝","town_kana":"カメガイ","prefecture_code":15},"2136":{"zip_code":"9502136","prefecture":"新潟県","prefecture_kana":"ニイガタケン","city":"新潟市西区","city_kana":"ニイガタシニシク","town":"勘助郷屋","town_kana":"カンスケゴウヤ","prefecture_code":15},"1126":{"zip_code":"9501126","prefecture":"新潟県","prefecture_kana":"ニイガタケン","city":"新潟市西区","city_kana":"ニイガタシニシク","town":"北場","town_kana":"キタバ","prefecture_code":15},"1122":{"zip_code":"9501122","prefecture":"新潟県","prefecture_kana":"ニイガタケン","city":"新潟市西区","city_kana":"ニイガタシニシク","town":"木場","town_kana":"キバ","prefecture_code":15},"2253":{"zip_code":"9502253","prefecture":"新潟県","prefecture_kana":"ニイガタケン","city":"新潟市西区","city_kana":"ニイガタシニシク","town":"木山","town_kana":"キヤマ","prefecture_code":15},"1123":{"zip_code":"9501123","prefecture":"新潟県","prefecture_kana":"ニイガタケン","city":"新潟市西区","city_kana":"ニイガタシニシク","town":"黒鳥","town_kana":"クロトリ","prefecture_code":15},"2023":{"zip_code":"9502023","prefecture":"新潟県","prefecture_kana":"ニイガタケン","city":"新潟市西区","city_kana":"ニイガタシニシク","town":"小新","town_kana":"コシン","prefecture_code":15},"2027":{"zip_code":"9502027","prefecture":"新潟県","prefecture_kana":"ニイガタケン","city":"新潟市西区","city_kana":"ニイガタシニシク","town":"小新大通","town_kana":"コシンオオドオリ","prefecture_code":15},"2024":{"zip_code":"9502024","prefecture":"新潟県","prefecture_kana":"ニイガタケン","city":"新潟市西区","city_kana":"ニイガタシニシク","town":"小新西","town_kana":"コシンニシ","prefecture_code":15},"2028":{"zip_code":"9502028","prefecture":"新潟県","prefecture_kana":"ニイガタケン","city":"新潟市西区","city_kana":"ニイガタシニシク","town":"小新南","town_kana":"コシンミナミ","prefecture_code":15},"2132":{"zip_code":"9502132","prefecture":"新潟県","prefecture_kana":"ニイガタケン","city":"新潟市西区","city_kana":"ニイガタシニシク","town":"小瀬","town_kana":"コゼ","prefecture_code":15},"2022":{"zip_code":"9502022","prefecture":"新潟県","prefecture_kana":"ニイガタケン","city":"新潟市西区","city_kana":"ニイガタシニシク","town":"小針","town_kana":"コバリ","prefecture_code":15},"2013":{"zip_code":"9502013","prefecture":"新潟県","prefecture_kana":"ニイガタケン","city":"新潟市西区","city_kana":"ニイガタシニシク","town":"小針が丘","town_kana":"コバリガオカ","prefecture_code":15},"2011":{"zip_code":"9502011","prefecture":"新潟県","prefecture_kana":"ニイガタケン","city":"新潟市西区","city_kana":"ニイガタシニシク","town":"小針上山","town_kana":"コバリカミヤマ","prefecture_code":15},"2012":{"zip_code":"9502012","prefecture":"新潟県","prefecture_kana":"ニイガタケン","city":"新潟市西区","city_kana":"ニイガタシニシク","town":"小針台","town_kana":"コバリダイ","prefecture_code":15},"2014":{"zip_code":"9502014","prefecture":"新潟県","prefecture_kana":"ニイガタケン","city":"新潟市西区","city_kana":"ニイガタシニシク","town":"小針西","town_kana":"コバリニシ","prefecture_code":15},"2021":{"zip_code":"9502021","prefecture":"新潟県","prefecture_kana":"ニイガタケン","city":"新潟市西区","city_kana":"ニイガタシニシク","town":"小針藤山","town_kana":"コバリフジヤマ","prefecture_code":15},"2025":{"zip_code":"9502025","prefecture":"新潟県","prefecture_kana":"ニイガタケン","city":"新潟市西区","city_kana":"ニイガタシニシク","town":"小針南","town_kana":"コバリミナミ","prefecture_code":15},"2026":{"zip_code":"9502026","prefecture":"新潟県","prefecture_kana":"ニイガタケン","city":"新潟市西区","city_kana":"ニイガタシニシク","town":"小針南台","town_kana":"コバリミナミダイ","prefecture_code":15},"1114":{"zip_code":"9501114","prefecture":"新潟県","prefecture_kana":"ニイガタケン","city":"新潟市西区","city_kana":"ニイガタシニシク","town":"小平方","town_kana":"コヒラカタ","prefecture_code":15},"2042":{"zip_code":"9502042","prefecture":"新潟県","prefecture_kana":"ニイガタケン","city":"新潟市西区","city_kana":"ニイガタシニシク","town":"坂井","town_kana":"サカイ","prefecture_code":15},"2044":{"zip_code":"9502044","prefecture":"新潟県","prefecture_kana":"ニイガタケン","city":"新潟市西区","city_kana":"ニイガタシニシク","town":"坂井砂山","town_kana":"サカイスナヤマ","prefecture_code":15},"2041":{"zip_code":"9502041","prefecture":"新潟県","prefecture_kana":"ニイガタケン","city":"新潟市西区","city_kana":"ニイガタシニシク","town":"坂井東","town_kana":"サカイヒガシ","prefecture_code":15},"2263":{"zip_code":"9502263","prefecture":"新潟県","prefecture_kana":"ニイガタケン","city":"新潟市西区","city_kana":"ニイガタシニシク","town":"坂田","town_kana":"サカタ","prefecture_code":15},"2034":{"zip_code":"9502034","prefecture":"新潟県","prefecture_kana":"ニイガタケン","city":"新潟市西区","city_kana":"ニイガタシニシク","town":"新田","town_kana":"シンデン","prefecture_code":15},"2035":{"zip_code":"9502035","prefecture":"新潟県","prefecture_kana":"ニイガタケン","city":"新潟市西区","city_kana":"ニイガタシニシク","town":"新通","town_kana":"シンドオリ","prefecture_code":15},"2036":{"zip_code":"9502036","prefecture":"新潟県","prefecture_kana":"ニイガタケン","city":"新潟市西区","city_kana":"ニイガタシニシク","town":"新通西","town_kana":"シンドオリニシ","prefecture_code":15},"2038":{"zip_code":"9502038","prefecture":"新潟県","prefecture_kana":"ニイガタケン","city":"新潟市西区","city_kana":"ニイガタシニシク","town":"新通南","town_kana":"シンドオリミナミ","prefecture_code":15},"2163":{"zip_code":"9502163","prefecture":"新潟県","prefecture_kana":"ニイガタケン","city":"新潟市西区","city_kana":"ニイガタシニシク","town":"新中浜","town_kana":"シンナカハマ","prefecture_code":15},"2043":{"zip_code":"9502043","prefecture":"新潟県","prefecture_kana":"ニイガタケン","city":"新潟市西区","city_kana":"ニイガタシニシク","town":"須賀","town_kana":"スガ","prefecture_code":15},"1102":{"zip_code":"9501102","prefecture":"新潟県","prefecture_kana":"ニイガタケン","city":"新潟市西区","city_kana":"ニイガタシニシク","town":"善久","town_kana":"ゼンク","prefecture_code":15},"2144":{"zip_code":"9502144","prefecture":"新潟県","prefecture_kana":"ニイガタケン","city":"新潟市西区","city_kana":"ニイガタシニシク","town":"曽和","town_kana":"ソワ","prefecture_code":15},"2111":{"zip_code":"9502111","prefecture":"新潟県","prefecture_kana":"ニイガタケン","city":"新潟市西区","city_kana":"ニイガタシニシク","town":"大学南","town_kana":"ダイガクミナミ","prefecture_code":15},"2124":{"zip_code":"9502124","prefecture":"新潟県","prefecture_kana":"ニイガタケン","city":"新潟市西区","city_kana":"ニイガタシニシク","town":"田潟","town_kana":"タガタ","prefecture_code":15},"2122":{"zip_code":"9502122","prefecture":"新潟県","prefecture_kana":"ニイガタケン","city":"新潟市西区","city_kana":"ニイガタシニシク","town":"高山","town_kana":"タカヤマ","prefecture_code":15},"2145":{"zip_code":"9502145","prefecture":"新潟県","prefecture_kana":"ニイガタケン","city":"新潟市西区","city_kana":"ニイガタシニシク","town":"田島","town_kana":"タジマ","prefecture_code":15},"1103":{"zip_code":"9501103","prefecture":"新潟県","prefecture_kana":"ニイガタケン","city":"新潟市西区","city_kana":"ニイガタシニシク","town":"立仏","town_kana":"タチボトケ","prefecture_code":15},"2251":{"zip_code":"9502251","prefecture":"新潟県","prefecture_kana":"ニイガタケン","city":"新潟市西区","city_kana":"ニイガタシニシク","town":"中権寺","town_kana":"チュウゴンジ","prefecture_code":15},"2052":{"zip_code":"9502052","prefecture":"新潟県","prefecture_kana":"ニイガタケン","city":"新潟市西区","city_kana":"ニイガタシニシク","town":"寺尾","town_kana":"テラオ","prefecture_code":15},"2051":{"zip_code":"9502051","prefecture":"新潟県","prefecture_kana":"ニイガタケン","city":"新潟市西区","city_kana":"ニイガタシニシク","town":"寺尾朝日通","town_kana":"テラオアサヒドオリ","prefecture_code":15},"2055":{"zip_code":"9502055","prefecture":"新潟県","prefecture_kana":"ニイガタケン","city":"新潟市西区","city_kana":"ニイガタシニシク","town":"寺尾上","town_kana":"テラオカミ","prefecture_code":15},"2061":{"zip_code":"9502061","prefecture":"新潟県","prefecture_kana":"ニイガタケン","city":"新潟市西区","city_kana":"ニイガタシニシク","town":"寺尾北","town_kana":"テラオキタ","prefecture_code":15},"2063":{"zip_code":"9502063","prefecture":"新潟県","prefecture_kana":"ニイガタケン","city":"新潟市西区","city_kana":"ニイガタシニシク","town":"寺尾台","town_kana":"テラオダイ","prefecture_code":15},"2062":{"zip_code":"9502062","prefecture":"新潟県","prefecture_kana":"ニイガタケン","city":"新潟市西区","city_kana":"ニイガタシニシク","town":"寺尾中央公園","town_kana":"テラオチュウオウコウエン","prefecture_code":15},"2064":{"zip_code":"9502064","prefecture":"新潟県","prefecture_kana":"ニイガタケン","city":"新潟市西区","city_kana":"ニイガタシニシク","town":"寺尾西","town_kana":"テラオニシ","prefecture_code":15},"2054":{"zip_code":"9502054","prefecture":"新潟県","prefecture_kana":"ニイガタケン","city":"新潟市西区","city_kana":"ニイガタシニシク","town":"寺尾東","town_kana":"テラオヒガシ","prefecture_code":15},"2053":{"zip_code":"9502053","prefecture":"新潟県","prefecture_kana":"ニイガタケン","city":"新潟市西区","city_kana":"ニイガタシニシク","town":"寺尾前通","town_kana":"テラオマエドオリ","prefecture_code":15},"1104":{"zip_code":"9501104","prefecture":"新潟県","prefecture_kana":"ニイガタケン","city":"新潟市西区","city_kana":"ニイガタシニシク","town":"寺地","town_kana":"テラジ","prefecture_code":15},"2147":{"zip_code":"9502147","prefecture":"新潟県","prefecture_kana":"ニイガタケン","city":"新潟市西区","city_kana":"ニイガタシニシク","town":"道河原","town_kana":"ドウガワラ","prefecture_code":15},"2262":{"zip_code":"9502262","prefecture":"新潟県","prefecture_kana":"ニイガタケン","city":"新潟市西区","city_kana":"ニイガタシニシク","town":"藤蔵新田","town_kana":"トウゾウシンデン","prefecture_code":15},"1106":{"zip_code":"9501106","prefecture":"新潟県","prefecture_kana":"ニイガタケン","city":"新潟市西区","city_kana":"ニイガタシニシク","town":"ときめき西","town_kana":"トキメキニシ","prefecture_code":15},"1105":{"zip_code":"9501105","prefecture":"新潟県","prefecture_kana":"ニイガタケン","city":"新潟市西区","city_kana":"ニイガタシニシク","town":"ときめき東","town_kana":"トキメキヒガシ","prefecture_code":15},"1115":{"zip_code":"9501115","prefecture":"新潟県","prefecture_kana":"ニイガタケン","city":"新潟市西区","city_kana":"ニイガタシニシク","town":"鳥原","town_kana":"トッパラ","prefecture_code":15},"1113":{"zip_code":"9501113","prefecture":"新潟県","prefecture_kana":"ニイガタケン","city":"新潟市西区","city_kana":"ニイガタシニシク","town":"鳥原新田","town_kana":"トッパラシンデン","prefecture_code":15},"2125":{"zip_code":"9502125","prefecture":"新潟県","prefecture_kana":"ニイガタケン","city":"新潟市西区","city_kana":"ニイガタシニシク","town":"中野小屋","town_kana":"ナカノコヤ","prefecture_code":15},"2071":{"zip_code":"9502071","prefecture":"新潟県","prefecture_kana":"ニイガタケン","city":"新潟市西区","city_kana":"ニイガタシニシク","town":"西有明町","town_kana":"ニシアリアケチョウ","prefecture_code":15},"2015":{"zip_code":"9502015","prefecture":"新潟県","prefecture_kana":"ニイガタケン","city":"新潟市西区","city_kana":"ニイガタシニシク","town":"西小針台","town_kana":"ニシコバリダイ","prefecture_code":15},"2131":{"zip_code":"9502131","prefecture":"新潟県","prefecture_kana":"ニイガタケン","city":"新潟市西区","city_kana":"ニイガタシニシク","town":"早潟","town_kana":"ハヤガタ","prefecture_code":15},"2003":{"zip_code":"9502003","prefecture":"新潟県","prefecture_kana":"ニイガタケン","city":"新潟市西区","city_kana":"ニイガタシニシク","town":"東青山","town_kana":"ヒガシアオヤマ","prefecture_code":15},"2254":{"zip_code":"9502254","prefecture":"新潟県","prefecture_kana":"ニイガタケン","city":"新潟市西区","city_kana":"ニイガタシニシク","town":"東山","town_kana":"ヒガシヤマ","prefecture_code":15},"2138":{"zip_code":"9502138","prefecture":"新潟県","prefecture_kana":"ニイガタケン","city":"新潟市西区","city_kana":"ニイガタシニシク","town":"藤野木","town_kana":"フジノキ","prefecture_code":15},"2004":{"zip_code":"9502004","prefecture":"新潟県","prefecture_kana":"ニイガタケン","city":"新潟市西区","city_kana":"ニイガタシニシク","town":"平島","town_kana":"ヘイジマ","prefecture_code":15},"2134":{"zip_code":"9502134","prefecture":"新潟県","prefecture_kana":"ニイガタケン","city":"新潟市西区","city_kana":"ニイガタシニシク","town":"保古野木","town_kana":"ホコノキ","prefecture_code":15},"2133":{"zip_code":"9502133","prefecture":"新潟県","prefecture_kana":"ニイガタケン","city":"新潟市西区","city_kana":"ニイガタシニシク","town":"前野外新田","town_kana":"マエノソトシンデン","prefecture_code":15},"2121":{"zip_code":"9502121","prefecture":"新潟県","prefecture_kana":"ニイガタケン","city":"新潟市西区","city_kana":"ニイガタシニシク","town":"槇尾","town_kana":"マキオ","prefecture_code":15},"2074":{"zip_code":"9502074","prefecture":"新潟県","prefecture_kana":"ニイガタケン","city":"新潟市西区","city_kana":"ニイガタシニシク","town":"真砂","town_kana":"マサゴ","prefecture_code":15},"2075":{"zip_code":"9502075","prefecture":"新潟県","prefecture_kana":"ニイガタケン","city":"新潟市西区","city_kana":"ニイガタシニシク","town":"松海が丘","town_kana":"マツミガオカ","prefecture_code":15},"2072":{"zip_code":"9502072","prefecture":"新潟県","prefecture_kana":"ニイガタケン","city":"新潟市西区","city_kana":"ニイガタシニシク","town":"松美台","town_kana":"マツミダイ","prefecture_code":15},"2032":{"zip_code":"9502032","prefecture":"新潟県","prefecture_kana":"ニイガタケン","city":"新潟市西区","city_kana":"ニイガタシニシク","town":"的場流通","town_kana":"マトバリュウツウ","prefecture_code":15},"2264":{"zip_code":"9502264","prefecture":"新潟県","prefecture_kana":"ニイガタケン","city":"新潟市西区","city_kana":"ニイガタシニシク","town":"みずき野","town_kana":"ミズキノ","prefecture_code":15},"2135":{"zip_code":"9502135","prefecture":"新潟県","prefecture_kana":"ニイガタケン","city":"新潟市西区","city_kana":"ニイガタシニシク","town":"明田","town_kana":"ミョウデン","prefecture_code":15},"2252":{"zip_code":"9502252","prefecture":"新潟県","prefecture_kana":"ニイガタケン","city":"新潟市西区","city_kana":"ニイガタシニシク","town":"谷内","town_kana":"ヤチ","prefecture_code":15},"2256":{"zip_code":"9502256","prefecture":"新潟県","prefecture_kana":"ニイガタケン","city":"新潟市西区","city_kana":"ニイガタシニシク","town":"山崎","town_kana":"ヤマザキ","prefecture_code":15},"1101":{"zip_code":"9501101","prefecture":"新潟県","prefecture_kana":"ニイガタケン","city":"新潟市西区","city_kana":"ニイガタシニシク","town":"山田","town_kana":"ヤマダ","prefecture_code":15},"2201":{"zip_code":"9502201","prefecture":"新潟県","prefecture_kana":"ニイガタケン","city":"新潟市西区","city_kana":"ニイガタシニシク","town":"四ツ郷屋","town_kana":"ヨツゴウヤ","prefecture_code":15},"1125":{"zip_code":"9501125","prefecture":"新潟県","prefecture_kana":"ニイガタケン","city":"新潟市西区","city_kana":"ニイガタシニシク","town":"流通","town_kana":"リュウツウ","prefecture_code":15},"2031":{"zip_code":"9502031","prefecture":"新潟県","prefecture_kana":"ニイガタケン","city":"新潟市西区","city_kana":"ニイガタシニシク","town":"流通センター","town_kana":"リュウツウセンター","prefecture_code":15},"1348":{"zip_code":"9501348","prefecture":"新潟県","prefecture_kana":"ニイガタケン","city":"新潟市西蒲区","city_kana":"ニイガタシニシカンク","town":"打越","town_kana":"ウチコシ","prefecture_code":15},"1347":{"zip_code":"9501347","prefecture":"新潟県","prefecture_kana":"ニイガタケン","city":"新潟市西蒲区","city_kana":"ニイガタシニシカンク","town":"姥島","town_kana":"ウバジマ","prefecture_code":15},"1333":{"zip_code":"9501333","prefecture":"新潟県","prefecture_kana":"ニイガタケン","city":"新潟市西蒲区","city_kana":"ニイガタシニシカンク","town":"潟浦新","town_kana":"カタウラシン","prefecture_code":15},"1334":{"zip_code":"9501334","prefecture":"新潟県","prefecture_kana":"ニイガタケン","city":"新潟市西蒲区","city_kana":"ニイガタシニシカンク","town":"上小吉","town_kana":"カミコヨシ","prefecture_code":15},"1324":{"zip_code":"9501324","prefecture":"新潟県","prefecture_kana":"ニイガタケン","city":"新潟市西蒲区","city_kana":"ニイガタシニシカンク","town":"高野宮","town_kana":"コウノミヤ","prefecture_code":15},"1342":{"zip_code":"9501342","prefecture":"新潟県","prefecture_kana":"ニイガタケン","city":"新潟市西蒲区","city_kana":"ニイガタシニシカンク","town":"河間","town_kana":"コウマ","prefecture_code":15},"1325":{"zip_code":"9501325","prefecture":"新潟県","prefecture_kana":"ニイガタケン","city":"新潟市西蒲区","city_kana":"ニイガタシニシカンク","town":"小吉","town_kana":"コヨシ","prefecture_code":15},"1341":{"zip_code":"9501341","prefecture":"新潟県","prefecture_kana":"ニイガタケン","city":"新潟市西蒲区","city_kana":"ニイガタシニシカンク","town":"道上","town_kana":"ドウジョウ","prefecture_code":15},"1327":{"zip_code":"9501327","prefecture":"新潟県","prefecture_kana":"ニイガタケン","city":"新潟市西蒲区","city_kana":"ニイガタシニシカンク","town":"中之口","town_kana":"ナカノクチ","prefecture_code":15},"1332":{"zip_code":"9501332","prefecture":"新潟県","prefecture_kana":"ニイガタケン","city":"新潟市西蒲区","city_kana":"ニイガタシニシカンク","town":"長場","town_kana":"ナガバ","prefecture_code":15},"1345":{"zip_code":"9501345","prefecture":"新潟県","prefecture_kana":"ニイガタケン","city":"新潟市西蒲区","city_kana":"ニイガタシニシカンク","town":"羽黒","town_kana":"ハグロ","prefecture_code":15},"1321":{"zip_code":"9501321","prefecture":"新潟県","prefecture_kana":"ニイガタケン","city":"新潟市西蒲区","city_kana":"ニイガタシニシカンク","town":"針ケ曽根","town_kana":"ハリガソネ","prefecture_code":15},"1323":{"zip_code":"9501323","prefecture":"新潟県","prefecture_kana":"ニイガタケン","city":"新潟市西蒲区","city_kana":"ニイガタシニシカンク","town":"東小吉","town_kana":"ヒガシコヨシ","prefecture_code":15},"1331":{"zip_code":"9501331","prefecture":"新潟県","prefecture_kana":"ニイガタケン","city":"新潟市西蒲区","city_kana":"ニイガタシニシカンク","town":"東中","town_kana":"ヒガシナカ","prefecture_code":15},"1326":{"zip_code":"9501326","prefecture":"新潟県","prefecture_kana":"ニイガタケン","city":"新潟市西蒲区","city_kana":"ニイガタシニシカンク","town":"東船越","town_kana":"ヒガシフナコシ","prefecture_code":15},"1346":{"zip_code":"9501346","prefecture":"新潟県","prefecture_kana":"ニイガタケン","city":"新潟市西蒲区","city_kana":"ニイガタシニシカンク","town":"真木","town_kana":"マキ","prefecture_code":15},"1349":{"zip_code":"9501349","prefecture":"新潟県","prefecture_kana":"ニイガタケン","city":"新潟市西蒲区","city_kana":"ニイガタシニシカンク","town":"牧ケ島","town_kana":"マキガシマ","prefecture_code":15},"1343":{"zip_code":"9501343","prefecture":"新潟県","prefecture_kana":"ニイガタケン","city":"新潟市西蒲区","city_kana":"ニイガタシニシカンク","town":"三ツ門","town_kana":"ミツカド","prefecture_code":15},"1328":{"zip_code":"9501328","prefecture":"新潟県","prefecture_kana":"ニイガタケン","city":"新潟市西蒲区","city_kana":"ニイガタシニシカンク","town":"門田","town_kana":"モンタ","prefecture_code":15},"1322":{"zip_code":"9501322","prefecture":"新潟県","prefecture_kana":"ニイガタケン","city":"新潟市西蒲区","city_kana":"ニイガタシニシカンク","town":"六分","town_kana":"ロクブ","prefecture_code":15}}