{"0000":{"zip_code":"9520000","prefecture":"新潟県","prefecture_kana":"ニイガタケン","city":"佐渡市","city_kana":"サドシ","town":"","town_kana":"","prefecture_code":15},"1537":{"zip_code":"9521537","prefecture":"新潟県","prefecture_kana":"ニイガタケン","city":"佐渡市","city_kana":"サドシ","town":"相川会津町","town_kana":"アイカワアイヅマチ","prefecture_code":15},"1538":{"zip_code":"9521538","prefecture":"新潟県","prefecture_kana":"ニイガタケン","city":"佐渡市","city_kana":"サドシ","town":"相川四十物町","town_kana":"アイカワアイモノマチ","prefecture_code":15},"1574":{"zip_code":"9521574","prefecture":"新潟県","prefecture_kana":"ニイガタケン","city":"佐渡市","city_kana":"サドシ","town":"相川海士町","town_kana":"アイカワアママチ","prefecture_code":15},"1517":{"zip_code":"9521517","prefecture":"新潟県","prefecture_kana":"ニイガタケン","city":"佐渡市","city_kana":"サドシ","town":"相川石扣町","town_kana":"アイカワイシハタキマチ","prefecture_code":15},"1512":{"zip_code":"9521512","prefecture":"新潟県","prefecture_kana":"ニイガタケン","city":"佐渡市","city_kana":"サドシ","town":"相川板町","town_kana":"アイカワイタマチ","prefecture_code":15},"1566":{"zip_code":"9521566","prefecture":"新潟県","prefecture_kana":"ニイガタケン","city":"佐渡市","city_kana":"サドシ","town":"相川市町","town_kana":"アイカワイチマチ","prefecture_code":15},"1557":{"zip_code":"9521557","prefecture":"新潟県","prefecture_kana":"ニイガタケン","city":"佐渡市","city_kana":"サドシ","town":"相川一町目","town_kana":"アイカワイッチョウメ","prefecture_code":15},"1552":{"zip_code":"9521552","prefecture":"新潟県","prefecture_kana":"ニイガタケン","city":"佐渡市","city_kana":"サドシ","town":"相川一町目裏町","town_kana":"アイカワイッチョウメウラマチ","prefecture_code":15},"1556":{"zip_code":"9521556","prefecture":"新潟県","prefecture_kana":"ニイガタケン","city":"佐渡市","city_kana":"サドシ","town":"相川一町目浜町","town_kana":"アイカワイッチョウメハママチ","prefecture_code":15},"1565":{"zip_code":"9521565","prefecture":"新潟県","prefecture_kana":"ニイガタケン","city":"佐渡市","city_kana":"サドシ","town":"相川馬町","town_kana":"アイカワウママチ","prefecture_code":15},"1547":{"zip_code":"9521547","prefecture":"新潟県","prefecture_kana":"ニイガタケン","city":"佐渡市","city_kana":"サドシ","town":"相川江戸沢町","town_kana":"アイカワエドザワマチ","prefecture_code":15},"1646":{"zip_code":"9521646","prefecture":"新潟県","prefecture_kana":"ニイガタケン","city":"佐渡市","city_kana":"サドシ","town":"相川大浦","town_kana":"アイカワオオウラ","prefecture_code":15},"1534":{"zip_code":"9521534","prefecture":"新潟県","prefecture_kana":"ニイガタケン","city":"佐渡市","city_kana":"サドシ","town":"相川大床屋町","town_kana":"アイカワオオトコヤマチ","prefecture_code":15},"1508":{"zip_code":"9521508","prefecture":"新潟県","prefecture_kana":"ニイガタケン","city":"佐渡市","city_kana":"サドシ","town":"相川大間町","town_kana":"アイカワオオママチ","prefecture_code":15},"1573":{"zip_code":"9521573","prefecture":"新潟県","prefecture_kana":"ニイガタケン","city":"佐渡市","city_kana":"サドシ","town":"相川下戸炭屋裏町","town_kana":"アイカワオリトスミヤウラマチ","prefecture_code":15},"1584":{"zip_code":"9521584","prefecture":"新潟県","prefecture_kana":"ニイガタケン","city":"佐渡市","city_kana":"サドシ","town":"相川下戸炭屋浜町","town_kana":"アイカワオリトスミヤハママチ","prefecture_code":15},"1581":{"zip_code":"9521581","prefecture":"新潟県","prefecture_kana":"ニイガタケン","city":"佐渡市","city_kana":"サドシ","town":"相川下戸炭屋町","town_kana":"アイカワオリトスミヤマチ","prefecture_code":15},"1571":{"zip_code":"9521571","prefecture":"新潟県","prefecture_kana":"ニイガタケン","city":"佐渡市","city_kana":"サドシ","town":"相川下戸浜町","town_kana":"アイカワオリトハママチ","prefecture_code":15},"1575":{"zip_code":"9521575","prefecture":"新潟県","prefecture_kana":"ニイガタケン","city":"佐渡市","city_kana":"サドシ","town":"相川下戸町","town_kana":"アイカワオリトマチ","prefecture_code":15},"1582":{"zip_code":"9521582","prefecture":"新潟県","prefecture_kana":"ニイガタケン","city":"佐渡市","city_kana":"サドシ","town":"相川下戸村","town_kana":"アイカワオリトムラ","prefecture_code":15},"1583":{"zip_code":"9521583","prefecture":"新潟県","prefecture_kana":"ニイガタケン","city":"佐渡市","city_kana":"サドシ","town":"相川鹿伏","town_kana":"アイカワカブセ","prefecture_code":15},"1522":{"zip_code":"9521522","prefecture":"新潟県","prefecture_kana":"ニイガタケン","city":"佐渡市","city_kana":"サドシ","town":"相川上京町","town_kana":"アイカワカミキョウマチ","prefecture_code":15},"1507":{"zip_code":"9521507","prefecture":"新潟県","prefecture_kana":"ニイガタケン","city":"佐渡市","city_kana":"サドシ","town":"相川紙屋町","town_kana":"アイカワカミヤマチ","prefecture_code":15},"1539":{"zip_code":"9521539","prefecture":"新潟県","prefecture_kana":"ニイガタケン","city":"佐渡市","city_kana":"サドシ","town":"相川北沢町","town_kana":"アイカワキタザワマチ","prefecture_code":15},"1533":{"zip_code":"9521533","prefecture":"新潟県","prefecture_kana":"ニイガタケン","city":"佐渡市","city_kana":"サドシ","town":"相川米屋町","town_kana":"アイカワコメヤマチ","prefecture_code":15},"1553":{"zip_code":"9521553","prefecture":"新潟県","prefecture_kana":"ニイガタケン","city":"佐渡市","city_kana":"サドシ","town":"相川五郎左衛門町","town_kana":"アイカワゴロウザエモンマチ","prefecture_code":15},"1514":{"zip_code":"9521514","prefecture":"新潟県","prefecture_kana":"ニイガタケン","city":"佐渡市","city_kana":"サドシ","town":"相川小六町","town_kana":"アイカワコロクマチ","prefecture_code":15},"1518":{"zip_code":"9521518","prefecture":"新潟県","prefecture_kana":"ニイガタケン","city":"佐渡市","city_kana":"サドシ","town":"相川材木町","town_kana":"アイカワザイモクマチ","prefecture_code":15},"1511":{"zip_code":"9521511","prefecture":"新潟県","prefecture_kana":"ニイガタケン","city":"佐渡市","city_kana":"サドシ","town":"相川栄町","town_kana":"アイカワサカエマチ","prefecture_code":15},"1505":{"zip_code":"9521505","prefecture":"新潟県","prefecture_kana":"ニイガタケン","city":"佐渡市","city_kana":"サドシ","town":"相川坂下町","town_kana":"アイカワサカシタマチ","prefecture_code":15},"1527":{"zip_code":"9521527","prefecture":"新潟県","prefecture_kana":"ニイガタケン","city":"佐渡市","city_kana":"サドシ","town":"相川左門町","town_kana":"アイカワサモンマチ","prefecture_code":15},"1563":{"zip_code":"9521563","prefecture":"新潟県","prefecture_kana":"ニイガタケン","city":"佐渡市","city_kana":"サドシ","town":"相川三町目","town_kana":"アイカワサンチョウメ","prefecture_code":15},"1561":{"zip_code":"9521561","prefecture":"新潟県","prefecture_kana":"ニイガタケン","city":"佐渡市","city_kana":"サドシ","town":"相川三町目新浜町","town_kana":"アイカワサンチョウメシンハママチ","prefecture_code":15},"1562":{"zip_code":"9521562","prefecture":"新潟県","prefecture_kana":"ニイガタケン","city":"佐渡市","city_kana":"サドシ","town":"相川三町目浜町","town_kana":"アイカワサンチョウメハママチ","prefecture_code":15},"1542":{"zip_code":"9521542","prefecture":"新潟県","prefecture_kana":"ニイガタケン","city":"佐渡市","city_kana":"サドシ","town":"相川塩屋町","town_kana":"アイカワシオヤマチ","prefecture_code":15},"1503":{"zip_code":"9521503","prefecture":"新潟県","prefecture_kana":"ニイガタケン","city":"佐渡市","city_kana":"サドシ","town":"相川柴町","town_kana":"アイカワシバマチ","prefecture_code":15},"1536":{"zip_code":"9521536","prefecture":"新潟県","prefecture_kana":"ニイガタケン","city":"佐渡市","city_kana":"サドシ","town":"相川下京町","town_kana":"アイカワシモキョウマチ","prefecture_code":15},"1551":{"zip_code":"9521551","prefecture":"新潟県","prefecture_kana":"ニイガタケン","city":"佐渡市","city_kana":"サドシ","town":"相川下寺町","town_kana":"アイカワシモテラマチ","prefecture_code":15},"1504":{"zip_code":"9521504","prefecture":"新潟県","prefecture_kana":"ニイガタケン","city":"佐渡市","city_kana":"サドシ","town":"相川下山之神町","town_kana":"アイカワシモヤマノカミマチ","prefecture_code":15},"1523":{"zip_code":"9521523","prefecture":"新潟県","prefecture_kana":"ニイガタケン","city":"佐渡市","city_kana":"サドシ","town":"相川新五郎町","town_kana":"アイカワシンゴロウマチ","prefecture_code":15},"1541":{"zip_code":"9521541","prefecture":"新潟県","prefecture_kana":"ニイガタケン","city":"佐渡市","city_kana":"サドシ","town":"相川新材木町","town_kana":"アイカワシンザイモクマチ","prefecture_code":15},"1515":{"zip_code":"9521515","prefecture":"新潟県","prefecture_kana":"ニイガタケン","city":"佐渡市","city_kana":"サドシ","town":"相川新西坂町","town_kana":"アイカワシンニシザカマチ","prefecture_code":15},"1568":{"zip_code":"9521568","prefecture":"新潟県","prefecture_kana":"ニイガタケン","city":"佐渡市","city_kana":"サドシ","town":"相川新浜町","town_kana":"アイカワシンハママチ","prefecture_code":15},"1506":{"zip_code":"9521506","prefecture":"新潟県","prefecture_kana":"ニイガタケン","city":"佐渡市","city_kana":"サドシ","town":"相川炭屋町","town_kana":"アイカワスミヤマチ","prefecture_code":15},"1525":{"zip_code":"9521525","prefecture":"新潟県","prefecture_kana":"ニイガタケン","city":"佐渡市","city_kana":"サドシ","town":"相川諏訪町","town_kana":"アイカワスワマチ","prefecture_code":15},"1524":{"zip_code":"9521524","prefecture":"新潟県","prefecture_kana":"ニイガタケン","city":"佐渡市","city_kana":"サドシ","town":"相川大工町","town_kana":"アイカワダイクマチ","prefecture_code":15},"1535":{"zip_code":"9521535","prefecture":"新潟県","prefecture_kana":"ニイガタケン","city":"佐渡市","city_kana":"サドシ","town":"相川中京町","town_kana":"アイカワナカキョウマチ","prefecture_code":15},"1543":{"zip_code":"9521543","prefecture":"新潟県","prefecture_kana":"ニイガタケン","city":"佐渡市","city_kana":"サドシ","town":"相川長坂町","town_kana":"アイカワナガサカマチ","prefecture_code":15},"1526":{"zip_code":"9521526","prefecture":"新潟県","prefecture_kana":"ニイガタケン","city":"佐渡市","city_kana":"サドシ","town":"相川中寺町","town_kana":"アイカワナカテラマチ","prefecture_code":15},"1513":{"zip_code":"9521513","prefecture":"新潟県","prefecture_kana":"ニイガタケン","city":"佐渡市","city_kana":"サドシ","town":"相川濁川町","town_kana":"アイカワニゴリカワマチ","prefecture_code":15},"1516":{"zip_code":"9521516","prefecture":"新潟県","prefecture_kana":"ニイガタケン","city":"佐渡市","city_kana":"サドシ","town":"相川西坂町","town_kana":"アイカワニシザカマチ","prefecture_code":15},"1558":{"zip_code":"9521558","prefecture":"新潟県","prefecture_kana":"ニイガタケン","city":"佐渡市","city_kana":"サドシ","town":"相川二町目","town_kana":"アイカワニチョウメ","prefecture_code":15},"1554":{"zip_code":"9521554","prefecture":"新潟県","prefecture_kana":"ニイガタケン","city":"佐渡市","city_kana":"サドシ","town":"相川二町目新浜町","town_kana":"アイカワニチョウメシンハママチ","prefecture_code":15},"1555":{"zip_code":"9521555","prefecture":"新潟県","prefecture_kana":"ニイガタケン","city":"佐渡市","city_kana":"サドシ","town":"相川二町目浜町","town_kana":"アイカワニチョウメハママチ","prefecture_code":15},"1548":{"zip_code":"9521548","prefecture":"新潟県","prefecture_kana":"ニイガタケン","city":"佐渡市","city_kana":"サドシ","town":"相川羽田町","town_kana":"アイカワハネダマチ","prefecture_code":15},"1572":{"zip_code":"9521572","prefecture":"新潟県","prefecture_kana":"ニイガタケン","city":"佐渡市","city_kana":"サドシ","town":"相川羽田村","town_kana":"アイカワハネダムラ","prefecture_code":15},"1531":{"zip_code":"9521531","prefecture":"新潟県","prefecture_kana":"ニイガタケン","city":"佐渡市","city_kana":"サドシ","town":"相川広間町","town_kana":"アイカワヒロママチ","prefecture_code":15},"1502":{"zip_code":"9521502","prefecture":"新潟県","prefecture_kana":"ニイガタケン","city":"佐渡市","city_kana":"サドシ","town":"相川水金町","town_kana":"アイカワミズカネマチ","prefecture_code":15},"1544":{"zip_code":"9521544","prefecture":"新潟県","prefecture_kana":"ニイガタケン","city":"佐渡市","city_kana":"サドシ","town":"相川味噌屋町","town_kana":"アイカワミソヤマチ","prefecture_code":15},"1546":{"zip_code":"9521546","prefecture":"新潟県","prefecture_kana":"ニイガタケン","city":"佐渡市","city_kana":"サドシ","town":"相川南沢町","town_kana":"アイカワミナミザワマチ","prefecture_code":15},"1545":{"zip_code":"9521545","prefecture":"新潟県","prefecture_kana":"ニイガタケン","city":"佐渡市","city_kana":"サドシ","town":"相川八百屋町","town_kana":"アイカワヤオヤマチ","prefecture_code":15},"1532":{"zip_code":"9521532","prefecture":"新潟県","prefecture_kana":"ニイガタケン","city":"佐渡市","city_kana":"サドシ","town":"相川弥十郎町","town_kana":"アイカワヤジュウロウマチ","prefecture_code":15},"1521":{"zip_code":"9521521","prefecture":"新潟県","prefecture_kana":"ニイガタケン","city":"佐渡市","city_kana":"サドシ","town":"相川夕白町","town_kana":"アイカワユウハクマチ","prefecture_code":15},"1564":{"zip_code":"9521564","prefecture":"新潟県","prefecture_kana":"ニイガタケン","city":"佐渡市","city_kana":"サドシ","town":"相川四町目","town_kana":"アイカワヨンチョウメ","prefecture_code":15},"1567":{"zip_code":"9521567","prefecture":"新潟県","prefecture_kana":"ニイガタケン","city":"佐渡市","city_kana":"サドシ","town":"相川四町目浜町","town_kana":"アイカワヨンチョウメハママチ","prefecture_code":15},"1528":{"zip_code":"9521528","prefecture":"新潟県","prefecture_kana":"ニイガタケン","city":"佐渡市","city_kana":"サドシ","town":"相川六右衛門町","town_kana":"アイカワロクウエモンマチ","prefecture_code":15},"1326":{"zip_code":"9521326","prefecture":"新潟県","prefecture_kana":"ニイガタケン","city":"佐渡市","city_kana":"サドシ","town":"青野","town_kana":"アオノ","prefecture_code":15},"3421":{"zip_code":"9523421","prefecture":"新潟県","prefecture_kana":"ニイガタケン","city":"佐渡市","city_kana":"サドシ","town":"吾潟","town_kana":"アガタ","prefecture_code":15},"0852":{"zip_code":"9520852","prefecture":"新潟県","prefecture_kana":"ニイガタケン","city":"佐渡市","city_kana":"サドシ","town":"赤玉","town_kana":"アカダマ","prefecture_code":15},"0711":{"zip_code":"9520711","prefecture":"新潟県","prefecture_kana":"ニイガタケン","city":"佐渡市","city_kana":"サドシ","town":"赤泊","town_kana":"アカドマリ","prefecture_code":15},"0021":{"zip_code":"9520021","prefecture":"新潟県","prefecture_kana":"ニイガタケン","city":"佐渡市","city_kana":"サドシ","town":"秋津","town_kana":"アキツ","prefecture_code":15},"0022":{"zip_code":"9520022","prefecture":"新潟県","prefecture_kana":"ニイガタケン","city":"佐渡市","city_kana":"サドシ","town":"旭","town_kana":"アサヒ","prefecture_code":15},"0303":{"zip_code":"9520303","prefecture":"新潟県","prefecture_kana":"ニイガタケン","city":"佐渡市","city_kana":"サドシ","town":"阿仏坊","town_kana":"アブツボウ","prefecture_code":15},"0851":{"zip_code":"9520851","prefecture":"新潟県","prefecture_kana":"ニイガタケン","city":"佐渡市","city_kana":"サドシ","town":"蚫","town_kana":"アワビ","prefecture_code":15},"1201":{"zip_code":"9521201","prefecture":"新潟県","prefecture_kana":"ニイガタケン","city":"佐渡市","city_kana":"サドシ","town":"安養寺","town_kana":"アンヨウジ","prefecture_code":15},"0213":{"zip_code":"9520213","prefecture":"新潟県","prefecture_kana":"ニイガタケン","city":"佐渡市","city_kana":"サドシ","town":"飯持","town_kana":"イイモチ","prefecture_code":15},"2202":{"zip_code":"9522202","prefecture":"新潟県","prefecture_kana":"ニイガタケン","city":"佐渡市","city_kana":"サドシ","town":"五十浦","town_kana":"イカウラ","prefecture_code":15},"2224":{"zip_code":"9522224","prefecture":"新潟県","prefecture_kana":"ニイガタケン","city":"佐渡市","city_kana":"サドシ","town":"石花","town_kana":"イシゲ","prefecture_code":15},"1322":{"zip_code":"9521322","prefecture":"新潟県","prefecture_kana":"ニイガタケン","city":"佐渡市","city_kana":"サドシ","town":"石田","town_kana":"イシダ","prefecture_code":15},"2211":{"zip_code":"9522211","prefecture":"新潟県","prefecture_kana":"ニイガタケン","city":"佐渡市","city_kana":"サドシ","town":"石名","town_kana":"イシナ","prefecture_code":15},"1212":{"zip_code":"9521212","prefecture":"新潟県","prefecture_kana":"ニイガタケン","city":"佐渡市","city_kana":"サドシ","town":"泉","town_kana":"イズミ","prefecture_code":15},"1302":{"zip_code":"9521302","prefecture":"新潟県","prefecture_kana":"ニイガタケン","city":"佐渡市","city_kana":"サドシ","town":"市野沢","town_kana":"イチノサワ","prefecture_code":15},"0626":{"zip_code":"9520626","prefecture":"新潟県","prefecture_kana":"ニイガタケン","city":"佐渡市","city_kana":"サドシ","town":"井坪","town_kana":"イツボ","prefecture_code":15},"1643":{"zip_code":"9521643","prefecture":"新潟県","prefecture_kana":"ニイガタケン","city":"佐渡市","city_kana":"サドシ","town":"稲鯨","town_kana":"イナクジラ","prefecture_code":15},"0614":{"zip_code":"9520614","prefecture":"新潟県","prefecture_kana":"ニイガタケン","city":"佐渡市","city_kana":"サドシ","town":"犬神平","town_kana":"イヌカミダイラ","prefecture_code":15},"0857":{"zip_code":"9520857","prefecture":"新潟県","prefecture_kana":"ニイガタケン","city":"佐渡市","city_kana":"サドシ","town":"岩首","town_kana":"イワクビ","prefecture_code":15},"2201":{"zip_code":"9522201","prefecture":"新潟県","prefecture_kana":"ニイガタケン","city":"佐渡市","city_kana":"サドシ","town":"岩谷口","town_kana":"イワヤグチ","prefecture_code":15},"2223":{"zip_code":"9522223","prefecture":"新潟県","prefecture_kana":"ニイガタケン","city":"佐渡市","city_kana":"サドシ","town":"後尾","town_kana":"ウシロオ","prefecture_code":15},"3113":{"zip_code":"9523113","prefecture":"新潟県","prefecture_kana":"ニイガタケン","city":"佐渡市","city_kana":"サドシ","town":"歌見","town_kana":"ウタミ","prefecture_code":15},"3117":{"zip_code":"9523117","prefecture":"新潟県","prefecture_kana":"ニイガタケン","city":"佐渡市","city_kana":"サドシ","town":"馬首","town_kana":"ウマクビ","prefecture_code":15},"0005":{"zip_code":"9520005","prefecture":"新潟県","prefecture_kana":"ニイガタケン","city":"佐渡市","city_kana":"サドシ","town":"梅津","town_kana":"ウメヅ","prefecture_code":15},"3114":{"zip_code":"9523114","prefecture":"新潟県","prefecture_kana":"ニイガタケン","city":"佐渡市","city_kana":"サドシ","town":"浦川","town_kana":"ウラガワ","prefecture_code":15},"0622":{"zip_code":"9520622","prefecture":"新潟県","prefecture_kana":"ニイガタケン","city":"佐渡市","city_kana":"サドシ","town":"江積","town_kana":"エッツミ","prefecture_code":15},"0214":{"zip_code":"9520214","prefecture":"新潟県","prefecture_kana":"ニイガタケン","city":"佐渡市","city_kana":"サドシ","town":"大久保","town_kana":"オオクボ","prefecture_code":15},"2205":{"zip_code":"9522205","prefecture":"新潟県","prefecture_kana":"ニイガタケン","city":"佐渡市","city_kana":"サドシ","town":"大倉","town_kana":"オオクラ","prefecture_code":15},"0432":{"zip_code":"9520432","prefecture":"新潟県","prefecture_kana":"ニイガタケン","city":"佐渡市","city_kana":"サドシ","town":"大倉谷","town_kana":"オオクラタニ","prefecture_code":15},"0315":{"zip_code":"9520315","prefecture":"新潟県","prefecture_kana":"ニイガタケン","city":"佐渡市","city_kana":"サドシ","town":"大須","town_kana":"オオズ","prefecture_code":15},"0716":{"zip_code":"9520716","prefecture":"新潟県","prefecture_kana":"ニイガタケン","city":"佐渡市","city_kana":"サドシ","town":"大杉","town_kana":"オオスギ","prefecture_code":15},"0822":{"zip_code":"9520822","prefecture":"新潟県","prefecture_kana":"ニイガタケン","city":"佐渡市","city_kana":"サドシ","town":"多田","town_kana":"オオタ","prefecture_code":15},"2136":{"zip_code":"9522136","prefecture":"新潟県","prefecture_kana":"ニイガタケン","city":"佐渡市","city_kana":"サドシ","town":"小川","town_kana":"オガワ","prefecture_code":15},"0605":{"zip_code":"9520605","prefecture":"新潟県","prefecture_kana":"ニイガタケン","city":"佐渡市","city_kana":"サドシ","town":"小木","town_kana":"オギ","prefecture_code":15},"0611":{"zip_code":"9520611","prefecture":"新潟県","prefecture_kana":"ニイガタケン","city":"佐渡市","city_kana":"サドシ","town":"小木金田新田","town_kana":"オギカネタシンデン","prefecture_code":15},"0603":{"zip_code":"9520603","prefecture":"新潟県","prefecture_kana":"ニイガタケン","city":"佐渡市","city_kana":"サドシ","town":"小木木野浦","town_kana":"オギキノウラ","prefecture_code":15},"0613":{"zip_code":"9520613","prefecture":"新潟県","prefecture_kana":"ニイガタケン","city":"佐渡市","city_kana":"サドシ","town":"小木強清水","town_kana":"オギコワシミズ","prefecture_code":15},"0601":{"zip_code":"9520601","prefecture":"新潟県","prefecture_kana":"ニイガタケン","city":"佐渡市","city_kana":"サドシ","town":"小木堂釜","town_kana":"オギドウノカマ","prefecture_code":15},"0625":{"zip_code":"9520625","prefecture":"新潟県","prefecture_kana":"ニイガタケン","city":"佐渡市","city_kana":"サドシ","town":"小木大浦","town_kana":"オギオオウラ","prefecture_code":15},"0604":{"zip_code":"9520604","prefecture":"新潟県","prefecture_kana":"ニイガタケン","city":"佐渡市","city_kana":"サドシ","town":"小木町","town_kana":"オギマチ","prefecture_code":15},"0205":{"zip_code":"9520205","prefecture":"新潟県","prefecture_kana":"ニイガタケン","city":"佐渡市","city_kana":"サドシ","town":"小倉","town_kana":"オグラ","prefecture_code":15},"2212":{"zip_code":"9522212","prefecture":"新潟県","prefecture_kana":"ニイガタケン","city":"佐渡市","city_kana":"サドシ","town":"小野見","town_kana":"オノミ","prefecture_code":15},"1207":{"zip_code":"9521207","prefecture":"新潟県","prefecture_kana":"ニイガタケン","city":"佐渡市","city_kana":"サドシ","town":"貝塚","town_kana":"カイヅカ","prefecture_code":15},"0855":{"zip_code":"9520855","prefecture":"新潟県","prefecture_kana":"ニイガタケン","city":"佐渡市","city_kana":"サドシ","town":"柿野浦","town_kana":"カキノウラ","prefecture_code":15},"1323":{"zip_code":"9521323","prefecture":"新潟県","prefecture_kana":"ニイガタケン","city":"佐渡市","city_kana":"サドシ","town":"鍛冶町","town_kana":"カジマチ","prefecture_code":15},"0006":{"zip_code":"9520006","prefecture":"新潟県","prefecture_kana":"ニイガタケン","city":"佐渡市","city_kana":"サドシ","town":"春日","town_kana":"カスガ","prefecture_code":15},"3542":{"zip_code":"9523542","prefecture":"新潟県","prefecture_kana":"ニイガタケン","city":"佐渡市","city_kana":"サドシ","town":"片野尾","town_kana":"カタノオ","prefecture_code":15},"0023":{"zip_code":"9520023","prefecture":"新潟県","prefecture_kana":"ニイガタケン","city":"佐渡市","city_kana":"サドシ","town":"潟端","town_kana":"カタバタ","prefecture_code":15},"1208":{"zip_code":"9521208","prefecture":"新潟県","prefecture_kana":"ニイガタケン","city":"佐渡市","city_kana":"サドシ","town":"金井新保","town_kana":"カナイシンボ","prefecture_code":15},"0307":{"zip_code":"9520307","prefecture":"新潟県","prefecture_kana":"ニイガタケン","city":"佐渡市","city_kana":"サドシ","town":"金丸","town_kana":"カナマル","prefecture_code":15},"0702":{"zip_code":"9520702","prefecture":"新潟県","prefecture_kana":"ニイガタケン","city":"佐渡市","city_kana":"サドシ","town":"上川茂","town_kana":"カミカワモ","prefecture_code":15},"1305":{"zip_code":"9521305","prefecture":"新潟県","prefecture_kana":"ニイガタケン","city":"佐渡市","city_kana":"サドシ","town":"上長木","town_kana":"カミナガキ","prefecture_code":15},"0108":{"zip_code":"9520108","prefecture":"新潟県","prefecture_kana":"ニイガタケン","city":"佐渡市","city_kana":"サドシ","town":"上新穂","town_kana":"カミニイボ","prefecture_code":15},"1303":{"zip_code":"9521303","prefecture":"新潟県","prefecture_kana":"ニイガタケン","city":"佐渡市","city_kana":"サドシ","town":"上矢馳","town_kana":"カミヤバセ","prefecture_code":15},"0024":{"zip_code":"9520024","prefecture":"新潟県","prefecture_kana":"ニイガタケン","city":"佐渡市","city_kana":"サドシ","town":"上横山","town_kana":"カミヨコヤマ","prefecture_code":15},"0028":{"zip_code":"9520028","prefecture":"新潟県","prefecture_kana":"ニイガタケン","city":"佐渡市","city_kana":"サドシ","town":"加茂歌代","town_kana":"カモウタシロ","prefecture_code":15},"3425":{"zip_code":"9523425","prefecture":"新潟県","prefecture_kana":"ニイガタケン","city":"佐渡市","city_kana":"サドシ","town":"河崎","town_kana":"カワサキ","prefecture_code":15},"1315":{"zip_code":"9521315","prefecture":"新潟県","prefecture_kana":"ニイガタケン","city":"佐渡市","city_kana":"サドシ","town":"河原田諏訪町","town_kana":"カワハラダスワマチ","prefecture_code":15},"1314":{"zip_code":"9521314","prefecture":"新潟県","prefecture_kana":"ニイガタケン","city":"佐渡市","city_kana":"サドシ","town":"河原田本町","town_kana":"カワハラダホンマチ","prefecture_code":15},"0002":{"zip_code":"9520002","prefecture":"新潟県","prefecture_kana":"ニイガタケン","city":"佐渡市","city_kana":"サドシ","town":"北五十里","town_kana":"キタイカリ","prefecture_code":15},"3202":{"zip_code":"9523202","prefecture":"新潟県","prefecture_kana":"ニイガタケン","city":"佐渡市","city_kana":"サドシ","town":"北鵜島","town_kana":"キタウシマ","prefecture_code":15},"2133":{"zip_code":"9522133","prefecture":"新潟県","prefecture_kana":"ニイガタケン","city":"佐渡市","city_kana":"サドシ","town":"北狄","town_kana":"キタエビス","prefecture_code":15},"2225":{"zip_code":"9522225","prefecture":"新潟県","prefecture_kana":"ニイガタケン","city":"佐渡市","city_kana":"サドシ","town":"北片辺","town_kana":"キタカタベ","prefecture_code":15},"2222":{"zip_code":"9522222","prefecture":"新潟県","prefecture_kana":"ニイガタケン","city":"佐渡市","city_kana":"サドシ","town":"北川内","town_kana":"キタカワチ","prefecture_code":15},"3207":{"zip_code":"9523207","prefecture":"新潟県","prefecture_kana":"ニイガタケン","city":"佐渡市","city_kana":"サドシ","town":"北小浦","town_kana":"キタコウラ","prefecture_code":15},"2221":{"zip_code":"9522221","prefecture":"新潟県","prefecture_kana":"ニイガタケン","city":"佐渡市","city_kana":"サドシ","town":"北立島","town_kana":"キタタツシマ","prefecture_code":15},"2213":{"zip_code":"9522213","prefecture":"新潟県","prefecture_kana":"ニイガタケン","city":"佐渡市","city_kana":"サドシ","town":"北田野浦","town_kana":"キタタノウラ","prefecture_code":15},"3116":{"zip_code":"9523116","prefecture":"新潟県","prefecture_kana":"ニイガタケン","city":"佐渡市","city_kana":"サドシ","town":"北松ケ崎","town_kana":"キタマツガサキ","prefecture_code":15},"3423":{"zip_code":"9523423","prefecture":"新潟県","prefecture_kana":"ニイガタケン","city":"佐渡市","city_kana":"サドシ","town":"久知河内","town_kana":"クヂカワチ","prefecture_code":15},"1325":{"zip_code":"9521325","prefecture":"新潟県","prefecture_kana":"ニイガタケン","city":"佐渡市","city_kana":"サドシ","town":"窪田","town_kana":"クボタ","prefecture_code":15},"0202":{"zip_code":"9520202","prefecture":"新潟県","prefecture_kana":"ニイガタケン","city":"佐渡市","city_kana":"サドシ","town":"栗野江","town_kana":"クリノエ","prefecture_code":15},"3112":{"zip_code":"9523112","prefecture":"新潟県","prefecture_kana":"ニイガタケン","city":"佐渡市","city_kana":"サドシ","town":"黒姫","town_kana":"クロヒメ","prefecture_code":15},"0304":{"zip_code":"9520304","prefecture":"新潟県","prefecture_kana":"ニイガタケン","city":"佐渡市","city_kana":"サドシ","town":"国分寺","town_kana":"コクブンジ","prefecture_code":15},"2206":{"zip_code":"9522206","prefecture":"新潟県","prefecture_kana":"ニイガタケン","city":"佐渡市","city_kana":"サドシ","town":"小田","town_kana":"コダ","prefecture_code":15},"0606":{"zip_code":"9520606","prefecture":"新潟県","prefecture_kana":"ニイガタケン","city":"佐渡市","city_kana":"サドシ","town":"琴浦","town_kana":"コトウラ","prefecture_code":15},"0624":{"zip_code":"9520624","prefecture":"新潟県","prefecture_kana":"ニイガタケン","city":"佐渡市","city_kana":"サドシ","town":"木流","town_kana":"コナガセ","prefecture_code":15},"0602":{"zip_code":"9520602","prefecture":"新潟県","prefecture_kana":"ニイガタケン","city":"佐渡市","city_kana":"サドシ","town":"小比叡","town_kana":"コビエ","prefecture_code":15},"0215":{"zip_code":"9520215","prefecture":"新潟県","prefecture_kana":"ニイガタケン","city":"佐渡市","city_kana":"サドシ","town":"猿八","town_kana":"サルハチ","prefecture_code":15},"0621":{"zip_code":"9520621","prefecture":"新潟県","prefecture_kana":"ニイガタケン","city":"佐渡市","city_kana":"サドシ","town":"沢崎","town_kana":"サワサキ","prefecture_code":15},"1432":{"zip_code":"9521432","prefecture":"新潟県","prefecture_kana":"ニイガタケン","city":"佐渡市","city_kana":"サドシ","town":"沢根五十里","town_kana":"サワネイカリ","prefecture_code":15},"1433":{"zip_code":"9521433","prefecture":"新潟県","prefecture_kana":"ニイガタケン","city":"佐渡市","city_kana":"サドシ","town":"沢根篭町","town_kana":"サワネカゴマチ","prefecture_code":15},"1431":{"zip_code":"9521431","prefecture":"新潟県","prefecture_kana":"ニイガタケン","city":"佐渡市","city_kana":"サドシ","town":"沢根炭屋町","town_kana":"サワネスミヤマチ","prefecture_code":15},"1435":{"zip_code":"9521435","prefecture":"新潟県","prefecture_kana":"ニイガタケン","city":"佐渡市","city_kana":"サドシ","town":"沢根","town_kana":"サワネ","prefecture_code":15},"1434":{"zip_code":"9521434","prefecture":"新潟県","prefecture_kana":"ニイガタケン","city":"佐渡市","city_kana":"サドシ","town":"沢根町","town_kana":"サワネマチ","prefecture_code":15},"0216":{"zip_code":"9520216","prefecture":"新潟県","prefecture_kana":"ニイガタケン","city":"佐渡市","city_kana":"サドシ","town":"三宮","town_kana":"サングウ","prefecture_code":15},"1204":{"zip_code":"9521204","prefecture":"新潟県","prefecture_kana":"ニイガタケン","city":"佐渡市","city_kana":"サドシ","town":"三瀬川","town_kana":"サンセガワ","prefecture_code":15},"3432":{"zip_code":"9523432","prefecture":"新潟県","prefecture_kana":"ニイガタケン","city":"佐渡市","city_kana":"サドシ","town":"椎泊","town_kana":"シイドマリ","prefecture_code":15},"0321":{"zip_code":"9520321","prefecture":"新潟県","prefecture_kana":"ニイガタケン","city":"佐渡市","city_kana":"サドシ","town":"静平","town_kana":"シズダイラ","prefecture_code":15},"1501":{"zip_code":"9521501","prefecture":"新潟県","prefecture_kana":"ニイガタケン","city":"佐渡市","city_kana":"サドシ","town":"下相川","town_kana":"シモアイカワ","prefecture_code":15},"0701":{"zip_code":"9520701","prefecture":"新潟県","prefecture_kana":"ニイガタケン","city":"佐渡市","city_kana":"サドシ","town":"下川茂","town_kana":"シモカワモ","prefecture_code":15},"3424":{"zip_code":"9523424","prefecture":"新潟県","prefecture_kana":"ニイガタケン","city":"佐渡市","city_kana":"サドシ","town":"下久知","town_kana":"シモクヂ","prefecture_code":15},"0322":{"zip_code":"9520322","prefecture":"新潟県","prefecture_kana":"ニイガタケン","city":"佐渡市","city_kana":"サドシ","town":"下黒山","town_kana":"シモクロヤマ","prefecture_code":15},"1304":{"zip_code":"9521304","prefecture":"新潟県","prefecture_kana":"ニイガタケン","city":"佐渡市","city_kana":"サドシ","town":"下長木","town_kana":"シモナガキ","prefecture_code":15},"0114":{"zip_code":"9520114","prefecture":"新潟県","prefecture_kana":"ニイガタケン","city":"佐渡市","city_kana":"サドシ","town":"下新穂","town_kana":"シモニイボ","prefecture_code":15},"0025":{"zip_code":"9520025","prefecture":"新潟県","prefecture_kana":"ニイガタケン","city":"佐渡市","city_kana":"サドシ","town":"下横山","town_kana":"シモヨコヤマ","prefecture_code":15},"0612":{"zip_code":"9520612","prefecture":"新潟県","prefecture_kana":"ニイガタケン","city":"佐渡市","city_kana":"サドシ","town":"宿根木","town_kana":"シュクネギ","prefecture_code":15},"3422":{"zip_code":"9523422","prefecture":"新潟県","prefecture_kana":"ニイガタケン","city":"佐渡市","city_kana":"サドシ","town":"城腰","town_kana":"ジョウノコシ","prefecture_code":15},"0001":{"zip_code":"9520001","prefecture":"新潟県","prefecture_kana":"ニイガタケン","city":"佐渡市","city_kana":"サドシ","town":"白瀬","town_kana":"シロセ","prefecture_code":15},"1301":{"zip_code":"9521301","prefecture":"新潟県","prefecture_kana":"ニイガタケン","city":"佐渡市","city_kana":"サドシ","town":"真光寺","town_kana":"シンコウジ","prefecture_code":15},"3541":{"zip_code":"9523541","prefecture":"新潟県","prefecture_kana":"ニイガタケン","city":"佐渡市","city_kana":"サドシ","town":"水津","town_kana":"スイヅ","prefecture_code":15},"0715":{"zip_code":"9520715","prefecture":"新潟県","prefecture_kana":"ニイガタケン","city":"佐渡市","city_kana":"サドシ","town":"杉野浦","town_kana":"スギノウラ","prefecture_code":15},"0015":{"zip_code":"9520015","prefecture":"新潟県","prefecture_kana":"ニイガタケン","city":"佐渡市","city_kana":"サドシ","town":"住吉","town_kana":"スミヨシ","prefecture_code":15},"2203":{"zip_code":"9522203","prefecture":"新潟県","prefecture_kana":"ニイガタケン","city":"佐渡市","city_kana":"サドシ","town":"関","town_kana":"セキ","prefecture_code":15},"0316":{"zip_code":"9520316","prefecture":"新潟県","prefecture_kana":"ニイガタケン","city":"佐渡市","city_kana":"サドシ","town":"背合","town_kana":"セナゴウ","prefecture_code":15},"0431":{"zip_code":"9520431","prefecture":"新潟県","prefecture_kana":"ニイガタケン","city":"佐渡市","city_kana":"サドシ","town":"大小","town_kana":"ダイショウ","prefecture_code":15},"2214":{"zip_code":"9522214","prefecture":"新潟県","prefecture_kana":"ニイガタケン","city":"佐渡市","city_kana":"サドシ","town":"高千","town_kana":"タカチ","prefecture_code":15},"0433":{"zip_code":"9520433","prefecture":"新潟県","prefecture_kana":"ニイガタケン","city":"佐渡市","city_kana":"サドシ","town":"田切須","town_kana":"タギリス","prefecture_code":15},"0314":{"zip_code":"9520314","prefecture":"新潟県","prefecture_kana":"ニイガタケン","city":"佐渡市","city_kana":"サドシ","town":"滝脇","town_kana":"タキワキ","prefecture_code":15},"0302":{"zip_code":"9520302","prefecture":"新潟県","prefecture_kana":"ニイガタケン","city":"佐渡市","city_kana":"サドシ","town":"竹田","town_kana":"タケダ","prefecture_code":15},"1645":{"zip_code":"9521645","prefecture":"新潟県","prefecture_kana":"ニイガタケン","city":"佐渡市","city_kana":"サドシ","town":"高瀬","town_kana":"タコセ","prefecture_code":15},"1644":{"zip_code":"9521644","prefecture":"新潟県","prefecture_kana":"ニイガタケン","city":"佐渡市","city_kana":"サドシ","town":"橘","town_kana":"タチバナ","prefecture_code":15},"2135":{"zip_code":"9522135","prefecture":"新潟県","prefecture_kana":"ニイガタケン","city":"佐渡市","city_kana":"サドシ","town":"達者","town_kana":"タッシャ","prefecture_code":15},"0853":{"zip_code":"9520853","prefecture":"新潟県","prefecture_kana":"ニイガタケン","city":"佐渡市","city_kana":"サドシ","town":"立間","town_kana":"タツマ","prefecture_code":15},"0026":{"zip_code":"9520026","prefecture":"新潟県","prefecture_kana":"ニイガタケン","city":"佐渡市","city_kana":"サドシ","town":"立野","town_kana":"タテノ","prefecture_code":15},"0623":{"zip_code":"9520623","prefecture":"新潟県","prefecture_kana":"ニイガタケン","city":"佐渡市","city_kana":"サドシ","town":"田野浦","town_kana":"タノウラ","prefecture_code":15},"3119":{"zip_code":"9523119","prefecture":"新潟県","prefecture_kana":"ニイガタケン","city":"佐渡市","city_kana":"サドシ","town":"玉崎","town_kana":"タマサキ","prefecture_code":15},"1209":{"zip_code":"9521209","prefecture":"新潟県","prefecture_kana":"ニイガタケン","city":"佐渡市","city_kana":"サドシ","town":"千種","town_kana":"チグサ","prefecture_code":15},"3543":{"zip_code":"9523543","prefecture":"新潟県","prefecture_kana":"ニイガタケン","city":"佐渡市","city_kana":"サドシ","town":"月布施","town_kana":"ツキフセ","prefecture_code":15},"0003":{"zip_code":"9520003","prefecture":"新潟県","prefecture_kana":"ニイガタケン","city":"佐渡市","city_kana":"サドシ","town":"椿","town_kana":"ツバキ","prefecture_code":15},"0435":{"zip_code":"9520435","prefecture":"新潟県","prefecture_kana":"ニイガタケン","city":"佐渡市","city_kana":"サドシ","town":"椿尾","town_kana":"ツバキオ","prefecture_code":15},"0207":{"zip_code":"9520207","prefecture":"新潟県","prefecture_kana":"ニイガタケン","city":"佐渡市","city_kana":"サドシ","town":"寺田","town_kana":"テラダ","prefecture_code":15},"0706":{"zip_code":"9520706","prefecture":"新潟県","prefecture_kana":"ニイガタケン","city":"佐渡市","city_kana":"サドシ","town":"徳和","town_kana":"トクワ","prefecture_code":15},"2132":{"zip_code":"9522132","prefecture":"新潟県","prefecture_kana":"ニイガタケン","city":"佐渡市","city_kana":"サドシ","town":"戸地","town_kana":"トジ","prefecture_code":15},"2131":{"zip_code":"9522131","prefecture":"新潟県","prefecture_kana":"ニイガタケン","city":"佐渡市","city_kana":"サドシ","town":"戸中","town_kana":"トチュウ","prefecture_code":15},"0703":{"zip_code":"9520703","prefecture":"新潟県","prefecture_kana":"ニイガタケン","city":"佐渡市","city_kana":"サドシ","town":"外山","town_kana":"トヤマ","prefecture_code":15},"0854":{"zip_code":"9520854","prefecture":"新潟県","prefecture_kana":"ニイガタケン","city":"佐渡市","city_kana":"サドシ","town":"豊岡","town_kana":"トヨオカ","prefecture_code":15},"0317":{"zip_code":"9520317","prefecture":"新潟県","prefecture_kana":"ニイガタケン","city":"佐渡市","city_kana":"サドシ","town":"豊田","town_kana":"トヨタ","prefecture_code":15},"0305":{"zip_code":"9520305","prefecture":"新潟県","prefecture_kana":"ニイガタケン","city":"佐渡市","city_kana":"サドシ","town":"長石","town_kana":"ナガイシ","prefecture_code":15},"0027":{"zip_code":"9520027","prefecture":"新潟県","prefecture_kana":"ニイガタケン","city":"佐渡市","city_kana":"サドシ","town":"長江","town_kana":"ナガエ","prefecture_code":15},"1211":{"zip_code":"9521211","prefecture":"新潟県","prefecture_kana":"ニイガタケン","city":"佐渡市","city_kana":"サドシ","town":"中興","town_kana":"ナカオキ","prefecture_code":15},"1306":{"zip_code":"9521306","prefecture":"新潟県","prefecture_kana":"ニイガタケン","city":"佐渡市","city_kana":"サドシ","town":"長木","town_kana":"ナガキ","prefecture_code":15},"1324":{"zip_code":"9521324","prefecture":"新潟県","prefecture_kana":"ニイガタケン","city":"佐渡市","city_kana":"サドシ","town":"中原","town_kana":"ナカハラ","prefecture_code":15},"0311":{"zip_code":"9520311","prefecture":"新潟県","prefecture_kana":"ニイガタケン","city":"佐渡市","city_kana":"サドシ","town":"名古屋","town_kana":"ナゴヤ","prefecture_code":15},"0116":{"zip_code":"9520116","prefecture":"新潟県","prefecture_kana":"ニイガタケン","city":"佐渡市","city_kana":"サドシ","town":"新穂","town_kana":"ニイボ","prefecture_code":15},"0102":{"zip_code":"9520102","prefecture":"新潟県","prefecture_kana":"ニイガタケン","city":"佐渡市","city_kana":"サドシ","town":"新穂青木","town_kana":"ニイボアオキ","prefecture_code":15},"0107":{"zip_code":"9520107","prefecture":"新潟県","prefecture_kana":"ニイガタケン","city":"佐渡市","city_kana":"サドシ","town":"新穂井内","town_kana":"ニイボイナイ","prefecture_code":15},"0106":{"zip_code":"9520106","prefecture":"新潟県","prefecture_kana":"ニイガタケン","city":"佐渡市","city_kana":"サドシ","town":"新穂瓜生屋","town_kana":"ニイボウリュウヤ","prefecture_code":15},"0109":{"zip_code":"9520109","prefecture":"新潟県","prefecture_kana":"ニイガタケン","city":"佐渡市","city_kana":"サドシ","town":"新穂大野","town_kana":"ニイボオオノ","prefecture_code":15},"0103":{"zip_code":"9520103","prefecture":"新潟県","prefecture_kana":"ニイガタケン","city":"佐渡市","city_kana":"サドシ","town":"新穂潟上","town_kana":"ニイボカタガミ","prefecture_code":15},"0115":{"zip_code":"9520115","prefecture":"新潟県","prefecture_kana":"ニイガタケン","city":"佐渡市","city_kana":"サドシ","town":"新穂北方","town_kana":"ニイボキタガタ","prefecture_code":15},"0105":{"zip_code":"9520105","prefecture":"新潟県","prefecture_kana":"ニイガタケン","city":"佐渡市","city_kana":"サドシ","town":"新穂正明寺","town_kana":"ニイボショウミョウジ","prefecture_code":15},"0111":{"zip_code":"9520111","prefecture":"新潟県","prefecture_kana":"ニイガタケン","city":"佐渡市","city_kana":"サドシ","town":"新穂武井","town_kana":"ニイボタケイ","prefecture_code":15},"0104":{"zip_code":"9520104","prefecture":"新潟県","prefecture_kana":"ニイガタケン","city":"佐渡市","city_kana":"サドシ","town":"新穂田野沢","town_kana":"ニイボタノサワ","prefecture_code":15},"0101":{"zip_code":"9520101","prefecture":"新潟県","prefecture_kana":"ニイガタケン","city":"佐渡市","city_kana":"サドシ","town":"新穂長畝","town_kana":"ニイボナガウネ","prefecture_code":15},"0112":{"zip_code":"9520112","prefecture":"新潟県","prefecture_kana":"ニイガタケン","city":"佐渡市","city_kana":"サドシ","town":"新穂舟下","town_kana":"ニイボフナシモ","prefecture_code":15},"0113":{"zip_code":"9520113","prefecture":"新潟県","prefecture_kana":"ニイガタケン","city":"佐渡市","city_kana":"サドシ","town":"新穂皆川","town_kana":"ニイボミナガワ","prefecture_code":15},"1308":{"zip_code":"9521308","prefecture":"新潟県","prefecture_kana":"ニイガタケン","city":"佐渡市","city_kana":"サドシ","town":"二宮","town_kana":"ニクウ","prefecture_code":15},"0434":{"zip_code":"9520434","prefecture":"新潟県","prefecture_kana":"ニイガタケン","city":"佐渡市","city_kana":"サドシ","town":"西三川","town_kana":"ニシミカワ","prefecture_code":15},"2215":{"zip_code":"9522215","prefecture":"新潟県","prefecture_kana":"ニイガタケン","city":"佐渡市","city_kana":"サドシ","town":"入川","town_kana":"ニュウガワ","prefecture_code":15},"3203":{"zip_code":"9523203","prefecture":"新潟県","prefecture_kana":"ニイガタケン","city":"佐渡市","city_kana":"サドシ","town":"願","town_kana":"ネガイ","prefecture_code":15},"3544":{"zip_code":"9523544","prefecture":"新潟県","prefecture_kana":"ニイガタケン","city":"佐渡市","city_kana":"サドシ","town":"野浦","town_kana":"ノウラ","prefecture_code":15},"0204":{"zip_code":"9520204","prefecture":"新潟県","prefecture_kana":"ニイガタケン","city":"佐渡市","city_kana":"サドシ","town":"長谷","town_kana":"ハセ","prefecture_code":15},"0206":{"zip_code":"9520206","prefecture":"新潟県","prefecture_kana":"ニイガタケン","city":"佐渡市","city_kana":"サドシ","town":"畑野","town_kana":"ハタノ","prefecture_code":15},"3434":{"zip_code":"9523434","prefecture":"新潟県","prefecture_kana":"ニイガタケン","city":"佐渡市","city_kana":"サドシ","town":"羽二生","town_kana":"ハニウ","prefecture_code":15},"0823":{"zip_code":"9520823","prefecture":"新潟県","prefecture_kana":"ニイガタケン","city":"佐渡市","city_kana":"サドシ","town":"浜河内","town_kana":"ハマカワチ","prefecture_code":15},"0007":{"zip_code":"9520007","prefecture":"新潟県","prefecture_kana":"ニイガタケン","city":"佐渡市","city_kana":"サドシ","town":"浜田","town_kana":"ハマダ","prefecture_code":15},"0503":{"zip_code":"9520503","prefecture":"新潟県","prefecture_kana":"ニイガタケン","city":"佐渡市","city_kana":"サドシ","town":"羽茂飯岡","town_kana":"ハモチイイオカ","prefecture_code":15},"0511":{"zip_code":"9520511","prefecture":"新潟県","prefecture_kana":"ニイガタケン","city":"佐渡市","city_kana":"サドシ","town":"羽茂大石","town_kana":"ハモチオオイシ","prefecture_code":15},"0502":{"zip_code":"9520502","prefecture":"新潟県","prefecture_kana":"ニイガタケン","city":"佐渡市","city_kana":"サドシ","town":"羽茂大崎","town_kana":"ハモチオオサキ","prefecture_code":15},"0512":{"zip_code":"9520512","prefecture":"新潟県","prefecture_kana":"ニイガタケン","city":"佐渡市","city_kana":"サドシ","town":"羽茂大橋","town_kana":"ハモチオオハシ","prefecture_code":15},"0515":{"zip_code":"9520515","prefecture":"新潟県","prefecture_kana":"ニイガタケン","city":"佐渡市","city_kana":"サドシ","town":"羽茂上山田","town_kana":"ハモチカミヤマダ","prefecture_code":15},"0422":{"zip_code":"9520422","prefecture":"新潟県","prefecture_kana":"ニイガタケン","city":"佐渡市","city_kana":"サドシ","town":"羽茂亀脇","town_kana":"ハモチカメワキ","prefecture_code":15},"0421":{"zip_code":"9520421","prefecture":"新潟県","prefecture_kana":"ニイガタケン","city":"佐渡市","city_kana":"サドシ","town":"羽茂小泊","town_kana":"ハモチコドマリ","prefecture_code":15},"0514":{"zip_code":"9520514","prefecture":"新潟県","prefecture_kana":"ニイガタケン","city":"佐渡市","city_kana":"サドシ","town":"羽茂小泊","town_kana":"ハモチコドマリ","prefecture_code":15},"0505":{"zip_code":"9520505","prefecture":"新潟県","prefecture_kana":"ニイガタケン","city":"佐渡市","city_kana":"サドシ","town":"羽茂三瀬","town_kana":"ハモチサンセ","prefecture_code":15},"0501":{"zip_code":"9520501","prefecture":"新潟県","prefecture_kana":"ニイガタケン","city":"佐渡市","city_kana":"サドシ","town":"羽茂滝平","town_kana":"ハモチタキダイラ","prefecture_code":15},"0504":{"zip_code":"9520504","prefecture":"新潟県","prefecture_kana":"ニイガタケン","city":"佐渡市","city_kana":"サドシ","town":"羽茂本郷","town_kana":"ハモチホンゴウ","prefecture_code":15},"0513":{"zip_code":"9520513","prefecture":"新潟県","prefecture_kana":"ニイガタケン","city":"佐渡市","city_kana":"サドシ","town":"羽茂村山","town_kana":"ハモチムラヤマ","prefecture_code":15},"0004":{"zip_code":"9520004","prefecture":"新潟県","prefecture_kana":"ニイガタケン","city":"佐渡市","city_kana":"サドシ","town":"羽吉","town_kana":"ハヨシ","prefecture_code":15},"0016":{"zip_code":"9520016","prefecture":"新潟県","prefecture_kana":"ニイガタケン","city":"佐渡市","city_kana":"サドシ","town":"原黒","town_kana":"ハラクロ","prefecture_code":15},"0856":{"zip_code":"9520856","prefecture":"新潟県","prefecture_kana":"ニイガタケン","city":"佐渡市","city_kana":"サドシ","town":"東鵜島","town_kana":"ヒガシウシマ","prefecture_code":15},"1307":{"zip_code":"9521307","prefecture":"新潟県","prefecture_kana":"ニイガタケン","city":"佐渡市","city_kana":"サドシ","town":"東大通","town_kana":"ヒガシオオドオリ","prefecture_code":15},"3545":{"zip_code":"9523545","prefecture":"新潟県","prefecture_kana":"ニイガタケン","city":"佐渡市","city_kana":"サドシ","town":"東強清水","town_kana":"ヒガシコワシミズ","prefecture_code":15},"3546":{"zip_code":"9523546","prefecture":"新潟県","prefecture_kana":"ニイガタケン","city":"佐渡市","city_kana":"サドシ","town":"東立島","town_kana":"ヒガシタツシマ","prefecture_code":15},"2134":{"zip_code":"9522134","prefecture":"新潟県","prefecture_kana":"ニイガタケン","city":"佐渡市","city_kana":"サドシ","town":"姫津","town_kana":"ヒメヅ","prefecture_code":15},"1213":{"zip_code":"9521213","prefecture":"新潟県","prefecture_kana":"ニイガタケン","city":"佐渡市","city_kana":"サドシ","town":"平清水","town_kana":"ヒラシミズ","prefecture_code":15},"3115":{"zip_code":"9523115","prefecture":"新潟県","prefecture_kana":"ニイガタケン","city":"佐渡市","city_kana":"サドシ","town":"平松","town_kana":"ヒラマツ","prefecture_code":15},"0615":{"zip_code":"9520615","prefecture":"新潟県","prefecture_kana":"ニイガタケン","city":"佐渡市","city_kana":"サドシ","town":"深浦","town_kana":"フカウラ","prefecture_code":15},"0211":{"zip_code":"9520211","prefecture":"新潟県","prefecture_kana":"ニイガタケン","city":"佐渡市","city_kana":"サドシ","town":"畉田","town_kana":"フタ","prefecture_code":15},"1641":{"zip_code":"9521641","prefecture":"新潟県","prefecture_kana":"ニイガタケン","city":"佐渡市","city_kana":"サドシ","town":"二見","town_kana":"フタミ","prefecture_code":15},"0203":{"zip_code":"9520203","prefecture":"新潟県","prefecture_kana":"ニイガタケン","city":"佐渡市","city_kana":"サドシ","town":"坊ケ浦","town_kana":"ボウガウラ","prefecture_code":15},"0712":{"zip_code":"9520712","prefecture":"新潟県","prefecture_kana":"ニイガタケン","city":"佐渡市","city_kana":"サドシ","town":"真浦","town_kana":"マウラ","prefecture_code":15},"3431":{"zip_code":"9523431","prefecture":"新潟県","prefecture_kana":"ニイガタケン","city":"佐渡市","city_kana":"サドシ","town":"真木","town_kana":"マキ","prefecture_code":15},"3201":{"zip_code":"9523201","prefecture":"新潟県","prefecture_kana":"ニイガタケン","city":"佐渡市","city_kana":"サドシ","town":"真更川","town_kana":"マサラガワ","prefecture_code":15},"0821":{"zip_code":"9520821","prefecture":"新潟県","prefecture_kana":"ニイガタケン","city":"佐渡市","city_kana":"サドシ","town":"松ケ崎","town_kana":"マツガサキ","prefecture_code":15},"0313":{"zip_code":"9520313","prefecture":"新潟県","prefecture_kana":"ニイガタケン","city":"佐渡市","city_kana":"サドシ","town":"真野","town_kana":"マノ","prefecture_code":15},"0301":{"zip_code":"9520301","prefecture":"新潟県","prefecture_kana":"ニイガタケン","city":"佐渡市","city_kana":"サドシ","town":"真野大川","town_kana":"マノオオカワ","prefecture_code":15},"0318":{"zip_code":"9520318","prefecture":"新潟県","prefecture_kana":"ニイガタケン","city":"佐渡市","city_kana":"サドシ","town":"真野新町","town_kana":"マノシンマチ","prefecture_code":15},"0824":{"zip_code":"9520824","prefecture":"新潟県","prefecture_kana":"ニイガタケン","city":"佐渡市","city_kana":"サドシ","town":"丸山","town_kana":"マルヤマ","prefecture_code":15},"0705":{"zip_code":"9520705","prefecture":"新潟県","prefecture_kana":"ニイガタケン","city":"佐渡市","city_kana":"サドシ","town":"三川","town_kana":"ミカワ","prefecture_code":15},"3206":{"zip_code":"9523206","prefecture":"新潟県","prefecture_kana":"ニイガタケン","city":"佐渡市","city_kana":"サドシ","town":"見立","town_kana":"ミタテ","prefecture_code":15},"1205":{"zip_code":"9521205","prefecture":"新潟県","prefecture_kana":"ニイガタケン","city":"佐渡市","city_kana":"サドシ","town":"水渡田","town_kana":"ミトダ","prefecture_code":15},"2226":{"zip_code":"9522226","prefecture":"新潟県","prefecture_kana":"ニイガタケン","city":"佐渡市","city_kana":"サドシ","town":"南片辺","town_kana":"ミナミカタベ","prefecture_code":15},"0714":{"zip_code":"9520714","prefecture":"新潟県","prefecture_kana":"ニイガタケン","city":"佐渡市","city_kana":"サドシ","town":"南新保","town_kana":"ミナミシンボ","prefecture_code":15},"0212":{"zip_code":"9520212","prefecture":"新潟県","prefecture_kana":"ニイガタケン","city":"佐渡市","city_kana":"サドシ","town":"宮川","town_kana":"ミヤカワ","prefecture_code":15},"3111":{"zip_code":"9523111","prefecture":"新潟県","prefecture_kana":"ニイガタケン","city":"佐渡市","city_kana":"サドシ","town":"虫崎","town_kana":"ムシザキ","prefecture_code":15},"0704":{"zip_code":"9520704","prefecture":"新潟県","prefecture_kana":"ニイガタケン","city":"佐渡市","city_kana":"サドシ","town":"莚場","town_kana":"ムシロバ","prefecture_code":15},"0201":{"zip_code":"9520201","prefecture":"新潟県","prefecture_kana":"ニイガタケン","city":"佐渡市","city_kana":"サドシ","town":"目黒町","town_kana":"メグロマチ","prefecture_code":15},"3204":{"zip_code":"9523204","prefecture":"新潟県","prefecture_kana":"ニイガタケン","city":"佐渡市","city_kana":"サドシ","town":"藻浦","town_kana":"モウラ","prefecture_code":15},"3433":{"zip_code":"9523433","prefecture":"新潟県","prefecture_kana":"ニイガタケン","city":"佐渡市","city_kana":"サドシ","town":"両尾","town_kana":"モロオ","prefecture_code":15},"2204":{"zip_code":"9522204","prefecture":"新潟県","prefecture_kana":"ニイガタケン","city":"佐渡市","city_kana":"サドシ","town":"矢柄","town_kana":"ヤガラ","prefecture_code":15},"0713":{"zip_code":"9520713","prefecture":"新潟県","prefecture_kana":"ニイガタケン","city":"佐渡市","city_kana":"サドシ","town":"柳沢","town_kana":"ヤナギサワ","prefecture_code":15},"1311":{"zip_code":"9521311","prefecture":"新潟県","prefecture_kana":"ニイガタケン","city":"佐渡市","city_kana":"サドシ","town":"八幡","town_kana":"ヤハタ","prefecture_code":15},"1312":{"zip_code":"9521312","prefecture":"新潟県","prefecture_kana":"ニイガタケン","city":"佐渡市","city_kana":"サドシ","town":"八幡新町","town_kana":"ヤハタシンマチ","prefecture_code":15},"1313":{"zip_code":"9521313","prefecture":"新潟県","prefecture_kana":"ニイガタケン","city":"佐渡市","city_kana":"サドシ","town":"八幡町","town_kana":"ヤハタマチ","prefecture_code":15},"1321":{"zip_code":"9521321","prefecture":"新潟県","prefecture_kana":"ニイガタケン","city":"佐渡市","city_kana":"サドシ","town":"山田","town_kana":"ヤマダ","prefecture_code":15},"1206":{"zip_code":"9521206","prefecture":"新潟県","prefecture_kana":"ニイガタケン","city":"佐渡市","city_kana":"サドシ","town":"大和","town_kana":"ヤマト","prefecture_code":15},"1203":{"zip_code":"9521203","prefecture":"新潟県","prefecture_kana":"ニイガタケン","city":"佐渡市","city_kana":"サドシ","town":"吉井","town_kana":"ヨシイ","prefecture_code":15},"1202":{"zip_code":"9521202","prefecture":"新潟県","prefecture_kana":"ニイガタケン","city":"佐渡市","city_kana":"サドシ","town":"吉井本郷","town_kana":"ヨシイホンゴウ","prefecture_code":15},"0312":{"zip_code":"9520312","prefecture":"新潟県","prefecture_kana":"ニイガタケン","city":"佐渡市","city_kana":"サドシ","town":"吉岡","town_kana":"ヨシオカ","prefecture_code":15},"0306":{"zip_code":"9520306","prefecture":"新潟県","prefecture_kana":"ニイガタケン","city":"佐渡市","city_kana":"サドシ","town":"四日町","town_kana":"ヨッカマチ","prefecture_code":15},"1642":{"zip_code":"9521642","prefecture":"新潟県","prefecture_kana":"ニイガタケン","city":"佐渡市","city_kana":"サドシ","town":"米郷","town_kana":"ヨナゴウ","prefecture_code":15},"0011":{"zip_code":"9520011","prefecture":"新潟県","prefecture_kana":"ニイガタケン","city":"佐渡市","city_kana":"サドシ","town":"両津夷","town_kana":"リョウツエビス","prefecture_code":15},"0012":{"zip_code":"9520012","prefecture":"新潟県","prefecture_kana":"ニイガタケン","city":"佐渡市","city_kana":"サドシ","town":"両津夷新","town_kana":"リョウツエビスシン","prefecture_code":15},"0013":{"zip_code":"9520013","prefecture":"新潟県","prefecture_kana":"ニイガタケン","city":"佐渡市","city_kana":"サドシ","town":"両津福浦","town_kana":"リョウツフクウラ","prefecture_code":15},"0014":{"zip_code":"9520014","prefecture":"新潟県","prefecture_kana":"ニイガタケン","city":"佐渡市","city_kana":"サドシ","town":"両津湊","town_kana":"リョウツミナト","prefecture_code":15},"3435":{"zip_code":"9523435","prefecture":"新潟県","prefecture_kana":"ニイガタケン","city":"佐渡市","city_kana":"サドシ","town":"両津大川","town_kana":"リョウツオオガワ","prefecture_code":15},"3118":{"zip_code":"9523118","prefecture":"新潟県","prefecture_kana":"ニイガタケン","city":"佐渡市","city_kana":"サドシ","town":"和木","town_kana":"ワキ","prefecture_code":15},"3205":{"zip_code":"9523205","prefecture":"新潟県","prefecture_kana":"ニイガタケン","city":"佐渡市","city_kana":"サドシ","town":"鷲崎","town_kana":"ワシザキ","prefecture_code":15}}