{"0202":{"zip_code":"9540202","prefecture":"新潟県","prefecture_kana":"ニイガタケン","city":"長岡市","city_kana":"ナガオカシ","town":"赤沼","town_kana":"アカヌマ","prefecture_code":15},"0143":{"zip_code":"9540143","prefecture":"新潟県","prefecture_kana":"ニイガタケン","city":"長岡市","city_kana":"ナガオカシ","town":"池之島","town_kana":"イケノシマ","prefecture_code":15},"0171":{"zip_code":"9540171","prefecture":"新潟県","prefecture_kana":"ニイガタケン","city":"長岡市","city_kana":"ナガオカシ","town":"稲島","town_kana":"イナジマ","prefecture_code":15},"0207":{"zip_code":"9540207","prefecture":"新潟県","prefecture_kana":"ニイガタケン","city":"長岡市","city_kana":"ナガオカシ","town":"上沼新田","town_kana":"ウワヌマシンデン","prefecture_code":15},"0166":{"zip_code":"9540166","prefecture":"新潟県","prefecture_kana":"ニイガタケン","city":"長岡市","city_kana":"ナガオカシ","town":"海老島勇次新田","town_kana":"エビジマユウジシンデン","prefecture_code":15},"0145":{"zip_code":"9540145","prefecture":"新潟県","prefecture_kana":"ニイガタケン","city":"長岡市","city_kana":"ナガオカシ","town":"大口","town_kana":"オオクチ","prefecture_code":15},"0201":{"zip_code":"9540201","prefecture":"新潟県","prefecture_kana":"ニイガタケン","city":"長岡市","city_kana":"ナガオカシ","town":"大沼新田","town_kana":"オオヌマシンデン","prefecture_code":15},"0134":{"zip_code":"9540134","prefecture":"新潟県","prefecture_kana":"ニイガタケン","city":"長岡市","city_kana":"ナガオカシ","town":"大曲戸","town_kana":"オオマガト","prefecture_code":15},"0133":{"zip_code":"9540133","prefecture":"新潟県","prefecture_kana":"ニイガタケン","city":"長岡市","city_kana":"ナガオカシ","town":"大曲戸新田","town_kana":"オオマガトシンデン","prefecture_code":15},"0138":{"zip_code":"9540138","prefecture":"新潟県","prefecture_kana":"ニイガタケン","city":"長岡市","city_kana":"ナガオカシ","town":"押切川原町","town_kana":"オシキリカワラマチ","prefecture_code":15},"0137":{"zip_code":"9540137","prefecture":"新潟県","prefecture_kana":"ニイガタケン","city":"長岡市","city_kana":"ナガオカシ","town":"押切新田","town_kana":"オシキリシンデン","prefecture_code":15},"0136":{"zip_code":"9540136","prefecture":"新潟県","prefecture_kana":"ニイガタケン","city":"長岡市","city_kana":"ナガオカシ","town":"思川新田","town_kana":"オモイガワシンデン","prefecture_code":15},"0141":{"zip_code":"9540141","prefecture":"新潟県","prefecture_kana":"ニイガタケン","city":"長岡市","city_kana":"ナガオカシ","town":"粕島","town_kana":"カスジマ","prefecture_code":15},"0177":{"zip_code":"9540177","prefecture":"新潟県","prefecture_kana":"ニイガタケン","city":"長岡市","city_kana":"ナガオカシ","town":"亀ケ谷新田","town_kana":"カメガヤシンデン","prefecture_code":15},"0162":{"zip_code":"9540162","prefecture":"新潟県","prefecture_kana":"ニイガタケン","city":"長岡市","city_kana":"ナガオカシ","town":"狐興野","town_kana":"キツネゴウヤ","prefecture_code":15},"0135":{"zip_code":"9540135","prefecture":"新潟県","prefecture_kana":"ニイガタケン","city":"長岡市","city_kana":"ナガオカシ","town":"幸南","town_kana":"コウナン","prefecture_code":15},"0161":{"zip_code":"9540161","prefecture":"新潟県","prefecture_kana":"ニイガタケン","city":"長岡市","city_kana":"ナガオカシ","town":"興野","town_kana":"コウヤ","prefecture_code":15},"0203":{"zip_code":"9540203","prefecture":"新潟県","prefecture_kana":"ニイガタケン","city":"長岡市","city_kana":"ナガオカシ","town":"小沼新田","town_kana":"コヌマシンデン","prefecture_code":15},"0126":{"zip_code":"9540126","prefecture":"新潟県","prefecture_kana":"ニイガタケン","city":"長岡市","city_kana":"ナガオカシ","town":"五百刈","town_kana":"ゴヒャッカリ","prefecture_code":15},"0213":{"zip_code":"9540213","prefecture":"新潟県","prefecture_kana":"ニイガタケン","city":"長岡市","city_kana":"ナガオカシ","town":"下沼新田","town_kana":"シタヌマシンデン","prefecture_code":15},"0155":{"zip_code":"9540155","prefecture":"新潟県","prefecture_kana":"ニイガタケン","city":"長岡市","city_kana":"ナガオカシ","town":"島田","town_kana":"シマダ","prefecture_code":15},"0132":{"zip_code":"9540132","prefecture":"新潟県","prefecture_kana":"ニイガタケン","city":"長岡市","city_kana":"ナガオカシ","town":"新栄","town_kana":"シンエイ","prefecture_code":15},"0222":{"zip_code":"9540222","prefecture":"新潟県","prefecture_kana":"ニイガタケン","city":"長岡市","city_kana":"ナガオカシ","town":"信条西","town_kana":"シンジョウニシ","prefecture_code":15},"0221":{"zip_code":"9540221","prefecture":"新潟県","prefecture_kana":"ニイガタケン","city":"長岡市","city_kana":"ナガオカシ","town":"信条東","town_kana":"シンジョウヒガシ","prefecture_code":15},"0218":{"zip_code":"9540218","prefecture":"新潟県","prefecture_kana":"ニイガタケン","city":"長岡市","city_kana":"ナガオカシ","town":"信条南","town_kana":"シンジョウミナミ","prefecture_code":15},"0151":{"zip_code":"9540151","prefecture":"新潟県","prefecture_kana":"ニイガタケン","city":"長岡市","city_kana":"ナガオカシ","town":"杉之森","town_kana":"スギノモリ","prefecture_code":15},"0154":{"zip_code":"9540154","prefecture":"新潟県","prefecture_kana":"ニイガタケン","city":"長岡市","city_kana":"ナガオカシ","town":"関根","town_kana":"セキネ","prefecture_code":15},"0146":{"zip_code":"9540146","prefecture":"新潟県","prefecture_kana":"ニイガタケン","city":"長岡市","city_kana":"ナガオカシ","town":"大保","town_kana":"ダイボ","prefecture_code":15},"0214":{"zip_code":"9540214","prefecture":"新潟県","prefecture_kana":"ニイガタケン","city":"長岡市","city_kana":"ナガオカシ","town":"中条新田","town_kana":"チュウジョウシンデン","prefecture_code":15},"0144":{"zip_code":"9540144","prefecture":"新潟県","prefecture_kana":"ニイガタケン","city":"長岡市","city_kana":"ナガオカシ","town":"坪根","town_kana":"ツボネ","prefecture_code":15},"0172":{"zip_code":"9540172","prefecture":"新潟県","prefecture_kana":"ニイガタケン","city":"長岡市","city_kana":"ナガオカシ","town":"鶴ケ曽根","town_kana":"ツルガソネ","prefecture_code":15},"0131":{"zip_code":"9540131","prefecture":"新潟県","prefecture_kana":"ニイガタケン","city":"長岡市","city_kana":"ナガオカシ","town":"中興野","town_kana":"ナカゴウヤ","prefecture_code":15},"0204":{"zip_code":"9540204","prefecture":"新潟県","prefecture_kana":"ニイガタケン","city":"長岡市","city_kana":"ナガオカシ","town":"中西","town_kana":"ナカサイ","prefecture_code":15},"0124":{"zip_code":"9540124","prefecture":"新潟県","prefecture_kana":"ニイガタケン","city":"長岡市","city_kana":"ナガオカシ","town":"中之島","town_kana":"ナカノシマ","prefecture_code":15},"0152":{"zip_code":"9540152","prefecture":"新潟県","prefecture_kana":"ニイガタケン","city":"長岡市","city_kana":"ナガオカシ","town":"中之島高畑","town_kana":"ナカノシマタカバタケ","prefecture_code":15},"0216":{"zip_code":"9540216","prefecture":"新潟県","prefecture_kana":"ニイガタケン","city":"長岡市","city_kana":"ナガオカシ","town":"中之島中条","town_kana":"ナカノシマチュウジョウ","prefecture_code":15},"0212":{"zip_code":"9540212","prefecture":"新潟県","prefecture_kana":"ニイガタケン","city":"長岡市","city_kana":"ナガオカシ","town":"中之島西野","town_kana":"ナカノシマニシノ","prefecture_code":15},"0157":{"zip_code":"9540157","prefecture":"新潟県","prefecture_kana":"ニイガタケン","city":"長岡市","city_kana":"ナガオカシ","town":"中之島宮内","town_kana":"ナカノシマミヤウチ","prefecture_code":15},"0174":{"zip_code":"9540174","prefecture":"新潟県","prefecture_kana":"ニイガタケン","city":"長岡市","city_kana":"ナガオカシ","town":"中野中","town_kana":"ナカノナカ","prefecture_code":15},"0175":{"zip_code":"9540175","prefecture":"新潟県","prefecture_kana":"ニイガタケン","city":"長岡市","city_kana":"ナガオカシ","town":"中野西","town_kana":"ナカノニシ","prefecture_code":15},"0173":{"zip_code":"9540173","prefecture":"新潟県","prefecture_kana":"ニイガタケン","city":"長岡市","city_kana":"ナガオカシ","town":"中野東","town_kana":"ナカノヒガシ","prefecture_code":15},"0156":{"zip_code":"9540156","prefecture":"新潟県","prefecture_kana":"ニイガタケン","city":"長岡市","city_kana":"ナガオカシ","town":"長呂","town_kana":"ナガロ","prefecture_code":15},"0163":{"zip_code":"9540163","prefecture":"新潟県","prefecture_kana":"ニイガタケン","city":"長岡市","city_kana":"ナガオカシ","town":"並木新田","town_kana":"ナミキシンデン","prefecture_code":15},"0205":{"zip_code":"9540205","prefecture":"新潟県","prefecture_kana":"ニイガタケン","city":"長岡市","city_kana":"ナガオカシ","town":"西高山新田","town_kana":"ニシタカヤマシンデン","prefecture_code":15},"0211":{"zip_code":"9540211","prefecture":"新潟県","prefecture_kana":"ニイガタケン","city":"長岡市","city_kana":"ナガオカシ","town":"西野新田","town_kana":"ニシノシンデン","prefecture_code":15},"0123":{"zip_code":"9540123","prefecture":"新潟県","prefecture_kana":"ニイガタケン","city":"長岡市","city_kana":"ナガオカシ","town":"猫興野","town_kana":"ネコゴウヤ","prefecture_code":15},"0121":{"zip_code":"9540121","prefecture":"新潟県","prefecture_kana":"ニイガタケン","city":"長岡市","city_kana":"ナガオカシ","town":"野口","town_kana":"ノグチ","prefecture_code":15},"0142":{"zip_code":"9540142","prefecture":"新潟県","prefecture_kana":"ニイガタケン","city":"長岡市","city_kana":"ナガオカシ","town":"灰島新田","town_kana":"ハイジマシンデン","prefecture_code":15},"0165":{"zip_code":"9540165","prefecture":"新潟県","prefecture_kana":"ニイガタケン","city":"長岡市","city_kana":"ナガオカシ","town":"福原","town_kana":"フクハラ","prefecture_code":15},"0125":{"zip_code":"9540125","prefecture":"新潟県","prefecture_kana":"ニイガタケン","city":"長岡市","city_kana":"ナガオカシ","town":"藤山","town_kana":"フジヤマ","prefecture_code":15},"0147":{"zip_code":"9540147","prefecture":"新潟県","prefecture_kana":"ニイガタケン","city":"長岡市","city_kana":"ナガオカシ","town":"品之木","town_kana":"ボンノキ","prefecture_code":15},"0217":{"zip_code":"9540217","prefecture":"新潟県","prefecture_kana":"ニイガタケン","city":"長岡市","city_kana":"ナガオカシ","town":"松ケ崎新田","town_kana":"マツガサキシンデン","prefecture_code":15},"0164":{"zip_code":"9540164","prefecture":"新潟県","prefecture_kana":"ニイガタケン","city":"長岡市","city_kana":"ナガオカシ","town":"末宝","town_kana":"マッポウ","prefecture_code":15},"0215":{"zip_code":"9540215","prefecture":"新潟県","prefecture_kana":"ニイガタケン","city":"長岡市","city_kana":"ナガオカシ","town":"真野代新田","town_kana":"マノシロシンデン","prefecture_code":15},"0122":{"zip_code":"9540122","prefecture":"新潟県","prefecture_kana":"ニイガタケン","city":"長岡市","city_kana":"ナガオカシ","town":"真弓","town_kana":"マユミ","prefecture_code":15},"0176":{"zip_code":"9540176","prefecture":"新潟県","prefecture_kana":"ニイガタケン","city":"長岡市","city_kana":"ナガオカシ","town":"横野","town_kana":"ヨコノ","prefecture_code":15},"0153":{"zip_code":"9540153","prefecture":"新潟県","prefecture_kana":"ニイガタケン","city":"長岡市","city_kana":"ナガオカシ","town":"横山","town_kana":"ヨコヤマ","prefecture_code":15},"0206":{"zip_code":"9540206","prefecture":"新潟県","prefecture_kana":"ニイガタケン","city":"長岡市","city_kana":"ナガオカシ","town":"六所","town_kana":"ロクショ","prefecture_code":15},"0181":{"zip_code":"9540181","prefecture":"新潟県","prefecture_kana":"ニイガタケン","city":"長岡市","city_kana":"ナガオカシ","town":"脇川新田町","town_kana":"ワキガワシンデンマチ","prefecture_code":15},"0000":{"zip_code":"9540000","prefecture":"新潟県","prefecture_kana":"ニイガタケン","city":"見附市","city_kana":"ミツケシ","town":"","town_kana":"","prefecture_code":15},"0073":{"zip_code":"9540073","prefecture":"新潟県","prefecture_kana":"ニイガタケン","city":"見附市","city_kana":"ミツケシ","town":"青木町","town_kana":"アオキマチ","prefecture_code":15},"0061":{"zip_code":"9540061","prefecture":"新潟県","prefecture_kana":"ニイガタケン","city":"見附市","city_kana":"ミツケシ","town":"熱田町","town_kana":"アツタマチ","prefecture_code":15},"0038":{"zip_code":"9540038","prefecture":"新潟県","prefecture_kana":"ニイガタケン","city":"見附市","city_kana":"ミツケシ","town":"池之内町","town_kana":"イケノウチマチ","prefecture_code":15},"0021":{"zip_code":"9540021","prefecture":"新潟県","prefecture_kana":"ニイガタケン","city":"見附市","city_kana":"ミツケシ","town":"池之島町","town_kana":"イケノシママチ","prefecture_code":15},"0013":{"zip_code":"9540013","prefecture":"新潟県","prefecture_kana":"ニイガタケン","city":"見附市","city_kana":"ミツケシ","town":"石地町","town_kana":"イシジマチ","prefecture_code":15},"0083":{"zip_code":"9540083","prefecture":"新潟県","prefecture_kana":"ニイガタケン","city":"見附市","city_kana":"ミツケシ","town":"市野坪町","town_kana":"イチノツボマチ","prefecture_code":15},"0111":{"zip_code":"9540111","prefecture":"新潟県","prefecture_kana":"ニイガタケン","city":"見附市","city_kana":"ミツケシ","town":"今町","town_kana":"イママチ","prefecture_code":15},"0025":{"zip_code":"9540025","prefecture":"新潟県","prefecture_kana":"ニイガタケン","city":"見附市","city_kana":"ミツケシ","town":"牛ケ嶺町","town_kana":"ウシガミネマチ","prefecture_code":15},"0008":{"zip_code":"9540008","prefecture":"新潟県","prefecture_kana":"ニイガタケン","city":"見附市","city_kana":"ミツケシ","town":"内町","town_kana":"ウチマチ","prefecture_code":15},"0063":{"zip_code":"9540063","prefecture":"新潟県","prefecture_kana":"ニイガタケン","city":"見附市","city_kana":"ミツケシ","town":"漆山町","town_kana":"ウルシヤママチ","prefecture_code":15},"0031":{"zip_code":"9540031","prefecture":"新潟県","prefecture_kana":"ニイガタケン","city":"見附市","city_kana":"ミツケシ","town":"太田町","town_kana":"オオダマチ","prefecture_code":15},"0064":{"zip_code":"9540064","prefecture":"新潟県","prefecture_kana":"ニイガタケン","city":"見附市","city_kana":"ミツケシ","town":"鹿熊町","town_kana":"カクママチ","prefecture_code":15},"0081":{"zip_code":"9540081","prefecture":"新潟県","prefecture_kana":"ニイガタケン","city":"見附市","city_kana":"ミツケシ","town":"片桐町","town_kana":"カタギリマチ","prefecture_code":15},"0052":{"zip_code":"9540052","prefecture":"新潟県","prefecture_kana":"ニイガタケン","city":"見附市","city_kana":"ミツケシ","town":"学校町","town_kana":"ガッコウチョウ","prefecture_code":15},"0084":{"zip_code":"9540084","prefecture":"新潟県","prefecture_kana":"ニイガタケン","city":"見附市","city_kana":"ミツケシ","town":"加坪川町","town_kana":"カツボガワマチ","prefecture_code":15},"0112":{"zip_code":"9540112","prefecture":"新潟県","prefecture_kana":"ニイガタケン","city":"見附市","city_kana":"ミツケシ","town":"上新田町","town_kana":"カミシンデンマチ","prefecture_code":15},"0024":{"zip_code":"9540024","prefecture":"新潟県","prefecture_kana":"ニイガタケン","city":"見附市","city_kana":"ミツケシ","town":"河野町","town_kana":"ガワノマチ","prefecture_code":15},"0072":{"zip_code":"9540072","prefecture":"新潟県","prefecture_kana":"ニイガタケン","city":"見附市","city_kana":"ミツケシ","town":"北野町","town_kana":"キタノマチ","prefecture_code":15},"0058":{"zip_code":"9540058","prefecture":"新潟県","prefecture_kana":"ニイガタケン","city":"見附市","city_kana":"ミツケシ","town":"葛巻","town_kana":"クズマキ","prefecture_code":15},"0077":{"zip_code":"9540077","prefecture":"新潟県","prefecture_kana":"ニイガタケン","city":"見附市","city_kana":"ミツケシ","town":"葛巻西町","town_kana":"クズマキニシマチ","prefecture_code":15},"0078":{"zip_code":"9540078","prefecture":"新潟県","prefecture_kana":"ニイガタケン","city":"見附市","city_kana":"ミツケシ","town":"葛巻東町","town_kana":"クズマキヒガシマチ","prefecture_code":15},"0067":{"zip_code":"9540067","prefecture":"新潟県","prefecture_kana":"ニイガタケン","city":"見附市","city_kana":"ミツケシ","town":"葛巻町","town_kana":"クズマキマチ","prefecture_code":15},"0079":{"zip_code":"9540079","prefecture":"新潟県","prefecture_kana":"ニイガタケン","city":"見附市","city_kana":"ミツケシ","town":"葛巻南町","town_kana":"クズマキミナミマチ","prefecture_code":15},"0002":{"zip_code":"9540002","prefecture":"新潟県","prefecture_kana":"ニイガタケン","city":"見附市","city_kana":"ミツケシ","town":"小栗山町","town_kana":"コグリヤママチ","prefecture_code":15},"0104":{"zip_code":"9540104","prefecture":"新潟県","prefecture_kana":"ニイガタケン","city":"見附市","city_kana":"ミツケシ","town":"坂井町","town_kana":"サカイマチ","prefecture_code":15},"0001":{"zip_code":"9540001","prefecture":"新潟県","prefecture_kana":"ニイガタケン","city":"見附市","city_kana":"ミツケシ","town":"指出町","town_kana":"サシデマチ","prefecture_code":15},"0101":{"zip_code":"9540101","prefecture":"新潟県","prefecture_kana":"ニイガタケン","city":"見附市","city_kana":"ミツケシ","town":"三林町","town_kana":"サンバヤシマチ","prefecture_code":15},"0087":{"zip_code":"9540087","prefecture":"新潟県","prefecture_kana":"ニイガタケン","city":"見附市","city_kana":"ミツケシ","town":"芝野町","town_kana":"シバノマチ","prefecture_code":15},"0012":{"zip_code":"9540012","prefecture":"新潟県","prefecture_kana":"ニイガタケン","city":"見附市","city_kana":"ミツケシ","town":"島切窪町","town_kana":"シマキリクボマチ","prefecture_code":15},"0062":{"zip_code":"9540062","prefecture":"新潟県","prefecture_kana":"ニイガタケン","city":"見附市","city_kana":"ミツケシ","town":"下新町","town_kana":"シモアラマチ","prefecture_code":15},"0105":{"zip_code":"9540105","prefecture":"新潟県","prefecture_kana":"ニイガタケン","city":"見附市","city_kana":"ミツケシ","town":"下関町","town_kana":"シモセキマチ","prefecture_code":15},"0007":{"zip_code":"9540007","prefecture":"新潟県","prefecture_kana":"ニイガタケン","city":"見附市","city_kana":"ミツケシ","town":"下鳥町","town_kana":"シモドリマチ","prefecture_code":15},"0102":{"zip_code":"9540102","prefecture":"新潟県","prefecture_kana":"ニイガタケン","city":"見附市","city_kana":"ミツケシ","town":"釈迦塚町","town_kana":"シャカヅカマチ","prefecture_code":15},"0017":{"zip_code":"9540017","prefecture":"新潟県","prefecture_kana":"ニイガタケン","city":"見附市","city_kana":"ミツケシ","town":"庄川平町","town_kana":"ショウガワダイラマチ","prefecture_code":15},"0016":{"zip_code":"9540016","prefecture":"新潟県","prefecture_kana":"ニイガタケン","city":"見附市","city_kana":"ミツケシ","town":"庄川町","town_kana":"ショウガワマチ","prefecture_code":15},"0059":{"zip_code":"9540059","prefecture":"新潟県","prefecture_kana":"ニイガタケン","city":"見附市","city_kana":"ミツケシ","town":"昭和町","town_kana":"ショウワマチ","prefecture_code":15},"0076":{"zip_code":"9540076","prefecture":"新潟県","prefecture_kana":"ニイガタケン","city":"見附市","city_kana":"ミツケシ","town":"新幸町","town_kana":"シンコウチョウ","prefecture_code":15},"0026":{"zip_code":"9540026","prefecture":"新潟県","prefecture_kana":"ニイガタケン","city":"見附市","city_kana":"ミツケシ","town":"神保町","town_kana":"シンボマチ","prefecture_code":15},"0057":{"zip_code":"9540057","prefecture":"新潟県","prefecture_kana":"ニイガタケン","city":"見附市","city_kana":"ミツケシ","town":"新町","town_kana":"シンマチ","prefecture_code":15},"0022":{"zip_code":"9540022","prefecture":"新潟県","prefecture_kana":"ニイガタケン","city":"見附市","city_kana":"ミツケシ","town":"杉澤町","town_kana":"スギサワマチ","prefecture_code":15},"0085":{"zip_code":"9540085","prefecture":"新潟県","prefecture_kana":"ニイガタケン","city":"見附市","city_kana":"ミツケシ","town":"反田町","town_kana":"ソリダマチ","prefecture_code":15},"0036":{"zip_code":"9540036","prefecture":"新潟県","prefecture_kana":"ニイガタケン","city":"見附市","city_kana":"ミツケシ","town":"田井町","town_kana":"タイマチ","prefecture_code":15},"0103":{"zip_code":"9540103","prefecture":"新潟県","prefecture_kana":"ニイガタケン","city":"見附市","city_kana":"ミツケシ","town":"田之尻町","town_kana":"タノシリマチ","prefecture_code":15},"0034":{"zip_code":"9540034","prefecture":"新潟県","prefecture_kana":"ニイガタケン","city":"見附市","city_kana":"ミツケシ","town":"月見台","town_kana":"ツキミダイ","prefecture_code":15},"0037":{"zip_code":"9540037","prefecture":"新潟県","prefecture_kana":"ニイガタケン","city":"見附市","city_kana":"ミツケシ","town":"椿澤町","town_kana":"ツバキザワマチ","prefecture_code":15},"0005":{"zip_code":"9540005","prefecture":"新潟県","prefecture_kana":"ニイガタケン","city":"見附市","city_kana":"ミツケシ","town":"戸代新田町","town_kana":"トダイシンデンマチ","prefecture_code":15},"0041":{"zip_code":"9540041","prefecture":"新潟県","prefecture_kana":"ニイガタケン","city":"見附市","city_kana":"ミツケシ","town":"栃栄町","town_kana":"トチサカエマチ","prefecture_code":15},"0027":{"zip_code":"9540027","prefecture":"新潟県","prefecture_kana":"ニイガタケン","city":"見附市","city_kana":"ミツケシ","town":"栃窪町","town_kana":"トチクボマチ","prefecture_code":15},"0044":{"zip_code":"9540044","prefecture":"新潟県","prefecture_kana":"ニイガタケン","city":"見附市","city_kana":"ミツケシ","town":"鳥屋脇町","town_kana":"トヤワキマチ","prefecture_code":15},"0035":{"zip_code":"9540035","prefecture":"新潟県","prefecture_kana":"ニイガタケン","city":"見附市","city_kana":"ミツケシ","town":"名木野町","town_kana":"ナギノマチ","prefecture_code":15},"0089":{"zip_code":"9540089","prefecture":"新潟県","prefecture_kana":"ニイガタケン","city":"見附市","city_kana":"ミツケシ","town":"新潟西町","town_kana":"ニイガタニシマチ","prefecture_code":15},"0088":{"zip_code":"9540088","prefecture":"新潟県","prefecture_kana":"ニイガタケン","city":"見附市","city_kana":"ミツケシ","town":"新潟東町","town_kana":"ニイガタヒガシマチ","prefecture_code":15},"0006":{"zip_code":"9540006","prefecture":"新潟県","prefecture_kana":"ニイガタケン","city":"見附市","city_kana":"ミツケシ","town":"新潟町","town_kana":"ニイガタマチ","prefecture_code":15},"0068":{"zip_code":"9540068","prefecture":"新潟県","prefecture_kana":"ニイガタケン","city":"見附市","city_kana":"ミツケシ","town":"仁嘉町","town_kana":"ニカマチ","prefecture_code":15},"0107":{"zip_code":"9540107","prefecture":"新潟県","prefecture_kana":"ニイガタケン","city":"見附市","city_kana":"ミツケシ","town":"西今町","town_kana":"ニシイママチ","prefecture_code":15},"0075":{"zip_code":"9540075","prefecture":"新潟県","prefecture_kana":"ニイガタケン","city":"見附市","city_kana":"ミツケシ","town":"速水町","town_kana":"ハヤミズマチ","prefecture_code":15},"0106":{"zip_code":"9540106","prefecture":"新潟県","prefecture_kana":"ニイガタケン","city":"見附市","city_kana":"ミツケシ","town":"東今町","town_kana":"ヒガシイママチ","prefecture_code":15},"0086":{"zip_code":"9540086","prefecture":"新潟県","prefecture_kana":"ニイガタケン","city":"見附市","city_kana":"ミツケシ","town":"福島町","town_kana":"フクジママチ","prefecture_code":15},"0046":{"zip_code":"9540046","prefecture":"新潟県","prefecture_kana":"ニイガタケン","city":"見附市","city_kana":"ミツケシ","town":"双葉町","town_kana":"フタバチョウ","prefecture_code":15},"0071":{"zip_code":"9540071","prefecture":"新潟県","prefecture_kana":"ニイガタケン","city":"見附市","city_kana":"ミツケシ","town":"傍所町","town_kana":"ホウジョマチ","prefecture_code":15},"0054":{"zip_code":"9540054","prefecture":"新潟県","prefecture_kana":"ニイガタケン","city":"見附市","city_kana":"ミツケシ","town":"細越","town_kana":"ホソゴエ","prefecture_code":15},"0014":{"zip_code":"9540014","prefecture":"新潟県","prefecture_kana":"ニイガタケン","city":"見附市","city_kana":"ミツケシ","town":"堀溝町","town_kana":"ホリミゾマチ","prefecture_code":15},"0051":{"zip_code":"9540051","prefecture":"新潟県","prefecture_kana":"ニイガタケン","city":"見附市","city_kana":"ミツケシ","town":"本所","town_kana":"ホンジョ","prefecture_code":15},"0053":{"zip_code":"9540053","prefecture":"新潟県","prefecture_kana":"ニイガタケン","city":"見附市","city_kana":"ミツケシ","town":"本町","town_kana":"ホンマチ","prefecture_code":15},"0032":{"zip_code":"9540032","prefecture":"新潟県","prefecture_kana":"ニイガタケン","city":"見附市","city_kana":"ミツケシ","town":"本明町","town_kana":"ホンミョウマチ","prefecture_code":15},"0045":{"zip_code":"9540045","prefecture":"新潟県","prefecture_kana":"ニイガタケン","city":"見附市","city_kana":"ミツケシ","town":"緑町","town_kana":"ミドリチョウ","prefecture_code":15},"0056":{"zip_code":"9540056","prefecture":"新潟県","prefecture_kana":"ニイガタケン","city":"見附市","city_kana":"ミツケシ","town":"南本町","town_kana":"ミナミホンマチ","prefecture_code":15},"0055":{"zip_code":"9540055","prefecture":"新潟県","prefecture_kana":"ニイガタケン","city":"見附市","city_kana":"ミツケシ","town":"嶺崎","town_kana":"ミネザキ","prefecture_code":15},"0043":{"zip_code":"9540043","prefecture":"新潟県","prefecture_kana":"ニイガタケン","city":"見附市","city_kana":"ミツケシ","town":"耳取町","town_kana":"ミミトリマチ","prefecture_code":15},"0023":{"zip_code":"9540023","prefecture":"新潟県","prefecture_kana":"ニイガタケン","city":"見附市","city_kana":"ミツケシ","town":"宮之原町","town_kana":"ミヤノハラマチ","prefecture_code":15},"0033":{"zip_code":"9540033","prefecture":"新潟県","prefecture_kana":"ニイガタケン","city":"見附市","city_kana":"ミツケシ","town":"明晶町","town_kana":"ミョウショウマチ","prefecture_code":15},"0004":{"zip_code":"9540004","prefecture":"新潟県","prefecture_kana":"ニイガタケン","city":"見附市","city_kana":"ミツケシ","town":"元町","town_kana":"モトマチ","prefecture_code":15},"0082":{"zip_code":"9540082","prefecture":"新潟県","prefecture_kana":"ニイガタケン","city":"見附市","city_kana":"ミツケシ","town":"柳橋町","town_kana":"ヤナギバシマチ","prefecture_code":15},"0011":{"zip_code":"9540011","prefecture":"新潟県","prefecture_kana":"ニイガタケン","city":"見附市","city_kana":"ミツケシ","town":"山崎興野町","town_kana":"ヤマザキゴウヤマチ","prefecture_code":15},"0042":{"zip_code":"9540042","prefecture":"新潟県","prefecture_kana":"ニイガタケン","city":"見附市","city_kana":"ミツケシ","town":"山崎町","town_kana":"ヤマザキマチ","prefecture_code":15},"0074":{"zip_code":"9540074","prefecture":"新潟県","prefecture_kana":"ニイガタケン","city":"見附市","city_kana":"ミツケシ","town":"山吉町","town_kana":"ヤマヨシマチ","prefecture_code":15}}