{"0000":{"zip_code":"9550000","prefecture":"新潟県","prefecture_kana":"ニイガタケン","city":"三条市","city_kana":"サンジョウシ","town":"","town_kana":"","prefecture_code":15},"0065":{"zip_code":"9550065","prefecture":"新潟県","prefecture_kana":"ニイガタケン","city":"三条市","city_kana":"サンジョウシ","town":"旭町","town_kana":"アサヒチョウ","prefecture_code":15},"0034":{"zip_code":"9550034","prefecture":"新潟県","prefecture_kana":"ニイガタケン","city":"三条市","city_kana":"サンジョウシ","town":"麻布","town_kana":"アザブ","prefecture_code":15},"0141":{"zip_code":"9550141","prefecture":"新潟県","prefecture_kana":"ニイガタケン","city":"三条市","city_kana":"サンジョウシ","town":"荒沢","town_kana":"アラサワ","prefecture_code":15},"0083":{"zip_code":"9550083","prefecture":"新潟県","prefecture_kana":"ニイガタケン","city":"三条市","city_kana":"サンジョウシ","town":"荒町","town_kana":"アラマチ","prefecture_code":15},"0118":{"zip_code":"9550118","prefecture":"新潟県","prefecture_kana":"ニイガタケン","city":"三条市","city_kana":"サンジョウシ","town":"新屋","town_kana":"アラヤ","prefecture_code":15},"0107":{"zip_code":"9550107","prefecture":"新潟県","prefecture_kana":"ニイガタケン","city":"三条市","city_kana":"サンジョウシ","town":"飯田","town_kana":"イイダ","prefecture_code":15},"0013":{"zip_code":"9550013","prefecture":"新潟県","prefecture_kana":"ニイガタケン","city":"三条市","city_kana":"サンジョウシ","town":"井栗","town_kana":"イグリ","prefecture_code":15},"0084":{"zip_code":"9550084","prefecture":"新潟県","prefecture_kana":"ニイガタケン","city":"三条市","city_kana":"サンジョウシ","town":"石上","town_kana":"イシガミ","prefecture_code":15},"0066":{"zip_code":"9550066","prefecture":"新潟県","prefecture_kana":"ニイガタケン","city":"三条市","city_kana":"サンジョウシ","town":"居島","town_kana":"イジマ","prefecture_code":15},"0045":{"zip_code":"9550045","prefecture":"新潟県","prefecture_kana":"ニイガタケン","city":"三条市","city_kana":"サンジョウシ","town":"一ノ門","town_kana":"イチノモン","prefecture_code":15},"0096":{"zip_code":"9550096","prefecture":"新潟県","prefecture_kana":"ニイガタケン","city":"三条市","city_kana":"サンジョウシ","town":"井戸場","town_kana":"イドバ","prefecture_code":15},"0115":{"zip_code":"9550115","prefecture":"新潟県","prefecture_kana":"ニイガタケン","city":"三条市","city_kana":"サンジョウシ","town":"院内","town_kana":"インナイ","prefecture_code":15},"0025":{"zip_code":"9550025","prefecture":"新潟県","prefecture_kana":"ニイガタケン","city":"三条市","city_kana":"サンジョウシ","town":"上野原","town_kana":"ウエノハラ","prefecture_code":15},"0102":{"zip_code":"9550102","prefecture":"新潟県","prefecture_kana":"ニイガタケン","city":"三条市","city_kana":"サンジョウシ","town":"牛ケ首","town_kana":"ウシガクビ","prefecture_code":15},"0016":{"zip_code":"9550016","prefecture":"新潟県","prefecture_kana":"ニイガタケン","city":"三条市","city_kana":"サンジョウシ","town":"牛ケ島","town_kana":"ウシガシマ","prefecture_code":15},"0133":{"zip_code":"9550133","prefecture":"新潟県","prefecture_kana":"ニイガタケン","city":"三条市","city_kana":"サンジョウシ","town":"牛野尾","town_kana":"ウシノオ","prefecture_code":15},"0104":{"zip_code":"9550104","prefecture":"新潟県","prefecture_kana":"ニイガタケン","city":"三条市","city_kana":"サンジョウシ","town":"江口","town_kana":"エグチ","prefecture_code":15},"0818":{"zip_code":"9550818","prefecture":"新潟県","prefecture_kana":"ニイガタケン","city":"三条市","city_kana":"サンジョウシ","town":"枝郷","town_kana":"エダゴウ","prefecture_code":15},"0145":{"zip_code":"9550145","prefecture":"新潟県","prefecture_kana":"ニイガタケン","city":"三条市","city_kana":"サンジョウシ","town":"大沢","town_kana":"オオサワ","prefecture_code":15},"0094":{"zip_code":"9550094","prefecture":"新潟県","prefecture_kana":"ニイガタケン","city":"三条市","city_kana":"サンジョウシ","town":"大島","town_kana":"オオジマ","prefecture_code":15},"0154":{"zip_code":"9550154","prefecture":"新潟県","prefecture_kana":"ニイガタケン","city":"三条市","city_kana":"サンジョウシ","town":"大平","town_kana":"オオダイラ","prefecture_code":15},"0124":{"zip_code":"9550124","prefecture":"新潟県","prefecture_kana":"ニイガタケン","city":"三条市","city_kana":"サンジョウシ","town":"大谷","town_kana":"オオタニ","prefecture_code":15},"0833":{"zip_code":"9550833","prefecture":"新潟県","prefecture_kana":"ニイガタケン","city":"三条市","city_kana":"サンジョウシ","town":"大野畑","town_kana":"オオノハタ","prefecture_code":15},"0054":{"zip_code":"9550054","prefecture":"新潟県","prefecture_kana":"ニイガタケン","city":"三条市","city_kana":"サンジョウシ","town":"大宮新田","town_kana":"オオミヤシンデン","prefecture_code":15},"0122":{"zip_code":"9550122","prefecture":"新潟県","prefecture_kana":"ニイガタケン","city":"三条市","city_kana":"サンジョウシ","town":"大谷地","town_kana":"オオヤチ","prefecture_code":15},"0097":{"zip_code":"9550097","prefecture":"新潟県","prefecture_kana":"ニイガタケン","city":"三条市","city_kana":"サンジョウシ","town":"荻島","town_kana":"オギジマ","prefecture_code":15},"0151":{"zip_code":"9550151","prefecture":"新潟県","prefecture_kana":"ニイガタケン","city":"三条市","city_kana":"サンジョウシ","town":"荻堀","town_kana":"オギボリ","prefecture_code":15},"0137":{"zip_code":"9550137","prefecture":"新潟県","prefecture_kana":"ニイガタケン","city":"三条市","city_kana":"サンジョウシ","town":"遅場","town_kana":"オソバ","prefecture_code":15},"0103":{"zip_code":"9550103","prefecture":"新潟県","prefecture_kana":"ニイガタケン","city":"三条市","city_kana":"サンジョウシ","town":"落合","town_kana":"オチアイ","prefecture_code":15},"0114":{"zip_code":"9550114","prefecture":"新潟県","prefecture_kana":"ニイガタケン","city":"三条市","city_kana":"サンジョウシ","town":"鹿熊","town_kana":"カクマ","prefecture_code":15},"0036":{"zip_code":"9550036","prefecture":"新潟県","prefecture_kana":"ニイガタケン","city":"三条市","city_kana":"サンジョウシ","town":"篭場","town_kana":"カゴバ","prefecture_code":15},"0123":{"zip_code":"9550123","prefecture":"新潟県","prefecture_kana":"ニイガタケン","city":"三条市","city_kana":"サンジョウシ","town":"笠堀","town_kana":"カサボリ","prefecture_code":15},"0807":{"zip_code":"9550807","prefecture":"新潟県","prefecture_kana":"ニイガタケン","city":"三条市","city_kana":"サンジョウシ","town":"片口","town_kana":"カタクチ","prefecture_code":15},"0056":{"zip_code":"9550056","prefecture":"新潟県","prefecture_kana":"ニイガタケン","city":"三条市","city_kana":"サンジョウシ","town":"嘉坪川","town_kana":"カツボガワ","prefecture_code":15},"0108":{"zip_code":"9550108","prefecture":"新潟県","prefecture_kana":"ニイガタケン","city":"三条市","city_kana":"サンジョウシ","town":"鹿峠","town_kana":"カトウゲ","prefecture_code":15},"0814":{"zip_code":"9550814","prefecture":"新潟県","prefecture_kana":"ニイガタケン","city":"三条市","city_kana":"サンジョウシ","town":"金子新田","town_kana":"カネコシンデン","prefecture_code":15},"0166":{"zip_code":"9550166","prefecture":"新潟県","prefecture_kana":"ニイガタケン","city":"三条市","city_kana":"サンジョウシ","town":"上大浦","town_kana":"カミオオウラ","prefecture_code":15},"0091":{"zip_code":"9550091","prefecture":"新潟県","prefecture_kana":"ニイガタケン","city":"三条市","city_kana":"サンジョウシ","town":"上須頃","town_kana":"カミスゴロ","prefecture_code":15},"0022":{"zip_code":"9550022","prefecture":"新潟県","prefecture_kana":"ニイガタケン","city":"三条市","city_kana":"サンジョウシ","town":"みずほ","town_kana":"ミズホ","prefecture_code":15},"0111":{"zip_code":"9550111","prefecture":"新潟県","prefecture_kana":"ニイガタケン","city":"三条市","city_kana":"サンジョウシ","town":"上谷地","town_kana":"カミヤチ","prefecture_code":15},"0121":{"zip_code":"9550121","prefecture":"新潟県","prefecture_kana":"ニイガタケン","city":"三条市","city_kana":"サンジョウシ","town":"北五百川","town_kana":"キタイモガワ","prefecture_code":15},"0861":{"zip_code":"9550861","prefecture":"新潟県","prefecture_kana":"ニイガタケン","city":"三条市","city_kana":"サンジョウシ","town":"北新保","town_kana":"キタシンボ","prefecture_code":15},"0043":{"zip_code":"9550043","prefecture":"新潟県","prefecture_kana":"ニイガタケン","city":"三条市","city_kana":"サンジョウシ","town":"北中","town_kana":"キタナカ","prefecture_code":15},"0053":{"zip_code":"9550053","prefecture":"新潟県","prefecture_kana":"ニイガタケン","city":"三条市","city_kana":"サンジョウシ","town":"北入蔵","town_kana":"キタニュウグラ","prefecture_code":15},"0012":{"zip_code":"9550012","prefecture":"新潟県","prefecture_kana":"ニイガタケン","city":"三条市","city_kana":"サンジョウシ","town":"北野新田","town_kana":"キタノシンデン","prefecture_code":15},"0853":{"zip_code":"9550853","prefecture":"新潟県","prefecture_kana":"ニイガタケン","city":"三条市","city_kana":"サンジョウシ","town":"北四日町","town_kana":"キタヨッカマチ","prefecture_code":15},"0085":{"zip_code":"9550085","prefecture":"新潟県","prefecture_kana":"ニイガタケン","city":"三条市","city_kana":"サンジョウシ","town":"栗林","town_kana":"クリバヤシ","prefecture_code":15},"0126":{"zip_code":"9550126","prefecture":"新潟県","prefecture_kana":"ニイガタケン","city":"三条市","city_kana":"サンジョウシ","town":"栗山","town_kana":"クリヤマ","prefecture_code":15},"0153":{"zip_code":"9550153","prefecture":"新潟県","prefecture_kana":"ニイガタケン","city":"三条市","city_kana":"サンジョウシ","town":"桑切","town_kana":"クワキリ","prefecture_code":15},"0046":{"zip_code":"9550046","prefecture":"新潟県","prefecture_kana":"ニイガタケン","city":"三条市","city_kana":"サンジョウシ","town":"興野","town_kana":"コウヤ","prefecture_code":15},"0142":{"zip_code":"9550142","prefecture":"新潟県","prefecture_kana":"ニイガタケン","city":"三条市","city_kana":"サンジョウシ","town":"小長沢","town_kana":"コナガサワ","prefecture_code":15},"0156":{"zip_code":"9550156","prefecture":"新潟県","prefecture_kana":"ニイガタケン","city":"三条市","city_kana":"サンジョウシ","town":"駒込","town_kana":"コマゴミ","prefecture_code":15},"0821":{"zip_code":"9550821","prefecture":"新潟県","prefecture_kana":"ニイガタケン","city":"三条市","city_kana":"サンジョウシ","town":"五明","town_kana":"ゴミョウ","prefecture_code":15},"0844":{"zip_code":"9550844","prefecture":"新潟県","prefecture_kana":"ニイガタケン","city":"三条市","city_kana":"サンジョウシ","town":"桜木町","town_kana":"サクラギチョウ","prefecture_code":15},"0152":{"zip_code":"9550152","prefecture":"新潟県","prefecture_kana":"ニイガタケン","city":"三条市","city_kana":"サンジョウシ","town":"笹岡","town_kana":"ササオカ","prefecture_code":15},"0146":{"zip_code":"9550146","prefecture":"新潟県","prefecture_kana":"ニイガタケン","city":"三条市","city_kana":"サンジョウシ","town":"笹巻","town_kana":"ササマキ","prefecture_code":15},"0001":{"zip_code":"9550001","prefecture":"新潟県","prefecture_kana":"ニイガタケン","city":"三条市","city_kana":"サンジョウシ","town":"三貫地新田","town_kana":"サンガンジシンデン","prefecture_code":15},"0041":{"zip_code":"9550041","prefecture":"新潟県","prefecture_kana":"ニイガタケン","city":"三条市","city_kana":"サンジョウシ","town":"三竹","town_kana":"サンチク","prefecture_code":15},"0125":{"zip_code":"9550125","prefecture":"新潟県","prefecture_kana":"ニイガタケン","city":"三条市","city_kana":"サンジョウシ","town":"塩野渕","town_kana":"シオノフチ","prefecture_code":15},"0163":{"zip_code":"9550163","prefecture":"新潟県","prefecture_kana":"ニイガタケン","city":"三条市","city_kana":"サンジョウシ","town":"島潟","town_kana":"シマガタ","prefecture_code":15},"0105":{"zip_code":"9550105","prefecture":"新潟県","prefecture_kana":"ニイガタケン","city":"三条市","city_kana":"サンジョウシ","town":"島川原","town_kana":"シマガワラ","prefecture_code":15},"0842":{"zip_code":"9550842","prefecture":"新潟県","prefecture_kana":"ニイガタケン","city":"三条市","city_kana":"サンジョウシ","town":"島田","town_kana":"シマダ","prefecture_code":15},"0168":{"zip_code":"9550168","prefecture":"新潟県","prefecture_kana":"ニイガタケン","city":"三条市","city_kana":"サンジョウシ","town":"下大浦","town_kana":"シモオオウラ","prefecture_code":15},"0042":{"zip_code":"9550042","prefecture":"新潟県","prefecture_kana":"ニイガタケン","city":"三条市","city_kana":"サンジョウシ","town":"下坂井","town_kana":"シモサカイ","prefecture_code":15},"0824":{"zip_code":"9550824","prefecture":"新潟県","prefecture_kana":"ニイガタケン","city":"三条市","city_kana":"サンジョウシ","town":"下新田","town_kana":"シモシンデン","prefecture_code":15},"0093":{"zip_code":"9550093","prefecture":"新潟県","prefecture_kana":"ニイガタケン","city":"三条市","city_kana":"サンジョウシ","town":"下須頃","town_kana":"シモスゴロ","prefecture_code":15},"0021":{"zip_code":"9550021","prefecture":"新潟県","prefecture_kana":"ニイガタケン","city":"三条市","city_kana":"サンジョウシ","town":"下保内","town_kana":"シモホナイ","prefecture_code":15},"0843":{"zip_code":"9550843","prefecture":"新潟県","prefecture_kana":"ニイガタケン","city":"三条市","city_kana":"サンジョウシ","town":"条南町","town_kana":"ジョウナンマチ","prefecture_code":15},"0011":{"zip_code":"9550011","prefecture":"新潟県","prefecture_kana":"ニイガタケン","city":"三条市","city_kana":"サンジョウシ","town":"白山新田","town_kana":"シラヤマシンデン","prefecture_code":15},"0808":{"zip_code":"9550808","prefecture":"新潟県","prefecture_kana":"ニイガタケン","city":"三条市","city_kana":"サンジョウシ","town":"新保","town_kana":"シンボ","prefecture_code":15},"0063":{"zip_code":"9550063","prefecture":"新潟県","prefecture_kana":"ニイガタケン","city":"三条市","city_kana":"サンジョウシ","town":"神明町","town_kana":"シンメイチョウ","prefecture_code":15},"0832":{"zip_code":"9550832","prefecture":"新潟県","prefecture_kana":"ニイガタケン","city":"三条市","city_kana":"サンジョウシ","town":"直江町","town_kana":"スグエチョウ","prefecture_code":15},"0092":{"zip_code":"9550092","prefecture":"新潟県","prefecture_kana":"ニイガタケン","city":"三条市","city_kana":"サンジョウシ","town":"須頃","town_kana":"スゴロ","prefecture_code":15},"0004":{"zip_code":"9550004","prefecture":"新潟県","prefecture_kana":"ニイガタケン","city":"三条市","city_kana":"サンジョウシ","town":"須戸新田","town_kana":"スドシンデン","prefecture_code":15},"0801":{"zip_code":"9550801","prefecture":"新潟県","prefecture_kana":"ニイガタケン","city":"三条市","city_kana":"サンジョウシ","town":"諏訪","town_kana":"スワ","prefecture_code":15},"0095":{"zip_code":"9550095","prefecture":"新潟県","prefecture_kana":"ニイガタケン","city":"三条市","city_kana":"サンジョウシ","town":"代官島","town_kana":"ダイカンジマ","prefecture_code":15},"0161":{"zip_code":"9550161","prefecture":"新潟県","prefecture_kana":"ニイガタケン","city":"三条市","city_kana":"サンジョウシ","town":"高岡","town_kana":"タカオカ","prefecture_code":15},"0165":{"zip_code":"9550165","prefecture":"新潟県","prefecture_kana":"ニイガタケン","city":"三条市","city_kana":"サンジョウシ","town":"高屋敷","town_kana":"タカヤシキ","prefecture_code":15},"0164":{"zip_code":"9550164","prefecture":"新潟県","prefecture_kana":"ニイガタケン","city":"三条市","city_kana":"サンジョウシ","town":"滝谷","town_kana":"タキヤ","prefecture_code":15},"0044":{"zip_code":"9550044","prefecture":"新潟県","prefecture_kana":"ニイガタケン","city":"三条市","city_kana":"サンジョウシ","town":"田島","town_kana":"タジマ","prefecture_code":15},"0143":{"zip_code":"9550143","prefecture":"新潟県","prefecture_kana":"ニイガタケン","city":"三条市","city_kana":"サンジョウシ","town":"棚鱗","town_kana":"タナヒレ","prefecture_code":15},"0117":{"zip_code":"9550117","prefecture":"新潟県","prefecture_kana":"ニイガタケン","city":"三条市","city_kana":"サンジョウシ","town":"田屋","town_kana":"タヤ","prefecture_code":15},"0035":{"zip_code":"9550035","prefecture":"新潟県","prefecture_kana":"ニイガタケン","city":"三条市","city_kana":"サンジョウシ","town":"中新","town_kana":"チュウシン","prefecture_code":15},"0112":{"zip_code":"9550112","prefecture":"新潟県","prefecture_kana":"ニイガタケン","city":"三条市","city_kana":"サンジョウシ","town":"蝶名林","town_kana":"チョウナバヤシ","prefecture_code":15},"0055":{"zip_code":"9550055","prefecture":"新潟県","prefecture_kana":"ニイガタケン","city":"三条市","city_kana":"サンジョウシ","town":"塚野目","town_kana":"ツカノメ","prefecture_code":15},"0803":{"zip_code":"9550803","prefecture":"新潟県","prefecture_kana":"ニイガタケン","city":"三条市","city_kana":"サンジョウシ","town":"月岡","town_kana":"ツキオカ","prefecture_code":15},"0051":{"zip_code":"9550051","prefecture":"新潟県","prefecture_kana":"ニイガタケン","city":"三条市","city_kana":"サンジョウシ","town":"鶴田","town_kana":"ツルダ","prefecture_code":15},"0831":{"zip_code":"9550831","prefecture":"新潟県","prefecture_kana":"ニイガタケン","city":"三条市","city_kana":"サンジョウシ","town":"土場","town_kana":"ドバ","prefecture_code":15},"0113":{"zip_code":"9550113","prefecture":"新潟県","prefecture_kana":"ニイガタケン","city":"三条市","city_kana":"サンジョウシ","town":"中浦","town_kana":"ナカウラ","prefecture_code":15},"0157":{"zip_code":"9550157","prefecture":"新潟県","prefecture_kana":"ニイガタケン","city":"三条市","city_kana":"サンジョウシ","town":"長沢","town_kana":"ナガサワ","prefecture_code":15},"0132":{"zip_code":"9550132","prefecture":"新潟県","prefecture_kana":"ニイガタケン","city":"三条市","city_kana":"サンジョウシ","town":"長野","town_kana":"ナガノ","prefecture_code":15},"0062":{"zip_code":"9550062","prefecture":"新潟県","prefecture_kana":"ニイガタケン","city":"三条市","city_kana":"サンジョウシ","town":"仲之町","town_kana":"ナカノチョウ","prefecture_code":15},"0147":{"zip_code":"9550147","prefecture":"新潟県","prefecture_kana":"ニイガタケン","city":"三条市","city_kana":"サンジョウシ","town":"中野原","town_kana":"ナカノハラ","prefecture_code":15},"0806":{"zip_code":"9550806","prefecture":"新潟県","prefecture_kana":"ニイガタケン","city":"三条市","city_kana":"サンジョウシ","town":"長嶺","town_kana":"ナガミネ","prefecture_code":15},"0144":{"zip_code":"9550144","prefecture":"新潟県","prefecture_kana":"ニイガタケン","city":"三条市","city_kana":"サンジョウシ","town":"楢山","town_kana":"ナラヤマ","prefecture_code":15},"0134":{"zip_code":"9550134","prefecture":"新潟県","prefecture_kana":"ニイガタケン","city":"三条市","city_kana":"サンジョウシ","town":"濁沢","town_kana":"ニゴリサワ","prefecture_code":15},"0082":{"zip_code":"9550082","prefecture":"新潟県","prefecture_kana":"ニイガタケン","city":"三条市","city_kana":"サンジョウシ","town":"西裏館","town_kana":"ニシウラダテ","prefecture_code":15},"0033":{"zip_code":"9550033","prefecture":"新潟県","prefecture_kana":"ニイガタケン","city":"三条市","city_kana":"サンジョウシ","town":"西大崎","town_kana":"ニシオオサキ","prefecture_code":15},"0014":{"zip_code":"9550014","prefecture":"新潟県","prefecture_kana":"ニイガタケン","city":"三条市","city_kana":"サンジョウシ","town":"西潟","town_kana":"ニシカタ","prefecture_code":15},"0815":{"zip_code":"9550815","prefecture":"新潟県","prefecture_kana":"ニイガタケン","city":"三条市","city_kana":"サンジョウシ","town":"西鱈田","town_kana":"ニシタラダ","prefecture_code":15},"0822":{"zip_code":"9550822","prefecture":"新潟県","prefecture_kana":"ニイガタケン","city":"三条市","city_kana":"サンジョウシ","town":"西中","town_kana":"ニシナカ","prefecture_code":15},"0845":{"zip_code":"9550845","prefecture":"新潟県","prefecture_kana":"ニイガタケン","city":"三条市","city_kana":"サンジョウシ","town":"緑ケ丘","town_kana":"ミドリガオカ","prefecture_code":15},"0851":{"zip_code":"9550851","prefecture":"新潟県","prefecture_kana":"ニイガタケン","city":"三条市","city_kana":"サンジョウシ","town":"西四日町","town_kana":"ニシヨッカマチ","prefecture_code":15},"0057":{"zip_code":"9550057","prefecture":"新潟県","prefecture_kana":"ニイガタケン","city":"三条市","city_kana":"サンジョウシ","town":"新光町","town_kana":"ニッコウチョウ","prefecture_code":15},"0812":{"zip_code":"9550812","prefecture":"新潟県","prefecture_kana":"ニイガタケン","city":"三条市","city_kana":"サンジョウシ","town":"入蔵新田","town_kana":"ニュウグラシンデン","prefecture_code":15},"0804":{"zip_code":"9550804","prefecture":"新潟県","prefecture_kana":"ニイガタケン","city":"三条市","city_kana":"サンジョウシ","town":"如法寺","town_kana":"ニョホウジ","prefecture_code":15},"0131":{"zip_code":"9550131","prefecture":"新潟県","prefecture_kana":"ニイガタケン","city":"三条市","city_kana":"サンジョウシ","town":"庭月","town_kana":"ニワヅキ","prefecture_code":15},"0073":{"zip_code":"9550073","prefecture":"新潟県","prefecture_kana":"ニイガタケン","city":"三条市","city_kana":"サンジョウシ","town":"八幡町","town_kana":"ハチマンチョウ","prefecture_code":15},"0148":{"zip_code":"9550148","prefecture":"新潟県","prefecture_kana":"ニイガタケン","city":"三条市","city_kana":"サンジョウシ","town":"花渕","town_kana":"ハナブチ","prefecture_code":15},"0167":{"zip_code":"9550167","prefecture":"新潟県","prefecture_kana":"ニイガタケン","city":"三条市","city_kana":"サンジョウシ","town":"馬場","town_kana":"ババ","prefecture_code":15},"0061":{"zip_code":"9550061","prefecture":"新潟県","prefecture_kana":"ニイガタケン","city":"三条市","city_kana":"サンジョウシ","town":"林町","town_kana":"ハヤシチョウ","prefecture_code":15},"0135":{"zip_code":"9550135","prefecture":"新潟県","prefecture_kana":"ニイガタケン","city":"三条市","city_kana":"サンジョウシ","town":"早水","town_kana":"ハヤミズ","prefecture_code":15},"0158":{"zip_code":"9550158","prefecture":"新潟県","prefecture_kana":"ニイガタケン","city":"三条市","city_kana":"サンジョウシ","town":"原","town_kana":"ハラ","prefecture_code":15},"0081":{"zip_code":"9550081","prefecture":"新潟県","prefecture_kana":"ニイガタケン","city":"三条市","city_kana":"サンジョウシ","town":"東裏館","town_kana":"ヒガシウラダテ","prefecture_code":15},"0032":{"zip_code":"9550032","prefecture":"新潟県","prefecture_kana":"ニイガタケン","city":"三条市","city_kana":"サンジョウシ","town":"東大崎","town_kana":"ヒガシオオサキ","prefecture_code":15},"0047":{"zip_code":"9550047","prefecture":"新潟県","prefecture_kana":"ニイガタケン","city":"三条市","city_kana":"サンジョウシ","town":"東三条","town_kana":"ヒガシサンジョウ","prefecture_code":15},"0863":{"zip_code":"9550863","prefecture":"新潟県","prefecture_kana":"ニイガタケン","city":"三条市","city_kana":"サンジョウシ","town":"東新保","town_kana":"ヒガシシンボ","prefecture_code":15},"0816":{"zip_code":"9550816","prefecture":"新潟県","prefecture_kana":"ニイガタケン","city":"三条市","city_kana":"サンジョウシ","town":"東鱈田","town_kana":"ヒガシタラダ","prefecture_code":15},"0823":{"zip_code":"9550823","prefecture":"新潟県","prefecture_kana":"ニイガタケン","city":"三条市","city_kana":"サンジョウシ","town":"東本成寺","town_kana":"ヒガシホンジョウジ","prefecture_code":15},"0155":{"zip_code":"9550155","prefecture":"新潟県","prefecture_kana":"ニイガタケン","city":"三条市","city_kana":"サンジョウシ","town":"広手","town_kana":"ヒロテ","prefecture_code":15},"0162":{"zip_code":"9550162","prefecture":"新潟県","prefecture_kana":"ニイガタケン","city":"三条市","city_kana":"サンジョウシ","town":"福岡","town_kana":"フクオカ","prefecture_code":15},"0813":{"zip_code":"9550813","prefecture":"新潟県","prefecture_kana":"ニイガタケン","city":"三条市","city_kana":"サンジョウシ","town":"袋","town_kana":"フクロ","prefecture_code":15},"0071":{"zip_code":"9550071","prefecture":"新潟県","prefecture_kana":"ニイガタケン","city":"三条市","city_kana":"サンジョウシ","town":"本町","town_kana":"ホンチョウ","prefecture_code":15},"0101":{"zip_code":"9550101","prefecture":"新潟県","prefecture_kana":"ニイガタケン","city":"三条市","city_kana":"サンジョウシ","town":"曲谷","town_kana":"マガリタニ","prefecture_code":15},"0864":{"zip_code":"9550864","prefecture":"新潟県","prefecture_kana":"ニイガタケン","city":"三条市","city_kana":"サンジョウシ","town":"曲渕","town_kana":"マガリフチ","prefecture_code":15},"0031":{"zip_code":"9550031","prefecture":"新潟県","prefecture_kana":"ニイガタケン","city":"三条市","city_kana":"サンジョウシ","town":"松ノ木町","town_kana":"マツノキチョウ","prefecture_code":15},"0015":{"zip_code":"9550015","prefecture":"新潟県","prefecture_kana":"ニイガタケン","city":"三条市","city_kana":"サンジョウシ","town":"三柳","town_kana":"ミツヤナギ","prefecture_code":15},"0128":{"zip_code":"9550128","prefecture":"新潟県","prefecture_kana":"ニイガタケン","city":"三条市","city_kana":"サンジョウシ","town":"南五百川","town_kana":"ミナミイモガワ","prefecture_code":15},"0862":{"zip_code":"9550862","prefecture":"新潟県","prefecture_kana":"ニイガタケン","city":"三条市","city_kana":"サンジョウシ","town":"南新保","town_kana":"ミナミシンボ","prefecture_code":15},"0106":{"zip_code":"9550106","prefecture":"新潟県","prefecture_kana":"ニイガタケン","city":"三条市","city_kana":"サンジョウシ","town":"南中","town_kana":"ミナミナカ","prefecture_code":15},"0811":{"zip_code":"9550811","prefecture":"新潟県","prefecture_kana":"ニイガタケン","city":"三条市","city_kana":"サンジョウシ","town":"南入蔵","town_kana":"ミナミニュウグラ","prefecture_code":15},"0852":{"zip_code":"9550852","prefecture":"新潟県","prefecture_kana":"ニイガタケン","city":"三条市","city_kana":"サンジョウシ","town":"南四日町","town_kana":"ミナミヨッカマチ","prefecture_code":15},"0127":{"zip_code":"9550127","prefecture":"新潟県","prefecture_kana":"ニイガタケン","city":"三条市","city_kana":"サンジョウシ","town":"名下","town_kana":"ミョウゲ","prefecture_code":15},"0136":{"zip_code":"9550136","prefecture":"新潟県","prefecture_kana":"ニイガタケン","city":"三条市","city_kana":"サンジョウシ","town":"葎谷","town_kana":"モグラダニ","prefecture_code":15},"0072":{"zip_code":"9550072","prefecture":"新潟県","prefecture_kana":"ニイガタケン","city":"三条市","city_kana":"サンジョウシ","town":"元町","town_kana":"モトマチ","prefecture_code":15},"0116":{"zip_code":"9550116","prefecture":"新潟県","prefecture_kana":"ニイガタケン","city":"三条市","city_kana":"サンジョウシ","town":"森町","town_kana":"モリマチ","prefecture_code":15},"0002":{"zip_code":"9550002","prefecture":"新潟県","prefecture_kana":"ニイガタケン","city":"三条市","city_kana":"サンジョウシ","town":"柳川新田","town_kana":"ヤナガワシンデン","prefecture_code":15},"0024":{"zip_code":"9550024","prefecture":"新潟県","prefecture_kana":"ニイガタケン","city":"三条市","city_kana":"サンジョウシ","town":"柳沢","town_kana":"ヤナギサワ","prefecture_code":15},"0003":{"zip_code":"9550003","prefecture":"新潟県","prefecture_kana":"ニイガタケン","city":"三条市","city_kana":"サンジョウシ","town":"柳場新田","town_kana":"ヤナギバシンデン","prefecture_code":15},"0841":{"zip_code":"9550841","prefecture":"新潟県","prefecture_kana":"ニイガタケン","city":"三条市","city_kana":"サンジョウシ","town":"由利","town_kana":"ユリ","prefecture_code":15},"0064":{"zip_code":"9550064","prefecture":"新潟県","prefecture_kana":"ニイガタケン","city":"三条市","city_kana":"サンジョウシ","town":"横町","town_kana":"ヨコチョウ","prefecture_code":15},"0805":{"zip_code":"9550805","prefecture":"新潟県","prefecture_kana":"ニイガタケン","city":"三条市","city_kana":"サンジョウシ","town":"吉田","town_kana":"ヨシダ","prefecture_code":15},"0854":{"zip_code":"9550854","prefecture":"新潟県","prefecture_kana":"ニイガタケン","city":"三条市","city_kana":"サンジョウシ","town":"四日町","town_kana":"ヨッカマチ","prefecture_code":15}}