{"0000":{"zip_code":"9570000","prefecture":"新潟県","prefecture_kana":"ニイガタケン","city":"新発田市","city_kana":"シバタシ","town":"","town_kana":"","prefecture_code":15},"0045":{"zip_code":"9570045","prefecture":"新潟県","prefecture_kana":"ニイガタケン","city":"新発田市","city_kana":"シバタシ","town":"荒川","town_kana":"アラカワ","prefecture_code":15},"0084":{"zip_code":"9570084","prefecture":"新潟県","prefecture_kana":"ニイガタケン","city":"新発田市","city_kana":"シバタシ","town":"飯島甲","town_kana":"イイジマコウ","prefecture_code":15},"0085":{"zip_code":"9570085","prefecture":"新潟県","prefecture_kana":"ニイガタケン","city":"新発田市","city_kana":"シバタシ","town":"飯島乙","town_kana":"イイジマオツ","prefecture_code":15},"0086":{"zip_code":"9570086","prefecture":"新潟県","prefecture_kana":"ニイガタケン","city":"新発田市","city_kana":"シバタシ","town":"飯島新田","town_kana":"イイジマシンデン","prefecture_code":15},"0353":{"zip_code":"9570353","prefecture":"新潟県","prefecture_kana":"ニイガタケン","city":"新発田市","city_kana":"シバタシ","town":"石喜","town_kana":"イシキ","prefecture_code":15},"0021":{"zip_code":"9570021","prefecture":"新潟県","prefecture_kana":"ニイガタケン","city":"新発田市","city_kana":"シバタシ","town":"五十公野","town_kana":"イジミノ","prefecture_code":15},"0013":{"zip_code":"9570013","prefecture":"新潟県","prefecture_kana":"ニイガタケン","city":"新発田市","city_kana":"シバタシ","town":"板敷","town_kana":"イタジキ","prefecture_code":15},"0344":{"zip_code":"9570344","prefecture":"新潟県","prefecture_kana":"ニイガタケン","city":"新発田市","city_kana":"シバタシ","town":"板山","town_kana":"イタヤマ","prefecture_code":15},"0204":{"zip_code":"9570204","prefecture":"新潟県","prefecture_kana":"ニイガタケン","city":"新発田市","city_kana":"シバタシ","town":"稲荷岡","town_kana":"イナリオカ","prefecture_code":15},"0035":{"zip_code":"9570035","prefecture":"新潟県","prefecture_kana":"ニイガタケン","city":"新発田市","city_kana":"シバタシ","town":"丑首","town_kana":"ウシクビ","prefecture_code":15},"0042":{"zip_code":"9570042","prefecture":"新潟県","prefecture_kana":"ニイガタケン","city":"新発田市","city_kana":"シバタシ","town":"浦","town_kana":"ウラ","prefecture_code":15},"0041":{"zip_code":"9570041","prefecture":"新潟県","prefecture_kana":"ニイガタケン","city":"新発田市","city_kana":"シバタシ","town":"浦新田","town_kana":"ウラシンデン","prefecture_code":15},"0037":{"zip_code":"9570037","prefecture":"新潟県","prefecture_kana":"ニイガタケン","city":"新発田市","city_kana":"シバタシ","town":"江口","town_kana":"エグチ","prefecture_code":15},"0043":{"zip_code":"9570043","prefecture":"新潟県","prefecture_kana":"ニイガタケン","city":"新発田市","city_kana":"シバタシ","town":"大崎","town_kana":"オオサキ","prefecture_code":15},"0091":{"zip_code":"9570091","prefecture":"新潟県","prefecture_kana":"ニイガタケン","city":"新発田市","city_kana":"シバタシ","town":"太田新田","town_kana":"オオタシンデン","prefecture_code":15},"0465":{"zip_code":"9570465","prefecture":"新潟県","prefecture_kana":"ニイガタケン","city":"新発田市","city_kana":"シバタシ","town":"大槻","town_kana":"オオツキ","prefecture_code":15},"0052":{"zip_code":"9570052","prefecture":"新潟県","prefecture_kana":"ニイガタケン","city":"新発田市","city_kana":"シバタシ","town":"大手町","town_kana":"オオテマチ","prefecture_code":15},"0347":{"zip_code":"9570347","prefecture":"新潟県","prefecture_kana":"ニイガタケン","city":"新発田市","city_kana":"シバタシ","town":"大友","town_kana":"オオドモ","prefecture_code":15},"0217":{"zip_code":"9570217","prefecture":"新潟県","prefecture_kana":"ニイガタケン","city":"新発田市","city_kana":"シバタシ","town":"大中島","town_kana":"オオナカジマ","prefecture_code":15},"0356":{"zip_code":"9570356","prefecture":"新潟県","prefecture_kana":"ニイガタケン","city":"新発田市","city_kana":"シバタシ","town":"岡田","town_kana":"オカダ","prefecture_code":15},"0224":{"zip_code":"9570224","prefecture":"新潟県","prefecture_kana":"ニイガタケン","city":"新発田市","city_kana":"シバタシ","town":"小川","town_kana":"オガワ","prefecture_code":15},"0064":{"zip_code":"9570064","prefecture":"新潟県","prefecture_kana":"ニイガタケン","city":"新発田市","city_kana":"シバタシ","town":"奥山新保","town_kana":"オクヤマシンボ","prefecture_code":15},"0345":{"zip_code":"9570345","prefecture":"新潟県","prefecture_kana":"ニイガタケン","city":"新発田市","city_kana":"シバタシ","town":"小戸","town_kana":"オド","prefecture_code":15},"0031":{"zip_code":"9570031","prefecture":"新潟県","prefecture_kana":"ニイガタケン","city":"新発田市","city_kana":"シバタシ","town":"小友","town_kana":"オドモ","prefecture_code":15},"0034":{"zip_code":"9570034","prefecture":"新潟県","prefecture_kana":"ニイガタケン","city":"新発田市","city_kana":"シバタシ","town":"小見","town_kana":"オミ","prefecture_code":15},"0212":{"zip_code":"9570212","prefecture":"新潟県","prefecture_kana":"ニイガタケン","city":"新発田市","city_kana":"シバタシ","town":"片桐","town_kana":"カタギリ","prefecture_code":15},"0014":{"zip_code":"9570014","prefecture":"新潟県","prefecture_kana":"ニイガタケン","city":"新発田市","city_kana":"シバタシ","town":"金谷","town_kana":"カナヤ","prefecture_code":15},"0464":{"zip_code":"9570464","prefecture":"新潟県","prefecture_kana":"ニイガタケン","city":"新発田市","city_kana":"シバタシ","town":"上赤谷","town_kana":"カミアカタニ","prefecture_code":15},"0334":{"zip_code":"9570334","prefecture":"新潟県","prefecture_kana":"ニイガタケン","city":"新発田市","city_kana":"シバタシ","town":"上楠川","town_kana":"カミクスガワ","prefecture_code":15},"0331":{"zip_code":"9570331","prefecture":"新潟県","prefecture_kana":"ニイガタケン","city":"新発田市","city_kana":"シバタシ","town":"上三光","town_kana":"カミサンコウ","prefecture_code":15},"0024":{"zip_code":"9570024","prefecture":"新潟県","prefecture_kana":"ニイガタケン","city":"新発田市","city_kana":"シバタシ","town":"上新保","town_kana":"カミシンボ","prefecture_code":15},"0025":{"zip_code":"9570025","prefecture":"新潟県","prefecture_kana":"ニイガタケン","city":"新発田市","city_kana":"シバタシ","town":"上内竹","town_kana":"カミナイダケ","prefecture_code":15},"0081":{"zip_code":"9570081","prefecture":"新潟県","prefecture_kana":"ニイガタケン","city":"新発田市","city_kana":"シバタシ","town":"上中沢","town_kana":"カミナカザワ","prefecture_code":15},"0046":{"zip_code":"9570046","prefecture":"新潟県","prefecture_kana":"ニイガタケン","city":"新発田市","city_kana":"シバタシ","town":"上中山","town_kana":"カミナカヤマ","prefecture_code":15},"0343":{"zip_code":"9570343","prefecture":"新潟県","prefecture_kana":"ニイガタケン","city":"新発田市","city_kana":"シバタシ","town":"上羽津","town_kana":"カミハネヅ","prefecture_code":15},"0074":{"zip_code":"9570074","prefecture":"新潟県","prefecture_kana":"ニイガタケン","city":"新発田市","city_kana":"シバタシ","town":"北蓑口","town_kana":"キタミノグチ","prefecture_code":15},"0003":{"zip_code":"9570003","prefecture":"新潟県","prefecture_kana":"ニイガタケン","city":"新発田市","city_kana":"シバタシ","town":"桑ノ口","town_kana":"クワノグチ","prefecture_code":15},"0202":{"zip_code":"9570202","prefecture":"新潟県","prefecture_kana":"ニイガタケン","city":"新発田市","city_kana":"シバタシ","town":"古田","town_kana":"コダ","prefecture_code":15},"0007":{"zip_code":"9570007","prefecture":"新潟県","prefecture_kana":"ニイガタケン","city":"新発田市","city_kana":"シバタシ","town":"小舟町","town_kana":"コフネチョウ","prefecture_code":15},"0082":{"zip_code":"9570082","prefecture":"新潟県","prefecture_kana":"ニイガタケン","city":"新発田市","city_kana":"シバタシ","town":"佐々木","town_kana":"ササキ","prefecture_code":15},"0011":{"zip_code":"9570011","prefecture":"新潟県","prefecture_kana":"ニイガタケン","city":"新発田市","city_kana":"シバタシ","town":"島潟","town_kana":"シマガタ","prefecture_code":15},"0335":{"zip_code":"9570335","prefecture":"新潟県","prefecture_kana":"ニイガタケン","city":"新発田市","city_kana":"シバタシ","town":"下楠川","town_kana":"シモクスガワ","prefecture_code":15},"0083":{"zip_code":"9570083","prefecture":"新潟県","prefecture_kana":"ニイガタケン","city":"新発田市","city_kana":"シバタシ","town":"下興野","town_kana":"シモコウヤ","prefecture_code":15},"0336":{"zip_code":"9570336","prefecture":"新潟県","prefecture_kana":"ニイガタケン","city":"新発田市","city_kana":"シバタシ","town":"下三光","town_kana":"シモサンコウ","prefecture_code":15},"0023":{"zip_code":"9570023","prefecture":"新潟県","prefecture_kana":"ニイガタケン","city":"新発田市","city_kana":"シバタシ","town":"下新保","town_kana":"シモシンボ","prefecture_code":15},"0354":{"zip_code":"9570354","prefecture":"新潟県","prefecture_kana":"ニイガタケン","city":"新発田市","city_kana":"シバタシ","town":"下高関","town_kana":"シモタカセキ","prefecture_code":15},"0026":{"zip_code":"9570026","prefecture":"新潟県","prefecture_kana":"ニイガタケン","city":"新発田市","city_kana":"シバタシ","town":"下内竹","town_kana":"シモナイダケ","prefecture_code":15},"0203":{"zip_code":"9570203","prefecture":"新潟県","prefecture_kana":"ニイガタケン","city":"新発田市","city_kana":"シバタシ","town":"下中沢","town_kana":"シモナカザワ","prefecture_code":15},"0341":{"zip_code":"9570341","prefecture":"新潟県","prefecture_kana":"ニイガタケン","city":"新発田市","city_kana":"シバタシ","town":"下羽津","town_kana":"シモハネヅ","prefecture_code":15},"0051":{"zip_code":"9570051","prefecture":"新潟県","prefecture_kana":"ニイガタケン","city":"新発田市","city_kana":"シバタシ","town":"城北町","town_kana":"ジョウホクチョウ","prefecture_code":15},"0063":{"zip_code":"9570063","prefecture":"新潟県","prefecture_kana":"ニイガタケン","city":"新発田市","city_kana":"シバタシ","town":"新栄町","town_kana":"シンエイチョウ","prefecture_code":15},"0017":{"zip_code":"9570017","prefecture":"新潟県","prefecture_kana":"ニイガタケン","city":"新発田市","city_kana":"シバタシ","town":"新富町","town_kana":"シントミチョウ","prefecture_code":15},"0087":{"zip_code":"9570087","prefecture":"新潟県","prefecture_kana":"ニイガタケン","city":"新発田市","city_kana":"シバタシ","town":"砂山","town_kana":"スナヤマ","prefecture_code":15},"0215":{"zip_code":"9570215","prefecture":"新潟県","prefecture_kana":"ニイガタケン","city":"新発田市","city_kana":"シバタシ","town":"住吉","town_kana":"スミヨシ","prefecture_code":15},"0061":{"zip_code":"9570061","prefecture":"新潟県","prefecture_kana":"ニイガタケン","city":"新発田市","city_kana":"シバタシ","town":"住吉町","town_kana":"スミヨシチョウ","prefecture_code":15},"0055":{"zip_code":"9570055","prefecture":"新潟県","prefecture_kana":"ニイガタケン","city":"新発田市","city_kana":"シバタシ","town":"諏訪町","town_kana":"スワチョウ","prefecture_code":15},"0205":{"zip_code":"9570205","prefecture":"新潟県","prefecture_kana":"ニイガタケン","city":"新発田市","city_kana":"シバタシ","town":"関井","town_kana":"セキイ","prefecture_code":15},"0071":{"zip_code":"9570071","prefecture":"新潟県","prefecture_kana":"ニイガタケン","city":"新発田市","city_kana":"シバタシ","town":"曽根","town_kana":"ソネ","prefecture_code":15},"0056":{"zip_code":"9570056","prefecture":"新潟県","prefecture_kana":"ニイガタケン","city":"新発田市","city_kana":"シバタシ","town":"大栄町","town_kana":"ダイエイチョウ","prefecture_code":15},"0333":{"zip_code":"9570333","prefecture":"新潟県","prefecture_kana":"ニイガタケン","city":"新発田市","city_kana":"シバタシ","town":"田貝","town_kana":"タガイ","prefecture_code":15},"0213":{"zip_code":"9570213","prefecture":"新潟県","prefecture_kana":"ニイガタケン","city":"新発田市","city_kana":"シバタシ","town":"高島","town_kana":"タカシマ","prefecture_code":15},"0462":{"zip_code":"9570462","prefecture":"新潟県","prefecture_kana":"ニイガタケン","city":"新発田市","city_kana":"シバタシ","town":"滝谷","town_kana":"タキダニ","prefecture_code":15},"0053":{"zip_code":"9570053","prefecture":"新潟県","prefecture_kana":"ニイガタケン","city":"新発田市","city_kana":"シバタシ","town":"中央町","town_kana":"チュウオウチョウ","prefecture_code":15},"0221":{"zip_code":"9570221","prefecture":"新潟県","prefecture_kana":"ニイガタケン","city":"新発田市","city_kana":"シバタシ","town":"長者館","town_kana":"チョウジャダテ","prefecture_code":15},"0355":{"zip_code":"9570355","prefecture":"新潟県","prefecture_kana":"ニイガタケン","city":"新発田市","city_kana":"シバタシ","town":"敦賀","town_kana":"ツルガ","prefecture_code":15},"0001":{"zip_code":"9570001","prefecture":"新潟県","prefecture_kana":"ニイガタケン","city":"新発田市","city_kana":"シバタシ","town":"道賀","town_kana":"ドウガ","prefecture_code":15},"0015":{"zip_code":"9570015","prefecture":"新潟県","prefecture_kana":"ニイガタケン","city":"新発田市","city_kana":"シバタシ","town":"東新町","town_kana":"トウシンチョウ","prefecture_code":15},"0207":{"zip_code":"9570207","prefecture":"新潟県","prefecture_kana":"ニイガタケン","city":"新発田市","city_kana":"シバタシ","town":"富島","town_kana":"トミジマ","prefecture_code":15},"0062":{"zip_code":"9570062","prefecture":"新潟県","prefecture_kana":"ニイガタケン","city":"新発田市","city_kana":"シバタシ","town":"富塚町","town_kana":"トミツカチョウ","prefecture_code":15},"0332":{"zip_code":"9570332","prefecture":"新潟県","prefecture_kana":"ニイガタケン","city":"新発田市","city_kana":"シバタシ","town":"虎丸","town_kana":"トラマル","prefecture_code":15},"0092":{"zip_code":"9570092","prefecture":"新潟県","prefecture_kana":"ニイガタケン","city":"新発田市","city_kana":"シバタシ","town":"鳥穴","town_kana":"トリアナ","prefecture_code":15},"0214":{"zip_code":"9570214","prefecture":"新潟県","prefecture_kana":"ニイガタケン","city":"新発田市","city_kana":"シバタシ","town":"中島","town_kana":"ナカジマ","prefecture_code":15},"0223":{"zip_code":"9570223","prefecture":"新潟県","prefecture_kana":"ニイガタケン","city":"新発田市","city_kana":"シバタシ","town":"長島","town_kana":"ナガシマ","prefecture_code":15},"0067":{"zip_code":"9570067","prefecture":"新潟県","prefecture_kana":"ニイガタケン","city":"新発田市","city_kana":"シバタシ","town":"中曽根町","town_kana":"ナカソネチョウ","prefecture_code":15},"0006":{"zip_code":"9570006","prefecture":"新潟県","prefecture_kana":"ニイガタケン","city":"新発田市","city_kana":"シバタシ","town":"中田町","town_kana":"ナカタチョウ","prefecture_code":15},"0461":{"zip_code":"9570461","prefecture":"新潟県","prefecture_kana":"ニイガタケン","city":"新発田市","city_kana":"シバタシ","town":"中々山","town_kana":"ナカナカヤマ","prefecture_code":15},"0222":{"zip_code":"9570222","prefecture":"新潟県","prefecture_kana":"ニイガタケン","city":"新発田市","city_kana":"シバタシ","town":"中野","town_kana":"ナカノ","prefecture_code":15},"0005":{"zip_code":"9570005","prefecture":"新潟県","prefecture_kana":"ニイガタケン","city":"新発田市","city_kana":"シバタシ","town":"長畑","town_kana":"ナガバタケ","prefecture_code":15},"0002":{"zip_code":"9570002","prefecture":"新潟県","prefecture_kana":"ニイガタケン","city":"新発田市","city_kana":"シバタシ","town":"中谷内","town_kana":"ナカヤチ","prefecture_code":15},"0058":{"zip_code":"9570058","prefecture":"新潟県","prefecture_kana":"ニイガタケン","city":"新発田市","city_kana":"シバタシ","town":"西園町","town_kana":"ニシゾノチョウ","prefecture_code":15},"0004":{"zip_code":"9570004","prefecture":"新潟県","prefecture_kana":"ニイガタケン","city":"新発田市","city_kana":"シバタシ","town":"西名柄","town_kana":"ニシナガラ","prefecture_code":15},"0357":{"zip_code":"9570357","prefecture":"新潟県","prefecture_kana":"ニイガタケン","city":"新発田市","city_kana":"シバタシ","town":"西姫田","town_kana":"ニシヒメダ","prefecture_code":15},"0075":{"zip_code":"9570075","prefecture":"新潟県","prefecture_kana":"ニイガタケン","city":"新発田市","city_kana":"シバタシ","town":"西蓑口","town_kana":"ニシミノグチ","prefecture_code":15},"0076":{"zip_code":"9570076","prefecture":"新潟県","prefecture_kana":"ニイガタケン","city":"新発田市","city_kana":"シバタシ","town":"西宮内","town_kana":"ニシミヤウチ","prefecture_code":15},"0077":{"zip_code":"9570077","prefecture":"新潟県","prefecture_kana":"ニイガタケン","city":"新発田市","city_kana":"シバタシ","town":"則清","town_kana":"ノリキヨ","prefecture_code":15},"0078":{"zip_code":"9570078","prefecture":"新潟県","prefecture_kana":"ニイガタケン","city":"新発田市","city_kana":"シバタシ","town":"則清新田","town_kana":"ノリキヨシンデン","prefecture_code":15},"0463":{"zip_code":"9570463","prefecture":"新潟県","prefecture_kana":"ニイガタケン","city":"新発田市","city_kana":"シバタシ","town":"東赤谷","town_kana":"ヒガシアカタニ","prefecture_code":15},"0012":{"zip_code":"9570012","prefecture":"新潟県","prefecture_kana":"ニイガタケン","city":"新発田市","city_kana":"シバタシ","town":"東塚ノ目","town_kana":"ヒガシツカノメ","prefecture_code":15},"0351":{"zip_code":"9570351","prefecture":"新潟県","prefecture_kana":"ニイガタケン","city":"新発田市","city_kana":"シバタシ","town":"東姫田","town_kana":"ヒガシヒメダ","prefecture_code":15},"0235":{"zip_code":"9570235","prefecture":"新潟県","prefecture_kana":"ニイガタケン","city":"新発田市","city_kana":"シバタシ","town":"人橋","town_kana":"ヒトバシ","prefecture_code":15},"0072":{"zip_code":"9570072","prefecture":"新潟県","prefecture_kana":"ニイガタケン","city":"新発田市","city_kana":"シバタシ","town":"日渡","town_kana":"ヒワタシ","prefecture_code":15},"0206":{"zip_code":"9570206","prefecture":"新潟県","prefecture_kana":"ニイガタケン","city":"新発田市","city_kana":"シバタシ","town":"福岡","town_kana":"フクオカ","prefecture_code":15},"0231":{"zip_code":"9570231","prefecture":"新潟県","prefecture_kana":"ニイガタケン","city":"新発田市","city_kana":"シバタシ","town":"藤塚浜","town_kana":"フジツカハマ","prefecture_code":15},"0234":{"zip_code":"9570234","prefecture":"新潟県","prefecture_kana":"ニイガタケン","city":"新発田市","city_kana":"シバタシ","town":"二ツ山","town_kana":"フタツヤマ","prefecture_code":15},"0066":{"zip_code":"9570066","prefecture":"新潟県","prefecture_kana":"ニイガタケン","city":"新発田市","city_kana":"シバタシ","town":"舟入","town_kana":"フナイリ","prefecture_code":15},"0065":{"zip_code":"9570065","prefecture":"新潟県","prefecture_kana":"ニイガタケン","city":"新発田市","city_kana":"シバタシ","town":"舟入町","town_kana":"フネイリチョウ","prefecture_code":15},"0022":{"zip_code":"9570022","prefecture":"新潟県","prefecture_kana":"ニイガタケン","city":"新発田市","city_kana":"シバタシ","town":"古寺","town_kana":"フルテラ","prefecture_code":15},"0047":{"zip_code":"9570047","prefecture":"新潟県","prefecture_kana":"ニイガタケン","city":"新発田市","city_kana":"シバタシ","town":"法正橋","town_kana":"ホウジョウバシ","prefecture_code":15},"0054":{"zip_code":"9570054","prefecture":"新潟県","prefecture_kana":"ニイガタケン","city":"新発田市","city_kana":"シバタシ","town":"本町","town_kana":"ホンチョウ","prefecture_code":15},"0342":{"zip_code":"9570342","prefecture":"新潟県","prefecture_kana":"ニイガタケン","city":"新発田市","city_kana":"シバタシ","town":"本間新田","town_kana":"ホンマシンデン","prefecture_code":15},"0044":{"zip_code":"9570044","prefecture":"新潟県","prefecture_kana":"ニイガタケン","city":"新発田市","city_kana":"シバタシ","town":"松岡","town_kana":"マツオカ","prefecture_code":15},"0201":{"zip_code":"9570201","prefecture":"新潟県","prefecture_kana":"ニイガタケン","city":"新発田市","city_kana":"シバタシ","town":"真中","town_kana":"マナカ","prefecture_code":15},"0233":{"zip_code":"9570233","prefecture":"新潟県","prefecture_kana":"ニイガタケン","city":"新発田市","city_kana":"シバタシ","town":"真野原","town_kana":"マノハラ","prefecture_code":15},"0232":{"zip_code":"9570232","prefecture":"新潟県","prefecture_kana":"ニイガタケン","city":"新発田市","city_kana":"シバタシ","town":"真野原外","town_kana":"マノハラソト","prefecture_code":15},"0073":{"zip_code":"9570073","prefecture":"新潟県","prefecture_kana":"ニイガタケン","city":"新発田市","city_kana":"シバタシ","town":"弓越","town_kana":"ミコシ","prefecture_code":15},"0048":{"zip_code":"9570048","prefecture":"新潟県","prefecture_kana":"ニイガタケン","city":"新発田市","city_kana":"シバタシ","town":"瑞波","town_kana":"ミズナミ","prefecture_code":15},"0018":{"zip_code":"9570018","prefecture":"新潟県","prefecture_kana":"ニイガタケン","city":"新発田市","city_kana":"シバタシ","town":"緑町","town_kana":"ミドリチョウ","prefecture_code":15},"0352":{"zip_code":"9570352","prefecture":"新潟県","prefecture_kana":"ニイガタケン","city":"新発田市","city_kana":"シバタシ","town":"南楯","town_kana":"ミナミタテ","prefecture_code":15},"0216":{"zip_code":"9570216","prefecture":"新潟県","prefecture_kana":"ニイガタケン","city":"新発田市","city_kana":"シバタシ","town":"南成田","town_kana":"ミナミナリタ","prefecture_code":15},"0346":{"zip_code":"9570346","prefecture":"新潟県","prefecture_kana":"ニイガタケン","city":"新発田市","city_kana":"シバタシ","town":"宮古木","town_kana":"ミヤコギ","prefecture_code":15},"0226":{"zip_code":"9570226","prefecture":"新潟県","prefecture_kana":"ニイガタケン","city":"新発田市","city_kana":"シバタシ","town":"宮吉","town_kana":"ミヤヨシ","prefecture_code":15},"0057":{"zip_code":"9570057","prefecture":"新潟県","prefecture_kana":"ニイガタケン","city":"新発田市","city_kana":"シバタシ","town":"御幸町","town_kana":"ミユキチョウ","prefecture_code":15},"0027":{"zip_code":"9570027","prefecture":"新潟県","prefecture_kana":"ニイガタケン","city":"新発田市","city_kana":"シバタシ","town":"六日町","town_kana":"ムイカマチ","prefecture_code":15},"0236":{"zip_code":"9570236","prefecture":"新潟県","prefecture_kana":"ニイガタケン","city":"新発田市","city_kana":"シバタシ","town":"元郷","town_kana":"モトゴウ","prefecture_code":15},"0466":{"zip_code":"9570466","prefecture":"新潟県","prefecture_kana":"ニイガタケン","city":"新発田市","city_kana":"シバタシ","town":"山内","town_kana":"ヤマウチ","prefecture_code":15},"0028":{"zip_code":"9570028","prefecture":"新潟県","prefecture_kana":"ニイガタケン","city":"新発田市","city_kana":"シバタシ","town":"山崎","town_kana":"ヤマザキ","prefecture_code":15},"0033":{"zip_code":"9570033","prefecture":"新潟県","prefecture_kana":"ニイガタケン","city":"新発田市","city_kana":"シバタシ","town":"八幡","town_kana":"ヤワタ","prefecture_code":15},"0032":{"zip_code":"9570032","prefecture":"新潟県","prefecture_kana":"ニイガタケン","city":"新発田市","city_kana":"シバタシ","town":"八幡新田","town_kana":"ヤワタシンデン","prefecture_code":15},"0016":{"zip_code":"9570016","prefecture":"新潟県","prefecture_kana":"ニイガタケン","city":"新発田市","city_kana":"シバタシ","town":"豊町","town_kana":"ユタカチョウ","prefecture_code":15},"0036":{"zip_code":"9570036","prefecture":"新潟県","prefecture_kana":"ニイガタケン","city":"新発田市","city_kana":"シバタシ","town":"米倉","town_kana":"ヨネクラ","prefecture_code":15},"0225":{"zip_code":"9570225","prefecture":"新潟県","prefecture_kana":"ニイガタケン","city":"新発田市","city_kana":"シバタシ","town":"米子","town_kana":"ヨネコ","prefecture_code":15},"0100":{"zip_code":"9570100","prefecture":"新潟県","prefecture_kana":"ニイガタケン","city":"北蒲原郡聖籠町","city_kana":"キタカンバラグンセイロウマチ","town":"","town_kana":"","prefecture_code":15},"0103":{"zip_code":"9570103","prefecture":"新潟県","prefecture_kana":"ニイガタケン","city":"北蒲原郡聖籠町","city_kana":"キタカンバラグンセイロウマチ","town":"網代浜","town_kana":"アジロハマ","prefecture_code":15},"0102":{"zip_code":"9570102","prefecture":"新潟県","prefecture_kana":"ニイガタケン","city":"北蒲原郡聖籠町","city_kana":"キタカンバラグンセイロウマチ","town":"位守町","town_kana":"イモリチョウ","prefecture_code":15},"0113":{"zip_code":"9570113","prefecture":"新潟県","prefecture_kana":"ニイガタケン","city":"北蒲原郡聖籠町","city_kana":"キタカンバラグンセイロウマチ","town":"上大谷内","town_kana":"カミオオヤチ","prefecture_code":15},"0104":{"zip_code":"9570104","prefecture":"新潟県","prefecture_kana":"ニイガタケン","city":"北蒲原郡聖籠町","city_kana":"キタカンバラグンセイロウマチ","town":"亀塚","town_kana":"カメヅカ","prefecture_code":15},"0122":{"zip_code":"9570122","prefecture":"新潟県","prefecture_kana":"ニイガタケン","city":"北蒲原郡聖籠町","city_kana":"キタカンバラグンセイロウマチ","town":"三賀","town_kana":"サンガ","prefecture_code":15},"0105":{"zip_code":"9570105","prefecture":"新潟県","prefecture_kana":"ニイガタケン","city":"北蒲原郡聖籠町","city_kana":"キタカンバラグンセイロウマチ","town":"次第浜","town_kana":"シダイハマ","prefecture_code":15},"0117":{"zip_code":"9570117","prefecture":"新潟県","prefecture_kana":"ニイガタケン","city":"北蒲原郡聖籠町","city_kana":"キタカンバラグンセイロウマチ","town":"諏訪山","town_kana":"スワヤマ","prefecture_code":15},"0121":{"zip_code":"9570121","prefecture":"新潟県","prefecture_kana":"ニイガタケン","city":"北蒲原郡聖籠町","city_kana":"キタカンバラグンセイロウマチ","town":"大夫","town_kana":"ダイブ","prefecture_code":15},"0126":{"zip_code":"9570126","prefecture":"新潟県","prefecture_kana":"ニイガタケン","city":"北蒲原郡聖籠町","city_kana":"キタカンバラグンセイロウマチ","town":"大夫興野","town_kana":"ダイブコウヤ","prefecture_code":15},"0112":{"zip_code":"9570112","prefecture":"新潟県","prefecture_kana":"ニイガタケン","city":"北蒲原郡聖籠町","city_kana":"キタカンバラグンセイロウマチ","town":"道賀新田","town_kana":"ドウガシンデン","prefecture_code":15},"0123":{"zip_code":"9570123","prefecture":"新潟県","prefecture_kana":"ニイガタケン","city":"北蒲原郡聖籠町","city_kana":"キタカンバラグンセイロウマチ","town":"二本松","town_kana":"ニホンマツ","prefecture_code":15},"0106":{"zip_code":"9570106","prefecture":"新潟県","prefecture_kana":"ニイガタケン","city":"北蒲原郡聖籠町","city_kana":"キタカンバラグンセイロウマチ","town":"蓮潟","town_kana":"ハスガタ","prefecture_code":15},"0124":{"zip_code":"9570124","prefecture":"新潟県","prefecture_kana":"ニイガタケン","city":"北蒲原郡聖籠町","city_kana":"キタカンバラグンセイロウマチ","town":"蓮野","town_kana":"ハスノ","prefecture_code":15},"0101":{"zip_code":"9570101","prefecture":"新潟県","prefecture_kana":"ニイガタケン","city":"北蒲原郡聖籠町","city_kana":"キタカンバラグンセイロウマチ","town":"東港","town_kana":"ヒガシコウ","prefecture_code":15},"0127":{"zip_code":"9570127","prefecture":"新潟県","prefecture_kana":"ニイガタケン","city":"北蒲原郡聖籠町","city_kana":"キタカンバラグンセイロウマチ","town":"藤寄","town_kana":"フジヨセ","prefecture_code":15},"0125":{"zip_code":"9570125","prefecture":"新潟県","prefecture_kana":"ニイガタケン","city":"北蒲原郡聖籠町","city_kana":"キタカンバラグンセイロウマチ","town":"別條","town_kana":"ベッジョウ","prefecture_code":15},"0111":{"zip_code":"9570111","prefecture":"新潟県","prefecture_kana":"ニイガタケン","city":"北蒲原郡聖籠町","city_kana":"キタカンバラグンセイロウマチ","town":"真野","town_kana":"マノ","prefecture_code":15},"0114":{"zip_code":"9570114","prefecture":"新潟県","prefecture_kana":"ニイガタケン","city":"北蒲原郡聖籠町","city_kana":"キタカンバラグンセイロウマチ","town":"丸潟","town_kana":"マルガタ","prefecture_code":15},"0115":{"zip_code":"9570115","prefecture":"新潟県","prefecture_kana":"ニイガタケン","city":"北蒲原郡聖籠町","city_kana":"キタカンバラグンセイロウマチ","town":"桃山","town_kana":"モモヤマ","prefecture_code":15},"0116":{"zip_code":"9570116","prefecture":"新潟県","prefecture_kana":"ニイガタケン","city":"北蒲原郡聖籠町","city_kana":"キタカンバラグンセイロウマチ","town":"山倉","town_kana":"ヤマグラ","prefecture_code":15}}