{"0000":{"zip_code":"9580000","prefecture":"新潟県","prefecture_kana":"ニイガタケン","city":"村上市","city_kana":"ムラカミシ","town":"","town_kana":"","prefecture_code":15},"0816":{"zip_code":"9580816","prefecture":"新潟県","prefecture_kana":"ニイガタケン","city":"村上市","city_kana":"ムラカミシ","town":"赤沢","town_kana":"アカサワ","prefecture_code":15},"0270":{"zip_code":"9580270","prefecture":"新潟県","prefecture_kana":"ニイガタケン","city":"村上市","city_kana":"ムラカミシ","town":"あけぼの","town_kana":"アケボノ","prefecture_code":15},"0226":{"zip_code":"9580226","prefecture":"新潟県","prefecture_kana":"ニイガタケン","city":"村上市","city_kana":"ムラカミシ","town":"朝日中野","town_kana":"アサヒナカノ","prefecture_code":15},"0203":{"zip_code":"9580203","prefecture":"新潟県","prefecture_kana":"ニイガタケン","city":"村上市","city_kana":"ムラカミシ","town":"荒沢","town_kana":"アラサワ","prefecture_code":15},"0846":{"zip_code":"9580846","prefecture":"新潟県","prefecture_kana":"ニイガタケン","city":"村上市","city_kana":"ムラカミシ","town":"安良町","town_kana":"アラマチ","prefecture_code":15},"0232":{"zip_code":"9580232","prefecture":"新潟県","prefecture_kana":"ニイガタケン","city":"村上市","city_kana":"ムラカミシ","town":"新屋","town_kana":"アラヤ","prefecture_code":15},"0857":{"zip_code":"9580857","prefecture":"新潟県","prefecture_kana":"ニイガタケン","city":"村上市","city_kana":"ムラカミシ","town":"飯野","town_kana":"イイノ","prefecture_code":15},"0856":{"zip_code":"9580856","prefecture":"新潟県","prefecture_kana":"ニイガタケン","city":"村上市","city_kana":"ムラカミシ","town":"飯野桜ケ丘","town_kana":"イイノサクラガオカ","prefecture_code":15},"0855":{"zip_code":"9580855","prefecture":"新潟県","prefecture_kana":"ニイガタケン","city":"村上市","city_kana":"ムラカミシ","town":"飯野西","town_kana":"イイノニシ","prefecture_code":15},"0235":{"zip_code":"9580235","prefecture":"新潟県","prefecture_kana":"ニイガタケン","city":"村上市","city_kana":"ムラカミシ","town":"石住","town_kana":"イシズミ","prefecture_code":15},"0832":{"zip_code":"9580832","prefecture":"新潟県","prefecture_kana":"ニイガタケン","city":"村上市","city_kana":"ムラカミシ","town":"石原","town_kana":"イシワラ","prefecture_code":15},"0877":{"zip_code":"9580877","prefecture":"新潟県","prefecture_kana":"ニイガタケン","city":"村上市","city_kana":"ムラカミシ","town":"泉町","town_kana":"イズミマチ","prefecture_code":15},"0214":{"zip_code":"9580214","prefecture":"新潟県","prefecture_kana":"ニイガタケン","city":"村上市","city_kana":"ムラカミシ","town":"板屋越","town_kana":"イタヤゴシ","prefecture_code":15},"0813":{"zip_code":"9580813","prefecture":"新潟県","prefecture_kana":"ニイガタケン","city":"村上市","city_kana":"ムラカミシ","town":"鋳物師","town_kana":"イモジ","prefecture_code":15},"0008":{"zip_code":"9580008","prefecture":"新潟県","prefecture_kana":"ニイガタケン","city":"村上市","city_kana":"ムラカミシ","town":"岩ケ崎","town_kana":"イワガサキ","prefecture_code":15},"0241":{"zip_code":"9580241","prefecture":"新潟県","prefecture_kana":"ニイガタケン","city":"村上市","city_kana":"ムラカミシ","town":"岩崩","town_kana":"イワクズレ","prefecture_code":15},"0251":{"zip_code":"9580251","prefecture":"新潟県","prefecture_kana":"ニイガタケン","city":"村上市","city_kana":"ムラカミシ","town":"岩沢","town_kana":"イワサワ","prefecture_code":15},"0044":{"zip_code":"9580044","prefecture":"新潟県","prefecture_kana":"ニイガタケン","city":"村上市","city_kana":"ムラカミシ","town":"岩船上大町","town_kana":"イワフネカミオオマチ","prefecture_code":15},"0045":{"zip_code":"9580045","prefecture":"新潟県","prefecture_kana":"ニイガタケン","city":"村上市","city_kana":"ムラカミシ","town":"岩船上浜町","town_kana":"イワフネカミハママチ","prefecture_code":15},"0047":{"zip_code":"9580047","prefecture":"新潟県","prefecture_kana":"ニイガタケン","city":"村上市","city_kana":"ムラカミシ","town":"岩船岸見寺町","town_kana":"イワフネガンゲンジマチ","prefecture_code":15},"0051":{"zip_code":"9580051","prefecture":"新潟県","prefecture_kana":"ニイガタケン","city":"村上市","city_kana":"ムラカミシ","town":"岩船上町","town_kana":"イワフネカンマチ","prefecture_code":15},"0042":{"zip_code":"9580042","prefecture":"新潟県","prefecture_kana":"ニイガタケン","city":"村上市","city_kana":"ムラカミシ","town":"岩船北浜町","town_kana":"イワフネキタハママチ","prefecture_code":15},"0048":{"zip_code":"9580048","prefecture":"新潟県","prefecture_kana":"ニイガタケン","city":"村上市","city_kana":"ムラカミシ","town":"岩船地蔵町","town_kana":"イワフネジゾウマチ","prefecture_code":15},"0043":{"zip_code":"9580043","prefecture":"新潟県","prefecture_kana":"ニイガタケン","city":"村上市","city_kana":"ムラカミシ","town":"岩船下大町","town_kana":"イワフネシモオオマチ","prefecture_code":15},"0046":{"zip_code":"9580046","prefecture":"新潟県","prefecture_kana":"ニイガタケン","city":"村上市","city_kana":"ムラカミシ","town":"岩船下浜町","town_kana":"イワフネシモハママチ","prefecture_code":15},"0054":{"zip_code":"9580054","prefecture":"新潟県","prefecture_kana":"ニイガタケン","city":"村上市","city_kana":"ムラカミシ","town":"岩船新田町","town_kana":"イワフネシンデンマチ","prefecture_code":15},"0055":{"zip_code":"9580055","prefecture":"新潟県","prefecture_kana":"ニイガタケン","city":"村上市","city_kana":"ムラカミシ","town":"岩船縦新町","town_kana":"イワフネタテシンマチ","prefecture_code":15},"0056":{"zip_code":"9580056","prefecture":"新潟県","prefecture_kana":"ニイガタケン","city":"村上市","city_kana":"ムラカミシ","town":"岩船中新町","town_kana":"イワフネナカシンマチ","prefecture_code":15},"0041":{"zip_code":"9580041","prefecture":"新潟県","prefecture_kana":"ニイガタケン","city":"村上市","city_kana":"ムラカミシ","town":"岩船三日市","town_kana":"イワフネミッカイチ","prefecture_code":15},"0058":{"zip_code":"9580058","prefecture":"新潟県","prefecture_kana":"ニイガタケン","city":"村上市","city_kana":"ムラカミシ","town":"岩船港町","town_kana":"イワフネミナトマチ","prefecture_code":15},"0057":{"zip_code":"9580057","prefecture":"新潟県","prefecture_kana":"ニイガタケン","city":"村上市","city_kana":"ムラカミシ","town":"岩船横新町","town_kana":"イワフネヨコシンマチ","prefecture_code":15},"0262":{"zip_code":"9580262","prefecture":"新潟県","prefecture_kana":"ニイガタケン","city":"村上市","city_kana":"ムラカミシ","town":"上野","town_kana":"ウエノ","prefecture_code":15},"0264":{"zip_code":"9580264","prefecture":"新潟県","prefecture_kana":"ニイガタケン","city":"村上市","city_kana":"ムラカミシ","town":"鵜渡路","town_kana":"ウノトロ","prefecture_code":15},"0036":{"zip_code":"9580036","prefecture":"新潟県","prefecture_kana":"ニイガタケン","city":"村上市","city_kana":"ムラカミシ","town":"浦田","town_kana":"ウラタ","prefecture_code":15},"0867":{"zip_code":"9580867","prefecture":"新潟県","prefecture_kana":"ニイガタケン","city":"村上市","city_kana":"ムラカミシ","town":"大欠","town_kana":"オオガキ","prefecture_code":15},"0815":{"zip_code":"9580815","prefecture":"新潟県","prefecture_kana":"ニイガタケン","city":"村上市","city_kana":"ムラカミシ","town":"大栗田","town_kana":"オオクリダ","prefecture_code":15},"0202":{"zip_code":"9580202","prefecture":"新潟県","prefecture_kana":"ニイガタケン","city":"村上市","city_kana":"ムラカミシ","town":"大須戸","town_kana":"オオスド","prefecture_code":15},"0812":{"zip_code":"9580812","prefecture":"新潟県","prefecture_kana":"ニイガタケン","city":"村上市","city_kana":"ムラカミシ","town":"大関","town_kana":"オオセキ","prefecture_code":15},"0012":{"zip_code":"9580012","prefecture":"新潟県","prefecture_kana":"ニイガタケン","city":"村上市","city_kana":"ムラカミシ","town":"大平","town_kana":"オオダイラ","prefecture_code":15},"0007":{"zip_code":"9580007","prefecture":"新潟県","prefecture_kana":"ニイガタケン","city":"村上市","city_kana":"ムラカミシ","town":"大月","town_kana":"オオヅキ","prefecture_code":15},"0253":{"zip_code":"9580253","prefecture":"新潟県","prefecture_kana":"ニイガタケン","city":"村上市","city_kana":"ムラカミシ","town":"大場沢","town_kana":"オオバザワ","prefecture_code":15},"0842":{"zip_code":"9580842","prefecture":"新潟県","prefecture_kana":"ニイガタケン","city":"村上市","city_kana":"ムラカミシ","town":"大町","town_kana":"オオマチ","prefecture_code":15},"0268":{"zip_code":"9580268","prefecture":"新潟県","prefecture_kana":"ニイガタケン","city":"村上市","city_kana":"ムラカミシ","town":"小川","town_kana":"オガワ","prefecture_code":15},"0848":{"zip_code":"9580848","prefecture":"新潟県","prefecture_kana":"ニイガタケン","city":"村上市","city_kana":"ムラカミシ","town":"小国町","town_kana":"オグニマチ","prefecture_code":15},"0806":{"zip_code":"9580806","prefecture":"新潟県","prefecture_kana":"ニイガタケン","city":"村上市","city_kana":"ムラカミシ","town":"小谷","town_kana":"オダニ","prefecture_code":15},"0875":{"zip_code":"9580875","prefecture":"新潟県","prefecture_kana":"ニイガタケン","city":"村上市","city_kana":"ムラカミシ","town":"加賀町","town_kana":"カガマチ","prefecture_code":15},"0004":{"zip_code":"9580004","prefecture":"新潟県","prefecture_kana":"ニイガタケン","city":"村上市","city_kana":"ムラカミシ","town":"柏尾","town_kana":"カシオ","prefecture_code":15},"0863":{"zip_code":"9580863","prefecture":"新潟県","prefecture_kana":"ニイガタケン","city":"村上市","city_kana":"ムラカミシ","town":"鍛冶町","town_kana":"カジマチ","prefecture_code":15},"0872":{"zip_code":"9580872","prefecture":"新潟県","prefecture_kana":"ニイガタケン","city":"村上市","city_kana":"ムラカミシ","town":"片町","town_kana":"カタマチ","prefecture_code":15},"0031":{"zip_code":"9580031","prefecture":"新潟県","prefecture_kana":"ニイガタケン","city":"村上市","city_kana":"ムラカミシ","town":"学校町","town_kana":"ガッコウチョウ","prefecture_code":15},"0245":{"zip_code":"9580245","prefecture":"新潟県","prefecture_kana":"ニイガタケン","city":"村上市","city_kana":"ムラカミシ","town":"釜杭","town_kana":"カマグイ","prefecture_code":15},"0808":{"zip_code":"9580808","prefecture":"新潟県","prefecture_kana":"ニイガタケン","city":"村上市","city_kana":"ムラカミシ","town":"上相川","town_kana":"カミアイカワ","prefecture_code":15},"0873":{"zip_code":"9580873","prefecture":"新潟県","prefecture_kana":"ニイガタケン","city":"村上市","city_kana":"ムラカミシ","town":"上片町","town_kana":"カミカタマチ","prefecture_code":15},"0236":{"zip_code":"9580236","prefecture":"新潟県","prefecture_kana":"ニイガタケン","city":"村上市","city_kana":"ムラカミシ","town":"上中島","town_kana":"カミナカジマ","prefecture_code":15},"0053":{"zip_code":"9580053","prefecture":"新潟県","prefecture_kana":"ニイガタケン","city":"村上市","city_kana":"ムラカミシ","town":"上の山","town_kana":"カミノヤマ","prefecture_code":15},"0805":{"zip_code":"9580805","prefecture":"新潟県","prefecture_kana":"ニイガタケン","city":"村上市","city_kana":"ムラカミシ","town":"上山田","town_kana":"カミヤマダ","prefecture_code":15},"0263":{"zip_code":"9580263","prefecture":"新潟県","prefecture_kana":"ニイガタケン","city":"村上市","city_kana":"ムラカミシ","town":"川端","town_kana":"カワバタ","prefecture_code":15},"0843":{"zip_code":"9580843","prefecture":"新潟県","prefecture_kana":"ニイガタケン","city":"村上市","city_kana":"ムラカミシ","town":"上町","town_kana":"カンマチ","prefecture_code":15},"0212":{"zip_code":"9580212","prefecture":"新潟県","prefecture_kana":"ニイガタケン","city":"村上市","city_kana":"ムラカミシ","town":"北大平","town_kana":"キタオオダイラ","prefecture_code":15},"0242":{"zip_code":"9580242","prefecture":"新潟県","prefecture_kana":"ニイガタケン","city":"村上市","city_kana":"ムラカミシ","town":"茎太","town_kana":"クキタ","prefecture_code":15},"0807":{"zip_code":"9580807","prefecture":"新潟県","prefecture_kana":"ニイガタケン","city":"村上市","city_kana":"ムラカミシ","town":"日下","town_kana":"クサカ","prefecture_code":15},"0871":{"zip_code":"9580871","prefecture":"新潟県","prefecture_kana":"ニイガタケン","city":"村上市","city_kana":"ムラカミシ","town":"久保多町","town_kana":"クボタマチ","prefecture_code":15},"0255":{"zip_code":"9580255","prefecture":"新潟県","prefecture_kana":"ニイガタケン","city":"村上市","city_kana":"ムラカミシ","town":"熊登","town_kana":"クマト","prefecture_code":15},"0224":{"zip_code":"9580224","prefecture":"新潟県","prefecture_kana":"ニイガタケン","city":"村上市","city_kana":"ムラカミシ","town":"黒田","town_kana":"クロダ","prefecture_code":15},"0014":{"zip_code":"9580014","prefecture":"新潟県","prefecture_kana":"ニイガタケン","city":"村上市","city_kana":"ムラカミシ","town":"下渡","town_kana":"ゲド","prefecture_code":15},"0244":{"zip_code":"9580244","prefecture":"新潟県","prefecture_kana":"ニイガタケン","city":"村上市","city_kana":"ムラカミシ","town":"小揚","town_kana":"コアゲ","prefecture_code":15},"0204":{"zip_code":"9580204","prefecture":"新潟県","prefecture_kana":"ニイガタケン","city":"村上市","city_kana":"ムラカミシ","town":"小須戸","town_kana":"コスド","prefecture_code":15},"0841":{"zip_code":"9580841","prefecture":"新潟県","prefecture_kana":"ニイガタケン","city":"村上市","city_kana":"ムラカミシ","town":"小町","town_kana":"コマチ","prefecture_code":15},"0221":{"zip_code":"9580221","prefecture":"新潟県","prefecture_kana":"ニイガタケン","city":"村上市","city_kana":"ムラカミシ","town":"薦川","town_kana":"コモガワ","prefecture_code":15},"0845":{"zip_code":"9580845","prefecture":"新潟県","prefecture_kana":"ニイガタケン","city":"村上市","city_kana":"ムラカミシ","town":"細工町","town_kana":"サイクマチ","prefecture_code":15},"0865":{"zip_code":"9580865","prefecture":"新潟県","prefecture_kana":"ニイガタケン","city":"村上市","city_kana":"ムラカミシ","town":"幸町","town_kana":"サイワイチョウ","prefecture_code":15},"0864":{"zip_code":"9580864","prefecture":"新潟県","prefecture_kana":"ニイガタケン","city":"村上市","city_kana":"ムラカミシ","town":"肴町","town_kana":"サカナマチ","prefecture_code":15},"0246":{"zip_code":"9580246","prefecture":"新潟県","prefecture_kana":"ニイガタケン","city":"村上市","city_kana":"ムラカミシ","town":"笹平","town_kana":"ササダイラ","prefecture_code":15},"0821":{"zip_code":"9580821","prefecture":"新潟県","prefecture_kana":"ニイガタケン","city":"村上市","city_kana":"ムラカミシ","town":"山辺里","town_kana":"サベリ","prefecture_code":15},"0261":{"zip_code":"9580261","prefecture":"新潟県","prefecture_kana":"ニイガタケン","city":"村上市","city_kana":"ムラカミシ","town":"猿沢","town_kana":"サルサワ","prefecture_code":15},"0222":{"zip_code":"9580222","prefecture":"新潟県","prefecture_kana":"ニイガタケン","city":"村上市","city_kana":"ムラカミシ","town":"猿田","town_kana":"サルタ","prefecture_code":15},"0853":{"zip_code":"9580853","prefecture":"新潟県","prefecture_kana":"ニイガタケン","city":"村上市","city_kana":"ムラカミシ","town":"山居町","town_kana":"サンキョマチ","prefecture_code":15},"0837":{"zip_code":"9580837","prefecture":"新潟県","prefecture_kana":"ニイガタケン","city":"村上市","city_kana":"ムラカミシ","town":"三之町","town_kana":"サンノチョウ","prefecture_code":15},"0205":{"zip_code":"9580205","prefecture":"新潟県","prefecture_kana":"ニイガタケン","city":"村上市","city_kana":"ムラカミシ","town":"塩野町","town_kana":"シオノマチ","prefecture_code":15},"0876":{"zip_code":"9580876","prefecture":"新潟県","prefecture_kana":"ニイガタケン","city":"村上市","city_kana":"ムラカミシ","town":"塩町","town_kana":"シオマチ","prefecture_code":15},"0809":{"zip_code":"9580809","prefecture":"新潟県","prefecture_kana":"ニイガタケン","city":"村上市","city_kana":"ムラカミシ","town":"下相川","town_kana":"シモアイカワ","prefecture_code":15},"0252":{"zip_code":"9580252","prefecture":"新潟県","prefecture_kana":"ニイガタケン","city":"村上市","city_kana":"ムラカミシ","town":"下新保","town_kana":"シモシンボ","prefecture_code":15},"0265":{"zip_code":"9580265","prefecture":"新潟県","prefecture_kana":"ニイガタケン","city":"村上市","city_kana":"ムラカミシ","town":"下中島","town_kana":"シモナカジマ","prefecture_code":15},"0804":{"zip_code":"9580804","prefecture":"新潟県","prefecture_kana":"ニイガタケン","city":"村上市","city_kana":"ムラカミシ","town":"下山田","town_kana":"シモヤマダ","prefecture_code":15},"0874":{"zip_code":"9580874","prefecture":"新潟県","prefecture_kana":"ニイガタケン","city":"村上市","city_kana":"ムラカミシ","town":"庄内町","town_kana":"ショウナイマチ","prefecture_code":15},"0834":{"zip_code":"9580834","prefecture":"新潟県","prefecture_kana":"ニイガタケン","city":"村上市","city_kana":"ムラカミシ","town":"新町","town_kana":"シンマチ","prefecture_code":15},"0817":{"zip_code":"9580817","prefecture":"新潟県","prefecture_kana":"ニイガタケン","city":"村上市","city_kana":"ムラカミシ","town":"菅沼","town_kana":"スガヌマ","prefecture_code":15},"0831":{"zip_code":"9580831","prefecture":"新潟県","prefecture_kana":"ニイガタケン","city":"村上市","city_kana":"ムラカミシ","town":"杉原","town_kana":"スギワラ","prefecture_code":15},"0225":{"zip_code":"9580225","prefecture":"新潟県","prefecture_kana":"ニイガタケン","city":"村上市","city_kana":"ムラカミシ","town":"関口","town_kana":"セキグチ","prefecture_code":15},"0037":{"zip_code":"9580037","prefecture":"新潟県","prefecture_kana":"ニイガタケン","city":"村上市","city_kana":"ムラカミシ","town":"瀬波温泉","town_kana":"セナミオンセン","prefecture_code":15},"0023":{"zip_code":"9580023","prefecture":"新潟県","prefecture_kana":"ニイガタケン","city":"村上市","city_kana":"ムラカミシ","town":"瀬波上町","town_kana":"セナミカンマチ","prefecture_code":15},"0021":{"zip_code":"9580021","prefecture":"新潟県","prefecture_kana":"ニイガタケン","city":"村上市","city_kana":"ムラカミシ","town":"瀬波新田町","town_kana":"セナミシンデンマチ","prefecture_code":15},"0024":{"zip_code":"9580024","prefecture":"新潟県","prefecture_kana":"ニイガタケン","city":"村上市","city_kana":"ムラカミシ","town":"瀬波中町","town_kana":"セナミナカマチ","prefecture_code":15},"0026":{"zip_code":"9580026","prefecture":"新潟県","prefecture_kana":"ニイガタケン","city":"村上市","city_kana":"ムラカミシ","town":"瀬波浜町","town_kana":"セナミハママチ","prefecture_code":15},"0022":{"zip_code":"9580022","prefecture":"新潟県","prefecture_kana":"ニイガタケン","city":"村上市","city_kana":"ムラカミシ","town":"瀬波横町","town_kana":"セナミヨコマチ","prefecture_code":15},"0254":{"zip_code":"9580254","prefecture":"新潟県","prefecture_kana":"ニイガタケン","city":"村上市","city_kana":"ムラカミシ","town":"十川","town_kana":"ソガワ","prefecture_code":15},"0847":{"zip_code":"9580847","prefecture":"新潟県","prefecture_kana":"ニイガタケン","city":"村上市","city_kana":"ムラカミシ","town":"大工町","town_kana":"ダイクマチ","prefecture_code":15},"0811":{"zip_code":"9580811","prefecture":"新潟県","prefecture_kana":"ニイガタケン","city":"村上市","city_kana":"ムラカミシ","town":"高平","town_kana":"タカダイラ","prefecture_code":15},"0211":{"zip_code":"9580211","prefecture":"新潟県","prefecture_kana":"ニイガタケン","city":"村上市","city_kana":"ムラカミシ","town":"高根","town_kana":"タカネ","prefecture_code":15},"0011":{"zip_code":"9580011","prefecture":"新潟県","prefecture_kana":"ニイガタケン","city":"村上市","city_kana":"ムラカミシ","town":"滝の前","town_kana":"タキノマエ","prefecture_code":15},"0854":{"zip_code":"9580854","prefecture":"新潟県","prefecture_kana":"ニイガタケン","city":"村上市","city_kana":"ムラカミシ","town":"田端町","town_kana":"タバタマチ","prefecture_code":15},"0243":{"zip_code":"9580243","prefecture":"新潟県","prefecture_kana":"ニイガタケン","city":"村上市","city_kana":"ムラカミシ","town":"千縄","town_kana":"チナワ","prefecture_code":15},"0823":{"zip_code":"9580823","prefecture":"新潟県","prefecture_kana":"ニイガタケン","city":"村上市","city_kana":"ムラカミシ","town":"仲間町","town_kana":"チュウゲンマチ","prefecture_code":15},"0822":{"zip_code":"9580822","prefecture":"新潟県","prefecture_kana":"ニイガタケン","city":"村上市","city_kana":"ムラカミシ","town":"坪根","town_kana":"ツボネ","prefecture_code":15},"0267":{"zip_code":"9580267","prefecture":"新潟県","prefecture_kana":"ニイガタケン","city":"村上市","city_kana":"ムラカミシ","town":"寺尾","town_kana":"テラオ","prefecture_code":15},"0849":{"zip_code":"9580849","prefecture":"新潟県","prefecture_kana":"ニイガタケン","city":"村上市","city_kana":"ムラカミシ","town":"寺町","town_kana":"テラマチ","prefecture_code":15},"0803":{"zip_code":"9580803","prefecture":"新潟県","prefecture_kana":"ニイガタケン","city":"村上市","city_kana":"ムラカミシ","town":"天神岡","town_kana":"テンジンオカ","prefecture_code":15},"0844":{"zip_code":"9580844","prefecture":"新潟県","prefecture_kana":"ニイガタケン","city":"村上市","city_kana":"ムラカミシ","town":"長井町","town_kana":"ナガイマチ","prefecture_code":15},"0861":{"zip_code":"9580861","prefecture":"新潟県","prefecture_kana":"ニイガタケン","city":"村上市","city_kana":"ムラカミシ","town":"中川原団地","town_kana":"ナカガワラダンチ","prefecture_code":15},"0233":{"zip_code":"9580233","prefecture":"新潟県","prefecture_kana":"ニイガタケン","city":"村上市","city_kana":"ムラカミシ","town":"中新保","town_kana":"ナカシンボ","prefecture_code":15},"0223":{"zip_code":"9580223","prefecture":"新潟県","prefecture_kana":"ニイガタケン","city":"村上市","city_kana":"ムラカミシ","town":"中原","town_kana":"ナカハラ","prefecture_code":15},"0801":{"zip_code":"9580801","prefecture":"新潟県","prefecture_kana":"ニイガタケン","city":"村上市","city_kana":"ムラカミシ","town":"西興屋","town_kana":"ニシコウヤ","prefecture_code":15},"0835":{"zip_code":"9580835","prefecture":"新潟県","prefecture_kana":"ニイガタケン","city":"村上市","city_kana":"ムラカミシ","town":"二之町","town_kana":"ニノチョウ","prefecture_code":15},"0231":{"zip_code":"9580231","prefecture":"新潟県","prefecture_kana":"ニイガタケン","city":"村上市","city_kana":"ムラカミシ","town":"布部","town_kana":"ヌノベ","prefecture_code":15},"0006":{"zip_code":"9580006","prefecture":"新潟県","prefecture_kana":"ニイガタケン","city":"村上市","city_kana":"ムラカミシ","town":"野潟","town_kana":"ノガタ","prefecture_code":15},"0836":{"zip_code":"9580836","prefecture":"新潟県","prefecture_kana":"ニイガタケン","city":"村上市","city_kana":"ムラカミシ","town":"羽黒口","town_kana":"ハグログチ","prefecture_code":15},"0851":{"zip_code":"9580851","prefecture":"新潟県","prefecture_kana":"ニイガタケン","city":"村上市","city_kana":"ムラカミシ","town":"羽黒町","town_kana":"ハグロマチ","prefecture_code":15},"0013":{"zip_code":"9580013","prefecture":"新潟県","prefecture_kana":"ニイガタケン","city":"村上市","city_kana":"ムラカミシ","town":"羽下ケ渕","town_kana":"ハゲガフチ","prefecture_code":15},"0038":{"zip_code":"9580038","prefecture":"新潟県","prefecture_kana":"ニイガタケン","city":"村上市","city_kana":"ムラカミシ","town":"浜新田","town_kana":"ハマシンデン","prefecture_code":15},"0002":{"zip_code":"9580002","prefecture":"新潟県","prefecture_kana":"ニイガタケン","city":"村上市","city_kana":"ムラカミシ","town":"早川","town_kana":"ハヤカワ","prefecture_code":15},"0215":{"zip_code":"9580215","prefecture":"新潟県","prefecture_kana":"ニイガタケン","city":"村上市","city_kana":"ムラカミシ","town":"檜原","town_kana":"ヒバラ","prefecture_code":15},"0818":{"zip_code":"9580818","prefecture":"新潟県","prefecture_kana":"ニイガタケン","city":"村上市","city_kana":"ムラカミシ","town":"袋","town_kana":"フクロ","prefecture_code":15},"0201":{"zip_code":"9580201","prefecture":"新潟県","prefecture_kana":"ニイガタケン","city":"村上市","city_kana":"ムラカミシ","town":"蒲萄","town_kana":"ブドウ","prefecture_code":15},"0269":{"zip_code":"9580269","prefecture":"新潟県","prefecture_kana":"ニイガタケン","city":"村上市","city_kana":"ムラカミシ","town":"古渡路","town_kana":"フルトロ","prefecture_code":15},"0833":{"zip_code":"9580833","prefecture":"新潟県","prefecture_kana":"ニイガタケン","city":"村上市","city_kana":"ムラカミシ","town":"堀片","town_kana":"ホリカタ","prefecture_code":15},"0234":{"zip_code":"9580234","prefecture":"新潟県","prefecture_kana":"ニイガタケン","city":"村上市","city_kana":"ムラカミシ","town":"堀野","town_kana":"ホリノ","prefecture_code":15},"0001":{"zip_code":"9580001","prefecture":"新潟県","prefecture_kana":"ニイガタケン","city":"村上市","city_kana":"ムラカミシ","town":"馬下","town_kana":"マオロシ","prefecture_code":15},"0005":{"zip_code":"9580005","prefecture":"新潟県","prefecture_kana":"ニイガタケン","city":"村上市","city_kana":"ムラカミシ","town":"間島","town_kana":"マジマ","prefecture_code":15},"0206":{"zip_code":"9580206","prefecture":"新潟県","prefecture_kana":"ニイガタケン","city":"村上市","city_kana":"ムラカミシ","town":"松岡","town_kana":"マツオカ","prefecture_code":15},"0025":{"zip_code":"9580025","prefecture":"新潟県","prefecture_kana":"ニイガタケン","city":"村上市","city_kana":"ムラカミシ","town":"松波町","town_kana":"マツナミチョウ","prefecture_code":15},"0032":{"zip_code":"9580032","prefecture":"新潟県","prefecture_kana":"ニイガタケン","city":"村上市","city_kana":"ムラカミシ","town":"松原町","town_kana":"マツバラチョウ","prefecture_code":15},"0034":{"zip_code":"9580034","prefecture":"新潟県","prefecture_kana":"ニイガタケン","city":"村上市","city_kana":"ムラカミシ","town":"松山","town_kana":"マツヤマ","prefecture_code":15},"0035":{"zip_code":"9580035","prefecture":"新潟県","prefecture_kana":"ニイガタケン","city":"村上市","city_kana":"ムラカミシ","town":"三面","town_kana":"ミオモテ","prefecture_code":15},"0033":{"zip_code":"9580033","prefecture":"新潟県","prefecture_kana":"ニイガタケン","city":"村上市","city_kana":"ムラカミシ","town":"緑町","town_kana":"ミドリマチ","prefecture_code":15},"0852":{"zip_code":"9580852","prefecture":"新潟県","prefecture_kana":"ニイガタケン","city":"村上市","city_kana":"ムラカミシ","town":"南町","town_kana":"ミナミマチ","prefecture_code":15},"0266":{"zip_code":"9580266","prefecture":"新潟県","prefecture_kana":"ニイガタケン","city":"村上市","city_kana":"ムラカミシ","town":"宮ノ下","town_kana":"ミヤノシタ","prefecture_code":15},"0866":{"zip_code":"9580866","prefecture":"新潟県","prefecture_kana":"ニイガタケン","city":"村上市","city_kana":"ムラカミシ","town":"村上","town_kana":"ムラカミ","prefecture_code":15},"0824":{"zip_code":"9580824","prefecture":"新潟県","prefecture_kana":"ニイガタケン","city":"村上市","city_kana":"ムラカミシ","town":"本町","town_kana":"モトマチ","prefecture_code":15},"0814":{"zip_code":"9580814","prefecture":"新潟県","prefecture_kana":"ニイガタケン","city":"村上市","city_kana":"ムラカミシ","town":"門前","town_kana":"モンゼン","prefecture_code":15},"0052":{"zip_code":"9580052","prefecture":"新潟県","prefecture_kana":"ニイガタケン","city":"村上市","city_kana":"ムラカミシ","town":"八日市","town_kana":"ヨウカイチ","prefecture_code":15},"0003":{"zip_code":"9580003","prefecture":"新潟県","prefecture_kana":"ニイガタケン","city":"村上市","city_kana":"ムラカミシ","town":"吉浦","town_kana":"ヨシウラ","prefecture_code":15},"0802":{"zip_code":"9580802","prefecture":"新潟県","prefecture_kana":"ニイガタケン","city":"村上市","city_kana":"ムラカミシ","town":"四日市","town_kana":"ヨッカイチ","prefecture_code":15},"0862":{"zip_code":"9580862","prefecture":"新潟県","prefecture_kana":"ニイガタケン","city":"村上市","city_kana":"ムラカミシ","town":"若葉町","town_kana":"ワカバチョウ","prefecture_code":15},"0213":{"zip_code":"9580213","prefecture":"新潟県","prefecture_kana":"ニイガタケン","city":"村上市","city_kana":"ムラカミシ","town":"早稲田","town_kana":"ワセダ","prefecture_code":15},"0061":{"zip_code":"9580061","prefecture":"新潟県","prefecture_kana":"ニイガタケン","city":"岩船郡粟島浦村","city_kana":"イワフネグンアワシマウラムラ","town":"","town_kana":"","prefecture_code":15}}