{"0401":{"zip_code":"9590401","prefecture":"新潟県","prefecture_kana":"ニイガタケン","city":"新潟市西蒲区","city_kana":"ニイガタシニシカンク","town":"與兵衛野新田","town_kana":"ヨヘエノシンデン","prefecture_code":15},"0501":{"zip_code":"9590501","prefecture":"新潟県","prefecture_kana":"ニイガタケン","city":"新潟市西蒲区","city_kana":"ニイガタシニシカンク","town":"井随","town_kana":"イズイ","prefecture_code":15},"0513":{"zip_code":"9590513","prefecture":"新潟県","prefecture_kana":"ニイガタケン","city":"新潟市西蒲区","city_kana":"ニイガタシニシカンク","town":"茨島","town_kana":"イバラシマ","prefecture_code":15},"0515":{"zip_code":"9590515","prefecture":"新潟県","prefecture_kana":"ニイガタケン","city":"新潟市西蒲区","city_kana":"ニイガタシニシカンク","town":"今井","town_kana":"イマイ","prefecture_code":15},"0507":{"zip_code":"9590507","prefecture":"新潟県","prefecture_kana":"ニイガタケン","city":"新潟市西蒲区","city_kana":"ニイガタシニシカンク","town":"卯八郎受","town_kana":"ウハチロウウケ","prefecture_code":15},"0416":{"zip_code":"9590416","prefecture":"新潟県","prefecture_kana":"ニイガタケン","city":"新潟市西蒲区","city_kana":"ニイガタシニシカンク","town":"浦村","town_kana":"ウラムラ","prefecture_code":15},"0506":{"zip_code":"9590506","prefecture":"新潟県","prefecture_kana":"ニイガタケン","city":"新潟市西蒲区","city_kana":"ニイガタシニシカンク","town":"遠藤","town_kana":"エンドウ","prefecture_code":15},"0415":{"zip_code":"9590415","prefecture":"新潟県","prefecture_kana":"ニイガタケン","city":"新潟市西蒲区","city_kana":"ニイガタシニシカンク","town":"大潟","town_kana":"オオカタ","prefecture_code":15},"0417":{"zip_code":"9590417","prefecture":"新潟県","prefecture_kana":"ニイガタケン","city":"新潟市西蒲区","city_kana":"ニイガタシニシカンク","town":"大関","town_kana":"オオセキ","prefecture_code":15},"0517":{"zip_code":"9590517","prefecture":"新潟県","prefecture_kana":"ニイガタケン","city":"新潟市西蒲区","city_kana":"ニイガタシニシカンク","town":"大曽根","town_kana":"オオゾネ","prefecture_code":15},"0511":{"zip_code":"9590511","prefecture":"新潟県","prefecture_kana":"ニイガタケン","city":"新潟市西蒲区","city_kana":"ニイガタシニシカンク","town":"大原","town_kana":"オオハラ","prefecture_code":15},"0425":{"zip_code":"9590425","prefecture":"新潟県","prefecture_kana":"ニイガタケン","city":"新潟市西蒲区","city_kana":"ニイガタシニシカンク","town":"押付","town_kana":"オシツケ","prefecture_code":15},"0403":{"zip_code":"9590403","prefecture":"新潟県","prefecture_kana":"ニイガタケン","city":"新潟市西蒲区","city_kana":"ニイガタシニシカンク","town":"貝柄","town_kana":"カイガラ","prefecture_code":15},"0404":{"zip_code":"9590404","prefecture":"新潟県","prefecture_kana":"ニイガタケン","city":"新潟市西蒲区","city_kana":"ニイガタシニシカンク","town":"貝柄新田","town_kana":"カイガラシンデン","prefecture_code":15},"0432":{"zip_code":"9590432","prefecture":"新潟県","prefecture_kana":"ニイガタケン","city":"新潟市西蒲区","city_kana":"ニイガタシニシカンク","town":"川崎","town_kana":"カワサキ","prefecture_code":15},"0516":{"zip_code":"9590516","prefecture":"新潟県","prefecture_kana":"ニイガタケン","city":"新潟市西蒲区","city_kana":"ニイガタシニシカンク","town":"国見","town_kana":"クニミ","prefecture_code":15},"0502":{"zip_code":"9590502","prefecture":"新潟県","prefecture_kana":"ニイガタケン","city":"新潟市西蒲区","city_kana":"ニイガタシニシカンク","town":"熊谷","town_kana":"クマガイ","prefecture_code":15},"0412":{"zip_code":"9590412","prefecture":"新潟県","prefecture_kana":"ニイガタケン","city":"新潟市西蒲区","city_kana":"ニイガタシニシカンク","town":"桑山","town_kana":"クワヤマ","prefecture_code":15},"0508":{"zip_code":"9590508","prefecture":"新潟県","prefecture_kana":"ニイガタケン","city":"新潟市西蒲区","city_kana":"ニイガタシニシカンク","town":"五之上","town_kana":"ゴノカミ","prefecture_code":15},"0435":{"zip_code":"9590435","prefecture":"新潟県","prefecture_kana":"ニイガタケン","city":"新潟市西蒲区","city_kana":"ニイガタシニシカンク","town":"真田","town_kana":"サナダ","prefecture_code":15},"0402":{"zip_code":"9590402","prefecture":"新潟県","prefecture_kana":"ニイガタケン","city":"新潟市西蒲区","city_kana":"ニイガタシニシカンク","town":"三角野新田","town_kana":"サンカクノシンデン","prefecture_code":15},"0505":{"zip_code":"9590505","prefecture":"新潟県","prefecture_kana":"ニイガタケン","city":"新潟市西蒲区","city_kana":"ニイガタシニシカンク","town":"三方","town_kana":"サンボウ","prefecture_code":15},"0438":{"zip_code":"9590438","prefecture":"新潟県","prefecture_kana":"ニイガタケン","city":"新潟市西蒲区","city_kana":"ニイガタシニシカンク","town":"下山","town_kana":"シモヤマ","prefecture_code":15},"0514":{"zip_code":"9590514","prefecture":"新潟県","prefecture_kana":"ニイガタケン","city":"新潟市西蒲区","city_kana":"ニイガタシニシカンク","town":"称名","town_kana":"ショウミョウ","prefecture_code":15},"0421":{"zip_code":"9590421","prefecture":"新潟県","prefecture_kana":"ニイガタケン","city":"新潟市西蒲区","city_kana":"ニイガタシニシカンク","town":"鱸","town_kana":"スズキ","prefecture_code":15},"0411":{"zip_code":"9590411","prefecture":"新潟県","prefecture_kana":"ニイガタケン","city":"新潟市西蒲区","city_kana":"ニイガタシニシカンク","town":"善光寺","town_kana":"ゼンコウジ","prefecture_code":15},"0406":{"zip_code":"9590406","prefecture":"新潟県","prefecture_kana":"ニイガタケン","city":"新潟市西蒲区","city_kana":"ニイガタシニシカンク","town":"善光寺村受","town_kana":"ゼンコウジムラウケ","prefecture_code":15},"0422":{"zip_code":"9590422","prefecture":"新潟県","prefecture_kana":"ニイガタケン","city":"新潟市西蒲区","city_kana":"ニイガタシニシカンク","town":"曽根","town_kana":"ソネ","prefecture_code":15},"0434":{"zip_code":"9590434","prefecture":"新潟県","prefecture_kana":"ニイガタケン","city":"新潟市西蒲区","city_kana":"ニイガタシニシカンク","town":"天竺堂","town_kana":"テンジクドウ","prefecture_code":15},"0437":{"zip_code":"9590437","prefecture":"新潟県","prefecture_kana":"ニイガタケン","city":"新潟市西蒲区","city_kana":"ニイガタシニシカンク","town":"中島","town_kana":"ナカジマ","prefecture_code":15},"0436":{"zip_code":"9590436","prefecture":"新潟県","prefecture_kana":"ニイガタケン","city":"新潟市西蒲区","city_kana":"ニイガタシニシカンク","town":"西汰上","town_kana":"ニシヨリアゲ","prefecture_code":15},"0423":{"zip_code":"9590423","prefecture":"新潟県","prefecture_kana":"ニイガタケン","city":"新潟市西蒲区","city_kana":"ニイガタシニシカンク","town":"旗屋","town_kana":"ハタヤ","prefecture_code":15},"0407":{"zip_code":"9590407","prefecture":"新潟県","prefecture_kana":"ニイガタケン","city":"新潟市西蒲区","city_kana":"ニイガタシニシカンク","town":"旗屋村受","town_kana":"ハタヤムラウケ","prefecture_code":15},"0512":{"zip_code":"9590512","prefecture":"新潟県","prefecture_kana":"ニイガタケン","city":"新潟市西蒲区","city_kana":"ニイガタシニシカンク","town":"番屋","town_kana":"バンヤ","prefecture_code":15},"0414":{"zip_code":"9590414","prefecture":"新潟県","prefecture_kana":"ニイガタケン","city":"新潟市西蒲区","city_kana":"ニイガタシニシカンク","town":"兵右衛門新田","town_kana":"ヒョウウエモンシンデン","prefecture_code":15},"0431":{"zip_code":"9590431","prefecture":"新潟県","prefecture_kana":"ニイガタケン","city":"新潟市西蒲区","city_kana":"ニイガタシニシカンク","town":"平野","town_kana":"ヒラノ","prefecture_code":15},"0405":{"zip_code":"9590405","prefecture":"新潟県","prefecture_kana":"ニイガタケン","city":"新潟市西蒲区","city_kana":"ニイガタシニシカンク","town":"堀上新田","town_kana":"ホリアゲシンデン","prefecture_code":15},"0433":{"zip_code":"9590433","prefecture":"新潟県","prefecture_kana":"ニイガタケン","city":"新潟市西蒲区","city_kana":"ニイガタシニシカンク","town":"槇島","town_kana":"マキジマ","prefecture_code":15},"0418":{"zip_code":"9590418","prefecture":"新潟県","prefecture_kana":"ニイガタケン","city":"新潟市西蒲区","city_kana":"ニイガタシニシカンク","town":"升岡","town_kana":"マスオカ","prefecture_code":15},"0413":{"zip_code":"9590413","prefecture":"新潟県","prefecture_kana":"ニイガタケン","city":"新潟市西蒲区","city_kana":"ニイガタシニシカンク","town":"升潟","town_kana":"マスガタ","prefecture_code":15},"0424":{"zip_code":"9590424","prefecture":"新潟県","prefecture_kana":"ニイガタケン","city":"新潟市西蒲区","city_kana":"ニイガタシニシカンク","town":"松崎","town_kana":"マツサキ","prefecture_code":15},"0519":{"zip_code":"9590519","prefecture":"新潟県","prefecture_kana":"ニイガタケン","city":"新潟市西蒲区","city_kana":"ニイガタシニシカンク","town":"美里","town_kana":"ミサト","prefecture_code":15},"0518":{"zip_code":"9590518","prefecture":"新潟県","prefecture_kana":"ニイガタケン","city":"新潟市西蒲区","city_kana":"ニイガタシニシカンク","town":"南","town_kana":"ミナミ","prefecture_code":15},"0426":{"zip_code":"9590426","prefecture":"新潟県","prefecture_kana":"ニイガタケン","city":"新潟市西蒲区","city_kana":"ニイガタシニシカンク","town":"矢島","town_kana":"ヤジマ","prefecture_code":15},"0503":{"zip_code":"9590503","prefecture":"新潟県","prefecture_kana":"ニイガタケン","city":"新潟市西蒲区","city_kana":"ニイガタシニシカンク","town":"山口新田","town_kana":"ヤマクチシンデン","prefecture_code":15},"0504":{"zip_code":"9590504","prefecture":"新潟県","prefecture_kana":"ニイガタケン","city":"新潟市西蒲区","city_kana":"ニイガタシニシカンク","town":"横戸","town_kana":"ヨコド","prefecture_code":15},"0521":{"zip_code":"9590521","prefecture":"新潟県","prefecture_kana":"ニイガタケン","city":"新潟市西蒲区","city_kana":"ニイガタシニシカンク","town":"鎧潟","town_kana":"ヨロイガタ","prefecture_code":15},"0162":{"zip_code":"9590162","prefecture":"新潟県","prefecture_kana":"ニイガタケン","city":"長岡市","city_kana":"ナガオカシ","town":"寺泊小豆曽根","town_kana":"テラドマリアズキソネ","prefecture_code":15},"0155":{"zip_code":"9590155","prefecture":"新潟県","prefecture_kana":"ニイガタケン","city":"長岡市","city_kana":"ナガオカシ","town":"寺泊有信","town_kana":"テラドマリアリノブ","prefecture_code":15},"0149":{"zip_code":"9590149","prefecture":"新潟県","prefecture_kana":"ニイガタケン","city":"長岡市","city_kana":"ナガオカシ","town":"寺泊入軽井","town_kana":"テラドマリイリカルイ","prefecture_code":15},"0147":{"zip_code":"9590147","prefecture":"新潟県","prefecture_kana":"ニイガタケン","city":"長岡市","city_kana":"ナガオカシ","town":"寺泊岩方","town_kana":"テラドマリイワカタ","prefecture_code":15},"0156":{"zip_code":"9590156","prefecture":"新潟県","prefecture_kana":"ニイガタケン","city":"長岡市","city_kana":"ナガオカシ","town":"寺泊木島","town_kana":"テラドマリキジマ","prefecture_code":15},"0165":{"zip_code":"9590165","prefecture":"新潟県","prefecture_kana":"ニイガタケン","city":"長岡市","city_kana":"ナガオカシ","town":"寺泊北曽根","town_kana":"テラドマリキタゾネ","prefecture_code":15},"0154":{"zip_code":"9590154","prefecture":"新潟県","prefecture_kana":"ニイガタケン","city":"長岡市","city_kana":"ナガオカシ","town":"寺泊五分一","town_kana":"テラドマリゴブイチ","prefecture_code":15},"0152":{"zip_code":"9590152","prefecture":"新潟県","prefecture_kana":"ニイガタケン","city":"長岡市","city_kana":"ナガオカシ","town":"寺泊下桐","town_kana":"テラドマリシモギリ","prefecture_code":15},"0164":{"zip_code":"9590164","prefecture":"新潟県","prefecture_kana":"ニイガタケン","city":"長岡市","city_kana":"ナガオカシ","town":"寺泊下中条","town_kana":"テラドマリシモナカジョウ","prefecture_code":15},"0163":{"zip_code":"9590163","prefecture":"新潟県","prefecture_kana":"ニイガタケン","city":"長岡市","city_kana":"ナガオカシ","town":"寺泊新長","town_kana":"テラドマリシンチョウ","prefecture_code":15},"0143":{"zip_code":"9590143","prefecture":"新潟県","prefecture_kana":"ニイガタケン","city":"長岡市","city_kana":"ナガオカシ","town":"寺泊高内","town_kana":"テラドマリタカウチ","prefecture_code":15},"0161":{"zip_code":"9590161","prefecture":"新潟県","prefecture_kana":"ニイガタケン","city":"長岡市","city_kana":"ナガオカシ","town":"寺泊竹森","town_kana":"テラドマリタケモリ","prefecture_code":15},"0146":{"zip_code":"9590146","prefecture":"新潟県","prefecture_kana":"ニイガタケン","city":"長岡市","city_kana":"ナガオカシ","town":"寺泊田尻","town_kana":"テラドマリタジリ","prefecture_code":15},"0141":{"zip_code":"9590141","prefecture":"新潟県","prefecture_kana":"ニイガタケン","city":"長岡市","city_kana":"ナガオカシ","town":"寺泊敦ケ曽根","town_kana":"テラドマリツルガソネ","prefecture_code":15},"0153":{"zip_code":"9590153","prefecture":"新潟県","prefecture_kana":"ニイガタケン","city":"長岡市","city_kana":"ナガオカシ","town":"寺泊硲田","town_kana":"テラドマリハザマダ","prefecture_code":15},"0142":{"zip_code":"9590142","prefecture":"新潟県","prefecture_kana":"ニイガタケン","city":"長岡市","city_kana":"ナガオカシ","town":"寺泊万善寺","town_kana":"テラドマリバンゼンジ","prefecture_code":15},"0145":{"zip_code":"9590145","prefecture":"新潟県","prefecture_kana":"ニイガタケン","city":"長岡市","city_kana":"ナガオカシ","town":"寺泊平野新村新田","town_kana":"テラドマリヒラノシンムラシンデン","prefecture_code":15},"0144":{"zip_code":"9590144","prefecture":"新潟県","prefecture_kana":"ニイガタケン","city":"長岡市","city_kana":"ナガオカシ","town":"寺泊町軽井","town_kana":"テラドマリマチカルイ","prefecture_code":15},"0151":{"zip_code":"9590151","prefecture":"新潟県","prefecture_kana":"ニイガタケン","city":"長岡市","city_kana":"ナガオカシ","town":"寺泊求草","town_kana":"テラドマリモトメグサ","prefecture_code":15},"0148":{"zip_code":"9590148","prefecture":"新潟県","prefecture_kana":"ニイガタケン","city":"長岡市","city_kana":"ナガオカシ","town":"寺泊矢田","town_kana":"テラドマリヤダ","prefecture_code":15},"0157":{"zip_code":"9590157","prefecture":"新潟県","prefecture_kana":"ニイガタケン","city":"長岡市","city_kana":"ナガオカシ","town":"寺泊鰐口","town_kana":"テラドマリワニクチ","prefecture_code":15},"1143":{"zip_code":"9591143","prefecture":"新潟県","prefecture_kana":"ニイガタケン","city":"三条市","city_kana":"サンジョウシ","town":"泉新田","town_kana":"イズミシンデン","prefecture_code":15},"1151":{"zip_code":"9591151","prefecture":"新潟県","prefecture_kana":"ニイガタケン","city":"三条市","city_kana":"サンジョウシ","town":"猪子場新田","town_kana":"イノコバシンデン","prefecture_code":15},"1141":{"zip_code":"9591141","prefecture":"新潟県","prefecture_kana":"ニイガタケン","city":"三条市","city_kana":"サンジョウシ","town":"今井","town_kana":"イマイ","prefecture_code":15},"1142":{"zip_code":"9591142","prefecture":"新潟県","prefecture_kana":"ニイガタケン","city":"三条市","city_kana":"サンジョウシ","town":"今井野新田","town_kana":"イマイノシンデン","prefecture_code":15},"1154":{"zip_code":"9591154","prefecture":"新潟県","prefecture_kana":"ニイガタケン","city":"三条市","city_kana":"サンジョウシ","town":"岩淵","town_kana":"イワフチ","prefecture_code":15},"1113":{"zip_code":"9591113","prefecture":"新潟県","prefecture_kana":"ニイガタケン","city":"三条市","city_kana":"サンジョウシ","town":"大面","town_kana":"オオモ","prefecture_code":15},"1147":{"zip_code":"9591147","prefecture":"新潟県","prefecture_kana":"ニイガタケン","city":"三条市","city_kana":"サンジョウシ","town":"岡野新田","town_kana":"オカノシンデン","prefecture_code":15},"1126":{"zip_code":"9591126","prefecture":"新潟県","prefecture_kana":"ニイガタケン","city":"三条市","city_kana":"サンジョウシ","town":"小古瀬","town_kana":"オゴセ","prefecture_code":15},"1148":{"zip_code":"9591148","prefecture":"新潟県","prefecture_kana":"ニイガタケン","city":"三条市","city_kana":"サンジョウシ","town":"尾崎","town_kana":"オサキ","prefecture_code":15},"1135":{"zip_code":"9591135","prefecture":"新潟県","prefecture_kana":"ニイガタケン","city":"三条市","city_kana":"サンジョウシ","town":"鬼木","town_kana":"オニギ","prefecture_code":15},"1134":{"zip_code":"9591134","prefecture":"新潟県","prefecture_kana":"ニイガタケン","city":"三条市","city_kana":"サンジョウシ","town":"鬼木新田","town_kana":"オニギシンデン","prefecture_code":15},"1117":{"zip_code":"9591117","prefecture":"新潟県","prefecture_kana":"ニイガタケン","city":"三条市","city_kana":"サンジョウシ","town":"帯織","town_kana":"オビオリ","prefecture_code":15},"1144":{"zip_code":"9591144","prefecture":"新潟県","prefecture_kana":"ニイガタケン","city":"三条市","city_kana":"サンジョウシ","town":"貝喰新田","town_kana":"カイバミシンデン","prefecture_code":15},"1136":{"zip_code":"9591136","prefecture":"新潟県","prefecture_kana":"ニイガタケン","city":"三条市","city_kana":"サンジョウシ","town":"川通中町","town_kana":"カワドオリナカマチ","prefecture_code":15},"1108":{"zip_code":"9591108","prefecture":"新潟県","prefecture_kana":"ニイガタケン","city":"三条市","city_kana":"サンジョウシ","town":"北潟","town_kana":"キタガタ","prefecture_code":15},"1123":{"zip_code":"9591123","prefecture":"新潟県","prefecture_kana":"ニイガタケン","city":"三条市","city_kana":"サンジョウシ","town":"九之曽根","town_kana":"クノソネ","prefecture_code":15},"1109":{"zip_code":"9591109","prefecture":"新潟県","prefecture_kana":"ニイガタケン","city":"三条市","city_kana":"サンジョウシ","town":"蔵内","town_kana":"クラウチ","prefecture_code":15},"1114":{"zip_code":"9591114","prefecture":"新潟県","prefecture_kana":"ニイガタケン","city":"三条市","city_kana":"サンジョウシ","town":"高安寺","town_kana":"コウアンジ","prefecture_code":15},"1115":{"zip_code":"9591115","prefecture":"新潟県","prefecture_kana":"ニイガタケン","city":"三条市","city_kana":"サンジョウシ","town":"小滝","town_kana":"コダキ","prefecture_code":15},"1122":{"zip_code":"9591122","prefecture":"新潟県","prefecture_kana":"ニイガタケン","city":"三条市","city_kana":"サンジョウシ","town":"栄荻島","town_kana":"サカエオギジマ","prefecture_code":15},"1118":{"zip_code":"9591118","prefecture":"新潟県","prefecture_kana":"ニイガタケン","city":"三条市","city_kana":"サンジョウシ","town":"山王","town_kana":"サンノウ","prefecture_code":15},"1131":{"zip_code":"9591131","prefecture":"新潟県","prefecture_kana":"ニイガタケン","city":"三条市","city_kana":"サンジョウシ","town":"芹山","town_kana":"セリヤマ","prefecture_code":15},"1121":{"zip_code":"9591121","prefecture":"新潟県","prefecture_kana":"ニイガタケン","city":"三条市","city_kana":"サンジョウシ","town":"善久寺","town_kana":"ゼンキュウジ","prefecture_code":15},"1124":{"zip_code":"9591124","prefecture":"新潟県","prefecture_kana":"ニイガタケン","city":"三条市","city_kana":"サンジョウシ","town":"千把野新田","town_kana":"センバノシンデン","prefecture_code":15},"1111":{"zip_code":"9591111","prefecture":"新潟県","prefecture_kana":"ニイガタケン","city":"三条市","city_kana":"サンジョウシ","town":"茅原","town_kana":"チハラ","prefecture_code":15},"1104":{"zip_code":"9591104","prefecture":"新潟県","prefecture_kana":"ニイガタケン","city":"三条市","city_kana":"サンジョウシ","town":"東光寺","town_kana":"トウコウジ","prefecture_code":15},"1119":{"zip_code":"9591119","prefecture":"新潟県","prefecture_kana":"ニイガタケン","city":"三条市","city_kana":"サンジョウシ","town":"戸口","town_kana":"トグチ","prefecture_code":15},"1125":{"zip_code":"9591125","prefecture":"新潟県","prefecture_kana":"ニイガタケン","city":"三条市","city_kana":"サンジョウシ","town":"中島","town_kana":"ナカジマ","prefecture_code":15},"1133":{"zip_code":"9591133","prefecture":"新潟県","prefecture_kana":"ニイガタケン","city":"三条市","city_kana":"サンジョウシ","town":"中曽根新田","town_kana":"ナカゾネシンデン","prefecture_code":15},"1153":{"zip_code":"9591153","prefecture":"新潟県","prefecture_kana":"ニイガタケン","city":"三条市","city_kana":"サンジョウシ","town":"新堀","town_kana":"ニイボリ","prefecture_code":15},"1146":{"zip_code":"9591146","prefecture":"新潟県","prefecture_kana":"ニイガタケン","city":"三条市","city_kana":"サンジョウシ","town":"半ノ木","town_kana":"ハンノキ","prefecture_code":15},"1152":{"zip_code":"9591152","prefecture":"新潟県","prefecture_kana":"ニイガタケン","city":"三条市","city_kana":"サンジョウシ","town":"一ツ屋敷新田","town_kana":"ヒトツヤシキシンデン","prefecture_code":15},"1156":{"zip_code":"9591156","prefecture":"新潟県","prefecture_kana":"ニイガタケン","city":"三条市","city_kana":"サンジョウシ","town":"福島新田","town_kana":"フクジマシンデン","prefecture_code":15},"1102":{"zip_code":"9591102","prefecture":"新潟県","prefecture_kana":"ニイガタケン","city":"三条市","city_kana":"サンジョウシ","town":"福島新田乙","town_kana":"フクジマシンデンオツ","prefecture_code":15},"1101":{"zip_code":"9591101","prefecture":"新潟県","prefecture_kana":"ニイガタケン","city":"三条市","city_kana":"サンジョウシ","town":"福島新田甲","town_kana":"フクジマシンデンコウ","prefecture_code":15},"1155":{"zip_code":"9591155","prefecture":"新潟県","prefecture_kana":"ニイガタケン","city":"三条市","city_kana":"サンジョウシ","town":"福島新田丁","town_kana":"フクジマシンデンテイ","prefecture_code":15},"1145":{"zip_code":"9591145","prefecture":"新潟県","prefecture_kana":"ニイガタケン","city":"三条市","city_kana":"サンジョウシ","town":"福島新田丙","town_kana":"フクジマシンデンヘイ","prefecture_code":15},"1103":{"zip_code":"9591103","prefecture":"新潟県","prefecture_kana":"ニイガタケン","city":"三条市","city_kana":"サンジョウシ","town":"福島新田戊","town_kana":"フクジマシンデンボ","prefecture_code":15},"1116":{"zip_code":"9591116","prefecture":"新潟県","prefecture_kana":"ニイガタケン","city":"三条市","city_kana":"サンジョウシ","town":"前谷内","town_kana":"マエヤチ","prefecture_code":15},"1112":{"zip_code":"9591112","prefecture":"新潟県","prefecture_kana":"ニイガタケン","city":"三条市","city_kana":"サンジョウシ","town":"安代","town_kana":"ヤスシロ","prefecture_code":15},"1107":{"zip_code":"9591107","prefecture":"新潟県","prefecture_kana":"ニイガタケン","city":"三条市","city_kana":"サンジョウシ","town":"矢田","town_kana":"ヤダ","prefecture_code":15},"1106":{"zip_code":"9591106","prefecture":"新潟県","prefecture_kana":"ニイガタケン","city":"三条市","city_kana":"サンジョウシ","town":"吉野屋","town_kana":"ヨシノヤ","prefecture_code":15},"1105":{"zip_code":"9591105","prefecture":"新潟県","prefecture_kana":"ニイガタケン","city":"三条市","city_kana":"サンジョウシ","town":"若宮新田","town_kana":"ワカミヤシンデン","prefecture_code":15},"1132":{"zip_code":"9591132","prefecture":"新潟県","prefecture_kana":"ニイガタケン","city":"三条市","city_kana":"サンジョウシ","town":"渡前","town_kana":"ワタリマエ","prefecture_code":15},"2314":{"zip_code":"9592314","prefecture":"新潟県","prefecture_kana":"ニイガタケン","city":"新発田市","city_kana":"シバタシ","town":"赤橋","town_kana":"アカイバシ","prefecture_code":15},"2311":{"zip_code":"9592311","prefecture":"新潟県","prefecture_kana":"ニイガタケン","city":"新発田市","city_kana":"シバタシ","town":"荒町","town_kana":"アラマチ","prefecture_code":15},"2443":{"zip_code":"9592443","prefecture":"新潟県","prefecture_kana":"ニイガタケン","city":"新発田市","city_kana":"シバタシ","town":"新屋敷","town_kana":"アラヤシキ","prefecture_code":15},"2321":{"zip_code":"9592321","prefecture":"新潟県","prefecture_kana":"ニイガタケン","city":"新発田市","city_kana":"シバタシ","town":"池ノ端","town_kana":"イケノハタ","prefecture_code":15},"2406":{"zip_code":"9592406","prefecture":"新潟県","prefecture_kana":"ニイガタケン","city":"新発田市","city_kana":"シバタシ","town":"稲荷","town_kana":"イナリ","prefecture_code":15},"2461":{"zip_code":"9592461","prefecture":"新潟県","prefecture_kana":"ニイガタケン","city":"新発田市","city_kana":"シバタシ","town":"大野","town_kana":"オオノ","prefecture_code":15},"2463":{"zip_code":"9592463","prefecture":"新潟県","prefecture_kana":"ニイガタケン","city":"新発田市","city_kana":"シバタシ","town":"岡島","town_kana":"オカジマ","prefecture_code":15},"2333":{"zip_code":"9592333","prefecture":"新潟県","prefecture_kana":"ニイガタケン","city":"新発田市","city_kana":"シバタシ","town":"岡屋敷","town_kana":"オカヤシキ","prefecture_code":15},"2471":{"zip_code":"9592471","prefecture":"新潟県","prefecture_kana":"ニイガタケン","city":"新発田市","city_kana":"シバタシ","town":"小国谷","town_kana":"オグニダニ","prefecture_code":15},"2402":{"zip_code":"9592402","prefecture":"新潟県","prefecture_kana":"ニイガタケン","city":"新発田市","city_kana":"シバタシ","town":"小島","town_kana":"オジマ","prefecture_code":15},"2434":{"zip_code":"9592434","prefecture":"新潟県","prefecture_kana":"ニイガタケン","city":"新発田市","city_kana":"シバタシ","town":"押廻","town_kana":"オシマワシ","prefecture_code":15},"2323":{"zip_code":"9592323","prefecture":"新潟県","prefecture_kana":"ニイガタケン","city":"新発田市","city_kana":"シバタシ","town":"乙次","town_kana":"オトジ","prefecture_code":15},"2476":{"zip_code":"9592476","prefecture":"新潟県","prefecture_kana":"ニイガタケン","city":"新発田市","city_kana":"シバタシ","town":"貝塚","town_kana":"カイヅカ","prefecture_code":15},"2472":{"zip_code":"9592472","prefecture":"新潟県","prefecture_kana":"ニイガタケン","city":"新発田市","city_kana":"シバタシ","town":"貝屋","town_kana":"カイヤ","prefecture_code":15},"2336":{"zip_code":"9592336","prefecture":"新潟県","prefecture_kana":"ニイガタケン","city":"新発田市","city_kana":"シバタシ","town":"加治万代","town_kana":"カジバンダイ","prefecture_code":15},"2479":{"zip_code":"9592479","prefecture":"新潟県","prefecture_kana":"ニイガタケン","city":"新発田市","city_kana":"シバタシ","town":"金沢","town_kana":"カナザワ","prefecture_code":15},"2441":{"zip_code":"9592441","prefecture":"新潟県","prefecture_kana":"ニイガタケン","city":"新発田市","city_kana":"シバタシ","town":"金津","town_kana":"カナヅ","prefecture_code":15},"2464":{"zip_code":"9592464","prefecture":"新潟県","prefecture_kana":"ニイガタケン","city":"新発田市","city_kana":"シバタシ","town":"金塚","town_kana":"カナヅカ","prefecture_code":15},"2473":{"zip_code":"9592473","prefecture":"新潟県","prefecture_kana":"ニイガタケン","city":"新発田市","city_kana":"シバタシ","town":"金山","town_kana":"カナヤマ","prefecture_code":15},"2431":{"zip_code":"9592431","prefecture":"新潟県","prefecture_kana":"ニイガタケン","city":"新発田市","city_kana":"シバタシ","town":"釜杭","town_kana":"カマグイ","prefecture_code":15},"2501":{"zip_code":"9592501","prefecture":"新潟県","prefecture_kana":"ニイガタケン","city":"新発田市","city_kana":"シバタシ","town":"上荒沢","town_kana":"カミアラサワ","prefecture_code":15},"2514":{"zip_code":"9592514","prefecture":"新潟県","prefecture_kana":"ニイガタケン","city":"新発田市","city_kana":"シバタシ","town":"上石川","town_kana":"カミイシカワ","prefecture_code":15},"2421":{"zip_code":"9592421","prefecture":"新潟県","prefecture_kana":"ニイガタケン","city":"新発田市","city_kana":"シバタシ","town":"上今泉","town_kana":"カミイマイズミ","prefecture_code":15},"2455":{"zip_code":"9592455","prefecture":"新潟県","prefecture_kana":"ニイガタケン","city":"新発田市","city_kana":"シバタシ","town":"上小松","town_kana":"カミコマツ","prefecture_code":15},"2504":{"zip_code":"9592504","prefecture":"新潟県","prefecture_kana":"ニイガタケン","city":"新発田市","city_kana":"シバタシ","town":"上寺内","town_kana":"カミジナイ","prefecture_code":15},"2452":{"zip_code":"9592452","prefecture":"新潟県","prefecture_kana":"ニイガタケン","city":"新発田市","city_kana":"シバタシ","town":"上館","town_kana":"カミタテ","prefecture_code":15},"2523":{"zip_code":"9592523","prefecture":"新潟県","prefecture_kana":"ニイガタケン","city":"新発田市","city_kana":"シバタシ","town":"上中江","town_kana":"カミナカエ","prefecture_code":15},"2407":{"zip_code":"9592407","prefecture":"新潟県","prefecture_kana":"ニイガタケン","city":"新発田市","city_kana":"シバタシ","town":"川口","town_kana":"カワグチ","prefecture_code":15},"2435":{"zip_code":"9592435","prefecture":"新潟県","prefecture_kana":"ニイガタケン","city":"新発田市","city_kana":"シバタシ","town":"川尻","town_kana":"カワシリ","prefecture_code":15},"2522":{"zip_code":"9592522","prefecture":"新潟県","prefecture_kana":"ニイガタケン","city":"新発田市","city_kana":"シバタシ","town":"北中江","town_kana":"キタナカエ","prefecture_code":15},"2303":{"zip_code":"9592303","prefecture":"新潟県","prefecture_kana":"ニイガタケン","city":"新発田市","city_kana":"シバタシ","town":"切梅","town_kana":"キリウメ","prefecture_code":15},"2502":{"zip_code":"9592502","prefecture":"新潟県","prefecture_kana":"ニイガタケン","city":"新発田市","city_kana":"シバタシ","town":"熊出","town_kana":"クマイデ","prefecture_code":15},"2521":{"zip_code":"9592521","prefecture":"新潟県","prefecture_kana":"ニイガタケン","city":"新発田市","city_kana":"シバタシ","town":"蔵光","town_kana":"クラミツ","prefecture_code":15},"2527":{"zip_code":"9592527","prefecture":"新潟県","prefecture_kana":"ニイガタケン","city":"新発田市","city_kana":"シバタシ","town":"黒岩","town_kana":"クロイワ","prefecture_code":15},"2512":{"zip_code":"9592512","prefecture":"新潟県","prefecture_kana":"ニイガタケン","city":"新発田市","city_kana":"シバタシ","town":"小出","town_kana":"コイデ","prefecture_code":15},"2437":{"zip_code":"9592437","prefecture":"新潟県","prefecture_kana":"ニイガタケン","city":"新発田市","city_kana":"シバタシ","town":"高山寺","town_kana":"コウサンジ","prefecture_code":15},"2315":{"zip_code":"9592315","prefecture":"新潟県","prefecture_kana":"ニイガタケン","city":"新発田市","city_kana":"シバタシ","town":"小坂","town_kana":"コサカ","prefecture_code":15},"2401":{"zip_code":"9592401","prefecture":"新潟県","prefecture_kana":"ニイガタケン","city":"新発田市","city_kana":"シバタシ","town":"湖南","town_kana":"コナン","prefecture_code":15},"2474":{"zip_code":"9592474","prefecture":"新潟県","prefecture_kana":"ニイガタケン","city":"新発田市","city_kana":"シバタシ","town":"境","town_kana":"サカイ","prefecture_code":15},"2513":{"zip_code":"9592513","prefecture":"新潟県","prefecture_kana":"ニイガタケン","city":"新発田市","city_kana":"シバタシ","town":"繁山","town_kana":"シゲヤマ","prefecture_code":15},"2331":{"zip_code":"9592331","prefecture":"新潟県","prefecture_kana":"ニイガタケン","city":"新発田市","city_kana":"シバタシ","town":"下飯塚","town_kana":"シモイイヅカ","prefecture_code":15},"2516":{"zip_code":"9592516","prefecture":"新潟県","prefecture_kana":"ニイガタケン","city":"新発田市","city_kana":"シバタシ","town":"下石川","town_kana":"シモイシカワ","prefecture_code":15},"2457":{"zip_code":"9592457","prefecture":"新潟県","prefecture_kana":"ニイガタケン","city":"新発田市","city_kana":"シバタシ","town":"下今泉","town_kana":"シモイマイズミ","prefecture_code":15},"2477":{"zip_code":"9592477","prefecture":"新潟県","prefecture_kana":"ニイガタケン","city":"新発田市","city_kana":"シバタシ","town":"下小中山","town_kana":"シモコナカヤマ","prefecture_code":15},"2456":{"zip_code":"9592456","prefecture":"新潟県","prefecture_kana":"ニイガタケン","city":"新発田市","city_kana":"シバタシ","town":"下小松","town_kana":"シモコマツ","prefecture_code":15},"2478":{"zip_code":"9592478","prefecture":"新潟県","prefecture_kana":"ニイガタケン","city":"新発田市","city_kana":"シバタシ","town":"下坂町","town_kana":"シモサカマチ","prefecture_code":15},"2505":{"zip_code":"9592505","prefecture":"新潟県","prefecture_kana":"ニイガタケン","city":"新発田市","city_kana":"シバタシ","town":"下寺内","town_kana":"シモジナイ","prefecture_code":15},"2404":{"zip_code":"9592404","prefecture":"新潟県","prefecture_kana":"ニイガタケン","city":"新発田市","city_kana":"シバタシ","town":"下城","town_kana":"シモジョウ","prefecture_code":15},"2451":{"zip_code":"9592451","prefecture":"新潟県","prefecture_kana":"ニイガタケン","city":"新発田市","city_kana":"シバタシ","town":"下中","town_kana":"シモナカ","prefecture_code":15},"2524":{"zip_code":"9592524","prefecture":"新潟県","prefecture_kana":"ニイガタケン","city":"新発田市","city_kana":"シバタシ","town":"下中江","town_kana":"シモナカエ","prefecture_code":15},"2322":{"zip_code":"9592322","prefecture":"新潟県","prefecture_kana":"ニイガタケン","city":"新発田市","city_kana":"シバタシ","town":"下中ノ目","town_kana":"シモナカノメ","prefecture_code":15},"2503":{"zip_code":"9592503","prefecture":"新潟県","prefecture_kana":"ニイガタケン","city":"新発田市","city_kana":"シバタシ","town":"下中山","town_kana":"シモナカヤマ","prefecture_code":15},"2417":{"zip_code":"9592417","prefecture":"新潟県","prefecture_kana":"ニイガタケン","city":"新発田市","city_kana":"シバタシ","town":"下西山","town_kana":"シモニシヤマ","prefecture_code":15},"2414":{"zip_code":"9592414","prefecture":"新潟県","prefecture_kana":"ニイガタケン","city":"新発田市","city_kana":"シバタシ","town":"下山田","town_kana":"シモヤマダ","prefecture_code":15},"2444":{"zip_code":"9592444","prefecture":"新潟県","prefecture_kana":"ニイガタケン","city":"新発田市","city_kana":"シバタシ","town":"新保小路","town_kana":"シンホコウジ","prefecture_code":15},"2511":{"zip_code":"9592511","prefecture":"新潟県","prefecture_kana":"ニイガタケン","city":"新発田市","city_kana":"シバタシ","town":"菅谷","town_kana":"スガタニ","prefecture_code":15},"2415":{"zip_code":"9592415","prefecture":"新潟県","prefecture_kana":"ニイガタケン","city":"新発田市","city_kana":"シバタシ","town":"住田","town_kana":"スミダ","prefecture_code":15},"2422":{"zip_code":"9592422","prefecture":"新潟県","prefecture_kana":"ニイガタケン","city":"新発田市","city_kana":"シバタシ","town":"関妻","town_kana":"セキヅマ","prefecture_code":15},"2436":{"zip_code":"9592436","prefecture":"新潟県","prefecture_kana":"ニイガタケン","city":"新発田市","city_kana":"シバタシ","town":"草荷","town_kana":"ソウカ","prefecture_code":15},"2465":{"zip_code":"9592465","prefecture":"新潟県","prefecture_kana":"ニイガタケン","city":"新発田市","city_kana":"シバタシ","town":"相馬","town_kana":"ソウマ","prefecture_code":15},"2304":{"zip_code":"9592304","prefecture":"新潟県","prefecture_kana":"ニイガタケン","city":"新発田市","city_kana":"シバタシ","town":"大伝","town_kana":"ダイデン","prefecture_code":15},"2425":{"zip_code":"9592425","prefecture":"新潟県","prefecture_kana":"ニイガタケン","city":"新発田市","city_kana":"シバタシ","town":"高田","town_kana":"タカダ","prefecture_code":15},"2518":{"zip_code":"9592518","prefecture":"新潟県","prefecture_kana":"ニイガタケン","city":"新発田市","city_kana":"シバタシ","town":"滝","town_kana":"タキ","prefecture_code":15},"2381":{"zip_code":"9592381","prefecture":"新潟県","prefecture_kana":"ニイガタケン","city":"新発田市","city_kana":"シバタシ","town":"滝沢","town_kana":"タキザワ","prefecture_code":15},"2301":{"zip_code":"9592301","prefecture":"新潟県","prefecture_kana":"ニイガタケン","city":"新発田市","city_kana":"シバタシ","town":"竹ケ花","town_kana":"タケガハナ","prefecture_code":15},"2337":{"zip_code":"9592337","prefecture":"新潟県","prefecture_kana":"ニイガタケン","city":"新発田市","city_kana":"シバタシ","town":"竹俣万代","town_kana":"タケマタバンダイ","prefecture_code":15},"2312":{"zip_code":"9592312","prefecture":"新潟県","prefecture_kana":"ニイガタケン","city":"新発田市","city_kana":"シバタシ","town":"太斎","town_kana":"ダサイ","prefecture_code":15},"2445":{"zip_code":"9592445","prefecture":"新潟県","prefecture_kana":"ニイガタケン","city":"新発田市","city_kana":"シバタシ","town":"館野小路","town_kana":"タテノコウジ","prefecture_code":15},"2403":{"zip_code":"9592403","prefecture":"新潟県","prefecture_kana":"ニイガタケン","city":"新発田市","city_kana":"シバタシ","town":"塚田","town_kana":"ツカダ","prefecture_code":15},"2334":{"zip_code":"9592334","prefecture":"新潟県","prefecture_kana":"ニイガタケン","city":"新発田市","city_kana":"シバタシ","town":"月岡","town_kana":"ツキオカ","prefecture_code":15},"2338":{"zip_code":"9592338","prefecture":"新潟県","prefecture_kana":"ニイガタケン","city":"新発田市","city_kana":"シバタシ","town":"月岡温泉","town_kana":"ツキオカオンセン","prefecture_code":15},"2475":{"zip_code":"9592475","prefecture":"新潟県","prefecture_kana":"ニイガタケン","city":"新発田市","city_kana":"シバタシ","town":"寺尾","town_kana":"テラオ","prefecture_code":15},"2325":{"zip_code":"9592325","prefecture":"新潟県","prefecture_kana":"ニイガタケン","city":"新発田市","city_kana":"シバタシ","town":"天王","town_kana":"テンノウ","prefecture_code":15},"2305":{"zip_code":"9592305","prefecture":"新潟県","prefecture_kana":"ニイガタケン","city":"新発田市","city_kana":"シバタシ","town":"戸板沢","town_kana":"トイタザワ","prefecture_code":15},"2462":{"zip_code":"9592462","prefecture":"新潟県","prefecture_kana":"ニイガタケン","city":"新発田市","city_kana":"シバタシ","town":"戸野港","town_kana":"トノミナト","prefecture_code":15},"2515":{"zip_code":"9592515","prefecture":"新潟県","prefecture_kana":"ニイガタケン","city":"新発田市","city_kana":"シバタシ","town":"中川","town_kana":"ナカガワ","prefecture_code":15},"2525":{"zip_code":"9592525","prefecture":"新潟県","prefecture_kana":"ニイガタケン","city":"新発田市","city_kana":"シバタシ","town":"中倉","town_kana":"ナカクラ","prefecture_code":15},"2468":{"zip_code":"9592468","prefecture":"新潟県","prefecture_kana":"ニイガタケン","city":"新発田市","city_kana":"シバタシ","town":"中俵","town_kana":"ナカタワラ","prefecture_code":15},"2526":{"zip_code":"9592526","prefecture":"新潟県","prefecture_kana":"ニイガタケン","city":"新発田市","city_kana":"シバタシ","town":"中妻","town_kana":"ナカヅマ","prefecture_code":15},"2329":{"zip_code":"9592329","prefecture":"新潟県","prefecture_kana":"ニイガタケン","city":"新発田市","city_kana":"シバタシ","town":"中ノ目新田","town_kana":"ナカノメシンデン","prefecture_code":15},"2416":{"zip_code":"9592416","prefecture":"新潟県","prefecture_kana":"ニイガタケン","city":"新発田市","city_kana":"シバタシ","town":"西浦","town_kana":"ニシウラ","prefecture_code":15},"2432":{"zip_code":"9592432","prefecture":"新潟県","prefecture_kana":"ニイガタケン","city":"新発田市","city_kana":"シバタシ","town":"二本木","town_kana":"ニホンギ","prefecture_code":15},"2405":{"zip_code":"9592405","prefecture":"新潟県","prefecture_kana":"ニイガタケン","city":"新発田市","city_kana":"シバタシ","town":"野中","town_kana":"ノナカ","prefecture_code":15},"2328":{"zip_code":"9592328","prefecture":"新潟県","prefecture_kana":"ニイガタケン","city":"新発田市","city_kana":"シバタシ","town":"乗廻","town_kana":"ノリマワシ","prefecture_code":15},"2413":{"zip_code":"9592413","prefecture":"新潟県","prefecture_kana":"ニイガタケン","city":"新発田市","city_kana":"シバタシ","town":"箱岩","town_kana":"ハコイワ","prefecture_code":15},"2454":{"zip_code":"9592454","prefecture":"新潟県","prefecture_kana":"ニイガタケン","city":"新発田市","city_kana":"シバタシ","town":"早道場","town_kana":"ハヤミチバ","prefecture_code":15},"2332":{"zip_code":"9592332","prefecture":"新潟県","prefecture_kana":"ニイガタケン","city":"新発田市","city_kana":"シバタシ","town":"万代","town_kana":"バンダイ","prefecture_code":15},"2528":{"zip_code":"9592528","prefecture":"新潟県","prefecture_kana":"ニイガタケン","city":"新発田市","city_kana":"シバタシ","town":"東宮内","town_kana":"ヒガシミヤウチ","prefecture_code":15},"2412":{"zip_code":"9592412","prefecture":"新潟県","prefecture_kana":"ニイガタケン","city":"新発田市","city_kana":"シバタシ","town":"平山","town_kana":"ヒラヤマ","prefecture_code":15},"2327":{"zip_code":"9592327","prefecture":"新潟県","prefecture_kana":"ニイガタケン","city":"新発田市","city_kana":"シバタシ","town":"福島","town_kana":"フクジマ","prefecture_code":15},"2313":{"zip_code":"9592313","prefecture":"新潟県","prefecture_kana":"ニイガタケン","city":"新発田市","city_kana":"シバタシ","town":"藤掛","town_kana":"フジカケ","prefecture_code":15},"2302":{"zip_code":"9592302","prefecture":"新潟県","prefecture_kana":"ニイガタケン","city":"新発田市","city_kana":"シバタシ","town":"二ツ堂","town_kana":"フタツドウ","prefecture_code":15},"2517":{"zip_code":"9592517","prefecture":"新潟県","prefecture_kana":"ニイガタケン","city":"新発田市","city_kana":"シバタシ","town":"麓","town_kana":"フモト","prefecture_code":15},"2433":{"zip_code":"9592433","prefecture":"新潟県","prefecture_kana":"ニイガタケン","city":"新発田市","city_kana":"シバタシ","town":"古川","town_kana":"フルカワ","prefecture_code":15},"2409":{"zip_code":"9592409","prefecture":"新潟県","prefecture_kana":"ニイガタケン","city":"新発田市","city_kana":"シバタシ","town":"古楯","town_kana":"フルタテ","prefecture_code":15},"2335":{"zip_code":"9592335","prefecture":"新潟県","prefecture_kana":"ニイガタケン","city":"新発田市","city_kana":"シバタシ","town":"本田","town_kana":"ホンダ","prefecture_code":15},"2507":{"zip_code":"9592507","prefecture":"新潟県","prefecture_kana":"ニイガタケン","city":"新発田市","city_kana":"シバタシ","town":"溝足","town_kana":"ミズオシ","prefecture_code":15},"2453":{"zip_code":"9592453","prefecture":"新潟県","prefecture_kana":"ニイガタケン","city":"新発田市","city_kana":"シバタシ","town":"三日市","town_kana":"ミッカイチ","prefecture_code":15},"2326":{"zip_code":"9592326","prefecture":"新潟県","prefecture_kana":"ニイガタケン","city":"新発田市","city_kana":"シバタシ","town":"三ツ椡","town_kana":"ミツクヌギ","prefecture_code":15},"2442":{"zip_code":"9592442","prefecture":"新潟県","prefecture_kana":"ニイガタケン","city":"新発田市","city_kana":"シバタシ","town":"茗荷谷","town_kana":"ミョウガタニ","prefecture_code":15},"2426":{"zip_code":"9592426","prefecture":"新潟県","prefecture_kana":"ニイガタケン","city":"新発田市","city_kana":"シバタシ","town":"向中条","town_kana":"ムカイナカジョウ","prefecture_code":15},"2411":{"zip_code":"9592411","prefecture":"新潟県","prefecture_kana":"ニイガタケン","city":"新発田市","city_kana":"シバタシ","town":"横岡","town_kana":"ヨコオカ","prefecture_code":15},"2506":{"zip_code":"9592506","prefecture":"新潟県","prefecture_kana":"ニイガタケン","city":"新発田市","city_kana":"シバタシ","town":"横山","town_kana":"ヨコヤマ","prefecture_code":15},"2324":{"zip_code":"9592324","prefecture":"新潟県","prefecture_kana":"ニイガタケン","city":"新発田市","city_kana":"シバタシ","town":"吉浦","town_kana":"ヨシウラ","prefecture_code":15},"2408":{"zip_code":"9592408","prefecture":"新潟県","prefecture_kana":"ニイガタケン","city":"新発田市","city_kana":"シバタシ","town":"吉田","town_kana":"ヨシダ","prefecture_code":15},"1300":{"zip_code":"9591300","prefecture":"新潟県","prefecture_kana":"ニイガタケン","city":"加茂市","city_kana":"カモシ","town":"","town_kana":"","prefecture_code":15},"1326":{"zip_code":"9591326","prefecture":"新潟県","prefecture_kana":"ニイガタケン","city":"加茂市","city_kana":"カモシ","town":"青海町","town_kana":"アオミチョウ","prefecture_code":15},"1324":{"zip_code":"9591324","prefecture":"新潟県","prefecture_kana":"ニイガタケン","city":"加茂市","city_kana":"カモシ","town":"赤谷","town_kana":"アカタニ","prefecture_code":15},"1356":{"zip_code":"9591356","prefecture":"新潟県","prefecture_kana":"ニイガタケン","city":"加茂市","city_kana":"カモシ","town":"秋房","town_kana":"アキフサ","prefecture_code":15},"1383":{"zip_code":"9591383","prefecture":"新潟県","prefecture_kana":"ニイガタケン","city":"加茂市","city_kana":"カモシ","town":"旭町","town_kana":"アサヒチョウ","prefecture_code":15},"1312":{"zip_code":"9591312","prefecture":"新潟県","prefecture_kana":"ニイガタケン","city":"加茂市","city_kana":"カモシ","town":"石川","town_kana":"イシカワ","prefecture_code":15},"1306":{"zip_code":"9591306","prefecture":"新潟県","prefecture_kana":"ニイガタケン","city":"加茂市","city_kana":"カモシ","town":"鵜森","town_kana":"ウノモリ","prefecture_code":15},"1303":{"zip_code":"9591303","prefecture":"新潟県","prefecture_kana":"ニイガタケン","city":"加茂市","city_kana":"カモシ","town":"後須田","town_kana":"ウラスダ","prefecture_code":15},"1378":{"zip_code":"9591378","prefecture":"新潟県","prefecture_kana":"ニイガタケン","city":"加茂市","city_kana":"カモシ","town":"駅前","town_kana":"エキマエ","prefecture_code":15},"1377":{"zip_code":"9591377","prefecture":"新潟県","prefecture_kana":"ニイガタケン","city":"加茂市","city_kana":"カモシ","town":"岡ノ町","town_kana":"オカノマチ","prefecture_code":15},"1322":{"zip_code":"9591322","prefecture":"新潟県","prefecture_kana":"ニイガタケン","city":"加茂市","city_kana":"カモシ","town":"学校町","town_kana":"ガッコウチョウ","prefecture_code":15},"1343":{"zip_code":"9591343","prefecture":"新潟県","prefecture_kana":"ニイガタケン","city":"加茂市","city_kana":"カモシ","town":"上大谷","town_kana":"カミオオタニ","prefecture_code":15},"1347":{"zip_code":"9591347","prefecture":"新潟県","prefecture_kana":"ニイガタケン","city":"加茂市","city_kana":"カモシ","town":"上高柳","town_kana":"カミタカヤナギ","prefecture_code":15},"1342":{"zip_code":"9591342","prefecture":"新潟県","prefecture_kana":"ニイガタケン","city":"加茂市","city_kana":"カモシ","town":"上土倉","town_kana":"カミツチクラ","prefecture_code":15},"1352":{"zip_code":"9591352","prefecture":"新潟県","prefecture_kana":"ニイガタケン","city":"加茂市","city_kana":"カモシ","town":"上町","town_kana":"カミマチ","prefecture_code":15},"1311":{"zip_code":"9591311","prefecture":"新潟県","prefecture_kana":"ニイガタケン","city":"加茂市","city_kana":"カモシ","town":"加茂新田","town_kana":"カモシンデン","prefecture_code":15},"1301":{"zip_code":"9591301","prefecture":"新潟県","prefecture_kana":"ニイガタケン","city":"加茂市","city_kana":"カモシ","town":"北潟","town_kana":"キタガタ","prefecture_code":15},"1321":{"zip_code":"9591321","prefecture":"新潟県","prefecture_kana":"ニイガタケン","city":"加茂市","city_kana":"カモシ","town":"希望ケ丘","town_kana":"キボウガオカ","prefecture_code":15},"1336":{"zip_code":"9591336","prefecture":"新潟県","prefecture_kana":"ニイガタケン","city":"加茂市","city_kana":"カモシ","town":"黒水","town_kana":"クロミズ","prefecture_code":15},"1361":{"zip_code":"9591361","prefecture":"新潟県","prefecture_kana":"ニイガタケン","city":"加茂市","city_kana":"カモシ","town":"下条","town_kana":"ゲジョウ","prefecture_code":15},"1371":{"zip_code":"9591371","prefecture":"新潟県","prefecture_kana":"ニイガタケン","city":"加茂市","city_kana":"カモシ","town":"穀町","town_kana":"コクチョウ","prefecture_code":15},"1302":{"zip_code":"9591302","prefecture":"新潟県","prefecture_kana":"ニイガタケン","city":"加茂市","city_kana":"カモシ","town":"五反田","town_kana":"ゴタンダ","prefecture_code":15},"1384":{"zip_code":"9591384","prefecture":"新潟県","prefecture_kana":"ニイガタケン","city":"加茂市","city_kana":"カモシ","town":"寿町","town_kana":"コトブキチョウ","prefecture_code":15},"1375":{"zip_code":"9591375","prefecture":"新潟県","prefecture_kana":"ニイガタケン","city":"加茂市","city_kana":"カモシ","town":"小橋","town_kana":"コバシ","prefecture_code":15},"1353":{"zip_code":"9591353","prefecture":"新潟県","prefecture_kana":"ニイガタケン","city":"加茂市","city_kana":"カモシ","town":"五番町","town_kana":"ゴバンチョウ","prefecture_code":15},"1313":{"zip_code":"9591313","prefecture":"新潟県","prefecture_kana":"ニイガタケン","city":"加茂市","city_kana":"カモシ","town":"幸町","town_kana":"サイワイチョウ","prefecture_code":15},"1382":{"zip_code":"9591382","prefecture":"新潟県","prefecture_kana":"ニイガタケン","city":"加茂市","city_kana":"カモシ","town":"栄町","town_kana":"サカエチョウ","prefecture_code":15},"1357":{"zip_code":"9591357","prefecture":"新潟県","prefecture_kana":"ニイガタケン","city":"加茂市","city_kana":"カモシ","town":"桜沢","town_kana":"サクラザワ","prefecture_code":15},"1363":{"zip_code":"9591363","prefecture":"新潟県","prefecture_kana":"ニイガタケン","city":"加茂市","city_kana":"カモシ","town":"芝野","town_kana":"シバノ","prefecture_code":15},"1344":{"zip_code":"9591344","prefecture":"新潟県","prefecture_kana":"ニイガタケン","city":"加茂市","city_kana":"カモシ","town":"下大谷","town_kana":"シモオオタニ","prefecture_code":15},"1346":{"zip_code":"9591346","prefecture":"新潟県","prefecture_kana":"ニイガタケン","city":"加茂市","city_kana":"カモシ","town":"下高柳","town_kana":"シモタカヤナギ","prefecture_code":15},"1341":{"zip_code":"9591341","prefecture":"新潟県","prefecture_kana":"ニイガタケン","city":"加茂市","city_kana":"カモシ","town":"下土倉","town_kana":"シモツチクラ","prefecture_code":15},"1332":{"zip_code":"9591332","prefecture":"新潟県","prefecture_kana":"ニイガタケン","city":"加茂市","city_kana":"カモシ","town":"上条","town_kana":"ジョウジョウ","prefecture_code":15},"1381":{"zip_code":"9591381","prefecture":"新潟県","prefecture_kana":"ニイガタケン","city":"加茂市","city_kana":"カモシ","town":"新栄町","town_kana":"シンエイチョウ","prefecture_code":15},"1328":{"zip_code":"9591328","prefecture":"新潟県","prefecture_kana":"ニイガタケン","city":"加茂市","city_kana":"カモシ","town":"陣ケ峰","town_kana":"ジンガミネ","prefecture_code":15},"1354":{"zip_code":"9591354","prefecture":"新潟県","prefecture_kana":"ニイガタケン","city":"加茂市","city_kana":"カモシ","town":"新町","town_kana":"シンマチ","prefecture_code":15},"1325":{"zip_code":"9591325","prefecture":"新潟県","prefecture_kana":"ニイガタケン","city":"加茂市","city_kana":"カモシ","town":"神明町","town_kana":"シンメイチョウ","prefecture_code":15},"1305":{"zip_code":"9591305","prefecture":"新潟県","prefecture_kana":"ニイガタケン","city":"加茂市","city_kana":"カモシ","town":"砂押新田","town_kana":"スナオシシンデン","prefecture_code":15},"1334":{"zip_code":"9591334","prefecture":"新潟県","prefecture_kana":"ニイガタケン","city":"加茂市","city_kana":"カモシ","town":"狭口","town_kana":"セバグチ","prefecture_code":15},"1327":{"zip_code":"9591327","prefecture":"新潟県","prefecture_kana":"ニイガタケン","city":"加茂市","city_kana":"カモシ","town":"千刈","town_kana":"センガリ","prefecture_code":15},"1385":{"zip_code":"9591385","prefecture":"新潟県","prefecture_kana":"ニイガタケン","city":"加茂市","city_kana":"カモシ","town":"大郷町","town_kana":"ダイゴウチョウ","prefecture_code":15},"1387":{"zip_code":"9591387","prefecture":"新潟県","prefecture_kana":"ニイガタケン","city":"加茂市","city_kana":"カモシ","town":"高須町","town_kana":"タカスチョウ","prefecture_code":15},"1307":{"zip_code":"9591307","prefecture":"新潟県","prefecture_kana":"ニイガタケン","city":"加茂市","city_kana":"カモシ","town":"田中新田","town_kana":"タナカシンデン","prefecture_code":15},"1315":{"zip_code":"9591315","prefecture":"新潟県","prefecture_kana":"ニイガタケン","city":"加茂市","city_kana":"カモシ","town":"天神林","town_kana":"テンジンバヤシ","prefecture_code":15},"1345":{"zip_code":"9591345","prefecture":"新潟県","prefecture_kana":"ニイガタケン","city":"加茂市","city_kana":"カモシ","town":"中大谷","town_kana":"ナカオオタニ","prefecture_code":15},"1335":{"zip_code":"9591335","prefecture":"新潟県","prefecture_kana":"ニイガタケン","city":"加茂市","city_kana":"カモシ","town":"長谷","town_kana":"ナガタニ","prefecture_code":15},"1351":{"zip_code":"9591351","prefecture":"新潟県","prefecture_kana":"ニイガタケン","city":"加茂市","city_kana":"カモシ","town":"仲町","town_kana":"ナカマチ","prefecture_code":15},"1376":{"zip_code":"9591376","prefecture":"新潟県","prefecture_kana":"ニイガタケン","city":"加茂市","city_kana":"カモシ","town":"中村","town_kana":"ナカムラ","prefecture_code":15},"1337":{"zip_code":"9591337","prefecture":"新潟県","prefecture_kana":"ニイガタケン","city":"加茂市","city_kana":"カモシ","town":"西山","town_kana":"ニシヤマ","prefecture_code":15},"1314":{"zip_code":"9591314","prefecture":"新潟県","prefecture_kana":"ニイガタケン","city":"加茂市","city_kana":"カモシ","town":"番田","town_kana":"バンデン","prefecture_code":15},"1372":{"zip_code":"9591372","prefecture":"新潟県","prefecture_kana":"ニイガタケン","city":"加茂市","city_kana":"カモシ","town":"本町","town_kana":"ホンチョウ","prefecture_code":15},"1304":{"zip_code":"9591304","prefecture":"新潟県","prefecture_kana":"ニイガタケン","city":"加茂市","city_kana":"カモシ","town":"前須田","town_kana":"マエスダ","prefecture_code":15},"1373":{"zip_code":"9591373","prefecture":"新潟県","prefecture_kana":"ニイガタケン","city":"加茂市","city_kana":"カモシ","town":"松坂町","town_kana":"マツサカチョウ","prefecture_code":15},"1331":{"zip_code":"9591331","prefecture":"新潟県","prefecture_kana":"ニイガタケン","city":"加茂市","city_kana":"カモシ","town":"皆川","town_kana":"ミナガワ","prefecture_code":15},"1323":{"zip_code":"9591323","prefecture":"新潟県","prefecture_kana":"ニイガタケン","city":"加茂市","city_kana":"カモシ","town":"都ケ丘","town_kana":"ミヤコガオカ","prefecture_code":15},"1348":{"zip_code":"9591348","prefecture":"新潟県","prefecture_kana":"ニイガタケン","city":"加茂市","city_kana":"カモシ","town":"宮寄上","town_kana":"ミヤヨリカミ","prefecture_code":15},"1374":{"zip_code":"9591374","prefecture":"新潟県","prefecture_kana":"ニイガタケン","city":"加茂市","city_kana":"カモシ","town":"矢立","town_kana":"ヤタテ","prefecture_code":15},"1386":{"zip_code":"9591386","prefecture":"新潟県","prefecture_kana":"ニイガタケン","city":"加茂市","city_kana":"カモシ","town":"柳町","town_kana":"ヤナギチョウ","prefecture_code":15},"1316":{"zip_code":"9591316","prefecture":"新潟県","prefecture_kana":"ニイガタケン","city":"加茂市","city_kana":"カモシ","town":"山島新田","town_kana":"ヤマジマシンデン","prefecture_code":15},"1333":{"zip_code":"9591333","prefecture":"新潟県","prefecture_kana":"ニイガタケン","city":"加茂市","city_kana":"カモシ","town":"八幡","town_kana":"ヤワタ","prefecture_code":15},"1362":{"zip_code":"9591362","prefecture":"新潟県","prefecture_kana":"ニイガタケン","city":"加茂市","city_kana":"カモシ","town":"横江","town_kana":"ヨコエ","prefecture_code":15},"1355":{"zip_code":"9591355","prefecture":"新潟県","prefecture_kana":"ニイガタケン","city":"加茂市","city_kana":"カモシ","town":"若宮町","town_kana":"ワカミヤチョウ","prefecture_code":15},"3651":{"zip_code":"9593651","prefecture":"新潟県","prefecture_kana":"ニイガタケン","city":"村上市","city_kana":"ムラカミシ","town":"芦谷","town_kana":"アシダニ","prefecture_code":15},"3923":{"zip_code":"9593923","prefecture":"新潟県","prefecture_kana":"ニイガタケン","city":"村上市","city_kana":"ムラカミシ","town":"荒川","town_kana":"アラカワ","prefecture_code":15},"3921":{"zip_code":"9593921","prefecture":"新潟県","prefecture_kana":"ニイガタケン","city":"村上市","city_kana":"ムラカミシ","town":"荒川口","town_kana":"アラカワグチ","prefecture_code":15},"3125":{"zip_code":"9593125","prefecture":"新潟県","prefecture_kana":"ニイガタケン","city":"村上市","city_kana":"ムラカミシ","town":"荒川縁新田","town_kana":"アラカワベリシンデン","prefecture_code":15},"3103":{"zip_code":"9593103","prefecture":"新潟県","prefecture_kana":"ニイガタケン","city":"村上市","city_kana":"ムラカミシ","town":"荒島","town_kana":"アラシマ","prefecture_code":15},"3116":{"zip_code":"9593116","prefecture":"新潟県","prefecture_kana":"ニイガタケン","city":"村上市","city_kana":"ムラカミシ","town":"荒屋","town_kana":"アラヤ","prefecture_code":15},"3414":{"zip_code":"9593414","prefecture":"新潟県","prefecture_kana":"ニイガタケン","city":"村上市","city_kana":"ムラカミシ","town":"有明","town_kana":"アリアケ","prefecture_code":15},"3422":{"zip_code":"9593422","prefecture":"新潟県","prefecture_kana":"ニイガタケン","city":"村上市","city_kana":"ムラカミシ","town":"飯岡","town_kana":"イイオカ","prefecture_code":15},"3916":{"zip_code":"9593916","prefecture":"新潟県","prefecture_kana":"ニイガタケン","city":"村上市","city_kana":"ムラカミシ","town":"雷","town_kana":"イカヅチ","prefecture_code":15},"3901":{"zip_code":"9593901","prefecture":"新潟県","prefecture_kana":"ニイガタケン","city":"村上市","city_kana":"ムラカミシ","town":"伊呉野","town_kana":"イグレノ","prefecture_code":15},"3663":{"zip_code":"9593663","prefecture":"新潟県","prefecture_kana":"ニイガタケン","city":"村上市","city_kana":"ムラカミシ","town":"板貝","town_kana":"イタガイ","prefecture_code":15},"3937":{"zip_code":"9593937","prefecture":"新潟県","prefecture_kana":"ニイガタケン","city":"村上市","city_kana":"ムラカミシ","town":"板屋沢","town_kana":"イタヤサワ","prefecture_code":15},"3662":{"zip_code":"9593662","prefecture":"新潟県","prefecture_kana":"ニイガタケン","city":"村上市","city_kana":"ムラカミシ","town":"今川","town_kana":"イマガワ","prefecture_code":15},"3416":{"zip_code":"9593416","prefecture":"新潟県","prefecture_kana":"ニイガタケン","city":"村上市","city_kana":"ムラカミシ","town":"今宿","town_kana":"イマジュク","prefecture_code":15},"3903":{"zip_code":"9593903","prefecture":"新潟県","prefecture_kana":"ニイガタケン","city":"村上市","city_kana":"ムラカミシ","town":"岩崎","town_kana":"イワサキ","prefecture_code":15},"3426":{"zip_code":"9593426","prefecture":"新潟県","prefecture_kana":"ニイガタケン","city":"村上市","city_kana":"ムラカミシ","town":"岩野沢","town_kana":"イワノサワ","prefecture_code":15},"3449":{"zip_code":"9593449","prefecture":"新潟県","prefecture_kana":"ニイガタケン","city":"村上市","city_kana":"ムラカミシ","town":"岩船駅前","town_kana":"イワフネエキマエ","prefecture_code":15},"3436":{"zip_code":"9593436","prefecture":"新潟県","prefecture_kana":"ニイガタケン","city":"村上市","city_kana":"ムラカミシ","town":"牛屋","town_kana":"ウシヤ","prefecture_code":15},"3947":{"zip_code":"9593947","prefecture":"新潟県","prefecture_kana":"ニイガタケン","city":"村上市","city_kana":"ムラカミシ","town":"鵜泊","town_kana":"ウドマリ","prefecture_code":15},"3117":{"zip_code":"9593117","prefecture":"新潟県","prefecture_kana":"ニイガタケン","city":"村上市","city_kana":"ムラカミシ","town":"海老江","town_kana":"エビエ","prefecture_code":15},"3926":{"zip_code":"9593926","prefecture":"新潟県","prefecture_kana":"ニイガタケン","city":"村上市","city_kana":"ムラカミシ","town":"大毎","town_kana":"オオゴト","prefecture_code":15},"3925":{"zip_code":"9593925","prefecture":"新潟県","prefecture_kana":"ニイガタケン","city":"村上市","city_kana":"ムラカミシ","town":"大沢","town_kana":"オオサワ","prefecture_code":15},"3915":{"zip_code":"9593915","prefecture":"新潟県","prefecture_kana":"ニイガタケン","city":"村上市","city_kana":"ムラカミシ","town":"大代","town_kana":"オオダイ","prefecture_code":15},"3906":{"zip_code":"9593906","prefecture":"新潟県","prefecture_kana":"ニイガタケン","city":"村上市","city_kana":"ムラカミシ","town":"大谷沢","town_kana":"オオタニザワ","prefecture_code":15},"3122":{"zip_code":"9593122","prefecture":"新潟県","prefecture_kana":"ニイガタケン","city":"村上市","city_kana":"ムラカミシ","town":"大津","town_kana":"オオツ","prefecture_code":15},"3415":{"zip_code":"9593415","prefecture":"新潟県","prefecture_kana":"ニイガタケン","city":"村上市","city_kana":"ムラカミシ","town":"大塚","town_kana":"オオツカ","prefecture_code":15},"3912":{"zip_code":"9593912","prefecture":"新潟県","prefecture_kana":"ニイガタケン","city":"村上市","city_kana":"ムラカミシ","town":"遅郷","town_kana":"オソノゴウ","prefecture_code":15},"3914":{"zip_code":"9593914","prefecture":"新潟県","prefecture_kana":"ニイガタケン","city":"村上市","city_kana":"ムラカミシ","town":"小俣","town_kana":"オマタ","prefecture_code":15},"3102":{"zip_code":"9593102","prefecture":"新潟県","prefecture_kana":"ニイガタケン","city":"村上市","city_kana":"ムラカミシ","town":"貝附","town_kana":"カイツケ","prefecture_code":15},"3932":{"zip_code":"9593932","prefecture":"新潟県","prefecture_kana":"ニイガタケン","city":"村上市","city_kana":"ムラカミシ","town":"垣之内","town_kana":"カキノウチ","prefecture_code":15},"3448":{"zip_code":"9593448","prefecture":"新潟県","prefecture_kana":"ニイガタケン","city":"村上市","city_kana":"ムラカミシ","town":"潟端","town_kana":"カタバタ","prefecture_code":15},"3942":{"zip_code":"9593942","prefecture":"新潟県","prefecture_kana":"ニイガタケン","city":"村上市","city_kana":"ムラカミシ","town":"勝木","town_kana":"ガツギ","prefecture_code":15},"3124":{"zip_code":"9593124","prefecture":"新潟県","prefecture_kana":"ニイガタケン","city":"村上市","city_kana":"ムラカミシ","town":"金屋","town_kana":"カナヤ","prefecture_code":15},"3948":{"zip_code":"9593948","prefecture":"新潟県","prefecture_kana":"ニイガタケン","city":"村上市","city_kana":"ムラカミシ","town":"上大蔵","town_kana":"カミオオクラ","prefecture_code":15},"3934":{"zip_code":"9593934","prefecture":"新潟県","prefecture_kana":"ニイガタケン","city":"村上市","city_kana":"ムラカミシ","town":"上大鳥","town_kana":"カミオオトリ","prefecture_code":15},"3108":{"zip_code":"9593108","prefecture":"新潟県","prefecture_kana":"ニイガタケン","city":"村上市","city_kana":"ムラカミシ","town":"上鍜冶屋","town_kana":"カミカジヤ","prefecture_code":15},"3403":{"zip_code":"9593403","prefecture":"新潟県","prefecture_kana":"ニイガタケン","city":"村上市","city_kana":"ムラカミシ","town":"上助渕","town_kana":"カミスケブチ","prefecture_code":15},"3417":{"zip_code":"9593417","prefecture":"新潟県","prefecture_kana":"ニイガタケン","city":"村上市","city_kana":"ムラカミシ","town":"河内","town_kana":"カワウチ","prefecture_code":15},"3433":{"zip_code":"9593433","prefecture":"新潟県","prefecture_kana":"ニイガタケン","city":"村上市","city_kana":"ムラカミシ","town":"川部","town_kana":"カワベ","prefecture_code":15},"3653":{"zip_code":"9593653","prefecture":"新潟県","prefecture_kana":"ニイガタケン","city":"村上市","city_kana":"ムラカミシ","town":"寒川","town_kana":"カンガワ","prefecture_code":15},"3913":{"zip_code":"9593913","prefecture":"新潟県","prefecture_kana":"ニイガタケン","city":"村上市","city_kana":"ムラカミシ","town":"岩石","town_kana":"ガンジキ","prefecture_code":15},"3936":{"zip_code":"9593936","prefecture":"新潟県","prefecture_kana":"ニイガタケン","city":"村上市","city_kana":"ムラカミシ","town":"北赤谷","town_kana":"キタアカタニ","prefecture_code":15},"3924":{"zip_code":"9593924","prefecture":"新潟県","prefecture_kana":"ニイガタケン","city":"村上市","city_kana":"ムラカミシ","town":"北黒川","town_kana":"キタクロカワ","prefecture_code":15},"3443":{"zip_code":"9593443","prefecture":"新潟県","prefecture_kana":"ニイガタケン","city":"村上市","city_kana":"ムラカミシ","town":"北新保","town_kana":"キタシンボ","prefecture_code":15},"3935":{"zip_code":"9593935","prefecture":"新潟県","prefecture_kana":"ニイガタケン","city":"村上市","city_kana":"ムラカミシ","town":"北田中","town_kana":"キタタナカ","prefecture_code":15},"3927":{"zip_code":"9593927","prefecture":"新潟県","prefecture_kana":"ニイガタケン","city":"村上市","city_kana":"ムラカミシ","town":"北中","town_kana":"キタナカ","prefecture_code":15},"3106":{"zip_code":"9593106","prefecture":"新潟県","prefecture_kana":"ニイガタケン","city":"村上市","city_kana":"ムラカミシ","town":"切田","town_kana":"キッタ","prefecture_code":15},"3665":{"zip_code":"9593665","prefecture":"新潟県","prefecture_kana":"ニイガタケン","city":"村上市","city_kana":"ムラカミシ","town":"桑川","town_kana":"クワガワ","prefecture_code":15},"3941":{"zip_code":"9593941","prefecture":"新潟県","prefecture_kana":"ニイガタケン","city":"村上市","city_kana":"ムラカミシ","town":"碁石","town_kana":"ゴイシ","prefecture_code":15},"3413":{"zip_code":"9593413","prefecture":"新潟県","prefecture_kana":"ニイガタケン","city":"村上市","city_kana":"ムラカミシ","town":"小出","town_kana":"コイデ","prefecture_code":15},"3434":{"zip_code":"9593434","prefecture":"新潟県","prefecture_kana":"ニイガタケン","city":"村上市","city_kana":"ムラカミシ","town":"小岩内","town_kana":"コイワウチ","prefecture_code":15},"3652":{"zip_code":"9593652","prefecture":"新潟県","prefecture_kana":"ニイガタケン","city":"村上市","city_kana":"ムラカミシ","town":"越沢","town_kana":"コエサワ","prefecture_code":15},"3446":{"zip_code":"9593446","prefecture":"新潟県","prefecture_kana":"ニイガタケン","city":"村上市","city_kana":"ムラカミシ","town":"小口川","town_kana":"コクチガワ","prefecture_code":15},"3423":{"zip_code":"9593423","prefecture":"新潟県","prefecture_kana":"ニイガタケン","city":"村上市","city_kana":"ムラカミシ","town":"九日市","town_kana":"ココノカイチ","prefecture_code":15},"3132":{"zip_code":"9593132","prefecture":"新潟県","prefecture_kana":"ニイガタケン","city":"村上市","city_kana":"ムラカミシ","town":"坂町","town_kana":"サカマチ","prefecture_code":15},"3664":{"zip_code":"9593664","prefecture":"新潟県","prefecture_kana":"ニイガタケン","city":"村上市","city_kana":"ムラカミシ","town":"笹川","town_kana":"ササガワ","prefecture_code":15},"3121":{"zip_code":"9593121","prefecture":"新潟県","prefecture_kana":"ニイガタケン","city":"村上市","city_kana":"ムラカミシ","town":"佐々木","town_kana":"ササキ","prefecture_code":15},"3412":{"zip_code":"9593412","prefecture":"新潟県","prefecture_kana":"ニイガタケン","city":"村上市","city_kana":"ムラカミシ","town":"指合","town_kana":"サシアワセ","prefecture_code":15},"3405":{"zip_code":"9593405","prefecture":"新潟県","prefecture_kana":"ニイガタケン","city":"村上市","city_kana":"ムラカミシ","town":"里本庄","town_kana":"サトホンジョウ","prefecture_code":15},"3441":{"zip_code":"9593441","prefecture":"新潟県","prefecture_kana":"ニイガタケン","city":"村上市","city_kana":"ムラカミシ","town":"塩谷","town_kana":"シオヤ","prefecture_code":15},"3402":{"zip_code":"9593402","prefecture":"新潟県","prefecture_kana":"ニイガタケン","city":"村上市","city_kana":"ムラカミシ","town":"志田平","town_kana":"シダノヒラ","prefecture_code":15},"3943":{"zip_code":"9593943","prefecture":"新潟県","prefecture_kana":"ニイガタケン","city":"村上市","city_kana":"ムラカミシ","town":"下大蔵","town_kana":"シモオオクラ","prefecture_code":15},"3933":{"zip_code":"9593933","prefecture":"新潟県","prefecture_kana":"ニイガタケン","city":"村上市","city_kana":"ムラカミシ","town":"下大鳥","town_kana":"シモオオトリ","prefecture_code":15},"3107":{"zip_code":"9593107","prefecture":"新潟県","prefecture_kana":"ニイガタケン","city":"村上市","city_kana":"ムラカミシ","town":"下鍜冶屋","town_kana":"シモカジヤ","prefecture_code":15},"3406":{"zip_code":"9593406","prefecture":"新潟県","prefecture_kana":"ニイガタケン","city":"村上市","city_kana":"ムラカミシ","town":"下助渕","town_kana":"シモスケブチ","prefecture_code":15},"3115":{"zip_code":"9593115","prefecture":"新潟県","prefecture_kana":"ニイガタケン","city":"村上市","city_kana":"ムラカミシ","town":"新光寺","town_kana":"シンコウジ","prefecture_code":15},"3911":{"zip_code":"9593911","prefecture":"新潟県","prefecture_kana":"ニイガタケン","city":"村上市","city_kana":"ムラカミシ","town":"杉平","town_kana":"スギタイラ","prefecture_code":15},"3447":{"zip_code":"9593447","prefecture":"新潟県","prefecture_kana":"ニイガタケン","city":"村上市","city_kana":"ムラカミシ","town":"高御堂","town_kana":"タカミドウ","prefecture_code":15},"3944":{"zip_code":"9593944","prefecture":"新潟県","prefecture_kana":"ニイガタケン","city":"村上市","city_kana":"ムラカミシ","town":"立島","town_kana":"タテシマ","prefecture_code":15},"3432":{"zip_code":"9593432","prefecture":"新潟県","prefecture_kana":"ニイガタケン","city":"村上市","city_kana":"ムラカミシ","town":"葛籠山","town_kana":"ツヅラヤマ","prefecture_code":15},"3919":{"zip_code":"9593919","prefecture":"新潟県","prefecture_kana":"ニイガタケン","city":"村上市","city_kana":"ムラカミシ","town":"塔下","town_kana":"トウノシタ","prefecture_code":15},"3938":{"zip_code":"9593938","prefecture":"新潟県","prefecture_kana":"ニイガタケン","city":"村上市","city_kana":"ムラカミシ","town":"遠矢崎","town_kana":"トオヤサキ","prefecture_code":15},"3407":{"zip_code":"9593407","prefecture":"新潟県","prefecture_kana":"ニイガタケン","city":"村上市","city_kana":"ムラカミシ","town":"殿岡","town_kana":"トノオカ","prefecture_code":15},"3126":{"zip_code":"9593126","prefecture":"新潟県","prefecture_kana":"ニイガタケン","city":"村上市","city_kana":"ムラカミシ","town":"鳥屋","town_kana":"トリヤ","prefecture_code":15},"3123":{"zip_code":"9593123","prefecture":"新潟県","prefecture_kana":"ニイガタケン","city":"村上市","city_kana":"ムラカミシ","town":"中倉","town_kana":"ナカクラ","prefecture_code":15},"3931":{"zip_code":"9593931","prefecture":"新潟県","prefecture_kana":"ニイガタケン","city":"村上市","city_kana":"ムラカミシ","town":"長坂","town_kana":"ナガサカ","prefecture_code":15},"3918":{"zip_code":"9593918","prefecture":"新潟県","prefecture_kana":"ニイガタケン","city":"村上市","city_kana":"ムラカミシ","town":"中継","town_kana":"ナカツギ","prefecture_code":15},"3928":{"zip_code":"9593928","prefecture":"新潟県","prefecture_kana":"ニイガタケン","city":"村上市","city_kana":"ムラカミシ","town":"中津原","town_kana":"ナカツハラ","prefecture_code":15},"3112":{"zip_code":"9593112","prefecture":"新潟県","prefecture_kana":"ニイガタケン","city":"村上市","city_kana":"ムラカミシ","town":"中野","town_kana":"ナカノ","prefecture_code":15},"3902":{"zip_code":"9593902","prefecture":"新潟県","prefecture_kana":"ニイガタケン","city":"村上市","city_kana":"ムラカミシ","town":"中浜","town_kana":"ナカハマ","prefecture_code":15},"3111":{"zip_code":"9593111","prefecture":"新潟県","prefecture_kana":"ニイガタケン","city":"村上市","city_kana":"ムラカミシ","town":"長政","town_kana":"ナガマサ","prefecture_code":15},"3442":{"zip_code":"9593442","prefecture":"新潟県","prefecture_kana":"ニイガタケン","city":"村上市","city_kana":"ムラカミシ","town":"長松","town_kana":"ナガマツ","prefecture_code":15},"3105":{"zip_code":"9593105","prefecture":"新潟県","prefecture_kana":"ニイガタケン","city":"村上市","city_kana":"ムラカミシ","town":"梨木","town_kana":"ナシノキ","prefecture_code":15},"3401":{"zip_code":"9593401","prefecture":"新潟県","prefecture_kana":"ニイガタケン","city":"村上市","city_kana":"ムラカミシ","town":"七湊","town_kana":"ナナミナト","prefecture_code":15},"3113":{"zip_code":"9593113","prefecture":"新潟県","prefecture_kana":"ニイガタケン","city":"村上市","city_kana":"ムラカミシ","town":"名割","town_kana":"ナワリ","prefecture_code":15},"3445":{"zip_code":"9593445","prefecture":"新潟県","prefecture_kana":"ニイガタケン","city":"村上市","city_kana":"ムラカミシ","town":"新飯田","town_kana":"ニイダ","prefecture_code":15},"3904":{"zip_code":"9593904","prefecture":"新潟県","prefecture_kana":"ニイガタケン","city":"村上市","city_kana":"ムラカミシ","town":"温出","town_kana":"ヌクイデ","prefecture_code":15},"3946":{"zip_code":"9593946","prefecture":"新潟県","prefecture_kana":"ニイガタケン","city":"村上市","city_kana":"ムラカミシ","town":"寝屋","town_kana":"ネヤ","prefecture_code":15},"3134":{"zip_code":"9593134","prefecture":"新潟県","prefecture_kana":"ニイガタケン","city":"村上市","city_kana":"ムラカミシ","town":"羽ヶ榎","town_kana":"ハガエ","prefecture_code":15},"3101":{"zip_code":"9593101","prefecture":"新潟県","prefecture_kana":"ニイガタケン","city":"村上市","city_kana":"ムラカミシ","town":"花立","town_kana":"ハナダテ","prefecture_code":15},"3666":{"zip_code":"9593666","prefecture":"新潟県","prefecture_kana":"ニイガタケン","city":"村上市","city_kana":"ムラカミシ","town":"浜新保","town_kana":"ハマシンボ","prefecture_code":15},"3104":{"zip_code":"9593104","prefecture":"新潟県","prefecture_kana":"ニイガタケン","city":"村上市","city_kana":"ムラカミシ","town":"春木山","town_kana":"ハルキヤマ","prefecture_code":15},"3431":{"zip_code":"9593431","prefecture":"新潟県","prefecture_kana":"ニイガタケン","city":"村上市","city_kana":"ムラカミシ","town":"平林","town_kana":"ヒラバヤシ","prefecture_code":15},"3437":{"zip_code":"9593437","prefecture":"新潟県","prefecture_kana":"ニイガタケン","city":"村上市","city_kana":"ムラカミシ","town":"福田","town_kana":"フクダ","prefecture_code":15},"3131":{"zip_code":"9593131","prefecture":"新潟県","prefecture_kana":"ニイガタケン","city":"村上市","city_kana":"ムラカミシ","town":"藤沢","town_kana":"フジサワ","prefecture_code":15},"3907":{"zip_code":"9593907","prefecture":"新潟県","prefecture_kana":"ニイガタケン","city":"村上市","city_kana":"ムラカミシ","town":"府屋","town_kana":"フヤ","prefecture_code":15},"3922":{"zip_code":"9593922","prefecture":"新潟県","prefecture_kana":"ニイガタケン","city":"村上市","city_kana":"ムラカミシ","town":"朴平","town_kana":"ホウダイラ","prefecture_code":15},"3905":{"zip_code":"9593905","prefecture":"新潟県","prefecture_kana":"ニイガタケン","city":"村上市","city_kana":"ムラカミシ","town":"堀ノ内","town_kana":"ホリノウチ","prefecture_code":15},"3424":{"zip_code":"9593424","prefecture":"新潟県","prefecture_kana":"ニイガタケン","city":"村上市","city_kana":"ムラカミシ","town":"牧目","town_kana":"マキノメ","prefecture_code":15},"3945":{"zip_code":"9593945","prefecture":"新潟県","prefecture_kana":"ニイガタケン","city":"村上市","city_kana":"ムラカミシ","town":"間瀬","town_kana":"マゼ","prefecture_code":15},"3428":{"zip_code":"9593428","prefecture":"新潟県","prefecture_kana":"ニイガタケン","city":"村上市","city_kana":"ムラカミシ","town":"松喜和","town_kana":"マツキワ","prefecture_code":15},"3427":{"zip_code":"9593427","prefecture":"新潟県","prefecture_kana":"ニイガタケン","city":"村上市","city_kana":"ムラカミシ","town":"松沢","town_kana":"マツザワ","prefecture_code":15},"3411":{"zip_code":"9593411","prefecture":"新潟県","prefecture_kana":"ニイガタケン","city":"村上市","city_kana":"ムラカミシ","town":"南大平","town_kana":"ミナミオオダイラ","prefecture_code":15},"3114":{"zip_code":"9593114","prefecture":"新潟県","prefecture_kana":"ニイガタケン","city":"村上市","city_kana":"ムラカミシ","town":"南新保","town_kana":"ミナミシンボ","prefecture_code":15},"3444":{"zip_code":"9593444","prefecture":"新潟県","prefecture_kana":"ニイガタケン","city":"村上市","city_kana":"ムラカミシ","town":"南田中","town_kana":"ミナミタナカ","prefecture_code":15},"3421":{"zip_code":"9593421","prefecture":"新潟県","prefecture_kana":"ニイガタケン","city":"村上市","city_kana":"ムラカミシ","town":"桃川","town_kana":"モモカワ","prefecture_code":15},"3435":{"zip_code":"9593435","prefecture":"新潟県","prefecture_kana":"ニイガタケン","city":"村上市","city_kana":"ムラカミシ","town":"宿田","town_kana":"ヤズタ","prefecture_code":15},"3133":{"zip_code":"9593133","prefecture":"新潟県","prefecture_kana":"ニイガタケン","city":"村上市","city_kana":"ムラカミシ","town":"山口","town_kana":"ヤマグチ","prefecture_code":15},"3917":{"zip_code":"9593917","prefecture":"新潟県","prefecture_kana":"ニイガタケン","city":"村上市","city_kana":"ムラカミシ","town":"山熊田","town_kana":"ヤマクマタ","prefecture_code":15},"3425":{"zip_code":"9593425","prefecture":"新潟県","prefecture_kana":"ニイガタケン","city":"村上市","city_kana":"ムラカミシ","town":"山田","town_kana":"ヤマダ","prefecture_code":15},"3404":{"zip_code":"9593404","prefecture":"新潟県","prefecture_kana":"ニイガタケン","city":"村上市","city_kana":"ムラカミシ","town":"山屋","town_kana":"ヤマヤ","prefecture_code":15},"3661":{"zip_code":"9593661","prefecture":"新潟県","prefecture_kana":"ニイガタケン","city":"村上市","city_kana":"ムラカミシ","town":"脇川","town_kana":"ワキガワ","prefecture_code":15},"1200":{"zip_code":"9591200","prefecture":"新潟県","prefecture_kana":"ニイガタケン","city":"燕市","city_kana":"ツバメシ","town":"","town_kana":"","prefecture_code":15},"0227":{"zip_code":"9590227","prefecture":"新潟県","prefecture_kana":"ニイガタケン","city":"燕市","city_kana":"ツバメシ","town":"粟生津","town_kana":"アオウヅ","prefecture_code":15},"1261":{"zip_code":"9591261","prefecture":"新潟県","prefecture_kana":"ニイガタケン","city":"燕市","city_kana":"ツバメシ","town":"秋葉町","town_kana":"アキバチョウ","prefecture_code":15},"0131":{"zip_code":"9590131","prefecture":"新潟県","prefecture_kana":"ニイガタケン","city":"燕市","city_kana":"ツバメシ","town":"泉新","town_kana":"イズミシン","prefecture_code":15},"0114":{"zip_code":"9590114","prefecture":"新潟県","prefecture_kana":"ニイガタケン","city":"燕市","city_kana":"ツバメシ","town":"一ノ山","town_kana":"イチノヤマ","prefecture_code":15},"1232":{"zip_code":"9591232","prefecture":"新潟県","prefecture_kana":"ニイガタケン","city":"燕市","city_kana":"ツバメシ","town":"井土巻","town_kana":"イドマキ","prefecture_code":15},"0113":{"zip_code":"9590113","prefecture":"新潟県","prefecture_kana":"ニイガタケン","city":"燕市","city_kana":"ツバメシ","town":"笈ケ島","town_kana":"オイガシマ","prefecture_code":15},"0123":{"zip_code":"9590123","prefecture":"新潟県","prefecture_kana":"ニイガタケン","city":"燕市","city_kana":"ツバメシ","town":"大川津","town_kana":"オオカワヅ","prefecture_code":15},"1287":{"zip_code":"9591287","prefecture":"新潟県","prefecture_kana":"ニイガタケン","city":"燕市","city_kana":"ツバメシ","town":"大関","town_kana":"オオセキ","prefecture_code":15},"0108":{"zip_code":"9590108","prefecture":"新潟県","prefecture_kana":"ニイガタケン","city":"燕市","city_kana":"ツバメシ","town":"太田","town_kana":"オオタ","prefecture_code":15},"0122":{"zip_code":"9590122","prefecture":"新潟県","prefecture_kana":"ニイガタケン","city":"燕市","city_kana":"ツバメシ","town":"大武新田","town_kana":"オオタケシンデン","prefecture_code":15},"1212":{"zip_code":"9591212","prefecture":"新潟県","prefecture_kana":"ニイガタケン","city":"燕市","city_kana":"ツバメシ","town":"大船渡","town_kana":"オオフナト","prefecture_code":15},"1263":{"zip_code":"9591263","prefecture":"新潟県","prefecture_kana":"ニイガタケン","city":"燕市","city_kana":"ツバメシ","town":"大曲","town_kana":"オオマガリ","prefecture_code":15},"0207":{"zip_code":"9590207","prefecture":"新潟県","prefecture_kana":"ニイガタケン","city":"燕市","city_kana":"ツバメシ","town":"庚塚","town_kana":"カネヅカ","prefecture_code":15},"0225":{"zip_code":"9590225","prefecture":"新潟県","prefecture_kana":"ニイガタケン","city":"燕市","city_kana":"ツバメシ","town":"上河原","town_kana":"カミガワラ","prefecture_code":15},"0181":{"zip_code":"9590181","prefecture":"新潟県","prefecture_kana":"ニイガタケン","city":"燕市","city_kana":"ツバメシ","town":"上諏訪","town_kana":"カミスワ","prefecture_code":15},"1223":{"zip_code":"9591223","prefecture":"新潟県","prefecture_kana":"ニイガタケン","city":"燕市","city_kana":"ツバメシ","town":"下児木","town_kana":"シモチゴノキ","prefecture_code":15},"1217":{"zip_code":"9591217","prefecture":"新潟県","prefecture_kana":"ニイガタケン","city":"燕市","city_kana":"ツバメシ","town":"勘新","town_kana":"カンシン","prefecture_code":15},"0136":{"zip_code":"9590136","prefecture":"新潟県","prefecture_kana":"ニイガタケン","city":"燕市","city_kana":"ツバメシ","town":"国上","town_kana":"クガミ","prefecture_code":15},"0112":{"zip_code":"9590112","prefecture":"新潟県","prefecture_kana":"ニイガタケン","city":"燕市","city_kana":"ツバメシ","town":"熊森","town_kana":"クマノモリ","prefecture_code":15},"1271":{"zip_code":"9591271","prefecture":"新潟県","prefecture_kana":"ニイガタケン","city":"燕市","city_kana":"ツバメシ","town":"蔵関","town_kana":"クラセキ","prefecture_code":15},"0137":{"zip_code":"9590137","prefecture":"新潟県","prefecture_kana":"ニイガタケン","city":"燕市","city_kana":"ツバメシ","town":"源八新田","town_kana":"ゲンパチシンデン","prefecture_code":15},"1276":{"zip_code":"9591276","prefecture":"新潟県","prefecture_kana":"ニイガタケン","city":"燕市","city_kana":"ツバメシ","town":"小池","town_kana":"コイケ","prefecture_code":15},"1275":{"zip_code":"9591275","prefecture":"新潟県","prefecture_kana":"ニイガタケン","city":"燕市","city_kana":"ツバメシ","town":"小池新町","town_kana":"コイケシンマチ","prefecture_code":15},"0203":{"zip_code":"9590203","prefecture":"新潟県","prefecture_kana":"ニイガタケン","city":"燕市","city_kana":"ツバメシ","town":"小島","town_kana":"コジマ","prefecture_code":15},"1286":{"zip_code":"9591286","prefecture":"新潟県","prefecture_kana":"ニイガタケン","city":"燕市","city_kana":"ツバメシ","town":"小関","town_kana":"コセキ","prefecture_code":15},"0124":{"zip_code":"9590124","prefecture":"新潟県","prefecture_kana":"ニイガタケン","city":"燕市","city_kana":"ツバメシ","town":"五千石荒川","town_kana":"ゴセンゴクアラカワ","prefecture_code":15},"1241":{"zip_code":"9591241","prefecture":"新潟県","prefecture_kana":"ニイガタケン","city":"燕市","city_kana":"ツバメシ","town":"小高","town_kana":"コタカ","prefecture_code":15},"1211":{"zip_code":"9591211","prefecture":"新潟県","prefecture_kana":"ニイガタケン","city":"燕市","city_kana":"ツバメシ","town":"小中川","town_kana":"コナカガワ","prefecture_code":15},"1213":{"zip_code":"9591213","prefecture":"新潟県","prefecture_kana":"ニイガタケン","city":"燕市","city_kana":"ツバメシ","town":"小古津新","town_kana":"コフルツシン","prefecture_code":15},"1226":{"zip_code":"9591226","prefecture":"新潟県","prefecture_kana":"ニイガタケン","city":"燕市","city_kana":"ツバメシ","town":"小牧","town_kana":"コマキ","prefecture_code":15},"1281":{"zip_code":"9591281","prefecture":"新潟県","prefecture_kana":"ニイガタケン","city":"燕市","city_kana":"ツバメシ","town":"桜町","town_kana":"サクラマチ","prefecture_code":15},"0117":{"zip_code":"9590117","prefecture":"新潟県","prefecture_kana":"ニイガタケン","city":"燕市","city_kana":"ツバメシ","town":"笹曲","town_kana":"ササマガリ","prefecture_code":15},"0101":{"zip_code":"9590101","prefecture":"新潟県","prefecture_kana":"ニイガタケン","city":"燕市","city_kana":"ツバメシ","town":"佐善","town_kana":"サゼン","prefecture_code":15},"0202":{"zip_code":"9590202","prefecture":"新潟県","prefecture_kana":"ニイガタケン","city":"燕市","city_kana":"ツバメシ","town":"佐渡山","town_kana":"サドヤマ","prefecture_code":15},"1228":{"zip_code":"9591228","prefecture":"新潟県","prefecture_kana":"ニイガタケン","city":"燕市","city_kana":"ツバメシ","town":"佐渡","town_kana":"サワタリ","prefecture_code":15},"1207":{"zip_code":"9591207","prefecture":"新潟県","prefecture_kana":"ニイガタケン","city":"燕市","city_kana":"ツバメシ","town":"三王渕","town_kana":"サンノウフチ","prefecture_code":15},"0121":{"zip_code":"9590121","prefecture":"新潟県","prefecture_kana":"ニイガタケン","city":"燕市","city_kana":"ツバメシ","town":"地蔵堂","town_kana":"ジゾウドウ","prefecture_code":15},"0129":{"zip_code":"9590129","prefecture":"新潟県","prefecture_kana":"ニイガタケン","city":"燕市","city_kana":"ツバメシ","town":"地蔵堂本町","town_kana":"ジゾウドウホンチョウ","prefecture_code":15},"0222":{"zip_code":"9590222","prefecture":"新潟県","prefecture_kana":"ニイガタケン","city":"燕市","city_kana":"ツバメシ","town":"下粟生津","town_kana":"シモアオウヅ","prefecture_code":15},"0183":{"zip_code":"9590183","prefecture":"新潟県","prefecture_kana":"ニイガタケン","city":"燕市","city_kana":"ツバメシ","town":"下諏訪","town_kana":"シモスワ","prefecture_code":15},"1246":{"zip_code":"9591246","prefecture":"新潟県","prefecture_kana":"ニイガタケン","city":"燕市","city_kana":"ツバメシ","town":"新栄町","town_kana":"シンエイチョウ","prefecture_code":15},"0116":{"zip_code":"9590116","prefecture":"新潟県","prefecture_kana":"ニイガタケン","city":"燕市","city_kana":"ツバメシ","town":"新興野","town_kana":"シンコウヤ","prefecture_code":15},"1214":{"zip_code":"9591214","prefecture":"新潟県","prefecture_kana":"ニイガタケン","city":"燕市","city_kana":"ツバメシ","town":"新生町","town_kana":"シンセイチョウ","prefecture_code":15},"0125":{"zip_code":"9590125","prefecture":"新潟県","prefecture_kana":"ニイガタケン","city":"燕市","city_kana":"ツバメシ","town":"新長","town_kana":"シンチョウ","prefecture_code":15},"1262":{"zip_code":"9591262","prefecture":"新潟県","prefecture_kana":"ニイガタケン","city":"燕市","city_kana":"ツバメシ","town":"水道町","town_kana":"スイドウチョウ","prefecture_code":15},"1273":{"zip_code":"9591273","prefecture":"新潟県","prefecture_kana":"ニイガタケン","city":"燕市","city_kana":"ツバメシ","town":"杉名","town_kana":"スギナ","prefecture_code":15},"1272":{"zip_code":"9591272","prefecture":"新潟県","prefecture_kana":"ニイガタケン","city":"燕市","city_kana":"ツバメシ","town":"杉柳","town_kana":"スギヤナギ","prefecture_code":15},"0205":{"zip_code":"9590205","prefecture":"新潟県","prefecture_kana":"ニイガタケン","city":"燕市","city_kana":"ツバメシ","town":"雀森","town_kana":"スズメモリ","prefecture_code":15},"0103":{"zip_code":"9590103","prefecture":"新潟県","prefecture_kana":"ニイガタケン","city":"燕市","city_kana":"ツバメシ","town":"砂子塚","town_kana":"スナコツカ","prefecture_code":15},"1206":{"zip_code":"9591206","prefecture":"新潟県","prefecture_kana":"ニイガタケン","city":"燕市","city_kana":"ツバメシ","town":"関崎","town_kana":"セキサキ","prefecture_code":15},"1284":{"zip_code":"9591284","prefecture":"新潟県","prefecture_kana":"ニイガタケン","city":"燕市","city_kana":"ツバメシ","town":"杣木","town_kana":"ソマギ","prefecture_code":15},"0208":{"zip_code":"9590208","prefecture":"新潟県","prefecture_kana":"ニイガタケン","city":"燕市","city_kana":"ツバメシ","town":"大保","town_kana":"ダイボ","prefecture_code":15},"0228":{"zip_code":"9590228","prefecture":"新潟県","prefecture_kana":"ニイガタケン","city":"燕市","city_kana":"ツバメシ","town":"高木","town_kana":"タカキ","prefecture_code":15},"1203":{"zip_code":"9591203","prefecture":"新潟県","prefecture_kana":"ニイガタケン","city":"燕市","city_kana":"ツバメシ","town":"舘野","town_kana":"タテノ","prefecture_code":15},"0223":{"zip_code":"9590223","prefecture":"新潟県","prefecture_kana":"ニイガタケン","city":"燕市","city_kana":"ツバメシ","town":"田中新","town_kana":"タナカシン","prefecture_code":15},"1204":{"zip_code":"9591204","prefecture":"新潟県","prefecture_kana":"ニイガタケン","city":"燕市","city_kana":"ツバメシ","town":"長所","town_kana":"チョウショ","prefecture_code":15},"0139":{"zip_code":"9590139","prefecture":"新潟県","prefecture_kana":"ニイガタケン","city":"燕市","city_kana":"ツバメシ","town":"長辰","town_kana":"チョウシン","prefecture_code":15},"1222":{"zip_code":"9591222","prefecture":"新潟県","prefecture_kana":"ニイガタケン","city":"燕市","city_kana":"ツバメシ","town":"次新","town_kana":"ツギシン","prefecture_code":15},"1288":{"zip_code":"9591288","prefecture":"新潟県","prefecture_kana":"ニイガタケン","city":"燕市","city_kana":"ツバメシ","town":"燕","town_kana":"ツバメ","prefecture_code":15},"1265":{"zip_code":"9591265","prefecture":"新潟県","prefecture_kana":"ニイガタケン","city":"燕市","city_kana":"ツバメシ","town":"道金","town_kana":"ドウキン","prefecture_code":15},"1233":{"zip_code":"9591233","prefecture":"新潟県","prefecture_kana":"ニイガタケン","city":"燕市","city_kana":"ツバメシ","town":"殿島","town_kana":"トノシマ","prefecture_code":15},"0211":{"zip_code":"9590211","prefecture":"新潟県","prefecture_kana":"ニイガタケン","city":"燕市","city_kana":"ツバメシ","town":"富永","town_kana":"トミナガ","prefecture_code":15},"0212":{"zip_code":"9590212","prefecture":"新潟県","prefecture_kana":"ニイガタケン","city":"燕市","city_kana":"ツバメシ","town":"富永十兵衛新田","town_kana":"トミナガジュウベエシンデン","prefecture_code":15},"1225":{"zip_code":"9591225","prefecture":"新潟県","prefecture_kana":"ニイガタケン","city":"燕市","city_kana":"ツバメシ","town":"中川","town_kana":"ナカガワ","prefecture_code":15},"0105":{"zip_code":"9590105","prefecture":"新潟県","prefecture_kana":"ニイガタケン","city":"燕市","city_kana":"ツバメシ","town":"中島","town_kana":"ナカジマ","prefecture_code":15},"0182":{"zip_code":"9590182","prefecture":"新潟県","prefecture_kana":"ニイガタケン","city":"燕市","city_kana":"ツバメシ","town":"中諏訪","town_kana":"ナカスワ","prefecture_code":15},"1205":{"zip_code":"9591205","prefecture":"新潟県","prefecture_kana":"ニイガタケン","city":"燕市","city_kana":"ツバメシ","town":"長渡","town_kana":"ナガワタリ","prefecture_code":15},"0133":{"zip_code":"9590133","prefecture":"新潟県","prefecture_kana":"ニイガタケン","city":"燕市","city_kana":"ツバメシ","town":"新堀","town_kana":"ニイボリ","prefecture_code":15},"1216":{"zip_code":"9591216","prefecture":"新潟県","prefecture_kana":"ニイガタケン","city":"燕市","city_kana":"ツバメシ","town":"二階堂","town_kana":"ニカイドウ","prefecture_code":15},"0201":{"zip_code":"9590201","prefecture":"新潟県","prefecture_kana":"ニイガタケン","city":"燕市","city_kana":"ツバメシ","town":"西槇","town_kana":"ニシマギ","prefecture_code":15},"0126":{"zip_code":"9590126","prefecture":"新潟県","prefecture_kana":"ニイガタケン","city":"燕市","city_kana":"ツバメシ","town":"野中才","town_kana":"ノナカサイ","prefecture_code":15},"0224":{"zip_code":"9590224","prefecture":"新潟県","prefecture_kana":"ニイガタケン","city":"燕市","city_kana":"ツバメシ","town":"野本","town_kana":"ノモト","prefecture_code":15},"1201":{"zip_code":"9591201","prefecture":"新潟県","prefecture_kana":"ニイガタケン","city":"燕市","city_kana":"ツバメシ","town":"灰方","town_kana":"ハイガタ","prefecture_code":15},"1251":{"zip_code":"9591251","prefecture":"新潟県","prefecture_kana":"ニイガタケン","city":"燕市","city_kana":"ツバメシ","town":"白山町","town_kana":"ハクサンチョウ","prefecture_code":15},"1264":{"zip_code":"9591264","prefecture":"新潟県","prefecture_kana":"ニイガタケン","city":"燕市","city_kana":"ツバメシ","town":"八王寺","town_kana":"ハチオウジ","prefecture_code":15},"1221":{"zip_code":"9591221","prefecture":"新潟県","prefecture_kana":"ニイガタケン","city":"燕市","city_kana":"ツバメシ","town":"花園町","town_kana":"ハナゾノチョウ","prefecture_code":15},"1280":{"zip_code":"9591280","prefecture":"新潟県","prefecture_kana":"ニイガタケン","city":"燕市","city_kana":"ツバメシ","town":"花見","town_kana":"ハナミ","prefecture_code":15},"1289":{"zip_code":"9591289","prefecture":"新潟県","prefecture_kana":"ニイガタケン","city":"燕市","city_kana":"ツバメシ","town":"東太田","town_kana":"ヒガシオオタ","prefecture_code":15},"1242":{"zip_code":"9591242","prefecture":"新潟県","prefecture_kana":"ニイガタケン","city":"燕市","city_kana":"ツバメシ","town":"日之出町","town_kana":"ヒノデチョウ","prefecture_code":15},"1277":{"zip_code":"9591277","prefecture":"新潟県","prefecture_kana":"ニイガタケン","city":"燕市","city_kana":"ツバメシ","town":"物流センター","town_kana":"ブツリュウセンター","prefecture_code":15},"0132":{"zip_code":"9590132","prefecture":"新潟県","prefecture_kana":"ニイガタケン","city":"燕市","city_kana":"ツバメシ","town":"分水あけぼの","town_kana":"ブンスイアケボノ","prefecture_code":15},"0107":{"zip_code":"9590107","prefecture":"新潟県","prefecture_kana":"ニイガタケン","city":"燕市","city_kana":"ツバメシ","town":"分水旭町","town_kana":"ブンスイアサヒマチ","prefecture_code":15},"0119":{"zip_code":"9590119","prefecture":"新潟県","prefecture_kana":"ニイガタケン","city":"燕市","city_kana":"ツバメシ","town":"分水大武","town_kana":"ブンスイオオタケ","prefecture_code":15},"0115":{"zip_code":"9590115","prefecture":"新潟県","prefecture_kana":"ニイガタケン","city":"燕市","city_kana":"ツバメシ","town":"分水学校町","town_kana":"ブンスイガッコウチョウ","prefecture_code":15},"0109":{"zip_code":"9590109","prefecture":"新潟県","prefecture_kana":"ニイガタケン","city":"燕市","city_kana":"ツバメシ","town":"分水向陽","town_kana":"ブンスイコウヨウ","prefecture_code":15},"0120":{"zip_code":"9590120","prefecture":"新潟県","prefecture_kana":"ニイガタケン","city":"燕市","city_kana":"ツバメシ","town":"分水栄町","town_kana":"ブンスイサカエチョウ","prefecture_code":15},"0130":{"zip_code":"9590130","prefecture":"新潟県","prefecture_kana":"ニイガタケン","city":"燕市","city_kana":"ツバメシ","town":"分水桜町","town_kana":"ブンスイサクラマチ","prefecture_code":15},"0128":{"zip_code":"9590128","prefecture":"新潟県","prefecture_kana":"ニイガタケン","city":"燕市","city_kana":"ツバメシ","town":"分水新町","town_kana":"ブンスイシンマチ","prefecture_code":15},"0106":{"zip_code":"9590106","prefecture":"新潟県","prefecture_kana":"ニイガタケン","city":"燕市","city_kana":"ツバメシ","town":"分水東学校町","town_kana":"ブンスイヒガシガッコウチョウ","prefecture_code":15},"0127":{"zip_code":"9590127","prefecture":"新潟県","prefecture_kana":"ニイガタケン","city":"燕市","city_kana":"ツバメシ","town":"分水文京町","town_kana":"ブンスイブンキョウチョウ","prefecture_code":15},"0118":{"zip_code":"9590118","prefecture":"新潟県","prefecture_kana":"ニイガタケン","city":"燕市","city_kana":"ツバメシ","town":"分水向山","town_kana":"ブンスイムコウヤマ","prefecture_code":15},"0104":{"zip_code":"9590104","prefecture":"新潟県","prefecture_kana":"ニイガタケン","city":"燕市","city_kana":"ツバメシ","town":"分水弥生町","town_kana":"ブンスイヤヨイチョウ","prefecture_code":15},"0102":{"zip_code":"9590102","prefecture":"新潟県","prefecture_kana":"ニイガタケン","city":"燕市","city_kana":"ツバメシ","town":"牧ケ花","town_kana":"マキガハナ","prefecture_code":15},"0134":{"zip_code":"9590134","prefecture":"新潟県","prefecture_kana":"ニイガタケン","city":"燕市","city_kana":"ツバメシ","town":"真木山","town_kana":"マギヤマ","prefecture_code":15},"0138":{"zip_code":"9590138","prefecture":"新潟県","prefecture_kana":"ニイガタケン","city":"燕市","city_kana":"ツバメシ","town":"幕島","town_kana":"マクジマ","prefecture_code":15},"1215":{"zip_code":"9591215","prefecture":"新潟県","prefecture_kana":"ニイガタケン","city":"燕市","city_kana":"ツバメシ","town":"又新","town_kana":"マタシン","prefecture_code":15},"1202":{"zip_code":"9591202","prefecture":"新潟県","prefecture_kana":"ニイガタケン","city":"燕市","city_kana":"ツバメシ","town":"松橋","town_kana":"マツハシ","prefecture_code":15},"0172":{"zip_code":"9590172","prefecture":"新潟県","prefecture_kana":"ニイガタケン","city":"燕市","city_kana":"ツバメシ","town":"溝","town_kana":"ミゾ","prefecture_code":15},"0171":{"zip_code":"9590171","prefecture":"新潟県","prefecture_kana":"ニイガタケン","city":"燕市","city_kana":"ツバメシ","town":"溝古新","town_kana":"ミゾコシン","prefecture_code":15},"1234":{"zip_code":"9591234","prefecture":"新潟県","prefecture_kana":"ニイガタケン","city":"燕市","city_kana":"ツバメシ","town":"南","town_kana":"ミナミ","prefecture_code":15},"1274":{"zip_code":"9591274","prefecture":"新潟県","prefecture_kana":"ニイガタケン","city":"燕市","city_kana":"ツバメシ","town":"柳山","town_kana":"ヤナギヤマ","prefecture_code":15},"0111":{"zip_code":"9590111","prefecture":"新潟県","prefecture_kana":"ニイガタケン","city":"燕市","city_kana":"ツバメシ","town":"横田","town_kana":"ヨコタ","prefecture_code":15},"0263":{"zip_code":"9590263","prefecture":"新潟県","prefecture_kana":"ニイガタケン","city":"燕市","city_kana":"ツバメシ","town":"吉田","town_kana":"ヨシダ","prefecture_code":15},"0264":{"zip_code":"9590264","prefecture":"新潟県","prefecture_kana":"ニイガタケン","city":"燕市","city_kana":"ツバメシ","town":"吉田","town_kana":"ヨシダ","prefecture_code":15},"0217":{"zip_code":"9590217","prefecture":"新潟県","prefecture_kana":"ニイガタケン","city":"燕市","city_kana":"ツバメシ","town":"吉田曙町","town_kana":"ヨシダアケボノチョウ","prefecture_code":15},"0235":{"zip_code":"9590235","prefecture":"新潟県","prefecture_kana":"ニイガタケン","city":"燕市","city_kana":"ツバメシ","town":"吉田旭町","town_kana":"ヨシダアサヒチョウ","prefecture_code":15},"0265":{"zip_code":"9590265","prefecture":"新潟県","prefecture_kana":"ニイガタケン","city":"燕市","city_kana":"ツバメシ","town":"吉田東町","town_kana":"ヨシダアヅマチョウ","prefecture_code":15},"0216":{"zip_code":"9590216","prefecture":"新潟県","prefecture_kana":"ニイガタケン","city":"燕市","city_kana":"ツバメシ","town":"吉田春日町","town_kana":"ヨシダカスガチョウ","prefecture_code":15},"0252":{"zip_code":"9590252","prefecture":"新潟県","prefecture_kana":"ニイガタケン","city":"燕市","city_kana":"ツバメシ","town":"吉田学校町","town_kana":"ヨシダガッコウチョウ","prefecture_code":15},"0241":{"zip_code":"9590241","prefecture":"新潟県","prefecture_kana":"ニイガタケン","city":"燕市","city_kana":"ツバメシ","town":"吉田神田町","town_kana":"ヨシダカンダチョウ","prefecture_code":15},"0245":{"zip_code":"9590245","prefecture":"新潟県","prefecture_kana":"ニイガタケン","city":"燕市","city_kana":"ツバメシ","town":"吉田上町","town_kana":"ヨシダカンマチ","prefecture_code":15},"0261":{"zip_code":"9590261","prefecture":"新潟県","prefecture_kana":"ニイガタケン","city":"燕市","city_kana":"ツバメシ","town":"吉田鴻巣","town_kana":"ヨシダコウノス","prefecture_code":15},"0256":{"zip_code":"9590256","prefecture":"新潟県","prefecture_kana":"ニイガタケン","city":"燕市","city_kana":"ツバメシ","town":"吉田寿町","town_kana":"ヨシダコトブキチョウ","prefecture_code":15},"0257":{"zip_code":"9590257","prefecture":"新潟県","prefecture_kana":"ニイガタケン","city":"燕市","city_kana":"ツバメシ","town":"吉田幸町","town_kana":"ヨシダサイワイチョウ","prefecture_code":15},"0233":{"zip_code":"9590233","prefecture":"新潟県","prefecture_kana":"ニイガタケン","city":"燕市","city_kana":"ツバメシ","town":"吉田栄町","town_kana":"ヨシダサカエチョウ","prefecture_code":15},"0215":{"zip_code":"9590215","prefecture":"新潟県","prefecture_kana":"ニイガタケン","city":"燕市","city_kana":"ツバメシ","town":"吉田下中野","town_kana":"ヨシダシモナカノ","prefecture_code":15},"0253":{"zip_code":"9590253","prefecture":"新潟県","prefecture_kana":"ニイガタケン","city":"燕市","city_kana":"ツバメシ","town":"吉田下町","town_kana":"ヨシダシモマチ","prefecture_code":15},"0247":{"zip_code":"9590247","prefecture":"新潟県","prefecture_kana":"ニイガタケン","city":"燕市","city_kana":"ツバメシ","town":"吉田新田町","town_kana":"ヨシダシンデンマチ","prefecture_code":15},"0246":{"zip_code":"9590246","prefecture":"新潟県","prefecture_kana":"ニイガタケン","city":"燕市","city_kana":"ツバメシ","town":"吉田新町","town_kana":"ヨシダシンマチ","prefecture_code":15},"0254":{"zip_code":"9590254","prefecture":"新潟県","prefecture_kana":"ニイガタケン","city":"燕市","city_kana":"ツバメシ","town":"吉田神明町","town_kana":"ヨシダシンメイチョウ","prefecture_code":15},"0234":{"zip_code":"9590234","prefecture":"新潟県","prefecture_kana":"ニイガタケン","city":"燕市","city_kana":"ツバメシ","town":"吉田水道町","town_kana":"ヨシダスイドウチョウ","prefecture_code":15},"0242":{"zip_code":"9590242","prefecture":"新潟県","prefecture_kana":"ニイガタケン","city":"燕市","city_kana":"ツバメシ","town":"吉田大保町","town_kana":"ヨシダダイボチョウ","prefecture_code":15},"0237":{"zip_code":"9590237","prefecture":"新潟県","prefecture_kana":"ニイガタケン","city":"燕市","city_kana":"ツバメシ","town":"吉田堤町","town_kana":"ヨシダツツミチョウ","prefecture_code":15},"0244":{"zip_code":"9590244","prefecture":"新潟県","prefecture_kana":"ニイガタケン","city":"燕市","city_kana":"ツバメシ","town":"吉田中町","town_kana":"ヨシダナカマチ","prefecture_code":15},"0221":{"zip_code":"9590221","prefecture":"新潟県","prefecture_kana":"ニイガタケン","city":"燕市","city_kana":"ツバメシ","town":"吉田西太田","town_kana":"ヨシダニシオオタ","prefecture_code":15},"0248":{"zip_code":"9590248","prefecture":"新潟県","prefecture_kana":"ニイガタケン","city":"燕市","city_kana":"ツバメシ","town":"吉田浜首町","town_kana":"ヨシダハマクビチョウ","prefecture_code":15},"0232":{"zip_code":"9590232","prefecture":"新潟県","prefecture_kana":"ニイガタケン","city":"燕市","city_kana":"ツバメシ","town":"吉田東栄町","town_kana":"ヨシダヒガシサカエチョウ","prefecture_code":15},"0231":{"zip_code":"9590231","prefecture":"新潟県","prefecture_kana":"ニイガタケン","city":"燕市","city_kana":"ツバメシ","town":"吉田日之出町","town_kana":"ヨシダヒノデチョウ","prefecture_code":15},"0266":{"zip_code":"9590266","prefecture":"新潟県","prefecture_kana":"ニイガタケン","city":"燕市","city_kana":"ツバメシ","town":"吉田文京町","town_kana":"ヨシダブンキョウチョウ","prefecture_code":15},"0214":{"zip_code":"9590214","prefecture":"新潟県","prefecture_kana":"ニイガタケン","city":"燕市","city_kana":"ツバメシ","town":"吉田法花堂","town_kana":"ヨシダホッケドウ","prefecture_code":15},"0251":{"zip_code":"9590251","prefecture":"新潟県","prefecture_kana":"ニイガタケン","city":"燕市","city_kana":"ツバメシ","town":"吉田本所","town_kana":"ヨシダホンジョ","prefecture_code":15},"0243":{"zip_code":"9590243","prefecture":"新潟県","prefecture_kana":"ニイガタケン","city":"燕市","city_kana":"ツバメシ","town":"吉田松岡新田","town_kana":"ヨシダマツオカシンデン","prefecture_code":15},"0236":{"zip_code":"9590236","prefecture":"新潟県","prefecture_kana":"ニイガタケン","city":"燕市","city_kana":"ツバメシ","town":"吉田松岡町","town_kana":"ヨシダマツオカチョウ","prefecture_code":15},"0267":{"zip_code":"9590267","prefecture":"新潟県","prefecture_kana":"ニイガタケン","city":"燕市","city_kana":"ツバメシ","town":"吉田宮小路","town_kana":"ヨシダミヤコウジ","prefecture_code":15},"0268":{"zip_code":"9590268","prefecture":"新潟県","prefecture_kana":"ニイガタケン","city":"燕市","city_kana":"ツバメシ","town":"吉田本町","town_kana":"ヨシダモトマチ","prefecture_code":15},"0250":{"zip_code":"9590250","prefecture":"新潟県","prefecture_kana":"ニイガタケン","city":"燕市","city_kana":"ツバメシ","town":"吉田矢作","town_kana":"ヨシダヤハギ","prefecture_code":15},"0255":{"zip_code":"9590255","prefecture":"新潟県","prefecture_kana":"ニイガタケン","city":"燕市","city_kana":"ツバメシ","town":"吉田弥生町","town_kana":"ヨシダヤヨイチョウ","prefecture_code":15},"0213":{"zip_code":"9590213","prefecture":"新潟県","prefecture_kana":"ニイガタケン","city":"燕市","city_kana":"ツバメシ","town":"吉田吉栄","town_kana":"ヨシダヨシエイ","prefecture_code":15},"0262":{"zip_code":"9590262","prefecture":"新潟県","prefecture_kana":"ニイガタケン","city":"燕市","city_kana":"ツバメシ","town":"吉田若生町","town_kana":"ヨシダワコウチョウ","prefecture_code":15},"1224":{"zip_code":"9591224","prefecture":"新潟県","prefecture_kana":"ニイガタケン","city":"燕市","city_kana":"ツバメシ","town":"四ツ屋","town_kana":"ヨツヤ","prefecture_code":15},"0206":{"zip_code":"9590206","prefecture":"新潟県","prefecture_kana":"ニイガタケン","city":"燕市","city_kana":"ツバメシ","town":"米納津","town_kana":"ヨノウヅ","prefecture_code":15},"0135":{"zip_code":"9590135","prefecture":"新潟県","prefecture_kana":"ニイガタケン","city":"燕市","city_kana":"ツバメシ","town":"渡部","town_kana":"ワタベ","prefecture_code":15},"1600":{"zip_code":"9591600","prefecture":"新潟県","prefecture_kana":"ニイガタケン","city":"五泉市","city_kana":"ゴセンシ","town":"","town_kana":"","prefecture_code":15},"1755":{"zip_code":"9591755","prefecture":"新潟県","prefecture_kana":"ニイガタケン","city":"五泉市","city_kana":"ゴセンシ","town":"青橋","town_kana":"アオハシ","prefecture_code":15},"1641":{"zip_code":"9591641","prefecture":"新潟県","prefecture_kana":"ニイガタケン","city":"五泉市","city_kana":"ゴセンシ","town":"赤羽","town_kana":"アカハネ","prefecture_code":15},"1831":{"zip_code":"9591831","prefecture":"新潟県","prefecture_kana":"ニイガタケン","city":"五泉市","city_kana":"ゴセンシ","town":"曙町","town_kana":"アケボノチョウ","prefecture_code":15},"1821":{"zip_code":"9591821","prefecture":"新潟県","prefecture_kana":"ニイガタケン","city":"五泉市","city_kana":"ゴセンシ","town":"赤海","town_kana":"アコウミ","prefecture_code":15},"1862":{"zip_code":"9591862","prefecture":"新潟県","prefecture_kana":"ニイガタケン","city":"五泉市","city_kana":"ゴセンシ","town":"旭町","town_kana":"アサヒチョウ","prefecture_code":15},"1765":{"zip_code":"9591765","prefecture":"新潟県","prefecture_kana":"ニイガタケン","city":"五泉市","city_kana":"ゴセンシ","town":"愛宕","town_kana":"アタゴ","prefecture_code":15},"1717":{"zip_code":"9591717","prefecture":"新潟県","prefecture_kana":"ニイガタケン","city":"五泉市","city_kana":"ゴセンシ","town":"阿弥陀瀬","town_kana":"アミダセ","prefecture_code":15},"1737":{"zip_code":"9591737","prefecture":"新潟県","prefecture_kana":"ニイガタケン","city":"五泉市","city_kana":"ゴセンシ","town":"新屋","town_kana":"アラヤ","prefecture_code":15},"1861":{"zip_code":"9591861","prefecture":"新潟県","prefecture_kana":"ニイガタケン","city":"五泉市","city_kana":"ゴセンシ","town":"粟島","town_kana":"アワシマ","prefecture_code":15},"1833":{"zip_code":"9591833","prefecture":"新潟県","prefecture_kana":"ニイガタケン","city":"五泉市","city_kana":"ゴセンシ","town":"五十嵐新田","town_kana":"イガラシシンデン","prefecture_code":15},"1857":{"zip_code":"9591857","prefecture":"新潟県","prefecture_kana":"ニイガタケン","city":"五泉市","city_kana":"ゴセンシ","town":"石倉","town_kana":"イシクラ","prefecture_code":15},"1701":{"zip_code":"9591701","prefecture":"新潟県","prefecture_kana":"ニイガタケン","city":"五泉市","city_kana":"ゴセンシ","town":"石曽根","town_kana":"イシゾネ","prefecture_code":15},"1876":{"zip_code":"9591876","prefecture":"新潟県","prefecture_kana":"ニイガタケン","city":"五泉市","city_kana":"ゴセンシ","town":"泉町","town_kana":"イズミチョウ","prefecture_code":15},"1813":{"zip_code":"9591813","prefecture":"新潟県","prefecture_kana":"ニイガタケン","city":"五泉市","city_kana":"ゴセンシ","town":"伊勢の川","town_kana":"イセノカワ","prefecture_code":15},"1601":{"zip_code":"9591601","prefecture":"新潟県","prefecture_kana":"ニイガタケン","city":"五泉市","city_kana":"ゴセンシ","town":"一本杉","town_kana":"イッポンスギ","prefecture_code":15},"1835":{"zip_code":"9591835","prefecture":"新潟県","prefecture_kana":"ニイガタケン","city":"五泉市","city_kana":"ゴセンシ","town":"今泉","town_kana":"イマイズミ","prefecture_code":15},"1749":{"zip_code":"9591749","prefecture":"新潟県","prefecture_kana":"ニイガタケン","city":"五泉市","city_kana":"ゴセンシ","town":"上野","town_kana":"ウエノ","prefecture_code":15},"1823":{"zip_code":"9591823","prefecture":"新潟県","prefecture_kana":"ニイガタケン","city":"五泉市","city_kana":"ゴセンシ","town":"駅前","town_kana":"エキマエ","prefecture_code":15},"1867":{"zip_code":"9591867","prefecture":"新潟県","prefecture_kana":"ニイガタケン","city":"五泉市","city_kana":"ゴセンシ","town":"大川前","town_kana":"オオカワマエ","prefecture_code":15},"1731":{"zip_code":"9591731","prefecture":"新潟県","prefecture_kana":"ニイガタケン","city":"五泉市","city_kana":"ゴセンシ","town":"大口","town_kana":"オオクチ","prefecture_code":15},"1636":{"zip_code":"9591636","prefecture":"新潟県","prefecture_kana":"ニイガタケン","city":"五泉市","city_kana":"ゴセンシ","town":"大蔵","town_kana":"オオクラ","prefecture_code":15},"1845":{"zip_code":"9591845","prefecture":"新潟県","prefecture_kana":"ニイガタケン","city":"五泉市","city_kana":"ゴセンシ","town":"大沢","town_kana":"オオサワ","prefecture_code":15},"1633":{"zip_code":"9591633","prefecture":"新潟県","prefecture_kana":"ニイガタケン","city":"五泉市","city_kana":"ゴセンシ","town":"大須郷","town_kana":"オオスゴウ","prefecture_code":15},"1825":{"zip_code":"9591825","prefecture":"新潟県","prefecture_kana":"ニイガタケン","city":"五泉市","city_kana":"ゴセンシ","town":"太田","town_kana":"オオタ","prefecture_code":15},"1623":{"zip_code":"9591623","prefecture":"新潟県","prefecture_kana":"ニイガタケン","city":"五泉市","city_kana":"ゴセンシ","town":"大谷","town_kana":"オオタニ","prefecture_code":15},"1734":{"zip_code":"9591734","prefecture":"新潟県","prefecture_kana":"ニイガタケン","city":"五泉市","city_kana":"ゴセンシ","town":"大原","town_kana":"オオハラ","prefecture_code":15},"1852":{"zip_code":"9591852","prefecture":"新潟県","prefecture_kana":"ニイガタケン","city":"五泉市","city_kana":"ゴセンシ","town":"荻曽根","town_kana":"オギソネ","prefecture_code":15},"1603":{"zip_code":"9591603","prefecture":"新潟県","prefecture_kana":"ニイガタケン","city":"五泉市","city_kana":"ゴセンシ","town":"荻野島","town_kana":"オギノシマ","prefecture_code":15},"1855":{"zip_code":"9591855","prefecture":"新潟県","prefecture_kana":"ニイガタケン","city":"五泉市","city_kana":"ゴセンシ","town":"小熊","town_kana":"オグマ","prefecture_code":15},"1621":{"zip_code":"9591621","prefecture":"新潟県","prefecture_kana":"ニイガタケン","city":"五泉市","city_kana":"ゴセンシ","town":"尾白","town_kana":"オジロ","prefecture_code":15},"1624":{"zip_code":"9591624","prefecture":"新潟県","prefecture_kana":"ニイガタケン","city":"五泉市","city_kana":"ゴセンシ","town":"小山田","town_kana":"オヤマダ","prefecture_code":15},"1866":{"zip_code":"9591866","prefecture":"新潟県","prefecture_kana":"ニイガタケン","city":"五泉市","city_kana":"ゴセンシ","town":"学校町","town_kana":"ガッコウチョウ","prefecture_code":15},"1744":{"zip_code":"9591744","prefecture":"新潟県","prefecture_kana":"ニイガタケン","city":"五泉市","city_kana":"ゴセンシ","town":"上大蒲原","town_kana":"カミオオカンバラ","prefecture_code":15},"1708":{"zip_code":"9591708","prefecture":"新潟県","prefecture_kana":"ニイガタケン","city":"五泉市","city_kana":"ゴセンシ","town":"上木越","town_kana":"カミキゴシ","prefecture_code":15},"1726":{"zip_code":"9591726","prefecture":"新潟県","prefecture_kana":"ニイガタケン","city":"五泉市","city_kana":"ゴセンシ","town":"上杉川","town_kana":"カミスギカワ","prefecture_code":15},"1746":{"zip_code":"9591746","prefecture":"新潟県","prefecture_kana":"ニイガタケン","city":"五泉市","city_kana":"ゴセンシ","town":"上戸倉","town_kana":"カミトグラ","prefecture_code":15},"1635":{"zip_code":"9591635","prefecture":"新潟県","prefecture_kana":"ニイガタケン","city":"五泉市","city_kana":"ゴセンシ","town":"柄沢","town_kana":"カラサワ","prefecture_code":15},"1756":{"zip_code":"9591756","prefecture":"新潟県","prefecture_kana":"ニイガタケン","city":"五泉市","city_kana":"ゴセンシ","town":"刈羽","town_kana":"カリワ","prefecture_code":15},"1832":{"zip_code":"9591832","prefecture":"新潟県","prefecture_kana":"ニイガタケン","city":"五泉市","city_kana":"ゴセンシ","town":"川瀬","town_kana":"カワゼ","prefecture_code":15},"1711":{"zip_code":"9591711","prefecture":"新潟県","prefecture_kana":"ニイガタケン","city":"五泉市","city_kana":"ゴセンシ","town":"川内","town_kana":"カワチ","prefecture_code":15},"1834":{"zip_code":"9591834","prefecture":"新潟県","prefecture_kana":"ニイガタケン","city":"五泉市","city_kana":"ゴセンシ","town":"木越","town_kana":"キゴシ","prefecture_code":15},"1709":{"zip_code":"9591709","prefecture":"新潟県","prefecture_kana":"ニイガタケン","city":"五泉市","city_kana":"ゴセンシ","town":"木越荒屋","town_kana":"キゴシアラヤ","prefecture_code":15},"1814":{"zip_code":"9591814","prefecture":"新潟県","prefecture_kana":"ニイガタケン","city":"五泉市","city_kana":"ゴセンシ","town":"北五泉駅前","town_kana":"キタゴセンエキマエ","prefecture_code":15},"1625":{"zip_code":"9591625","prefecture":"新潟県","prefecture_kana":"ニイガタケン","city":"五泉市","city_kana":"ゴセンシ","town":"切畑","town_kana":"キリハタ","prefecture_code":15},"1716":{"zip_code":"9591716","prefecture":"新潟県","prefecture_kana":"ニイガタケン","city":"五泉市","city_kana":"ゴセンシ","town":"熊沢","town_kana":"クマサワ","prefecture_code":15},"1763":{"zip_code":"9591763","prefecture":"新潟県","prefecture_kana":"ニイガタケン","city":"五泉市","city_kana":"ゴセンシ","town":"熊野堂","town_kana":"クマノドウ","prefecture_code":15},"1721":{"zip_code":"9591721","prefecture":"新潟県","prefecture_kana":"ニイガタケン","city":"五泉市","city_kana":"ゴセンシ","town":"暮坪","town_kana":"クレツボ","prefecture_code":15},"1864":{"zip_code":"9591864","prefecture":"新潟県","prefecture_kana":"ニイガタケン","city":"五泉市","city_kana":"ゴセンシ","town":"郷屋川","town_kana":"コウヤガワ","prefecture_code":15},"1612":{"zip_code":"9591612","prefecture":"新潟県","prefecture_kana":"ニイガタケン","city":"五泉市","city_kana":"ゴセンシ","town":"小搦","town_kana":"コガラミ","prefecture_code":15},"1622":{"zip_code":"9591622","prefecture":"新潟県","prefecture_kana":"ニイガタケン","city":"五泉市","city_kana":"ゴセンシ","town":"小栗山","town_kana":"コグリヤマ","prefecture_code":15},"1851":{"zip_code":"9591851","prefecture":"新潟県","prefecture_kana":"ニイガタケン","city":"五泉市","city_kana":"ゴセンシ","town":"五泉","town_kana":"ゴセン","prefecture_code":15},"1725":{"zip_code":"9591725","prefecture":"新潟県","prefecture_kana":"ニイガタケン","city":"五泉市","city_kana":"ゴセンシ","town":"小面谷","town_kana":"コツラダニ","prefecture_code":15},"1613":{"zip_code":"9591613","prefecture":"新潟県","prefecture_kana":"ニイガタケン","city":"五泉市","city_kana":"ゴセンシ","town":"小流","town_kana":"コナガシ","prefecture_code":15},"1753":{"zip_code":"9591753","prefecture":"新潟県","prefecture_kana":"ニイガタケン","city":"五泉市","city_kana":"ゴセンシ","town":"笹野町","town_kana":"ササノマチ","prefecture_code":15},"1611":{"zip_code":"9591611","prefecture":"新潟県","prefecture_kana":"ニイガタケン","city":"五泉市","city_kana":"ゴセンシ","town":"笹堀","town_kana":"ササボリ","prefecture_code":15},"1724":{"zip_code":"9591724","prefecture":"新潟県","prefecture_kana":"ニイガタケン","city":"五泉市","city_kana":"ゴセンシ","town":"笹目","town_kana":"ササメ","prefecture_code":15},"1615":{"zip_code":"9591615","prefecture":"新潟県","prefecture_kana":"ニイガタケン","city":"五泉市","city_kana":"ゴセンシ","town":"佐取","town_kana":"サドリ","prefecture_code":15},"1806":{"zip_code":"9591806","prefecture":"新潟県","prefecture_kana":"ニイガタケン","city":"五泉市","city_kana":"ゴセンシ","town":"猿橋","town_kana":"サルハシ","prefecture_code":15},"1631":{"zip_code":"9591631","prefecture":"新潟県","prefecture_kana":"ニイガタケン","city":"五泉市","city_kana":"ゴセンシ","town":"猿和田","town_kana":"サルワダ","prefecture_code":15},"1811":{"zip_code":"9591811","prefecture":"新潟県","prefecture_kana":"ニイガタケン","city":"五泉市","city_kana":"ゴセンシ","town":"三本木","town_kana":"サンボンギ","prefecture_code":15},"1718":{"zip_code":"9591718","prefecture":"新潟県","prefecture_kana":"ニイガタケン","city":"五泉市","city_kana":"ゴセンシ","town":"下阿弥陀瀬","town_kana":"シモアミダセ","prefecture_code":15},"1743":{"zip_code":"9591743","prefecture":"新潟県","prefecture_kana":"ニイガタケン","city":"五泉市","city_kana":"ゴセンシ","town":"下大蒲原","town_kana":"シモオオカンバラ","prefecture_code":15},"1803":{"zip_code":"9591803","prefecture":"新潟県","prefecture_kana":"ニイガタケン","city":"五泉市","city_kana":"ゴセンシ","town":"下条","town_kana":"シモジョウ","prefecture_code":15},"1802":{"zip_code":"9591802","prefecture":"新潟県","prefecture_kana":"ニイガタケン","city":"五泉市","city_kana":"ゴセンシ","town":"下新","town_kana":"シモシン","prefecture_code":15},"1727":{"zip_code":"9591727","prefecture":"新潟県","prefecture_kana":"ニイガタケン","city":"五泉市","city_kana":"ゴセンシ","town":"下杉川","town_kana":"シモスギカワ","prefecture_code":15},"1745":{"zip_code":"9591745","prefecture":"新潟県","prefecture_kana":"ニイガタケン","city":"五泉市","city_kana":"ゴセンシ","town":"下戸倉","town_kana":"シモトグラ","prefecture_code":15},"1846":{"zip_code":"9591846","prefecture":"新潟県","prefecture_kana":"ニイガタケン","city":"五泉市","city_kana":"ゴセンシ","town":"尻上","town_kana":"シリアガリ","prefecture_code":15},"1758":{"zip_code":"9591758","prefecture":"新潟県","prefecture_kana":"ニイガタケン","city":"五泉市","city_kana":"ゴセンシ","town":"城下","town_kana":"シロシタ","prefecture_code":15},"1767":{"zip_code":"9591767","prefecture":"新潟県","prefecture_kana":"ニイガタケン","city":"五泉市","city_kana":"ゴセンシ","town":"新田町","town_kana":"シンデンマチ","prefecture_code":15},"1637":{"zip_code":"9591637","prefecture":"新潟県","prefecture_kana":"ニイガタケン","city":"五泉市","city_kana":"ゴセンシ","town":"菅出","town_kana":"スガイデ","prefecture_code":15},"1847":{"zip_code":"9591847","prefecture":"新潟県","prefecture_kana":"ニイガタケン","city":"五泉市","city_kana":"ゴセンシ","town":"菅沢","town_kana":"スゲサワ","prefecture_code":15},"1714":{"zip_code":"9591714","prefecture":"新潟県","prefecture_kana":"ニイガタケン","city":"五泉市","city_kana":"ゴセンシ","town":"仙見谷","town_kana":"センミダニ","prefecture_code":15},"1747":{"zip_code":"9591747","prefecture":"新潟県","prefecture_kana":"ニイガタケン","city":"五泉市","city_kana":"ゴセンシ","town":"高松","town_kana":"タカマツ","prefecture_code":15},"1602":{"zip_code":"9591602","prefecture":"新潟県","prefecture_kana":"ニイガタケン","city":"五泉市","city_kana":"ゴセンシ","town":"高山","town_kana":"タカヤマ","prefecture_code":15},"1804":{"zip_code":"9591804","prefecture":"新潟県","prefecture_kana":"ニイガタケン","city":"五泉市","city_kana":"ゴセンシ","town":"田屋","town_kana":"タヤ","prefecture_code":15},"1751":{"zip_code":"9591751","prefecture":"新潟県","prefecture_kana":"ニイガタケン","city":"五泉市","city_kana":"ゴセンシ","town":"中名沢","town_kana":"チュウナザワ","prefecture_code":15},"1752":{"zip_code":"9591752","prefecture":"新潟県","prefecture_kana":"ニイガタケン","city":"五泉市","city_kana":"ゴセンシ","town":"千原","town_kana":"チワラ","prefecture_code":15},"1807":{"zip_code":"9591807","prefecture":"新潟県","prefecture_kana":"ニイガタケン","city":"五泉市","city_kana":"ゴセンシ","town":"次屋","town_kana":"ツギヤ","prefecture_code":15},"1643":{"zip_code":"9591643","prefecture":"新潟県","prefecture_kana":"ニイガタケン","city":"五泉市","city_kana":"ゴセンシ","town":"土堀","town_kana":"ツチボリ","prefecture_code":15},"1837":{"zip_code":"9591837","prefecture":"新潟県","prefecture_kana":"ニイガタケン","city":"五泉市","city_kana":"ゴセンシ","town":"寺沢","town_kana":"テラザワ","prefecture_code":15},"1742":{"zip_code":"9591742","prefecture":"新潟県","prefecture_kana":"ニイガタケン","city":"五泉市","city_kana":"ゴセンシ","town":"寺田","town_kana":"テラダ","prefecture_code":15},"1853":{"zip_code":"9591853","prefecture":"新潟県","prefecture_kana":"ニイガタケン","city":"五泉市","city_kana":"ゴセンシ","town":"土深","town_kana":"ドブケ","prefecture_code":15},"1712":{"zip_code":"9591712","prefecture":"新潟県","prefecture_kana":"ニイガタケン","city":"五泉市","city_kana":"ゴセンシ","town":"土淵","town_kana":"ドフチ","prefecture_code":15},"1632":{"zip_code":"9591632","prefecture":"新潟県","prefecture_kana":"ニイガタケン","city":"五泉市","city_kana":"ゴセンシ","town":"中川新","town_kana":"ナカガワシン","prefecture_code":15},"1732":{"zip_code":"9591732","prefecture":"新潟県","prefecture_kana":"ニイガタケン","city":"五泉市","city_kana":"ゴセンシ","town":"中島","town_kana":"ナカジマ","prefecture_code":15},"1754":{"zip_code":"9591754","prefecture":"新潟県","prefecture_kana":"ニイガタケン","city":"五泉市","city_kana":"ゴセンシ","town":"中野橋","town_kana":"ナカノハシ","prefecture_code":15},"1757":{"zip_code":"9591757","prefecture":"新潟県","prefecture_kana":"ニイガタケン","city":"五泉市","city_kana":"ゴセンシ","town":"長橋","town_kana":"ナガハシ","prefecture_code":15},"1715":{"zip_code":"9591715","prefecture":"新潟県","prefecture_kana":"ニイガタケン","city":"五泉市","city_kana":"ゴセンシ","town":"夏針","town_kana":"ナツハリ","prefecture_code":15},"1873":{"zip_code":"9591873","prefecture":"新潟県","prefecture_kana":"ニイガタケン","city":"五泉市","city_kana":"ゴセンシ","town":"錦町","town_kana":"ニシキチョウ","prefecture_code":15},"1844":{"zip_code":"9591844","prefecture":"新潟県","prefecture_kana":"ニイガタケン","city":"五泉市","city_kana":"ゴセンシ","town":"西四ツ屋","town_kana":"ニシヨツヤ","prefecture_code":15},"1842":{"zip_code":"9591842","prefecture":"新潟県","prefecture_kana":"ニイガタケン","city":"五泉市","city_kana":"ゴセンシ","town":"能代","town_kana":"ノウダイ","prefecture_code":15},"1801":{"zip_code":"9591801","prefecture":"新潟県","prefecture_kana":"ニイガタケン","city":"五泉市","city_kana":"ゴセンシ","town":"羽下","town_kana":"ハガ","prefecture_code":15},"1871":{"zip_code":"9591871","prefecture":"新潟県","prefecture_kana":"ニイガタケン","city":"五泉市","city_kana":"ゴセンシ","town":"白山","town_kana":"ハクサン","prefecture_code":15},"1848":{"zip_code":"9591848","prefecture":"新潟県","prefecture_kana":"ニイガタケン","city":"五泉市","city_kana":"ゴセンシ","town":"橋田","town_kana":"ハシタ","prefecture_code":15},"1875":{"zip_code":"9591875","prefecture":"新潟県","prefecture_kana":"ニイガタケン","city":"五泉市","city_kana":"ゴセンシ","town":"馬場町","town_kana":"ババチョウ","prefecture_code":15},"1766":{"zip_code":"9591766","prefecture":"新潟県","prefecture_kana":"ニイガタケン","city":"五泉市","city_kana":"ゴセンシ","town":"番坂","town_kana":"バンザカ","prefecture_code":15},"1762":{"zip_code":"9591762","prefecture":"新潟県","prefecture_kana":"ニイガタケン","city":"五泉市","city_kana":"ゴセンシ","town":"東石曽根","town_kana":"ヒガシイシゾネ","prefecture_code":15},"1863":{"zip_code":"9591863","prefecture":"新潟県","prefecture_kana":"ニイガタケン","city":"五泉市","city_kana":"ゴセンシ","town":"東本町","town_kana":"ヒガシホンチョウ","prefecture_code":15},"1644":{"zip_code":"9591644","prefecture":"新潟県","prefecture_kana":"ニイガタケン","city":"五泉市","city_kana":"ゴセンシ","town":"東四ツ屋","town_kana":"ヒガシヨツヤ","prefecture_code":15},"1735":{"zip_code":"9591735","prefecture":"新潟県","prefecture_kana":"ニイガタケン","city":"五泉市","city_kana":"ゴセンシ","town":"蛭野","town_kana":"ヒルノ","prefecture_code":15},"1841":{"zip_code":"9591841","prefecture":"新潟県","prefecture_kana":"ニイガタケン","city":"五泉市","city_kana":"ゴセンシ","town":"二ツ柳","town_kana":"フタツヤナギ","prefecture_code":15},"1634":{"zip_code":"9591634","prefecture":"新潟県","prefecture_kana":"ニイガタケン","city":"五泉市","city_kana":"ゴセンシ","town":"不動堂","town_kana":"フドウドウ","prefecture_code":15},"1805":{"zip_code":"9591805","prefecture":"新潟県","prefecture_kana":"ニイガタケン","city":"五泉市","city_kana":"ゴセンシ","town":"船越","town_kana":"フナコシ","prefecture_code":15},"1738":{"zip_code":"9591738","prefecture":"新潟県","prefecture_kana":"ニイガタケン","city":"五泉市","city_kana":"ゴセンシ","town":"別所","town_kana":"ベッショ","prefecture_code":15},"1865":{"zip_code":"9591865","prefecture":"新潟県","prefecture_kana":"ニイガタケン","city":"五泉市","city_kana":"ゴセンシ","town":"本町","town_kana":"ホンチョウ","prefecture_code":15},"1614":{"zip_code":"9591614","prefecture":"新潟県","prefecture_kana":"ニイガタケン","city":"五泉市","city_kana":"ゴセンシ","town":"馬下","town_kana":"マオロシ","prefecture_code":15},"1748":{"zip_code":"9591748","prefecture":"新潟県","prefecture_kana":"ニイガタケン","city":"五泉市","city_kana":"ゴセンシ","town":"牧","town_kana":"マキ","prefecture_code":15},"1843":{"zip_code":"9591843","prefecture":"新潟県","prefecture_kana":"ニイガタケン","city":"五泉市","city_kana":"ゴセンシ","town":"町屋","town_kana":"マチヤ","prefecture_code":15},"1722":{"zip_code":"9591722","prefecture":"新潟県","prefecture_kana":"ニイガタケン","city":"五泉市","city_kana":"ゴセンシ","town":"松野","town_kana":"マツノ","prefecture_code":15},"1854":{"zip_code":"9591854","prefecture":"新潟県","prefecture_kana":"ニイガタケン","city":"五泉市","city_kana":"ゴセンシ","town":"丸田","town_kana":"マルタ","prefecture_code":15},"1759":{"zip_code":"9591759","prefecture":"新潟県","prefecture_kana":"ニイガタケン","city":"五泉市","city_kana":"ゴセンシ","town":"美郷","town_kana":"ミサト","prefecture_code":15},"1812":{"zip_code":"9591812","prefecture":"新潟県","prefecture_kana":"ニイガタケン","city":"五泉市","city_kana":"ゴセンシ","town":"水島町","town_kana":"ミズシマチョウ","prefecture_code":15},"1713":{"zip_code":"9591713","prefecture":"新潟県","prefecture_kana":"ニイガタケン","city":"五泉市","city_kana":"ゴセンシ","town":"水戸野","town_kana":"ミトノ","prefecture_code":15},"1822":{"zip_code":"9591822","prefecture":"新潟県","prefecture_kana":"ニイガタケン","city":"五泉市","city_kana":"ゴセンシ","town":"緑町","town_kana":"ミドリチョウ","prefecture_code":15},"1741":{"zip_code":"9591741","prefecture":"新潟県","prefecture_kana":"ニイガタケン","city":"五泉市","city_kana":"ゴセンシ","town":"南田中","town_kana":"ミナミタナカ","prefecture_code":15},"1836":{"zip_code":"9591836","prefecture":"新潟県","prefecture_kana":"ニイガタケン","city":"五泉市","city_kana":"ゴセンシ","town":"南本町","town_kana":"ミナミホンチョウ","prefecture_code":15},"1872":{"zip_code":"9591872","prefecture":"新潟県","prefecture_kana":"ニイガタケン","city":"五泉市","city_kana":"ゴセンシ","town":"宮町","town_kana":"ミヤチョウ","prefecture_code":15},"1764":{"zip_code":"9591764","prefecture":"新潟県","prefecture_kana":"ニイガタケン","city":"五泉市","city_kana":"ゴセンシ","town":"宮野下","town_kana":"ミヤノシタ","prefecture_code":15},"1707":{"zip_code":"9591707","prefecture":"新潟県","prefecture_kana":"ニイガタケン","city":"五泉市","city_kana":"ゴセンシ","town":"村松","town_kana":"ムラマツ","prefecture_code":15},"1705":{"zip_code":"9591705","prefecture":"新潟県","prefecture_kana":"ニイガタケン","city":"五泉市","city_kana":"ゴセンシ","town":"村松乙","town_kana":"ムラマツオツ","prefecture_code":15},"1704":{"zip_code":"9591704","prefecture":"新潟県","prefecture_kana":"ニイガタケン","city":"五泉市","city_kana":"ゴセンシ","town":"村松甲","town_kana":"ムラマツコウ","prefecture_code":15},"1706":{"zip_code":"9591706","prefecture":"新潟県","prefecture_kana":"ニイガタケン","city":"五泉市","city_kana":"ゴセンシ","town":"村松丙","town_kana":"ムラマツヘイ","prefecture_code":15},"1739":{"zip_code":"9591739","prefecture":"新潟県","prefecture_kana":"ニイガタケン","city":"五泉市","city_kana":"ゴセンシ","town":"村松工業団地","town_kana":"ムラマツコウギョウダンチ","prefecture_code":15},"1761":{"zip_code":"9591761","prefecture":"新潟県","prefecture_kana":"ニイガタケン","city":"五泉市","city_kana":"ゴセンシ","town":"本田屋","town_kana":"モトダイ","prefecture_code":15},"1733":{"zip_code":"9591733","prefecture":"新潟県","prefecture_kana":"ニイガタケン","city":"五泉市","city_kana":"ゴセンシ","town":"安出","town_kana":"ヤスイデ","prefecture_code":15},"1703":{"zip_code":"9591703","prefecture":"新潟県","prefecture_kana":"ニイガタケン","city":"五泉市","city_kana":"ゴセンシ","town":"矢津","town_kana":"ヤヅ","prefecture_code":15},"1856":{"zip_code":"9591856","prefecture":"新潟県","prefecture_kana":"ニイガタケン","city":"五泉市","city_kana":"ゴセンシ","town":"山崎","town_kana":"ヤマザキ","prefecture_code":15},"1736":{"zip_code":"9591736","prefecture":"新潟県","prefecture_kana":"ニイガタケン","city":"五泉市","city_kana":"ゴセンシ","town":"山谷","town_kana":"ヤマヤ","prefecture_code":15},"1874":{"zip_code":"9591874","prefecture":"新潟県","prefecture_kana":"ニイガタケン","city":"五泉市","city_kana":"ゴセンシ","town":"横町","town_kana":"ヨコマチ","prefecture_code":15},"1723":{"zip_code":"9591723","prefecture":"新潟県","prefecture_kana":"ニイガタケン","city":"五泉市","city_kana":"ゴセンシ","town":"横渡","town_kana":"ヨコワタシ","prefecture_code":15},"1824":{"zip_code":"9591824","prefecture":"新潟県","prefecture_kana":"ニイガタケン","city":"五泉市","city_kana":"ゴセンシ","town":"吉沢","town_kana":"ヨシザワ","prefecture_code":15},"1642":{"zip_code":"9591642","prefecture":"新潟県","prefecture_kana":"ニイガタケン","city":"五泉市","city_kana":"ゴセンシ","town":"四ツ屋新","town_kana":"ヨツヤシン","prefecture_code":15},"1604":{"zip_code":"9591604","prefecture":"新潟県","prefecture_kana":"ニイガタケン","city":"五泉市","city_kana":"ゴセンシ","town":"論瀬","town_kana":"ロンゼ","prefecture_code":15},"2000":{"zip_code":"9592000","prefecture":"新潟県","prefecture_kana":"ニイガタケン","city":"阿賀野市","city_kana":"アガノシ","town":"","town_kana":"","prefecture_code":15},"1955":{"zip_code":"9591955","prefecture":"新潟県","prefecture_kana":"ニイガタケン","city":"阿賀野市","city_kana":"アガノシ","town":"赤水","town_kana":"アカミズ","prefecture_code":15},"2061":{"zip_code":"9592061","prefecture":"新潟県","prefecture_kana":"ニイガタケン","city":"阿賀野市","city_kana":"アガノシ","town":"荒屋","town_kana":"アラヤ","prefecture_code":15},"2003":{"zip_code":"9592003","prefecture":"新潟県","prefecture_kana":"ニイガタケン","city":"阿賀野市","city_kana":"アガノシ","town":"安野町","town_kana":"アンノチョウ","prefecture_code":15},"2122":{"zip_code":"9592122","prefecture":"新潟県","prefecture_kana":"ニイガタケン","city":"阿賀野市","city_kana":"アガノシ","town":"飯森杉","town_kana":"イイモリスギ","prefecture_code":15},"1902":{"zip_code":"9591902","prefecture":"新潟県","prefecture_kana":"ニイガタケン","city":"阿賀野市","city_kana":"アガノシ","town":"飯山新","town_kana":"イイヤマシン","prefecture_code":15},"1959":{"zip_code":"9591959","prefecture":"新潟県","prefecture_kana":"ニイガタケン","city":"阿賀野市","city_kana":"アガノシ","town":"泉","town_kana":"イズミ","prefecture_code":15},"2062":{"zip_code":"9592062","prefecture":"新潟県","prefecture_kana":"ニイガタケン","city":"阿賀野市","city_kana":"アガノシ","town":"市野山","town_kana":"イチノヤマ","prefecture_code":15},"2035":{"zip_code":"9592035","prefecture":"新潟県","prefecture_kana":"ニイガタケン","city":"阿賀野市","city_kana":"アガノシ","town":"稲荷町","town_kana":"イナリチョウ","prefecture_code":15},"1927":{"zip_code":"9591927","prefecture":"新潟県","prefecture_kana":"ニイガタケン","city":"阿賀野市","city_kana":"アガノシ","town":"今板","town_kana":"イマイタ","prefecture_code":15},"2123":{"zip_code":"9592123","prefecture":"新潟県","prefecture_kana":"ニイガタケン","city":"阿賀野市","city_kana":"アガノシ","town":"姥ケ橋","town_kana":"ウバガハシ","prefecture_code":15},"1974":{"zip_code":"9591974","prefecture":"新潟県","prefecture_kana":"ニイガタケン","city":"阿賀野市","city_kana":"アガノシ","town":"榎","town_kana":"エノキ","prefecture_code":15},"1968":{"zip_code":"9591968","prefecture":"新潟県","prefecture_kana":"ニイガタケン","city":"阿賀野市","city_kana":"アガノシ","town":"榎船渡","town_kana":"エノキフナト","prefecture_code":15},"1930":{"zip_code":"9591930","prefecture":"新潟県","prefecture_kana":"ニイガタケン","city":"阿賀野市","city_kana":"アガノシ","town":"大宮","town_kana":"オオミヤ","prefecture_code":15},"1935":{"zip_code":"9591935","prefecture":"新潟県","prefecture_kana":"ニイガタケン","city":"阿賀野市","city_kana":"アガノシ","town":"大室","town_kana":"オオムロ","prefecture_code":15},"2043":{"zip_code":"9592043","prefecture":"新潟県","prefecture_kana":"ニイガタケン","city":"阿賀野市","city_kana":"アガノシ","town":"大野地","town_kana":"オオヤチ","prefecture_code":15},"2025":{"zip_code":"9592025","prefecture":"新潟県","prefecture_kana":"ニイガタケン","city":"阿賀野市","city_kana":"アガノシ","town":"岡山町","town_kana":"オカヤマチョウ","prefecture_code":15},"1964":{"zip_code":"9591964","prefecture":"新潟県","prefecture_kana":"ニイガタケン","city":"阿賀野市","city_kana":"アガノシ","town":"沖","town_kana":"オキ","prefecture_code":15},"1975":{"zip_code":"9591975","prefecture":"新潟県","prefecture_kana":"ニイガタケン","city":"阿賀野市","city_kana":"アガノシ","town":"上飯塚","town_kana":"カミイイヅカ","prefecture_code":15},"2001":{"zip_code":"9592001","prefecture":"新潟県","prefecture_kana":"ニイガタケン","city":"阿賀野市","city_kana":"アガノシ","town":"沖通","town_kana":"オキドオリ","prefecture_code":15},"1977":{"zip_code":"9591977","prefecture":"新潟県","prefecture_kana":"ニイガタケン","city":"阿賀野市","city_kana":"アガノシ","town":"沖ノ館","town_kana":"オキノタテ","prefecture_code":15},"2121":{"zip_code":"9592121","prefecture":"新潟県","prefecture_kana":"ニイガタケン","city":"阿賀野市","city_kana":"アガノシ","town":"小里","town_kana":"オサト","prefecture_code":15},"1946":{"zip_code":"9591946","prefecture":"新潟県","prefecture_kana":"ニイガタケン","city":"阿賀野市","city_kana":"アガノシ","town":"押切","town_kana":"オシキリ","prefecture_code":15},"1921":{"zip_code":"9591921","prefecture":"新潟県","prefecture_kana":"ニイガタケン","city":"阿賀野市","city_kana":"アガノシ","town":"上西山","town_kana":"カミニシヤマ","prefecture_code":15},"1914":{"zip_code":"9591914","prefecture":"新潟県","prefecture_kana":"ニイガタケン","city":"阿賀野市","city_kana":"アガノシ","town":"女堂","town_kana":"オンナドウ","prefecture_code":15},"1938":{"zip_code":"9591938","prefecture":"新潟県","prefecture_kana":"ニイガタケン","city":"阿賀野市","city_kana":"アガノシ","town":"貝喰","town_kana":"カイバミ","prefecture_code":15},"2206":{"zip_code":"9592206","prefecture":"新潟県","prefecture_kana":"ニイガタケン","city":"阿賀野市","city_kana":"アガノシ","town":"かがやき","town_kana":"カガヤキ","prefecture_code":15},"2202":{"zip_code":"9592202","prefecture":"新潟県","prefecture_kana":"ニイガタケン","city":"阿賀野市","city_kana":"アガノシ","town":"籠田","town_kana":"カゴタ","prefecture_code":15},"2147":{"zip_code":"9592147","prefecture":"新潟県","prefecture_kana":"ニイガタケン","city":"阿賀野市","city_kana":"アガノシ","town":"粕島","town_kana":"カスジマ","prefecture_code":15},"2148":{"zip_code":"9592148","prefecture":"新潟県","prefecture_kana":"ニイガタケン","city":"阿賀野市","city_kana":"アガノシ","town":"嘉瀬島","town_kana":"カセジマ","prefecture_code":15},"2032":{"zip_code":"9592032","prefecture":"新潟県","prefecture_kana":"ニイガタケン","city":"阿賀野市","city_kana":"アガノシ","town":"学校町","town_kana":"ガッコウチョウ","prefecture_code":15},"1923":{"zip_code":"9591923","prefecture":"新潟県","prefecture_kana":"ニイガタケン","city":"阿賀野市","city_kana":"アガノシ","town":"勝屋","town_kana":"カツヤ","prefecture_code":15},"2044":{"zip_code":"9592044","prefecture":"新潟県","prefecture_kana":"ニイガタケン","city":"阿賀野市","city_kana":"アガノシ","town":"金沢","town_kana":"カナザワ","prefecture_code":15},"1944":{"zip_code":"9591944","prefecture":"新潟県","prefecture_kana":"ニイガタケン","city":"阿賀野市","city_kana":"アガノシ","town":"金屋","town_kana":"カナヤ","prefecture_code":15},"2031":{"zip_code":"9592031","prefecture":"新潟県","prefecture_kana":"ニイガタケン","city":"阿賀野市","city_kana":"アガノシ","town":"金田町","town_kana":"カネダチョウ","prefecture_code":15},"2105":{"zip_code":"9592105","prefecture":"新潟県","prefecture_kana":"ニイガタケン","city":"阿賀野市","city_kana":"アガノシ","town":"金渕乙","town_kana":"カネブチオツ","prefecture_code":15},"2103":{"zip_code":"9592103","prefecture":"新潟県","prefecture_kana":"ニイガタケン","city":"阿賀野市","city_kana":"アガノシ","town":"金渕甲","town_kana":"カネブチコウ","prefecture_code":15},"1915":{"zip_code":"9591915","prefecture":"新潟県","prefecture_kana":"ニイガタケン","city":"阿賀野市","city_kana":"アガノシ","town":"上一分","town_kana":"カミイチブ","prefecture_code":15},"2081":{"zip_code":"9592081","prefecture":"新潟県","prefecture_kana":"ニイガタケン","city":"阿賀野市","city_kana":"アガノシ","town":"上江端","town_kana":"カミエバタ","prefecture_code":15},"1908":{"zip_code":"9591908","prefecture":"新潟県","prefecture_kana":"ニイガタケン","city":"阿賀野市","city_kana":"アガノシ","town":"上蔵野","town_kana":"カミクラノ","prefecture_code":15},"2116":{"zip_code":"9592116","prefecture":"新潟県","prefecture_kana":"ニイガタケン","city":"阿賀野市","city_kana":"アガノシ","town":"上黒瀬","town_kana":"カミクロセ","prefecture_code":15},"1933":{"zip_code":"9591933","prefecture":"新潟県","prefecture_kana":"ニイガタケン","city":"阿賀野市","city_kana":"アガノシ","town":"上小中山","town_kana":"カミコナカヤマ","prefecture_code":15},"1942":{"zip_code":"9591942","prefecture":"新潟県","prefecture_kana":"ニイガタケン","city":"阿賀野市","city_kana":"アガノシ","town":"上坂町","town_kana":"カミサカマチ","prefecture_code":15},"1962":{"zip_code":"9591962","prefecture":"新潟県","prefecture_kana":"ニイガタケン","city":"阿賀野市","city_kana":"アガノシ","town":"上関口","town_kana":"カミセキグチ","prefecture_code":15},"1909":{"zip_code":"9591909","prefecture":"新潟県","prefecture_kana":"ニイガタケン","city":"阿賀野市","city_kana":"アガノシ","town":"上高関","town_kana":"カミタカセキ","prefecture_code":15},"1973":{"zip_code":"9591973","prefecture":"新潟県","prefecture_kana":"ニイガタケン","city":"阿賀野市","city_kana":"アガノシ","town":"上高田","town_kana":"カミタカダ","prefecture_code":15},"2047":{"zip_code":"9592047","prefecture":"新潟県","prefecture_kana":"ニイガタケン","city":"阿賀野市","city_kana":"アガノシ","town":"上中","town_kana":"カミナカ","prefecture_code":15},"2048":{"zip_code":"9592048","prefecture":"新潟県","prefecture_kana":"ニイガタケン","city":"阿賀野市","city_kana":"アガノシ","town":"上中野目","town_kana":"カミナカノメ","prefecture_code":15},"1904":{"zip_code":"9591904","prefecture":"新潟県","prefecture_kana":"ニイガタケン","city":"阿賀野市","city_kana":"アガノシ","town":"上西野","town_kana":"カミニシノ","prefecture_code":15},"2073":{"zip_code":"9592073","prefecture":"新潟県","prefecture_kana":"ニイガタケン","city":"阿賀野市","city_kana":"アガノシ","town":"上福岡","town_kana":"カミフクオカ","prefecture_code":15},"1932":{"zip_code":"9591932","prefecture":"新潟県","prefecture_kana":"ニイガタケン","city":"阿賀野市","city_kana":"アガノシ","town":"上山田","town_kana":"カミヤマダ","prefecture_code":15},"1945":{"zip_code":"9591945","prefecture":"新潟県","prefecture_kana":"ニイガタケン","city":"阿賀野市","city_kana":"アガノシ","town":"上山屋","town_kana":"カミヤマヤ","prefecture_code":15},"1978":{"zip_code":"9591978","prefecture":"新潟県","prefecture_kana":"ニイガタケン","city":"阿賀野市","city_kana":"アガノシ","town":"川岡","town_kana":"カワオカ","prefecture_code":15},"1949":{"zip_code":"9591949","prefecture":"新潟県","prefecture_kana":"ニイガタケン","city":"阿賀野市","city_kana":"アガノシ","town":"川崎","town_kana":"カワサキ","prefecture_code":15},"2143":{"zip_code":"9592143","prefecture":"新潟県","prefecture_kana":"ニイガタケン","city":"阿賀野市","city_kana":"アガノシ","town":"川前","town_kana":"カワマエ","prefecture_code":15},"2014":{"zip_code":"9592014","prefecture":"新潟県","prefecture_kana":"ニイガタケン","city":"阿賀野市","city_kana":"アガノシ","town":"北園町","town_kana":"キタゾノチョウ","prefecture_code":15},"2015":{"zip_code":"9592015","prefecture":"新潟県","prefecture_kana":"ニイガタケン","city":"阿賀野市","city_kana":"アガノシ","town":"北本町","town_kana":"キタホンチョウ","prefecture_code":15},"2125":{"zip_code":"9592125","prefecture":"新潟県","prefecture_kana":"ニイガタケン","city":"阿賀野市","city_kana":"アガノシ","town":"京ケ島","town_kana":"キョウガシマ","prefecture_code":15},"2136":{"zip_code":"9592136","prefecture":"新潟県","prefecture_kana":"ニイガタケン","city":"阿賀野市","city_kana":"アガノシ","town":"京ケ瀬工業団地","town_kana":"キョウガセコウギョウダンチ","prefecture_code":15},"2082":{"zip_code":"9592082","prefecture":"新潟県","prefecture_kana":"ニイガタケン","city":"阿賀野市","city_kana":"アガノシ","town":"切梅新田","town_kana":"キリウメシンデン","prefecture_code":15},"2214":{"zip_code":"9592214","prefecture":"新潟県","prefecture_kana":"ニイガタケン","city":"阿賀野市","city_kana":"アガノシ","town":"草水","town_kana":"クソウズ","prefecture_code":15},"2212":{"zip_code":"9592212","prefecture":"新潟県","prefecture_kana":"ニイガタケン","city":"阿賀野市","city_kana":"アガノシ","town":"久保","town_kana":"クボ","prefecture_code":15},"2126":{"zip_code":"9592126","prefecture":"新潟県","prefecture_kana":"ニイガタケン","city":"阿賀野市","city_kana":"アガノシ","town":"窪川原","town_kana":"クボガワラ","prefecture_code":15},"2083":{"zip_code":"9592083","prefecture":"新潟県","prefecture_kana":"ニイガタケン","city":"阿賀野市","city_kana":"アガノシ","town":"熊居新田","town_kana":"クマイシンデン","prefecture_code":15},"1907":{"zip_code":"9591907","prefecture":"新潟県","prefecture_kana":"ニイガタケン","city":"阿賀野市","city_kana":"アガノシ","town":"熊堂","town_kana":"クマドウ","prefecture_code":15},"2002":{"zip_code":"9592002","prefecture":"新潟県","prefecture_kana":"ニイガタケン","city":"阿賀野市","city_kana":"アガノシ","town":"下条","town_kana":"ゲジョウ","prefecture_code":15},"2026":{"zip_code":"9592026","prefecture":"新潟県","prefecture_kana":"ニイガタケン","city":"阿賀野市","city_kana":"アガノシ","town":"下条町","town_kana":"ゲジョウチョウ","prefecture_code":15},"2222":{"zip_code":"9592222","prefecture":"新潟県","prefecture_kana":"ニイガタケン","city":"阿賀野市","city_kana":"アガノシ","town":"小浮","town_kana":"コウケ","prefecture_code":15},"2134":{"zip_code":"9592134","prefecture":"新潟県","prefecture_kana":"ニイガタケン","city":"阿賀野市","city_kana":"アガノシ","town":"小河原","town_kana":"コガワラ","prefecture_code":15},"1916":{"zip_code":"9591916","prefecture":"新潟県","prefecture_kana":"ニイガタケン","city":"阿賀野市","city_kana":"アガノシ","town":"小栗山","town_kana":"コグリヤマ","prefecture_code":15},"2065":{"zip_code":"9592065","prefecture":"新潟県","prefecture_kana":"ニイガタケン","city":"阿賀野市","city_kana":"アガノシ","town":"小境","town_kana":"コザカイ","prefecture_code":15},"2146":{"zip_code":"9592146","prefecture":"新潟県","prefecture_kana":"ニイガタケン","city":"阿賀野市","city_kana":"アガノシ","town":"小島","town_kana":"コジマ","prefecture_code":15},"2054":{"zip_code":"9592054","prefecture":"新潟県","prefecture_kana":"ニイガタケン","city":"阿賀野市","city_kana":"アガノシ","town":"越御堂","town_kana":"コシミドウ","prefecture_code":15},"2213":{"zip_code":"9592213","prefecture":"新潟県","prefecture_kana":"ニイガタケン","city":"阿賀野市","city_kana":"アガノシ","town":"小松","town_kana":"コマツ","prefecture_code":15},"2101":{"zip_code":"9592101","prefecture":"新潟県","prefecture_kana":"ニイガタケン","city":"阿賀野市","city_kana":"アガノシ","town":"駒林","town_kana":"コマバヤシ","prefecture_code":15},"2102":{"zip_code":"9592102","prefecture":"新潟県","prefecture_kana":"ニイガタケン","city":"阿賀野市","city_kana":"アガノシ","town":"五郎巻","town_kana":"ゴロウマキ","prefecture_code":15},"2053":{"zip_code":"9592053","prefecture":"新潟県","prefecture_kana":"ニイガタケン","city":"阿賀野市","city_kana":"アガノシ","town":"境新","town_kana":"サカイシン","prefecture_code":15},"2042":{"zip_code":"9592042","prefecture":"新潟県","prefecture_kana":"ニイガタケン","city":"阿賀野市","city_kana":"アガノシ","town":"境新田","town_kana":"サカイシンデン","prefecture_code":15},"2135":{"zip_code":"9592135","prefecture":"新潟県","prefecture_kana":"ニイガタケン","city":"阿賀野市","city_kana":"アガノシ","town":"下里","town_kana":"サガリ","prefecture_code":15},"1918":{"zip_code":"9591918","prefecture":"新潟県","prefecture_kana":"ニイガタケン","city":"阿賀野市","city_kana":"アガノシ","town":"笹岡","town_kana":"ササオカ","prefecture_code":15},"2045":{"zip_code":"9592045","prefecture":"新潟県","prefecture_kana":"ニイガタケン","city":"阿賀野市","city_kana":"アガノシ","town":"里","town_kana":"サト","prefecture_code":15},"1913":{"zip_code":"9591913","prefecture":"新潟県","prefecture_kana":"ニイガタケン","city":"阿賀野市","city_kana":"アガノシ","town":"沢口","town_kana":"サワグチ","prefecture_code":15},"2211":{"zip_code":"9592211","prefecture":"新潟県","prefecture_kana":"ニイガタケン","city":"阿賀野市","city_kana":"アガノシ","town":"沢田","town_kana":"サワダ","prefecture_code":15},"2205":{"zip_code":"9592205","prefecture":"新潟県","prefecture_kana":"ニイガタケン","city":"阿賀野市","city_kana":"アガノシ","town":"寺社","town_kana":"ジシャ","prefecture_code":15},"2145":{"zip_code":"9592145","prefecture":"新潟県","prefecture_kana":"ニイガタケン","city":"阿賀野市","city_kana":"アガノシ","town":"寺社新","town_kana":"ジシャシン","prefecture_code":15},"2051":{"zip_code":"9592051","prefecture":"新潟県","prefecture_kana":"ニイガタケン","city":"阿賀野市","city_kana":"アガノシ","town":"七石","town_kana":"シチコク","prefecture_code":15},"2225":{"zip_code":"9592225","prefecture":"新潟県","prefecture_kana":"ニイガタケン","city":"阿賀野市","city_kana":"アガノシ","town":"嶋瀬","town_kana":"シマゼ","prefecture_code":15},"1965":{"zip_code":"9591965","prefecture":"新潟県","prefecture_kana":"ニイガタケン","city":"阿賀野市","city_kana":"アガノシ","town":"島田","town_kana":"シマダ","prefecture_code":15},"1912":{"zip_code":"9591912","prefecture":"新潟県","prefecture_kana":"ニイガタケン","city":"阿賀野市","city_kana":"アガノシ","town":"下一分","town_kana":"シモイチブ","prefecture_code":15},"2117":{"zip_code":"9592117","prefecture":"新潟県","prefecture_kana":"ニイガタケン","city":"阿賀野市","city_kana":"アガノシ","town":"下黒瀬","town_kana":"シモクロセ","prefecture_code":15},"2124":{"zip_code":"9592124","prefecture":"新潟県","prefecture_kana":"ニイガタケン","city":"阿賀野市","city_kana":"アガノシ","town":"下ノ橋","town_kana":"シモノハシ","prefecture_code":15},"1951":{"zip_code":"9591951","prefecture":"新潟県","prefecture_kana":"ニイガタケン","city":"阿賀野市","city_kana":"アガノシ","town":"下福岡","town_kana":"シモフクオカ","prefecture_code":15},"1952":{"zip_code":"9591952","prefecture":"新潟県","prefecture_kana":"ニイガタケン","city":"阿賀野市","city_kana":"アガノシ","town":"下山屋","town_kana":"シモヤマヤ","prefecture_code":15},"1936":{"zip_code":"9591936","prefecture":"新潟県","prefecture_kana":"ニイガタケン","city":"阿賀野市","city_kana":"アガノシ","town":"十二神","town_kana":"ジュウニシン","prefecture_code":15},"2114":{"zip_code":"9592114","prefecture":"新潟県","prefecture_kana":"ニイガタケン","city":"阿賀野市","city_kana":"アガノシ","town":"城","town_kana":"ジョウ","prefecture_code":15},"2046":{"zip_code":"9592046","prefecture":"新潟県","prefecture_kana":"ニイガタケン","city":"阿賀野市","city_kana":"アガノシ","town":"庄ケ宮","town_kana":"ショウガミヤ","prefecture_code":15},"1943":{"zip_code":"9591943","prefecture":"新潟県","prefecture_kana":"ニイガタケン","city":"阿賀野市","city_kana":"アガノシ","town":"次郎丸","town_kana":"ジロウマル","prefecture_code":15},"1925":{"zip_code":"9591925","prefecture":"新潟県","prefecture_kana":"ニイガタケン","city":"阿賀野市","city_kana":"アガノシ","town":"真光寺ヴィレッジ","town_kana":"シンコウジヴィレッジ","prefecture_code":15},"2086":{"zip_code":"9592086","prefecture":"新潟県","prefecture_kana":"ニイガタケン","city":"阿賀野市","city_kana":"アガノシ","town":"新座","town_kana":"シンザ","prefecture_code":15},"2217":{"zip_code":"9592217","prefecture":"新潟県","prefecture_kana":"ニイガタケン","city":"阿賀野市","city_kana":"アガノシ","town":"新保","town_kana":"シンボ","prefecture_code":15},"2013":{"zip_code":"9592013","prefecture":"新潟県","prefecture_kana":"ニイガタケン","city":"阿賀野市","city_kana":"アガノシ","town":"水原","town_kana":"スイバラ","prefecture_code":15},"1956":{"zip_code":"9591956","prefecture":"新潟県","prefecture_kana":"ニイガタケン","city":"阿賀野市","city_kana":"アガノシ","town":"須走","town_kana":"スバシリ","prefecture_code":15},"2144":{"zip_code":"9592144","prefecture":"新潟県","prefecture_kana":"ニイガタケン","city":"阿賀野市","city_kana":"アガノシ","town":"清野","town_kana":"セイノ","prefecture_code":15},"2133":{"zip_code":"9592133","prefecture":"新潟県","prefecture_kana":"ニイガタケン","city":"阿賀野市","city_kana":"アガノシ","town":"関屋","town_kana":"セキヤ","prefecture_code":15},"2224":{"zip_code":"9592224","prefecture":"新潟県","prefecture_kana":"ニイガタケン","city":"阿賀野市","city_kana":"アガノシ","town":"千唐仁","town_kana":"セントウジ","prefecture_code":15},"2112":{"zip_code":"9592112","prefecture":"新潟県","prefecture_kana":"ニイガタケン","city":"阿賀野市","city_kana":"アガノシ","town":"曽郷","town_kana":"ソウゴウ","prefecture_code":15},"1929":{"zip_code":"9591929","prefecture":"新潟県","prefecture_kana":"ニイガタケン","city":"阿賀野市","city_kana":"アガノシ","town":"大日","town_kana":"ダイニチ","prefecture_code":15},"1971":{"zip_code":"9591971","prefecture":"新潟県","prefecture_kana":"ニイガタケン","city":"阿賀野市","city_kana":"アガノシ","town":"高田","town_kana":"タカダ","prefecture_code":15},"1905":{"zip_code":"9591905","prefecture":"新潟県","prefecture_kana":"ニイガタケン","city":"阿賀野市","city_kana":"アガノシ","town":"滝沢","town_kana":"タキサワ","prefecture_code":15},"2052":{"zip_code":"9592052","prefecture":"新潟県","prefecture_kana":"ニイガタケン","city":"阿賀野市","city_kana":"アガノシ","town":"田中","town_kana":"タナカ","prefecture_code":15},"2115":{"zip_code":"9592115","prefecture":"新潟県","prefecture_kana":"ニイガタケン","city":"阿賀野市","city_kana":"アガノシ","town":"田山","town_kana":"タヤマ","prefecture_code":15},"2021":{"zip_code":"9592021","prefecture":"新潟県","prefecture_kana":"ニイガタケン","city":"阿賀野市","city_kana":"アガノシ","town":"中央町","town_kana":"チュウオウチョウ","prefecture_code":15},"2011":{"zip_code":"9592011","prefecture":"新潟県","prefecture_kana":"ニイガタケン","city":"阿賀野市","city_kana":"アガノシ","town":"千原","town_kana":"チワラ","prefecture_code":15},"1966":{"zip_code":"9591966","prefecture":"新潟県","prefecture_kana":"ニイガタケン","city":"阿賀野市","city_kana":"アガノシ","town":"塚田","town_kana":"ツカダ","prefecture_code":15},"2131":{"zip_code":"9592131","prefecture":"新潟県","prefecture_kana":"ニイガタケン","city":"阿賀野市","city_kana":"アガノシ","town":"月崎","town_kana":"ツキザキ","prefecture_code":15},"1917":{"zip_code":"9591917","prefecture":"新潟県","prefecture_kana":"ニイガタケン","city":"阿賀野市","city_kana":"アガノシ","town":"堤","town_kana":"ツツミ","prefecture_code":15},"1926":{"zip_code":"9591926","prefecture":"新潟県","prefecture_kana":"ニイガタケン","city":"阿賀野市","city_kana":"アガノシ","town":"出湯","town_kana":"デユ","prefecture_code":15},"2012":{"zip_code":"9592012","prefecture":"新潟県","prefecture_kana":"ニイガタケン","city":"阿賀野市","city_kana":"アガノシ","town":"天神堂","town_kana":"テンジンドウ","prefecture_code":15},"2022":{"zip_code":"9592022","prefecture":"新潟県","prefecture_kana":"ニイガタケン","city":"阿賀野市","city_kana":"アガノシ","town":"外城町","town_kana":"トジョウチョウ","prefecture_code":15},"2063":{"zip_code":"9592063","prefecture":"新潟県","prefecture_kana":"ニイガタケン","city":"阿賀野市","city_kana":"アガノシ","town":"土橋","town_kana":"ドバシ","prefecture_code":15},"1911":{"zip_code":"9591911","prefecture":"新潟県","prefecture_kana":"ニイガタケン","city":"阿賀野市","city_kana":"アガノシ","town":"長起","town_kana":"ナガオキ","prefecture_code":15},"2066":{"zip_code":"9592066","prefecture":"新潟県","prefecture_kana":"ニイガタケン","city":"阿賀野市","city_kana":"アガノシ","town":"中潟","town_kana":"ナカガタ","prefecture_code":15},"2024":{"zip_code":"9592024","prefecture":"新潟県","prefecture_kana":"ニイガタケン","city":"阿賀野市","city_kana":"アガノシ","town":"中島町","town_kana":"ナカジマチョウ","prefecture_code":15},"1901":{"zip_code":"9591901","prefecture":"新潟県","prefecture_kana":"ニイガタケン","city":"阿賀野市","city_kana":"アガノシ","town":"中ノ通","town_kana":"ナカノトオリ","prefecture_code":15},"1934":{"zip_code":"9591934","prefecture":"新潟県","prefecture_kana":"ニイガタケン","city":"阿賀野市","city_kana":"アガノシ","town":"七浦","town_kana":"ナナウラ","prefecture_code":15},"2141":{"zip_code":"9592141","prefecture":"新潟県","prefecture_kana":"ニイガタケン","city":"阿賀野市","city_kana":"アガノシ","town":"七島","town_kana":"ナナシマ","prefecture_code":15},"2072":{"zip_code":"9592072","prefecture":"新潟県","prefecture_kana":"ニイガタケン","city":"阿賀野市","city_kana":"アガノシ","town":"西岡","town_kana":"ニシオカ","prefecture_code":15},"2223":{"zip_code":"9592223","prefecture":"新潟県","prefecture_kana":"ニイガタケン","city":"阿賀野市","city_kana":"アガノシ","town":"布目","town_kana":"ヌノメ","prefecture_code":15},"2111":{"zip_code":"9592111","prefecture":"新潟県","prefecture_kana":"ニイガタケン","city":"阿賀野市","city_kana":"アガノシ","town":"猫山","town_kana":"ネコヤマ","prefecture_code":15},"2226":{"zip_code":"9592226","prefecture":"新潟県","prefecture_kana":"ニイガタケン","city":"阿賀野市","city_kana":"アガノシ","town":"野田","town_kana":"ノダ","prefecture_code":15},"1958":{"zip_code":"9591958","prefecture":"新潟県","prefecture_kana":"ニイガタケン","city":"阿賀野市","city_kana":"アガノシ","town":"野村","town_kana":"ノムラ","prefecture_code":15},"1941":{"zip_code":"9591941","prefecture":"新潟県","prefecture_kana":"ニイガタケン","city":"阿賀野市","city_kana":"アガノシ","town":"羽黒","town_kana":"ハグロ","prefecture_code":15},"2142":{"zip_code":"9592142","prefecture":"新潟県","prefecture_kana":"ニイガタケン","city":"阿賀野市","city_kana":"アガノシ","town":"箸木免","town_kana":"ハシキメン","prefecture_code":15},"1924":{"zip_code":"9591924","prefecture":"新潟県","prefecture_kana":"ニイガタケン","city":"阿賀野市","city_kana":"アガノシ","town":"畑江","town_kana":"ハタエ","prefecture_code":15},"2201":{"zip_code":"9592201","prefecture":"新潟県","prefecture_kana":"ニイガタケン","city":"阿賀野市","city_kana":"アガノシ","town":"羽多屋","town_kana":"ハタヤ","prefecture_code":15},"2041":{"zip_code":"9592041","prefecture":"新潟県","prefecture_kana":"ニイガタケン","city":"阿賀野市","city_kana":"アガノシ","town":"原","town_kana":"ハラ","prefecture_code":15},"2075":{"zip_code":"9592075","prefecture":"新潟県","prefecture_kana":"ニイガタケン","city":"阿賀野市","city_kana":"アガノシ","town":"東町","town_kana":"ヒガシマチ","prefecture_code":15},"2023":{"zip_code":"9592023","prefecture":"新潟県","prefecture_kana":"ニイガタケン","city":"阿賀野市","city_kana":"アガノシ","town":"日の出町","town_kana":"ヒノデチョウ","prefecture_code":15},"2107":{"zip_code":"9592107","prefecture":"新潟県","prefecture_kana":"ニイガタケン","city":"阿賀野市","city_kana":"アガノシ","town":"深堀","town_kana":"フカホリ","prefecture_code":15},"2049":{"zip_code":"9592049","prefecture":"新潟県","prefecture_kana":"ニイガタケン","city":"阿賀野市","city_kana":"アガノシ","town":"深町","town_kana":"フカマチ","prefecture_code":15},"1937":{"zip_code":"9591937","prefecture":"新潟県","prefecture_kana":"ニイガタケン","city":"阿賀野市","city_kana":"アガノシ","town":"福井","town_kana":"フクイ","prefecture_code":15},"2064":{"zip_code":"9592064","prefecture":"新潟県","prefecture_kana":"ニイガタケン","city":"阿賀野市","city_kana":"アガノシ","town":"福田","town_kana":"フクダ","prefecture_code":15},"2204":{"zip_code":"9592204","prefecture":"新潟県","prefecture_kana":"ニイガタケン","city":"阿賀野市","city_kana":"アガノシ","town":"福永","town_kana":"フクナガ","prefecture_code":15},"1903":{"zip_code":"9591903","prefecture":"新潟県","prefecture_kana":"ニイガタケン","city":"阿賀野市","city_kana":"アガノシ","town":"藤屋","town_kana":"フジヤ","prefecture_code":15},"1976":{"zip_code":"9591976","prefecture":"新潟県","prefecture_kana":"ニイガタケン","city":"阿賀野市","city_kana":"アガノシ","town":"船居","town_kana":"フナイ","prefecture_code":15},"2074":{"zip_code":"9592074","prefecture":"新潟県","prefecture_kana":"ニイガタケン","city":"阿賀野市","city_kana":"アガノシ","town":"分田","town_kana":"ブンダ","prefecture_code":15},"2106":{"zip_code":"9592106","prefecture":"新潟県","prefecture_kana":"ニイガタケン","city":"阿賀野市","city_kana":"アガノシ","town":"法柳","town_kana":"ホウヤギ","prefecture_code":15},"2104":{"zip_code":"9592104","prefecture":"新潟県","prefecture_kana":"ニイガタケン","city":"阿賀野市","city_kana":"アガノシ","town":"法柳新田","town_kana":"ホウヤギシンデン","prefecture_code":15},"1953":{"zip_code":"9591953","prefecture":"新潟県","prefecture_kana":"ニイガタケン","city":"阿賀野市","city_kana":"アガノシ","town":"発久","town_kana":"ホッキュウ","prefecture_code":15},"2055":{"zip_code":"9592055","prefecture":"新潟県","prefecture_kana":"ニイガタケン","city":"阿賀野市","city_kana":"アガノシ","town":"堀越","town_kana":"ホリコシ","prefecture_code":15},"1967":{"zip_code":"9591967","prefecture":"新潟県","prefecture_kana":"ニイガタケン","city":"阿賀野市","city_kana":"アガノシ","town":"本明","town_kana":"ホンミョウ","prefecture_code":15},"1954":{"zip_code":"9591954","prefecture":"新潟県","prefecture_kana":"ニイガタケン","city":"阿賀野市","city_kana":"アガノシ","town":"蒔田","town_kana":"マイタ","prefecture_code":15},"2132":{"zip_code":"9592132","prefecture":"新潟県","prefecture_kana":"ニイガタケン","city":"阿賀野市","city_kana":"アガノシ","town":"前山","town_kana":"マエヤマ","prefecture_code":15},"2056":{"zip_code":"9592056","prefecture":"新潟県","prefecture_kana":"ニイガタケン","city":"阿賀野市","city_kana":"アガノシ","town":"牧島","town_kana":"マキシマ","prefecture_code":15},"2203":{"zip_code":"9592203","prefecture":"新潟県","prefecture_kana":"ニイガタケン","city":"阿賀野市","city_kana":"アガノシ","town":"丸山","town_kana":"マルヤマ","prefecture_code":15},"2071":{"zip_code":"9592071","prefecture":"新潟県","prefecture_kana":"ニイガタケン","city":"阿賀野市","city_kana":"アガノシ","town":"水ケ曽根","town_kana":"ミズガソネ","prefecture_code":15},"2006":{"zip_code":"9592006","prefecture":"新潟県","prefecture_kana":"ニイガタケン","city":"阿賀野市","city_kana":"アガノシ","town":"みそら野町","town_kana":"ミソラノチョウ","prefecture_code":15},"2113":{"zip_code":"9592113","prefecture":"新潟県","prefecture_kana":"ニイガタケン","city":"阿賀野市","city_kana":"アガノシ","town":"緑岡","town_kana":"ミドリオカ","prefecture_code":15},"2034":{"zip_code":"9592034","prefecture":"新潟県","prefecture_kana":"ニイガタケン","city":"阿賀野市","city_kana":"アガノシ","town":"緑町","town_kana":"ミドリチョウ","prefecture_code":15},"2004":{"zip_code":"9592004","prefecture":"新潟県","prefecture_kana":"ニイガタケン","city":"阿賀野市","city_kana":"アガノシ","town":"南安野町","town_kana":"ミナミアンノチョウ","prefecture_code":15},"1963":{"zip_code":"9591963","prefecture":"新潟県","prefecture_kana":"ニイガタケン","city":"阿賀野市","city_kana":"アガノシ","town":"南沖山","town_kana":"ミナミオキヤマ","prefecture_code":15},"1948":{"zip_code":"9591948","prefecture":"新潟県","prefecture_kana":"ニイガタケン","city":"阿賀野市","city_kana":"アガノシ","town":"宮島","town_kana":"ミヤジマ","prefecture_code":15},"1947":{"zip_code":"9591947","prefecture":"新潟県","prefecture_kana":"ニイガタケン","city":"阿賀野市","city_kana":"アガノシ","town":"宮下","town_kana":"ミヤノシタ","prefecture_code":15},"2130":{"zip_code":"9592130","prefecture":"新潟県","prefecture_kana":"ニイガタケン","city":"阿賀野市","city_kana":"アガノシ","town":"六日野","town_kana":"ムイカノ","prefecture_code":15},"1910":{"zip_code":"9591910","prefecture":"新潟県","prefecture_kana":"ニイガタケン","city":"阿賀野市","city_kana":"アガノシ","town":"向中ノ通","town_kana":"ムカイナカノトオリ","prefecture_code":15},"1906":{"zip_code":"9591906","prefecture":"新潟県","prefecture_kana":"ニイガタケン","city":"阿賀野市","city_kana":"アガノシ","town":"村岡","town_kana":"ムラオカ","prefecture_code":15},"1928":{"zip_code":"9591928","prefecture":"新潟県","prefecture_kana":"ニイガタケン","city":"阿賀野市","city_kana":"アガノシ","town":"村杉","town_kana":"ムラスギ","prefecture_code":15},"2037":{"zip_code":"9592037","prefecture":"新潟県","prefecture_kana":"ニイガタケン","city":"阿賀野市","city_kana":"アガノシ","town":"百津","town_kana":"モモヅ","prefecture_code":15},"2033":{"zip_code":"9592033","prefecture":"新潟県","prefecture_kana":"ニイガタケン","city":"阿賀野市","city_kana":"アガノシ","town":"百津町","town_kana":"モモヅチョウ","prefecture_code":15},"2221":{"zip_code":"9592221","prefecture":"新潟県","prefecture_kana":"ニイガタケン","city":"阿賀野市","city_kana":"アガノシ","town":"保田","town_kana":"ヤスダ","prefecture_code":15},"2057":{"zip_code":"9592057","prefecture":"新潟県","prefecture_kana":"ニイガタケン","city":"阿賀野市","city_kana":"アガノシ","town":"野地城","town_kana":"ヤチジョウ","prefecture_code":15},"2007":{"zip_code":"9592007","prefecture":"新潟県","prefecture_kana":"ニイガタケン","city":"阿賀野市","city_kana":"アガノシ","town":"山口","town_kana":"ヤマグチ","prefecture_code":15},"2005":{"zip_code":"9592005","prefecture":"新潟県","prefecture_kana":"ニイガタケン","city":"阿賀野市","city_kana":"アガノシ","town":"山口町","town_kana":"ヤマグチチョウ","prefecture_code":15},"1961":{"zip_code":"9591961","prefecture":"新潟県","prefecture_kana":"ニイガタケン","city":"阿賀野市","city_kana":"アガノシ","town":"山倉","town_kana":"ヤマクラ","prefecture_code":15},"1972":{"zip_code":"9591972","prefecture":"新潟県","prefecture_kana":"ニイガタケン","city":"阿賀野市","city_kana":"アガノシ","town":"山倉新田","town_kana":"ヤマクラシンデン","prefecture_code":15},"1919":{"zip_code":"9591919","prefecture":"新潟県","prefecture_kana":"ニイガタケン","city":"阿賀野市","city_kana":"アガノシ","town":"山崎","town_kana":"ヤマザキ","prefecture_code":15},"1931":{"zip_code":"9591931","prefecture":"新潟県","prefecture_kana":"ニイガタケン","city":"阿賀野市","city_kana":"アガノシ","town":"山寺","town_kana":"ヤマデラ","prefecture_code":15},"2085":{"zip_code":"9592085","prefecture":"新潟県","prefecture_kana":"ニイガタケン","city":"阿賀野市","city_kana":"アガノシ","town":"山本新","town_kana":"ヤマモトシン","prefecture_code":15},"1922":{"zip_code":"9591922","prefecture":"新潟県","prefecture_kana":"ニイガタケン","city":"阿賀野市","city_kana":"アガノシ","town":"湯沢","town_kana":"ユサワ","prefecture_code":15},"1957":{"zip_code":"9591957","prefecture":"新潟県","prefecture_kana":"ニイガタケン","city":"阿賀野市","city_kana":"アガノシ","town":"横山","town_kana":"ヨコヤマ","prefecture_code":15},"2215":{"zip_code":"9592215","prefecture":"新潟県","prefecture_kana":"ニイガタケン","city":"阿賀野市","city_kana":"アガノシ","town":"六野瀬","town_kana":"ロクノセ","prefecture_code":15},"2036":{"zip_code":"9592036","prefecture":"新潟県","prefecture_kana":"ニイガタケン","city":"阿賀野市","city_kana":"アガノシ","town":"若葉町","town_kana":"ワカバチョウ","prefecture_code":15},"2216":{"zip_code":"9592216","prefecture":"新潟県","prefecture_kana":"ニイガタケン","city":"阿賀野市","city_kana":"アガノシ","town":"渡場","town_kana":"ワタリバ","prefecture_code":15},"2600":{"zip_code":"9592600","prefecture":"新潟県","prefecture_kana":"ニイガタケン","city":"胎内市","city_kana":"タイナイシ","town":"","town_kana":"","prefecture_code":15},"2661":{"zip_code":"9592661","prefecture":"新潟県","prefecture_kana":"ニイガタケン","city":"胎内市","city_kana":"タイナイシ","town":"赤川","town_kana":"アカガワ","prefecture_code":15},"2659":{"zip_code":"9592659","prefecture":"新潟県","prefecture_kana":"ニイガタケン","city":"胎内市","city_kana":"タイナイシ","town":"あかね町","town_kana":"アカネチョウ","prefecture_code":15},"2823":{"zip_code":"9592823","prefecture":"新潟県","prefecture_kana":"ニイガタケン","city":"胎内市","city_kana":"タイナイシ","town":"熱田坂","town_kana":"アツタザカ","prefecture_code":15},"2609":{"zip_code":"9592609","prefecture":"新潟県","prefecture_kana":"ニイガタケン","city":"胎内市","city_kana":"タイナイシ","town":"荒井浜","town_kana":"アライハマ","prefecture_code":15},"2626":{"zip_code":"9592626","prefecture":"新潟県","prefecture_kana":"ニイガタケン","city":"胎内市","city_kana":"タイナイシ","town":"飯角","town_kana":"イイズミ","prefecture_code":15},"2657":{"zip_code":"9592657","prefecture":"新潟県","prefecture_kana":"ニイガタケン","city":"胎内市","city_kana":"タイナイシ","town":"江上","town_kana":"エガミ","prefecture_code":15},"2605":{"zip_code":"9592605","prefecture":"新潟県","prefecture_kana":"ニイガタケン","city":"胎内市","city_kana":"タイナイシ","town":"江尻","town_kana":"エジリ","prefecture_code":15},"2622":{"zip_code":"9592622","prefecture":"新潟県","prefecture_kana":"ニイガタケン","city":"胎内市","city_kana":"タイナイシ","town":"追分","town_kana":"オイワケ","prefecture_code":15},"2801":{"zip_code":"9592801","prefecture":"新潟県","prefecture_kana":"ニイガタケン","city":"胎内市","city_kana":"タイナイシ","town":"近江新","town_kana":"オウミシン","prefecture_code":15},"2604":{"zip_code":"9592604","prefecture":"新潟県","prefecture_kana":"ニイガタケン","city":"胎内市","city_kana":"タイナイシ","town":"大出","town_kana":"オオイデ","prefecture_code":15},"2644":{"zip_code":"9592644","prefecture":"新潟県","prefecture_kana":"ニイガタケン","city":"胎内市","city_kana":"タイナイシ","town":"大川町","town_kana":"オオカワチョウ","prefecture_code":15},"2665":{"zip_code":"9592665","prefecture":"新潟県","prefecture_kana":"ニイガタケン","city":"胎内市","city_kana":"タイナイシ","town":"大塚","town_kana":"オオツカ","prefecture_code":15},"2813":{"zip_code":"9592813","prefecture":"新潟県","prefecture_kana":"ニイガタケン","city":"胎内市","city_kana":"タイナイシ","town":"大長谷","town_kana":"オオナガタニ","prefecture_code":15},"2612":{"zip_code":"9592612","prefecture":"新潟県","prefecture_kana":"ニイガタケン","city":"胎内市","city_kana":"タイナイシ","town":"小地谷","town_kana":"オジヤ","prefecture_code":15},"2631":{"zip_code":"9592631","prefecture":"新潟県","prefecture_kana":"ニイガタケン","city":"胎内市","city_kana":"タイナイシ","town":"表町","town_kana":"オモテチョウ","prefecture_code":15},"2676":{"zip_code":"9592676","prefecture":"新潟県","prefecture_kana":"ニイガタケン","city":"胎内市","city_kana":"タイナイシ","town":"上城塚","town_kana":"カミジョウヅカ","prefecture_code":15},"2724":{"zip_code":"9592724","prefecture":"新潟県","prefecture_kana":"ニイガタケン","city":"胎内市","city_kana":"タイナイシ","town":"北成田","town_kana":"キタナリタ","prefecture_code":15},"2647":{"zip_code":"9592647","prefecture":"新潟県","prefecture_kana":"ニイガタケン","city":"胎内市","city_kana":"タイナイシ","town":"北本町","town_kana":"キタホンチョウ","prefecture_code":15},"2802":{"zip_code":"9592802","prefecture":"新潟県","prefecture_kana":"ニイガタケン","city":"胎内市","city_kana":"タイナイシ","town":"切田","town_kana":"キッタ","prefecture_code":15},"2602":{"zip_code":"9592602","prefecture":"新潟県","prefecture_kana":"ニイガタケン","city":"胎内市","city_kana":"タイナイシ","town":"乙","town_kana":"キノト","prefecture_code":15},"2652":{"zip_code":"9592652","prefecture":"新潟県","prefecture_kana":"ニイガタケン","city":"胎内市","city_kana":"タイナイシ","town":"協和町","town_kana":"キョウワチョウ","prefecture_code":15},"2663":{"zip_code":"9592663","prefecture":"新潟県","prefecture_kana":"ニイガタケン","city":"胎内市","city_kana":"タイナイシ","town":"草野","town_kana":"クサノ","prefecture_code":15},"2653":{"zip_code":"9592653","prefecture":"新潟県","prefecture_kana":"ニイガタケン","city":"胎内市","city_kana":"タイナイシ","town":"倉敷町","town_kana":"クラシキチョウ","prefecture_code":15},"2827":{"zip_code":"9592827","prefecture":"新潟県","prefecture_kana":"ニイガタケン","city":"胎内市","city_kana":"タイナイシ","town":"栗木野新田","town_kana":"クリキノシンデン","prefecture_code":15},"2807":{"zip_code":"9592807","prefecture":"新潟県","prefecture_kana":"ニイガタケン","city":"胎内市","city_kana":"タイナイシ","town":"黒川","town_kana":"クロカワ","prefecture_code":15},"2814":{"zip_code":"9592814","prefecture":"新潟県","prefecture_kana":"ニイガタケン","city":"胎内市","city_kana":"タイナイシ","town":"黒俣","town_kana":"クロマタ","prefecture_code":15},"2811":{"zip_code":"9592811","prefecture":"新潟県","prefecture_kana":"ニイガタケン","city":"胎内市","city_kana":"タイナイシ","town":"鍬江","town_kana":"クワエ","prefecture_code":15},"2705":{"zip_code":"9592705","prefecture":"新潟県","prefecture_kana":"ニイガタケン","city":"胎内市","city_kana":"タイナイシ","town":"鴻ノ巣","town_kana":"コウノス","prefecture_code":15},"2721":{"zip_code":"9592721","prefecture":"新潟県","prefecture_kana":"ニイガタケン","city":"胎内市","city_kana":"タイナイシ","town":"苔実","town_kana":"コケノミ","prefecture_code":15},"2812":{"zip_code":"9592812","prefecture":"新潟県","prefecture_kana":"ニイガタケン","city":"胎内市","city_kana":"タイナイシ","town":"小長谷","town_kana":"コナガタニ","prefecture_code":15},"2674":{"zip_code":"9592674","prefecture":"新潟県","prefecture_kana":"ニイガタケン","city":"胎内市","city_kana":"タイナイシ","town":"小舟戸","town_kana":"コブナト","prefecture_code":15},"2634":{"zip_code":"9592634","prefecture":"新潟県","prefecture_kana":"ニイガタケン","city":"胎内市","city_kana":"タイナイシ","town":"小牧台","town_kana":"コマキダイ","prefecture_code":15},"2803":{"zip_code":"9592803","prefecture":"新潟県","prefecture_kana":"ニイガタケン","city":"胎内市","city_kana":"タイナイシ","town":"蔵王","town_kana":"ザオウ","prefecture_code":15},"2825":{"zip_code":"9592825","prefecture":"新潟県","prefecture_kana":"ニイガタケン","city":"胎内市","city_kana":"タイナイシ","town":"坂井","town_kana":"サカイ","prefecture_code":15},"2701":{"zip_code":"9592701","prefecture":"新潟県","prefecture_kana":"ニイガタケン","city":"胎内市","city_kana":"タイナイシ","town":"笹口浜","town_kana":"ササグチハマ","prefecture_code":15},"2706":{"zip_code":"9592706","prefecture":"新潟県","prefecture_kana":"ニイガタケン","city":"胎内市","city_kana":"タイナイシ","town":"山王","town_kana":"サンノウ","prefecture_code":15},"2804":{"zip_code":"9592804","prefecture":"新潟県","prefecture_kana":"ニイガタケン","city":"胎内市","city_kana":"タイナイシ","town":"塩沢","town_kana":"シオザワ","prefecture_code":15},"2669":{"zip_code":"9592669","prefecture":"新潟県","prefecture_kana":"ニイガタケン","city":"胎内市","city_kana":"タイナイシ","town":"塩津","town_kana":"シオヅ","prefecture_code":15},"2664":{"zip_code":"9592664","prefecture":"新潟県","prefecture_kana":"ニイガタケン","city":"胎内市","city_kana":"タイナイシ","town":"柴橋","town_kana":"シバハシ","prefecture_code":15},"2806":{"zip_code":"9592806","prefecture":"新潟県","prefecture_kana":"ニイガタケン","city":"胎内市","city_kana":"タイナイシ","town":"下赤谷","town_kana":"シモアカダニ","prefecture_code":15},"2816":{"zip_code":"9592816","prefecture":"新潟県","prefecture_kana":"ニイガタケン","city":"胎内市","city_kana":"タイナイシ","town":"下荒沢","town_kana":"シモアラサワ","prefecture_code":15},"2809":{"zip_code":"9592809","prefecture":"新潟県","prefecture_kana":"ニイガタケン","city":"胎内市","city_kana":"タイナイシ","town":"下江端","town_kana":"シモエバタ","prefecture_code":15},"2677":{"zip_code":"9592677","prefecture":"新潟県","prefecture_kana":"ニイガタケン","city":"胎内市","city_kana":"タイナイシ","town":"下城塚","town_kana":"シモジョウヅカ","prefecture_code":15},"2707":{"zip_code":"9592707","prefecture":"新潟県","prefecture_kana":"ニイガタケン","city":"胎内市","city_kana":"タイナイシ","town":"下高田","town_kana":"シモタカダ","prefecture_code":15},"2805":{"zip_code":"9592805","prefecture":"新潟県","prefecture_kana":"ニイガタケン","city":"胎内市","city_kana":"タイナイシ","town":"下館","town_kana":"シモタテ","prefecture_code":15},"2607":{"zip_code":"9592607","prefecture":"新潟県","prefecture_kana":"ニイガタケン","city":"胎内市","city_kana":"タイナイシ","town":"地本","town_kana":"ジモト","prefecture_code":15},"2619":{"zip_code":"9592619","prefecture":"新潟県","prefecture_kana":"ニイガタケン","city":"胎内市","city_kana":"タイナイシ","town":"十二天","town_kana":"ジュウニテン","prefecture_code":15},"2632":{"zip_code":"9592632","prefecture":"新潟県","prefecture_kana":"ニイガタケン","city":"胎内市","city_kana":"タイナイシ","town":"新栄町","town_kana":"シンエイチョウ","prefecture_code":15},"2666":{"zip_code":"9592666","prefecture":"新潟県","prefecture_kana":"ニイガタケン","city":"胎内市","city_kana":"タイナイシ","town":"新舘","town_kana":"シンダテ","prefecture_code":15},"2642":{"zip_code":"9592642","prefecture":"新潟県","prefecture_kana":"ニイガタケン","city":"胎内市","city_kana":"タイナイシ","town":"新和町","town_kana":"シンワチョウ","prefecture_code":15},"2603":{"zip_code":"9592603","prefecture":"新潟県","prefecture_kana":"ニイガタケン","city":"胎内市","city_kana":"タイナイシ","town":"菅田","town_kana":"スゲタ","prefecture_code":15},"2817":{"zip_code":"9592817","prefecture":"新潟県","prefecture_kana":"ニイガタケン","city":"胎内市","city_kana":"タイナイシ","town":"須巻","town_kana":"スマキ","prefecture_code":15},"2648":{"zip_code":"9592648","prefecture":"新潟県","prefecture_kana":"ニイガタケン","city":"胎内市","city_kana":"タイナイシ","town":"住吉町","town_kana":"スミヨシチョウ","prefecture_code":15},"2633":{"zip_code":"9592633","prefecture":"新潟県","prefecture_kana":"ニイガタケン","city":"胎内市","city_kana":"タイナイシ","town":"関沢","town_kana":"セキザワ","prefecture_code":15},"2618":{"zip_code":"9592618","prefecture":"新潟県","prefecture_kana":"ニイガタケン","city":"胎内市","city_kana":"タイナイシ","town":"高野","town_kana":"タカノ","prefecture_code":15},"2662":{"zip_code":"9592662","prefecture":"新潟県","prefecture_kana":"ニイガタケン","city":"胎内市","city_kana":"タイナイシ","town":"鷹ノ巣","town_kana":"タカノス","prefecture_code":15},"2617":{"zip_code":"9592617","prefecture":"新潟県","prefecture_kana":"ニイガタケン","city":"胎内市","city_kana":"タイナイシ","town":"高野村新田","town_kana":"タカノムラシンデン","prefecture_code":15},"2715":{"zip_code":"9592715","prefecture":"新潟県","prefecture_kana":"ニイガタケン","city":"胎内市","city_kana":"タイナイシ","town":"高橋","town_kana":"タカハシ","prefecture_code":15},"2703":{"zip_code":"9592703","prefecture":"新潟県","prefecture_kana":"ニイガタケン","city":"胎内市","city_kana":"タイナイシ","town":"高畑","town_kana":"タカバタケ","prefecture_code":15},"2722":{"zip_code":"9592722","prefecture":"新潟県","prefecture_kana":"ニイガタケン","city":"胎内市","city_kana":"タイナイシ","town":"竹島","town_kana":"タケシマ","prefecture_code":15},"2712":{"zip_code":"9592712","prefecture":"新潟県","prefecture_kana":"ニイガタケン","city":"胎内市","city_kana":"タイナイシ","town":"築地","town_kana":"ツイジ","prefecture_code":15},"2713":{"zip_code":"9592713","prefecture":"新潟県","prefecture_kana":"ニイガタケン","city":"胎内市","city_kana":"タイナイシ","town":"築地新","town_kana":"ツイジシン","prefecture_code":15},"2616":{"zip_code":"9592616","prefecture":"新潟県","prefecture_kana":"ニイガタケン","city":"胎内市","city_kana":"タイナイシ","town":"土作","town_kana":"ツチヅクリ","prefecture_code":15},"2635":{"zip_code":"9592635","prefecture":"新潟県","prefecture_kana":"ニイガタケン","city":"胎内市","city_kana":"タイナイシ","town":"つつじが丘","town_kana":"ツツジガオカ","prefecture_code":15},"2826":{"zip_code":"9592826","prefecture":"新潟県","prefecture_kana":"ニイガタケン","city":"胎内市","city_kana":"タイナイシ","town":"鼓岡","town_kana":"ツヅミオカ","prefecture_code":15},"2821":{"zip_code":"9592821","prefecture":"新潟県","prefecture_kana":"ニイガタケン","city":"胎内市","city_kana":"タイナイシ","town":"坪穴","town_kana":"ツボアナ","prefecture_code":15},"2808":{"zip_code":"9592808","prefecture":"新潟県","prefecture_kana":"ニイガタケン","city":"胎内市","city_kana":"タイナイシ","town":"東牧","town_kana":"トウボク","prefecture_code":15},"2608":{"zip_code":"9592608","prefecture":"新潟県","prefecture_kana":"ニイガタケン","city":"胎内市","city_kana":"タイナイシ","town":"富岡","town_kana":"トミオカ","prefecture_code":15},"2673":{"zip_code":"9592673","prefecture":"新潟県","prefecture_kana":"ニイガタケン","city":"胎内市","city_kana":"タイナイシ","town":"寅田","town_kana":"トラダ","prefecture_code":15},"2716":{"zip_code":"9592716","prefecture":"新潟県","prefecture_kana":"ニイガタケン","city":"胎内市","city_kana":"タイナイシ","town":"中倉","town_kana":"ナカクラ","prefecture_code":15},"2629":{"zip_code":"9592629","prefecture":"新潟県","prefecture_kana":"ニイガタケン","city":"胎内市","city_kana":"タイナイシ","town":"中条","town_kana":"ナカジョウ","prefecture_code":15},"2637":{"zip_code":"9592637","prefecture":"新潟県","prefecture_kana":"ニイガタケン","city":"胎内市","city_kana":"タイナイシ","town":"長橋","town_kana":"ナガハシ","prefecture_code":15},"2708":{"zip_code":"9592708","prefecture":"新潟県","prefecture_kana":"ニイガタケン","city":"胎内市","city_kana":"タイナイシ","town":"中村浜","town_kana":"ナカムラハマ","prefecture_code":15},"2822":{"zip_code":"9592822","prefecture":"新潟県","prefecture_kana":"ニイガタケン","city":"胎内市","city_kana":"タイナイシ","town":"夏井","town_kana":"ナツイ","prefecture_code":15},"2621":{"zip_code":"9592621","prefecture":"新潟県","prefecture_kana":"ニイガタケン","city":"胎内市","city_kana":"タイナイシ","town":"並槻","town_kana":"ナミツキ","prefecture_code":15},"2623":{"zip_code":"9592623","prefecture":"新潟県","prefecture_kana":"ニイガタケン","city":"胎内市","city_kana":"タイナイシ","town":"仁谷野","town_kana":"ニイダノ","prefecture_code":15},"2667":{"zip_code":"9592667","prefecture":"新潟県","prefecture_kana":"ニイガタケン","city":"胎内市","city_kana":"タイナイシ","town":"西川内","town_kana":"ニシカワウチ","prefecture_code":15},"2646":{"zip_code":"9592646","prefecture":"新潟県","prefecture_kana":"ニイガタケン","city":"胎内市","city_kana":"タイナイシ","town":"西栄町","town_kana":"ニシサカエチョウ","prefecture_code":15},"2658":{"zip_code":"9592658","prefecture":"新潟県","prefecture_kana":"ニイガタケン","city":"胎内市","city_kana":"タイナイシ","town":"西条","town_kana":"ニシジョウ","prefecture_code":15},"2651":{"zip_code":"9592651","prefecture":"新潟県","prefecture_kana":"ニイガタケン","city":"胎内市","city_kana":"タイナイシ","town":"西条町","town_kana":"ニシジョウチョウ","prefecture_code":15},"2656":{"zip_code":"9592656","prefecture":"新潟県","prefecture_kana":"ニイガタケン","city":"胎内市","city_kana":"タイナイシ","town":"西本町","town_kana":"ニシホンチョウ","prefecture_code":15},"2627":{"zip_code":"9592627","prefecture":"新潟県","prefecture_kana":"ニイガタケン","city":"胎内市","city_kana":"タイナイシ","town":"野中","town_kana":"ノナカ","prefecture_code":15},"2624":{"zip_code":"9592624","prefecture":"新潟県","prefecture_kana":"ニイガタケン","city":"胎内市","city_kana":"タイナイシ","town":"羽黒","town_kana":"ハグロ","prefecture_code":15},"2606":{"zip_code":"9592606","prefecture":"新潟県","prefecture_kana":"ニイガタケン","city":"胎内市","city_kana":"タイナイシ","town":"八幡","town_kana":"ハチマン","prefecture_code":15},"2672":{"zip_code":"9592672","prefecture":"新潟県","prefecture_kana":"ニイガタケン","city":"胎内市","city_kana":"タイナイシ","town":"八田","town_kana":"ハッタ","prefecture_code":15},"2625":{"zip_code":"9592625","prefecture":"新潟県","prefecture_kana":"ニイガタケン","city":"胎内市","city_kana":"タイナイシ","town":"半山","town_kana":"ハンヤマ","prefecture_code":15},"2671":{"zip_code":"9592671","prefecture":"新潟県","prefecture_kana":"ニイガタケン","city":"胎内市","city_kana":"タイナイシ","town":"東川内","town_kana":"ヒガシカワウチ","prefecture_code":15},"2643":{"zip_code":"9592643","prefecture":"新潟県","prefecture_kana":"ニイガタケン","city":"胎内市","city_kana":"タイナイシ","town":"東本町","town_kana":"ヒガシホンチョウ","prefecture_code":15},"2614":{"zip_code":"9592614","prefecture":"新潟県","prefecture_kana":"ニイガタケン","city":"胎内市","city_kana":"タイナイシ","town":"平木田","town_kana":"ヒラキダ","prefecture_code":15},"2613":{"zip_code":"9592613","prefecture":"新潟県","prefecture_kana":"ニイガタケン","city":"胎内市","city_kana":"タイナイシ","town":"平木田駅前","town_kana":"ヒラキダエキマエ","prefecture_code":15},"2702":{"zip_code":"9592702","prefecture":"新潟県","prefecture_kana":"ニイガタケン","city":"胎内市","city_kana":"タイナイシ","town":"平根台","town_kana":"ヒラネダイ","prefecture_code":15},"2628":{"zip_code":"9592628","prefecture":"新潟県","prefecture_kana":"ニイガタケン","city":"胎内市","city_kana":"タイナイシ","town":"二葉町","town_kana":"フタバチョウ","prefecture_code":15},"2675":{"zip_code":"9592675","prefecture":"新潟県","prefecture_kana":"ニイガタケン","city":"胎内市","city_kana":"タイナイシ","town":"船戸","town_kana":"フナト","prefecture_code":15},"2636":{"zip_code":"9592636","prefecture":"新潟県","prefecture_kana":"ニイガタケン","city":"胎内市","city_kana":"タイナイシ","town":"星の宮町","town_kana":"ホシノミヤチョウ","prefecture_code":15},"2714":{"zip_code":"9592714","prefecture":"新潟県","prefecture_kana":"ニイガタケン","city":"胎内市","city_kana":"タイナイシ","town":"堀口","town_kana":"ホリグチ","prefecture_code":15},"2655":{"zip_code":"9592655","prefecture":"新潟県","prefecture_kana":"ニイガタケン","city":"胎内市","city_kana":"タイナイシ","town":"本郷","town_kana":"ホンゴウ","prefecture_code":15},"2654":{"zip_code":"9592654","prefecture":"新潟県","prefecture_kana":"ニイガタケン","city":"胎内市","city_kana":"タイナイシ","town":"本郷町","town_kana":"ホンゴウチョウ","prefecture_code":15},"2645":{"zip_code":"9592645","prefecture":"新潟県","prefecture_kana":"ニイガタケン","city":"胎内市","city_kana":"タイナイシ","town":"本町","town_kana":"ホンチョウ","prefecture_code":15},"2638":{"zip_code":"9592638","prefecture":"新潟県","prefecture_kana":"ニイガタケン","city":"胎内市","city_kana":"タイナイシ","town":"水沢町","town_kana":"ミズサワチョウ","prefecture_code":15},"2723":{"zip_code":"9592723","prefecture":"新潟県","prefecture_kana":"ニイガタケン","city":"胎内市","city_kana":"タイナイシ","town":"宮川","town_kana":"ミヤガワ","prefecture_code":15},"2704":{"zip_code":"9592704","prefecture":"新潟県","prefecture_kana":"ニイガタケン","city":"胎内市","city_kana":"タイナイシ","town":"宮瀬","town_kana":"ミヤゼ","prefecture_code":15},"2824":{"zip_code":"9592824","prefecture":"新潟県","prefecture_kana":"ニイガタケン","city":"胎内市","city_kana":"タイナイシ","town":"宮久","town_kana":"ミヤヒサ","prefecture_code":15},"2709":{"zip_code":"9592709","prefecture":"新潟県","prefecture_kana":"ニイガタケン","city":"胎内市","city_kana":"タイナイシ","town":"村松浜","town_kana":"ムラマツハマ","prefecture_code":15},"2815":{"zip_code":"9592815","prefecture":"新潟県","prefecture_kana":"ニイガタケン","city":"胎内市","city_kana":"タイナイシ","town":"持倉","town_kana":"モチクラ","prefecture_code":15},"2601":{"zip_code":"9592601","prefecture":"新潟県","prefecture_kana":"ニイガタケン","city":"胎内市","city_kana":"タイナイシ","town":"桃崎浜","town_kana":"モモザキハマ","prefecture_code":15},"2668":{"zip_code":"9592668","prefecture":"新潟県","prefecture_kana":"ニイガタケン","city":"胎内市","city_kana":"タイナイシ","town":"弥彦岡","town_kana":"ヤヒコオカ","prefecture_code":15},"2611":{"zip_code":"9592611","prefecture":"新潟県","prefecture_kana":"ニイガタケン","city":"胎内市","city_kana":"タイナイシ","town":"山屋","town_kana":"ヤマヤ","prefecture_code":15},"2615":{"zip_code":"9592615","prefecture":"新潟県","prefecture_kana":"ニイガタケン","city":"胎内市","city_kana":"タイナイシ","town":"横道","town_kana":"ヨコミチ","prefecture_code":15},"2641":{"zip_code":"9592641","prefecture":"新潟県","prefecture_kana":"ニイガタケン","city":"胎内市","city_kana":"タイナイシ","town":"若松町","town_kana":"ワカマツチョウ","prefecture_code":15},"0300":{"zip_code":"9590300","prefecture":"新潟県","prefecture_kana":"ニイガタケン","city":"西蒲原郡弥彦村","city_kana":"ニシカンバラグンヤヒコムラ","town":"","town_kana":"","prefecture_code":15},"0311":{"zip_code":"9590311","prefecture":"新潟県","prefecture_kana":"ニイガタケン","city":"西蒲原郡弥彦村","city_kana":"ニシカンバラグンヤヒコムラ","town":"井田","town_kana":"イダ","prefecture_code":15},"0301":{"zip_code":"9590301","prefecture":"新潟県","prefecture_kana":"ニイガタケン","city":"西蒲原郡弥彦村","city_kana":"ニシカンバラグンヤヒコムラ","town":"えび穴","town_kana":"エビアナ","prefecture_code":15},"0308":{"zip_code":"9590308","prefecture":"新潟県","prefecture_kana":"ニイガタケン","city":"西蒲原郡弥彦村","city_kana":"ニシカンバラグンヤヒコムラ","town":"大戸","town_kana":"オオド","prefecture_code":15},"0304":{"zip_code":"9590304","prefecture":"新潟県","prefecture_kana":"ニイガタケン","city":"西蒲原郡弥彦村","city_kana":"ニシカンバラグンヤヒコムラ","town":"荻野","town_kana":"オギノ","prefecture_code":15},"0321":{"zip_code":"9590321","prefecture":"新潟県","prefecture_kana":"ニイガタケン","city":"西蒲原郡弥彦村","city_kana":"ニシカンバラグンヤヒコムラ","town":"上泉","town_kana":"カミイズミ","prefecture_code":15},"0307":{"zip_code":"9590307","prefecture":"新潟県","prefecture_kana":"ニイガタケン","city":"西蒲原郡弥彦村","city_kana":"ニシカンバラグンヤヒコムラ","town":"川崎","town_kana":"カワサキ","prefecture_code":15},"0319":{"zip_code":"9590319","prefecture":"新潟県","prefecture_kana":"ニイガタケン","city":"西蒲原郡弥彦村","city_kana":"ニシカンバラグンヤヒコムラ","town":"観音寺","town_kana":"カンオンジ","prefecture_code":15},"0317":{"zip_code":"9590317","prefecture":"新潟県","prefecture_kana":"ニイガタケン","city":"西蒲原郡弥彦村","city_kana":"ニシカンバラグンヤヒコムラ","town":"境江","town_kana":"サカエ","prefecture_code":15},"0302":{"zip_code":"9590302","prefecture":"新潟県","prefecture_kana":"ニイガタケン","city":"西蒲原郡弥彦村","city_kana":"ニシカンバラグンヤヒコムラ","town":"田中新田","town_kana":"タナカシンデン","prefecture_code":15},"0312":{"zip_code":"9590312","prefecture":"新潟県","prefecture_kana":"ニイガタケン","city":"西蒲原郡弥彦村","city_kana":"ニシカンバラグンヤヒコムラ","town":"中山","town_kana":"ナカヤマ","prefecture_code":15},"0322":{"zip_code":"9590322","prefecture":"新潟県","prefecture_kana":"ニイガタケン","city":"西蒲原郡弥彦村","city_kana":"ニシカンバラグンヤヒコムラ","town":"走出","town_kana":"ハシリデ","prefecture_code":15},"0306":{"zip_code":"9590306","prefecture":"新潟県","prefecture_kana":"ニイガタケン","city":"西蒲原郡弥彦村","city_kana":"ニシカンバラグンヤヒコムラ","town":"浜首","town_kana":"ハマクビ","prefecture_code":15},"0303":{"zip_code":"9590303","prefecture":"新潟県","prefecture_kana":"ニイガタケン","city":"西蒲原郡弥彦村","city_kana":"ニシカンバラグンヤヒコムラ","town":"平野","town_kana":"ヒラノ","prefecture_code":15},"0318":{"zip_code":"9590318","prefecture":"新潟県","prefecture_kana":"ニイガタケン","city":"西蒲原郡弥彦村","city_kana":"ニシカンバラグンヤヒコムラ","town":"麓","town_kana":"フモト","prefecture_code":15},"0315":{"zip_code":"9590315","prefecture":"新潟県","prefecture_kana":"ニイガタケン","city":"西蒲原郡弥彦村","city_kana":"ニシカンバラグンヤヒコムラ","town":"麓村新田","town_kana":"フモトムラシンデン","prefecture_code":15},"0309":{"zip_code":"9590309","prefecture":"新潟県","prefecture_kana":"ニイガタケン","city":"西蒲原郡弥彦村","city_kana":"ニシカンバラグンヤヒコムラ","town":"峰見","town_kana":"ミネミ","prefecture_code":15},"0310":{"zip_code":"9590310","prefecture":"新潟県","prefecture_kana":"ニイガタケン","city":"西蒲原郡弥彦村","city_kana":"ニシカンバラグンヤヒコムラ","town":"美山","town_kana":"ミヤマ","prefecture_code":15},"0316":{"zip_code":"9590316","prefecture":"新潟県","prefecture_kana":"ニイガタケン","city":"西蒲原郡弥彦村","city_kana":"ニシカンバラグンヤヒコムラ","town":"村山","town_kana":"ムラヤマ","prefecture_code":15},"0305":{"zip_code":"9590305","prefecture":"新潟県","prefecture_kana":"ニイガタケン","city":"西蒲原郡弥彦村","city_kana":"ニシカンバラグンヤヒコムラ","town":"矢作","town_kana":"ヤハギ","prefecture_code":15},"0323":{"zip_code":"9590323","prefecture":"新潟県","prefecture_kana":"ニイガタケン","city":"西蒲原郡弥彦村","city_kana":"ニシカンバラグンヤヒコムラ","town":"弥彦","town_kana":"ヤヒコ","prefecture_code":15},"0314":{"zip_code":"9590314","prefecture":"新潟県","prefecture_kana":"ニイガタケン","city":"西蒲原郡弥彦村","city_kana":"ニシカンバラグンヤヒコムラ","town":"山岸","town_kana":"ヤマギシ","prefecture_code":15},"0313":{"zip_code":"9590313","prefecture":"新潟県","prefecture_kana":"ニイガタケン","city":"西蒲原郡弥彦村","city_kana":"ニシカンバラグンヤヒコムラ","town":"山崎","town_kana":"ヤマザキ","prefecture_code":15},"1500":{"zip_code":"9591500","prefecture":"新潟県","prefecture_kana":"ニイガタケン","city":"南蒲原郡田上町","city_kana":"ミナミカンバラグンタガミマチ","town":"","town_kana":"","prefecture_code":15},"1521":{"zip_code":"9591521","prefecture":"新潟県","prefecture_kana":"ニイガタケン","city":"南蒲原郡田上町","city_kana":"ミナミカンバラグンタガミマチ","town":"石田新田","town_kana":"イシダシンデン","prefecture_code":15},"1513":{"zip_code":"9591513","prefecture":"新潟県","prefecture_kana":"ニイガタケン","city":"南蒲原郡田上町","city_kana":"ミナミカンバラグンタガミマチ","town":"川船河","town_kana":"カワフネガワ","prefecture_code":15},"1514":{"zip_code":"9591514","prefecture":"新潟県","prefecture_kana":"ニイガタケン","city":"南蒲原郡田上町","city_kana":"ミナミカンバラグンタガミマチ","town":"坂田","town_kana":"サカタ","prefecture_code":15},"1522":{"zip_code":"9591522","prefecture":"新潟県","prefecture_kana":"ニイガタケン","city":"南蒲原郡田上町","city_kana":"ミナミカンバラグンタガミマチ","town":"千苅新田","town_kana":"センガリシンデン","prefecture_code":15},"1525":{"zip_code":"9591525","prefecture":"新潟県","prefecture_kana":"ニイガタケン","city":"南蒲原郡田上町","city_kana":"ミナミカンバラグンタガミマチ","town":"曽根新田","town_kana":"ソネシンデン","prefecture_code":15},"1502":{"zip_code":"9591502","prefecture":"新潟県","prefecture_kana":"ニイガタケン","city":"南蒲原郡田上町","city_kana":"ミナミカンバラグンタガミマチ","town":"田上","town_kana":"タガミ","prefecture_code":15},"1512":{"zip_code":"9591512","prefecture":"新潟県","prefecture_kana":"ニイガタケン","city":"南蒲原郡田上町","city_kana":"ミナミカンバラグンタガミマチ","town":"羽生田","town_kana":"ハニュウダ","prefecture_code":15},"1503":{"zip_code":"9591503","prefecture":"新潟県","prefecture_kana":"ニイガタケン","city":"南蒲原郡田上町","city_kana":"ミナミカンバラグンタガミマチ","town":"原ケ崎新田","town_kana":"ハラガサキシンデン","prefecture_code":15},"1523":{"zip_code":"9591523","prefecture":"新潟県","prefecture_kana":"ニイガタケン","city":"南蒲原郡田上町","city_kana":"ミナミカンバラグンタガミマチ","town":"保明新田","town_kana":"ホミョウシンデン","prefecture_code":15},"1501":{"zip_code":"9591501","prefecture":"新潟県","prefecture_kana":"ニイガタケン","city":"南蒲原郡田上町","city_kana":"ミナミカンバラグンタガミマチ","town":"湯川","town_kana":"ユガワ","prefecture_code":15},"1524":{"zip_code":"9591524","prefecture":"新潟県","prefecture_kana":"ニイガタケン","city":"南蒲原郡田上町","city_kana":"ミナミカンバラグンタガミマチ","town":"横場新田","town_kana":"ヨコバシンデン","prefecture_code":15},"1511":{"zip_code":"9591511","prefecture":"新潟県","prefecture_kana":"ニイガタケン","city":"南蒲原郡田上町","city_kana":"ミナミカンバラグンタガミマチ","town":"吉田新田","town_kana":"ヨシダシンデン","prefecture_code":15},"4400":{"zip_code":"9594400","prefecture":"新潟県","prefecture_kana":"ニイガタケン","city":"東蒲原郡阿賀町","city_kana":"ヒガシカンバラグンアガマチ","town":"","town_kana":"","prefecture_code":15},"4408":{"zip_code":"9594408","prefecture":"新潟県","prefecture_kana":"ニイガタケン","city":"東蒲原郡阿賀町","city_kana":"ヒガシカンバラグンアガマチ","town":"赤岩","town_kana":"アカイワ","prefecture_code":15},"4621":{"zip_code":"9594621","prefecture":"新潟県","prefecture_kana":"ニイガタケン","city":"東蒲原郡阿賀町","city_kana":"ヒガシカンバラグンアガマチ","town":"あが野北","town_kana":"アガノキタ","prefecture_code":15},"4626":{"zip_code":"9594626","prefecture":"新潟県","prefecture_kana":"ニイガタケン","city":"東蒲原郡阿賀町","city_kana":"ヒガシカンバラグンアガマチ","town":"あが野南","town_kana":"アガノミナミ","prefecture_code":15},"4603":{"zip_code":"9594603","prefecture":"新潟県","prefecture_kana":"ニイガタケン","city":"東蒲原郡阿賀町","city_kana":"ヒガシカンバラグンアガマチ","town":"新谷","town_kana":"アラヤ","prefecture_code":15},"4606":{"zip_code":"9594606","prefecture":"新潟県","prefecture_kana":"ニイガタケン","city":"東蒲原郡阿賀町","city_kana":"ヒガシカンバラグンアガマチ","town":"五十沢","town_kana":"イカザワ","prefecture_code":15},"4614":{"zip_code":"9594614","prefecture":"新潟県","prefecture_kana":"ニイガタケン","city":"東蒲原郡阿賀町","city_kana":"ヒガシカンバラグンアガマチ","town":"五十島","town_kana":"イガシマ","prefecture_code":15},"4632":{"zip_code":"9594632","prefecture":"新潟県","prefecture_kana":"ニイガタケン","city":"東蒲原郡阿賀町","city_kana":"ヒガシカンバラグンアガマチ","town":"石戸","town_kana":"イシト","prefecture_code":15},"4636":{"zip_code":"9594636","prefecture":"新潟県","prefecture_kana":"ニイガタケン","city":"東蒲原郡阿賀町","city_kana":"ヒガシカンバラグンアガマチ","town":"石間","town_kana":"イシマ","prefecture_code":15},"4627":{"zip_code":"9594627","prefecture":"新潟県","prefecture_kana":"ニイガタケン","city":"東蒲原郡阿賀町","city_kana":"ヒガシカンバラグンアガマチ","town":"岩谷","town_kana":"イワヤ","prefecture_code":15},"4405":{"zip_code":"9594405","prefecture":"新潟県","prefecture_kana":"ニイガタケン","city":"東蒲原郡阿賀町","city_kana":"ヒガシカンバラグンアガマチ","town":"上ノ山","town_kana":"ウエノヤマ","prefecture_code":15},"4410":{"zip_code":"9594410","prefecture":"新潟県","prefecture_kana":"ニイガタケン","city":"東蒲原郡阿賀町","city_kana":"ヒガシカンバラグンアガマチ","town":"大牧","town_kana":"オオマキ","prefecture_code":15},"4612":{"zip_code":"9594612","prefecture":"新潟県","prefecture_kana":"ニイガタケン","city":"東蒲原郡阿賀町","city_kana":"ヒガシカンバラグンアガマチ","town":"岡沢","town_kana":"オカザワ","prefecture_code":15},"4525":{"zip_code":"9594525","prefecture":"新潟県","prefecture_kana":"ニイガタケン","city":"東蒲原郡阿賀町","city_kana":"ヒガシカンバラグンアガマチ","town":"小手茂","town_kana":"オテモ","prefecture_code":15},"4302":{"zip_code":"9594302","prefecture":"新潟県","prefecture_kana":"ニイガタケン","city":"東蒲原郡阿賀町","city_kana":"ヒガシカンバラグンアガマチ","town":"鹿瀬","town_kana":"カノセ","prefecture_code":15},"4617":{"zip_code":"9594617","prefecture":"新潟県","prefecture_kana":"ニイガタケン","city":"東蒲原郡阿賀町","city_kana":"ヒガシカンバラグンアガマチ","town":"上島","town_kana":"カミシマ","prefecture_code":15},"4534":{"zip_code":"9594534","prefecture":"新潟県","prefecture_kana":"ニイガタケン","city":"東蒲原郡阿賀町","city_kana":"ヒガシカンバラグンアガマチ","town":"神谷乙","town_kana":"カミタニオツ","prefecture_code":15},"4535":{"zip_code":"9594535","prefecture":"新潟県","prefecture_kana":"ニイガタケン","city":"東蒲原郡阿賀町","city_kana":"ヒガシカンバラグンアガマチ","town":"神谷甲","town_kana":"カミタニコウ","prefecture_code":15},"4533":{"zip_code":"9594533","prefecture":"新潟県","prefecture_kana":"ニイガタケン","city":"東蒲原郡阿賀町","city_kana":"ヒガシカンバラグンアガマチ","town":"神谷丙","town_kana":"カミタニヘイ","prefecture_code":15},"4618":{"zip_code":"9594618","prefecture":"新潟県","prefecture_kana":"ニイガタケン","city":"東蒲原郡阿賀町","city_kana":"ヒガシカンバラグンアガマチ","town":"川口","town_kana":"カワグチ","prefecture_code":15},"4409":{"zip_code":"9594409","prefecture":"新潟県","prefecture_kana":"ニイガタケン","city":"東蒲原郡阿賀町","city_kana":"ヒガシカンバラグンアガマチ","town":"京ノ瀬","town_kana":"キョウノセ","prefecture_code":15},"4501":{"zip_code":"9594501","prefecture":"新潟県","prefecture_kana":"ニイガタケン","city":"東蒲原郡阿賀町","city_kana":"ヒガシカンバラグンアガマチ","town":"九島","town_kana":"クシマ","prefecture_code":15},"4634":{"zip_code":"9594634","prefecture":"新潟県","prefecture_kana":"ニイガタケン","city":"東蒲原郡阿賀町","city_kana":"ヒガシカンバラグンアガマチ","town":"熊渡","town_kana":"クマワタリ","prefecture_code":15},"4406":{"zip_code":"9594406","prefecture":"新潟県","prefecture_kana":"ニイガタケン","city":"東蒲原郡阿賀町","city_kana":"ヒガシカンバラグンアガマチ","town":"雲和田","town_kana":"クモワダ","prefecture_code":15},"4413":{"zip_code":"9594413","prefecture":"新潟県","prefecture_kana":"ニイガタケン","city":"東蒲原郡阿賀町","city_kana":"ヒガシカンバラグンアガマチ","town":"倉ノ平","town_kana":"クラノタイラ","prefecture_code":15},"4623":{"zip_code":"9594623","prefecture":"新潟県","prefecture_kana":"ニイガタケン","city":"東蒲原郡阿賀町","city_kana":"ヒガシカンバラグンアガマチ","town":"黒岩","town_kana":"クロイワ","prefecture_code":15},"4502":{"zip_code":"9594502","prefecture":"新潟県","prefecture_kana":"ニイガタケン","city":"東蒲原郡阿賀町","city_kana":"ヒガシカンバラグンアガマチ","town":"小出","town_kana":"コイデ","prefecture_code":15},"4608":{"zip_code":"9594608","prefecture":"新潟県","prefecture_kana":"ニイガタケン","city":"東蒲原郡阿賀町","city_kana":"ヒガシカンバラグンアガマチ","town":"小花地","town_kana":"コバナチ","prefecture_code":15},"4522":{"zip_code":"9594522","prefecture":"新潟県","prefecture_kana":"ニイガタケン","city":"東蒲原郡阿賀町","city_kana":"ヒガシカンバラグンアガマチ","town":"三宝分乙","town_kana":"サンポウブンオツ","prefecture_code":15},"4521":{"zip_code":"9594521","prefecture":"新潟県","prefecture_kana":"ニイガタケン","city":"東蒲原郡阿賀町","city_kana":"ヒガシカンバラグンアガマチ","town":"三宝分甲","town_kana":"サンポウブンコウ","prefecture_code":15},"4523":{"zip_code":"9594523","prefecture":"新潟県","prefecture_kana":"ニイガタケン","city":"東蒲原郡阿賀町","city_kana":"ヒガシカンバラグンアガマチ","town":"三宝分丙","town_kana":"サンポウブンヘイ","prefecture_code":15},"4622":{"zip_code":"9594622","prefecture":"新潟県","prefecture_kana":"ニイガタケン","city":"東蒲原郡阿賀町","city_kana":"ヒガシカンバラグンアガマチ","town":"白崎","town_kana":"シロサキ","prefecture_code":15},"4512":{"zip_code":"9594512","prefecture":"新潟県","prefecture_kana":"ニイガタケン","city":"東蒲原郡阿賀町","city_kana":"ヒガシカンバラグンアガマチ","town":"大倉乙","town_kana":"ダイクラオツ","prefecture_code":15},"4513":{"zip_code":"9594513","prefecture":"新潟県","prefecture_kana":"ニイガタケン","city":"東蒲原郡阿賀町","city_kana":"ヒガシカンバラグンアガマチ","town":"大倉甲","town_kana":"ダイクラコウ","prefecture_code":15},"4416":{"zip_code":"9594416","prefecture":"新潟県","prefecture_kana":"ニイガタケン","city":"東蒲原郡阿賀町","city_kana":"ヒガシカンバラグンアガマチ","town":"田沢","town_kana":"タザワ","prefecture_code":15},"4402":{"zip_code":"9594402","prefecture":"新潟県","prefecture_kana":"ニイガタケン","city":"東蒲原郡阿賀町","city_kana":"ヒガシカンバラグンアガマチ","town":"津川","town_kana":"ツガワ","prefecture_code":15},"4601":{"zip_code":"9594601","prefecture":"新潟県","prefecture_kana":"ニイガタケン","city":"東蒲原郡阿賀町","city_kana":"ヒガシカンバラグンアガマチ","town":"綱木","town_kana":"ツナギ","prefecture_code":15},"4401":{"zip_code":"9594401","prefecture":"新潟県","prefecture_kana":"ニイガタケン","city":"東蒲原郡阿賀町","city_kana":"ヒガシカンバラグンアガマチ","town":"角島","town_kana":"ツノシマ","prefecture_code":15},"4635":{"zip_code":"9594635","prefecture":"新潟県","prefecture_kana":"ニイガタケン","city":"東蒲原郡阿賀町","city_kana":"ヒガシカンバラグンアガマチ","town":"釣浜","town_kana":"ツリハマ","prefecture_code":15},"4411":{"zip_code":"9594411","prefecture":"新潟県","prefecture_kana":"ニイガタケン","city":"東蒲原郡阿賀町","city_kana":"ヒガシカンバラグンアガマチ","town":"天満","town_kana":"テンマン","prefecture_code":15},"4503":{"zip_code":"9594503","prefecture":"新潟県","prefecture_kana":"ニイガタケン","city":"東蒲原郡阿賀町","city_kana":"ヒガシカンバラグンアガマチ","town":"豊川乙","town_kana":"トヨカワオツ","prefecture_code":15},"4505":{"zip_code":"9594505","prefecture":"新潟県","prefecture_kana":"ニイガタケン","city":"東蒲原郡阿賀町","city_kana":"ヒガシカンバラグンアガマチ","town":"豊川甲","town_kana":"トヨカワコウ","prefecture_code":15},"4504":{"zip_code":"9594504","prefecture":"新潟県","prefecture_kana":"ニイガタケン","city":"東蒲原郡阿賀町","city_kana":"ヒガシカンバラグンアガマチ","town":"豊川丙","town_kana":"トヨカワヘイ","prefecture_code":15},"4304":{"zip_code":"9594304","prefecture":"新潟県","prefecture_kana":"ニイガタケン","city":"東蒲原郡阿賀町","city_kana":"ヒガシカンバラグンアガマチ","town":"豊実","town_kana":"トヨミ","prefecture_code":15},"4631":{"zip_code":"9594631","prefecture":"新潟県","prefecture_kana":"ニイガタケン","city":"東蒲原郡阿賀町","city_kana":"ヒガシカンバラグンアガマチ","town":"取上","town_kana":"トリアゲ","prefecture_code":15},"4633":{"zip_code":"9594633","prefecture":"新潟県","prefecture_kana":"ニイガタケン","city":"東蒲原郡阿賀町","city_kana":"ヒガシカンバラグンアガマチ","town":"長谷","town_kana":"ナガタニ","prefecture_code":15},"4611":{"zip_code":"9594611","prefecture":"新潟県","prefecture_kana":"ニイガタケン","city":"東蒲原郡阿賀町","city_kana":"ヒガシカンバラグンアガマチ","town":"中ノ沢","town_kana":"ナカノサワ","prefecture_code":15},"4514":{"zip_code":"9594514","prefecture":"新潟県","prefecture_kana":"ニイガタケン","city":"東蒲原郡阿賀町","city_kana":"ヒガシカンバラグンアガマチ","town":"七名乙","town_kana":"ナナメオツ","prefecture_code":15},"4515":{"zip_code":"9594515","prefecture":"新潟県","prefecture_kana":"ニイガタケン","city":"東蒲原郡阿賀町","city_kana":"ヒガシカンバラグンアガマチ","town":"七名甲","town_kana":"ナナメコウ","prefecture_code":15},"4407":{"zip_code":"9594407","prefecture":"新潟県","prefecture_kana":"ニイガタケン","city":"東蒲原郡阿賀町","city_kana":"ヒガシカンバラグンアガマチ","town":"西","town_kana":"ニシ","prefecture_code":15},"4418":{"zip_code":"9594418","prefecture":"新潟県","prefecture_kana":"ニイガタケン","city":"東蒲原郡阿賀町","city_kana":"ヒガシカンバラグンアガマチ","town":"野村","town_kana":"ノムラ","prefecture_code":15},"4412":{"zip_code":"9594412","prefecture":"新潟県","prefecture_kana":"ニイガタケン","city":"東蒲原郡阿賀町","city_kana":"ヒガシカンバラグンアガマチ","town":"花立","town_kana":"ハナダテ","prefecture_code":15},"4441":{"zip_code":"9594441","prefecture":"新潟県","prefecture_kana":"ニイガタケン","city":"東蒲原郡阿賀町","city_kana":"ヒガシカンバラグンアガマチ","town":"払川","town_kana":"ハライガワ","prefecture_code":15},"4511":{"zip_code":"9594511","prefecture":"新潟県","prefecture_kana":"ニイガタケン","city":"東蒲原郡阿賀町","city_kana":"ヒガシカンバラグンアガマチ","town":"東山","town_kana":"ヒガシヤマ","prefecture_code":15},"4303":{"zip_code":"9594303","prefecture":"新潟県","prefecture_kana":"ニイガタケン","city":"東蒲原郡阿賀町","city_kana":"ヒガシカンバラグンアガマチ","town":"日出谷","town_kana":"ヒデヤ","prefecture_code":15},"4539":{"zip_code":"9594539","prefecture":"新潟県","prefecture_kana":"ニイガタケン","city":"東蒲原郡阿賀町","city_kana":"ヒガシカンバラグンアガマチ","town":"日野川乙","town_kana":"ヒノカワオツ","prefecture_code":15},"4531":{"zip_code":"9594531","prefecture":"新潟県","prefecture_kana":"ニイガタケン","city":"東蒲原郡阿賀町","city_kana":"ヒガシカンバラグンアガマチ","town":"日野川甲","town_kana":"ヒノカワコウ","prefecture_code":15},"4538":{"zip_code":"9594538","prefecture":"新潟県","prefecture_kana":"ニイガタケン","city":"東蒲原郡阿賀町","city_kana":"ヒガシカンバラグンアガマチ","town":"日野川丙","town_kana":"ヒノカワヘイ","prefecture_code":15},"4403":{"zip_code":"9594403","prefecture":"新潟県","prefecture_kana":"ニイガタケン","city":"東蒲原郡阿賀町","city_kana":"ヒガシカンバラグンアガマチ","town":"平堀","town_kana":"ヒラボリ","prefecture_code":15},"4404":{"zip_code":"9594404","prefecture":"新潟県","prefecture_kana":"ニイガタケン","city":"東蒲原郡阿賀町","city_kana":"ヒガシカンバラグンアガマチ","town":"広沢","town_kana":"ヒロサワ","prefecture_code":15},"4537":{"zip_code":"9594537","prefecture":"新潟県","prefecture_kana":"ニイガタケン","city":"東蒲原郡阿賀町","city_kana":"ヒガシカンバラグンアガマチ","town":"広谷乙","town_kana":"ヒロタニオツ","prefecture_code":15},"4536":{"zip_code":"9594536","prefecture":"新潟県","prefecture_kana":"ニイガタケン","city":"東蒲原郡阿賀町","city_kana":"ヒガシカンバラグンアガマチ","town":"広谷甲","town_kana":"ヒロタニコウ","prefecture_code":15},"4532":{"zip_code":"9594532","prefecture":"新潟県","prefecture_kana":"ニイガタケン","city":"東蒲原郡阿賀町","city_kana":"ヒガシカンバラグンアガマチ","town":"広谷丙","town_kana":"ヒロタニヘイ","prefecture_code":15},"4414":{"zip_code":"9594414","prefecture":"新潟県","prefecture_kana":"ニイガタケン","city":"東蒲原郡阿賀町","city_kana":"ヒガシカンバラグンアガマチ","town":"福取","town_kana":"フクトリ","prefecture_code":15},"4602":{"zip_code":"9594602","prefecture":"新潟県","prefecture_kana":"ニイガタケン","city":"東蒲原郡阿賀町","city_kana":"ヒガシカンバラグンアガマチ","town":"古岐","town_kana":"フルマタ","prefecture_code":15},"4605":{"zip_code":"9594605","prefecture":"新潟県","prefecture_kana":"ニイガタケン","city":"東蒲原郡阿賀町","city_kana":"ヒガシカンバラグンアガマチ","town":"細越","town_kana":"ホソゴエ","prefecture_code":15},"4524":{"zip_code":"9594524","prefecture":"新潟県","prefecture_kana":"ニイガタケン","city":"東蒲原郡阿賀町","city_kana":"ヒガシカンバラグンアガマチ","town":"三方乙","town_kana":"ミカタオツ","prefecture_code":15},"4526":{"zip_code":"9594526","prefecture":"新潟県","prefecture_kana":"ニイガタケン","city":"東蒲原郡阿賀町","city_kana":"ヒガシカンバラグンアガマチ","town":"三方甲","town_kana":"ミカタコウ","prefecture_code":15},"4301":{"zip_code":"9594301","prefecture":"新潟県","prefecture_kana":"ニイガタケン","city":"東蒲原郡阿賀町","city_kana":"ヒガシカンバラグンアガマチ","town":"向鹿瀬","town_kana":"ムカイカノセ","prefecture_code":15},"4417":{"zip_code":"9594417","prefecture":"新潟県","prefecture_kana":"ニイガタケン","city":"東蒲原郡阿賀町","city_kana":"ヒガシカンバラグンアガマチ","town":"八木山","town_kana":"ヤキヤマ","prefecture_code":15},"4624":{"zip_code":"9594624","prefecture":"新潟県","prefecture_kana":"ニイガタケン","city":"東蒲原郡阿賀町","city_kana":"ヒガシカンバラグンアガマチ","town":"谷沢","town_kana":"ヤザワ","prefecture_code":15},"4415":{"zip_code":"9594415","prefecture":"新潟県","prefecture_kana":"ニイガタケン","city":"東蒲原郡阿賀町","city_kana":"ヒガシカンバラグンアガマチ","town":"八ツ田","town_kana":"ヤツダ","prefecture_code":15},"4604":{"zip_code":"9594604","prefecture":"新潟県","prefecture_kana":"ニイガタケン","city":"東蒲原郡阿賀町","city_kana":"ヒガシカンバラグンアガマチ","town":"行地","town_kana":"ユクジ","prefecture_code":15},"4625":{"zip_code":"9594625","prefecture":"新潟県","prefecture_kana":"ニイガタケン","city":"東蒲原郡阿賀町","city_kana":"ヒガシカンバラグンアガマチ","town":"吉津","town_kana":"ヨシヅ","prefecture_code":15},"4506":{"zip_code":"9594506","prefecture":"新潟県","prefecture_kana":"ニイガタケン","city":"東蒲原郡阿賀町","city_kana":"ヒガシカンバラグンアガマチ","town":"両郷乙","town_kana":"リョウゴウオツ","prefecture_code":15},"4507":{"zip_code":"9594507","prefecture":"新潟県","prefecture_kana":"ニイガタケン","city":"東蒲原郡阿賀町","city_kana":"ヒガシカンバラグンアガマチ","town":"両郷甲","town_kana":"リョウゴウコウ","prefecture_code":15},"3200":{"zip_code":"9593200","prefecture":"新潟県","prefecture_kana":"ニイガタケン","city":"岩船郡関川村","city_kana":"イワフネグンセキカワムラ","town":"","town_kana":"","prefecture_code":15},"3235":{"zip_code":"9593235","prefecture":"新潟県","prefecture_kana":"ニイガタケン","city":"岩船郡関川村","city_kana":"イワフネグンセキカワムラ","town":"安角","town_kana":"アズミ","prefecture_code":15},"3222":{"zip_code":"9593222","prefecture":"新潟県","prefecture_kana":"ニイガタケン","city":"岩船郡関川村","city_kana":"イワフネグンセキカワムラ","town":"荒川台","town_kana":"アラカワダイ","prefecture_code":15},"3245":{"zip_code":"9593245","prefecture":"新潟県","prefecture_kana":"ニイガタケン","city":"岩船郡関川村","city_kana":"イワフネグンセキカワムラ","town":"幾地","town_kana":"イクジ","prefecture_code":15},"3213":{"zip_code":"9593213","prefecture":"新潟県","prefecture_kana":"ニイガタケン","city":"岩船郡関川村","city_kana":"イワフネグンセキカワムラ","town":"上野","town_kana":"ウエノ","prefecture_code":15},"3214":{"zip_code":"9593214","prefecture":"新潟県","prefecture_kana":"ニイガタケン","city":"岩船郡関川村","city_kana":"イワフネグンセキカワムラ","town":"上野新","town_kana":"ウエノシン","prefecture_code":15},"3216":{"zip_code":"9593216","prefecture":"新潟県","prefecture_kana":"ニイガタケン","city":"岩船郡関川村","city_kana":"イワフネグンセキカワムラ","town":"上野原","town_kana":"ウエノハラ","prefecture_code":15},"3257":{"zip_code":"9593257","prefecture":"新潟県","prefecture_kana":"ニイガタケン","city":"岩船郡関川村","city_kana":"イワフネグンセキカワムラ","town":"上野山","town_kana":"ウエノヤマ","prefecture_code":15},"3272":{"zip_code":"9593272","prefecture":"新潟県","prefecture_kana":"ニイガタケン","city":"岩船郡関川村","city_kana":"イワフネグンセキカワムラ","town":"打上","town_kana":"ウチアゲ","prefecture_code":15},"3275":{"zip_code":"9593275","prefecture":"新潟県","prefecture_kana":"ニイガタケン","city":"岩船郡関川村","city_kana":"イワフネグンセキカワムラ","town":"内須川","town_kana":"ウチスガワ","prefecture_code":15},"3223":{"zip_code":"9593223","prefecture":"新潟県","prefecture_kana":"ニイガタケン","city":"岩船郡関川村","city_kana":"イワフネグンセキカワムラ","town":"大内淵","town_kana":"オウチブチ","prefecture_code":15},"3256":{"zip_code":"9593256","prefecture":"新潟県","prefecture_kana":"ニイガタケン","city":"岩船郡関川村","city_kana":"イワフネグンセキカワムラ","town":"小見","town_kana":"オウミ","prefecture_code":15},"3254":{"zip_code":"9593254","prefecture":"新潟県","prefecture_kana":"ニイガタケン","city":"岩船郡関川村","city_kana":"イワフネグンセキカワムラ","town":"小見前新田","town_kana":"オウミマエシンデン","prefecture_code":15},"3236":{"zip_code":"9593236","prefecture":"新潟県","prefecture_kana":"ニイガタケン","city":"岩船郡関川村","city_kana":"イワフネグンセキカワムラ","town":"大石","town_kana":"オオイシ","prefecture_code":15},"3241":{"zip_code":"9593241","prefecture":"新潟県","prefecture_kana":"ニイガタケン","city":"岩船郡関川村","city_kana":"イワフネグンセキカワムラ","town":"大島","town_kana":"オオシマ","prefecture_code":15},"3234":{"zip_code":"9593234","prefecture":"新潟県","prefecture_kana":"ニイガタケン","city":"岩船郡関川村","city_kana":"イワフネグンセキカワムラ","town":"鮖谷","town_kana":"カジカダニ","prefecture_code":15},"3226":{"zip_code":"9593226","prefecture":"新潟県","prefecture_kana":"ニイガタケン","city":"岩船郡関川村","city_kana":"イワフネグンセキカワムラ","town":"片貝","town_kana":"カタカイ","prefecture_code":15},"3251":{"zip_code":"9593251","prefecture":"新潟県","prefecture_kana":"ニイガタケン","city":"岩船郡関川村","city_kana":"イワフネグンセキカワムラ","town":"桂","town_kana":"カツラ","prefecture_code":15},"3228":{"zip_code":"9593228","prefecture":"新潟県","prefecture_kana":"ニイガタケン","city":"岩船郡関川村","city_kana":"イワフネグンセキカワムラ","town":"金丸","town_kana":"カナマル","prefecture_code":15},"3237":{"zip_code":"9593237","prefecture":"新潟県","prefecture_kana":"ニイガタケン","city":"岩船郡関川村","city_kana":"イワフネグンセキカワムラ","town":"金俣","town_kana":"カネマタ","prefecture_code":15},"3231":{"zip_code":"9593231","prefecture":"新潟県","prefecture_kana":"ニイガタケン","city":"岩船郡関川村","city_kana":"イワフネグンセキカワムラ","town":"上川口","town_kana":"カミカワクチ","prefecture_code":15},"3205":{"zip_code":"9593205","prefecture":"新潟県","prefecture_kana":"ニイガタケン","city":"岩船郡関川村","city_kana":"イワフネグンセキカワムラ","town":"上新保","town_kana":"カミシンボ","prefecture_code":15},"3264":{"zip_code":"9593264","prefecture":"新潟県","prefecture_kana":"ニイガタケン","city":"岩船郡関川村","city_kana":"イワフネグンセキカワムラ","town":"上関","town_kana":"カミセキ","prefecture_code":15},"3246":{"zip_code":"9593246","prefecture":"新潟県","prefecture_kana":"ニイガタケン","city":"岩船郡関川村","city_kana":"イワフネグンセキカワムラ","town":"上土沢","town_kana":"カミツチザワ","prefecture_code":15},"3224":{"zip_code":"9593224","prefecture":"新潟県","prefecture_kana":"ニイガタケン","city":"岩船郡関川村","city_kana":"イワフネグンセキカワムラ","town":"聞出","town_kana":"キケイデ","prefecture_code":15},"3233":{"zip_code":"9593233","prefecture":"新潟県","prefecture_kana":"ニイガタケン","city":"岩船郡関川村","city_kana":"イワフネグンセキカワムラ","town":"久保","town_kana":"クボ","prefecture_code":15},"3243":{"zip_code":"9593243","prefecture":"新潟県","prefecture_kana":"ニイガタケン","city":"岩船郡関川村","city_kana":"イワフネグンセキカワムラ","town":"鍬江沢","town_kana":"クワエザワ","prefecture_code":15},"3211":{"zip_code":"9593211","prefecture":"新潟県","prefecture_kana":"ニイガタケン","city":"岩船郡関川村","city_kana":"イワフネグンセキカワムラ","town":"小和田","town_kana":"コワダ","prefecture_code":15},"3262":{"zip_code":"9593262","prefecture":"新潟県","prefecture_kana":"ニイガタケン","city":"岩船郡関川村","city_kana":"イワフネグンセキカワムラ","town":"沢","town_kana":"サワ","prefecture_code":15},"3221":{"zip_code":"9593221","prefecture":"新潟県","prefecture_kana":"ニイガタケン","city":"岩船郡関川村","city_kana":"イワフネグンセキカワムラ","town":"下川口","town_kana":"シモカワグチ","prefecture_code":15},"3265":{"zip_code":"9593265","prefecture":"新潟県","prefecture_kana":"ニイガタケン","city":"岩船郡関川村","city_kana":"イワフネグンセキカワムラ","town":"下関","town_kana":"シモセキ","prefecture_code":15},"3242":{"zip_code":"9593242","prefecture":"新潟県","prefecture_kana":"ニイガタケン","city":"岩船郡関川村","city_kana":"イワフネグンセキカワムラ","town":"下土沢","town_kana":"シモツチザワ","prefecture_code":15},"3204":{"zip_code":"9593204","prefecture":"新潟県","prefecture_kana":"ニイガタケン","city":"岩船郡関川村","city_kana":"イワフネグンセキカワムラ","town":"蛇喰","town_kana":"ジャバミ","prefecture_code":15},"3273":{"zip_code":"9593273","prefecture":"新潟県","prefecture_kana":"ニイガタケン","city":"岩船郡関川村","city_kana":"イワフネグンセキカワムラ","town":"勝蔵","town_kana":"ショウゾウ","prefecture_code":15},"3232":{"zip_code":"9593232","prefecture":"新潟県","prefecture_kana":"ニイガタケン","city":"岩船郡関川村","city_kana":"イワフネグンセキカワムラ","town":"蔵田島","town_kana":"ソウダシマ","prefecture_code":15},"3263":{"zip_code":"9593263","prefecture":"新潟県","prefecture_kana":"ニイガタケン","city":"岩船郡関川村","city_kana":"イワフネグンセキカワムラ","town":"高瀬","town_kana":"タカセ","prefecture_code":15},"3252":{"zip_code":"9593252","prefecture":"新潟県","prefecture_kana":"ニイガタケン","city":"岩船郡関川村","city_kana":"イワフネグンセキカワムラ","town":"高田","town_kana":"タカダ","prefecture_code":15},"3258":{"zip_code":"9593258","prefecture":"新潟県","prefecture_kana":"ニイガタケン","city":"岩船郡関川村","city_kana":"イワフネグンセキカワムラ","town":"滝原","town_kana":"タキハラ","prefecture_code":15},"3271":{"zip_code":"9593271","prefecture":"新潟県","prefecture_kana":"ニイガタケン","city":"岩船郡関川村","city_kana":"イワフネグンセキカワムラ","town":"辰田新","town_kana":"タツタシン","prefecture_code":15},"3208":{"zip_code":"9593208","prefecture":"新潟県","prefecture_kana":"ニイガタケン","city":"岩船郡関川村","city_kana":"イワフネグンセキカワムラ","town":"田麦千刈","town_kana":"タムギチガリ","prefecture_code":15},"3206":{"zip_code":"9593206","prefecture":"新潟県","prefecture_kana":"ニイガタケン","city":"岩船郡関川村","city_kana":"イワフネグンセキカワムラ","town":"中束","town_kana":"ナカマルケ","prefecture_code":15},"3225":{"zip_code":"9593225","prefecture":"新潟県","prefecture_kana":"ニイガタケン","city":"岩船郡関川村","city_kana":"イワフネグンセキカワムラ","town":"沼","town_kana":"ヌマ","prefecture_code":15},"3215":{"zip_code":"9593215","prefecture":"新潟県","prefecture_kana":"ニイガタケン","city":"岩船郡関川村","city_kana":"イワフネグンセキカワムラ","town":"深沢","town_kana":"フカザワ","prefecture_code":15},"3253":{"zip_code":"9593253","prefecture":"新潟県","prefecture_kana":"ニイガタケン","city":"岩船郡関川村","city_kana":"イワフネグンセキカワムラ","town":"平内新","town_kana":"ヘイナイシン","prefecture_code":15},"3201":{"zip_code":"9593201","prefecture":"新潟県","prefecture_kana":"ニイガタケン","city":"岩船郡関川村","city_kana":"イワフネグンセキカワムラ","town":"朴坂","town_kana":"ホウサカ","prefecture_code":15},"3255":{"zip_code":"9593255","prefecture":"新潟県","prefecture_kana":"ニイガタケン","city":"岩船郡関川村","city_kana":"イワフネグンセキカワムラ","town":"松ケ丘","town_kana":"マツガオカ","prefecture_code":15},"3259":{"zip_code":"9593259","prefecture":"新潟県","prefecture_kana":"ニイガタケン","city":"岩船郡関川村","city_kana":"イワフネグンセキカワムラ","town":"松平","town_kana":"マツダイラ","prefecture_code":15},"3274":{"zip_code":"9593274","prefecture":"新潟県","prefecture_kana":"ニイガタケン","city":"岩船郡関川村","city_kana":"イワフネグンセキカワムラ","town":"南赤谷","town_kana":"ミナミアカダニ","prefecture_code":15},"3203":{"zip_code":"9593203","prefecture":"新潟県","prefecture_kana":"ニイガタケン","city":"岩船郡関川村","city_kana":"イワフネグンセキカワムラ","town":"南中","town_kana":"ミナミナカ","prefecture_code":15},"3202":{"zip_code":"9593202","prefecture":"新潟県","prefecture_kana":"ニイガタケン","city":"岩船郡関川村","city_kana":"イワフネグンセキカワムラ","town":"宮前","town_kana":"ミヤノマエ","prefecture_code":15},"3227":{"zip_code":"9593227","prefecture":"新潟県","prefecture_kana":"ニイガタケン","city":"岩船郡関川村","city_kana":"イワフネグンセキカワムラ","town":"八ツ口","town_kana":"ヤツクチ","prefecture_code":15},"3244":{"zip_code":"9593244","prefecture":"新潟県","prefecture_kana":"ニイガタケン","city":"岩船郡関川村","city_kana":"イワフネグンセキカワムラ","town":"山本","town_kana":"ヤマモト","prefecture_code":15},"3261":{"zip_code":"9593261","prefecture":"新潟県","prefecture_kana":"ニイガタケン","city":"岩船郡関川村","city_kana":"イワフネグンセキカワムラ","town":"湯沢","town_kana":"ユサワ","prefecture_code":15},"3212":{"zip_code":"9593212","prefecture":"新潟県","prefecture_kana":"ニイガタケン","city":"岩船郡関川村","city_kana":"イワフネグンセキカワムラ","town":"若山","town_kana":"ワカヤマ","prefecture_code":15},"3207":{"zip_code":"9593207","prefecture":"新潟県","prefecture_kana":"ニイガタケン","city":"岩船郡関川村","city_kana":"イワフネグンセキカワムラ","town":"蕨野","town_kana":"ワラビノ","prefecture_code":15}}