{"0000":{"zip_code":"9610000","prefecture":"福島県","prefecture_kana":"フクシマケン","city":"西白河郡西郷村","city_kana":"ニシシラカワグンニシゴウムラ","town":"","town_kana":"","prefecture_code":7},"0075":{"zip_code":"9610075","prefecture":"福島県","prefecture_kana":"フクシマケン","city":"白河市","city_kana":"シラカワシ","town":"会津町","town_kana":"アイヅマチ","prefecture_code":7},"0901":{"zip_code":"9610901","prefecture":"福島県","prefecture_kana":"フクシマケン","city":"白河市","city_kana":"シラカワシ","town":"明戸","town_kana":"アケド","prefecture_code":7},"0912":{"zip_code":"9610912","prefecture":"福島県","prefecture_kana":"フクシマケン","city":"白河市","city_kana":"シラカワシ","town":"旭町","town_kana":"アサヒチョウ","prefecture_code":7},"0942":{"zip_code":"9610942","prefecture":"福島県","prefecture_kana":"フクシマケン","city":"白河市","city_kana":"シラカワシ","town":"愛宕町","town_kana":"アタゴマチ","prefecture_code":7},"0082":{"zip_code":"9610082","prefecture":"福島県","prefecture_kana":"フクシマケン","city":"白河市","city_kana":"シラカワシ","town":"飯沢","town_kana":"イイザワ","prefecture_code":7},"0081":{"zip_code":"9610081","prefecture":"福島県","prefecture_kana":"フクシマケン","city":"白河市","city_kana":"シラカワシ","town":"飯沢山","town_kana":"イイザワヤマ","prefecture_code":7},"0032":{"zip_code":"9610032","prefecture":"福島県","prefecture_kana":"フクシマケン","city":"白河市","city_kana":"シラカワシ","town":"家ノ前","town_kana":"イエノマエ","prefecture_code":7},"0827":{"zip_code":"9610827","prefecture":"福島県","prefecture_kana":"フクシマケン","city":"白河市","city_kana":"シラカワシ","town":"池下","town_kana":"イケシタ","prefecture_code":7},"0826":{"zip_code":"9610826","prefecture":"福島県","prefecture_kana":"フクシマケン","city":"白河市","city_kana":"シラカワシ","town":"池下裏","town_kana":"イケシタウラ","prefecture_code":7},"0825":{"zip_code":"9610825","prefecture":"福島県","prefecture_kana":"フクシマケン","city":"白河市","city_kana":"シラカワシ","town":"池下向山","town_kana":"イケシタムカイヤマ","prefecture_code":7},"0867":{"zip_code":"9610867","prefecture":"福島県","prefecture_kana":"フクシマケン","city":"白河市","city_kana":"シラカワシ","town":"石切場","town_kana":"イシキリバ","prefecture_code":7},"0003":{"zip_code":"9610003","prefecture":"福島県","prefecture_kana":"フクシマケン","city":"白河市","city_kana":"シラカワシ","town":"泉田","town_kana":"イズミダ","prefecture_code":7},"0016":{"zip_code":"9610016","prefecture":"福島県","prefecture_kana":"フクシマケン","city":"白河市","city_kana":"シラカワシ","town":"板橋","town_kana":"イタバシ","prefecture_code":7},"0947":{"zip_code":"9610947","prefecture":"福島県","prefecture_kana":"フクシマケン","city":"白河市","city_kana":"シラカワシ","town":"一番町","town_kana":"イチバンチョウ","prefecture_code":7},"0937":{"zip_code":"9610937","prefecture":"福島県","prefecture_kana":"フクシマケン","city":"白河市","city_kana":"シラカワシ","town":"上ノ台","town_kana":"ウエノダイ","prefecture_code":7},"0026":{"zip_code":"9610026","prefecture":"福島県","prefecture_kana":"フクシマケン","city":"白河市","city_kana":"シラカワシ","town":"上ノ原","town_kana":"ウエノハラ","prefecture_code":7},"0039":{"zip_code":"9610039","prefecture":"福島県","prefecture_kana":"フクシマケン","city":"白河市","city_kana":"シラカワシ","town":"上野原","town_kana":"ウエノハラ","prefecture_code":7},"0063":{"zip_code":"9610063","prefecture":"福島県","prefecture_kana":"フクシマケン","city":"白河市","city_kana":"シラカワシ","town":"薄葉","town_kana":"ウスバ","prefecture_code":7},"0931":{"zip_code":"9610931","prefecture":"福島県","prefecture_kana":"フクシマケン","city":"白河市","city_kana":"シラカワシ","town":"馬町","town_kana":"ウママチ","prefecture_code":7},"0904":{"zip_code":"9610904","prefecture":"福島県","prefecture_kana":"フクシマケン","city":"白河市","city_kana":"シラカワシ","town":"馬町裏","town_kana":"ウママチウラ","prefecture_code":7},"0915":{"zip_code":"9610915","prefecture":"福島県","prefecture_kana":"フクシマケン","city":"白河市","city_kana":"シラカワシ","town":"馬町下","town_kana":"ウママチシタ","prefecture_code":7},"0036":{"zip_code":"9610036","prefecture":"福島県","prefecture_kana":"フクシマケン","city":"白河市","city_kana":"シラカワシ","town":"裏山","town_kana":"ウラヤマ","prefecture_code":7},"0921":{"zip_code":"9610921","prefecture":"福島県","prefecture_kana":"フクシマケン","city":"白河市","city_kana":"シラカワシ","town":"円明寺","town_kana":"エンミョウジ","prefecture_code":7},"0831":{"zip_code":"9610831","prefecture":"福島県","prefecture_kana":"フクシマケン","city":"白河市","city_kana":"シラカワシ","town":"老久保","town_kana":"オイクボ","prefecture_code":7},"0838":{"zip_code":"9610838","prefecture":"福島県","prefecture_kana":"フクシマケン","city":"白河市","city_kana":"シラカワシ","town":"老久保山","town_kana":"オイクボヤマ","prefecture_code":7},"0094":{"zip_code":"9610094","prefecture":"福島県","prefecture_kana":"フクシマケン","city":"白河市","city_kana":"シラカワシ","town":"追廻","town_kana":"オイマワシ","prefecture_code":7},"0846":{"zip_code":"9610846","prefecture":"福島県","prefecture_kana":"フクシマケン","city":"白河市","city_kana":"シラカワシ","town":"大暮矢見山","town_kana":"オオクレヤミヤマ","prefecture_code":7},"0845":{"zip_code":"9610845","prefecture":"福島県","prefecture_kana":"フクシマケン","city":"白河市","city_kana":"シラカワシ","town":"大坂山","town_kana":"オオサカヤマ","prefecture_code":7},"0908":{"zip_code":"9610908","prefecture":"福島県","prefecture_kana":"フクシマケン","city":"白河市","city_kana":"シラカワシ","town":"大手町","town_kana":"オオテマチ","prefecture_code":7},"0002":{"zip_code":"9610002","prefecture":"福島県","prefecture_kana":"フクシマケン","city":"白河市","city_kana":"シラカワシ","town":"大和田","town_kana":"オオワダ","prefecture_code":7},"0985":{"zip_code":"9610985","prefecture":"福島県","prefecture_kana":"フクシマケン","city":"白河市","city_kana":"シラカワシ","town":"和尚壇","town_kana":"オショウダン","prefecture_code":7},"0984":{"zip_code":"9610984","prefecture":"福島県","prefecture_kana":"フクシマケン","city":"白河市","city_kana":"シラカワシ","town":"和尚壇山","town_kana":"オショウダンヤマ","prefecture_code":7},"0885":{"zip_code":"9610885","prefecture":"福島県","prefecture_kana":"フクシマケン","city":"白河市","city_kana":"シラカワシ","town":"鬼越","town_kana":"オニゴエ","prefecture_code":7},"0884":{"zip_code":"9610884","prefecture":"福島県","prefecture_kana":"フクシマケン","city":"白河市","city_kana":"シラカワシ","town":"鬼越道下","town_kana":"オニゴエミチシタ","prefecture_code":7},"0887":{"zip_code":"9610887","prefecture":"福島県","prefecture_kana":"フクシマケン","city":"白河市","city_kana":"シラカワシ","town":"鬼越山","town_kana":"オニゴエヤマ","prefecture_code":7},"0409":{"zip_code":"9610409","prefecture":"福島県","prefecture_kana":"フクシマケン","city":"白河市","city_kana":"シラカワシ","town":"表郷河東田","town_kana":"オモテゴウカトウダ","prefecture_code":7},"0416":{"zip_code":"9610416","prefecture":"福島県","prefecture_kana":"フクシマケン","city":"白河市","city_kana":"シラカワシ","town":"表郷金山","town_kana":"オモテゴウカネヤマ","prefecture_code":7},"0405":{"zip_code":"9610405","prefecture":"福島県","prefecture_kana":"フクシマケン","city":"白河市","city_kana":"シラカワシ","town":"表郷小松","town_kana":"オモテゴウコマツ","prefecture_code":7},"0412":{"zip_code":"9610412","prefecture":"福島県","prefecture_kana":"フクシマケン","city":"白河市","city_kana":"シラカワシ","town":"表郷下羽原","town_kana":"オモテゴウシモハバラ","prefecture_code":7},"0414":{"zip_code":"9610414","prefecture":"福島県","prefecture_kana":"フクシマケン","city":"白河市","city_kana":"シラカワシ","town":"表郷高木","town_kana":"オモテゴウタカギ","prefecture_code":7},"0402":{"zip_code":"9610402","prefecture":"福島県","prefecture_kana":"フクシマケン","city":"白河市","city_kana":"シラカワシ","town":"表郷内松","town_kana":"オモテゴウナイマツ","prefecture_code":7},"0407":{"zip_code":"9610407","prefecture":"福島県","prefecture_kana":"フクシマケン","city":"白河市","city_kana":"シラカワシ","town":"表郷中寺","town_kana":"オモテゴウナカデラ","prefecture_code":7},"0401":{"zip_code":"9610401","prefecture":"福島県","prefecture_kana":"フクシマケン","city":"白河市","city_kana":"シラカワシ","town":"表郷中野","town_kana":"オモテゴウナカノ","prefecture_code":7},"0403":{"zip_code":"9610403","prefecture":"福島県","prefecture_kana":"フクシマケン","city":"白河市","city_kana":"シラカワシ","town":"表郷番沢","town_kana":"オモテゴウバンザワ","prefecture_code":7},"0411":{"zip_code":"9610411","prefecture":"福島県","prefecture_kana":"フクシマケン","city":"白河市","city_kana":"シラカワシ","town":"表郷深渡戸","town_kana":"オモテゴウフカアド","prefecture_code":7},"0408":{"zip_code":"9610408","prefecture":"福島県","prefecture_kana":"フクシマケン","city":"白河市","city_kana":"シラカワシ","town":"表郷堀之内","town_kana":"オモテゴウホリノウチ","prefecture_code":7},"0413":{"zip_code":"9610413","prefecture":"福島県","prefecture_kana":"フクシマケン","city":"白河市","city_kana":"シラカワシ","town":"表郷三森","town_kana":"オモテゴウミモリ","prefecture_code":7},"0404":{"zip_code":"9610404","prefecture":"福島県","prefecture_kana":"フクシマケン","city":"白河市","city_kana":"シラカワシ","town":"表郷社田","town_kana":"オモテゴウヤシロダ","prefecture_code":7},"0415":{"zip_code":"9610415","prefecture":"福島県","prefecture_kana":"フクシマケン","city":"白河市","city_kana":"シラカワシ","town":"表郷梁森","town_kana":"オモテゴウヤナモリ","prefecture_code":7},"0406":{"zip_code":"9610406","prefecture":"福島県","prefecture_kana":"フクシマケン","city":"白河市","city_kana":"シラカワシ","town":"表郷八幡","town_kana":"オモテゴウヤワタ","prefecture_code":7},"0064":{"zip_code":"9610064","prefecture":"福島県","prefecture_kana":"フクシマケン","city":"白河市","city_kana":"シラカワシ","town":"女石","town_kana":"オンナイシ","prefecture_code":7},"0074":{"zip_code":"9610074","prefecture":"福島県","prefecture_kana":"フクシマケン","city":"白河市","city_kana":"シラカワシ","town":"郭内","town_kana":"カクナイ","prefecture_code":7},"0886":{"zip_code":"9610886","prefecture":"福島県","prefecture_kana":"フクシマケン","city":"白河市","city_kana":"シラカワシ","town":"影鬼越","town_kana":"カゲオニゴエ","prefecture_code":7},"0913":{"zip_code":"9610913","prefecture":"福島県","prefecture_kana":"フクシマケン","city":"白河市","city_kana":"シラカワシ","town":"鍛冶町","town_kana":"カジマチ","prefecture_code":7},"0943":{"zip_code":"9610943","prefecture":"福島県","prefecture_kana":"フクシマケン","city":"白河市","city_kana":"シラカワシ","town":"金屋町","town_kana":"カナヤマチ","prefecture_code":7},"0023":{"zip_code":"9610023","prefecture":"福島県","prefecture_kana":"フクシマケン","city":"白河市","city_kana":"シラカワシ","town":"亀石","town_kana":"カメイシ","prefecture_code":7},"0004":{"zip_code":"9610004","prefecture":"福島県","prefecture_kana":"フクシマケン","city":"白河市","city_kana":"シラカワシ","town":"萱根","town_kana":"カヤネ","prefecture_code":7},"0014":{"zip_code":"9610014","prefecture":"福島県","prefecture_kana":"フクシマケン","city":"白河市","city_kana":"シラカワシ","town":"借宿","town_kana":"カリヤド","prefecture_code":7},"0956":{"zip_code":"9610956","prefecture":"福島県","prefecture_kana":"フクシマケン","city":"白河市","city_kana":"シラカワシ","town":"勘定町","town_kana":"カンジョウマチ","prefecture_code":7},"0802":{"zip_code":"9610802","prefecture":"福島県","prefecture_kana":"フクシマケン","city":"白河市","city_kana":"シラカワシ","town":"関川窪","town_kana":"カンセンクボ","prefecture_code":7},"0821":{"zip_code":"9610821","prefecture":"福島県","prefecture_kana":"フクシマケン","city":"白河市","city_kana":"シラカワシ","town":"北裏","town_kana":"キタウラ","prefecture_code":7},"0054":{"zip_code":"9610054","prefecture":"福島県","prefecture_kana":"フクシマケン","city":"白河市","city_kana":"シラカワシ","town":"北中川原","town_kana":"キタナカガワラ","prefecture_code":7},"0973":{"zip_code":"9610973","prefecture":"福島県","prefecture_kana":"フクシマケン","city":"白河市","city_kana":"シラカワシ","town":"北登リ町","town_kana":"キタノボリマチ","prefecture_code":7},"0996":{"zip_code":"9610996","prefecture":"福島県","prefecture_kana":"フクシマケン","city":"白河市","city_kana":"シラカワシ","town":"北堀川端","town_kana":"キタホリカワバタ","prefecture_code":7},"0974":{"zip_code":"9610974","prefecture":"福島県","prefecture_kana":"フクシマケン","city":"白河市","city_kana":"シラカワシ","town":"北堀切","town_kana":"キタホリキリ","prefecture_code":7},"0981":{"zip_code":"9610981","prefecture":"福島県","prefecture_kana":"フクシマケン","city":"白河市","city_kana":"シラカワシ","town":"北真舟","town_kana":"キタマブネ","prefecture_code":7},"0083":{"zip_code":"9610083","prefecture":"福島県","prefecture_kana":"フクシマケン","city":"白河市","city_kana":"シラカワシ","town":"金勝寺","town_kana":"キンショウジ","prefecture_code":7},"0084":{"zip_code":"9610084","prefecture":"福島県","prefecture_kana":"フクシマケン","city":"白河市","city_kana":"シラカワシ","town":"金勝寺東","town_kana":"キンショウジヒガシ","prefecture_code":7},"0042":{"zip_code":"9610042","prefecture":"福島県","prefecture_kana":"フクシマケン","city":"白河市","city_kana":"シラカワシ","town":"金鈴","town_kana":"キンレイ","prefecture_code":7},"0011":{"zip_code":"9610011","prefecture":"福島県","prefecture_kana":"フクシマケン","city":"白河市","city_kana":"シラカワシ","town":"久田野","town_kana":"クタノ","prefecture_code":7},"0875":{"zip_code":"9610875","prefecture":"福島県","prefecture_kana":"フクシマケン","city":"白河市","city_kana":"シラカワシ","town":"九番町","town_kana":"クバンチョウ","prefecture_code":7},"0874":{"zip_code":"9610874","prefecture":"福島県","prefecture_kana":"フクシマケン","city":"白河市","city_kana":"シラカワシ","town":"九番町西裏","town_kana":"クバンチョウニシウラ","prefecture_code":7},"0017":{"zip_code":"9610017","prefecture":"福島県","prefecture_kana":"フクシマケン","city":"白河市","city_kana":"シラカワシ","town":"双石","town_kana":"クラベイシ","prefecture_code":7},"0045":{"zip_code":"9610045","prefecture":"福島県","prefecture_kana":"フクシマケン","city":"白河市","city_kana":"シラカワシ","town":"合戦坂","town_kana":"コウセンザカ","prefecture_code":7},"0001":{"zip_code":"9610001","prefecture":"福島県","prefecture_kana":"フクシマケン","city":"白河市","city_kana":"シラカワシ","town":"小田川","town_kana":"コタガワ","prefecture_code":7},"0852":{"zip_code":"9610852","prefecture":"福島県","prefecture_kana":"フクシマケン","city":"白河市","city_kana":"シラカワシ","town":"転坂","town_kana":"コロビザカ","prefecture_code":7},"0076":{"zip_code":"9610076","prefecture":"福島県","prefecture_kana":"フクシマケン","city":"白河市","city_kana":"シラカワシ","town":"五番町川原","town_kana":"ゴバンチョウガワラ","prefecture_code":7},"0815":{"zip_code":"9610815","prefecture":"福島県","prefecture_kana":"フクシマケン","city":"白河市","city_kana":"シラカワシ","town":"五郎窪","town_kana":"ゴロウクボ","prefecture_code":7},"0965":{"zip_code":"9610965","prefecture":"福島県","prefecture_kana":"フクシマケン","city":"白河市","city_kana":"シラカワシ","town":"細工町","town_kana":"サイクマチ","prefecture_code":7},"0944":{"zip_code":"9610944","prefecture":"福島県","prefecture_kana":"フクシマケン","city":"白河市","city_kana":"シラカワシ","town":"宰領町","town_kana":"サイリョウマチ","prefecture_code":7},"0803":{"zip_code":"9610803","prefecture":"福島県","prefecture_kana":"フクシマケン","city":"白河市","city_kana":"シラカワシ","town":"栄町","town_kana":"サカエマチ","prefecture_code":7},"0911":{"zip_code":"9610911","prefecture":"福島県","prefecture_kana":"フクシマケン","city":"白河市","city_kana":"シラカワシ","town":"桜町","town_kana":"サクラマチ","prefecture_code":7},"0862":{"zip_code":"9610862","prefecture":"福島県","prefecture_kana":"フクシマケン","city":"白河市","city_kana":"シラカワシ","town":"三番町","town_kana":"サンバンチョウ","prefecture_code":7},"0872":{"zip_code":"9610872","prefecture":"福島県","prefecture_kana":"フクシマケン","city":"白河市","city_kana":"シラカワシ","town":"三本松","town_kana":"サンボンマツ","prefecture_code":7},"0814":{"zip_code":"9610814","prefecture":"福島県","prefecture_kana":"フクシマケン","city":"白河市","city_kana":"シラカワシ","town":"三本松山","town_kana":"サンボンマツヤマ","prefecture_code":7},"0986":{"zip_code":"9610986","prefecture":"福島県","prefecture_kana":"フクシマケン","city":"白河市","city_kana":"シラカワシ","town":"塩路山","town_kana":"シオジヤマ","prefecture_code":7},"0072":{"zip_code":"9610072","prefecture":"福島県","prefecture_kana":"フクシマケン","city":"白河市","city_kana":"シラカワシ","town":"士多町","town_kana":"シタマチ","prefecture_code":7},"0071":{"zip_code":"9610071","prefecture":"福島県","prefecture_kana":"フクシマケン","city":"白河市","city_kana":"シラカワシ","town":"士多町東","town_kana":"シタマチヒガシ","prefecture_code":7},"0863":{"zip_code":"9610863","prefecture":"福島県","prefecture_kana":"フクシマケン","city":"白河市","city_kana":"シラカワシ","town":"七番町","town_kana":"シチバンチョウ","prefecture_code":7},"0888":{"zip_code":"9610888","prefecture":"福島県","prefecture_kana":"フクシマケン","city":"白河市","city_kana":"シラカワシ","town":"十三原","town_kana":"ジュウサンパラ","prefecture_code":7},"0829":{"zip_code":"9610829","prefecture":"福島県","prefecture_kana":"フクシマケン","city":"白河市","city_kana":"シラカワシ","town":"十三原道上","town_kana":"ジュウサンパラミチウエ","prefecture_code":7},"0828":{"zip_code":"9610828","prefecture":"福島県","prefecture_kana":"フクシマケン","city":"白河市","city_kana":"シラカワシ","town":"十三原道下","town_kana":"ジュウサンパラミチシタ","prefecture_code":7},"0027":{"zip_code":"9610027","prefecture":"福島県","prefecture_kana":"フクシマケン","city":"白河市","city_kana":"シラカワシ","town":"十文字","town_kana":"ジュウモンジ","prefecture_code":7},"0922":{"zip_code":"9610922","prefecture":"福島県","prefecture_kana":"フクシマケン","city":"白河市","city_kana":"シラカワシ","town":"菖蒲沢","town_kana":"ショウブザワ","prefecture_code":7},"0971":{"zip_code":"9610971","prefecture":"福島県","prefecture_kana":"フクシマケン","city":"白河市","city_kana":"シラカワシ","town":"昭和町","town_kana":"ショウワマチ","prefecture_code":7},"0924":{"zip_code":"9610924","prefecture":"福島県","prefecture_kana":"フクシマケン","city":"白河市","city_kana":"シラカワシ","town":"白井掛","town_kana":"シライガケ","prefecture_code":7},"0923":{"zip_code":"9610923","prefecture":"福島県","prefecture_kana":"フクシマケン","city":"白河市","city_kana":"シラカワシ","town":"白井掛下","town_kana":"シライガケシタ","prefecture_code":7},"0835":{"zip_code":"9610835","prefecture":"福島県","prefecture_kana":"フクシマケン","city":"白河市","city_kana":"シラカワシ","town":"白坂","town_kana":"シラサカ","prefecture_code":7},"0842":{"zip_code":"9610842","prefecture":"福島県","prefecture_kana":"フクシマケン","city":"白河市","city_kana":"シラカワシ","town":"新池","town_kana":"シンイケ","prefecture_code":7},"0933":{"zip_code":"9610933","prefecture":"福島県","prefecture_kana":"フクシマケン","city":"白河市","city_kana":"シラカワシ","town":"新蔵町","town_kana":"シンクラマチ","prefecture_code":7},"0856":{"zip_code":"9610856","prefecture":"福島県","prefecture_kana":"フクシマケン","city":"白河市","city_kana":"シラカワシ","town":"新白河","town_kana":"シンシラカワ","prefecture_code":7},"0853":{"zip_code":"9610853","prefecture":"福島県","prefecture_kana":"フクシマケン","city":"白河市","city_kana":"シラカワシ","town":"新高山","town_kana":"シンタカヤマ","prefecture_code":7},"0024":{"zip_code":"9610024","prefecture":"福島県","prefecture_kana":"フクシマケン","city":"白河市","city_kana":"シラカワシ","town":"新夏梨","town_kana":"シンナツナシ","prefecture_code":7},"0037":{"zip_code":"9610037","prefecture":"福島県","prefecture_kana":"フクシマケン","city":"白河市","city_kana":"シラカワシ","town":"新道","town_kana":"シンミチ","prefecture_code":7},"0811":{"zip_code":"9610811","prefecture":"福島県","prefecture_kana":"フクシマケン","city":"白河市","city_kana":"シラカワシ","town":"菅生舘","town_kana":"スゴウダテ","prefecture_code":7},"0021":{"zip_code":"9610021","prefecture":"福島県","prefecture_kana":"フクシマケン","city":"白河市","city_kana":"シラカワシ","town":"関辺","town_kana":"セキベ","prefecture_code":7},"0822":{"zip_code":"9610822","prefecture":"福島県","prefecture_kana":"フクシマケン","city":"白河市","city_kana":"シラカワシ","town":"瀬戸原","town_kana":"セトハラ","prefecture_code":7},"0916":{"zip_code":"9610916","prefecture":"福島県","prefecture_kana":"フクシマケン","city":"白河市","city_kana":"シラカワシ","town":"束前町","town_kana":"ソクゼンマチ","prefecture_code":7},"0062":{"zip_code":"9610062","prefecture":"福島県","prefecture_kana":"フクシマケン","city":"白河市","city_kana":"シラカワシ","town":"外薄葉","town_kana":"ソトウスバ","prefecture_code":7},"0051":{"zip_code":"9610051","prefecture":"福島県","prefecture_kana":"フクシマケン","city":"白河市","city_kana":"シラカワシ","town":"大","town_kana":"ダイ","prefecture_code":7},"0936":{"zip_code":"9610936","prefecture":"福島県","prefecture_kana":"フクシマケン","city":"白河市","city_kana":"シラカワシ","town":"大工町","town_kana":"ダイクマチ","prefecture_code":7},"8002":{"zip_code":"9618002","prefecture":"福島県","prefecture_kana":"フクシマケン","city":"白河市","city_kana":"シラカワシ","town":"大信隈戸","town_kana":"タイシンクマド","prefecture_code":7},"0953":{"zip_code":"9610953","prefecture":"福島県","prefecture_kana":"フクシマケン","city":"白河市","city_kana":"シラカワシ","town":"鷹匠町","town_kana":"タカジョウマチ","prefecture_code":7},"0854":{"zip_code":"9610854","prefecture":"福島県","prefecture_kana":"フクシマケン","city":"白河市","city_kana":"シラカワシ","town":"高山","town_kana":"タカヤマ","prefecture_code":7},"0855":{"zip_code":"9610855","prefecture":"福島県","prefecture_kana":"フクシマケン","city":"白河市","city_kana":"シラカワシ","town":"高山西","town_kana":"タカヤマニシ","prefecture_code":7},"0015":{"zip_code":"9610015","prefecture":"福島県","prefecture_kana":"フクシマケン","city":"白河市","city_kana":"シラカワシ","town":"田島","town_kana":"タジマ","prefecture_code":7},"0972":{"zip_code":"9610972","prefecture":"福島県","prefecture_kana":"フクシマケン","city":"白河市","city_kana":"シラカワシ","town":"立石","town_kana":"タテイシ","prefecture_code":7},"0975":{"zip_code":"9610975","prefecture":"福島県","prefecture_kana":"フクシマケン","city":"白河市","city_kana":"シラカワシ","town":"立石山","town_kana":"タテイシヤマ","prefecture_code":7},"0061":{"zip_code":"9610061","prefecture":"福島県","prefecture_kana":"フクシマケン","city":"白河市","city_kana":"シラカワシ","town":"田中山","town_kana":"タナカヤマ","prefecture_code":7},"0073":{"zip_code":"9610073","prefecture":"福島県","prefecture_kana":"フクシマケン","city":"白河市","city_kana":"シラカワシ","town":"田町","town_kana":"タマチ","prefecture_code":7},"0866":{"zip_code":"9610866","prefecture":"福島県","prefecture_kana":"フクシマケン","city":"白河市","city_kana":"シラカワシ","town":"鶴芝","town_kana":"ツルシバ","prefecture_code":7},"0087":{"zip_code":"9610087","prefecture":"福島県","prefecture_kana":"フクシマケン","city":"白河市","city_kana":"シラカワシ","town":"鶴巻","town_kana":"ツルマキ","prefecture_code":7},"0086":{"zip_code":"9610086","prefecture":"福島県","prefecture_kana":"フクシマケン","city":"白河市","city_kana":"シラカワシ","town":"鶴巻山","town_kana":"ツルマキヤマ","prefecture_code":7},"0935":{"zip_code":"9610935","prefecture":"福島県","prefecture_kana":"フクシマケン","city":"白河市","city_kana":"シラカワシ","town":"手代町","town_kana":"テダイマチ","prefecture_code":7},"0914":{"zip_code":"9610914","prefecture":"福島県","prefecture_kana":"フクシマケン","city":"白河市","city_kana":"シラカワシ","town":"寺小路","town_kana":"テラコウジ","prefecture_code":7},"0954":{"zip_code":"9610954","prefecture":"福島県","prefecture_kana":"フクシマケン","city":"白河市","city_kana":"シラカワシ","town":"天神町","town_kana":"テンジンマチ","prefecture_code":7},"0957":{"zip_code":"9610957","prefecture":"福島県","prefecture_kana":"フクシマケン","city":"白河市","city_kana":"シラカワシ","town":"道場小路","town_kana":"ドウジョウコウジ","prefecture_code":7},"0955":{"zip_code":"9610955","prefecture":"福島県","prefecture_kana":"フクシマケン","city":"白河市","city_kana":"シラカワシ","town":"道場町","town_kana":"ドウジョウマチ","prefecture_code":7},"0817":{"zip_code":"9610817","prefecture":"福島県","prefecture_kana":"フクシマケン","city":"白河市","city_kana":"シラカワシ","town":"東武塚","town_kana":"トウブヅカ","prefecture_code":7},"0046":{"zip_code":"9610046","prefecture":"福島県","prefecture_kana":"フクシマケン","city":"白河市","city_kana":"シラカワシ","town":"土武塚","town_kana":"ドブヅカ","prefecture_code":7},"0005":{"zip_code":"9610005","prefecture":"福島県","prefecture_kana":"フクシマケン","city":"白河市","city_kana":"シラカワシ","town":"豊地","town_kana":"トヨチ","prefecture_code":7},"0823":{"zip_code":"9610823","prefecture":"福島県","prefecture_kana":"フクシマケン","city":"白河市","city_kana":"シラカワシ","town":"中島","town_kana":"ナカジマ","prefecture_code":7},"0053":{"zip_code":"9610053","prefecture":"福島県","prefecture_kana":"フクシマケン","city":"白河市","city_kana":"シラカワシ","town":"中田","town_kana":"ナカダ","prefecture_code":7},"0844":{"zip_code":"9610844","prefecture":"福島県","prefecture_kana":"フクシマケン","city":"白河市","city_kana":"シラカワシ","town":"中野山","town_kana":"ナカノヤマ","prefecture_code":7},"0951":{"zip_code":"9610951","prefecture":"福島県","prefecture_kana":"フクシマケン","city":"白河市","city_kana":"シラカワシ","town":"中町","town_kana":"ナカマチ","prefecture_code":7},"0952":{"zip_code":"9610952","prefecture":"福島県","prefecture_kana":"フクシマケン","city":"白河市","city_kana":"シラカワシ","town":"中町北裏","town_kana":"ナカマチキタウラ","prefecture_code":7},"0995":{"zip_code":"9610995","prefecture":"福島県","prefecture_kana":"フクシマケン","city":"白河市","city_kana":"シラカワシ","town":"中山","town_kana":"ナカヤマ","prefecture_code":7},"0994":{"zip_code":"9610994","prefecture":"福島県","prefecture_kana":"フクシマケン","city":"白河市","city_kana":"シラカワシ","town":"中山下","town_kana":"ナカヤマシタ","prefecture_code":7},"0991":{"zip_code":"9610991","prefecture":"福島県","prefecture_kana":"フクシマケン","city":"白河市","city_kana":"シラカワシ","town":"中山東","town_kana":"ナカヤマヒガシ","prefecture_code":7},"0993":{"zip_code":"9610993","prefecture":"福島県","prefecture_kana":"フクシマケン","city":"白河市","city_kana":"シラカワシ","town":"中山南","town_kana":"ナカヤマミナミ","prefecture_code":7},"0025":{"zip_code":"9610025","prefecture":"福島県","prefecture_kana":"フクシマケン","city":"白河市","city_kana":"シラカワシ","town":"夏梨","town_kana":"ナツナシ","prefecture_code":7},"0812":{"zip_code":"9610812","prefecture":"福島県","prefecture_kana":"フクシマケン","city":"白河市","city_kana":"シラカワシ","town":"南湖","town_kana":"ナンコ","prefecture_code":7},"0077":{"zip_code":"9610077","prefecture":"福島県","prefecture_kana":"フクシマケン","city":"白河市","city_kana":"シラカワシ","town":"仁井町","town_kana":"ニイマチ","prefecture_code":7},"0816":{"zip_code":"9610816","prefecture":"福島県","prefecture_kana":"フクシマケン","city":"白河市","city_kana":"シラカワシ","town":"西大沼","town_kana":"ニシオオヌマ","prefecture_code":7},"0832":{"zip_code":"9610832","prefecture":"福島県","prefecture_kana":"フクシマケン","city":"白河市","city_kana":"シラカワシ","town":"西小丸山","town_kana":"ニシコマルヤマ","prefecture_code":7},"0834":{"zip_code":"9610834","prefecture":"福島県","prefecture_kana":"フクシマケン","city":"白河市","city_kana":"シラカワシ","town":"西三坂","town_kana":"ニシミサカ","prefecture_code":7},"0837":{"zip_code":"9610837","prefecture":"福島県","prefecture_kana":"フクシマケン","city":"白河市","city_kana":"シラカワシ","town":"西三坂山","town_kana":"ニシミサカヤマ","prefecture_code":7},"0946":{"zip_code":"9610946","prefecture":"福島県","prefecture_kana":"フクシマケン","city":"白河市","city_kana":"シラカワシ","town":"二番町","town_kana":"ニバンチョウ","prefecture_code":7},"0903":{"zip_code":"9610903","prefecture":"福島県","prefecture_kana":"フクシマケン","city":"白河市","city_kana":"シラカワシ","town":"年貢町","town_kana":"ネングマチ","prefecture_code":7},"0962":{"zip_code":"9610962","prefecture":"福島県","prefecture_kana":"フクシマケン","city":"白河市","city_kana":"シラカワシ","town":"登リ町","town_kana":"ノボリマチ","prefecture_code":7},"0038":{"zip_code":"9610038","prefecture":"福島県","prefecture_kana":"フクシマケン","city":"白河市","city_kana":"シラカワシ","town":"旗宿","town_kana":"ハタジュク","prefecture_code":7},"0941":{"zip_code":"9610941","prefecture":"福島県","prefecture_kana":"フクシマケン","city":"白河市","city_kana":"シラカワシ","town":"八幡小路","town_kana":"ハチマンコウジ","prefecture_code":7},"0033":{"zip_code":"9610033","prefecture":"福島県","prefecture_kana":"フクシマケン","city":"白河市","city_kana":"シラカワシ","town":"八幡山","town_kana":"ハチマンヤマ","prefecture_code":7},"0047":{"zip_code":"9610047","prefecture":"福島県","prefecture_kana":"フクシマケン","city":"白河市","city_kana":"シラカワシ","town":"八竜神","town_kana":"ハチリュウジン","prefecture_code":7},"0865":{"zip_code":"9610865","prefecture":"福島県","prefecture_kana":"フクシマケン","city":"白河市","city_kana":"シラカワシ","town":"花見坂","town_kana":"ハナミザカ","prefecture_code":7},"0093":{"zip_code":"9610093","prefecture":"福島県","prefecture_kana":"フクシマケン","city":"白河市","city_kana":"シラカワシ","town":"葉ノ木平","town_kana":"ハノキダイラ","prefecture_code":7},"0902":{"zip_code":"9610902","prefecture":"福島県","prefecture_kana":"フクシマケン","city":"白河市","city_kana":"シラカワシ","town":"番士小路","town_kana":"バンシコウジ","prefecture_code":7},"0963":{"zip_code":"9610963","prefecture":"福島県","prefecture_kana":"フクシマケン","city":"白河市","city_kana":"シラカワシ","town":"日影","town_kana":"ヒカゲ","prefecture_code":7},"0306":{"zip_code":"9610306","prefecture":"福島県","prefecture_kana":"フクシマケン","city":"白河市","city_kana":"シラカワシ","town":"東形見","town_kana":"ヒガシカタミ","prefecture_code":7},"0308":{"zip_code":"9610308","prefecture":"福島県","prefecture_kana":"フクシマケン","city":"白河市","city_kana":"シラカワシ","town":"東蕪内","town_kana":"ヒガシカブウチ","prefecture_code":7},"0303":{"zip_code":"9610303","prefecture":"福島県","prefecture_kana":"フクシマケン","city":"白河市","city_kana":"シラカワシ","town":"東釜子","town_kana":"ヒガシカマコ","prefecture_code":7},"0302":{"zip_code":"9610302","prefecture":"福島県","prefecture_kana":"フクシマケン","city":"白河市","city_kana":"シラカワシ","town":"東上野出島","town_kana":"ヒガシカミノデジマ","prefecture_code":7},"0304":{"zip_code":"9610304","prefecture":"福島県","prefecture_kana":"フクシマケン","city":"白河市","city_kana":"シラカワシ","town":"東工業団地","town_kana":"ヒガシコウギョウダンチ","prefecture_code":7},"0301":{"zip_code":"9610301","prefecture":"福島県","prefecture_kana":"フクシマケン","city":"白河市","city_kana":"シラカワシ","town":"東下野出島","town_kana":"ヒガシシモノデジマ","prefecture_code":7},"0305":{"zip_code":"9610305","prefecture":"福島県","prefecture_kana":"フクシマケン","city":"白河市","city_kana":"シラカワシ","town":"東千田","town_kana":"ヒガシセンダ","prefecture_code":7},"0307":{"zip_code":"9610307","prefecture":"福島県","prefecture_kana":"フクシマケン","city":"白河市","city_kana":"シラカワシ","town":"東栃本","town_kana":"ヒガシトチモト","prefecture_code":7},"0309":{"zip_code":"9610309","prefecture":"福島県","prefecture_kana":"フクシマケン","city":"白河市","city_kana":"シラカワシ","town":"東深仁井田","town_kana":"ヒガシフカニイダ","prefecture_code":7},"0813":{"zip_code":"9610813","prefecture":"福島県","prefecture_kana":"フクシマケン","city":"白河市","city_kana":"シラカワシ","town":"東大沼","town_kana":"ヒガシオオヌマ","prefecture_code":7},"0883":{"zip_code":"9610883","prefecture":"福島県","prefecture_kana":"フクシマケン","city":"白河市","city_kana":"シラカワシ","town":"東小丸山","town_kana":"ヒガシコマルヤマ","prefecture_code":7},"0833":{"zip_code":"9610833","prefecture":"福島県","prefecture_kana":"フクシマケン","city":"白河市","city_kana":"シラカワシ","town":"東三坂山","town_kana":"ヒガシミサカヤマ","prefecture_code":7},"0964":{"zip_code":"9610964","prefecture":"福島県","prefecture_kana":"フクシマケン","city":"白河市","city_kana":"シラカワシ","town":"日向","town_kana":"ヒナタ","prefecture_code":7},"0861":{"zip_code":"9610861","prefecture":"福島県","prefecture_kana":"フクシマケン","city":"白河市","city_kana":"シラカワシ","town":"風神下","town_kana":"フウジンシタ","prefecture_code":7},"0864":{"zip_code":"9610864","prefecture":"福島県","prefecture_kana":"フクシマケン","city":"白河市","city_kana":"シラカワシ","town":"風神山東","town_kana":"フウジンヤマヒガシ","prefecture_code":7},"0934":{"zip_code":"9610934","prefecture":"福島県","prefecture_kana":"フクシマケン","city":"白河市","city_kana":"シラカワシ","town":"袋町","town_kana":"フクロマチ","prefecture_code":7},"0043":{"zip_code":"9610043","prefecture":"福島県","prefecture_kana":"フクシマケン","city":"白河市","city_kana":"シラカワシ","town":"藤沢","town_kana":"フジサワ","prefecture_code":7},"0044":{"zip_code":"9610044","prefecture":"福島県","prefecture_kana":"フクシマケン","city":"白河市","city_kana":"シラカワシ","town":"藤沢山","town_kana":"フジサワヤマ","prefecture_code":7},"0013":{"zip_code":"9610013","prefecture":"福島県","prefecture_kana":"フクシマケン","city":"白河市","city_kana":"シラカワシ","town":"舟田","town_kana":"フナダ","prefecture_code":7},"0843":{"zip_code":"9610843","prefecture":"福島県","prefecture_kana":"フクシマケン","city":"白河市","city_kana":"シラカワシ","town":"古池","town_kana":"フルイケ","prefecture_code":7},"0841":{"zip_code":"9610841","prefecture":"福島県","prefecture_kana":"フクシマケン","city":"白河市","city_kana":"シラカワシ","town":"古高山","town_kana":"フルタカヤマ","prefecture_code":7},"0804":{"zip_code":"9610804","prefecture":"福島県","prefecture_kana":"フクシマケン","city":"白河市","city_kana":"シラカワシ","town":"蛇石","town_kana":"ヘビイシ","prefecture_code":7},"0801":{"zip_code":"9610801","prefecture":"福島県","prefecture_kana":"フクシマケン","city":"白河市","city_kana":"シラカワシ","town":"豊年","town_kana":"ホウネン","prefecture_code":7},"0085":{"zip_code":"9610085","prefecture":"福島県","prefecture_kana":"フクシマケン","city":"白河市","city_kana":"シラカワシ","town":"町田","town_kana":"マチダ","prefecture_code":7},"0873":{"zip_code":"9610873","prefecture":"福島県","prefecture_kana":"フクシマケン","city":"白河市","city_kana":"シラカワシ","town":"松並","town_kana":"マツナミ","prefecture_code":7},"0983":{"zip_code":"9610983","prefecture":"福島県","prefecture_kana":"フクシマケン","city":"白河市","city_kana":"シラカワシ","town":"真舟","town_kana":"マブネ","prefecture_code":7},"0824":{"zip_code":"9610824","prefecture":"福島県","prefecture_kana":"フクシマケン","city":"白河市","city_kana":"シラカワシ","town":"丸小山","town_kana":"マルコヤマ","prefecture_code":7},"0836":{"zip_code":"9610836","prefecture":"福島県","prefecture_kana":"フクシマケン","city":"白河市","city_kana":"シラカワシ","town":"みさか","town_kana":"ミサカ","prefecture_code":7},"0031":{"zip_code":"9610031","prefecture":"福島県","prefecture_kana":"フクシマケン","city":"白河市","city_kana":"シラカワシ","town":"道東","town_kana":"ミチヒガシ","prefecture_code":7},"0035":{"zip_code":"9610035","prefecture":"福島県","prefecture_kana":"フクシマケン","city":"白河市","city_kana":"シラカワシ","town":"南家ノ前","town_kana":"ミナミイエノマエ","prefecture_code":7},"0022":{"zip_code":"9610022","prefecture":"福島県","prefecture_kana":"フクシマケン","city":"白河市","city_kana":"シラカワシ","town":"南池下","town_kana":"ミナミイケシタ","prefecture_code":7},"0052":{"zip_code":"9610052","prefecture":"福島県","prefecture_kana":"フクシマケン","city":"白河市","city_kana":"シラカワシ","town":"南中川原","town_kana":"ミナミナカガワラ","prefecture_code":7},"0851":{"zip_code":"9610851","prefecture":"福島県","prefecture_kana":"フクシマケン","city":"白河市","city_kana":"シラカワシ","town":"南登リ町","town_kana":"ミナミノボリマチ","prefecture_code":7},"0992":{"zip_code":"9610992","prefecture":"福島県","prefecture_kana":"フクシマケン","city":"白河市","city_kana":"シラカワシ","town":"南堀川端","town_kana":"ミナミホリカワバタ","prefecture_code":7},"0857":{"zip_code":"9610857","prefecture":"福島県","prefecture_kana":"フクシマケン","city":"白河市","city_kana":"シラカワシ","town":"南堀切","town_kana":"ミナミホリキリ","prefecture_code":7},"0932":{"zip_code":"9610932","prefecture":"福島県","prefecture_kana":"フクシマケン","city":"白河市","city_kana":"シラカワシ","town":"南町","town_kana":"ミナミマチ","prefecture_code":7},"0982":{"zip_code":"9610982","prefecture":"福島県","prefecture_kana":"フクシマケン","city":"白河市","city_kana":"シラカワシ","town":"南真舟","town_kana":"ミナミマブネ","prefecture_code":7},"0925":{"zip_code":"9610925","prefecture":"福島県","prefecture_kana":"フクシマケン","city":"白河市","city_kana":"シラカワシ","town":"向新蔵","town_kana":"ムカイシンクラ","prefecture_code":7},"0065":{"zip_code":"9610065","prefecture":"福島県","prefecture_kana":"フクシマケン","city":"白河市","city_kana":"シラカワシ","town":"向寺","town_kana":"ムカイデラ","prefecture_code":7},"0945":{"zip_code":"9610945","prefecture":"福島県","prefecture_kana":"フクシマケン","city":"白河市","city_kana":"シラカワシ","town":"巡り矢","town_kana":"メグリヤ","prefecture_code":7},"0012":{"zip_code":"9610012","prefecture":"福島県","prefecture_kana":"フクシマケン","city":"白河市","city_kana":"シラカワシ","town":"本沼","town_kana":"モトヌマ","prefecture_code":7},"0905":{"zip_code":"9610905","prefecture":"福島県","prefecture_kana":"フクシマケン","city":"白河市","city_kana":"シラカワシ","town":"本町","town_kana":"モトマチ","prefecture_code":7},"0906":{"zip_code":"9610906","prefecture":"福島県","prefecture_kana":"フクシマケン","city":"白河市","city_kana":"シラカワシ","town":"本町北裏","town_kana":"モトマチキタウラ","prefecture_code":7},"0805":{"zip_code":"9610805","prefecture":"福島県","prefecture_kana":"フクシマケン","city":"白河市","city_kana":"シラカワシ","town":"文珠山","town_kana":"モンジュヤマ","prefecture_code":7},"0917":{"zip_code":"9610917","prefecture":"福島県","prefecture_kana":"フクシマケン","city":"白河市","city_kana":"シラカワシ","town":"八百屋町","town_kana":"ヤオヤチョウ","prefecture_code":7},"0034":{"zip_code":"9610034","prefecture":"福島県","prefecture_kana":"フクシマケン","city":"白河市","city_kana":"シラカワシ","town":"屋敷添","town_kana":"ヤシキゾエ","prefecture_code":7},"0091":{"zip_code":"9610091","prefecture":"福島県","prefecture_kana":"フクシマケン","city":"白河市","city_kana":"シラカワシ","town":"弥次郎窪","town_kana":"ヤジロウクボ","prefecture_code":7},"0041":{"zip_code":"9610041","prefecture":"福島県","prefecture_kana":"フクシマケン","city":"白河市","city_kana":"シラカワシ","town":"結城","town_kana":"ユウキ","prefecture_code":7},"0926":{"zip_code":"9610926","prefecture":"福島県","prefecture_kana":"フクシマケン","city":"白河市","city_kana":"シラカワシ","town":"友月山","town_kana":"ユウゲツザン","prefecture_code":7},"0907":{"zip_code":"9610907","prefecture":"福島県","prefecture_kana":"フクシマケン","city":"白河市","city_kana":"シラカワシ","town":"横町","town_kana":"ヨコマチ","prefecture_code":7},"0881":{"zip_code":"9610881","prefecture":"福島県","prefecture_kana":"フクシマケン","city":"白河市","city_kana":"シラカワシ","town":"与惣小屋","town_kana":"ヨソウゴヤ","prefecture_code":7},"0882":{"zip_code":"9610882","prefecture":"福島県","prefecture_kana":"フクシマケン","city":"白河市","city_kana":"シラカワシ","town":"与惣小屋山","town_kana":"ヨソウゴヤヤマ","prefecture_code":7},"0961":{"zip_code":"9610961","prefecture":"福島県","prefecture_kana":"フクシマケン","city":"白河市","city_kana":"シラカワシ","town":"四ツ谷","town_kana":"ヨツヤ","prefecture_code":7},"0078":{"zip_code":"9610078","prefecture":"福島県","prefecture_kana":"フクシマケン","city":"白河市","city_kana":"シラカワシ","town":"米村道北","town_kana":"ヨネムラミチキタ","prefecture_code":7},"0871":{"zip_code":"9610871","prefecture":"福島県","prefecture_kana":"フクシマケン","city":"白河市","city_kana":"シラカワシ","town":"米山越","town_kana":"ヨネヤマゴエ","prefecture_code":7},"0066":{"zip_code":"9610066","prefecture":"福島県","prefecture_kana":"フクシマケン","city":"白河市","city_kana":"シラカワシ","town":"羅漢前","town_kana":"ラカンマエ","prefecture_code":7},"0092":{"zip_code":"9610092","prefecture":"福島県","prefecture_kana":"フクシマケン","city":"白河市","city_kana":"シラカワシ","town":"六反山","town_kana":"ロクタンヤマ","prefecture_code":7},"8043":{"zip_code":"9618043","prefecture":"福島県","prefecture_kana":"フクシマケン","city":"西白河郡西郷村","city_kana":"ニシシラカワグンニシゴウムラ","town":"石塚南","town_kana":"イシヅカミナミ","prefecture_code":7},"8044":{"zip_code":"9618044","prefecture":"福島県","prefecture_kana":"フクシマケン","city":"西白河郡西郷村","city_kana":"ニシシラカワグンニシゴウムラ","town":"石塚北","town_kana":"イシヅカキタ","prefecture_code":7},"8047":{"zip_code":"9618047","prefecture":"福島県","prefecture_kana":"フクシマケン","city":"西白河郡西郷村","city_kana":"ニシシラカワグンニシゴウムラ","town":"裏山南","town_kana":"ウラヤマミナミ","prefecture_code":7},"8061":{"zip_code":"9618061","prefecture":"福島県","prefecture_kana":"フクシマケン","city":"西白河郡西郷村","city_kana":"ニシシラカワグンニシゴウムラ","town":"小田倉","town_kana":"オダクラ","prefecture_code":7},"8011":{"zip_code":"9618011","prefecture":"福島県","prefecture_kana":"フクシマケン","city":"西白河郡西郷村","city_kana":"ニシシラカワグンニシゴウムラ","town":"柏野","town_kana":"カシワノ","prefecture_code":7},"8091":{"zip_code":"9618091","prefecture":"福島県","prefecture_kana":"フクシマケン","city":"西白河郡西郷村","city_kana":"ニシシラカワグンニシゴウムラ","town":"熊倉","town_kana":"クマグラ","prefecture_code":7},"8051":{"zip_code":"9618051","prefecture":"福島県","prefecture_kana":"フクシマケン","city":"西白河郡西郷村","city_kana":"ニシシラカワグンニシゴウムラ","town":"下前田東","town_kana":"シモマエダヒガシ","prefecture_code":7},"8056":{"zip_code":"9618056","prefecture":"福島県","prefecture_kana":"フクシマケン","city":"西白河郡西郷村","city_kana":"ニシシラカワグンニシゴウムラ","town":"下前田西","town_kana":"シモマエダニシ","prefecture_code":7},"8081":{"zip_code":"9618081","prefecture":"福島県","prefecture_kana":"フクシマケン","city":"西白河郡西郷村","city_kana":"ニシシラカワグンニシゴウムラ","town":"鶴生","town_kana":"ツリュウ","prefecture_code":7},"8052":{"zip_code":"9618052","prefecture":"福島県","prefecture_kana":"フクシマケン","city":"西白河郡西郷村","city_kana":"ニシシラカワグンニシゴウムラ","town":"道南東","town_kana":"ドウナンヒガシ","prefecture_code":7},"8055":{"zip_code":"9618055","prefecture":"福島県","prefecture_kana":"フクシマケン","city":"西白河郡西郷村","city_kana":"ニシシラカワグンニシゴウムラ","town":"道南西","town_kana":"ドウナンニシ","prefecture_code":7},"8041":{"zip_code":"9618041","prefecture":"福島県","prefecture_kana":"フクシマケン","city":"西白河郡西郷村","city_kana":"ニシシラカワグンニシゴウムラ","town":"豊作東","town_kana":"トヨサクヒガシ","prefecture_code":7},"8042":{"zip_code":"9618042","prefecture":"福島県","prefecture_kana":"フクシマケン","city":"西白河郡西郷村","city_kana":"ニシシラカワグンニシゴウムラ","town":"豊作西","town_kana":"トヨサクニシ","prefecture_code":7},"8021":{"zip_code":"9618021","prefecture":"福島県","prefecture_kana":"フクシマケン","city":"西白河郡西郷村","city_kana":"ニシシラカワグンニシゴウムラ","town":"長坂","town_kana":"ナガサカ","prefecture_code":7},"8001":{"zip_code":"9618001","prefecture":"福島県","prefecture_kana":"フクシマケン","city":"西白河郡西郷村","city_kana":"ニシシラカワグンニシゴウムラ","town":"羽太","town_kana":"ハブト","prefecture_code":7},"8053":{"zip_code":"9618053","prefecture":"福島県","prefecture_kana":"フクシマケン","city":"西白河郡西郷村","city_kana":"ニシシラカワグンニシゴウムラ","town":"前山東","town_kana":"マエヤマヒガシ","prefecture_code":7},"8054":{"zip_code":"9618054","prefecture":"福島県","prefecture_kana":"フクシマケン","city":"西白河郡西郷村","city_kana":"ニシシラカワグンニシゴウムラ","town":"前山西","town_kana":"マエヤマニシ","prefecture_code":7},"8071":{"zip_code":"9618071","prefecture":"福島県","prefecture_kana":"フクシマケン","city":"西白河郡西郷村","city_kana":"ニシシラカワグンニシゴウムラ","town":"真船","town_kana":"マブネ","prefecture_code":7},"8046":{"zip_code":"9618046","prefecture":"福島県","prefecture_kana":"フクシマケン","city":"西白河郡西郷村","city_kana":"ニシシラカワグンニシゴウムラ","town":"屋敷裏東","town_kana":"ヤシキウラヒガシ","prefecture_code":7},"8045":{"zip_code":"9618045","prefecture":"福島県","prefecture_kana":"フクシマケン","city":"西白河郡西郷村","city_kana":"ニシシラカワグンニシゴウムラ","town":"屋敷裏西","town_kana":"ヤシキウラニシ","prefecture_code":7},"8031":{"zip_code":"9618031","prefecture":"福島県","prefecture_kana":"フクシマケン","city":"西白河郡西郷村","city_kana":"ニシシラカワグンニシゴウムラ","town":"米","town_kana":"ヨネ","prefecture_code":7},"0100":{"zip_code":"9610100","prefecture":"福島県","prefecture_kana":"フクシマケン","city":"西白河郡中島村","city_kana":"ニシシラカワグンナカジマムラ","town":"","town_kana":"","prefecture_code":7},"0105":{"zip_code":"9610105","prefecture":"福島県","prefecture_kana":"フクシマケン","city":"西白河郡中島村","city_kana":"ニシシラカワグンナカジマムラ","town":"川原田","town_kana":"カワハラダ","prefecture_code":7},"0103":{"zip_code":"9610103","prefecture":"福島県","prefecture_kana":"フクシマケン","city":"西白河郡中島村","city_kana":"ニシシラカワグンナカジマムラ","town":"中島","town_kana":"ナカジマ","prefecture_code":7},"0102":{"zip_code":"9610102","prefecture":"福島県","prefecture_kana":"フクシマケン","city":"西白河郡中島村","city_kana":"ニシシラカワグンナカジマムラ","town":"滑津","town_kana":"ナメツ","prefecture_code":7},"0106":{"zip_code":"9610106","prefecture":"福島県","prefecture_kana":"フクシマケン","city":"西白河郡中島村","city_kana":"ニシシラカワグンナカジマムラ","town":"二子塚","town_kana":"フタゴツカ","prefecture_code":7},"0101":{"zip_code":"9610101","prefecture":"福島県","prefecture_kana":"フクシマケン","city":"西白河郡中島村","city_kana":"ニシシラカワグンナカジマムラ","town":"松崎","town_kana":"マツザキ","prefecture_code":7},"0104":{"zip_code":"9610104","prefecture":"福島県","prefecture_kana":"フクシマケン","city":"西白河郡中島村","city_kana":"ニシシラカワグンナカジマムラ","town":"吉岡","town_kana":"ヨシオカ","prefecture_code":7}}