{"0000":{"zip_code":"9620000","prefecture":"福島県","prefecture_kana":"フクシマケン","city":"須賀川市","city_kana":"スカガワシ","town":"","town_kana":"","prefecture_code":7},"0811":{"zip_code":"9620811","prefecture":"福島県","prefecture_kana":"フクシマケン","city":"須賀川市","city_kana":"スカガワシ","town":"あおば町","town_kana":"アオバチョウ","prefecture_code":7},"0816":{"zip_code":"9620816","prefecture":"福島県","prefecture_kana":"フクシマケン","city":"須賀川市","city_kana":"スカガワシ","town":"朝日田","town_kana":"アサヒダ","prefecture_code":7},"0834":{"zip_code":"9620834","prefecture":"福島県","prefecture_kana":"フクシマケン","city":"須賀川市","city_kana":"スカガワシ","town":"旭町","town_kana":"アサヒマチ","prefecture_code":7},"0868":{"zip_code":"9620868","prefecture":"福島県","prefecture_kana":"フクシマケン","city":"須賀川市","city_kana":"スカガワシ","town":"芦田塚","town_kana":"アシダツカ","prefecture_code":7},"0867":{"zip_code":"9620867","prefecture":"福島県","prefecture_kana":"フクシマケン","city":"須賀川市","city_kana":"スカガワシ","town":"愛宕山","town_kana":"アタゴヤマ","prefecture_code":7},"0721":{"zip_code":"9620721","prefecture":"福島県","prefecture_kana":"フクシマケン","city":"須賀川市","city_kana":"スカガワシ","town":"雨田","town_kana":"アメダ","prefecture_code":7},"0843":{"zip_code":"9620843","prefecture":"福島県","prefecture_kana":"フクシマケン","city":"須賀川市","city_kana":"スカガワシ","town":"池上町","town_kana":"イケガミチョウ","prefecture_code":7},"0044":{"zip_code":"9620044","prefecture":"福島県","prefecture_kana":"フクシマケン","city":"須賀川市","city_kana":"スカガワシ","town":"池下","town_kana":"イケシタ","prefecture_code":7},"0058":{"zip_code":"9620058","prefecture":"福島県","prefecture_kana":"フクシマケン","city":"須賀川市","city_kana":"スカガワシ","town":"池ノ下町","town_kana":"イケノシタチョウ","prefecture_code":7},"0046":{"zip_code":"9620046","prefecture":"福島県","prefecture_kana":"フクシマケン","city":"須賀川市","city_kana":"スカガワシ","town":"泉田","town_kana":"イズミダ","prefecture_code":7},"0726":{"zip_code":"9620726","prefecture":"福島県","prefecture_kana":"フクシマケン","city":"須賀川市","city_kana":"スカガワシ","town":"市野関","town_kana":"イチノセキ","prefecture_code":7},"0034":{"zip_code":"9620034","prefecture":"福島県","prefecture_kana":"フクシマケン","city":"須賀川市","city_kana":"スカガワシ","town":"一里坦","town_kana":"イチリダン","prefecture_code":7},"0042":{"zip_code":"9620042","prefecture":"福島県","prefecture_kana":"フクシマケン","city":"須賀川市","city_kana":"スカガワシ","town":"稲","town_kana":"イナ","prefecture_code":7},"0024":{"zip_code":"9620024","prefecture":"福島県","prefecture_kana":"フクシマケン","city":"須賀川市","city_kana":"スカガワシ","town":"稲荷町","town_kana":"イナリマチ","prefecture_code":7},"0301":{"zip_code":"9620301","prefecture":"福島県","prefecture_kana":"フクシマケン","city":"須賀川市","city_kana":"スカガワシ","town":"今泉","town_kana":"イマイズミ","prefecture_code":7},"0026":{"zip_code":"9620026","prefecture":"福島県","prefecture_kana":"フクシマケン","city":"須賀川市","city_kana":"スカガワシ","town":"岩崎","town_kana":"イワサキ","prefecture_code":7},"0033":{"zip_code":"9620033","prefecture":"福島県","prefecture_kana":"フクシマケン","city":"須賀川市","city_kana":"スカガワシ","town":"岩作","town_kana":"イワサク","prefecture_code":7},"0003":{"zip_code":"9620003","prefecture":"福島県","prefecture_kana":"フクシマケン","city":"須賀川市","city_kana":"スカガワシ","town":"岩瀬森","town_kana":"イワセモリ","prefecture_code":7},"0043":{"zip_code":"9620043","prefecture":"福島県","prefecture_kana":"フクシマケン","city":"須賀川市","city_kana":"スカガワシ","town":"岩渕","town_kana":"イワブチ","prefecture_code":7},"0054":{"zip_code":"9620054","prefecture":"福島県","prefecture_kana":"フクシマケン","city":"須賀川市","city_kana":"スカガワシ","town":"牛袋町","town_kana":"ウシブクロマチ","prefecture_code":7},"0833":{"zip_code":"9620833","prefecture":"福島県","prefecture_kana":"フクシマケン","city":"須賀川市","city_kana":"スカガワシ","town":"馬町","town_kana":"ウママチ","prefecture_code":7},"0303":{"zip_code":"9620303","prefecture":"福島県","prefecture_kana":"フクシマケン","city":"須賀川市","city_kana":"スカガワシ","town":"梅田","town_kana":"ウメタ","prefecture_code":7},"0204":{"zip_code":"9620204","prefecture":"福島県","prefecture_kana":"フクシマケン","city":"須賀川市","city_kana":"スカガワシ","town":"江花","town_kana":"エバナ","prefecture_code":7},"0801":{"zip_code":"9620801","prefecture":"福島県","prefecture_kana":"フクシマケン","city":"須賀川市","city_kana":"スカガワシ","town":"江持","town_kana":"エモチ","prefecture_code":7},"0056":{"zip_code":"9620056","prefecture":"福島県","prefecture_kana":"フクシマケン","city":"須賀川市","city_kana":"スカガワシ","town":"大桑原","town_kana":"オオカンバラ","prefecture_code":7},"0312":{"zip_code":"9620312","prefecture":"福島県","prefecture_kana":"フクシマケン","city":"須賀川市","city_kana":"スカガワシ","town":"大久保","town_kana":"オオクボ","prefecture_code":7},"0722":{"zip_code":"9620722","prefecture":"福島県","prefecture_kana":"フクシマケン","city":"須賀川市","city_kana":"スカガワシ","town":"大栗","town_kana":"オオグリ","prefecture_code":7},"0032":{"zip_code":"9620032","prefecture":"福島県","prefecture_kana":"フクシマケン","city":"須賀川市","city_kana":"スカガワシ","town":"大袋町","town_kana":"オオブクロマチ","prefecture_code":7},"0839":{"zip_code":"9620839","prefecture":"福島県","prefecture_kana":"フクシマケン","city":"須賀川市","city_kana":"スカガワシ","town":"大町","town_kana":"オオマチ","prefecture_code":7},"0013":{"zip_code":"9620013","prefecture":"福島県","prefecture_kana":"フクシマケン","city":"須賀川市","city_kana":"スカガワシ","town":"岡東町","town_kana":"オカヒガシマチ","prefecture_code":7},"0712":{"zip_code":"9620712","prefecture":"福島県","prefecture_kana":"フクシマケン","city":"須賀川市","city_kana":"スカガワシ","town":"小倉","town_kana":"オグラ","prefecture_code":7},"0051":{"zip_code":"9620051","prefecture":"福島県","prefecture_kana":"フクシマケン","city":"須賀川市","city_kana":"スカガワシ","town":"越久","town_kana":"オッキュウ","prefecture_code":7},"0053":{"zip_code":"9620053","prefecture":"福島県","prefecture_kana":"フクシマケン","city":"須賀川市","city_kana":"スカガワシ","town":"卸町","town_kana":"オロシマチ","prefecture_code":7},"0031":{"zip_code":"9620031","prefecture":"福島県","prefecture_kana":"フクシマケン","city":"須賀川市","city_kana":"スカガワシ","town":"影沼町","town_kana":"カゲヌママチ","prefecture_code":7},"0846":{"zip_code":"9620846","prefecture":"福島県","prefecture_kana":"フクシマケン","city":"須賀川市","city_kana":"スカガワシ","town":"加治町","town_kana":"カジマチ","prefecture_code":7},"0713":{"zip_code":"9620713","prefecture":"福島県","prefecture_kana":"フクシマケン","city":"須賀川市","city_kana":"スカガワシ","town":"上小山田","town_kana":"カミオヤマダ","prefecture_code":7},"0841":{"zip_code":"9620841","prefecture":"福島県","prefecture_kana":"フクシマケン","city":"須賀川市","city_kana":"スカガワシ","town":"上北町","town_kana":"カミキタマチ","prefecture_code":7},"0864":{"zip_code":"9620864","prefecture":"福島県","prefecture_kana":"フクシマケン","city":"須賀川市","city_kana":"スカガワシ","town":"北上町","town_kana":"キタウワマチ","prefecture_code":7},"0856":{"zip_code":"9620856","prefecture":"福島県","prefecture_kana":"フクシマケン","city":"須賀川市","city_kana":"スカガワシ","town":"北町","town_kana":"キタマチ","prefecture_code":7},"0313":{"zip_code":"9620313","prefecture":"福島県","prefecture_kana":"フクシマケン","city":"須賀川市","city_kana":"スカガワシ","town":"北横田","town_kana":"キタヨコタ","prefecture_code":7},"0405":{"zip_code":"9620405","prefecture":"福島県","prefecture_kana":"フクシマケン","city":"須賀川市","city_kana":"スカガワシ","town":"季の郷","town_kana":"キノサト","prefecture_code":7},"0122":{"zip_code":"9620122","prefecture":"福島県","prefecture_kana":"フクシマケン","city":"須賀川市","city_kana":"スカガワシ","town":"木之崎","town_kana":"キノサキ","prefecture_code":7},"0805":{"zip_code":"9620805","prefecture":"福島県","prefecture_kana":"フクシマケン","city":"須賀川市","city_kana":"スカガワシ","town":"崩免","town_kana":"クズレメン","prefecture_code":7},"0866":{"zip_code":"9620866","prefecture":"福島県","prefecture_kana":"フクシマケン","city":"須賀川市","city_kana":"スカガワシ","town":"栗谷沢","town_kana":"クリヤサワ","prefecture_code":7},"0848":{"zip_code":"9620848","prefecture":"福島県","prefecture_kana":"フクシマケン","city":"須賀川市","city_kana":"スカガワシ","town":"弘法坦","town_kana":"コウボウダン","prefecture_code":7},"0401":{"zip_code":"9620401","prefecture":"福島県","prefecture_kana":"フクシマケン","city":"須賀川市","city_kana":"スカガワシ","town":"向陽町","town_kana":"コウヨウチョウ","prefecture_code":7},"0727":{"zip_code":"9620727","prefecture":"福島県","prefecture_kana":"フクシマケン","city":"須賀川市","city_kana":"スカガワシ","town":"小作田","town_kana":"コサクダ","prefecture_code":7},"0202":{"zip_code":"9620202","prefecture":"福島県","prefecture_kana":"フクシマケン","city":"須賀川市","city_kana":"スカガワシ","town":"小中","town_kana":"コナカ","prefecture_code":7},"0807":{"zip_code":"9620807","prefecture":"福島県","prefecture_kana":"フクシマケン","city":"須賀川市","city_kana":"スカガワシ","town":"境免","town_kana":"サカイメン","prefecture_code":7},"0858":{"zip_code":"9620858","prefecture":"福島県","prefecture_kana":"フクシマケン","city":"須賀川市","city_kana":"スカガワシ","town":"栄町","town_kana":"サカエマチ","prefecture_code":7},"0011":{"zip_code":"9620011","prefecture":"福島県","prefecture_kana":"フクシマケン","city":"須賀川市","city_kana":"スカガワシ","town":"坂の上町","town_kana":"サカノウエマチ","prefecture_code":7},"0821":{"zip_code":"9620821","prefecture":"福島県","prefecture_kana":"フクシマケン","city":"須賀川市","city_kana":"スカガワシ","town":"桜岡","town_kana":"サクラガオカ","prefecture_code":7},"0035":{"zip_code":"9620035","prefecture":"福島県","prefecture_kana":"フクシマケン","city":"須賀川市","city_kana":"スカガワシ","town":"五月雨","town_kana":"サミダレ","prefecture_code":7},"0711":{"zip_code":"9620711","prefecture":"福島県","prefecture_kana":"フクシマケン","city":"須賀川市","city_kana":"スカガワシ","town":"塩田","town_kana":"シオダ","prefecture_code":7},"0201":{"zip_code":"9620201","prefecture":"福島県","prefecture_kana":"フクシマケン","city":"須賀川市","city_kana":"スカガワシ","town":"志茂","town_kana":"シモ","prefecture_code":7},"0714":{"zip_code":"9620714","prefecture":"福島県","prefecture_kana":"フクシマケン","city":"須賀川市","city_kana":"スカガワシ","town":"下小山田","town_kana":"シモオヤマダ","prefecture_code":7},"0806":{"zip_code":"9620806","prefecture":"福島県","prefecture_kana":"フクシマケン","city":"須賀川市","city_kana":"スカガワシ","town":"下宿前","town_kana":"シモジュクマエ","prefecture_code":7},"0007":{"zip_code":"9620007","prefecture":"福島県","prefecture_kana":"フクシマケン","city":"須賀川市","city_kana":"スカガワシ","town":"下宿町","town_kana":"シモジュクマチ","prefecture_code":7},"0002":{"zip_code":"9620002","prefecture":"福島県","prefecture_kana":"フクシマケン","city":"須賀川市","city_kana":"スカガワシ","town":"上人坦","town_kana":"ショウニンダン","prefecture_code":7},"0824":{"zip_code":"9620824","prefecture":"福島県","prefecture_kana":"フクシマケン","city":"須賀川市","city_kana":"スカガワシ","town":"新田","town_kana":"シンデン","prefecture_code":7},"0012":{"zip_code":"9620012","prefecture":"福島県","prefecture_kana":"フクシマケン","city":"須賀川市","city_kana":"スカガワシ","town":"陣場町","town_kana":"ジンバマチ","prefecture_code":7},"0055":{"zip_code":"9620055","prefecture":"福島県","prefecture_kana":"フクシマケン","city":"須賀川市","city_kana":"スカガワシ","town":"新町","town_kana":"シンマチ","prefecture_code":7},"0847":{"zip_code":"9620847","prefecture":"福島県","prefecture_kana":"フクシマケン","city":"須賀川市","city_kana":"スカガワシ","town":"諏訪町","town_kana":"スワマチ","prefecture_code":7},"0205":{"zip_code":"9620205","prefecture":"福島県","prefecture_kana":"フクシマケン","city":"須賀川市","city_kana":"スカガワシ","town":"勢至堂","town_kana":"セイシドウ","prefecture_code":7},"0036":{"zip_code":"9620036","prefecture":"福島県","prefecture_kana":"フクシマケン","city":"須賀川市","city_kana":"スカガワシ","town":"芹沢町","town_kana":"セリザワマチ","prefecture_code":7},"0835":{"zip_code":"9620835","prefecture":"福島県","prefecture_kana":"フクシマケン","city":"須賀川市","city_kana":"スカガワシ","town":"千日堂","town_kana":"センニチドウ","prefecture_code":7},"0005":{"zip_code":"9620005","prefecture":"福島県","prefecture_kana":"フクシマケン","city":"須賀川市","city_kana":"スカガワシ","town":"台","town_kana":"ダイ","prefecture_code":7},"0023":{"zip_code":"9620023","prefecture":"福島県","prefecture_kana":"フクシマケン","city":"須賀川市","city_kana":"スカガワシ","town":"大黒町","town_kana":"ダイコクチョウ","prefecture_code":7},"0837":{"zip_code":"9620837","prefecture":"福島県","prefecture_kana":"フクシマケン","city":"須賀川市","city_kana":"スカガワシ","town":"高久田境","town_kana":"タカクダサカイ","prefecture_code":7},"0211":{"zip_code":"9620211","prefecture":"福島県","prefecture_kana":"フクシマケン","city":"須賀川市","city_kana":"スカガワシ","town":"日向前、本郷、前田）","town_kana":"ヒナタマエ、ホンゴウ、マエタ)","prefecture_code":7},"0304":{"zip_code":"9620304","prefecture":"福島県","prefecture_kana":"フクシマケン","city":"須賀川市","city_kana":"スカガワシ","town":"滝","town_kana":"タキ","prefecture_code":7},"0404":{"zip_code":"9620404","prefecture":"福島県","prefecture_kana":"フクシマケン","city":"須賀川市","city_kana":"スカガワシ","town":"舘ケ岡","town_kana":"タテガオカ","prefecture_code":7},"0021":{"zip_code":"9620021","prefecture":"福島県","prefecture_kana":"フクシマケン","city":"須賀川市","city_kana":"スカガワシ","town":"館取町","town_kana":"タテトリマチ","prefecture_code":7},"0724":{"zip_code":"9620724","prefecture":"福島県","prefecture_kana":"フクシマケン","city":"須賀川市","city_kana":"スカガワシ","town":"田中","town_kana":"タナカ","prefecture_code":7},"0028":{"zip_code":"9620028","prefecture":"福島県","prefecture_kana":"フクシマケン","city":"須賀川市","city_kana":"スカガワシ","town":"茶畑町","town_kana":"チャバタケマチ","prefecture_code":7},"0857":{"zip_code":"9620857","prefecture":"福島県","prefecture_kana":"フクシマケン","city":"須賀川市","city_kana":"スカガワシ","town":"長禄町","town_kana":"チョウロクチョウ","prefecture_code":7},"0859":{"zip_code":"9620859","prefecture":"福島県","prefecture_kana":"フクシマケン","city":"須賀川市","city_kana":"スカガワシ","town":"塚田","town_kana":"ツカダ","prefecture_code":7},"0802":{"zip_code":"9620802","prefecture":"福島県","prefecture_kana":"フクシマケン","city":"須賀川市","city_kana":"スカガワシ","town":"堤","town_kana":"ツツミ","prefecture_code":7},"0827":{"zip_code":"9620827","prefecture":"福島県","prefecture_kana":"フクシマケン","city":"須賀川市","city_kana":"スカガワシ","town":"寺田","town_kana":"テラダ","prefecture_code":7},"0851":{"zip_code":"9620851","prefecture":"福島県","prefecture_kana":"フクシマケン","city":"須賀川市","city_kana":"スカガワシ","town":"中宿","town_kana":"ナカジュク","prefecture_code":7},"0804":{"zip_code":"9620804","prefecture":"福島県","prefecture_kana":"フクシマケン","city":"須賀川市","city_kana":"スカガワシ","town":"中曽根","town_kana":"ナカソネ","prefecture_code":7},"0203":{"zip_code":"9620203","prefecture":"福島県","prefecture_kana":"フクシマケン","city":"須賀川市","city_kana":"スカガワシ","town":"長沼","town_kana":"ナガヌマ","prefecture_code":7},"0852":{"zip_code":"9620852","prefecture":"福島県","prefecture_kana":"フクシマケン","city":"須賀川市","city_kana":"スカガワシ","town":"仲の町","town_kana":"ナカノマチ","prefecture_code":7},"0845":{"zip_code":"9620845","prefecture":"福島県","prefecture_kana":"フクシマケン","city":"須賀川市","city_kana":"スカガワシ","town":"中町","town_kana":"ナカマチ","prefecture_code":7},"0004":{"zip_code":"9620004","prefecture":"福島県","prefecture_kana":"フクシマケン","city":"須賀川市","city_kana":"スカガワシ","town":"中山","town_kana":"ナカヤマ","prefecture_code":7},"0836":{"zip_code":"9620836","prefecture":"福島県","prefecture_kana":"フクシマケン","city":"須賀川市","city_kana":"スカガワシ","town":"並木町","town_kana":"ナミキチョウ","prefecture_code":7},"0403":{"zip_code":"9620403","prefecture":"福島県","prefecture_kana":"フクシマケン","city":"須賀川市","city_kana":"スカガワシ","town":"滑川","town_kana":"ナメガワ","prefecture_code":7},"0402":{"zip_code":"9620402","prefecture":"福島県","prefecture_kana":"フクシマケン","city":"須賀川市","city_kana":"スカガワシ","town":"仁井田","town_kana":"ニイダ","prefecture_code":7},"0052":{"zip_code":"9620052","prefecture":"福島県","prefecture_kana":"フクシマケン","city":"須賀川市","city_kana":"スカガワシ","town":"西川","town_kana":"ニシカワ","prefecture_code":7},"0014":{"zip_code":"9620014","prefecture":"福島県","prefecture_kana":"フクシマケン","city":"須賀川市","city_kana":"スカガワシ","town":"西川町","town_kana":"ニシカワマチ","prefecture_code":7},"0016":{"zip_code":"9620016","prefecture":"福島県","prefecture_kana":"フクシマケン","city":"須賀川市","city_kana":"スカガワシ","town":"西田町","town_kana":"ニシダマチ","prefecture_code":7},"0017":{"zip_code":"9620017","prefecture":"福島県","prefecture_kana":"フクシマケン","city":"須賀川市","city_kana":"スカガワシ","town":"西の内町","town_kana":"ニシノウチマチ","prefecture_code":7},"0728":{"zip_code":"9620728","prefecture":"福島県","prefecture_kana":"フクシマケン","city":"須賀川市","city_kana":"スカガワシ","town":"虹の台","town_kana":"ニジノダイ","prefecture_code":7},"0302":{"zip_code":"9620302","prefecture":"福島県","prefecture_kana":"フクシマケン","city":"須賀川市","city_kana":"スカガワシ","town":"柱田","town_kana":"ハシラタ","prefecture_code":7},"0315":{"zip_code":"9620315","prefecture":"福島県","prefecture_kana":"フクシマケン","city":"須賀川市","city_kana":"スカガワシ","town":"畑田","town_kana":"ハタダ","prefecture_code":7},"0831":{"zip_code":"9620831","prefecture":"福島県","prefecture_kana":"フクシマケン","city":"須賀川市","city_kana":"スカガワシ","town":"八幡町","town_kana":"ハチマンマチ","prefecture_code":7},"0025":{"zip_code":"9620025","prefecture":"福島県","prefecture_kana":"フクシマケン","city":"須賀川市","city_kana":"スカガワシ","town":"八幡山","town_kana":"ハチマンヤマ","prefecture_code":7},"0823":{"zip_code":"9620823","prefecture":"福島県","prefecture_kana":"フクシマケン","city":"須賀川市","city_kana":"スカガワシ","town":"花岡","town_kana":"ハナオカ","prefecture_code":7},"0126":{"zip_code":"9620126","prefecture":"福島県","prefecture_kana":"フクシマケン","city":"須賀川市","city_kana":"スカガワシ","town":"花の里","town_kana":"ハナノサト","prefecture_code":7},"0812":{"zip_code":"9620812","prefecture":"福島県","prefecture_kana":"フクシマケン","city":"須賀川市","city_kana":"スカガワシ","town":"浜尾","town_kana":"ハマオ","prefecture_code":7},"0822":{"zip_code":"9620822","prefecture":"福島県","prefecture_kana":"フクシマケン","city":"須賀川市","city_kana":"スカガワシ","town":"東作","town_kana":"ヒガシサク","prefecture_code":7},"0844":{"zip_code":"9620844","prefecture":"福島県","prefecture_kana":"フクシマケン","city":"須賀川市","city_kana":"スカガワシ","town":"東町","town_kana":"ヒガシマチ","prefecture_code":7},"0725":{"zip_code":"9620725","prefecture":"福島県","prefecture_kana":"フクシマケン","city":"須賀川市","city_kana":"スカガワシ","town":"日照田","town_kana":"ヒデリダ","prefecture_code":7},"0015":{"zip_code":"9620015","prefecture":"福島県","prefecture_kana":"フクシマケン","city":"須賀川市","city_kana":"スカガワシ","town":"日向町","town_kana":"ヒナタマチ","prefecture_code":7},"0826":{"zip_code":"9620826","prefecture":"福島県","prefecture_kana":"フクシマケン","city":"須賀川市","city_kana":"スカガワシ","town":"広表","town_kana":"ヒロオモテ","prefecture_code":7},"0314":{"zip_code":"9620314","prefecture":"福島県","prefecture_kana":"フクシマケン","city":"須賀川市","city_kana":"スカガワシ","town":"深渡戸","town_kana":"フカワタリド","prefecture_code":7},"0057":{"zip_code":"9620057","prefecture":"福島県","prefecture_kana":"フクシマケン","city":"須賀川市","city_kana":"スカガワシ","town":"袋田","town_kana":"フクロダ","prefecture_code":7},"0803":{"zip_code":"9620803","prefecture":"福島県","prefecture_kana":"フクシマケン","city":"須賀川市","city_kana":"スカガワシ","town":"古河","town_kana":"フルカワ","prefecture_code":7},"0861":{"zip_code":"9620861","prefecture":"福島県","prefecture_kana":"フクシマケン","city":"須賀川市","city_kana":"スカガワシ","town":"古舘","town_kana":"フルダテ","prefecture_code":7},"0854":{"zip_code":"9620854","prefecture":"福島県","prefecture_kana":"フクシマケン","city":"須賀川市","city_kana":"スカガワシ","town":"古屋敷","town_kana":"フルヤシキ","prefecture_code":7},"0124":{"zip_code":"9620124","prefecture":"福島県","prefecture_kana":"フクシマケン","city":"須賀川市","city_kana":"スカガワシ","town":"桙衝","town_kana":"ホコツキ","prefecture_code":7},"0045":{"zip_code":"9620045","prefecture":"福島県","prefecture_kana":"フクシマケン","city":"須賀川市","city_kana":"スカガワシ","town":"保土原","town_kana":"ホドワラ","prefecture_code":7},"0125":{"zip_code":"9620125","prefecture":"福島県","prefecture_kana":"フクシマケン","city":"須賀川市","city_kana":"スカガワシ","town":"堀込","town_kana":"ホリゴメ","prefecture_code":7},"0027":{"zip_code":"9620027","prefecture":"福島県","prefecture_kana":"フクシマケン","city":"須賀川市","city_kana":"スカガワシ","town":"堀底町","town_kana":"ホリソコマチ","prefecture_code":7},"0815":{"zip_code":"9620815","prefecture":"福島県","prefecture_kana":"フクシマケン","city":"須賀川市","city_kana":"スカガワシ","town":"牡丹園","town_kana":"ボタンエン","prefecture_code":7},"0853":{"zip_code":"9620853","prefecture":"福島県","prefecture_kana":"フクシマケン","city":"須賀川市","city_kana":"スカガワシ","town":"前川","town_kana":"マエカワ","prefecture_code":7},"0814":{"zip_code":"9620814","prefecture":"福島県","prefecture_kana":"フクシマケン","city":"須賀川市","city_kana":"スカガワシ","town":"前田川","town_kana":"マエダガワ","prefecture_code":7},"0047":{"zip_code":"9620047","prefecture":"福島県","prefecture_kana":"フクシマケン","city":"須賀川市","city_kana":"スカガワシ","town":"松塚","town_kana":"マツヅカ","prefecture_code":7},"0022":{"zip_code":"9620022","prefecture":"福島県","prefecture_kana":"フクシマケン","city":"須賀川市","city_kana":"スカガワシ","town":"丸田町","town_kana":"マルタマチ","prefecture_code":7},"0863":{"zip_code":"9620863","prefecture":"福島県","prefecture_kana":"フクシマケン","city":"須賀川市","city_kana":"スカガワシ","town":"緑町","town_kana":"ミドリチョウ","prefecture_code":7},"0817":{"zip_code":"9620817","prefecture":"福島県","prefecture_kana":"フクシマケン","city":"須賀川市","city_kana":"スカガワシ","town":"南上町","town_kana":"ミナミウワマチ","prefecture_code":7},"0838":{"zip_code":"9620838","prefecture":"福島県","prefecture_kana":"フクシマケン","city":"須賀川市","city_kana":"スカガワシ","town":"南町","town_kana":"ミナミマチ","prefecture_code":7},"0842":{"zip_code":"9620842","prefecture":"福島県","prefecture_kana":"フクシマケン","city":"須賀川市","city_kana":"スカガワシ","town":"宮先町","town_kana":"ミヤザキチョウ","prefecture_code":7},"0406":{"zip_code":"9620406","prefecture":"福島県","prefecture_kana":"フクシマケン","city":"須賀川市","city_kana":"スカガワシ","town":"宮の杜","town_kana":"ミヤノモリ","prefecture_code":7},"0865":{"zip_code":"9620865","prefecture":"福島県","prefecture_kana":"フクシマケン","city":"須賀川市","city_kana":"スカガワシ","town":"妙見","town_kana":"ミョウケン","prefecture_code":7},"0723":{"zip_code":"9620723","prefecture":"福島県","prefecture_kana":"フクシマケン","city":"須賀川市","city_kana":"スカガワシ","town":"狸森","town_kana":"ムジナモリ","prefecture_code":7},"0832":{"zip_code":"9620832","prefecture":"福島県","prefecture_kana":"フクシマケン","city":"須賀川市","city_kana":"スカガワシ","town":"本町","town_kana":"モトマチ","prefecture_code":7},"0001":{"zip_code":"9620001","prefecture":"福島県","prefecture_kana":"フクシマケン","city":"須賀川市","city_kana":"スカガワシ","town":"森宿","town_kana":"モリジュク","prefecture_code":7},"0305":{"zip_code":"9620305","prefecture":"福島県","prefecture_kana":"フクシマケン","city":"須賀川市","city_kana":"スカガワシ","town":"守屋","town_kana":"モリヤ","prefecture_code":7},"0855":{"zip_code":"9620855","prefecture":"福島県","prefecture_kana":"フクシマケン","city":"須賀川市","city_kana":"スカガワシ","town":"守谷舘","town_kana":"モリヤタテ","prefecture_code":7},"0311":{"zip_code":"9620311","prefecture":"福島県","prefecture_kana":"フクシマケン","city":"須賀川市","city_kana":"スカガワシ","town":"矢沢","town_kana":"ヤザワ","prefecture_code":7},"0123":{"zip_code":"9620123","prefecture":"福島県","prefecture_kana":"フクシマケン","city":"須賀川市","city_kana":"スカガワシ","town":"矢田野","town_kana":"ヤタノ","prefecture_code":7},"0006":{"zip_code":"9620006","prefecture":"福島県","prefecture_kana":"フクシマケン","city":"須賀川市","city_kana":"スカガワシ","town":"山寺道","town_kana":"ヤマデラミチ","prefecture_code":7},"0121":{"zip_code":"9620121","prefecture":"福島県","prefecture_kana":"フクシマケン","city":"須賀川市","city_kana":"スカガワシ","town":"横田","town_kana":"ヨコタ","prefecture_code":7},"0041":{"zip_code":"9620041","prefecture":"福島県","prefecture_kana":"フクシマケン","city":"須賀川市","city_kana":"スカガワシ","town":"横山町","town_kana":"ヨコヤマチョウ","prefecture_code":7},"0059":{"zip_code":"9620059","prefecture":"福島県","prefecture_kana":"フクシマケン","city":"須賀川市","city_kana":"スカガワシ","town":"吉美根","town_kana":"ヨシミネ","prefecture_code":7},"0862":{"zip_code":"9620862","prefecture":"福島県","prefecture_kana":"フクシマケン","city":"須賀川市","city_kana":"スカガワシ","town":"六郎兵衛","town_kana":"ロクロウベエ","prefecture_code":7},"0825":{"zip_code":"9620825","prefecture":"福島県","prefecture_kana":"フクシマケン","city":"須賀川市","city_kana":"スカガワシ","town":"六軒","town_kana":"ロッケン","prefecture_code":7},"0813":{"zip_code":"9620813","prefecture":"福島県","prefecture_kana":"フクシマケン","city":"須賀川市","city_kana":"スカガワシ","town":"和田","town_kana":"ワダ","prefecture_code":7},"0818":{"zip_code":"9620818","prefecture":"福島県","prefecture_kana":"フクシマケン","city":"須賀川市","city_kana":"スカガワシ","town":"和田道","town_kana":"ワダミチ","prefecture_code":7},"0500":{"zip_code":"9620500","prefecture":"福島県","prefecture_kana":"フクシマケン","city":"岩瀬郡天栄村","city_kana":"イワセグンテンエイムラ","town":"","town_kana":"","prefecture_code":7},"0512":{"zip_code":"9620512","prefecture":"福島県","prefecture_kana":"フクシマケン","city":"岩瀬郡天栄村","city_kana":"イワセグンテンエイムラ","town":"飯豊","town_kana":"イイトヨ","prefecture_code":7},"0504":{"zip_code":"9620504","prefecture":"福島県","prefecture_kana":"フクシマケン","city":"岩瀬郡天栄村","city_kana":"イワセグンテンエイムラ","town":"大里","town_kana":"オオサト","prefecture_code":7},"0516":{"zip_code":"9620516","prefecture":"福島県","prefecture_kana":"フクシマケン","city":"岩瀬郡天栄村","city_kana":"イワセグンテンエイムラ","town":"小川","town_kana":"オガワ","prefecture_code":7},"0513":{"zip_code":"9620513","prefecture":"福島県","prefecture_kana":"フクシマケン","city":"岩瀬郡天栄村","city_kana":"イワセグンテンエイムラ","town":"沖内","town_kana":"オキウチ","prefecture_code":7},"0514":{"zip_code":"9620514","prefecture":"福島県","prefecture_kana":"フクシマケン","city":"岩瀬郡天栄村","city_kana":"イワセグンテンエイムラ","town":"柿之内","town_kana":"カキノウチ","prefecture_code":7},"0502":{"zip_code":"9620502","prefecture":"福島県","prefecture_kana":"フクシマケン","city":"岩瀬郡天栄村","city_kana":"イワセグンテンエイムラ","town":"上松本","town_kana":"カミマツモト","prefecture_code":7},"0503":{"zip_code":"9620503","prefecture":"福島県","prefecture_kana":"フクシマケン","city":"岩瀬郡天栄村","city_kana":"イワセグンテンエイムラ","town":"下松本","town_kana":"シモマツモト","prefecture_code":7},"0511":{"zip_code":"9620511","prefecture":"福島県","prefecture_kana":"フクシマケン","city":"岩瀬郡天栄村","city_kana":"イワセグンテンエイムラ","town":"白子","town_kana":"シロコ","prefecture_code":7},"0515":{"zip_code":"9620515","prefecture":"福島県","prefecture_kana":"フクシマケン","city":"岩瀬郡天栄村","city_kana":"イワセグンテンエイムラ","town":"高林","town_kana":"タカハヤシ","prefecture_code":7},"0622":{"zip_code":"9620622","prefecture":"福島県","prefecture_kana":"フクシマケン","city":"岩瀬郡天栄村","city_kana":"イワセグンテンエイムラ","town":"田良尾","town_kana":"タラオ","prefecture_code":7},"0623":{"zip_code":"9620623","prefecture":"福島県","prefecture_kana":"フクシマケン","city":"岩瀬郡天栄村","city_kana":"イワセグンテンエイムラ","town":"羽鳥","town_kana":"ハトリ","prefecture_code":7},"0501":{"zip_code":"9620501","prefecture":"福島県","prefecture_kana":"フクシマケン","city":"岩瀬郡天栄村","city_kana":"イワセグンテンエイムラ","town":"牧之内","town_kana":"マキノウチ","prefecture_code":7},"0621":{"zip_code":"9620621","prefecture":"福島県","prefecture_kana":"フクシマケン","city":"岩瀬郡天栄村","city_kana":"イワセグンテンエイムラ","town":"湯本","town_kana":"ユモト","prefecture_code":7}}