{"0000":{"zip_code":"9630000","prefecture":"福島県","prefecture_kana":"フクシマケン","city":"郡山市","city_kana":"コオリヤマシ","town":"","town_kana":"","prefecture_code":7},"8006":{"zip_code":"9638006","prefecture":"福島県","prefecture_kana":"フクシマケン","city":"郡山市","city_kana":"コオリヤマシ","town":"赤木町","town_kana":"アカギマチ","prefecture_code":7},"0667":{"zip_code":"9630667","prefecture":"福島県","prefecture_kana":"フクシマケン","city":"郡山市","city_kana":"コオリヤマシ","town":"阿久津町","town_kana":"アクツマチ","prefecture_code":7},"0107":{"zip_code":"9630107","prefecture":"福島県","prefecture_kana":"フクシマケン","city":"郡山市","city_kana":"コオリヤマシ","town":"安積","town_kana":"アサカ","prefecture_code":7},"0114":{"zip_code":"9630114","prefecture":"福島県","prefecture_kana":"フクシマケン","city":"郡山市","city_kana":"コオリヤマシ","town":"安積町柴宮東","town_kana":"アサカマチシバミヤヒガシ","prefecture_code":7},"0111":{"zip_code":"9630111","prefecture":"福島県","prefecture_kana":"フクシマケン","city":"郡山市","city_kana":"コオリヤマシ","town":"安積町荒井","town_kana":"アサカマチアライ","prefecture_code":7},"0113":{"zip_code":"9630113","prefecture":"福島県","prefecture_kana":"フクシマケン","city":"郡山市","city_kana":"コオリヤマシ","town":"安積町牛庭","town_kana":"アサカマチウシニワ","prefecture_code":7},"0103":{"zip_code":"9630103","prefecture":"福島県","prefecture_kana":"フクシマケン","city":"郡山市","city_kana":"コオリヤマシ","town":"安積町大森町","town_kana":"アサカマチオオモリチョウ","prefecture_code":7},"0102":{"zip_code":"9630102","prefecture":"福島県","prefecture_kana":"フクシマケン","city":"郡山市","city_kana":"コオリヤマシ","town":"安積町笹川","town_kana":"アサカマチササガワ","prefecture_code":7},"0105":{"zip_code":"9630105","prefecture":"福島県","prefecture_kana":"フクシマケン","city":"郡山市","city_kana":"コオリヤマシ","town":"安積町長久保","town_kana":"アサカマチナガクボ","prefecture_code":7},"0112":{"zip_code":"9630112","prefecture":"福島県","prefecture_kana":"フクシマケン","city":"郡山市","city_kana":"コオリヤマシ","town":"安積町成田","town_kana":"アサカマチナリタ","prefecture_code":7},"0101":{"zip_code":"9630101","prefecture":"福島県","prefecture_kana":"フクシマケン","city":"郡山市","city_kana":"コオリヤマシ","town":"安積町日出山","town_kana":"アサカマチヒデノヤマ","prefecture_code":7},"0104":{"zip_code":"9630104","prefecture":"福島県","prefecture_kana":"フクシマケン","city":"郡山市","city_kana":"コオリヤマシ","town":"安積町南長久保","town_kana":"アサカマチミナミナガクボ","prefecture_code":7},"0109":{"zip_code":"9630109","prefecture":"福島県","prefecture_kana":"フクシマケン","city":"郡山市","city_kana":"コオリヤマシ","town":"安積町吉田","town_kana":"アサカマチヨシタ","prefecture_code":7},"8024":{"zip_code":"9638024","prefecture":"福島県","prefecture_kana":"フクシマケン","city":"郡山市","city_kana":"コオリヤマシ","town":"朝日","town_kana":"アサヒ","prefecture_code":7},"8873":{"zip_code":"9638873","prefecture":"福島県","prefecture_kana":"フクシマケン","city":"郡山市","city_kana":"コオリヤマシ","town":"愛宕町","town_kana":"アタゴマチ","prefecture_code":7},"1304":{"zip_code":"9631304","prefecture":"福島県","prefecture_kana":"フクシマケン","city":"郡山市","city_kana":"コオリヤマシ","town":"熱海町安子島","town_kana":"アタミマチアコガシマ","prefecture_code":7},"1309":{"zip_code":"9631309","prefecture":"福島県","prefecture_kana":"フクシマケン","city":"郡山市","city_kana":"コオリヤマシ","town":"熱海町熱海","town_kana":"アタミマチアタミ","prefecture_code":7},"1301":{"zip_code":"9631301","prefecture":"福島県","prefecture_kana":"フクシマケン","city":"郡山市","city_kana":"コオリヤマシ","town":"熱海町石筵","town_kana":"アタミマチイシムシロ","prefecture_code":7},"1306":{"zip_code":"9631306","prefecture":"福島県","prefecture_kana":"フクシマケン","city":"郡山市","city_kana":"コオリヤマシ","town":"熱海町上伊豆島","town_kana":"アタミマチカミイズシマ","prefecture_code":7},"1305":{"zip_code":"9631305","prefecture":"福島県","prefecture_kana":"フクシマケン","city":"郡山市","city_kana":"コオリヤマシ","town":"熱海町下伊豆島","town_kana":"アタミマチシモイズシマ","prefecture_code":7},"1302":{"zip_code":"9631302","prefecture":"福島県","prefecture_kana":"フクシマケン","city":"郡山市","city_kana":"コオリヤマシ","town":"熱海町高玉","town_kana":"アタミマチタカタマ","prefecture_code":7},"1303":{"zip_code":"9631303","prefecture":"福島県","prefecture_kana":"フクシマケン","city":"郡山市","city_kana":"コオリヤマシ","town":"熱海町玉川","town_kana":"アタミマチタマガワ","prefecture_code":7},"1308":{"zip_code":"9631308","prefecture":"福島県","prefecture_kana":"フクシマケン","city":"郡山市","city_kana":"コオリヤマシ","town":"熱海町中山","town_kana":"アタミマチナカヤマ","prefecture_code":7},"1307":{"zip_code":"9631307","prefecture":"福島県","prefecture_kana":"フクシマケン","city":"郡山市","city_kana":"コオリヤマシ","town":"熱海町長橋","town_kana":"アタミマチナガハシ","prefecture_code":7},"0664":{"zip_code":"9630664","prefecture":"福島県","prefecture_kana":"フクシマケン","city":"郡山市","city_kana":"コオリヤマシ","town":"あぶくま台","town_kana":"アブクマダイ","prefecture_code":7},"0704":{"zip_code":"9630704","prefecture":"福島県","prefecture_kana":"フクシマケン","city":"郡山市","city_kana":"コオリヤマシ","town":"荒井町","town_kana":"アライマチ","prefecture_code":7},"8045":{"zip_code":"9638045","prefecture":"福島県","prefecture_kana":"フクシマケン","city":"郡山市","city_kana":"コオリヤマシ","town":"新屋敷","town_kana":"アラヤシキ","prefecture_code":7},"8875":{"zip_code":"9638875","prefecture":"福島県","prefecture_kana":"フクシマケン","city":"郡山市","city_kana":"コオリヤマシ","town":"池ノ台","town_kana":"イケノダイ","prefecture_code":7},"8825":{"zip_code":"9638825","prefecture":"福島県","prefecture_kana":"フクシマケン","city":"郡山市","city_kana":"コオリヤマシ","town":"石塚","town_kana":"イシヅカ","prefecture_code":7},"8814":{"zip_code":"9638814","prefecture":"福島県","prefecture_kana":"フクシマケン","city":"郡山市","city_kana":"コオリヤマシ","town":"石渕町","town_kana":"イシブチマチ","prefecture_code":7},"8036":{"zip_code":"9638036","prefecture":"福島県","prefecture_kana":"フクシマケン","city":"郡山市","city_kana":"コオリヤマシ","town":"うねめ町","town_kana":"ウネメマチ","prefecture_code":7},"8002":{"zip_code":"9638002","prefecture":"福島県","prefecture_kana":"フクシマケン","city":"郡山市","city_kana":"コオリヤマシ","town":"駅前","town_kana":"エキマエ","prefecture_code":7},"0212":{"zip_code":"9630212","prefecture":"福島県","prefecture_kana":"フクシマケン","city":"郡山市","city_kana":"コオリヤマシ","town":"逢瀬町河内","town_kana":"オウセマチコウズ","prefecture_code":7},"0213":{"zip_code":"9630213","prefecture":"福島県","prefecture_kana":"フクシマケン","city":"郡山市","city_kana":"コオリヤマシ","town":"逢瀬町多田野","town_kana":"オウセマチタダノ","prefecture_code":7},"0214":{"zip_code":"9630214","prefecture":"福島県","prefecture_kana":"フクシマケン","city":"郡山市","city_kana":"コオリヤマシ","town":"逢瀬町夏出","town_kana":"オウセマチナツイデ","prefecture_code":7},"8828":{"zip_code":"9638828","prefecture":"福島県","prefecture_kana":"フクシマケン","city":"郡山市","city_kana":"コオリヤマシ","town":"大河原","town_kana":"オオカワラ","prefecture_code":7},"8817":{"zip_code":"9638817","prefecture":"福島県","prefecture_kana":"フクシマケン","city":"郡山市","city_kana":"コオリヤマシ","town":"大平町","town_kana":"オオダイラマチ","prefecture_code":7},"0201":{"zip_code":"9630201","prefecture":"福島県","prefecture_kana":"フクシマケン","city":"郡山市","city_kana":"コオリヤマシ","town":"大槻町","town_kana":"オオツキマチ","prefecture_code":7},"8001":{"zip_code":"9638001","prefecture":"福島県","prefecture_kana":"フクシマケン","city":"郡山市","city_kana":"コオリヤマシ","town":"大町","town_kana":"オオマチ","prefecture_code":7},"8851":{"zip_code":"9638851","prefecture":"福島県","prefecture_kana":"フクシマケン","city":"郡山市","city_kana":"コオリヤマシ","town":"開成","town_kana":"カイセイ","prefecture_code":7},"8833":{"zip_code":"9638833","prefecture":"福島県","prefecture_kana":"フクシマケン","city":"郡山市","city_kana":"コオリヤマシ","town":"香久池","town_kana":"カグイケ","prefecture_code":7},"8844":{"zip_code":"9638844","prefecture":"福島県","prefecture_kana":"フクシマケン","city":"郡山市","city_kana":"コオリヤマシ","town":"賀庄","town_kana":"ガショウ","prefecture_code":7},"0202":{"zip_code":"9630202","prefecture":"福島県","prefecture_kana":"フクシマケン","city":"郡山市","city_kana":"コオリヤマシ","town":"柏山町","town_kana":"カシワヤママチ","prefecture_code":7},"0211":{"zip_code":"9630211","prefecture":"福島県","prefecture_kana":"フクシマケン","city":"郡山市","city_kana":"コオリヤマシ","town":"片平町","town_kana":"カタヒラマチ","prefecture_code":7},"0703":{"zip_code":"9630703","prefecture":"福島県","prefecture_kana":"フクシマケン","city":"郡山市","city_kana":"コオリヤマシ","town":"蒲倉町","town_kana":"カバクラマチ","prefecture_code":7},"8031":{"zip_code":"9638031","prefecture":"福島県","prefecture_kana":"フクシマケン","city":"郡山市","city_kana":"コオリヤマシ","town":"上亀田","town_kana":"カミカメダ","prefecture_code":7},"8816":{"zip_code":"9638816","prefecture":"福島県","prefecture_kana":"フクシマケン","city":"郡山市","city_kana":"コオリヤマシ","town":"上野山","town_kana":"カミノヤマ","prefecture_code":7},"8033":{"zip_code":"9638033","prefecture":"福島県","prefecture_kana":"フクシマケン","city":"郡山市","city_kana":"コオリヤマシ","town":"亀田","town_kana":"カメダ","prefecture_code":7},"0221":{"zip_code":"9630221","prefecture":"福島県","prefecture_kana":"フクシマケン","city":"郡山市","city_kana":"コオリヤマシ","town":"亀田西","town_kana":"カメダニシ","prefecture_code":7},"8829":{"zip_code":"9638829","prefecture":"福島県","prefecture_kana":"フクシマケン","city":"郡山市","city_kana":"コオリヤマシ","town":"榧の木","town_kana":"カヤノキ","prefecture_code":7},"8843":{"zip_code":"9638843","prefecture":"福島県","prefecture_kana":"フクシマケン","city":"郡山市","city_kana":"コオリヤマシ","town":"川向","town_kana":"カワムカイ","prefecture_code":7},"0551":{"zip_code":"9630551","prefecture":"福島県","prefecture_kana":"フクシマケン","city":"郡山市","city_kana":"コオリヤマシ","town":"喜久田町","town_kana":"キクタマチ","prefecture_code":7},"0545":{"zip_code":"9630545","prefecture":"福島県","prefecture_kana":"フクシマケン","city":"郡山市","city_kana":"コオリヤマシ","town":"喜久田町赤坂","town_kana":"キクタマチアカサカ","prefecture_code":7},"0547":{"zip_code":"9630547","prefecture":"福島県","prefecture_kana":"フクシマケン","city":"郡山市","city_kana":"コオリヤマシ","town":"喜久田町卸","town_kana":"キクタマチオロシ","prefecture_code":7},"0544":{"zip_code":"9630544","prefecture":"福島県","prefecture_kana":"フクシマケン","city":"郡山市","city_kana":"コオリヤマシ","town":"喜久田町坪沢","town_kana":"キクタマチツボサワ","prefecture_code":7},"0542":{"zip_code":"9630542","prefecture":"福島県","prefecture_kana":"フクシマケン","city":"郡山市","city_kana":"コオリヤマシ","town":"喜久田町原","town_kana":"キクタマチハラ","prefecture_code":7},"0541":{"zip_code":"9630541","prefecture":"福島県","prefecture_kana":"フクシマケン","city":"郡山市","city_kana":"コオリヤマシ","town":"喜久田町堀之内","town_kana":"キクタマチホリノウチ","prefecture_code":7},"0543":{"zip_code":"9630543","prefecture":"福島県","prefecture_kana":"フクシマケン","city":"郡山市","city_kana":"コオリヤマシ","town":"喜久田町前田沢","town_kana":"キクタマチマエタザワ","prefecture_code":7},"0546":{"zip_code":"9630546","prefecture":"福島県","prefecture_kana":"フクシマケン","city":"郡山市","city_kana":"コオリヤマシ","town":"喜久田町早稲原","town_kana":"キクタマチワセハラ","prefecture_code":7},"8804":{"zip_code":"9638804","prefecture":"福島県","prefecture_kana":"フクシマケン","city":"郡山市","city_kana":"コオリヤマシ","town":"北畑","town_kana":"キタバタケ","prefecture_code":7},"8035":{"zip_code":"9638035","prefecture":"福島県","prefecture_kana":"フクシマケン","city":"郡山市","city_kana":"コオリヤマシ","town":"希望ケ丘","town_kana":"キボウガオカ","prefecture_code":7},"8846":{"zip_code":"9638846","prefecture":"福島県","prefecture_kana":"フクシマケン","city":"郡山市","city_kana":"コオリヤマシ","town":"久留米","town_kana":"クルメ","prefecture_code":7},"8025":{"zip_code":"9638025","prefecture":"福島県","prefecture_kana":"フクシマケン","city":"郡山市","city_kana":"コオリヤマシ","town":"桑野","town_kana":"クワノ","prefecture_code":7},"8038":{"zip_code":"9638038","prefecture":"福島県","prefecture_kana":"フクシマケン","city":"郡山市","city_kana":"コオリヤマシ","town":"桑野北町","town_kana":"クワノキタマチ","prefecture_code":7},"8866":{"zip_code":"9638866","prefecture":"福島県","prefecture_kana":"フクシマケン","city":"郡山市","city_kana":"コオリヤマシ","town":"桑野清水台","town_kana":"クワノシミズダイ","prefecture_code":7},"8039":{"zip_code":"9638039","prefecture":"福島県","prefecture_kana":"フクシマケン","city":"郡山市","city_kana":"コオリヤマシ","town":"小関谷地","town_kana":"コセキヤジ","prefecture_code":7},"0209":{"zip_code":"9630209","prefecture":"福島県","prefecture_kana":"フクシマケン","city":"郡山市","city_kana":"コオリヤマシ","town":"御前南","town_kana":"ゴゼンミナミ","prefecture_code":7},"1631":{"zip_code":"9631631","prefecture":"福島県","prefecture_kana":"フクシマケン","city":"郡山市","city_kana":"コオリヤマシ","town":"湖南町赤津","town_kana":"コナンマチアカツ","prefecture_code":7},"1412":{"zip_code":"9631412","prefecture":"福島県","prefecture_kana":"フクシマケン","city":"郡山市","city_kana":"コオリヤマシ","town":"湖南町舘","town_kana":"コナンマチタテ","prefecture_code":7},"1521":{"zip_code":"9631521","prefecture":"福島県","prefecture_kana":"フクシマケン","city":"郡山市","city_kana":"コオリヤマシ","town":"湖南町中野","town_kana":"コナンマチナカノ","prefecture_code":7},"1414":{"zip_code":"9631414","prefecture":"福島県","prefecture_kana":"フクシマケン","city":"郡山市","city_kana":"コオリヤマシ","town":"湖南町浜路","town_kana":"コナンマチハマジ","prefecture_code":7},"1632":{"zip_code":"9631632","prefecture":"福島県","prefecture_kana":"フクシマケン","city":"郡山市","city_kana":"コオリヤマシ","town":"湖南町馬入新田","town_kana":"コナンマチバニュウシンデン","prefecture_code":7},"1633":{"zip_code":"9631633","prefecture":"福島県","prefecture_kana":"フクシマケン","city":"郡山市","city_kana":"コオリヤマシ","town":"湖南町福良","town_kana":"コナンマチフクラ","prefecture_code":7},"1411":{"zip_code":"9631411","prefecture":"福島県","prefecture_kana":"フクシマケン","city":"郡山市","city_kana":"コオリヤマシ","town":"湖南町舟津","town_kana":"コナンマチフナツ","prefecture_code":7},"1522":{"zip_code":"9631522","prefecture":"福島県","prefecture_kana":"フクシマケン","city":"郡山市","city_kana":"コオリヤマシ","town":"湖南町三代","town_kana":"コナンマチミヨ","prefecture_code":7},"1413":{"zip_code":"9631413","prefecture":"福島県","prefecture_kana":"フクシマケン","city":"郡山市","city_kana":"コオリヤマシ","town":"湖南町横沢","town_kana":"コナンマチヨコサワ","prefecture_code":7},"8835":{"zip_code":"9638835","prefecture":"福島県","prefecture_kana":"フクシマケン","city":"郡山市","city_kana":"コオリヤマシ","town":"小原田","town_kana":"コハラダ","prefecture_code":7},"8865":{"zip_code":"9638865","prefecture":"福島県","prefecture_kana":"フクシマケン","city":"郡山市","city_kana":"コオリヤマシ","town":"五百渕西","town_kana":"ゴヒャクブチニシ","prefecture_code":7},"8867":{"zip_code":"9638867","prefecture":"福島県","prefecture_kana":"フクシマケン","city":"郡山市","city_kana":"コオリヤマシ","town":"五百渕山","town_kana":"ゴヒャクブチヤマ","prefecture_code":7},"8862":{"zip_code":"9638862","prefecture":"福島県","prefecture_kana":"フクシマケン","city":"郡山市","city_kana":"コオリヤマシ","town":"菜根","town_kana":"サイコン","prefecture_code":7},"8863":{"zip_code":"9638863","prefecture":"福島県","prefecture_kana":"フクシマケン","city":"郡山市","city_kana":"コオリヤマシ","town":"菜根屋敷","town_kana":"サイコンヤシキ","prefecture_code":7},"8872":{"zip_code":"9638872","prefecture":"福島県","prefecture_kana":"フクシマケン","city":"郡山市","city_kana":"コオリヤマシ","town":"栄町","town_kana":"サカエマチ","prefecture_code":7},"8012":{"zip_code":"9638012","prefecture":"福島県","prefecture_kana":"フクシマケン","city":"郡山市","city_kana":"コオリヤマシ","town":"咲田","town_kana":"サクタ","prefecture_code":7},"8021":{"zip_code":"9638021","prefecture":"福島県","prefecture_kana":"フクシマケン","city":"郡山市","city_kana":"コオリヤマシ","town":"桜木","town_kana":"サクラギ","prefecture_code":7},"0108":{"zip_code":"9630108","prefecture":"福島県","prefecture_kana":"フクシマケン","city":"郡山市","city_kana":"コオリヤマシ","town":"笹川","town_kana":"ササガワ","prefecture_code":7},"8807":{"zip_code":"9638807","prefecture":"福島県","prefecture_kana":"フクシマケン","city":"郡山市","city_kana":"コオリヤマシ","town":"佐野良","town_kana":"サノラ","prefecture_code":7},"0203":{"zip_code":"9630203","prefecture":"福島県","prefecture_kana":"フクシマケン","city":"郡山市","city_kana":"コオリヤマシ","town":"静町","town_kana":"シズカマチ","prefecture_code":7},"8034":{"zip_code":"9638034","prefecture":"福島県","prefecture_kana":"フクシマケン","city":"郡山市","city_kana":"コオリヤマシ","town":"島","town_kana":"シマ","prefecture_code":7},"8005":{"zip_code":"9638005","prefecture":"福島県","prefecture_kana":"フクシマケン","city":"郡山市","city_kana":"コオリヤマシ","town":"清水台","town_kana":"シミズダイ","prefecture_code":7},"8032":{"zip_code":"9638032","prefecture":"福島県","prefecture_kana":"フクシマケン","city":"郡山市","city_kana":"コオリヤマシ","town":"下亀田","town_kana":"シモカメダ","prefecture_code":7},"0663":{"zip_code":"9630663","prefecture":"福島県","prefecture_kana":"フクシマケン","city":"郡山市","city_kana":"コオリヤマシ","town":"下白岩町","town_kana":"シモシライワマチ","prefecture_code":7},"8806":{"zip_code":"9638806","prefecture":"福島県","prefecture_kana":"フクシマケン","city":"郡山市","city_kana":"コオリヤマシ","town":"下舘野","town_kana":"シモタテノ","prefecture_code":7},"8818":{"zip_code":"9638818","prefecture":"福島県","prefecture_kana":"フクシマケン","city":"郡山市","city_kana":"コオリヤマシ","town":"十貫河原","town_kana":"ジュッカンガワラ","prefecture_code":7},"8822":{"zip_code":"9638822","prefecture":"福島県","prefecture_kana":"フクシマケン","city":"郡山市","city_kana":"コオリヤマシ","town":"昭和","town_kana":"ショウワ","prefecture_code":7},"0662":{"zip_code":"9630662","prefecture":"福島県","prefecture_kana":"フクシマケン","city":"郡山市","city_kana":"コオリヤマシ","town":"白岩町","town_kana":"シライワマチ","prefecture_code":7},"8842":{"zip_code":"9638842","prefecture":"福島県","prefecture_kana":"フクシマケン","city":"郡山市","city_kana":"コオリヤマシ","town":"城清水","town_kana":"シロシミズ","prefecture_code":7},"8013":{"zip_code":"9638013","prefecture":"福島県","prefecture_kana":"フクシマケン","city":"郡山市","city_kana":"コオリヤマシ","town":"神明町","town_kana":"シンメイチョウ","prefecture_code":7},"8815":{"zip_code":"9638815","prefecture":"福島県","prefecture_kana":"フクシマケン","city":"郡山市","city_kana":"コオリヤマシ","town":"水門町","town_kana":"スイモンマチ","prefecture_code":7},"8834":{"zip_code":"9638834","prefecture":"福島県","prefecture_kana":"フクシマケン","city":"郡山市","city_kana":"コオリヤマシ","town":"図景","town_kana":"ズケイ","prefecture_code":7},"8827":{"zip_code":"9638827","prefecture":"福島県","prefecture_kana":"フクシマケン","city":"郡山市","city_kana":"コオリヤマシ","town":"外河原","town_kana":"ソトガワラ","prefecture_code":7},"8852":{"zip_code":"9638852","prefecture":"福島県","prefecture_kana":"フクシマケン","city":"郡山市","city_kana":"コオリヤマシ","town":"台新","town_kana":"ダイシン","prefecture_code":7},"8007":{"zip_code":"9638007","prefecture":"福島県","prefecture_kana":"フクシマケン","city":"郡山市","city_kana":"コオリヤマシ","town":"大名艮","town_kana":"ダイナゴン","prefecture_code":7},"8864":{"zip_code":"9638864","prefecture":"福島県","prefecture_kana":"フクシマケン","city":"郡山市","city_kana":"コオリヤマシ","town":"台東","town_kana":"ダイヒガシ","prefecture_code":7},"1153":{"zip_code":"9631153","prefecture":"福島県","prefecture_kana":"フクシマケン","city":"郡山市","city_kana":"コオリヤマシ","town":"田村町大供","town_kana":"タムラマチオオトモ","prefecture_code":7},"1151":{"zip_code":"9631151","prefecture":"福島県","prefecture_kana":"フクシマケン","city":"郡山市","city_kana":"コオリヤマシ","town":"田村町金沢","town_kana":"タムラマチカネザワ","prefecture_code":7},"0725":{"zip_code":"9630725","prefecture":"福島県","prefecture_kana":"フクシマケン","city":"郡山市","city_kana":"コオリヤマシ","town":"田村町金屋","town_kana":"タムラマチカナヤ","prefecture_code":7},"1248":{"zip_code":"9631248","prefecture":"福島県","prefecture_kana":"フクシマケン","city":"郡山市","city_kana":"コオリヤマシ","town":"田村町上道渡","town_kana":"タムラマチカミミチワタシ","prefecture_code":7},"0724":{"zip_code":"9630724","prefecture":"福島県","prefecture_kana":"フクシマケン","city":"郡山市","city_kana":"コオリヤマシ","town":"田村町上行合","town_kana":"タムラマチカミユキアイ","prefecture_code":7},"1241":{"zip_code":"9631241","prefecture":"福島県","prefecture_kana":"フクシマケン","city":"郡山市","city_kana":"コオリヤマシ","town":"田村町川曲","town_kana":"タムラマチカワマガリ","prefecture_code":7},"1154":{"zip_code":"9631154","prefecture":"福島県","prefecture_kana":"フクシマケン","city":"郡山市","city_kana":"コオリヤマシ","town":"田村町岩作","town_kana":"タムラマチガンザク","prefecture_code":7},"0722":{"zip_code":"9630722","prefecture":"福島県","prefecture_kana":"フクシマケン","city":"郡山市","city_kana":"コオリヤマシ","town":"田村町小川","town_kana":"タムラマチコガワ","prefecture_code":7},"0723":{"zip_code":"9630723","prefecture":"福島県","prefecture_kana":"フクシマケン","city":"郡山市","city_kana":"コオリヤマシ","town":"田村町桜ケ丘","town_kana":"タムラマチサクラガオカ","prefecture_code":7},"1162":{"zip_code":"9631162","prefecture":"福島県","prefecture_kana":"フクシマケン","city":"郡山市","city_kana":"コオリヤマシ","town":"田村町山中","town_kana":"タムラマチサンチュウ","prefecture_code":7},"1247":{"zip_code":"9631247","prefecture":"福島県","prefecture_kana":"フクシマケン","city":"郡山市","city_kana":"コオリヤマシ","town":"田村町下道渡","town_kana":"タムラマチシモミチワタシ","prefecture_code":7},"0726":{"zip_code":"9630726","prefecture":"福島県","prefecture_kana":"フクシマケン","city":"郡山市","city_kana":"コオリヤマシ","town":"田村町下行合","town_kana":"タムラマチシモユキアイ","prefecture_code":7},"1163":{"zip_code":"9631163","prefecture":"福島県","prefecture_kana":"フクシマケン","city":"郡山市","city_kana":"コオリヤマシ","town":"田村町正直","town_kana":"タムラマチショウジキ","prefecture_code":7},"1243":{"zip_code":"9631243","prefecture":"福島県","prefecture_kana":"フクシマケン","city":"郡山市","city_kana":"コオリヤマシ","town":"田村町田母神","town_kana":"タムラマチタモガミ","prefecture_code":7},"1161":{"zip_code":"9631161","prefecture":"福島県","prefecture_kana":"フクシマケン","city":"郡山市","city_kana":"コオリヤマシ","town":"田村町大善寺","town_kana":"タムラマチダイゼンジ","prefecture_code":7},"0721":{"zip_code":"9630721","prefecture":"福島県","prefecture_kana":"フクシマケン","city":"郡山市","city_kana":"コオリヤマシ","town":"田村町手代木","town_kana":"タムラマチテシロギ","prefecture_code":7},"1165":{"zip_code":"9631165","prefecture":"福島県","prefecture_kana":"フクシマケン","city":"郡山市","city_kana":"コオリヤマシ","town":"田村町徳定","town_kana":"タムラマチトクサダ","prefecture_code":7},"1244":{"zip_code":"9631244","prefecture":"福島県","prefecture_kana":"フクシマケン","city":"郡山市","city_kana":"コオリヤマシ","town":"田村町栃本","town_kana":"タムラマチトチモト","prefecture_code":7},"1245":{"zip_code":"9631245","prefecture":"福島県","prefecture_kana":"フクシマケン","city":"郡山市","city_kana":"コオリヤマシ","town":"田村町栃山神","town_kana":"タムラマチトチヤマカミ","prefecture_code":7},"1242":{"zip_code":"9631242","prefecture":"福島県","prefecture_kana":"フクシマケン","city":"郡山市","city_kana":"コオリヤマシ","town":"田村町糠塚","town_kana":"タムラマチヌカヅカ","prefecture_code":7},"1156":{"zip_code":"9631156","prefecture":"福島県","prefecture_kana":"フクシマケン","city":"郡山市","city_kana":"コオリヤマシ","town":"田村町東山","town_kana":"タムラマチヒガシヤマ","prefecture_code":7},"1152":{"zip_code":"9631152","prefecture":"福島県","prefecture_kana":"フクシマケン","city":"郡山市","city_kana":"コオリヤマシ","town":"田村町細田","town_kana":"タムラマチホソダ","prefecture_code":7},"1164":{"zip_code":"9631164","prefecture":"福島県","prefecture_kana":"フクシマケン","city":"郡山市","city_kana":"コオリヤマシ","town":"田村町御代田","town_kana":"タムラマチミヨダ","prefecture_code":7},"1155":{"zip_code":"9631155","prefecture":"福島県","prefecture_kana":"フクシマケン","city":"郡山市","city_kana":"コオリヤマシ","town":"田村町守山","town_kana":"タムラマチモリヤマ","prefecture_code":7},"1246":{"zip_code":"9631246","prefecture":"福島県","prefecture_kana":"フクシマケン","city":"郡山市","city_kana":"コオリヤマシ","town":"田村町谷田川","town_kana":"タムラマチヤタガワ","prefecture_code":7},"8017":{"zip_code":"9638017","prefecture":"福島県","prefecture_kana":"フクシマケン","city":"郡山市","city_kana":"コオリヤマシ","town":"長者","town_kana":"チョウジャ","prefecture_code":7},"0204":{"zip_code":"9630204","prefecture":"福島県","prefecture_kana":"フクシマケン","city":"郡山市","city_kana":"コオリヤマシ","town":"土瓜","town_kana":"ツチウリ","prefecture_code":7},"0205":{"zip_code":"9630205","prefecture":"福島県","prefecture_kana":"フクシマケン","city":"郡山市","city_kana":"コオリヤマシ","town":"堤","town_kana":"ツツミ","prefecture_code":7},"8878":{"zip_code":"9638878","prefecture":"福島県","prefecture_kana":"フクシマケン","city":"郡山市","city_kana":"コオリヤマシ","town":"堤下町","town_kana":"ツツミシタマチ","prefecture_code":7},"8861":{"zip_code":"9638861","prefecture":"福島県","prefecture_kana":"フクシマケン","city":"郡山市","city_kana":"コオリヤマシ","town":"鶴見坦","town_kana":"ツルミダン","prefecture_code":7},"8008":{"zip_code":"9638008","prefecture":"福島県","prefecture_kana":"フクシマケン","city":"郡山市","city_kana":"コオリヤマシ","town":"東宿","town_kana":"トウジュク","prefecture_code":7},"8824":{"zip_code":"9638824","prefecture":"福島県","prefecture_kana":"フクシマケン","city":"郡山市","city_kana":"コオリヤマシ","town":"道場","town_kana":"ドウバ","prefecture_code":7},"8877":{"zip_code":"9638877","prefecture":"福島県","prefecture_kana":"フクシマケン","city":"郡山市","city_kana":"コオリヤマシ","town":"堂前町","town_kana":"ドウマエマチ","prefecture_code":7},"8041":{"zip_code":"9638041","prefecture":"福島県","prefecture_kana":"フクシマケン","city":"郡山市","city_kana":"コオリヤマシ","town":"富田町","town_kana":"トミタマチ","prefecture_code":7},"8016":{"zip_code":"9638016","prefecture":"福島県","prefecture_kana":"フクシマケン","city":"郡山市","city_kana":"コオリヤマシ","town":"豊田町","town_kana":"トヨタマチ","prefecture_code":7},"8014":{"zip_code":"9638014","prefecture":"福島県","prefecture_kana":"フクシマケン","city":"郡山市","city_kana":"コオリヤマシ","town":"虎丸町","town_kana":"トラマルマチ","prefecture_code":7},"0714":{"zip_code":"9630714","prefecture":"福島県","prefecture_kana":"フクシマケン","city":"郡山市","city_kana":"コオリヤマシ","town":"中田町赤沼","town_kana":"ナカタマチアカヌマ","prefecture_code":7},"0711":{"zip_code":"9630711","prefecture":"福島県","prefecture_kana":"フクシマケン","city":"郡山市","city_kana":"コオリヤマシ","town":"中田町上石","town_kana":"ナカタマチアゲイシ","prefecture_code":7},"0834":{"zip_code":"9630834","prefecture":"福島県","prefecture_kana":"フクシマケン","city":"郡山市","city_kana":"コオリヤマシ","town":"中田町牛縊本郷","town_kana":"ナカタマチウシクビリホンゴウ","prefecture_code":7},"0712":{"zip_code":"9630712","prefecture":"福島県","prefecture_kana":"フクシマケン","city":"郡山市","city_kana":"コオリヤマシ","town":"中田町海老根","town_kana":"ナカタマチエビネ","prefecture_code":7},"0835":{"zip_code":"9630835","prefecture":"福島県","prefecture_kana":"フクシマケン","city":"郡山市","city_kana":"コオリヤマシ","town":"中田町黒木","town_kana":"ナカタマチクロキ","prefecture_code":7},"0836":{"zip_code":"9630836","prefecture":"福島県","prefecture_kana":"フクシマケン","city":"郡山市","city_kana":"コオリヤマシ","town":"中田町木目沢","town_kana":"ナカタマチコノメザワ","prefecture_code":7},"0837":{"zip_code":"9630837","prefecture":"福島県","prefecture_kana":"フクシマケン","city":"郡山市","city_kana":"コオリヤマシ","town":"中田町駒板","town_kana":"ナカタマチコマイタ","prefecture_code":7},"0833":{"zip_code":"9630833","prefecture":"福島県","prefecture_kana":"フクシマケン","city":"郡山市","city_kana":"コオリヤマシ","town":"中田町下枝","town_kana":"ナカタマチシタエダ","prefecture_code":7},"0713":{"zip_code":"9630713","prefecture":"福島県","prefecture_kana":"フクシマケン","city":"郡山市","city_kana":"コオリヤマシ","town":"中田町高倉","town_kana":"ナカタマチタカクラ","prefecture_code":7},"0832":{"zip_code":"9630832","prefecture":"福島県","prefecture_kana":"フクシマケン","city":"郡山市","city_kana":"コオリヤマシ","town":"中田町中津川","town_kana":"ナカタマチナカツガワ","prefecture_code":7},"0831":{"zip_code":"9630831","prefecture":"福島県","prefecture_kana":"フクシマケン","city":"郡山市","city_kana":"コオリヤマシ","town":"中田町柳橋","town_kana":"ナカタマチヤナギハシ","prefecture_code":7},"0206":{"zip_code":"9630206","prefecture":"福島県","prefecture_kana":"フクシマケン","city":"郡山市","city_kana":"コオリヤマシ","town":"中野","town_kana":"ナカノ","prefecture_code":7},"0216":{"zip_code":"9630216","prefecture":"福島県","prefecture_kana":"フクシマケン","city":"郡山市","city_kana":"コオリヤマシ","town":"中ノ目","town_kana":"ナカノメ","prefecture_code":7},"8004":{"zip_code":"9638004","prefecture":"福島県","prefecture_kana":"フクシマケン","city":"郡山市","city_kana":"コオリヤマシ","town":"中町","town_kana":"ナカマチ","prefecture_code":7},"8845":{"zip_code":"9638845","prefecture":"福島県","prefecture_kana":"フクシマケン","city":"郡山市","city_kana":"コオリヤマシ","town":"名倉","town_kana":"ナグラ","prefecture_code":7},"8043":{"zip_code":"9638043","prefecture":"福島県","prefecture_kana":"フクシマケン","city":"郡山市","city_kana":"コオリヤマシ","town":"名郷田","town_kana":"ナゴウダ","prefecture_code":7},"8831":{"zip_code":"9638831","prefecture":"福島県","prefecture_kana":"フクシマケン","city":"郡山市","city_kana":"コオリヤマシ","town":"七ツ池町","town_kana":"ナナツイケマチ","prefecture_code":7},"8026":{"zip_code":"9638026","prefecture":"福島県","prefecture_kana":"フクシマケン","city":"郡山市","city_kana":"コオリヤマシ","town":"並木","town_kana":"ナミキ","prefecture_code":7},"0106":{"zip_code":"9630106","prefecture":"福島県","prefecture_kana":"フクシマケン","city":"郡山市","city_kana":"コオリヤマシ","town":"成山町","town_kana":"ナリヤママチ","prefecture_code":7},"0207":{"zip_code":"9630207","prefecture":"福島県","prefecture_kana":"フクシマケン","city":"郡山市","city_kana":"コオリヤマシ","town":"鳴神","town_kana":"ナルガミ","prefecture_code":7},"0925":{"zip_code":"9630925","prefecture":"福島県","prefecture_kana":"フクシマケン","city":"郡山市","city_kana":"コオリヤマシ","town":"西田町阿広木","town_kana":"ニシタマチアコウギ","prefecture_code":7},"0903":{"zip_code":"9630903","prefecture":"福島県","prefecture_kana":"フクシマケン","city":"郡山市","city_kana":"コオリヤマシ","town":"西田町板橋","town_kana":"ニシタマチイタハシ","prefecture_code":7},"0924":{"zip_code":"9630924","prefecture":"福島県","prefecture_kana":"フクシマケン","city":"郡山市","city_kana":"コオリヤマシ","town":"西田町大網","town_kana":"ニシタマチオオアミ","prefecture_code":7},"0911":{"zip_code":"9630911","prefecture":"福島県","prefecture_kana":"フクシマケン","city":"郡山市","city_kana":"コオリヤマシ","town":"西田町大田","town_kana":"ニシタマチオオタ","prefecture_code":7},"0921":{"zip_code":"9630921","prefecture":"福島県","prefecture_kana":"フクシマケン","city":"郡山市","city_kana":"コオリヤマシ","town":"西田町鬼生田","town_kana":"ニシタマチオニウタ","prefecture_code":7},"0914":{"zip_code":"9630914","prefecture":"福島県","prefecture_kana":"フクシマケン","city":"郡山市","city_kana":"コオリヤマシ","town":"西田町木村","town_kana":"ニシタマチキムラ","prefecture_code":7},"0923":{"zip_code":"9630923","prefecture":"福島県","prefecture_kana":"フクシマケン","city":"郡山市","city_kana":"コオリヤマシ","town":"西田町黒田","town_kana":"ニシタマチクロダ","prefecture_code":7},"0922":{"zip_code":"9630922","prefecture":"福島県","prefecture_kana":"フクシマケン","city":"郡山市","city_kana":"コオリヤマシ","town":"西田町三町目","town_kana":"ニシタマチサンチョウメ","prefecture_code":7},"0913":{"zip_code":"9630913","prefecture":"福島県","prefecture_kana":"フクシマケン","city":"郡山市","city_kana":"コオリヤマシ","town":"西田町芹沢","town_kana":"ニシタマチセリサワ","prefecture_code":7},"0902":{"zip_code":"9630902","prefecture":"福島県","prefecture_kana":"フクシマケン","city":"郡山市","city_kana":"コオリヤマシ","town":"西田町高柴","town_kana":"ニシタマチタカシバ","prefecture_code":7},"0904":{"zip_code":"9630904","prefecture":"福島県","prefecture_kana":"フクシマケン","city":"郡山市","city_kana":"コオリヤマシ","town":"西田町土棚","town_kana":"ニシタマチツチダナ","prefecture_code":7},"0901":{"zip_code":"9630901","prefecture":"福島県","prefecture_kana":"フクシマケン","city":"郡山市","city_kana":"コオリヤマシ","town":"西田町丹伊田","town_kana":"ニシタマチニイタ","prefecture_code":7},"0912":{"zip_code":"9630912","prefecture":"福島県","prefecture_kana":"フクシマケン","city":"郡山市","city_kana":"コオリヤマシ","town":"西田町根木屋","town_kana":"ニシタマチネギヤ","prefecture_code":7},"8022":{"zip_code":"9638022","prefecture":"福島県","prefecture_kana":"フクシマケン","city":"郡山市","city_kana":"コオリヤマシ","town":"西ノ内","town_kana":"ニシノウチ","prefecture_code":7},"8813":{"zip_code":"9638813","prefecture":"福島県","prefecture_kana":"フクシマケン","city":"郡山市","city_kana":"コオリヤマシ","town":"芳賀","town_kana":"ハガ","prefecture_code":7},"8836":{"zip_code":"9638836","prefecture":"福島県","prefecture_kana":"フクシマケン","city":"郡山市","city_kana":"コオリヤマシ","town":"八作内","town_kana":"ハッサクウチ","prefecture_code":7},"8876":{"zip_code":"9638876","prefecture":"福島県","prefecture_kana":"フクシマケン","city":"郡山市","city_kana":"コオリヤマシ","town":"麓山","town_kana":"ハヤマ","prefecture_code":7},"8037":{"zip_code":"9638037","prefecture":"福島県","prefecture_kana":"フクシマケン","city":"郡山市","city_kana":"コオリヤマシ","town":"原中","town_kana":"ハラナカ","prefecture_code":7},"8871":[{"zip_code":"9638871","prefecture":"福島県","prefecture_kana":"フクシマケン","city":"郡山市","city_kana":"コオリヤマシ","town":"晴門田","town_kana":"ハレモンダ","prefecture_code":7},{"zip_code":"9638871","prefecture":"福島県","prefecture_kana":"フクシマケン","city":"郡山市","city_kana":"コオリヤマシ","town":"本町","town_kana":"モトマチ","prefecture_code":7}],"8003":{"zip_code":"9638003","prefecture":"福島県","prefecture_kana":"フクシマケン","city":"郡山市","city_kana":"コオリヤマシ","town":"燧田","town_kana":"ヒウチタ","prefecture_code":7},"8821":{"zip_code":"9638821","prefecture":"福島県","prefecture_kana":"フクシマケン","city":"郡山市","city_kana":"コオリヤマシ","town":"菱田町","town_kana":"ヒシダマチ","prefecture_code":7},"8044":{"zip_code":"9638044","prefecture":"福島県","prefecture_kana":"フクシマケン","city":"郡山市","city_kana":"コオリヤマシ","town":"備前舘","town_kana":"ビゼンダテ","prefecture_code":7},"0534":{"zip_code":"9630534","prefecture":"福島県","prefecture_kana":"フクシマケン","city":"郡山市","city_kana":"コオリヤマシ","town":"日和田町","town_kana":"ヒワダマチ","prefecture_code":7},"0532":{"zip_code":"9630532","prefecture":"福島県","prefecture_kana":"フクシマケン","city":"郡山市","city_kana":"コオリヤマシ","town":"日和田町梅沢","town_kana":"ヒワダマチウメザワ","prefecture_code":7},"0531":{"zip_code":"9630531","prefecture":"福島県","prefecture_kana":"フクシマケン","city":"郡山市","city_kana":"コオリヤマシ","town":"日和田町高倉","town_kana":"ヒワダマチタカクラ","prefecture_code":7},"0533":{"zip_code":"9630533","prefecture":"福島県","prefecture_kana":"フクシマケン","city":"郡山市","city_kana":"コオリヤマシ","town":"日和田町八丁目","town_kana":"ヒワダマチハッチョウメ","prefecture_code":7},"8874":{"zip_code":"9638874","prefecture":"福島県","prefecture_kana":"フクシマケン","city":"郡山市","city_kana":"コオリヤマシ","town":"深沢","town_kana":"フカザワ","prefecture_code":7},"8838":{"zip_code":"9638838","prefecture":"福島県","prefecture_kana":"フクシマケン","city":"郡山市","city_kana":"コオリヤマシ","town":"深田台","town_kana":"フカダダイ","prefecture_code":7},"8071":{"zip_code":"9638071","prefecture":"福島県","prefecture_kana":"フクシマケン","city":"郡山市","city_kana":"コオリヤマシ","town":"富久山町久保田","town_kana":"フクヤママチクボタ","prefecture_code":7},"0673":{"zip_code":"9630673","prefecture":"福島県","prefecture_kana":"フクシマケン","city":"郡山市","city_kana":"コオリヤマシ","town":"富久山町堂坂","town_kana":"フクヤママチドウザカ","prefecture_code":7},"8061":{"zip_code":"9638061","prefecture":"福島県","prefecture_kana":"フクシマケン","city":"郡山市","city_kana":"コオリヤマシ","town":"富久山町福原","town_kana":"フクヤママチフクハラ","prefecture_code":7},"0671":{"zip_code":"9630671","prefecture":"福島県","prefecture_kana":"フクシマケン","city":"郡山市","city_kana":"コオリヤマシ","town":"富久山町南小泉","town_kana":"フクヤママチミナミコイズミ","prefecture_code":7},"0672":{"zip_code":"9630672","prefecture":"福島県","prefecture_kana":"フクシマケン","city":"郡山市","city_kana":"コオリヤマシ","town":"富久山町北小泉","town_kana":"フクヤママチキタコイズミ","prefecture_code":7},"8051":{"zip_code":"9638051","prefecture":"福島県","prefecture_kana":"フクシマケン","city":"郡山市","city_kana":"コオリヤマシ","town":"富久山町八山田","town_kana":"フクヤママチヤツヤマダ","prefecture_code":7},"8042":{"zip_code":"9638042","prefecture":"福島県","prefecture_kana":"フクシマケン","city":"郡山市","city_kana":"コオリヤマシ","town":"不動前","town_kana":"フドウマエ","prefecture_code":7},"8826":{"zip_code":"9638826","prefecture":"福島県","prefecture_kana":"フクシマケン","city":"郡山市","city_kana":"コオリヤマシ","town":"船場向","town_kana":"フナバムカイ","prefecture_code":7},"8823":{"zip_code":"9638823","prefecture":"福島県","prefecture_kana":"フクシマケン","city":"郡山市","city_kana":"コオリヤマシ","town":"古川","town_kana":"フルカワ","prefecture_code":7},"8805":{"zip_code":"9638805","prefecture":"福島県","prefecture_kana":"フクシマケン","city":"郡山市","city_kana":"コオリヤマシ","town":"古屋敷","town_kana":"フルヤシキ","prefecture_code":7},"8811":{"zip_code":"9638811","prefecture":"福島県","prefecture_kana":"フクシマケン","city":"郡山市","city_kana":"コオリヤマシ","town":"方八町","town_kana":"ホウハッチョウ","prefecture_code":7},"8015":{"zip_code":"9638015","prefecture":"福島県","prefecture_kana":"フクシマケン","city":"郡山市","city_kana":"コオリヤマシ","town":"細沼町","town_kana":"ホソヌママチ","prefecture_code":7},"0215":{"zip_code":"9630215","prefecture":"福島県","prefecture_kana":"フクシマケン","city":"郡山市","city_kana":"コオリヤマシ","town":"待池台","town_kana":"マチイケダイ","prefecture_code":7},"8046":{"zip_code":"9638046","prefecture":"福島県","prefecture_kana":"フクシマケン","city":"郡山市","city_kana":"コオリヤマシ","town":"町東","town_kana":"マチヒガシ","prefecture_code":7},"8812":{"zip_code":"9638812","prefecture":"福島県","prefecture_kana":"フクシマケン","city":"郡山市","city_kana":"コオリヤマシ","town":"松木町","town_kana":"マツキチョウ","prefecture_code":7},"0702":{"zip_code":"9630702","prefecture":"福島県","prefecture_kana":"フクシマケン","city":"郡山市","city_kana":"コオリヤマシ","town":"緑ケ丘東","town_kana":"ミドリガオカヒガシ","prefecture_code":7},"0701":{"zip_code":"9630701","prefecture":"福島県","prefecture_kana":"フクシマケン","city":"郡山市","city_kana":"コオリヤマシ","town":"緑ケ丘西","town_kana":"ミドリガオカニシ","prefecture_code":7},"8023":{"zip_code":"9638023","prefecture":"福島県","prefecture_kana":"フクシマケン","city":"郡山市","city_kana":"コオリヤマシ","town":"緑町","town_kana":"ミドリマチ","prefecture_code":7},"0115":{"zip_code":"9630115","prefecture":"福島県","prefecture_kana":"フクシマケン","city":"郡山市","city_kana":"コオリヤマシ","town":"南","town_kana":"ミナミ","prefecture_code":7},"0127":{"zip_code":"9630127","prefecture":"福島県","prefecture_kana":"フクシマケン","city":"郡山市","city_kana":"コオリヤマシ","town":"三穂田町大谷","town_kana":"ミホタマチオオヤ","prefecture_code":7},"0121":{"zip_code":"9630121","prefecture":"福島県","prefecture_kana":"フクシマケン","city":"郡山市","city_kana":"コオリヤマシ","town":"三穂田町川田","town_kana":"ミホタマチカワタ","prefecture_code":7},"0128":{"zip_code":"9630128","prefecture":"福島県","prefecture_kana":"フクシマケン","city":"郡山市","city_kana":"コオリヤマシ","town":"三穂田町駒屋","town_kana":"ミホタマチコマヤ","prefecture_code":7},"0124":{"zip_code":"9630124","prefecture":"福島県","prefecture_kana":"フクシマケン","city":"郡山市","city_kana":"コオリヤマシ","town":"三穂田町下守屋","town_kana":"ミホタマチシモモリヤ","prefecture_code":7},"0125":{"zip_code":"9630125","prefecture":"福島県","prefecture_kana":"フクシマケン","city":"郡山市","city_kana":"コオリヤマシ","town":"三穂田町富岡","town_kana":"ミホタマチトミオカ","prefecture_code":7},"0123":{"zip_code":"9630123","prefecture":"福島県","prefecture_kana":"フクシマケン","city":"郡山市","city_kana":"コオリヤマシ","town":"三穂田町鍋山","town_kana":"ミホタマチナベヤマ","prefecture_code":7},"0122":{"zip_code":"9630122","prefecture":"福島県","prefecture_kana":"フクシマケン","city":"郡山市","city_kana":"コオリヤマシ","town":"三穂田町野田","town_kana":"ミホタマチノダ","prefecture_code":7},"0129":{"zip_code":"9630129","prefecture":"福島県","prefecture_kana":"フクシマケン","city":"郡山市","city_kana":"コオリヤマシ","town":"三穂田町八幡","town_kana":"ミホタマチヤハタ","prefecture_code":7},"0126":{"zip_code":"9630126","prefecture":"福島県","prefecture_kana":"フクシマケン","city":"郡山市","city_kana":"コオリヤマシ","town":"三穂田町山口","town_kana":"ミホタマチヤマグチ","prefecture_code":7},"8801":{"zip_code":"9638801","prefecture":"福島県","prefecture_kana":"フクシマケン","city":"郡山市","city_kana":"コオリヤマシ","town":"向河原町","town_kana":"ムカイガワラマチ","prefecture_code":7},"0661":{"zip_code":"9630661","prefecture":"福島県","prefecture_kana":"フクシマケン","city":"郡山市","city_kana":"コオリヤマシ","town":"舞木町","town_kana":"モウギマチ","prefecture_code":7},"8018":{"zip_code":"9638018","prefecture":"福島県","prefecture_kana":"フクシマケン","city":"郡山市","city_kana":"コオリヤマシ","town":"桃見台","town_kana":"モモミダイ","prefecture_code":7},"8837":{"zip_code":"9638837","prefecture":"福島県","prefecture_kana":"フクシマケン","city":"郡山市","city_kana":"コオリヤマシ","town":"八木橋","town_kana":"ヤギハシ","prefecture_code":7},"8802":{"zip_code":"9638802","prefecture":"福島県","prefecture_kana":"フクシマケン","city":"郡山市","city_kana":"コオリヤマシ","town":"谷島町","town_kana":"ヤシママチ","prefecture_code":7},"0208":{"zip_code":"9630208","prefecture":"福島県","prefecture_kana":"フクシマケン","city":"郡山市","city_kana":"コオリヤマシ","town":"谷地","town_kana":"ヤジ","prefecture_code":7},"0666":{"zip_code":"9630666","prefecture":"福島県","prefecture_kana":"フクシマケン","city":"郡山市","city_kana":"コオリヤマシ","town":"安原町","town_kana":"ヤスハラマチ","prefecture_code":7},"8052":{"zip_code":"9638052","prefecture":"福島県","prefecture_kana":"フクシマケン","city":"郡山市","city_kana":"コオリヤマシ","town":"八山田","town_kana":"ヤツヤマダ","prefecture_code":7},"8841":{"zip_code":"9638841","prefecture":"福島県","prefecture_kana":"フクシマケン","city":"郡山市","city_kana":"コオリヤマシ","town":"山崎","town_kana":"ヤマザキ","prefecture_code":7},"8832":{"zip_code":"9638832","prefecture":"福島県","prefecture_kana":"フクシマケン","city":"郡山市","city_kana":"コオリヤマシ","town":"山根町","town_kana":"ヤマネマチ","prefecture_code":7},"0665":{"zip_code":"9630665","prefecture":"福島県","prefecture_kana":"フクシマケン","city":"郡山市","city_kana":"コオリヤマシ","town":"横川町","town_kana":"ヨコカワマチ","prefecture_code":7},"8803":{"zip_code":"9638803","prefecture":"福島県","prefecture_kana":"フクシマケン","city":"郡山市","city_kana":"コオリヤマシ","town":"横塚","town_kana":"ヨコヅカ","prefecture_code":7},"8011":{"zip_code":"9638011","prefecture":"福島県","prefecture_kana":"フクシマケン","city":"郡山市","city_kana":"コオリヤマシ","town":"若葉町","town_kana":"ワカバマチ","prefecture_code":7},"4300":{"zip_code":"9634300","prefecture":"福島県","prefecture_kana":"フクシマケン","city":"田村市","city_kana":"タムラシ","town":"","town_kana":"","prefecture_code":7},"4111":{"zip_code":"9634111","prefecture":"福島県","prefecture_kana":"フクシマケン","city":"田村市","city_kana":"タムラシ","town":"大越町上大越","town_kana":"オオゴエマチカミオオゴエ","prefecture_code":7},"4115":{"zip_code":"9634115","prefecture":"福島県","prefecture_kana":"フクシマケン","city":"田村市","city_kana":"タムラシ","town":"大越町栗出","town_kana":"オオゴエマチクリデ","prefecture_code":7},"4112":{"zip_code":"9634112","prefecture":"福島県","prefecture_kana":"フクシマケン","city":"田村市","city_kana":"タムラシ","town":"大越町下大越","town_kana":"オオゴエマチシモオオゴエ","prefecture_code":7},"4114":{"zip_code":"9634114","prefecture":"福島県","prefecture_kana":"フクシマケン","city":"田村市","city_kana":"タムラシ","town":"大越町牧野","town_kana":"オオゴエマチマギノ","prefecture_code":7},"4113":{"zip_code":"9634113","prefecture":"福島県","prefecture_kana":"フクシマケン","city":"田村市","city_kana":"タムラシ","town":"大越町早稲川","town_kana":"オオゴエマチワセガワ","prefecture_code":7},"3602":{"zip_code":"9633602","prefecture":"福島県","prefecture_kana":"フクシマケン","city":"田村市","city_kana":"タムラシ","town":"滝根町神俣","town_kana":"タキネマチカンマタ","prefecture_code":7},"3601":{"zip_code":"9633601","prefecture":"福島県","prefecture_kana":"フクシマケン","city":"田村市","city_kana":"タムラシ","town":"滝根町菅谷","town_kana":"タキネマチスガヤ","prefecture_code":7},"3603":{"zip_code":"9633603","prefecture":"福島県","prefecture_kana":"フクシマケン","city":"田村市","city_kana":"タムラシ","town":"滝根町広瀬","town_kana":"タキネマチヒロセ","prefecture_code":7},"4604":{"zip_code":"9634604","prefecture":"福島県","prefecture_kana":"フクシマケン","city":"田村市","city_kana":"タムラシ","town":"常葉町鹿山","town_kana":"トキワマチカヤマ","prefecture_code":7},"4605":{"zip_code":"9634605","prefecture":"福島県","prefecture_kana":"フクシマケン","city":"田村市","city_kana":"タムラシ","town":"常葉町久保","town_kana":"トキワマチクボ","prefecture_code":7},"4614":{"zip_code":"9634614","prefecture":"福島県","prefecture_kana":"フクシマケン","city":"田村市","city_kana":"タムラシ","town":"常葉町小桧山","town_kana":"トキワマチコビヤマ","prefecture_code":7},"4613":{"zip_code":"9634613","prefecture":"福島県","prefecture_kana":"フクシマケン","city":"田村市","city_kana":"タムラシ","town":"常葉町関本","town_kana":"トキワマチセキモト","prefecture_code":7},"4602":{"zip_code":"9634602","prefecture":"福島県","prefecture_kana":"フクシマケン","city":"田村市","city_kana":"タムラシ","town":"常葉町常葉","town_kana":"トキワマチトキワ","prefecture_code":7},"4603":{"zip_code":"9634603","prefecture":"福島県","prefecture_kana":"フクシマケン","city":"田村市","city_kana":"タムラシ","town":"常葉町西向","town_kana":"トキワマチニシムキ","prefecture_code":7},"4606":{"zip_code":"9634606","prefecture":"福島県","prefecture_kana":"フクシマケン","city":"田村市","city_kana":"タムラシ","town":"常葉町新田作","town_kana":"トキワマチニッタサク","prefecture_code":7},"4611":{"zip_code":"9634611","prefecture":"福島県","prefecture_kana":"フクシマケン","city":"田村市","city_kana":"タムラシ","town":"常葉町堀田","town_kana":"トキワマチホッタ","prefecture_code":7},"4601":{"zip_code":"9634601","prefecture":"福島県","prefecture_kana":"フクシマケン","city":"田村市","city_kana":"タムラシ","town":"常葉町山根","town_kana":"トキワマチヤマネ","prefecture_code":7},"4612":{"zip_code":"9634612","prefecture":"福島県","prefecture_kana":"フクシマケン","city":"田村市","city_kana":"タムラシ","town":"常葉町早稲川","town_kana":"トキワマチワセガワ","prefecture_code":7},"4316":{"zip_code":"9634316","prefecture":"福島県","prefecture_kana":"フクシマケン","city":"田村市","city_kana":"タムラシ","town":"船引町芦沢","town_kana":"フネヒキマチアシザワ","prefecture_code":7},"4322":{"zip_code":"9634322","prefecture":"福島県","prefecture_kana":"フクシマケン","city":"田村市","city_kana":"タムラシ","town":"船引町荒和田","town_kana":"フネヒキマチアラワタ","prefecture_code":7},"4431":{"zip_code":"9634431","prefecture":"福島県","prefecture_kana":"フクシマケン","city":"田村市","city_kana":"タムラシ","town":"船引町石沢","town_kana":"フネヒキマチイシザワ","prefecture_code":7},"4313":{"zip_code":"9634313","prefecture":"福島県","prefecture_kana":"フクシマケン","city":"田村市","city_kana":"タムラシ","town":"船引町石森","town_kana":"フネヒキマチイシモリ","prefecture_code":7},"4311":{"zip_code":"9634311","prefecture":"福島県","prefecture_kana":"フクシマケン","city":"田村市","city_kana":"タムラシ","town":"船引町今泉","town_kana":"フネヒキマチイマイズミ","prefecture_code":7},"4435":{"zip_code":"9634435","prefecture":"福島県","prefecture_kana":"フクシマケン","city":"田村市","city_kana":"タムラシ","town":"船引町大倉","town_kana":"フネヒキマチオオクラ","prefecture_code":7},"4203":{"zip_code":"9634203","prefecture":"福島県","prefecture_kana":"フクシマケン","city":"田村市","city_kana":"タムラシ","town":"船引町門沢","town_kana":"フネヒキマチカドサワ","prefecture_code":7},"4434":{"zip_code":"9634434","prefecture":"福島県","prefecture_kana":"フクシマケン","city":"田村市","city_kana":"タムラシ","town":"船引町門鹿","town_kana":"フネヒキマチカドシカ","prefecture_code":7},"4323":{"zip_code":"9634323","prefecture":"福島県","prefecture_kana":"フクシマケン","city":"田村市","city_kana":"タムラシ","town":"船引町要田","town_kana":"フネヒキマチカナメタ","prefecture_code":7},"4541":{"zip_code":"9634541","prefecture":"福島県","prefecture_kana":"フクシマケン","city":"田村市","city_kana":"タムラシ","town":"船引町上移","town_kana":"フネヒキマチカミウツシ","prefecture_code":7},"4545":{"zip_code":"9634545","prefecture":"福島県","prefecture_kana":"フクシマケン","city":"田村市","city_kana":"タムラシ","town":"船引町北移","town_kana":"フネヒキマチキタウツシ","prefecture_code":7},"4433":{"zip_code":"9634433","prefecture":"福島県","prefecture_kana":"フクシマケン","city":"田村市","city_kana":"タムラシ","town":"船引町北鹿又","town_kana":"フネヒキマチキタカノマタ","prefecture_code":7},"4202":{"zip_code":"9634202","prefecture":"福島県","prefecture_kana":"フクシマケン","city":"田村市","city_kana":"タムラシ","town":"船引町椚山","town_kana":"フネヒキマチクヌギヤマ","prefecture_code":7},"4318":{"zip_code":"9634318","prefecture":"福島県","prefecture_kana":"フクシマケン","city":"田村市","city_kana":"タムラシ","town":"船引町光陽台","town_kana":"フネヒキマチコウヨウダイ","prefecture_code":7},"4321":{"zip_code":"9634321","prefecture":"福島県","prefecture_kana":"フクシマケン","city":"田村市","city_kana":"タムラシ","town":"船引町笹山","town_kana":"フネヒキマチササヤマ","prefecture_code":7},"4317":{"zip_code":"9634317","prefecture":"福島県","prefecture_kana":"フクシマケン","city":"田村市","city_kana":"タムラシ","town":"船引町東部台","town_kana":"フネヒキマチトウブダイ","prefecture_code":7},"4205":{"zip_code":"9634205","prefecture":"福島県","prefecture_kana":"フクシマケン","city":"田村市","city_kana":"タムラシ","town":"船引町遠山沢","town_kana":"フネヒキマチトオヤマザワ","prefecture_code":7},"4432":{"zip_code":"9634432","prefecture":"福島県","prefecture_kana":"フクシマケン","city":"田村市","city_kana":"タムラシ","town":"船引町長外路","town_kana":"フネヒキマチナガトロ","prefecture_code":7},"4201":{"zip_code":"9634201","prefecture":"福島県","prefecture_kana":"フクシマケン","city":"田村市","city_kana":"タムラシ","town":"船引町永谷","town_kana":"フネヒキマチナガヤ","prefecture_code":7},"4543":{"zip_code":"9634543","prefecture":"福島県","prefecture_kana":"フクシマケン","city":"田村市","city_kana":"タムラシ","town":"船引町中山","town_kana":"フネヒキマチナカヤマ","prefecture_code":7},"4324":{"zip_code":"9634324","prefecture":"福島県","prefecture_kana":"フクシマケン","city":"田村市","city_kana":"タムラシ","town":"船引町成田","town_kana":"フネヒキマチナリタ","prefecture_code":7},"4436":{"zip_code":"9634436","prefecture":"福島県","prefecture_kana":"フクシマケン","city":"田村市","city_kana":"タムラシ","town":"船引町新舘","town_kana":"フネヒキマチニイタテ","prefecture_code":7},"4315":{"zip_code":"9634315","prefecture":"福島県","prefecture_kana":"フクシマケン","city":"田村市","city_kana":"タムラシ","town":"船引町春山","town_kana":"フネヒキマチハルヤマ","prefecture_code":7},"4312":{"zip_code":"9634312","prefecture":"福島県","prefecture_kana":"フクシマケン","city":"田村市","city_kana":"タムラシ","town":"船引町船引","town_kana":"フネヒキマチフネヒキ","prefecture_code":7},"4204":{"zip_code":"9634204","prefecture":"福島県","prefecture_kana":"フクシマケン","city":"田村市","city_kana":"タムラシ","town":"船引町堀越","town_kana":"フネヒキマチホリコシ","prefecture_code":7},"4544":{"zip_code":"9634544","prefecture":"福島県","prefecture_kana":"フクシマケン","city":"田村市","city_kana":"タムラシ","town":"船引町南移","town_kana":"フネヒキマチミナミウツシ","prefecture_code":7},"4314":{"zip_code":"9634314","prefecture":"福島県","prefecture_kana":"フクシマケン","city":"田村市","city_kana":"タムラシ","town":"船引町文珠","town_kana":"フネヒキマチモンジュ","prefecture_code":7},"4542":{"zip_code":"9634542","prefecture":"福島県","prefecture_kana":"フクシマケン","city":"田村市","city_kana":"タムラシ","town":"船引町横道","town_kana":"フネヒキマチヨコミチ","prefecture_code":7},"4702":{"zip_code":"9634702","prefecture":"福島県","prefecture_kana":"フクシマケン","city":"田村市","city_kana":"タムラシ","town":"都路町岩井沢","town_kana":"ミヤコジマチイワイザワ","prefecture_code":7},"4701":{"zip_code":"9634701","prefecture":"福島県","prefecture_kana":"フクシマケン","city":"田村市","city_kana":"タムラシ","town":"都路町古道","town_kana":"ミヤコジマチフルミチ","prefecture_code":7},"6100":{"zip_code":"9636100","prefecture":"福島県","prefecture_kana":"フクシマケン","city":"東白川郡棚倉町","city_kana":"ヒガシシラカワグンタナグラマチ","town":"","town_kana":"","prefecture_code":7},"6113":{"zip_code":"9636113","prefecture":"福島県","prefecture_kana":"フクシマケン","city":"東白川郡棚倉町","city_kana":"ヒガシシラカワグンタナグラマチ","town":"板橋","town_kana":"イタバシ","prefecture_code":7},"6111":{"zip_code":"9636111","prefecture":"福島県","prefecture_kana":"フクシマケン","city":"東白川郡棚倉町","city_kana":"ヒガシシラカワグンタナグラマチ","town":"一色","town_kana":"イッシキ","prefecture_code":7},"6147":{"zip_code":"9636147","prefecture":"福島県","prefecture_kana":"フクシマケン","city":"東白川郡棚倉町","city_kana":"ヒガシシラカワグンタナグラマチ","town":"漆草","town_kana":"ウルシノクサ","prefecture_code":7},"6114":{"zip_code":"9636114","prefecture":"福島県","prefecture_kana":"フクシマケン","city":"東白川郡棚倉町","city_kana":"ヒガシシラカワグンタナグラマチ","town":"上台","town_kana":"ウワダイ","prefecture_code":7},"6145":{"zip_code":"9636145","prefecture":"福島県","prefecture_kana":"フクシマケン","city":"東白川郡棚倉町","city_kana":"ヒガシシラカワグンタナグラマチ","town":"大梅","town_kana":"オオメ","prefecture_code":7},"5662":{"zip_code":"9635662","prefecture":"福島県","prefecture_kana":"フクシマケン","city":"東白川郡棚倉町","city_kana":"ヒガシシラカワグンタナグラマチ","town":"岡田","town_kana":"オカダ","prefecture_code":7},"6106":{"zip_code":"9636106","prefecture":"福島県","prefecture_kana":"フクシマケン","city":"東白川郡棚倉町","city_kana":"ヒガシシラカワグンタナグラマチ","town":"金沢内","town_kana":"カナザワウチ","prefecture_code":7},"5681":{"zip_code":"9635681","prefecture":"福島県","prefecture_kana":"フクシマケン","city":"東白川郡棚倉町","city_kana":"ヒガシシラカワグンタナグラマチ","town":"上手沢","town_kana":"カミテザワ","prefecture_code":7},"5685":{"zip_code":"9635685","prefecture":"福島県","prefecture_kana":"フクシマケン","city":"東白川郡棚倉町","city_kana":"ヒガシシラカワグンタナグラマチ","town":"北山本","town_kana":"キタヤマモト","prefecture_code":7},"6105":{"zip_code":"9636105","prefecture":"福島県","prefecture_kana":"フクシマケン","city":"東白川郡棚倉町","city_kana":"ヒガシシラカワグンタナグラマチ","town":"小菅生","town_kana":"コスゴウ","prefecture_code":7},"6152":{"zip_code":"9636152","prefecture":"福島県","prefecture_kana":"フクシマケン","city":"東白川郡棚倉町","city_kana":"ヒガシシラカワグンタナグラマチ","town":"小爪","town_kana":"コヅメ","prefecture_code":7},"6144":{"zip_code":"9636144","prefecture":"福島県","prefecture_kana":"フクシマケン","city":"東白川郡棚倉町","city_kana":"ヒガシシラカワグンタナグラマチ","town":"強梨","town_kana":"コワナシ","prefecture_code":7},"6103":{"zip_code":"9636103","prefecture":"福島県","prefecture_kana":"フクシマケン","city":"東白川郡棚倉町","city_kana":"ヒガシシラカワグンタナグラマチ","town":"逆川","town_kana":"サカサガワ","prefecture_code":7},"5682":{"zip_code":"9635682","prefecture":"福島県","prefecture_kana":"フクシマケン","city":"東白川郡棚倉町","city_kana":"ヒガシシラカワグンタナグラマチ","town":"下手沢","town_kana":"シモテザワ","prefecture_code":7},"5683":{"zip_code":"9635683","prefecture":"福島県","prefecture_kana":"フクシマケン","city":"東白川郡棚倉町","city_kana":"ヒガシシラカワグンタナグラマチ","town":"下山本","town_kana":"シモヤマモト","prefecture_code":7},"6153":{"zip_code":"9636153","prefecture":"福島県","prefecture_kana":"フクシマケン","city":"東白川郡棚倉町","city_kana":"ヒガシシラカワグンタナグラマチ","town":"瀬ケ野","town_kana":"セガノ","prefecture_code":7},"6123":{"zip_code":"9636123","prefecture":"福島県","prefecture_kana":"フクシマケン","city":"東白川郡棚倉町","city_kana":"ヒガシシラカワグンタナグラマチ","town":"関口","town_kana":"セキグチ","prefecture_code":7},"6131":{"zip_code":"9636131","prefecture":"福島県","prefecture_kana":"フクシマケン","city":"東白川郡棚倉町","city_kana":"ヒガシシラカワグンタナグラマチ","town":"棚倉","town_kana":"タナグラ","prefecture_code":7},"6112":{"zip_code":"9636112","prefecture":"福島県","prefecture_kana":"フクシマケン","city":"東白川郡棚倉町","city_kana":"ヒガシシラカワグンタナグラマチ","town":"玉野","town_kana":"タマノ","prefecture_code":7},"5664":{"zip_code":"9635664","prefecture":"福島県","prefecture_kana":"フクシマケン","city":"東白川郡棚倉町","city_kana":"ヒガシシラカワグンタナグラマチ","town":"塚原","town_kana":"ツカハラ","prefecture_code":7},"6101":{"zip_code":"9636101","prefecture":"福島県","prefecture_kana":"フクシマケン","city":"東白川郡棚倉町","city_kana":"ヒガシシラカワグンタナグラマチ","town":"堤","town_kana":"ツツミ","prefecture_code":7},"5671":{"zip_code":"9635671","prefecture":"福島県","prefecture_kana":"フクシマケン","city":"東白川郡棚倉町","city_kana":"ヒガシシラカワグンタナグラマチ","town":"寺山","town_kana":"テラヤマ","prefecture_code":7},"6102":{"zip_code":"9636102","prefecture":"福島県","prefecture_kana":"フクシマケン","city":"東白川郡棚倉町","city_kana":"ヒガシシラカワグンタナグラマチ","town":"天王内","town_kana":"テンノウチ","prefecture_code":7},"6146":{"zip_code":"9636146","prefecture":"福島県","prefecture_kana":"フクシマケン","city":"東白川郡棚倉町","city_kana":"ヒガシシラカワグンタナグラマチ","town":"戸中","town_kana":"トチュウ","prefecture_code":7},"6141":{"zip_code":"9636141","prefecture":"福島県","prefecture_kana":"フクシマケン","city":"東白川郡棚倉町","city_kana":"ヒガシシラカワグンタナグラマチ","town":"富岡","town_kana":"トミオカ","prefecture_code":7},"5684":{"zip_code":"9635684","prefecture":"福島県","prefecture_kana":"フクシマケン","city":"東白川郡棚倉町","city_kana":"ヒガシシラカワグンタナグラマチ","town":"中山本","town_kana":"ナカヤマモト","prefecture_code":7},"5663":{"zip_code":"9635663","prefecture":"福島県","prefecture_kana":"フクシマケン","city":"東白川郡棚倉町","city_kana":"ヒガシシラカワグンタナグラマチ","town":"流","town_kana":"ナガレ","prefecture_code":7},"6122":{"zip_code":"9636122","prefecture":"福島県","prefecture_kana":"フクシマケン","city":"東白川郡棚倉町","city_kana":"ヒガシシラカワグンタナグラマチ","town":"仁公儀","town_kana":"ニコウギ","prefecture_code":7},"6121":{"zip_code":"9636121","prefecture":"福島県","prefecture_kana":"フクシマケン","city":"東白川郡棚倉町","city_kana":"ヒガシシラカワグンタナグラマチ","town":"花園","town_kana":"ハナゾノ","prefecture_code":7},"6104":{"zip_code":"9636104","prefecture":"福島県","prefecture_kana":"フクシマケン","city":"東白川郡棚倉町","city_kana":"ヒガシシラカワグンタナグラマチ","town":"檜木","town_kana":"ヒノキ","prefecture_code":7},"6115":{"zip_code":"9636115","prefecture":"福島県","prefecture_kana":"フクシマケン","city":"東白川郡棚倉町","city_kana":"ヒガシシラカワグンタナグラマチ","town":"福井","town_kana":"フクイ","prefecture_code":7},"6143":{"zip_code":"9636143","prefecture":"福島県","prefecture_kana":"フクシマケン","city":"東白川郡棚倉町","city_kana":"ヒガシシラカワグンタナグラマチ","town":"福岡","town_kana":"フクオカ","prefecture_code":7},"6151":{"zip_code":"9636151","prefecture":"福島県","prefecture_kana":"フクシマケン","city":"東白川郡棚倉町","city_kana":"ヒガシシラカワグンタナグラマチ","town":"祝部内","town_kana":"ホウリウジ","prefecture_code":7},"5672":{"zip_code":"9635672","prefecture":"福島県","prefecture_kana":"フクシマケン","city":"東白川郡棚倉町","city_kana":"ヒガシシラカワグンタナグラマチ","town":"八槻","town_kana":"ヤツキ","prefecture_code":7},"6142":{"zip_code":"9636142","prefecture":"福島県","prefecture_kana":"フクシマケン","city":"東白川郡棚倉町","city_kana":"ヒガシシラカワグンタナグラマチ","town":"山際","town_kana":"ヤマギワ","prefecture_code":7},"5661":{"zip_code":"9635661","prefecture":"福島県","prefecture_kana":"フクシマケン","city":"東白川郡棚倉町","city_kana":"ヒガシシラカワグンタナグラマチ","town":"山田","town_kana":"ヤマダ","prefecture_code":7},"5100":{"zip_code":"9635100","prefecture":"福島県","prefecture_kana":"フクシマケン","city":"東白川郡矢祭町","city_kana":"ヒガシシラカワグンヤマツリマチ","town":"","town_kana":"","prefecture_code":7},"5322":{"zip_code":"9635322","prefecture":"福島県","prefecture_kana":"フクシマケン","city":"東白川郡矢祭町","city_kana":"ヒガシシラカワグンヤマツリマチ","town":"内川","town_kana":"ウチカワ","prefecture_code":7},"5114":{"zip_code":"9635114","prefecture":"福島県","prefecture_kana":"フクシマケン","city":"東白川郡矢祭町","city_kana":"ヒガシシラカワグンヤマツリマチ","town":"大ぬかり","town_kana":"オオヌカリ","prefecture_code":7},"5119":{"zip_code":"9635119","prefecture":"福島県","prefecture_kana":"フクシマケン","city":"東白川郡矢祭町","city_kana":"ヒガシシラカワグンヤマツリマチ","town":"小田川","town_kana":"オダガワ","prefecture_code":7},"5111":{"zip_code":"9635111","prefecture":"福島県","prefecture_kana":"フクシマケン","city":"東白川郡矢祭町","city_kana":"ヒガシシラカワグンヤマツリマチ","town":"金沢","town_kana":"カネザワ","prefecture_code":7},"5115":{"zip_code":"9635115","prefecture":"福島県","prefecture_kana":"フクシマケン","city":"東白川郡矢祭町","city_kana":"ヒガシシラカワグンヤマツリマチ","town":"上関河内","town_kana":"カミセキゴウド","prefecture_code":7},"5116":{"zip_code":"9635116","prefecture":"福島県","prefecture_kana":"フクシマケン","city":"東白川郡矢祭町","city_kana":"ヒガシシラカワグンヤマツリマチ","town":"高野","town_kana":"コウヤ","prefecture_code":7},"5202":{"zip_code":"9635202","prefecture":"福島県","prefecture_kana":"フクシマケン","city":"東白川郡矢祭町","city_kana":"ヒガシシラカワグンヤマツリマチ","town":"下石井","town_kana":"シモイシイ","prefecture_code":7},"5113":{"zip_code":"9635113","prefecture":"福島県","prefecture_kana":"フクシマケン","city":"東白川郡矢祭町","city_kana":"ヒガシシラカワグンヤマツリマチ","town":"下関河内","town_kana":"シモセキゴウド","prefecture_code":7},"5321":{"zip_code":"9635321","prefecture":"福島県","prefecture_kana":"フクシマケン","city":"東白川郡矢祭町","city_kana":"ヒガシシラカワグンヤマツリマチ","town":"関岡","town_kana":"セキオカ","prefecture_code":7},"5203":{"zip_code":"9635203","prefecture":"福島県","prefecture_kana":"フクシマケン","city":"東白川郡矢祭町","city_kana":"ヒガシシラカワグンヤマツリマチ","town":"戸塚","town_kana":"トツカ","prefecture_code":7},"5201":{"zip_code":"9635201","prefecture":"福島県","prefecture_kana":"フクシマケン","city":"東白川郡矢祭町","city_kana":"ヒガシシラカワグンヤマツリマチ","town":"中石井","town_kana":"ナカイシイ","prefecture_code":7},"5118":{"zip_code":"9635118","prefecture":"福島県","prefecture_kana":"フクシマケン","city":"東白川郡矢祭町","city_kana":"ヒガシシラカワグンヤマツリマチ","town":"東舘","town_kana":"ヒガシタテ","prefecture_code":7},"5112":{"zip_code":"9635112","prefecture":"福島県","prefecture_kana":"フクシマケン","city":"東白川郡矢祭町","city_kana":"ヒガシシラカワグンヤマツリマチ","town":"宝坂","town_kana":"ホウザカ","prefecture_code":7},"5323":{"zip_code":"9635323","prefecture":"福島県","prefecture_kana":"フクシマケン","city":"東白川郡矢祭町","city_kana":"ヒガシシラカワグンヤマツリマチ","town":"茗荷","town_kana":"ミョウガ","prefecture_code":7},"5117":{"zip_code":"9635117","prefecture":"福島県","prefecture_kana":"フクシマケン","city":"東白川郡矢祭町","city_kana":"ヒガシシラカワグンヤマツリマチ","town":"山下","town_kana":"ヤマシタ","prefecture_code":7},"5400":{"zip_code":"9635400","prefecture":"福島県","prefecture_kana":"フクシマケン","city":"東白川郡塙町","city_kana":"ヒガシシラカワグンハナワマチ","town":"","town_kana":"","prefecture_code":7},"5342":{"zip_code":"9635342","prefecture":"福島県","prefecture_kana":"フクシマケン","city":"東白川郡塙町","city_kana":"ヒガシシラカワグンハナワマチ","town":"伊香","town_kana":"イコウ","prefecture_code":7},"5537":{"zip_code":"9635537","prefecture":"福島県","prefecture_kana":"フクシマケン","city":"東白川郡塙町","city_kana":"ヒガシシラカワグンハナワマチ","town":"板庭","town_kana":"イタニワ","prefecture_code":7},"5343":{"zip_code":"9635343","prefecture":"福島県","prefecture_kana":"フクシマケン","city":"東白川郡塙町","city_kana":"ヒガシシラカワグンハナワマチ","town":"植田","town_kana":"ウエダ","prefecture_code":7},"5532":{"zip_code":"9635532","prefecture":"福島県","prefecture_kana":"フクシマケン","city":"東白川郡塙町","city_kana":"ヒガシシラカワグンハナワマチ","town":"大蕨","town_kana":"オオワラビ","prefecture_code":7},"5522":{"zip_code":"9635522","prefecture":"福島県","prefecture_kana":"フクシマケン","city":"東白川郡塙町","city_kana":"ヒガシシラカワグンハナワマチ","town":"片貝","town_kana":"カタカイ","prefecture_code":7},"5411":{"zip_code":"9635411","prefecture":"福島県","prefecture_kana":"フクシマケン","city":"東白川郡塙町","city_kana":"ヒガシシラカワグンハナワマチ","town":"上石井","town_kana":"カミイシイ","prefecture_code":7},"5406":{"zip_code":"9635406","prefecture":"福島県","prefecture_kana":"フクシマケン","city":"東白川郡塙町","city_kana":"ヒガシシラカワグンハナワマチ","town":"上渋井","town_kana":"カミシブイ","prefecture_code":7},"5536":{"zip_code":"9635536","prefecture":"福島県","prefecture_kana":"フクシマケン","city":"東白川郡塙町","city_kana":"ヒガシシラカワグンハナワマチ","town":"川上","town_kana":"カワカミ","prefecture_code":7},"5534":{"zip_code":"9635534","prefecture":"福島県","prefecture_kana":"フクシマケン","city":"東白川郡塙町","city_kana":"ヒガシシラカワグンハナワマチ","town":"木野反","town_kana":"キノソリ","prefecture_code":7},"5341":{"zip_code":"9635341","prefecture":"福島県","prefecture_kana":"フクシマケン","city":"東白川郡塙町","city_kana":"ヒガシシラカワグンハナワマチ","town":"台宿","town_kana":"ダイジュク","prefecture_code":7},"5404":{"zip_code":"9635404","prefecture":"福島県","prefecture_kana":"フクシマケン","city":"東白川郡塙町","city_kana":"ヒガシシラカワグンハナワマチ","town":"竹之内","town_kana":"タケノウチ","prefecture_code":7},"5531":{"zip_code":"9635531","prefecture":"福島県","prefecture_kana":"フクシマケン","city":"東白川郡塙町","city_kana":"ヒガシシラカワグンハナワマチ","town":"田代","town_kana":"タシロ","prefecture_code":7},"5539":{"zip_code":"9635539","prefecture":"福島県","prefecture_kana":"フクシマケン","city":"東白川郡塙町","city_kana":"ヒガシシラカワグンハナワマチ","town":"田野作","town_kana":"タノサク","prefecture_code":7},"5402":{"zip_code":"9635402","prefecture":"福島県","prefecture_kana":"フクシマケン","city":"東白川郡塙町","city_kana":"ヒガシシラカワグンハナワマチ","town":"常世北野","town_kana":"トコヨキタノ","prefecture_code":7},"5403":{"zip_code":"9635403","prefecture":"福島県","prefecture_kana":"フクシマケン","city":"東白川郡塙町","city_kana":"ヒガシシラカワグンハナワマチ","town":"常世中野","town_kana":"トコヨナカノ","prefecture_code":7},"5538":{"zip_code":"9635538","prefecture":"福島県","prefecture_kana":"フクシマケン","city":"東白川郡塙町","city_kana":"ヒガシシラカワグンハナワマチ","town":"中塚","town_kana":"ナカツカ","prefecture_code":7},"5521":{"zip_code":"9635521","prefecture":"福島県","prefecture_kana":"フクシマケン","city":"東白川郡塙町","city_kana":"ヒガシシラカワグンハナワマチ","town":"那倉","town_kana":"ナグラ","prefecture_code":7},"5407":{"zip_code":"9635407","prefecture":"福島県","prefecture_kana":"フクシマケン","city":"東白川郡塙町","city_kana":"ヒガシシラカワグンハナワマチ","town":"西河内","town_kana":"ニシゴウド","prefecture_code":7},"5405":{"zip_code":"9635405","prefecture":"福島県","prefecture_kana":"フクシマケン","city":"東白川郡塙町","city_kana":"ヒガシシラカワグンハナワマチ","town":"塙","town_kana":"ハナワ","prefecture_code":7},"5401":{"zip_code":"9635401","prefecture":"福島県","prefecture_kana":"フクシマケン","city":"東白川郡塙町","city_kana":"ヒガシシラカワグンハナワマチ","town":"東河内","town_kana":"ヒガシゴウド","prefecture_code":7},"5408":{"zip_code":"9635408","prefecture":"福島県","prefecture_kana":"フクシマケン","city":"東白川郡塙町","city_kana":"ヒガシシラカワグンハナワマチ","town":"堀越","town_kana":"ホリゴシ","prefecture_code":7},"5344":{"zip_code":"9635344","prefecture":"福島県","prefecture_kana":"フクシマケン","city":"東白川郡塙町","city_kana":"ヒガシシラカワグンハナワマチ","town":"真名畑","town_kana":"マナハタ","prefecture_code":7},"5535":{"zip_code":"9635535","prefecture":"福島県","prefecture_kana":"フクシマケン","city":"東白川郡塙町","city_kana":"ヒガシシラカワグンハナワマチ","town":"山形","town_kana":"ヤマガタ","prefecture_code":7},"5533":{"zip_code":"9635533","prefecture":"福島県","prefecture_kana":"フクシマケン","city":"東白川郡塙町","city_kana":"ヒガシシラカワグンハナワマチ","town":"湯岐","town_kana":"ユジマタ","prefecture_code":7},"8400":{"zip_code":"9638400","prefecture":"福島県","prefecture_kana":"フクシマケン","city":"東白川郡鮫川村","city_kana":"ヒガシシラカワグンサメガワムラ","town":"","town_kana":"","prefecture_code":7},"8404":{"zip_code":"9638404","prefecture":"福島県","prefecture_kana":"フクシマケン","city":"東白川郡鮫川村","city_kana":"ヒガシシラカワグンサメガワムラ","town":"青生野","town_kana":"アオノ","prefecture_code":7},"8401":{"zip_code":"9638401","prefecture":"福島県","prefecture_kana":"フクシマケン","city":"東白川郡鮫川村","city_kana":"ヒガシシラカワグンサメガワムラ","town":"赤坂中野","town_kana":"アカサカナカノ","prefecture_code":7},"8403":{"zip_code":"9638403","prefecture":"福島県","prefecture_kana":"フクシマケン","city":"東白川郡鮫川村","city_kana":"ヒガシシラカワグンサメガワムラ","town":"赤坂東野","town_kana":"アカサカヒガシノ","prefecture_code":7},"8407":{"zip_code":"9638407","prefecture":"福島県","prefecture_kana":"フクシマケン","city":"東白川郡鮫川村","city_kana":"ヒガシシラカワグンサメガワムラ","town":"赤坂西野","town_kana":"アカサカニシノ","prefecture_code":7},"8402":{"zip_code":"9638402","prefecture":"福島県","prefecture_kana":"フクシマケン","city":"東白川郡鮫川村","city_kana":"ヒガシシラカワグンサメガワムラ","town":"石井草","town_kana":"イシイクサ","prefecture_code":7},"8406":{"zip_code":"9638406","prefecture":"福島県","prefecture_kana":"フクシマケン","city":"東白川郡鮫川村","city_kana":"ヒガシシラカワグンサメガワムラ","town":"富田","town_kana":"トミタ","prefecture_code":7},"8408":{"zip_code":"9638408","prefecture":"福島県","prefecture_kana":"フクシマケン","city":"東白川郡鮫川村","city_kana":"ヒガシシラカワグンサメガワムラ","town":"西山","town_kana":"ニシヤマ","prefecture_code":7},"5505":{"zip_code":"9635505","prefecture":"福島県","prefecture_kana":"フクシマケン","city":"東白川郡鮫川村","city_kana":"ヒガシシラカワグンサメガワムラ","town":"渡瀬","town_kana":"ワタラセ","prefecture_code":7},"8405":{"zip_code":"9638405","prefecture":"福島県","prefecture_kana":"フクシマケン","city":"東白川郡鮫川村","city_kana":"ヒガシシラカワグンサメガワムラ","town":"渡瀬","town_kana":"ワタラセ","prefecture_code":7},"7800":{"zip_code":"9637800","prefecture":"福島県","prefecture_kana":"フクシマケン","city":"石川郡石川町","city_kana":"イシカワグンイシカワマチ","town":"","town_kana":"","prefecture_code":7},"7826":{"zip_code":"9637826","prefecture":"福島県","prefecture_kana":"フクシマケン","city":"石川郡石川町","city_kana":"イシカワグンイシカワマチ","town":"赤羽","town_kana":"アカバネ","prefecture_code":7},"7864":{"zip_code":"9637864","prefecture":"福島県","prefecture_kana":"フクシマケン","city":"石川郡石川町","city_kana":"イシカワグンイシカワマチ","town":"秋台","town_kana":"アキダイ","prefecture_code":7},"7884":{"zip_code":"9637884","prefecture":"福島県","prefecture_kana":"フクシマケン","city":"石川郡石川町","city_kana":"イシカワグンイシカワマチ","town":"新屋敷","town_kana":"アラヤシキ","prefecture_code":7},"7827":{"zip_code":"9637827","prefecture":"福島県","prefecture_kana":"フクシマケン","city":"石川郡石川町","city_kana":"イシカワグンイシカワマチ","town":"新屋敷","town_kana":"アラヤシキ","prefecture_code":7},"7833":{"zip_code":"9637833","prefecture":"福島県","prefecture_kana":"フクシマケン","city":"石川郡石川町","city_kana":"イシカワグンイシカワマチ","town":"石田","town_kana":"イシダ","prefecture_code":7},"7867":{"zip_code":"9637867","prefecture":"福島県","prefecture_kana":"フクシマケン","city":"石川郡石川町","city_kana":"イシカワグンイシカワマチ","town":"石塚","town_kana":"イシヅカ","prefecture_code":7},"7813":{"zip_code":"9637813","prefecture":"福島県","prefecture_kana":"フクシマケン","city":"石川郡石川町","city_kana":"イシカワグンイシカワマチ","town":"板橋","town_kana":"イタバシ","prefecture_code":7},"7849":{"zip_code":"9637849","prefecture":"福島県","prefecture_kana":"フクシマケン","city":"石川郡石川町","city_kana":"イシカワグンイシカワマチ","town":"一ノ沢","town_kana":"イチノサワ","prefecture_code":7},"7841":{"zip_code":"9637841","prefecture":"福島県","prefecture_kana":"フクシマケン","city":"石川郡石川町","city_kana":"イシカワグンイシカワマチ","town":"江堀田","town_kana":"エホリダ","prefecture_code":7},"7823":{"zip_code":"9637823","prefecture":"福島県","prefecture_kana":"フクシマケン","city":"石川郡石川町","city_kana":"イシカワグンイシカワマチ","town":"王子平","town_kana":"オウジダイラ","prefecture_code":7},"7872":{"zip_code":"9637872","prefecture":"福島県","prefecture_kana":"フクシマケン","city":"石川郡石川町","city_kana":"イシカワグンイシカワマチ","town":"大内","town_kana":"オオウチ","prefecture_code":7},"7815":{"zip_code":"9637815","prefecture":"福島県","prefecture_kana":"フクシマケン","city":"石川郡石川町","city_kana":"イシカワグンイシカワマチ","town":"大沢","town_kana":"オオサワ","prefecture_code":7},"7881":{"zip_code":"9637881","prefecture":"福島県","prefecture_kana":"フクシマケン","city":"石川郡石川町","city_kana":"イシカワグンイシカワマチ","town":"大橋","town_kana":"オオハシ","prefecture_code":7},"7853":{"zip_code":"9637853","prefecture":"福島県","prefecture_kana":"フクシマケン","city":"石川郡石川町","city_kana":"イシカワグンイシカワマチ","town":"大室","town_kana":"オオムロ","prefecture_code":7},"7848":{"zip_code":"9637848","prefecture":"福島県","prefecture_kana":"フクシマケン","city":"石川郡石川町","city_kana":"イシカワグンイシカワマチ","town":"長郷田","town_kana":"オサゴウダ","prefecture_code":7},"7807":{"zip_code":"9637807","prefecture":"福島県","prefecture_kana":"フクシマケン","city":"石川郡石川町","city_kana":"イシカワグンイシカワマチ","town":"形見","town_kana":"カタミ","prefecture_code":7},"7862":{"zip_code":"9637862","prefecture":"福島県","prefecture_kana":"フクシマケン","city":"石川郡石川町","city_kana":"イシカワグンイシカワマチ","town":"鹿ノ坂","town_kana":"カノサカ","prefecture_code":7},"7844":{"zip_code":"9637844","prefecture":"福島県","prefecture_kana":"フクシマケン","city":"石川郡石川町","city_kana":"イシカワグンイシカワマチ","town":"北町","town_kana":"キタマチ","prefecture_code":7},"7802":{"zip_code":"9637802","prefecture":"福島県","prefecture_kana":"フクシマケン","city":"石川郡石川町","city_kana":"イシカワグンイシカワマチ","town":"北山","town_kana":"キタヤマ","prefecture_code":7},"7811":{"zip_code":"9637811","prefecture":"福島県","prefecture_kana":"フクシマケン","city":"石川郡石川町","city_kana":"イシカワグンイシカワマチ","town":"北山形","town_kana":"キタヤマガタ","prefecture_code":7},"7835":{"zip_code":"9637835","prefecture":"福島県","prefecture_kana":"フクシマケン","city":"石川郡石川町","city_kana":"イシカワグンイシカワマチ","town":"草倉田","town_kana":"クサクラダ","prefecture_code":7},"7834":{"zip_code":"9637834","prefecture":"福島県","prefecture_kana":"フクシマケン","city":"石川郡石川町","city_kana":"イシカワグンイシカワマチ","town":"轡取","town_kana":"クツワドリ","prefecture_code":7},"7876":{"zip_code":"9637876","prefecture":"福島県","prefecture_kana":"フクシマケン","city":"石川郡石川町","city_kana":"イシカワグンイシカワマチ","town":"国見","town_kana":"クニミ","prefecture_code":7},"7847":{"zip_code":"9637847","prefecture":"福島県","prefecture_kana":"フクシマケン","city":"石川郡石川町","city_kana":"イシカワグンイシカワマチ","town":"古舘","town_kana":"コダテ","prefecture_code":7},"7842":{"zip_code":"9637842","prefecture":"福島県","prefecture_kana":"フクシマケン","city":"石川郡石川町","city_kana":"イシカワグンイシカワマチ","town":"境ノ内","town_kana":"サカイノウチ","prefecture_code":7},"7804":{"zip_code":"9637804","prefecture":"福島県","prefecture_kana":"フクシマケン","city":"石川郡石川町","city_kana":"イシカワグンイシカワマチ","town":"坂路","town_kana":"サカジ","prefecture_code":7},"7825":{"zip_code":"9637825","prefecture":"福島県","prefecture_kana":"フクシマケン","city":"石川郡石川町","city_kana":"イシカワグンイシカワマチ","town":"沢井","town_kana":"サワイ","prefecture_code":7},"7836":{"zip_code":"9637836","prefecture":"福島県","prefecture_kana":"フクシマケン","city":"石川郡石川町","city_kana":"イシカワグンイシカワマチ","town":"塩沢","town_kana":"シオザワ","prefecture_code":7},"7818":{"zip_code":"9637818","prefecture":"福島県","prefecture_kana":"フクシマケン","city":"石川郡石川町","city_kana":"イシカワグンイシカワマチ","town":"塩沼","town_kana":"シオヌマ","prefecture_code":7},"7882":{"zip_code":"9637882","prefecture":"福島県","prefecture_kana":"フクシマケン","city":"石川郡石川町","city_kana":"イシカワグンイシカワマチ","town":"塩ノ平","town_kana":"シオノヒラ","prefecture_code":7},"7858":{"zip_code":"9637858","prefecture":"福島県","prefecture_kana":"フクシマケン","city":"石川郡石川町","city_kana":"イシカワグンイシカワマチ","town":"下泉","town_kana":"シモイズミ","prefecture_code":7},"7828":{"zip_code":"9637828","prefecture":"福島県","prefecture_kana":"フクシマケン","city":"石川郡石川町","city_kana":"イシカワグンイシカワマチ","town":"下ノ内","town_kana":"シモノウチ","prefecture_code":7},"7856":{"zip_code":"9637856","prefecture":"福島県","prefecture_kana":"フクシマケン","city":"石川郡石川町","city_kana":"イシカワグンイシカワマチ","town":"白石","town_kana":"シロイシ","prefecture_code":7},"7851":{"zip_code":"9637851","prefecture":"福島県","prefecture_kana":"フクシマケン","city":"石川郡石川町","city_kana":"イシカワグンイシカワマチ","town":"新町","town_kana":"シンマチ","prefecture_code":7},"7852":{"zip_code":"9637852","prefecture":"福島県","prefecture_kana":"フクシマケン","city":"石川郡石川町","city_kana":"イシカワグンイシカワマチ","town":"関根","town_kana":"セキネ","prefecture_code":7},"7808":{"zip_code":"9637808","prefecture":"福島県","prefecture_kana":"フクシマケン","city":"石川郡石川町","city_kana":"イシカワグンイシカワマチ","town":"双里","town_kana":"ソウリ","prefecture_code":7},"7866":{"zip_code":"9637866","prefecture":"福島県","prefecture_kana":"フクシマケン","city":"石川郡石川町","city_kana":"イシカワグンイシカワマチ","town":"外国見","town_kana":"ソトクニミ","prefecture_code":7},"7874":{"zip_code":"9637874","prefecture":"福島県","prefecture_kana":"フクシマケン","city":"石川郡石川町","city_kana":"イシカワグンイシカワマチ","town":"大五郎内","town_kana":"ダイゴロウウチ","prefecture_code":7},"7845":{"zip_code":"9637845","prefecture":"福島県","prefecture_kana":"フクシマケン","city":"石川郡石川町","city_kana":"イシカワグンイシカワマチ","town":"高田","town_kana":"タカダ","prefecture_code":7},"7817":{"zip_code":"9637817","prefecture":"福島県","prefecture_kana":"フクシマケン","city":"石川郡石川町","city_kana":"イシカワグンイシカワマチ","town":"立ケ岡","town_kana":"タテガオカ","prefecture_code":7},"7857":{"zip_code":"9637857","prefecture":"福島県","prefecture_kana":"フクシマケン","city":"石川郡石川町","city_kana":"イシカワグンイシカワマチ","town":"当町","town_kana":"トウマチ","prefecture_code":7},"7873":{"zip_code":"9637873","prefecture":"福島県","prefecture_kana":"フクシマケン","city":"石川郡石川町","city_kana":"イシカワグンイシカワマチ","town":"飛ケ作","town_kana":"トビガサク","prefecture_code":7},"7803":{"zip_code":"9637803","prefecture":"福島県","prefecture_kana":"フクシマケン","city":"石川郡石川町","city_kana":"イシカワグンイシカワマチ","town":"中田","town_kana":"ナカダ","prefecture_code":7},"7837":{"zip_code":"9637837","prefecture":"福島県","prefecture_kana":"フクシマケン","city":"石川郡石川町","city_kana":"イシカワグンイシカワマチ","town":"中野","town_kana":"ナカノ","prefecture_code":7},"7846":{"zip_code":"9637846","prefecture":"福島県","prefecture_kana":"フクシマケン","city":"石川郡石川町","city_kana":"イシカワグンイシカワマチ","town":"長久保","town_kana":"ナガクボ","prefecture_code":7},"7885":{"zip_code":"9637885","prefecture":"福島県","prefecture_kana":"フクシマケン","city":"石川郡石川町","city_kana":"イシカワグンイシカワマチ","town":"成亀","town_kana":"ナリガメ","prefecture_code":7},"7855":{"zip_code":"9637855","prefecture":"福島県","prefecture_kana":"フクシマケン","city":"石川郡石川町","city_kana":"イシカワグンイシカワマチ","town":"猫啼","town_kana":"ネコナキ","prefecture_code":7},"7824":{"zip_code":"9637824","prefecture":"福島県","prefecture_kana":"フクシマケン","city":"石川郡石川町","city_kana":"イシカワグンイシカワマチ","town":"原","town_kana":"ハラ","prefecture_code":7},"7821":{"zip_code":"9637821","prefecture":"福島県","prefecture_kana":"フクシマケン","city":"石川郡石川町","city_kana":"イシカワグンイシカワマチ","town":"宝殿前","town_kana":"ホウデンマエ","prefecture_code":7},"7831":{"zip_code":"9637831","prefecture":"福島県","prefecture_kana":"フクシマケン","city":"石川郡石川町","city_kana":"イシカワグンイシカワマチ","town":"母畑","town_kana":"ボバタ","prefecture_code":7},"7871":{"zip_code":"9637871","prefecture":"福島県","prefecture_kana":"フクシマケン","city":"石川郡石川町","city_kana":"イシカワグンイシカワマチ","town":"前ノ内","town_kana":"マエノウチ","prefecture_code":7},"7838":{"zip_code":"9637838","prefecture":"福島県","prefecture_kana":"フクシマケン","city":"石川郡石川町","city_kana":"イシカワグンイシカワマチ","town":"曲木","town_kana":"マガキ","prefecture_code":7},"7865":{"zip_code":"9637865","prefecture":"福島県","prefecture_kana":"フクシマケン","city":"石川郡石川町","city_kana":"イシカワグンイシカワマチ","town":"曲ノ内","town_kana":"マガリノウチ","prefecture_code":7},"7854":{"zip_code":"9637854","prefecture":"福島県","prefecture_kana":"フクシマケン","city":"石川郡石川町","city_kana":"イシカワグンイシカワマチ","town":"松木下","town_kana":"マツキシタ","prefecture_code":7},"7816":{"zip_code":"9637816","prefecture":"福島県","prefecture_kana":"フクシマケン","city":"石川郡石川町","city_kana":"イシカワグンイシカワマチ","town":"豆ケ平","town_kana":"マメガヒラ","prefecture_code":7},"7859":{"zip_code":"9637859","prefecture":"福島県","prefecture_kana":"フクシマケン","city":"石川郡石川町","city_kana":"イシカワグンイシカワマチ","town":"南町","town_kana":"ミナミマチ","prefecture_code":7},"7812":{"zip_code":"9637812","prefecture":"福島県","prefecture_kana":"フクシマケン","city":"石川郡石川町","city_kana":"イシカワグンイシカワマチ","town":"南山形","town_kana":"ミナミヤマガタ","prefecture_code":7},"7883":{"zip_code":"9637883","prefecture":"福島県","prefecture_kana":"フクシマケン","city":"石川郡石川町","city_kana":"イシカワグンイシカワマチ","town":"麦ノ内","town_kana":"ムギノウチ","prefecture_code":7},"7832":{"zip_code":"9637832","prefecture":"福島県","prefecture_kana":"フクシマケン","city":"石川郡石川町","city_kana":"イシカワグンイシカワマチ","town":"弥吾","town_kana":"ヤゴ","prefecture_code":7},"7806":{"zip_code":"9637806","prefecture":"福島県","prefecture_kana":"フクシマケン","city":"石川郡石川町","city_kana":"イシカワグンイシカワマチ","town":"谷沢","town_kana":"ヤザワ","prefecture_code":7},"7843":{"zip_code":"9637843","prefecture":"福島県","prefecture_kana":"フクシマケン","city":"石川郡石川町","city_kana":"イシカワグンイシカワマチ","town":"屋敷ノ入","town_kana":"ヤシキノイリ","prefecture_code":7},"7805":{"zip_code":"9637805","prefecture":"福島県","prefecture_kana":"フクシマケン","city":"石川郡石川町","city_kana":"イシカワグンイシカワマチ","town":"谷地","town_kana":"ヤジ","prefecture_code":7},"7875":{"zip_code":"9637875","prefecture":"福島県","prefecture_kana":"フクシマケン","city":"石川郡石川町","city_kana":"イシカワグンイシカワマチ","town":"柳作","town_kana":"ヤナギサク","prefecture_code":7},"7822":{"zip_code":"9637822","prefecture":"福島県","prefecture_kana":"フクシマケン","city":"石川郡石川町","city_kana":"イシカワグンイシカワマチ","town":"梁瀬","town_kana":"ヤナセ","prefecture_code":7},"7861":{"zip_code":"9637861","prefecture":"福島県","prefecture_kana":"フクシマケン","city":"石川郡石川町","city_kana":"イシカワグンイシカワマチ","town":"矢ノ目田","town_kana":"ヤノメダ","prefecture_code":7},"7814":{"zip_code":"9637814","prefecture":"福島県","prefecture_kana":"フクシマケン","city":"石川郡石川町","city_kana":"イシカワグンイシカワマチ","town":"山形","town_kana":"ヤマガタ","prefecture_code":7},"7801":{"zip_code":"9637801","prefecture":"福島県","prefecture_kana":"フクシマケン","city":"石川郡石川町","city_kana":"イシカワグンイシカワマチ","town":"湯郷渡","town_kana":"ユゴウト","prefecture_code":7},"7886":{"zip_code":"9637886","prefecture":"福島県","prefecture_kana":"フクシマケン","city":"石川郡石川町","city_kana":"イシカワグンイシカワマチ","town":"和久","town_kana":"ワグ","prefecture_code":7},"7863":{"zip_code":"9637863","prefecture":"福島県","prefecture_kana":"フクシマケン","city":"石川郡石川町","city_kana":"イシカワグンイシカワマチ","town":"渡里沢","town_kana":"ワタリサワ","prefecture_code":7},"6300":{"zip_code":"9636300","prefecture":"福島県","prefecture_kana":"フクシマケン","city":"石川郡玉川村","city_kana":"イシカワグンタマカワムラ","town":"","town_kana":"","prefecture_code":7},"6312":{"zip_code":"9636312","prefecture":"福島県","prefecture_kana":"フクシマケン","city":"石川郡玉川村","city_kana":"イシカワグンタマカワムラ","town":"小高","town_kana":"オダカ","prefecture_code":7},"6313":{"zip_code":"9636313","prefecture":"福島県","prefecture_kana":"フクシマケン","city":"石川郡玉川村","city_kana":"イシカワグンタマカワムラ","town":"川辺","town_kana":"カワベ","prefecture_code":7},"6311":{"zip_code":"9636311","prefecture":"福島県","prefecture_kana":"フクシマケン","city":"石川郡玉川村","city_kana":"イシカワグンタマカワムラ","town":"岩法寺","town_kana":"ガンポウジ","prefecture_code":7},"6304":{"zip_code":"9636304","prefecture":"福島県","prefecture_kana":"フクシマケン","city":"石川郡玉川村","city_kana":"イシカワグンタマカワムラ","town":"北須釜","town_kana":"キタスガマ","prefecture_code":7},"6316":{"zip_code":"9636316","prefecture":"福島県","prefecture_kana":"フクシマケン","city":"石川郡玉川村","city_kana":"イシカワグンタマカワムラ","town":"竜崎","town_kana":"タツザキ","prefecture_code":7},"6315":{"zip_code":"9636315","prefecture":"福島県","prefecture_kana":"フクシマケン","city":"石川郡玉川村","city_kana":"イシカワグンタマカワムラ","town":"中","town_kana":"ナカ","prefecture_code":7},"6314":{"zip_code":"9636314","prefecture":"福島県","prefecture_kana":"フクシマケン","city":"石川郡玉川村","city_kana":"イシカワグンタマカワムラ","town":"蒜生","town_kana":"ヒリュウ","prefecture_code":7},"6302":{"zip_code":"9636302","prefecture":"福島県","prefecture_kana":"フクシマケン","city":"石川郡玉川村","city_kana":"イシカワグンタマカワムラ","town":"南須釜","town_kana":"ミナミスガマ","prefecture_code":7},"6305":{"zip_code":"9636305","prefecture":"福島県","prefecture_kana":"フクシマケン","city":"石川郡玉川村","city_kana":"イシカワグンタマカワムラ","town":"山小屋","town_kana":"ヤマゴヤ","prefecture_code":7},"6306":{"zip_code":"9636306","prefecture":"福島県","prefecture_kana":"フクシマケン","city":"石川郡玉川村","city_kana":"イシカワグンタマカワムラ","town":"山新田","town_kana":"ヤマシンデン","prefecture_code":7},"6303":{"zip_code":"9636303","prefecture":"福島県","prefecture_kana":"フクシマケン","city":"石川郡玉川村","city_kana":"イシカワグンタマカワムラ","town":"吉","town_kana":"ヨシ","prefecture_code":7},"6301":{"zip_code":"9636301","prefecture":"福島県","prefecture_kana":"フクシマケン","city":"石川郡玉川村","city_kana":"イシカワグンタマカワムラ","town":"四辻新田","town_kana":"ヨッツジシンデン","prefecture_code":7},"8100":{"zip_code":"9638100","prefecture":"福島県","prefecture_kana":"フクシマケン","city":"石川郡平田村","city_kana":"イシカワグンヒラタムラ","town":"","town_kana":"","prefecture_code":7},"8114":{"zip_code":"9638114","prefecture":"福島県","prefecture_kana":"フクシマケン","city":"石川郡平田村","city_kana":"イシカワグンヒラタムラ","town":"小平","town_kana":"オダイラ","prefecture_code":7},"8202":{"zip_code":"9638202","prefecture":"福島県","prefecture_kana":"フクシマケン","city":"石川郡平田村","city_kana":"イシカワグンヒラタムラ","town":"上蓬田","town_kana":"カミヨモギダ","prefecture_code":7},"8112":{"zip_code":"9638112","prefecture":"福島県","prefecture_kana":"フクシマケン","city":"石川郡平田村","city_kana":"イシカワグンヒラタムラ","town":"北方","town_kana":"キタカタ","prefecture_code":7},"8203":{"zip_code":"9638203","prefecture":"福島県","prefecture_kana":"フクシマケン","city":"石川郡平田村","city_kana":"イシカワグンヒラタムラ","town":"九生滝","town_kana":"クリュウダキ","prefecture_code":7},"8113":{"zip_code":"9638113","prefecture":"福島県","prefecture_kana":"フクシマケン","city":"石川郡平田村","city_kana":"イシカワグンヒラタムラ","town":"駒形","town_kana":"コマガタ","prefecture_code":7},"8206":{"zip_code":"9638206","prefecture":"福島県","prefecture_kana":"フクシマケン","city":"石川郡平田村","city_kana":"イシカワグンヒラタムラ","town":"小松原","town_kana":"コマツバラ","prefecture_code":7},"8207":{"zip_code":"9638207","prefecture":"福島県","prefecture_kana":"フクシマケン","city":"石川郡平田村","city_kana":"イシカワグンヒラタムラ","town":"下蓬田","town_kana":"シモヨモギダ","prefecture_code":7},"8204":{"zip_code":"9638204","prefecture":"福島県","prefecture_kana":"フクシマケン","city":"石川郡平田村","city_kana":"イシカワグンヒラタムラ","town":"鴇子","town_kana":"トウノコ","prefecture_code":7},"8115":{"zip_code":"9638115","prefecture":"福島県","prefecture_kana":"フクシマケン","city":"石川郡平田村","city_kana":"イシカワグンヒラタムラ","town":"中倉","town_kana":"ナカグラ","prefecture_code":7},"8205":{"zip_code":"9638205","prefecture":"福島県","prefecture_kana":"フクシマケン","city":"石川郡平田村","city_kana":"イシカワグンヒラタムラ","town":"永田","town_kana":"ナガタ","prefecture_code":7},"8116":{"zip_code":"9638116","prefecture":"福島県","prefecture_kana":"フクシマケン","city":"石川郡平田村","city_kana":"イシカワグンヒラタムラ","town":"西山","town_kana":"ニシヤマ","prefecture_code":7},"8111":{"zip_code":"9638111","prefecture":"福島県","prefecture_kana":"フクシマケン","city":"石川郡平田村","city_kana":"イシカワグンヒラタムラ","town":"東山","town_kana":"ヒガシヤマ","prefecture_code":7},"8201":{"zip_code":"9638201","prefecture":"福島県","prefecture_kana":"フクシマケン","city":"石川郡平田村","city_kana":"イシカワグンヒラタムラ","town":"蓬田新田","town_kana":"ヨモギダシンデン","prefecture_code":7},"6200":{"zip_code":"9636200","prefecture":"福島県","prefecture_kana":"フクシマケン","city":"石川郡浅川町","city_kana":"イシカワグンアサカワマチ","town":"","town_kana":"","prefecture_code":7},"6204":{"zip_code":"9636204","prefecture":"福島県","prefecture_kana":"フクシマケン","city":"石川郡浅川町","city_kana":"イシカワグンアサカワマチ","town":"浅川","town_kana":"アサカワ","prefecture_code":7},"6214":{"zip_code":"9636214","prefecture":"福島県","prefecture_kana":"フクシマケン","city":"石川郡浅川町","city_kana":"イシカワグンアサカワマチ","town":"大草","town_kana":"オオクサ","prefecture_code":7},"6206":{"zip_code":"9636206","prefecture":"福島県","prefecture_kana":"フクシマケン","city":"石川郡浅川町","city_kana":"イシカワグンアサカワマチ","town":"太田輪","town_kana":"オオタワ","prefecture_code":7},"6207":{"zip_code":"9636207","prefecture":"福島県","prefecture_kana":"フクシマケン","city":"石川郡浅川町","city_kana":"イシカワグンアサカワマチ","town":"小貫","town_kana":"オヌキ","prefecture_code":7},"6202":{"zip_code":"9636202","prefecture":"福島県","prefecture_kana":"フクシマケン","city":"石川郡浅川町","city_kana":"イシカワグンアサカワマチ","town":"里白石","town_kana":"サトシライシ","prefecture_code":7},"6216":{"zip_code":"9636216","prefecture":"福島県","prefecture_kana":"フクシマケン","city":"石川郡浅川町","city_kana":"イシカワグンアサカワマチ","town":"袖山","town_kana":"ソデヤマ","prefecture_code":7},"6208":{"zip_code":"9636208","prefecture":"福島県","prefecture_kana":"フクシマケン","city":"石川郡浅川町","city_kana":"イシカワグンアサカワマチ","town":"染","town_kana":"ソメ","prefecture_code":7},"6205":{"zip_code":"9636205","prefecture":"福島県","prefecture_kana":"フクシマケン","city":"石川郡浅川町","city_kana":"イシカワグンアサカワマチ","town":"滝輪","town_kana":"タキワ","prefecture_code":7},"6213":{"zip_code":"9636213","prefecture":"福島県","prefecture_kana":"フクシマケン","city":"石川郡浅川町","city_kana":"イシカワグンアサカワマチ","town":"中里","town_kana":"ナカザト","prefecture_code":7},"6215":{"zip_code":"9636215","prefecture":"福島県","prefecture_kana":"フクシマケン","city":"石川郡浅川町","city_kana":"イシカワグンアサカワマチ","town":"根岸","town_kana":"ネギシ","prefecture_code":7},"6211":{"zip_code":"9636211","prefecture":"福島県","prefecture_kana":"フクシマケン","city":"石川郡浅川町","city_kana":"イシカワグンアサカワマチ","town":"畑田","town_kana":"ハタダ","prefecture_code":7},"6218":{"zip_code":"9636218","prefecture":"福島県","prefecture_kana":"フクシマケン","city":"石川郡浅川町","city_kana":"イシカワグンアサカワマチ","town":"東大畑","town_kana":"ヒガシオオハタ","prefecture_code":7},"6201":{"zip_code":"9636201","prefecture":"福島県","prefecture_kana":"フクシマケン","city":"石川郡浅川町","city_kana":"イシカワグンアサカワマチ","town":"福貴作","town_kana":"フキザク","prefecture_code":7},"6212":{"zip_code":"9636212","prefecture":"福島県","prefecture_kana":"フクシマケン","city":"石川郡浅川町","city_kana":"イシカワグンアサカワマチ","town":"松野入","town_kana":"マツノイリ","prefecture_code":7},"6217":{"zip_code":"9636217","prefecture":"福島県","prefecture_kana":"フクシマケン","city":"石川郡浅川町","city_kana":"イシカワグンアサカワマチ","town":"簑輪","town_kana":"ミノワ","prefecture_code":7},"6203":{"zip_code":"9636203","prefecture":"福島県","prefecture_kana":"フクシマケン","city":"石川郡浅川町","city_kana":"イシカワグンアサカワマチ","town":"山白石","town_kana":"ヤマシライシ","prefecture_code":7},"8300":{"zip_code":"9638300","prefecture":"福島県","prefecture_kana":"フクシマケン","city":"石川郡古殿町","city_kana":"イシカワグンフルドノマチ","town":"","town_kana":"","prefecture_code":7},"8303":{"zip_code":"9638303","prefecture":"福島県","prefecture_kana":"フクシマケン","city":"石川郡古殿町","city_kana":"イシカワグンフルドノマチ","town":"大久田","town_kana":"オオグタ","prefecture_code":7},"8307":{"zip_code":"9638307","prefecture":"福島県","prefecture_kana":"フクシマケン","city":"石川郡古殿町","city_kana":"イシカワグンフルドノマチ","town":"鎌田","town_kana":"カマタ","prefecture_code":7},"8308":{"zip_code":"9638308","prefecture":"福島県","prefecture_kana":"フクシマケン","city":"石川郡古殿町","city_kana":"イシカワグンフルドノマチ","town":"仙石","town_kana":"センゴク","prefecture_code":7},"8305":{"zip_code":"9638305","prefecture":"福島県","prefecture_kana":"フクシマケン","city":"石川郡古殿町","city_kana":"イシカワグンフルドノマチ","town":"竹貫","town_kana":"タカヌキ","prefecture_code":7},"8306":{"zip_code":"9638306","prefecture":"福島県","prefecture_kana":"フクシマケン","city":"石川郡古殿町","city_kana":"イシカワグンフルドノマチ","town":"田口","town_kana":"タグチ","prefecture_code":7},"8304":{"zip_code":"9638304","prefecture":"福島県","prefecture_kana":"フクシマケン","city":"石川郡古殿町","city_kana":"イシカワグンフルドノマチ","town":"松川","town_kana":"マツカワ","prefecture_code":7},"8302":{"zip_code":"9638302","prefecture":"福島県","prefecture_kana":"フクシマケン","city":"石川郡古殿町","city_kana":"イシカワグンフルドノマチ","town":"山上","town_kana":"ヤマカミ","prefecture_code":7},"8301":{"zip_code":"9638301","prefecture":"福島県","prefecture_kana":"フクシマケン","city":"石川郡古殿町","city_kana":"イシカワグンフルドノマチ","town":"論田","town_kana":"ロンデン","prefecture_code":7},"7700":{"zip_code":"9637700","prefecture":"福島県","prefecture_kana":"フクシマケン","city":"田村郡三春町","city_kana":"タムラグンミハルマチ","town":"","town_kana":"","prefecture_code":7},"7702":{"zip_code":"9637702","prefecture":"福島県","prefecture_kana":"フクシマケン","city":"田村郡三春町","city_kana":"タムラグンミハルマチ","town":"青石","town_kana":"アオイシ","prefecture_code":7},"7753":[{"zip_code":"9637753","prefecture":"福島県","prefecture_kana":"フクシマケン","city":"田村郡三春町","city_kana":"タムラグンミハルマチ","town":"赤坂","town_kana":"アカサカ","prefecture_code":7},{"zip_code":"9637753","prefecture":"福島県","prefecture_kana":"フクシマケン","city":"田村郡三春町","city_kana":"タムラグンミハルマチ","town":"師範場","town_kana":"シハンバ","prefecture_code":7},{"zip_code":"9637753","prefecture":"福島県","prefecture_kana":"フクシマケン","city":"田村郡三春町","city_kana":"タムラグンミハルマチ","town":"清水","town_kana":"シミズ","prefecture_code":7},{"zip_code":"9637753","prefecture":"福島県","prefecture_kana":"フクシマケン","city":"田村郡三春町","city_kana":"タムラグンミハルマチ","town":"永作","town_kana":"ナガサク","prefecture_code":7},{"zip_code":"9637753","prefecture":"福島県","prefecture_kana":"フクシマケン","city":"田村郡三春町","city_kana":"タムラグンミハルマチ","town":"八十内","town_kana":"ヤソウチ","prefecture_code":7}],"7745":{"zip_code":"9637745","prefecture":"福島県","prefecture_kana":"フクシマケン","city":"田村郡三春町","city_kana":"タムラグンミハルマチ","town":"尼ケ谷","town_kana":"アマガヤ","prefecture_code":7},"7765":{"zip_code":"9637765","prefecture":"福島県","prefecture_kana":"フクシマケン","city":"田村郡三春町","city_kana":"タムラグンミハルマチ","town":"荒町","town_kana":"アラマチ","prefecture_code":7},"7749":[{"zip_code":"9637749","prefecture":"福島県","prefecture_kana":"フクシマケン","city":"田村郡三春町","city_kana":"タムラグンミハルマチ","town":"一本松","town_kana":"イッポンマツ","prefecture_code":7},{"zip_code":"9637749","prefecture":"福島県","prefecture_kana":"フクシマケン","city":"田村郡三春町","city_kana":"タムラグンミハルマチ","town":"大久保","town_kana":"オオクボ","prefecture_code":7}],"7757":{"zip_code":"9637757","prefecture":"福島県","prefecture_kana":"フクシマケン","city":"田村郡三春町","city_kana":"タムラグンミハルマチ","town":"会下谷","town_kana":"エゲタニ","prefecture_code":7},"7754":[{"zip_code":"9637754","prefecture":"福島県","prefecture_kana":"フクシマケン","city":"田村郡三春町","city_kana":"タムラグンミハルマチ","town":"恵下越","town_kana":"エゲノコシ","prefecture_code":7},{"zip_code":"9637754","prefecture":"福島県","prefecture_kana":"フクシマケン","city":"田村郡三春町","city_kana":"タムラグンミハルマチ","town":"化粧坂","town_kana":"ケハイザカ","prefecture_code":7},{"zip_code":"9637754","prefecture":"福島県","prefecture_kana":"フクシマケン","city":"田村郡三春町","city_kana":"タムラグンミハルマチ","town":"庚申坂","town_kana":"コウシンザカ","prefecture_code":7},{"zip_code":"9637754","prefecture":"福島県","prefecture_kana":"フクシマケン","city":"田村郡三春町","city_kana":"タムラグンミハルマチ","town":"四軒丁","town_kana":"シケンチョウ","prefecture_code":7},{"zip_code":"9637754","prefecture":"福島県","prefecture_kana":"フクシマケン","city":"田村郡三春町","city_kana":"タムラグンミハルマチ","town":"新町","town_kana":"シンマチ","prefecture_code":7},{"zip_code":"9637754","prefecture":"福島県","prefecture_kana":"フクシマケン","city":"田村郡三春町","city_kana":"タムラグンミハルマチ","town":"番組","town_kana":"バングミ","prefecture_code":7},{"zip_code":"9637754","prefecture":"福島県","prefecture_kana":"フクシマケン","city":"田村郡三春町","city_kana":"タムラグンミハルマチ","town":"番組頭","town_kana":"バングミガシラ","prefecture_code":7},{"zip_code":"9637754","prefecture":"福島県","prefecture_kana":"フクシマケン","city":"田村郡三春町","city_kana":"タムラグンミハルマチ","town":"弓町","town_kana":"ユミマチ","prefecture_code":7}],"7752":[{"zip_code":"9637752","prefecture":"福島県","prefecture_kana":"フクシマケン","city":"田村郡三春町","city_kana":"タムラグンミハルマチ","town":"烏帽子石","town_kana":"エボシイシ","prefecture_code":7},{"zip_code":"9637752","prefecture":"福島県","prefecture_kana":"フクシマケン","city":"田村郡三春町","city_kana":"タムラグンミハルマチ","town":"亀井","town_kana":"カメイ","prefecture_code":7},{"zip_code":"9637752","prefecture":"福島県","prefecture_kana":"フクシマケン","city":"田村郡三春町","city_kana":"タムラグンミハルマチ","town":"清水畑","town_kana":"シミズバタ","prefecture_code":7},{"zip_code":"9637752","prefecture":"福島県","prefecture_kana":"フクシマケン","city":"田村郡三春町","city_kana":"タムラグンミハルマチ","town":"仁井町","town_kana":"ニイマチ","prefecture_code":7},{"zip_code":"9637752","prefecture":"福島県","prefecture_kana":"フクシマケン","city":"田村郡三春町","city_kana":"タムラグンミハルマチ","town":"六升蒔","town_kana":"ロクショウマキ","prefecture_code":7}],"7706":{"zip_code":"9637706","prefecture":"福島県","prefecture_kana":"フクシマケン","city":"田村郡三春町","city_kana":"タムラグンミハルマチ","town":"大平","town_kana":"オオダイラ","prefecture_code":7},"7759":{"zip_code":"9637759","prefecture":"福島県","prefecture_kana":"フクシマケン","city":"田村郡三春町","city_kana":"タムラグンミハルマチ","town":"大町","town_kana":"オオマチ","prefecture_code":7},"7762":{"zip_code":"9637762","prefecture":"福島県","prefecture_kana":"フクシマケン","city":"田村郡三春町","city_kana":"タムラグンミハルマチ","town":"小浜海道","town_kana":"オバマカイドウ","prefecture_code":7},"7772":{"zip_code":"9637772","prefecture":"福島県","prefecture_kana":"フクシマケン","city":"田村郡三春町","city_kana":"タムラグンミハルマチ","town":"御祭","town_kana":"オマツリ","prefecture_code":7},"7719":{"zip_code":"9637719","prefecture":"福島県","prefecture_kana":"フクシマケン","city":"田村郡三春町","city_kana":"タムラグンミハルマチ","town":"貝山","town_kana":"カイヤマ","prefecture_code":7},"7769":{"zip_code":"9637769","prefecture":"福島県","prefecture_kana":"フクシマケン","city":"田村郡三春町","city_kana":"タムラグンミハルマチ","town":"担橋","town_kana":"カツギバシ","prefecture_code":7},"7741":[{"zip_code":"9637741","prefecture":"福島県","prefecture_kana":"フクシマケン","city":"田村郡三春町","city_kana":"タムラグンミハルマチ","town":"鎌田前","town_kana":"カマタマエ","prefecture_code":7},{"zip_code":"9637741","prefecture":"福島県","prefecture_kana":"フクシマケン","city":"田村郡三春町","city_kana":"タムラグンミハルマチ","town":"天王前","town_kana":"テンノウマエ","prefecture_code":7},{"zip_code":"9637741","prefecture":"福島県","prefecture_kana":"フクシマケン","city":"田村郡三春町","city_kana":"タムラグンミハルマチ","town":"八島台","town_kana":"ヤシマダイ","prefecture_code":7}],"7732":{"zip_code":"9637732","prefecture":"福島県","prefecture_kana":"フクシマケン","city":"田村郡三春町","city_kana":"タムラグンミハルマチ","town":"上舞木","town_kana":"カミモウギ","prefecture_code":7},"7747":{"zip_code":"9637747","prefecture":"福島県","prefecture_kana":"フクシマケン","city":"田村郡三春町","city_kana":"タムラグンミハルマチ","town":"雁木田","town_kana":"ガンギタ","prefecture_code":7},"7781":{"zip_code":"9637781","prefecture":"福島県","prefecture_kana":"フクシマケン","city":"田村郡三春町","city_kana":"タムラグンミハルマチ","town":"北成田","town_kana":"キタナリタ","prefecture_code":7},"7751":{"zip_code":"9637751","prefecture":"福島県","prefecture_kana":"フクシマケン","city":"田村郡三春町","city_kana":"タムラグンミハルマチ","town":"北町","town_kana":"キタマチ","prefecture_code":7},"7764":{"zip_code":"9637764","prefecture":"福島県","prefecture_kana":"フクシマケン","city":"田村郡三春町","city_kana":"タムラグンミハルマチ","town":"北向町","town_kana":"キタムキマチ","prefecture_code":7},"7717":{"zip_code":"9637717","prefecture":"福島県","prefecture_kana":"フクシマケン","city":"田村郡三春町","city_kana":"タムラグンミハルマチ","town":"狐田","town_kana":"キツネダ","prefecture_code":7},"7712":[{"zip_code":"9637712","prefecture":"福島県","prefecture_kana":"フクシマケン","city":"田村郡三春町","city_kana":"タムラグンミハルマチ","town":"込木","town_kana":"クグリキ","prefecture_code":7},{"zip_code":"9637712","prefecture":"福島県","prefecture_kana":"フクシマケン","city":"田村郡三春町","city_kana":"タムラグンミハルマチ","town":"八方谷","town_kana":"ハッポウヤ","prefecture_code":7},{"zip_code":"9637712","prefecture":"福島県","prefecture_kana":"フクシマケン","city":"田村郡三春町","city_kana":"タムラグンミハルマチ","town":"楽内","town_kana":"ラクウチ","prefecture_code":7}],"7704":{"zip_code":"9637704","prefecture":"福島県","prefecture_kana":"フクシマケン","city":"田村郡三春町","city_kana":"タムラグンミハルマチ","town":"熊耳","town_kana":"クマガミ","prefecture_code":7},"7708":{"zip_code":"9637708","prefecture":"福島県","prefecture_kana":"フクシマケン","city":"田村郡三春町","city_kana":"タムラグンミハルマチ","town":"栗林","town_kana":"クリバヤシ","prefecture_code":7},"7758":[{"zip_code":"9637758","prefecture":"福島県","prefecture_kana":"フクシマケン","city":"田村郡三春町","city_kana":"タムラグンミハルマチ","town":"小金滝","town_kana":"コガネダキ","prefecture_code":7},{"zip_code":"9637758","prefecture":"福島県","prefecture_kana":"フクシマケン","city":"田村郡三春町","city_kana":"タムラグンミハルマチ","town":"桜谷","town_kana":"サクラダニ","prefecture_code":7}],"7709":{"zip_code":"9637709","prefecture":"福島県","prefecture_kana":"フクシマケン","city":"田村郡三春町","city_kana":"タムラグンミハルマチ","town":"小滝","town_kana":"コダキ","prefecture_code":7},"7767":{"zip_code":"9637767","prefecture":"福島県","prefecture_kana":"フクシマケン","city":"田村郡三春町","city_kana":"タムラグンミハルマチ","town":"御免町","town_kana":"ゴメンマチ","prefecture_code":7},"7723":{"zip_code":"9637723","prefecture":"福島県","prefecture_kana":"フクシマケン","city":"田村郡三春町","city_kana":"タムラグンミハルマチ","town":"斎藤","town_kana":"サイトウ","prefecture_code":7},"7711":{"zip_code":"9637711","prefecture":"福島県","prefecture_kana":"フクシマケン","city":"田村郡三春町","city_kana":"タムラグンミハルマチ","town":"桜ケ丘","town_kana":"サクラガオカ","prefecture_code":7},"7701":{"zip_code":"9637701","prefecture":"福島県","prefecture_kana":"フクシマケン","city":"田村郡三春町","city_kana":"タムラグンミハルマチ","town":"実沢","town_kana":"サネザワ","prefecture_code":7},"7755":{"zip_code":"9637755","prefecture":"福島県","prefecture_kana":"フクシマケン","city":"田村郡三春町","city_kana":"タムラグンミハルマチ","town":"山中","town_kana":"サンチュウ","prefecture_code":7},"7761":[{"zip_code":"9637761","prefecture":"福島県","prefecture_kana":"フクシマケン","city":"田村郡三春町","city_kana":"タムラグンミハルマチ","town":"四反田","town_kana":"シタンダ","prefecture_code":7},{"zip_code":"9637761","prefecture":"福島県","prefecture_kana":"フクシマケン","city":"田村郡三春町","city_kana":"タムラグンミハルマチ","town":"樋ノ口","town_kana":"トイノクチ","prefecture_code":7}],"7713":{"zip_code":"9637713","prefecture":"福島県","prefecture_kana":"フクシマケン","city":"田村郡三春町","city_kana":"タムラグンミハルマチ","town":"柴原","town_kana":"シバハラ","prefecture_code":7},"7768":{"zip_code":"9637768","prefecture":"福島県","prefecture_kana":"フクシマケン","city":"田村郡三春町","city_kana":"タムラグンミハルマチ","town":"渋池","town_kana":"シブイケ","prefecture_code":7},"7731":{"zip_code":"9637731","prefecture":"福島県","prefecture_kana":"フクシマケン","city":"田村郡三春町","city_kana":"タムラグンミハルマチ","town":"下舞木","town_kana":"シモモウギ","prefecture_code":7},"7703":{"zip_code":"9637703","prefecture":"福島県","prefecture_kana":"フクシマケン","city":"田村郡三春町","city_kana":"タムラグンミハルマチ","town":"庄司","town_kana":"ショウジ","prefecture_code":7},"7743":{"zip_code":"9637743","prefecture":"福島県","prefecture_kana":"フクシマケン","city":"田村郡三春町","city_kana":"タムラグンミハルマチ","town":"丈六","town_kana":"ジョウロク","prefecture_code":7},"7707":{"zip_code":"9637707","prefecture":"福島県","prefecture_kana":"フクシマケン","city":"田村郡三春町","city_kana":"タムラグンミハルマチ","town":"芹ケ沢","town_kana":"セリガサワ","prefecture_code":7},"7725":{"zip_code":"9637725","prefecture":"福島県","prefecture_kana":"フクシマケン","city":"田村郡三春町","city_kana":"タムラグンミハルマチ","town":"鷹巣","town_kana":"タカノス","prefecture_code":7},"7714":{"zip_code":"9637714","prefecture":"福島県","prefecture_kana":"フクシマケン","city":"田村郡三春町","city_kana":"タムラグンミハルマチ","town":"滝","town_kana":"タキ","prefecture_code":7},"7763":[{"zip_code":"9637763","prefecture":"福島県","prefecture_kana":"フクシマケン","city":"田村郡三春町","city_kana":"タムラグンミハルマチ","town":"燕清水","town_kana":"ツバメシミズ","prefecture_code":7},{"zip_code":"9637763","prefecture":"福島県","prefecture_kana":"フクシマケン","city":"田村郡三春町","city_kana":"タムラグンミハルマチ","town":"日向町","town_kana":"ヒナタマチ","prefecture_code":7},{"zip_code":"9637763","prefecture":"福島県","prefecture_kana":"フクシマケン","city":"田村郡三春町","city_kana":"タムラグンミハルマチ","town":"持合畑","town_kana":"モチアイバタ","prefecture_code":7}],"7742":{"zip_code":"9637742","prefecture":"福島県","prefecture_kana":"フクシマケン","city":"田村郡三春町","city_kana":"タムラグンミハルマチ","town":"鶴蒔田","town_kana":"ツルマキタ","prefecture_code":7},"7705":{"zip_code":"9637705","prefecture":"福島県","prefecture_kana":"フクシマケン","city":"田村郡三春町","city_kana":"タムラグンミハルマチ","town":"天王下","town_kana":"テンノウシタ","prefecture_code":7},"7782":{"zip_code":"9637782","prefecture":"福島県","prefecture_kana":"フクシマケン","city":"田村郡三春町","city_kana":"タムラグンミハルマチ","town":"富沢","town_kana":"トミサワ","prefecture_code":7},"7766":{"zip_code":"9637766","prefecture":"福島県","prefecture_kana":"フクシマケン","city":"田村郡三春町","city_kana":"タムラグンミハルマチ","town":"中町","town_kana":"ナカマチ","prefecture_code":7},"7786":{"zip_code":"9637786","prefecture":"福島県","prefecture_kana":"フクシマケン","city":"田村郡三春町","city_kana":"タムラグンミハルマチ","town":"七草木","town_kana":"ナナクサギ","prefecture_code":7},"7722":{"zip_code":"9637722","prefecture":"福島県","prefecture_kana":"フクシマケン","city":"田村郡三春町","city_kana":"タムラグンミハルマチ","town":"西方","town_kana":"ニシカタ","prefecture_code":7},"7724":{"zip_code":"9637724","prefecture":"福島県","prefecture_kana":"フクシマケン","city":"田村郡三春町","city_kana":"タムラグンミハルマチ","town":"沼沢","town_kana":"ヌマサワ","prefecture_code":7},"7726":{"zip_code":"9637726","prefecture":"福島県","prefecture_kana":"フクシマケン","city":"田村郡三春町","city_kana":"タムラグンミハルマチ","town":"沼之倉","town_kana":"ヌマノクラ","prefecture_code":7},"7716":[{"zip_code":"9637716","prefecture":"福島県","prefecture_kana":"フクシマケン","city":"田村郡三春町","city_kana":"タムラグンミハルマチ","town":"根本","town_kana":"ネモト","prefecture_code":7},{"zip_code":"9637716","prefecture":"福島県","prefecture_kana":"フクシマケン","city":"田村郡三春町","city_kana":"タムラグンミハルマチ","town":"蛇石","town_kana":"ヘビイシ","prefecture_code":7}],"7744":{"zip_code":"9637744","prefecture":"福島県","prefecture_kana":"フクシマケン","city":"田村郡三春町","city_kana":"タムラグンミハルマチ","town":"八幡町","town_kana":"ハチマンマチ","prefecture_code":7},"7746":{"zip_code":"9637746","prefecture":"福島県","prefecture_kana":"フクシマケン","city":"田村郡三春町","city_kana":"タムラグンミハルマチ","town":"馬場","town_kana":"ババ","prefecture_code":7},"7721":[{"zip_code":"9637721","prefecture":"福島県","prefecture_kana":"フクシマケン","city":"田村郡三春町","city_kana":"タムラグンミハルマチ","town":"春沢","town_kana":"ハルサワ","prefecture_code":7},{"zip_code":"9637721","prefecture":"福島県","prefecture_kana":"フクシマケン","city":"田村郡三春町","city_kana":"タムラグンミハルマチ","town":"春田","town_kana":"ハルダ","prefecture_code":7},{"zip_code":"9637721","prefecture":"福島県","prefecture_kana":"フクシマケン","city":"田村郡三春町","city_kana":"タムラグンミハルマチ","town":"蛇沢","town_kana":"ヘビサワ","prefecture_code":7}],"7771":{"zip_code":"9637771","prefecture":"福島県","prefecture_kana":"フクシマケン","city":"田村郡三春町","city_kana":"タムラグンミハルマチ","town":"平沢","town_kana":"ヒラサワ","prefecture_code":7},"7715":{"zip_code":"9637715","prefecture":"福島県","prefecture_kana":"フクシマケン","city":"田村郡三春町","city_kana":"タムラグンミハルマチ","town":"樋渡","town_kana":"ヒワタシ","prefecture_code":7},"7773":{"zip_code":"9637773","prefecture":"福島県","prefecture_kana":"フクシマケン","city":"田村郡三春町","city_kana":"タムラグンミハルマチ","town":"深田和","town_kana":"フカダワ","prefecture_code":7},"7785":{"zip_code":"9637785","prefecture":"福島県","prefecture_kana":"フクシマケン","city":"田村郡三春町","city_kana":"タムラグンミハルマチ","town":"松橋","town_kana":"マツバシ","prefecture_code":7},"7783":{"zip_code":"9637783","prefecture":"福島県","prefecture_kana":"フクシマケン","city":"田村郡三春町","city_kana":"タムラグンミハルマチ","town":"南成田","town_kana":"ミナミナリタ","prefecture_code":7},"7756":{"zip_code":"9637756","prefecture":"福島県","prefecture_kana":"フクシマケン","city":"田村郡三春町","city_kana":"タムラグンミハルマチ","town":"南町","town_kana":"ミナミマチ","prefecture_code":7},"7748":{"zip_code":"9637748","prefecture":"福島県","prefecture_kana":"フクシマケン","city":"田村郡三春町","city_kana":"タムラグンミハルマチ","town":"山崎","town_kana":"ヤマザキ","prefecture_code":7},"7733":{"zip_code":"9637733","prefecture":"福島県","prefecture_kana":"フクシマケン","city":"田村郡三春町","city_kana":"タムラグンミハルマチ","town":"山田","town_kana":"ヤマダ","prefecture_code":7},"7718":{"zip_code":"9637718","prefecture":"福島県","prefecture_kana":"フクシマケン","city":"田村郡三春町","city_kana":"タムラグンミハルマチ","town":"過足","town_kana":"ヨギアシ","prefecture_code":7},"7784":{"zip_code":"9637784","prefecture":"福島県","prefecture_kana":"フクシマケン","city":"田村郡三春町","city_kana":"タムラグンミハルマチ","town":"六斗蒔","town_kana":"ロクトマキ","prefecture_code":7},"3400":{"zip_code":"9633400","prefecture":"福島県","prefecture_kana":"フクシマケン","city":"田村郡小野町","city_kana":"タムラグンオノマチ","town":"","town_kana":"","prefecture_code":7},"3521":{"zip_code":"9633521","prefecture":"福島県","prefecture_kana":"フクシマケン","city":"田村郡小野町","city_kana":"タムラグンオノマチ","town":"飯豊","town_kana":"イイトヨ","prefecture_code":7},"3524":{"zip_code":"9633524","prefecture":"福島県","prefecture_kana":"フクシマケン","city":"田村郡小野町","city_kana":"タムラグンオノマチ","town":"浮金","town_kana":"ウキガネ","prefecture_code":7},"3522":{"zip_code":"9633522","prefecture":"福島県","prefecture_kana":"フクシマケン","city":"田村郡小野町","city_kana":"タムラグンオノマチ","town":"小戸神","town_kana":"オトカミ","prefecture_code":7},"3403":{"zip_code":"9633403","prefecture":"福島県","prefecture_kana":"フクシマケン","city":"田村郡小野町","city_kana":"タムラグンオノマチ","town":"小野赤沼","town_kana":"オノアカヌマ","prefecture_code":7},"3401":{"zip_code":"9633401","prefecture":"福島県","prefecture_kana":"フクシマケン","city":"田村郡小野町","city_kana":"タムラグンオノマチ","town":"小野新町","town_kana":"オノニイマチ","prefecture_code":7},"3523":{"zip_code":"9633523","prefecture":"福島県","prefecture_kana":"フクシマケン","city":"田村郡小野町","city_kana":"タムラグンオノマチ","town":"小野山神","town_kana":"オノヤマカミ","prefecture_code":7},"3316":{"zip_code":"9633316","prefecture":"福島県","prefecture_kana":"フクシマケン","city":"田村郡小野町","city_kana":"タムラグンオノマチ","town":"上羽出庭","town_kana":"カミハデニワ","prefecture_code":7},"3405":{"zip_code":"9633405","prefecture":"福島県","prefecture_kana":"フクシマケン","city":"田村郡小野町","city_kana":"タムラグンオノマチ","town":"雁股田","town_kana":"カリマンダ","prefecture_code":7},"3406":{"zip_code":"9633406","prefecture":"福島県","prefecture_kana":"フクシマケン","city":"田村郡小野町","city_kana":"タムラグンオノマチ","town":"皮籠石","town_kana":"カワゴイシ","prefecture_code":7},"3314":{"zip_code":"9633314","prefecture":"福島県","prefecture_kana":"フクシマケン","city":"田村郡小野町","city_kana":"タムラグンオノマチ","town":"塩庭","town_kana":"シオニワ","prefecture_code":7},"3404":{"zip_code":"9633404","prefecture":"福島県","prefecture_kana":"フクシマケン","city":"田村郡小野町","city_kana":"タムラグンオノマチ","town":"菖蒲谷","town_kana":"ショウブヤ","prefecture_code":7},"3312":{"zip_code":"9633312","prefecture":"福島県","prefecture_kana":"フクシマケン","city":"田村郡小野町","city_kana":"タムラグンオノマチ","town":"夏井","town_kana":"ナツイ","prefecture_code":7},"3313":{"zip_code":"9633313","prefecture":"福島県","prefecture_kana":"フクシマケン","city":"田村郡小野町","city_kana":"タムラグンオノマチ","town":"南田原井","town_kana":"ミナミタワライ","prefecture_code":7},"3402":{"zip_code":"9633402","prefecture":"福島県","prefecture_kana":"フクシマケン","city":"田村郡小野町","city_kana":"タムラグンオノマチ","town":"谷津作","town_kana":"ヤツザク","prefecture_code":7},"3311":{"zip_code":"9633311","prefecture":"福島県","prefecture_kana":"フクシマケン","city":"田村郡小野町","city_kana":"タムラグンオノマチ","town":"湯沢","town_kana":"ユザワ","prefecture_code":7},"3525":{"zip_code":"9633525","prefecture":"福島県","prefecture_kana":"フクシマケン","city":"田村郡小野町","city_kana":"タムラグンオノマチ","town":"吉野辺","town_kana":"ヨシノベ","prefecture_code":7},"3315":{"zip_code":"9633315","prefecture":"福島県","prefecture_kana":"フクシマケン","city":"田村郡小野町","city_kana":"タムラグンオノマチ","town":"和名田","town_kana":"ワナダ","prefecture_code":7}}