{"0000":{"zip_code":"9640000","prefecture":"福島県","prefecture_kana":"フクシマケン","city":"二本松市","city_kana":"ニホンマツシ","town":"","town_kana":"","prefecture_code":7},"0982":{"zip_code":"9640982","prefecture":"福島県","prefecture_kana":"フクシマケン","city":"二本松市","city_kana":"ニホンマツシ","town":"赤井沢","town_kana":"アカイサワ","prefecture_code":7},"0929":{"zip_code":"9640929","prefecture":"福島県","prefecture_kana":"フクシマケン","city":"二本松市","city_kana":"ニホンマツシ","town":"浅川","town_kana":"アサガワ","prefecture_code":7},"0938":{"zip_code":"9640938","prefecture":"福島県","prefecture_kana":"フクシマケン","city":"二本松市","city_kana":"ニホンマツシ","town":"安達ケ原","town_kana":"アダチガハラ","prefecture_code":7},"0802":{"zip_code":"9640802","prefecture":"福島県","prefecture_kana":"フクシマケン","city":"二本松市","city_kana":"ニホンマツシ","town":"鐙摺石","town_kana":"アブズリイシ","prefecture_code":7},"0004":{"zip_code":"9640004","prefecture":"福島県","prefecture_kana":"フクシマケン","city":"二本松市","city_kana":"ニホンマツシ","town":"伊佐沼町","town_kana":"イサヌママチ","prefecture_code":7},"0826":{"zip_code":"9640826","prefecture":"福島県","prefecture_kana":"フクシマケン","city":"二本松市","city_kana":"ニホンマツシ","town":"石ノ花","town_kana":"イシノハナ","prefecture_code":7},"0927":{"zip_code":"9640927","prefecture":"福島県","prefecture_kana":"フクシマケン","city":"二本松市","city_kana":"ニホンマツシ","town":"石畑","town_kana":"イシハタ","prefecture_code":7},"0015":{"zip_code":"9640015","prefecture":"福島県","prefecture_kana":"フクシマケン","city":"二本松市","city_kana":"ニホンマツシ","town":"板目沢","town_kana":"イタメザワ","prefecture_code":7},"0914":{"zip_code":"9640914","prefecture":"福島県","prefecture_kana":"フクシマケン","city":"二本松市","city_kana":"ニホンマツシ","town":"市海道","town_kana":"イチカイドウ","prefecture_code":7},"0024":{"zip_code":"9640024","prefecture":"福島県","prefecture_kana":"フクシマケン","city":"二本松市","city_kana":"ニホンマツシ","town":"井戸神","town_kana":"イドガミ","prefecture_code":7},"0823":{"zip_code":"9640823","prefecture":"福島県","prefecture_kana":"フクシマケン","city":"二本松市","city_kana":"ニホンマツシ","town":"岩崎","town_kana":"イワサキ","prefecture_code":7},"0932":{"zip_code":"9640932","prefecture":"福島県","prefecture_kana":"フクシマケン","city":"二本松市","city_kana":"ニホンマツシ","town":"丑子内","town_kana":"ウシコウチ","prefecture_code":7},"0053":{"zip_code":"9640053","prefecture":"福島県","prefecture_kana":"フクシマケン","city":"二本松市","city_kana":"ニホンマツシ","town":"乳母沢","town_kana":"ウバザワ","prefecture_code":7},"0898":{"zip_code":"9640898","prefecture":"福島県","prefecture_kana":"フクシマケン","city":"二本松市","city_kana":"ニホンマツシ","town":"上原","town_kana":"ウワバラ","prefecture_code":7},"0997":{"zip_code":"9640997","prefecture":"福島県","prefecture_kana":"フクシマケン","city":"二本松市","city_kana":"ニホンマツシ","town":"江口","town_kana":"エグチ","prefecture_code":7},"0937":{"zip_code":"9640937","prefecture":"福島県","prefecture_kana":"フクシマケン","city":"二本松市","city_kana":"ニホンマツシ","town":"榎戸","town_kana":"エノキド","prefecture_code":7},"0057":{"zip_code":"9640057","prefecture":"福島県","prefecture_kana":"フクシマケン","city":"二本松市","city_kana":"ニホンマツシ","town":"大石ケ作","town_kana":"オオイシガサク","prefecture_code":7},"0954":{"zip_code":"9640954","prefecture":"福島県","prefecture_kana":"フクシマケン","city":"二本松市","city_kana":"ニホンマツシ","town":"大稲場","town_kana":"オオイナバ","prefecture_code":7},"0963":{"zip_code":"9640963","prefecture":"福島県","prefecture_kana":"フクシマケン","city":"二本松市","city_kana":"ニホンマツシ","town":"大久保","town_kana":"オオクボ","prefecture_code":7},"0048":{"zip_code":"9640048","prefecture":"福島県","prefecture_kana":"フクシマケン","city":"二本松市","city_kana":"ニホンマツシ","town":"大坂","town_kana":"オオサカ","prefecture_code":7},"0849":{"zip_code":"9640849","prefecture":"福島県","prefecture_kana":"フクシマケン","city":"二本松市","city_kana":"ニホンマツシ","town":"大沢","town_kana":"オオサワ","prefecture_code":7},"0077":{"zip_code":"9640077","prefecture":"福島県","prefecture_kana":"フクシマケン","city":"二本松市","city_kana":"ニホンマツシ","town":"大関","town_kana":"オオゼキ","prefecture_code":7},"0111":{"zip_code":"9640111","prefecture":"福島県","prefecture_kana":"フクシマケン","city":"二本松市","city_kana":"ニホンマツシ","town":"太田","town_kana":"オオタ","prefecture_code":7},"0949":{"zip_code":"9640949","prefecture":"福島県","prefecture_kana":"フクシマケン","city":"二本松市","city_kana":"ニホンマツシ","town":"大平中井","town_kana":"オオタイラナカイ","prefecture_code":7},"0891":{"zip_code":"9640891","prefecture":"福島県","prefecture_kana":"フクシマケン","city":"二本松市","city_kana":"ニホンマツシ","town":"大壇","town_kana":"オオダン","prefecture_code":7},"0869":{"zip_code":"9640869","prefecture":"福島県","prefecture_kana":"フクシマケン","city":"二本松市","city_kana":"ニホンマツシ","town":"大平山","town_kana":"オオヒラヤマ","prefecture_code":7},"0996":{"zip_code":"9640996","prefecture":"福島県","prefecture_kana":"フクシマケン","city":"二本松市","city_kana":"ニホンマツシ","town":"大町","town_kana":"オオマチ","prefecture_code":7},"0016":{"zip_code":"9640016","prefecture":"福島県","prefecture_kana":"フクシマケン","city":"二本松市","city_kana":"ニホンマツシ","town":"大森沢","town_kana":"オオモリサワ","prefecture_code":7},"0975":{"zip_code":"9640975","prefecture":"福島県","prefecture_kana":"フクシマケン","city":"二本松市","city_kana":"ニホンマツシ","town":"岡ノ内","town_kana":"オカノウチ","prefecture_code":7},"0955":{"zip_code":"9640955","prefecture":"福島県","prefecture_kana":"フクシマケン","city":"二本松市","city_kana":"ニホンマツシ","town":"沖","town_kana":"オキ","prefecture_code":7},"0832":{"zip_code":"9640832","prefecture":"福島県","prefecture_kana":"フクシマケン","city":"二本松市","city_kana":"ニホンマツシ","town":"落合","town_kana":"オチアイ","prefecture_code":7},"0313":{"zip_code":"9640313","prefecture":"福島県","prefecture_kana":"フクシマケン","city":"二本松市","city_kana":"ニホンマツシ","town":"小浜","town_kana":"オバマ","prefecture_code":7},"0901":{"zip_code":"9640901","prefecture":"福島県","prefecture_kana":"フクシマケン","city":"二本松市","city_kana":"ニホンマツシ","town":"表","town_kana":"オモテ","prefecture_code":7},"0904":{"zip_code":"9640904","prefecture":"福島県","prefecture_kana":"フクシマケン","city":"二本松市","city_kana":"ニホンマツシ","town":"郭内","town_kana":"カクナイ","prefecture_code":7},"0842":{"zip_code":"9640842","prefecture":"福島県","prefecture_kana":"フクシマケン","city":"二本松市","city_kana":"ニホンマツシ","town":"隠里","town_kana":"カクレサト","prefecture_code":7},"0863":{"zip_code":"9640863","prefecture":"福島県","prefecture_kana":"フクシマケン","city":"二本松市","city_kana":"ニホンマツシ","town":"片岸","town_kana":"カタギシ","prefecture_code":7},"0915":{"zip_code":"9640915","prefecture":"福島県","prefecture_kana":"フクシマケン","city":"二本松市","city_kana":"ニホンマツシ","town":"金色","town_kana":"カナイロ","prefecture_code":7},"0807":{"zip_code":"9640807","prefecture":"福島県","prefecture_kana":"フクシマケン","city":"二本松市","city_kana":"ニホンマツシ","town":"金色久保","town_kana":"カナイロクボ","prefecture_code":7},"0987":{"zip_code":"9640987","prefecture":"福島県","prefecture_kana":"フクシマケン","city":"二本松市","city_kana":"ニホンマツシ","town":"冠木","town_kana":"カブキ","prefecture_code":7},"0321":{"zip_code":"9640321","prefecture":"福島県","prefecture_kana":"フクシマケン","city":"二本松市","city_kana":"ニホンマツシ","town":"上太田","town_kana":"カミオオタ","prefecture_code":7},"0014":{"zip_code":"9640014","prefecture":"福島県","prefecture_kana":"フクシマケン","city":"二本松市","city_kana":"ニホンマツシ","town":"上新田","town_kana":"カミシンデン","prefecture_code":7},"0312":{"zip_code":"9640312","prefecture":"福島県","prefecture_kana":"フクシマケン","city":"二本松市","city_kana":"ニホンマツシ","town":"上長折","town_kana":"カミナガオリ","prefecture_code":7},"0073":{"zip_code":"9640073","prefecture":"福島県","prefecture_kana":"フクシマケン","city":"二本松市","city_kana":"ニホンマツシ","town":"上葉木坂","town_kana":"カミハギザカ","prefecture_code":7},"0848":{"zip_code":"9640848","prefecture":"福島県","prefecture_kana":"フクシマケン","city":"二本松市","city_kana":"ニホンマツシ","town":"上平内","town_kana":"カミヒラウチ","prefecture_code":7},"0926":{"zip_code":"9640926","prefecture":"福島県","prefecture_kana":"フクシマケン","city":"二本松市","city_kana":"ニホンマツシ","town":"上蓬田","town_kana":"カミヨモギタ","prefecture_code":7},"0911":{"zip_code":"9640911","prefecture":"福島県","prefecture_kana":"フクシマケン","city":"二本松市","city_kana":"ニホンマツシ","town":"亀谷","town_kana":"カメガイ","prefecture_code":7},"0815":{"zip_code":"9640815","prefecture":"福島県","prefecture_kana":"フクシマケン","city":"二本松市","city_kana":"ニホンマツシ","town":"唐谷山","town_kana":"カラカイヤマ","prefecture_code":7},"0838":{"zip_code":"9640838","prefecture":"福島県","prefecture_kana":"フクシマケン","city":"二本松市","city_kana":"ニホンマツシ","town":"借宿","town_kana":"カリヤド","prefecture_code":7},"0984":{"zip_code":"9640984","prefecture":"福島県","prefecture_kana":"フクシマケン","city":"二本松市","city_kana":"ニホンマツシ","town":"北トロミ","town_kana":"キタトロミ","prefecture_code":7},"0808":{"zip_code":"9640808","prefecture":"福島県","prefecture_kana":"フクシマケン","city":"二本松市","city_kana":"ニホンマツシ","town":"木藤次郎内","town_kana":"キトウジロウウチ","prefecture_code":7},"0956":{"zip_code":"9640956","prefecture":"福島県","prefecture_kana":"フクシマケン","city":"二本松市","city_kana":"ニホンマツシ","town":"木ノ崎","town_kana":"キノサキ","prefecture_code":7},"0087":{"zip_code":"9640087","prefecture":"福島県","prefecture_kana":"フクシマケン","city":"二本松市","city_kana":"ニホンマツシ","town":"木ノ根坂","town_kana":"キノネサカ","prefecture_code":7},"0853":{"zip_code":"9640853","prefecture":"福島県","prefecture_kana":"フクシマケン","city":"二本松市","city_kana":"ニホンマツシ","town":"向陽台","town_kana":"コウヨウダイ","prefecture_code":7},"0854":{"zip_code":"9640854","prefecture":"福島県","prefecture_kana":"フクシマケン","city":"二本松市","city_kana":"ニホンマツシ","town":"郡山台","town_kana":"コオリヤマダイ","prefecture_code":7},"0921":{"zip_code":"9640921","prefecture":"福島県","prefecture_kana":"フクシマケン","city":"二本松市","city_kana":"ニホンマツシ","town":"小セ川","town_kana":"コセガワ","prefecture_code":7},"0065":{"zip_code":"9640065","prefecture":"福島県","prefecture_kana":"フクシマケン","city":"二本松市","city_kana":"ニホンマツシ","town":"小関","town_kana":"コセキ","prefecture_code":7},"0974":{"zip_code":"9640974","prefecture":"福島県","prefecture_kana":"フクシマケン","city":"二本松市","city_kana":"ニホンマツシ","town":"小高内","town_kana":"コダコウチ","prefecture_code":7},"0203":{"zip_code":"9640203","prefecture":"福島県","prefecture_kana":"フクシマケン","city":"二本松市","city_kana":"ニホンマツシ","town":"木幡","town_kana":"コハタ","prefecture_code":7},"0007":{"zip_code":"9640007","prefecture":"福島県","prefecture_kana":"フクシマケン","city":"二本松市","city_kana":"ニホンマツシ","town":"古家","town_kana":"コヤ","prefecture_code":7},"0314":{"zip_code":"9640314","prefecture":"福島県","prefecture_kana":"フクシマケン","city":"二本松市","city_kana":"ニホンマツシ","town":"西勝田","town_kana":"サイカチタ","prefecture_code":7},"0063":{"zip_code":"9640063","prefecture":"福島県","prefecture_kana":"フクシマケン","city":"二本松市","city_kana":"ニホンマツシ","town":"才木山","town_kana":"サイキヤマ","prefecture_code":7},"0933":{"zip_code":"9640933","prefecture":"福島県","prefecture_kana":"フクシマケン","city":"二本松市","city_kana":"ニホンマツシ","town":"西光内","town_kana":"サイコウウチ","prefecture_code":7},"0844":{"zip_code":"9640844","prefecture":"福島県","prefecture_kana":"フクシマケン","city":"二本松市","city_kana":"ニホンマツシ","town":"在師","town_kana":"ザイシ","prefecture_code":7},"0893":{"zip_code":"9640893","prefecture":"福島県","prefecture_kana":"フクシマケン","city":"二本松市","city_kana":"ニホンマツシ","town":"幸町","town_kana":"サイワイチョウ","prefecture_code":7},"0913":{"zip_code":"9640913","prefecture":"福島県","prefecture_kana":"フクシマケン","city":"二本松市","city_kana":"ニホンマツシ","town":"茶園","town_kana":"サエン","prefecture_code":7},"0071":{"zip_code":"9640071","prefecture":"福島県","prefecture_kana":"フクシマケン","city":"二本松市","city_kana":"ニホンマツシ","town":"栄町","town_kana":"サカエマチ","prefecture_code":7},"0944":{"zip_code":"9640944","prefecture":"福島県","prefecture_kana":"フクシマケン","city":"二本松市","city_kana":"ニホンマツシ","town":"作","town_kana":"サク","prefecture_code":7},"0986":{"zip_code":"9640986","prefecture":"福島県","prefecture_kana":"フクシマケン","city":"二本松市","city_kana":"ニホンマツシ","town":"作田","town_kana":"サクタ","prefecture_code":7},"0005":{"zip_code":"9640005","prefecture":"福島県","prefecture_kana":"フクシマケン","city":"二本松市","city_kana":"ニホンマツシ","town":"笹屋","town_kana":"ササヤ","prefecture_code":7},"0964":{"zip_code":"9640964","prefecture":"福島県","prefecture_kana":"フクシマケン","city":"二本松市","city_kana":"ニホンマツシ","town":"五月町","town_kana":"サツキチョウ","prefecture_code":7},"0088":{"zip_code":"9640088","prefecture":"福島県","prefecture_kana":"フクシマケン","city":"二本松市","city_kana":"ニホンマツシ","town":"沢松倉","town_kana":"サワマツクラ","prefecture_code":7},"0934":{"zip_code":"9640934","prefecture":"福島県","prefecture_kana":"フクシマケン","city":"二本松市","city_kana":"ニホンマツシ","town":"三合内","town_kana":"サンゴウウチ","prefecture_code":7},"0058":{"zip_code":"9640058","prefecture":"福島県","prefecture_kana":"フクシマケン","city":"二本松市","city_kana":"ニホンマツシ","town":"三雄山","town_kana":"サンユウザン","prefecture_code":7},"0086":{"zip_code":"9640086","prefecture":"福島県","prefecture_kana":"フクシマケン","city":"二本松市","city_kana":"ニホンマツシ","town":"塩沢","town_kana":"シオザワ","prefecture_code":7},"0897":{"zip_code":"9640897","prefecture":"福島県","prefecture_kana":"フクシマケン","city":"二本松市","city_kana":"ニホンマツシ","town":"塩沢町","town_kana":"シオザワチョウ","prefecture_code":7},"0942":{"zip_code":"9640942","prefecture":"福島県","prefecture_kana":"フクシマケン","city":"二本松市","city_kana":"ニホンマツシ","town":"式部内","town_kana":"シキブウチ","prefecture_code":7},"0825":{"zip_code":"9640825","prefecture":"福島県","prefecture_kana":"フクシマケン","city":"二本松市","city_kana":"ニホンマツシ","town":"下町","town_kana":"シタマチ","prefecture_code":7},"0922":{"zip_code":"9640922","prefecture":"福島県","prefecture_kana":"フクシマケン","city":"二本松市","city_kana":"ニホンマツシ","town":"島寺","town_kana":"シマデラ","prefecture_code":7},"0935":{"zip_code":"9640935","prefecture":"福島県","prefecture_kana":"フクシマケン","city":"二本松市","city_kana":"ニホンマツシ","town":"島ノ内","town_kana":"シマノウチ","prefecture_code":7},"0804":{"zip_code":"9640804","prefecture":"福島県","prefecture_kana":"フクシマケン","city":"二本松市","city_kana":"ニホンマツシ","town":"下平","town_kana":"シモタイラ","prefecture_code":7},"0316":{"zip_code":"9640316","prefecture":"福島県","prefecture_kana":"フクシマケン","city":"二本松市","city_kana":"ニホンマツシ","town":"下長折","town_kana":"シモナガオリ","prefecture_code":7},"0805":{"zip_code":"9640805","prefecture":"福島県","prefecture_kana":"フクシマケン","city":"二本松市","city_kana":"ニホンマツシ","town":"下ノ内","town_kana":"シモノウチ","prefecture_code":7},"0883":{"zip_code":"9640883","prefecture":"福島県","prefecture_kana":"フクシマケン","city":"二本松市","city_kana":"ニホンマツシ","town":"下山田","town_kana":"シモヤマダ","prefecture_code":7},"0912":{"zip_code":"9640912","prefecture":"福島県","prefecture_kana":"フクシマケン","city":"二本松市","city_kana":"ニホンマツシ","town":"上竹","town_kana":"ジョウタケ","prefecture_code":7},"0876":{"zip_code":"9640876","prefecture":"福島県","prefecture_kana":"フクシマケン","city":"二本松市","city_kana":"ニホンマツシ","town":"正法寺町","town_kana":"ショウボウジマチ","prefecture_code":7},"0966":{"zip_code":"9640966","prefecture":"福島県","prefecture_kana":"フクシマケン","city":"二本松市","city_kana":"ニホンマツシ","town":"昭和町","town_kana":"ショウワマチ","prefecture_code":7},"0882":{"zip_code":"9640882","prefecture":"福島県","prefecture_kana":"フクシマケン","city":"二本松市","city_kana":"ニホンマツシ","town":"新座","town_kana":"シンザ","prefecture_code":7},"0976":{"zip_code":"9640976","prefecture":"福島県","prefecture_kana":"フクシマケン","city":"二本松市","city_kana":"ニホンマツシ","town":"新生町","town_kana":"シンセイチョウ","prefecture_code":7},"0013":{"zip_code":"9640013","prefecture":"福島県","prefecture_kana":"フクシマケン","city":"二本松市","city_kana":"ニホンマツシ","town":"新田","town_kana":"シンデン","prefecture_code":7},"0828":{"zip_code":"9640828","prefecture":"福島県","prefecture_kana":"フクシマケン","city":"二本松市","city_kana":"ニホンマツシ","town":"新林","town_kana":"シンバヤシ","prefecture_code":7},"0952":{"zip_code":"9640952","prefecture":"福島県","prefecture_kana":"フクシマケン","city":"二本松市","city_kana":"ニホンマツシ","town":"神明石","town_kana":"シンメイイシ","prefecture_code":7},"0835":{"zip_code":"9640835","prefecture":"福島県","prefecture_kana":"フクシマケン","city":"二本松市","city_kana":"ニホンマツシ","town":"水神","town_kana":"スイジン","prefecture_code":7},"0896":{"zip_code":"9640896","prefecture":"福島県","prefecture_kana":"フクシマケン","city":"二本松市","city_kana":"ニホンマツシ","town":"末広町","town_kana":"スエヒロチョウ","prefecture_code":7},"0836":{"zip_code":"9640836","prefecture":"福島県","prefecture_kana":"フクシマケン","city":"二本松市","city_kana":"ニホンマツシ","town":"菅田","town_kana":"スガタ","prefecture_code":7},"0302":{"zip_code":"9640302","prefecture":"福島県","prefecture_kana":"フクシマケン","city":"二本松市","city_kana":"ニホンマツシ","town":"杉沢","town_kana":"スギサワ","prefecture_code":7},"0862":{"zip_code":"9640862","prefecture":"福島県","prefecture_kana":"フクシマケン","city":"二本松市","city_kana":"ニホンマツシ","town":"杉田駄子内","town_kana":"スギタダゴウチ","prefecture_code":7},"0833":{"zip_code":"9640833","prefecture":"福島県","prefecture_kana":"フクシマケン","city":"二本松市","city_kana":"ニホンマツシ","town":"杉田仲之内","town_kana":"スギタナカノウチ","prefecture_code":7},"0865":{"zip_code":"9640865","prefecture":"福島県","prefecture_kana":"フクシマケン","city":"二本松市","city_kana":"ニホンマツシ","town":"杉田町","town_kana":"スギタマチ","prefecture_code":7},"0962":{"zip_code":"9640962","prefecture":"福島県","prefecture_kana":"フクシマケン","city":"二本松市","city_kana":"ニホンマツシ","town":"鈴石東町","town_kana":"スズイシアズマチョウ","prefecture_code":7},"0972":{"zip_code":"9640972","prefecture":"福島県","prefecture_kana":"フクシマケン","city":"二本松市","city_kana":"ニホンマツシ","town":"鈴石町","town_kana":"スズイシチョウ","prefecture_code":7},"0023":{"zip_code":"9640023","prefecture":"福島県","prefecture_kana":"フクシマケン","city":"二本松市","city_kana":"ニホンマツシ","town":"硯石","town_kana":"スズリイシ","prefecture_code":7},"0867":{"zip_code":"9640867","prefecture":"福島県","prefecture_kana":"フクシマケン","city":"二本松市","city_kana":"ニホンマツシ","town":"住吉","town_kana":"スミヨシ","prefecture_code":7},"0824":{"zip_code":"9640824","prefecture":"福島県","prefecture_kana":"フクシマケン","city":"二本松市","city_kana":"ニホンマツシ","town":"諏訪原","town_kana":"スワハラ","prefecture_code":7},"0812":{"zip_code":"9640812","prefecture":"福島県","prefecture_kana":"フクシマケン","city":"二本松市","city_kana":"ニホンマツシ","town":"関","town_kana":"セキ","prefecture_code":7},"0841":{"zip_code":"9640841","prefecture":"福島県","prefecture_kana":"フクシマケン","city":"二本松市","city_kana":"ニホンマツシ","town":"瀬ノ上","town_kana":"セノウエ","prefecture_code":7},"0965":{"zip_code":"9640965","prefecture":"福島県","prefecture_kana":"フクシマケン","city":"二本松市","city_kana":"ニホンマツシ","town":"芹沢","town_kana":"セリサワ","prefecture_code":7},"0827":{"zip_code":"9640827","prefecture":"福島県","prefecture_kana":"フクシマケン","city":"二本松市","city_kana":"ニホンマツシ","town":"反返","town_kana":"ソリカエリ","prefecture_code":7},"0851":{"zip_code":"9640851","prefecture":"福島県","prefecture_kana":"フクシマケン","city":"二本松市","city_kana":"ニホンマツシ","town":"反田","town_kana":"ソリタ","prefecture_code":7},"0084":{"zip_code":"9640084","prefecture":"福島県","prefecture_kana":"フクシマケン","city":"二本松市","city_kana":"ニホンマツシ","town":"大根畑","town_kana":"ダイコンハタケ","prefecture_code":7},"0884":{"zip_code":"9640884","prefecture":"福島県","prefecture_kana":"フクシマケン","city":"二本松市","city_kana":"ニホンマツシ","town":"大作","town_kana":"ダイサク","prefecture_code":7},"0957":{"zip_code":"9640957","prefecture":"福島県","prefecture_kana":"フクシマケン","city":"二本松市","city_kana":"ニホンマツシ","town":"太子堂","town_kana":"タイシドウ","prefecture_code":7},"0886":{"zip_code":"9640886","prefecture":"福島県","prefecture_kana":"フクシマケン","city":"二本松市","city_kana":"ニホンマツシ","town":"高越松ケ作","town_kana":"タカコシマツガサク","prefecture_code":7},"0885":{"zip_code":"9640885","prefecture":"福島県","prefecture_kana":"フクシマケン","city":"二本松市","city_kana":"ニホンマツシ","town":"高越屋戸","town_kana":"タカコシヤド","prefecture_code":7},"0985":{"zip_code":"9640985","prefecture":"福島県","prefecture_kana":"フクシマケン","city":"二本松市","city_kana":"ニホンマツシ","town":"高田","town_kana":"タカダ","prefecture_code":7},"0028":{"zip_code":"9640028","prefecture":"福島県","prefecture_kana":"フクシマケン","city":"二本松市","city_kana":"ニホンマツシ","town":"高平","town_kana":"タカヒラ","prefecture_code":7},"0817":{"zip_code":"9640817","prefecture":"福島県","prefecture_kana":"フクシマケン","city":"二本松市","city_kana":"ニホンマツシ","town":"高西","town_kana":"タカニシ","prefecture_code":7},"0074":{"zip_code":"9640074","prefecture":"福島県","prefecture_kana":"フクシマケン","city":"二本松市","city_kana":"ニホンマツシ","town":"岳温泉","town_kana":"ダケオンセン","prefecture_code":7},"0062":{"zip_code":"9640062","prefecture":"福島県","prefecture_kana":"フクシマケン","city":"二本松市","city_kana":"ニホンマツシ","town":"岳温泉大和","town_kana":"ダケオンセンダイワ","prefecture_code":7},"0066":{"zip_code":"9640066","prefecture":"福島県","prefecture_kana":"フクシマケン","city":"二本松市","city_kana":"ニホンマツシ","town":"岳温泉西大和","town_kana":"ダケオンセンニシダイワ","prefecture_code":7},"0061":{"zip_code":"9640061","prefecture":"福島県","prefecture_kana":"フクシマケン","city":"二本松市","city_kana":"ニホンマツシ","town":"岳温泉深堀","town_kana":"ダケオンセンフカホリ","prefecture_code":7},"0064":{"zip_code":"9640064","prefecture":"福島県","prefecture_kana":"フクシマケン","city":"二本松市","city_kana":"ニホンマツシ","town":"岳温泉横森","town_kana":"ダケオンセンヨコモリ","prefecture_code":7},"0845":{"zip_code":"9640845","prefecture":"福島県","prefecture_kana":"フクシマケン","city":"二本松市","city_kana":"ニホンマツシ","town":"竹柄","town_kana":"タケガラ","prefecture_code":7},"0902":{"zip_code":"9640902","prefecture":"福島県","prefecture_kana":"フクシマケン","city":"二本松市","city_kana":"ニホンマツシ","town":"竹田","town_kana":"タケダ","prefecture_code":7},"0958":{"zip_code":"9640958","prefecture":"福島県","prefecture_kana":"フクシマケン","city":"二本松市","city_kana":"ニホンマツシ","town":"竹ノ内","town_kana":"タケノウチ","prefecture_code":7},"0072":{"zip_code":"9640072","prefecture":"福島県","prefecture_kana":"フクシマケン","city":"二本松市","city_kana":"ニホンマツシ","town":"岳東町","town_kana":"ダケヒガシマチ","prefecture_code":7},"0431":{"zip_code":"9640431","prefecture":"福島県","prefecture_kana":"フクシマケン","city":"二本松市","city_kana":"ニホンマツシ","town":"田沢","town_kana":"タザワ","prefecture_code":7},"0038":{"zip_code":"9640038","prefecture":"福島県","prefecture_kana":"フクシマケン","city":"二本松市","city_kana":"ニホンマツシ","town":"立石","town_kana":"タテイシ","prefecture_code":7},"0868":{"zip_code":"9640868","prefecture":"福島県","prefecture_kana":"フクシマケン","city":"二本松市","city_kana":"ニホンマツシ","town":"舘野","town_kana":"タテノ","prefecture_code":7},"0051":{"zip_code":"9640051","prefecture":"福島県","prefecture_kana":"フクシマケン","city":"二本松市","city_kana":"ニホンマツシ","town":"舘野原","town_kana":"タテノハラ","prefecture_code":7},"0993":{"zip_code":"9640993","prefecture":"福島県","prefecture_kana":"フクシマケン","city":"二本松市","city_kana":"ニホンマツシ","town":"田町","town_kana":"タマチ","prefecture_code":7},"0894":{"zip_code":"9640894","prefecture":"福島県","prefecture_kana":"フクシマケン","city":"二本松市","city_kana":"ニホンマツシ","town":"坦子内","town_kana":"ダンゴウチ","prefecture_code":7},"0852":{"zip_code":"9640852","prefecture":"福島県","prefecture_kana":"フクシマケン","city":"二本松市","city_kana":"ニホンマツシ","town":"長者宮","town_kana":"チョウジャミヤ","prefecture_code":7},"0866":{"zip_code":"9640866","prefecture":"福島県","prefecture_kana":"フクシマケン","city":"二本松市","city_kana":"ニホンマツシ","town":"長命","town_kana":"チョウメイ","prefecture_code":7},"0875":{"zip_code":"9640875","prefecture":"福島県","prefecture_kana":"フクシマケン","city":"二本松市","city_kana":"ニホンマツシ","town":"槻木","town_kana":"ツキノキ","prefecture_code":7},"0008":{"zip_code":"9640008","prefecture":"福島県","prefecture_kana":"フクシマケン","city":"二本松市","city_kana":"ニホンマツシ","town":"鉄扇町","town_kana":"テッセンチョウ","prefecture_code":7},"0846":{"zip_code":"9640846","prefecture":"福島県","prefecture_kana":"フクシマケン","city":"二本松市","city_kana":"ニホンマツシ","town":"峠","town_kana":"トウゲ","prefecture_code":7},"0872":{"zip_code":"9640872","prefecture":"福島県","prefecture_kana":"フクシマケン","city":"二本松市","city_kana":"ニホンマツシ","town":"藤太郎内","town_kana":"トウタロウウチ","prefecture_code":7},"0881":{"zip_code":"9640881","prefecture":"福島県","prefecture_kana":"フクシマケン","city":"二本松市","city_kana":"ニホンマツシ","town":"藤之前","town_kana":"トウノマエ","prefecture_code":7},"0433":{"zip_code":"9640433","prefecture":"福島県","prefecture_kana":"フクシマケン","city":"二本松市","city_kana":"ニホンマツシ","town":"百目木","town_kana":"ドウメキ","prefecture_code":7},"0834":{"zip_code":"9640834","prefecture":"福島県","prefecture_kana":"フクシマケン","city":"二本松市","city_kana":"ニホンマツシ","town":"十神","town_kana":"トオガミ","prefecture_code":7},"0945":{"zip_code":"9640945","prefecture":"福島県","prefecture_kana":"フクシマケン","city":"二本松市","city_kana":"ニホンマツシ","town":"遠山","town_kana":"トオヤマ","prefecture_code":7},"0814":{"zip_code":"9640814","prefecture":"福島県","prefecture_kana":"フクシマケン","city":"二本松市","city_kana":"ニホンマツシ","town":"遠西","town_kana":"トオニシ","prefecture_code":7},"0201":{"zip_code":"9640201","prefecture":"福島県","prefecture_kana":"フクシマケン","city":"二本松市","city_kana":"ニホンマツシ","town":"戸沢","town_kana":"トサワ","prefecture_code":7},"0054":{"zip_code":"9640054","prefecture":"福島県","prefecture_kana":"フクシマケン","city":"二本松市","city_kana":"ニホンマツシ","town":"苗松","town_kana":"ナエマツ","prefecture_code":7},"0859":{"zip_code":"9640859","prefecture":"福島県","prefecture_kana":"フクシマケン","city":"二本松市","city_kana":"ニホンマツシ","town":"中江","town_kana":"ナカエ","prefecture_code":7},"0311":{"zip_code":"9640311","prefecture":"福島県","prefecture_kana":"フクシマケン","city":"二本松市","city_kana":"ニホンマツシ","town":"長折","town_kana":"ナガオリ","prefecture_code":7},"0874":{"zip_code":"9640874","prefecture":"福島県","prefecture_kana":"フクシマケン","city":"二本松市","city_kana":"ニホンマツシ","town":"中里","town_kana":"ナカサト","prefecture_code":7},"0075":{"zip_code":"9640075","prefecture":"福島県","prefecture_kana":"フクシマケン","city":"二本松市","city_kana":"ニホンマツシ","town":"永田長坂国有林","town_kana":"ナガタナガサカコクユウリン","prefecture_code":7},"0001":{"zip_code":"9640001","prefecture":"福島県","prefecture_kana":"フクシマケン","city":"二本松市","city_kana":"ニホンマツシ","town":"中ノ目","town_kana":"ナカノメ","prefecture_code":7},"0991":{"zip_code":"9640991","prefecture":"福島県","prefecture_kana":"フクシマケン","city":"二本松市","city_kana":"ニホンマツシ","town":"中町","town_kana":"ナカマチ","prefecture_code":7},"0924":{"zip_code":"9640924","prefecture":"福島県","prefecture_kana":"フクシマケン","city":"二本松市","city_kana":"ニホンマツシ","town":"中森","town_kana":"ナカモリ","prefecture_code":7},"0026":{"zip_code":"9640026","prefecture":"福島県","prefecture_kana":"フクシマケン","city":"二本松市","city_kana":"ニホンマツシ","town":"中山田","town_kana":"ナカヤマダ","prefecture_code":7},"0923":{"zip_code":"9640923","prefecture":"福島県","prefecture_kana":"フクシマケン","city":"二本松市","city_kana":"ニホンマツシ","town":"長下","town_kana":"ナガシタ","prefecture_code":7},"0029":{"zip_code":"9640029","prefecture":"福島県","prefecture_kana":"フクシマケン","city":"二本松市","city_kana":"ニホンマツシ","town":"永田","town_kana":"ナガタ","prefecture_code":7},"0022":{"zip_code":"9640022","prefecture":"福島県","prefecture_kana":"フクシマケン","city":"二本松市","city_kana":"ニホンマツシ","town":"永田鍛治内","town_kana":"ナガタカジウチ","prefecture_code":7},"0011":{"zip_code":"9640011","prefecture":"福島県","prefecture_kana":"フクシマケン","city":"二本松市","city_kana":"ニホンマツシ","town":"永田才木","town_kana":"ナガタサイキ","prefecture_code":7},"0012":{"zip_code":"9640012","prefecture":"福島県","prefecture_kana":"フクシマケン","city":"二本松市","city_kana":"ニホンマツシ","town":"永田積内","town_kana":"ナガタツミウチ","prefecture_code":7},"0076":{"zip_code":"9640076","prefecture":"福島県","prefecture_kana":"フクシマケン","city":"二本松市","city_kana":"ニホンマツシ","town":"永田橋積","town_kana":"ナガタバシツミ","prefecture_code":7},"0021":{"zip_code":"9640021","prefecture":"福島県","prefecture_kana":"フクシマケン","city":"二本松市","city_kana":"ニホンマツシ","town":"永田馬保内","town_kana":"ナガタバボウチ","prefecture_code":7},"0017":{"zip_code":"9640017","prefecture":"福島県","prefecture_kana":"フクシマケン","city":"二本松市","city_kana":"ニホンマツシ","town":"永田御堂内","town_kana":"ナガタミドウウチ","prefecture_code":7},"0837":{"zip_code":"9640837","prefecture":"福島県","prefecture_kana":"フクシマケン","city":"二本松市","city_kana":"ニホンマツシ","town":"七ツ段","town_kana":"ナナツダン","prefecture_code":7},"0855":{"zip_code":"9640855","prefecture":"福島県","prefecture_kana":"フクシマケン","city":"二本松市","city_kana":"ニホンマツシ","town":"成上","town_kana":"ナリカミ","prefecture_code":7},"0315":{"zip_code":"9640315","prefecture":"福島県","prefecture_kana":"フクシマケン","city":"二本松市","city_kana":"ニホンマツシ","town":"成田","town_kana":"ナリタ","prefecture_code":7},"0892":{"zip_code":"9640892","prefecture":"福島県","prefecture_kana":"フクシマケン","city":"二本松市","city_kana":"ニホンマツシ","town":"成田日向","town_kana":"ナリタヒナタ","prefecture_code":7},"0871":{"zip_code":"9640871","prefecture":"福島県","prefecture_kana":"フクシマケン","city":"二本松市","city_kana":"ニホンマツシ","town":"成田町","town_kana":"ナリタマチ","prefecture_code":7},"0003":{"zip_code":"9640003","prefecture":"福島県","prefecture_kana":"フクシマケン","city":"二本松市","city_kana":"ニホンマツシ","town":"二伊滝","town_kana":"ニイタキ","prefecture_code":7},"0861":{"zip_code":"9640861","prefecture":"福島県","prefecture_kana":"フクシマケン","city":"二本松市","city_kana":"ニホンマツシ","town":"西池","town_kana":"ニシイケ","prefecture_code":7},"0995":{"zip_code":"9640995","prefecture":"福島県","prefecture_kana":"フクシマケン","city":"二本松市","city_kana":"ニホンマツシ","town":"錦町","town_kana":"ニシキチョウ","prefecture_code":7},"0304":{"zip_code":"9640304","prefecture":"福島県","prefecture_kana":"フクシマケン","city":"二本松市","city_kana":"ニホンマツシ","town":"西新殿","town_kana":"ニシニイドノ","prefecture_code":7},"0856":{"zip_code":"9640856","prefecture":"福島県","prefecture_kana":"フクシマケン","city":"二本松市","city_kana":"ニホンマツシ","town":"西町","town_kana":"ニシマチ","prefecture_code":7},"0953":{"zip_code":"9640953","prefecture":"福島県","prefecture_kana":"フクシマケン","city":"二本松市","city_kana":"ニホンマツシ","town":"沼ケ作","town_kana":"ヌマガサク","prefecture_code":7},"0903":{"zip_code":"9640903","prefecture":"福島県","prefecture_kana":"フクシマケン","city":"二本松市","city_kana":"ニホンマツシ","town":"根崎","town_kana":"ネザキ","prefecture_code":7},"0039":{"zip_code":"9640039","prefecture":"福島県","prefecture_kana":"フクシマケン","city":"二本松市","city_kana":"ニホンマツシ","town":"萩坂","town_kana":"ハギサカ","prefecture_code":7},"0948":{"zip_code":"9640948","prefecture":"福島県","prefecture_kana":"フクシマケン","city":"二本松市","city_kana":"ニホンマツシ","town":"橋本","town_kana":"ハシモト","prefecture_code":7},"0803":{"zip_code":"9640803","prefecture":"福島県","prefecture_kana":"フクシマケン","city":"二本松市","city_kana":"ニホンマツシ","town":"八万舘","town_kana":"ハチマンダテ","prefecture_code":7},"0303":{"zip_code":"9640303","prefecture":"福島県","prefecture_kana":"フクシマケン","city":"二本松市","city_kana":"ニホンマツシ","town":"初森","town_kana":"ハツモリ","prefecture_code":7},"0806":{"zip_code":"9640806","prefecture":"福島県","prefecture_kana":"フクシマケン","city":"二本松市","city_kana":"ニホンマツシ","town":"羽石","town_kana":"ハネイシ","prefecture_code":7},"0055":{"zip_code":"9640055","prefecture":"福島県","prefecture_kana":"フクシマケン","city":"二本松市","city_kana":"ニホンマツシ","town":"馬場平","town_kana":"ババダイラ","prefecture_code":7},"0035":{"zip_code":"9640035","prefecture":"福島県","prefecture_kana":"フクシマケン","city":"二本松市","city_kana":"ニホンマツシ","town":"原セ天ケ作","town_kana":"ハラセアマガサク","prefecture_code":7},"0042":{"zip_code":"9640042","prefecture":"福島県","prefecture_kana":"フクシマケン","city":"二本松市","city_kana":"ニホンマツシ","town":"原セ大畑","town_kana":"ハラセオオハタ","prefecture_code":7},"0045":{"zip_code":"9640045","prefecture":"福島県","prefecture_kana":"フクシマケン","city":"二本松市","city_kana":"ニホンマツシ","town":"原セ笠張","town_kana":"ハラセカサハリ","prefecture_code":7},"0047":{"zip_code":"9640047","prefecture":"福島県","prefecture_kana":"フクシマケン","city":"二本松市","city_kana":"ニホンマツシ","town":"原セ上平","town_kana":"ハラセカミタイラ","prefecture_code":7},"0044":{"zip_code":"9640044","prefecture":"福島県","prefecture_kana":"フクシマケン","city":"二本松市","city_kana":"ニホンマツシ","town":"原セ上ノ内","town_kana":"ハラセカミノウチ","prefecture_code":7},"0037":{"zip_code":"9640037","prefecture":"福島県","prefecture_kana":"フクシマケン","city":"二本松市","city_kana":"ニホンマツシ","town":"原セ川原","town_kana":"ハラセカワハラ","prefecture_code":7},"0036":{"zip_code":"9640036","prefecture":"福島県","prefecture_kana":"フクシマケン","city":"二本松市","city_kana":"ニホンマツシ","town":"原セ才木","town_kana":"ハラセサイキ","prefecture_code":7},"0043":{"zip_code":"9640043","prefecture":"福島県","prefecture_kana":"フクシマケン","city":"二本松市","city_kana":"ニホンマツシ","town":"原セ諏訪","town_kana":"ハラセスワ","prefecture_code":7},"0034":{"zip_code":"9640034","prefecture":"福島県","prefecture_kana":"フクシマケン","city":"二本松市","city_kana":"ニホンマツシ","town":"原セ堰下","town_kana":"ハラセセキシタ","prefecture_code":7},"0049":{"zip_code":"9640049","prefecture":"福島県","prefecture_kana":"フクシマケン","city":"二本松市","city_kana":"ニホンマツシ","town":"原セ仲谷地","town_kana":"ハラセナカヤジ","prefecture_code":7},"0041":{"zip_code":"9640041","prefecture":"福島県","prefecture_kana":"フクシマケン","city":"二本松市","city_kana":"ニホンマツシ","town":"原セ日照田","town_kana":"ハラセヒデリタ","prefecture_code":7},"0046":{"zip_code":"9640046","prefecture":"福島県","prefecture_kana":"フクシマケン","city":"二本松市","city_kana":"ニホンマツシ","town":"原セ山口","town_kana":"ハラセヤマグチ","prefecture_code":7},"0816":{"zip_code":"9640816","prefecture":"福島県","prefecture_kana":"フクシマケン","city":"二本松市","city_kana":"ニホンマツシ","town":"原田","town_kana":"ハラダ","prefecture_code":7},"0202":{"zip_code":"9640202","prefecture":"福島県","prefecture_kana":"フクシマケン","city":"二本松市","city_kana":"ニホンマツシ","town":"針道","town_kana":"ハリミチ","prefecture_code":7},"0873":{"zip_code":"9640873","prefecture":"福島県","prefecture_kana":"フクシマケン","city":"二本松市","city_kana":"ニホンマツシ","town":"東裏","town_kana":"ヒガシウラ","prefecture_code":7},"0301":{"zip_code":"9640301","prefecture":"福島県","prefecture_kana":"フクシマケン","city":"二本松市","city_kana":"ニホンマツシ","town":"東新殿","town_kana":"ヒガシニイドノ","prefecture_code":7},"0857":{"zip_code":"9640857","prefecture":"福島県","prefecture_kana":"フクシマケン","city":"二本松市","city_kana":"ニホンマツシ","town":"東町","town_kana":"ヒガシマチ","prefecture_code":7},"0033":{"zip_code":"9640033","prefecture":"福島県","prefecture_kana":"フクシマケン","city":"二本松市","city_kana":"ニホンマツシ","town":"毘沙門堂","town_kana":"ビシャモンドウ","prefecture_code":7},"0032":{"zip_code":"9640032","prefecture":"福島県","prefecture_kana":"フクシマケン","city":"二本松市","city_kana":"ニホンマツシ","town":"毘沙門堂山","town_kana":"ビシャモンドウヤマ","prefecture_code":7},"0858":{"zip_code":"9640858","prefecture":"福島県","prefecture_kana":"フクシマケン","city":"二本松市","city_kana":"ニホンマツシ","town":"姫子松","town_kana":"ヒメコマツ","prefecture_code":7},"0992":{"zip_code":"9640992","prefecture":"福島県","prefecture_kana":"フクシマケン","city":"二本松市","city_kana":"ニホンマツシ","town":"平石三丁目","town_kana":"ヒライシサンチョウメ","prefecture_code":7},"0981":{"zip_code":"9640981","prefecture":"福島県","prefecture_kana":"フクシマケン","city":"二本松市","city_kana":"ニホンマツシ","town":"平石高田","town_kana":"ヒライシタカダ","prefecture_code":7},"0973":{"zip_code":"9640973","prefecture":"福島県","prefecture_kana":"フクシマケン","city":"二本松市","city_kana":"ニホンマツシ","town":"平石町","town_kana":"ヒライシチョウ","prefecture_code":7},"0829":{"zip_code":"9640829","prefecture":"福島県","prefecture_kana":"フクシマケン","city":"二本松市","city_kana":"ニホンマツシ","town":"袋内","town_kana":"フクロウチ","prefecture_code":7},"0006":{"zip_code":"9640006","prefecture":"福島県","prefecture_kana":"フクシマケン","city":"二本松市","city_kana":"ニホンマツシ","town":"二又","town_kana":"フタマタ","prefecture_code":7},"0818":{"zip_code":"9640818","prefecture":"福島県","prefecture_kana":"フクシマケン","city":"二本松市","city_kana":"ニホンマツシ","town":"不動","town_kana":"フドウ","prefecture_code":7},"0085":{"zip_code":"9640085","prefecture":"福島県","prefecture_kana":"フクシマケン","city":"二本松市","city_kana":"ニホンマツシ","town":"不動平","town_kana":"フドウダイラ","prefecture_code":7},"0822":{"zip_code":"9640822","prefecture":"福島県","prefecture_kana":"フクシマケン","city":"二本松市","city_kana":"ニホンマツシ","town":"舟石","town_kana":"フナイシ","prefecture_code":7},"0821":{"zip_code":"9640821","prefecture":"福島県","prefecture_kana":"フクシマケン","city":"二本松市","city_kana":"ニホンマツシ","town":"舟形石","town_kana":"フナカタイシ","prefecture_code":7},"0813":{"zip_code":"9640813","prefecture":"福島県","prefecture_kana":"フクシマケン","city":"二本松市","city_kana":"ニホンマツシ","town":"舟形石山","town_kana":"フナカタイシヤマ","prefecture_code":7},"0907":{"zip_code":"9640907","prefecture":"福島県","prefecture_kana":"フクシマケン","city":"二本松市","city_kana":"ニホンマツシ","town":"細野","town_kana":"ホソノ","prefecture_code":7},"0843":{"zip_code":"9640843","prefecture":"福島県","prefecture_kana":"フクシマケン","city":"二本松市","city_kana":"ニホンマツシ","town":"坊主滝","town_kana":"ボウズタキ","prefecture_code":7},"0946":{"zip_code":"9640946","prefecture":"福島県","prefecture_kana":"フクシマケン","city":"二本松市","city_kana":"ニホンマツシ","town":"堀越","town_kana":"ホリコシ","prefecture_code":7},"0831":{"zip_code":"9640831","prefecture":"福島県","prefecture_kana":"フクシマケン","city":"二本松市","city_kana":"ニホンマツシ","town":"前田","town_kana":"マエダ","prefecture_code":7},"0031":{"zip_code":"9640031","prefecture":"福島県","prefecture_kana":"フクシマケン","city":"二本松市","city_kana":"ニホンマツシ","town":"前原","town_kana":"マエハラ","prefecture_code":7},"0905":{"zip_code":"9640905","prefecture":"福島県","prefecture_kana":"フクシマケン","city":"二本松市","city_kana":"ニホンマツシ","town":"松岡","town_kana":"マツオカ","prefecture_code":7},"0947":{"zip_code":"9640947","prefecture":"福島県","prefecture_kana":"フクシマケン","city":"二本松市","city_kana":"ニホンマツシ","town":"松林","town_kana":"マツバヤシ","prefecture_code":7},"0941":{"zip_code":"9640941","prefecture":"福島県","prefecture_kana":"フクシマケン","city":"二本松市","city_kana":"ニホンマツシ","town":"水上","town_kana":"ミズカミ","prefecture_code":7},"0983":{"zip_code":"9640983","prefecture":"福島県","prefecture_kana":"フクシマケン","city":"二本松市","city_kana":"ニホンマツシ","town":"南トロミ","town_kana":"ミナミトロミ","prefecture_code":7},"0994":{"zip_code":"9640994","prefecture":"福島県","prefecture_kana":"フクシマケン","city":"二本松市","city_kana":"ニホンマツシ","town":"南町","town_kana":"ミナミマチ","prefecture_code":7},"0052":{"zip_code":"9640052","prefecture":"福島県","prefecture_kana":"フクシマケン","city":"二本松市","city_kana":"ニホンマツシ","town":"箕輪","town_kana":"ミノワ","prefecture_code":7},"0895":{"zip_code":"9640895","prefecture":"福島県","prefecture_kana":"フクシマケン","city":"二本松市","city_kana":"ニホンマツシ","town":"三原町","town_kana":"ミハラチョウ","prefecture_code":7},"0887":{"zip_code":"9640887","prefecture":"福島県","prefecture_kana":"フクシマケン","city":"二本松市","city_kana":"ニホンマツシ","town":"三保内","town_kana":"ミホウチ","prefecture_code":7},"0081":{"zip_code":"9640081","prefecture":"福島県","prefecture_kana":"フクシマケン","city":"二本松市","city_kana":"ニホンマツシ","town":"宮沢","town_kana":"ミヤザワ","prefecture_code":7},"0811":{"zip_code":"9640811","prefecture":"福島県","prefecture_kana":"フクシマケン","city":"二本松市","city_kana":"ニホンマツシ","town":"宮戸","town_kana":"ミヤト","prefecture_code":7},"0951":{"zip_code":"9640951","prefecture":"福島県","prefecture_kana":"フクシマケン","city":"二本松市","city_kana":"ニホンマツシ","town":"宮本","town_kana":"ミヤモト","prefecture_code":7},"0943":{"zip_code":"9640943","prefecture":"福島県","prefecture_kana":"フクシマケン","city":"二本松市","city_kana":"ニホンマツシ","town":"明主内","town_kana":"ミョウシュウチ","prefecture_code":7},"0801":{"zip_code":"9640801","prefecture":"福島県","prefecture_kana":"フクシマケン","city":"二本松市","city_kana":"ニホンマツシ","town":"向作田","town_kana":"ムカイサクタ","prefecture_code":7},"0916":{"zip_code":"9640916","prefecture":"福島県","prefecture_kana":"フクシマケン","city":"二本松市","city_kana":"ニホンマツシ","town":"向原","town_kana":"ムカイハラ","prefecture_code":7},"0917":{"zip_code":"9640917","prefecture":"福島県","prefecture_kana":"フクシマケン","city":"二本松市","city_kana":"ニホンマツシ","town":"本町","town_kana":"モトマチ","prefecture_code":7},"0432":{"zip_code":"9640432","prefecture":"福島県","prefecture_kana":"フクシマケン","city":"二本松市","city_kana":"ニホンマツシ","town":"茂原","town_kana":"モバラ","prefecture_code":7},"0936":{"zip_code":"9640936","prefecture":"福島県","prefecture_kana":"フクシマケン","city":"二本松市","city_kana":"ニホンマツシ","town":"諸越谷","town_kana":"モロコシガイ","prefecture_code":7},"0847":{"zip_code":"9640847","prefecture":"福島県","prefecture_kana":"フクシマケン","city":"二本松市","city_kana":"ニホンマツシ","town":"薬師","town_kana":"ヤクシ","prefecture_code":7},"0961":{"zip_code":"9640961","prefecture":"福島県","prefecture_kana":"フクシマケン","city":"二本松市","city_kana":"ニホンマツシ","town":"八坂町","town_kana":"ヤサカチョウ","prefecture_code":7},"0864":{"zip_code":"9640864","prefecture":"福島県","prefecture_kana":"フクシマケン","city":"二本松市","city_kana":"ニホンマツシ","town":"社前","town_kana":"ヤシロマエ","prefecture_code":7},"0082":{"zip_code":"9640082","prefecture":"福島県","prefecture_kana":"フクシマケン","city":"二本松市","city_kana":"ニホンマツシ","town":"休石","town_kana":"ヤスミイシ","prefecture_code":7},"0083":{"zip_code":"9640083","prefecture":"福島県","prefecture_kana":"フクシマケン","city":"二本松市","city_kana":"ニホンマツシ","town":"休石原","town_kana":"ヤスミイシハラ","prefecture_code":7},"0025":{"zip_code":"9640025","prefecture":"福島県","prefecture_kana":"フクシマケン","city":"二本松市","city_kana":"ニホンマツシ","town":"屋戸入","town_kana":"ヤドイリ","prefecture_code":7},"0931":{"zip_code":"9640931","prefecture":"福島県","prefecture_kana":"フクシマケン","city":"二本松市","city_kana":"ニホンマツシ","town":"矢ノ戸","town_kana":"ヤノト","prefecture_code":7},"0027":{"zip_code":"9640027","prefecture":"福島県","prefecture_kana":"フクシマケン","city":"二本松市","city_kana":"ニホンマツシ","town":"山田","town_kana":"ヤマダ","prefecture_code":7},"0925":{"zip_code":"9640925","prefecture":"福島県","prefecture_kana":"フクシマケン","city":"二本松市","city_kana":"ニホンマツシ","town":"谷和子","town_kana":"ヤワコ","prefecture_code":7},"0056":{"zip_code":"9640056","prefecture":"福島県","prefecture_kana":"フクシマケン","city":"二本松市","city_kana":"ニホンマツシ","town":"雄平台","town_kana":"ユウヘイダイ","prefecture_code":7},"0002":{"zip_code":"9640002","prefecture":"福島県","prefecture_kana":"フクシマケン","city":"二本松市","city_kana":"ニホンマツシ","town":"湯川町","town_kana":"ユカワチョウ","prefecture_code":7},"0971":{"zip_code":"9640971","prefecture":"福島県","prefecture_kana":"フクシマケン","city":"二本松市","city_kana":"ニホンマツシ","town":"米五町","town_kana":"ヨナゴチョウ","prefecture_code":7},"0928":{"zip_code":"9640928","prefecture":"福島県","prefecture_kana":"フクシマケン","city":"二本松市","city_kana":"ニホンマツシ","town":"蓬田","town_kana":"ヨモギダ","prefecture_code":7},"0906":{"zip_code":"9640906","prefecture":"福島県","prefecture_kana":"フクシマケン","city":"二本松市","city_kana":"ニホンマツシ","town":"若宮","town_kana":"ワカミヤ","prefecture_code":7},"0091":{"zip_code":"9640091","prefecture":"福島県","prefecture_kana":"フクシマケン","city":"安達郡大玉村","city_kana":"アダチグンオオタマムラ","town":"玉井馬場平","town_kana":"タマノイババダイラ","prefecture_code":7}}