{"0000":{"zip_code":"9650000","prefecture":"福島県","prefecture_kana":"フクシマケン","city":"会津若松市","city_kana":"アイヅワカマツシ","town":"","town_kana":"","prefecture_code":7},"0031":{"zip_code":"9650031","prefecture":"福島県","prefecture_kana":"フクシマケン","city":"会津若松市","city_kana":"アイヅワカマツシ","town":"相生町","town_kana":"アイオイマチ","prefecture_code":7},"0032":{"zip_code":"9650032","prefecture":"福島県","prefecture_kana":"フクシマケン","city":"会津若松市","city_kana":"アイヅワカマツシ","town":"旭町","town_kana":"アサヒマチ","prefecture_code":7},"0012":{"zip_code":"9650012","prefecture":"福島県","prefecture_kana":"フクシマケン","city":"会津若松市","city_kana":"アイヅワカマツシ","town":"居合町","town_kana":"イアワセマチ","prefecture_code":7},"0007":{"zip_code":"9650007","prefecture":"福島県","prefecture_kana":"フクシマケン","city":"会津若松市","city_kana":"アイヅワカマツシ","town":"飯盛","town_kana":"イイモリ","prefecture_code":7},"0055":{"zip_code":"9650055","prefecture":"福島県","prefecture_kana":"フクシマケン","city":"会津若松市","city_kana":"アイヅワカマツシ","town":"石堂町","town_kana":"イシドウマチ","prefecture_code":7},"0002":{"zip_code":"9650002","prefecture":"福島県","prefecture_kana":"フクシマケン","city":"会津若松市","city_kana":"アイヅワカマツシ","town":"一箕町金堀","town_kana":"イッキマチカネホリ","prefecture_code":7},"0005":{"zip_code":"9650005","prefecture":"福島県","prefecture_kana":"フクシマケン","city":"会津若松市","city_kana":"アイヅワカマツシ","town":"一箕町亀賀","town_kana":"イッキマチカメガ","prefecture_code":7},"0006":{"zip_code":"9650006","prefecture":"福島県","prefecture_kana":"フクシマケン","city":"会津若松市","city_kana":"アイヅワカマツシ","town":"一箕町鶴賀","town_kana":"イッキマチツルガ","prefecture_code":7},"0001":{"zip_code":"9650001","prefecture":"福島県","prefecture_kana":"フクシマケン","city":"会津若松市","city_kana":"アイヅワカマツシ","town":"一箕町松長","town_kana":"イッキマチマツナガ","prefecture_code":7},"0004":{"zip_code":"9650004","prefecture":"福島県","prefecture_kana":"フクシマケン","city":"会津若松市","city_kana":"アイヅワカマツシ","town":"一箕町八角","town_kana":"イッキマチヤスミ","prefecture_code":7},"0003":{"zip_code":"9650003","prefecture":"福島県","prefecture_kana":"フクシマケン","city":"会津若松市","city_kana":"アイヅワカマツシ","town":"一箕町八幡","town_kana":"イッキマチヤハタ","prefecture_code":7},"0059":{"zip_code":"9650059","prefecture":"福島県","prefecture_kana":"フクシマケン","city":"会津若松市","city_kana":"アイヅワカマツシ","town":"インター西","town_kana":"インターニシ","prefecture_code":7},"0034":{"zip_code":"9650034","prefecture":"福島県","prefecture_kana":"フクシマケン","city":"会津若松市","city_kana":"アイヅワカマツシ","town":"上町","town_kana":"ウワマチ","prefecture_code":7},"0041":{"zip_code":"9650041","prefecture":"福島県","prefecture_kana":"フクシマケン","city":"会津若松市","city_kana":"アイヅワカマツシ","town":"駅前町","town_kana":"エキマエマチ","prefecture_code":7},"0873":{"zip_code":"9650873","prefecture":"福島県","prefecture_kana":"フクシマケン","city":"会津若松市","city_kana":"アイヅワカマツシ","town":"追手町","town_kana":"オウテマチ","prefecture_code":7},"0025":{"zip_code":"9650025","prefecture":"福島県","prefecture_kana":"フクシマケン","city":"会津若松市","city_kana":"アイヅワカマツシ","town":"扇町","town_kana":"オオギマチ","prefecture_code":7},"0014":{"zip_code":"9650014","prefecture":"福島県","prefecture_kana":"フクシマケン","city":"会津若松市","city_kana":"アイヅワカマツシ","town":"大塚","town_kana":"オオツカ","prefecture_code":7},"0042":{"zip_code":"9650042","prefecture":"福島県","prefecture_kana":"フクシマケン","city":"会津若松市","city_kana":"アイヅワカマツシ","town":"大町","town_kana":"オオマチ","prefecture_code":7},"0851":{"zip_code":"9650851","prefecture":"福島県","prefecture_kana":"フクシマケン","city":"会津若松市","city_kana":"アイヅワカマツシ","town":"御旗町","town_kana":"オハタマチ","prefecture_code":7},"0831":{"zip_code":"9650831","prefecture":"福島県","prefecture_kana":"フクシマケン","city":"会津若松市","city_kana":"アイヅワカマツシ","town":"表町","town_kana":"オモテマチ","prefecture_code":7},"0802":{"zip_code":"9650802","prefecture":"福島県","prefecture_kana":"フクシマケン","city":"会津若松市","city_kana":"アイヅワカマツシ","town":"徒之町","town_kana":"カチノマチ","prefecture_code":7},"0056":{"zip_code":"9650056","prefecture":"福島県","prefecture_kana":"フクシマケン","city":"会津若松市","city_kana":"アイヅワカマツシ","town":"金川町","town_kana":"カナガワマチ","prefecture_code":7},"0865":{"zip_code":"9650865","prefecture":"福島県","prefecture_kana":"フクシマケン","city":"会津若松市","city_kana":"アイヅワカマツシ","town":"川原町","town_kana":"カワラマチ","prefecture_code":7},"0113":{"zip_code":"9650113","prefecture":"福島県","prefecture_kana":"フクシマケン","city":"会津若松市","city_kana":"アイヅワカマツシ","town":"北会津町安良田","town_kana":"キタアイヅマチアラタ","prefecture_code":7},"0118":{"zip_code":"9650118","prefecture":"福島県","prefecture_kana":"フクシマケン","city":"会津若松市","city_kana":"アイヅワカマツシ","town":"北会津町石原","town_kana":"キタアイヅマチイシハラ","prefecture_code":7},"0107":{"zip_code":"9650107","prefecture":"福島県","prefecture_kana":"フクシマケン","city":"会津若松市","city_kana":"アイヅワカマツシ","town":"北会津町和泉","town_kana":"キタアイヅマチイズミ","prefecture_code":7},"0116":{"zip_code":"9650116","prefecture":"福島県","prefecture_kana":"フクシマケン","city":"会津若松市","city_kana":"アイヅワカマツシ","town":"北会津町出尻","town_kana":"キタアイヅマチイデジリ","prefecture_code":7},"0136":{"zip_code":"9650136","prefecture":"福島県","prefecture_kana":"フクシマケン","city":"会津若松市","city_kana":"アイヅワカマツシ","town":"北会津町今和泉","town_kana":"キタアイヅマチイマイズミ","prefecture_code":7},"0121":{"zip_code":"9650121","prefecture":"福島県","prefecture_kana":"フクシマケン","city":"会津若松市","city_kana":"アイヅワカマツシ","town":"北会津町蟹川","town_kana":"キタアイヅマチカニカワ","prefecture_code":7},"0126":{"zip_code":"9650126","prefecture":"福島県","prefecture_kana":"フクシマケン","city":"会津若松市","city_kana":"アイヅワカマツシ","town":"北会津町鷺林","town_kana":"キタアイヅマチサギバヤシ","prefecture_code":7},"0111":{"zip_code":"9650111","prefecture":"福島県","prefecture_kana":"フクシマケン","city":"会津若松市","city_kana":"アイヅワカマツシ","town":"北会津町下荒井","town_kana":"キタアイヅマチシモアライ","prefecture_code":7},"0128":{"zip_code":"9650128","prefecture":"福島県","prefecture_kana":"フクシマケン","city":"会津若松市","city_kana":"アイヅワカマツシ","town":"北会津町十二所","town_kana":"キタアイヅマチジュウニショ","prefecture_code":7},"0115":{"zip_code":"9650115","prefecture":"福島県","prefecture_kana":"フクシマケン","city":"会津若松市","city_kana":"アイヅワカマツシ","town":"北会津町舘","town_kana":"キタアイヅマチタテ","prefecture_code":7},"0117":{"zip_code":"9650117","prefecture":"福島県","prefecture_kana":"フクシマケン","city":"会津若松市","city_kana":"アイヅワカマツシ","town":"北会津町田村山","town_kana":"キタアイヅマチタムラヤマ","prefecture_code":7},"0135":{"zip_code":"9650135","prefecture":"福島県","prefecture_kana":"フクシマケン","city":"会津若松市","city_kana":"アイヅワカマツシ","town":"北会津町寺堀","town_kana":"キタアイヅマチテラボリ","prefecture_code":7},"0131":{"zip_code":"9650131","prefecture":"福島県","prefecture_kana":"フクシマケン","city":"会津若松市","city_kana":"アイヅワカマツシ","town":"北会津町中荒井","town_kana":"キタアイヅマチナカアライ","prefecture_code":7},"0110":{"zip_code":"9650110","prefecture":"福島県","prefecture_kana":"フクシマケン","city":"会津若松市","city_kana":"アイヅワカマツシ","town":"北会津町中里","town_kana":"キタアイヅマチナカザト","prefecture_code":7},"0112":{"zip_code":"9650112","prefecture":"福島県","prefecture_kana":"フクシマケン","city":"会津若松市","city_kana":"アイヅワカマツシ","town":"北会津町白山","town_kana":"キタアイヅマチハクサン","prefecture_code":7},"0134":{"zip_code":"9650134","prefecture":"福島県","prefecture_kana":"フクシマケン","city":"会津若松市","city_kana":"アイヅワカマツシ","town":"北会津町東麻生","town_kana":"キタアイヅマチヒガシアソウ","prefecture_code":7},"0133":{"zip_code":"9650133","prefecture":"福島県","prefecture_kana":"フクシマケン","city":"会津若松市","city_kana":"アイヅワカマツシ","town":"北会津町二日町","town_kana":"キタアイヅマチフツカマチ","prefecture_code":7},"0132":{"zip_code":"9650132","prefecture":"福島県","prefecture_kana":"フクシマケン","city":"会津若松市","city_kana":"アイヅワカマツシ","town":"北会津町ほたるの森","town_kana":"キタアイヅマチホタルノモリ","prefecture_code":7},"0129":{"zip_code":"9650129","prefecture":"福島県","prefecture_kana":"フクシマケン","city":"会津若松市","city_kana":"アイヅワカマツシ","town":"北会津町本田","town_kana":"キタアイヅマチホンダ","prefecture_code":7},"0101":{"zip_code":"9650101","prefecture":"福島県","prefecture_kana":"フクシマケン","city":"会津若松市","city_kana":"アイヅワカマツシ","town":"北会津町真宮","town_kana":"キタアイヅマチマミヤ","prefecture_code":7},"0114":{"zip_code":"9650114","prefecture":"福島県","prefecture_kana":"フクシマケン","city":"会津若松市","city_kana":"アイヅワカマツシ","town":"北会津町宮ノ下","town_kana":"キタアイヅマチミヤノシタ","prefecture_code":7},"0124":{"zip_code":"9650124","prefecture":"福島県","prefecture_kana":"フクシマケン","city":"会津若松市","city_kana":"アイヅワカマツシ","town":"北会津町宮袋","town_kana":"キタアイヅマチミヤブクロ","prefecture_code":7},"0127":{"zip_code":"9650127","prefecture":"福島県","prefecture_kana":"フクシマケン","city":"会津若松市","city_kana":"アイヅワカマツシ","town":"北会津町宮袋新田","town_kana":"キタアイヅマチミヤブクロシンデン","prefecture_code":7},"0824":{"zip_code":"9650824","prefecture":"福島県","prefecture_kana":"フクシマケン","city":"会津若松市","city_kana":"アイヅワカマツシ","town":"北青木","town_kana":"キタアオキ","prefecture_code":7},"0015":{"zip_code":"9650015","prefecture":"福島県","prefecture_kana":"フクシマケン","city":"会津若松市","city_kana":"アイヅワカマツシ","town":"北滝沢","town_kana":"キタタキザワ","prefecture_code":7},"0033":{"zip_code":"9650033","prefecture":"福島県","prefecture_kana":"フクシマケン","city":"会津若松市","city_kana":"アイヅワカマツシ","town":"行仁町","town_kana":"ギョウニンマチ","prefecture_code":7},"0812":{"zip_code":"9650812","prefecture":"福島県","prefecture_kana":"フクシマケン","city":"会津若松市","city_kana":"アイヅワカマツシ","town":"慶山","town_kana":"ケイザン","prefecture_code":7},"0823":{"zip_code":"9650823","prefecture":"福島県","prefecture_kana":"フクシマケン","city":"会津若松市","city_kana":"アイヅワカマツシ","town":"建福寺前","town_kana":"ケンプクジマエ","prefecture_code":7},"0082":{"zip_code":"9650082","prefecture":"福島県","prefecture_kana":"フクシマケン","city":"会津若松市","city_kana":"アイヅワカマツシ","town":"神指町榎木檀","town_kana":"コウザシマチエノキダン","prefecture_code":7},"0068":{"zip_code":"9650068","prefecture":"福島県","prefecture_kana":"フクシマケン","city":"会津若松市","city_kana":"アイヅワカマツシ","town":"神指町小見","town_kana":"コウザシマチオミ","prefecture_code":7},"0083":{"zip_code":"9650083","prefecture":"福島県","prefecture_kana":"フクシマケン","city":"会津若松市","city_kana":"アイヅワカマツシ","town":"神指町上神指","town_kana":"コウザシマチカミコウザシ","prefecture_code":7},"0062":{"zip_code":"9650062","prefecture":"福島県","prefecture_kana":"フクシマケン","city":"会津若松市","city_kana":"アイヅワカマツシ","town":"神指町北四合","town_kana":"コウザシマチキタシゴウ","prefecture_code":7},"0064":{"zip_code":"9650064","prefecture":"福島県","prefecture_kana":"フクシマケン","city":"会津若松市","city_kana":"アイヅワカマツシ","town":"神指町黒川","town_kana":"コウザシマチクロカワ","prefecture_code":7},"0067":{"zip_code":"9650067","prefecture":"福島県","prefecture_kana":"フクシマケン","city":"会津若松市","city_kana":"アイヅワカマツシ","town":"神指町下神指","town_kana":"コウザシマチシモコウザシ","prefecture_code":7},"0061":{"zip_code":"9650061","prefecture":"福島県","prefecture_kana":"フクシマケン","city":"会津若松市","city_kana":"アイヅワカマツシ","town":"神指町高久","town_kana":"コウザシマチタカク","prefecture_code":7},"0063":{"zip_code":"9650063","prefecture":"福島県","prefecture_kana":"フクシマケン","city":"会津若松市","city_kana":"アイヅワカマツシ","town":"神指町高瀬","town_kana":"コウザシマチタカセ","prefecture_code":7},"0087":{"zip_code":"9650087","prefecture":"福島県","prefecture_kana":"フクシマケン","city":"会津若松市","city_kana":"アイヅワカマツシ","town":"神指町高瀬新田","town_kana":"コウザシマチタカセシンデン","prefecture_code":7},"0069":{"zip_code":"9650069","prefecture":"福島県","prefecture_kana":"フクシマケン","city":"会津若松市","city_kana":"アイヅワカマツシ","town":"神指町天満","town_kana":"コウザシマチテンマン","prefecture_code":7},"0065":{"zip_code":"9650065","prefecture":"福島県","prefecture_kana":"フクシマケン","city":"会津若松市","city_kana":"アイヅワカマツシ","town":"神指町中四合","town_kana":"コウザシマチナカシゴウ","prefecture_code":7},"0081":{"zip_code":"9650081","prefecture":"福島県","prefecture_kana":"フクシマケン","city":"会津若松市","city_kana":"アイヅワカマツシ","town":"神指町西城戸","town_kana":"コウザシマチニシキド","prefecture_code":7},"0085":{"zip_code":"9650085","prefecture":"福島県","prefecture_kana":"フクシマケン","city":"会津若松市","city_kana":"アイヅワカマツシ","town":"神指町如来堂","town_kana":"コウザシマチニョライドウ","prefecture_code":7},"0080":{"zip_code":"9650080","prefecture":"福島県","prefecture_kana":"フクシマケン","city":"会津若松市","city_kana":"アイヅワカマツシ","town":"神指町橋本","town_kana":"コウザシマチハシモト","prefecture_code":7},"0089":{"zip_code":"9650089","prefecture":"福島県","prefecture_kana":"フクシマケン","city":"会津若松市","city_kana":"アイヅワカマツシ","town":"神指町東城戸","town_kana":"コウザシマチヒガシキド","prefecture_code":7},"0084":{"zip_code":"9650084","prefecture":"福島県","prefecture_kana":"フクシマケン","city":"会津若松市","city_kana":"アイヅワカマツシ","town":"神指町東神指","town_kana":"コウザシマチヒガシコウザシ","prefecture_code":7},"0086":{"zip_code":"9650086","prefecture":"福島県","prefecture_kana":"フクシマケン","city":"会津若松市","city_kana":"アイヅワカマツシ","town":"神指町本丸","town_kana":"コウザシマチホンマル","prefecture_code":7},"0859":{"zip_code":"9650859","prefecture":"福島県","prefecture_kana":"フクシマケン","city":"会津若松市","city_kana":"アイヅワカマツシ","town":"神指町幕内","town_kana":"コウザシマチマクウチ","prefecture_code":7},"0858":{"zip_code":"9650858","prefecture":"福島県","prefecture_kana":"フクシマケン","city":"会津若松市","city_kana":"アイヅワカマツシ","town":"神指町南四合","town_kana":"コウザシマチミナミシゴウ","prefecture_code":7},"0066":{"zip_code":"9650066","prefecture":"福島県","prefecture_kana":"フクシマケン","city":"会津若松市","city_kana":"アイヅワカマツシ","town":"神指町横沼","town_kana":"コウザシマチヨコヌマ","prefecture_code":7},"0073":{"zip_code":"9650073","prefecture":"福島県","prefecture_kana":"フクシマケン","city":"会津若松市","city_kana":"アイヅワカマツシ","town":"高野町上沼","town_kana":"コウヤマチウワヌマ","prefecture_code":7},"0077":{"zip_code":"9650077","prefecture":"福島県","prefecture_kana":"フクシマケン","city":"会津若松市","city_kana":"アイヅワカマツシ","town":"高野町上高野","town_kana":"コウヤマチカミコウヤ","prefecture_code":7},"0071":{"zip_code":"9650071","prefecture":"福島県","prefecture_kana":"フクシマケン","city":"会津若松市","city_kana":"アイヅワカマツシ","town":"高野町木流","town_kana":"コウヤマチキナガシ","prefecture_code":7},"0079":{"zip_code":"9650079","prefecture":"福島県","prefecture_kana":"フクシマケン","city":"会津若松市","city_kana":"アイヅワカマツシ","town":"高野町界沢","town_kana":"コウヤマチサカイザワ","prefecture_code":7},"0076":{"zip_code":"9650076","prefecture":"福島県","prefecture_kana":"フクシマケン","city":"会津若松市","city_kana":"アイヅワカマツシ","town":"高野町中沼","town_kana":"コウヤマチナカヌマ","prefecture_code":7},"0075":{"zip_code":"9650075","prefecture":"福島県","prefecture_kana":"フクシマケン","city":"会津若松市","city_kana":"アイヅワカマツシ","town":"高野町中前田","town_kana":"コウヤマチナカマエダ","prefecture_code":7},"0072":{"zip_code":"9650072","prefecture":"福島県","prefecture_kana":"フクシマケン","city":"会津若松市","city_kana":"アイヅワカマツシ","town":"高野町橋本木流","town_kana":"コウヤマチハシモトキナガシ","prefecture_code":7},"0074":{"zip_code":"9650074","prefecture":"福島県","prefecture_kana":"フクシマケン","city":"会津若松市","city_kana":"アイヅワカマツシ","town":"高野町平塚","town_kana":"コウヤマチヒラツカ","prefecture_code":7},"0078":{"zip_code":"9650078","prefecture":"福島県","prefecture_kana":"フクシマケン","city":"会津若松市","city_kana":"アイヅワカマツシ","town":"高野町柳川","town_kana":"コウヤマチヤナガワ","prefecture_code":7},"0023":{"zip_code":"9650023","prefecture":"福島県","prefecture_kana":"フクシマケン","city":"会津若松市","city_kana":"アイヅワカマツシ","town":"蚕養町","town_kana":"コガイマチ","prefecture_code":7},"0853":{"zip_code":"9650853","prefecture":"福島県","prefecture_kana":"フクシマケン","city":"会津若松市","city_kana":"アイヅワカマツシ","town":"材木町","town_kana":"ザイモクマチ","prefecture_code":7},"0871":{"zip_code":"9650871","prefecture":"福島県","prefecture_kana":"フクシマケン","city":"会津若松市","city_kana":"アイヅワカマツシ","town":"栄町","town_kana":"サカエマチ","prefecture_code":7},"0854":{"zip_code":"9650854","prefecture":"福島県","prefecture_kana":"フクシマケン","city":"会津若松市","city_kana":"アイヅワカマツシ","town":"桜町","town_kana":"サクラマチ","prefecture_code":7},"0047":{"zip_code":"9650047","prefecture":"福島県","prefecture_kana":"フクシマケン","city":"会津若松市","city_kana":"アイヅワカマツシ","town":"五月町","town_kana":"サツキマチ","prefecture_code":7},"0864":{"zip_code":"9650864","prefecture":"福島県","prefecture_kana":"フクシマケン","city":"会津若松市","city_kana":"アイヅワカマツシ","town":"城西町","town_kana":"ジョウサイマチ","prefecture_code":7},"0807":{"zip_code":"9650807","prefecture":"福島県","prefecture_kana":"フクシマケン","city":"会津若松市","city_kana":"アイヅワカマツシ","town":"城東町","town_kana":"ジョウトウマチ","prefecture_code":7},"0809":{"zip_code":"9650809","prefecture":"福島県","prefecture_kana":"フクシマケン","city":"会津若松市","city_kana":"アイヅワカマツシ","town":"城南町","town_kana":"ジョウナンマチ","prefecture_code":7},"0043":{"zip_code":"9650043","prefecture":"福島県","prefecture_kana":"フクシマケン","city":"会津若松市","city_kana":"アイヅワカマツシ","town":"城北町","town_kana":"ジョウホクマチ","prefecture_code":7},"0038":{"zip_code":"9650038","prefecture":"福島県","prefecture_kana":"フクシマケン","city":"会津若松市","city_kana":"アイヅワカマツシ","town":"昭和町","town_kana":"ショウワマチ","prefecture_code":7},"0803":{"zip_code":"9650803","prefecture":"福島県","prefecture_kana":"フクシマケン","city":"会津若松市","city_kana":"アイヅワカマツシ","town":"城前","town_kana":"シロマエ","prefecture_code":7},"0866":{"zip_code":"9650866","prefecture":"福島県","prefecture_kana":"フクシマケン","city":"会津若松市","city_kana":"アイヅワカマツシ","town":"新横町","town_kana":"シンヨコマチ","prefecture_code":7},"0855":{"zip_code":"9650855","prefecture":"福島県","prefecture_kana":"フクシマケン","city":"会津若松市","city_kana":"アイヅワカマツシ","town":"住吉町","town_kana":"スミヨシマチ","prefecture_code":7},"0817":{"zip_code":"9650817","prefecture":"福島県","prefecture_kana":"フクシマケン","city":"会津若松市","city_kana":"アイヅワカマツシ","town":"千石町","town_kana":"センゴクマチ","prefecture_code":7},"0060":{"zip_code":"9650060","prefecture":"福島県","prefecture_kana":"フクシマケン","city":"会津若松市","city_kana":"アイヅワカマツシ","town":"高久工業団地","town_kana":"タカクコウギョウダンチ","prefecture_code":7},"0806":{"zip_code":"9650806","prefecture":"福島県","prefecture_kana":"フクシマケン","city":"会津若松市","city_kana":"アイヅワカマツシ","town":"宝町","town_kana":"タカラマチ","prefecture_code":7},"0022":{"zip_code":"9650022","prefecture":"福島県","prefecture_kana":"フクシマケン","city":"会津若松市","city_kana":"アイヅワカマツシ","town":"滝沢町","town_kana":"タキザワマチ","prefecture_code":7},"0835":{"zip_code":"9650835","prefecture":"福島県","prefecture_kana":"フクシマケン","city":"会津若松市","city_kana":"アイヅワカマツシ","town":"館馬町","town_kana":"タテウママチ","prefecture_code":7},"0836":{"zip_code":"9650836","prefecture":"福島県","prefecture_kana":"フクシマケン","city":"会津若松市","city_kana":"アイヅワカマツシ","town":"館脇町","town_kana":"タテワキマチ","prefecture_code":7},"0037":{"zip_code":"9650037","prefecture":"福島県","prefecture_kana":"フクシマケン","city":"会津若松市","city_kana":"アイヅワカマツシ","town":"中央","town_kana":"チュウオウ","prefecture_code":7},"0847":{"zip_code":"9650847","prefecture":"福島県","prefecture_kana":"フクシマケン","city":"会津若松市","city_kana":"アイヅワカマツシ","town":"対馬館町","town_kana":"ツシマダテマチ","prefecture_code":7},"0013":{"zip_code":"9650013","prefecture":"福島県","prefecture_kana":"フクシマケン","city":"会津若松市","city_kana":"アイヅワカマツシ","town":"堤町","town_kana":"ツツミマチ","prefecture_code":7},"0011":{"zip_code":"9650011","prefecture":"福島県","prefecture_kana":"フクシマケン","city":"会津若松市","city_kana":"アイヅワカマツシ","town":"鶴賀町","town_kana":"ツルガマチ","prefecture_code":7},"0832":{"zip_code":"9650832","prefecture":"福島県","prefecture_kana":"フクシマケン","city":"会津若松市","city_kana":"アイヅワカマツシ","town":"天神町","town_kana":"テンジンマチ","prefecture_code":7},"0805":{"zip_code":"9650805","prefecture":"福島県","prefecture_kana":"フクシマケン","city":"会津若松市","city_kana":"アイヅワカマツシ","town":"天寧寺町","town_kana":"テンネイジマチ","prefecture_code":7},"0016":{"zip_code":"9650016","prefecture":"福島県","prefecture_kana":"フクシマケン","city":"会津若松市","city_kana":"アイヅワカマツシ","town":"中島町","town_kana":"ナカジママチ","prefecture_code":7},"0878":{"zip_code":"9650878","prefecture":"福島県","prefecture_kana":"フクシマケン","city":"会津若松市","city_kana":"アイヅワカマツシ","town":"中町","town_kana":"ナカマチ","prefecture_code":7},"0044":{"zip_code":"9650044","prefecture":"福島県","prefecture_kana":"フクシマケン","city":"会津若松市","city_kana":"アイヅワカマツシ","town":"七日町","town_kana":"ナノカマチ","prefecture_code":7},"0848":{"zip_code":"9650848","prefecture":"福島県","prefecture_kana":"フクシマケン","city":"会津若松市","city_kana":"アイヅワカマツシ","town":"飯寺北","town_kana":"ニイデラキタ","prefecture_code":7},"0837":{"zip_code":"9650837","prefecture":"福島県","prefecture_kana":"フクシマケン","city":"会津若松市","city_kana":"アイヅワカマツシ","town":"錦町","town_kana":"ニシキマチ","prefecture_code":7},"0877":{"zip_code":"9650877","prefecture":"福島県","prefecture_kana":"フクシマケン","city":"会津若松市","city_kana":"アイヅワカマツシ","town":"西栄町","town_kana":"ニシサカエマチ","prefecture_code":7},"0045":{"zip_code":"9650045","prefecture":"福島県","prefecture_kana":"フクシマケン","city":"会津若松市","city_kana":"アイヅワカマツシ","town":"西七日町","town_kana":"ニシナノカマチ","prefecture_code":7},"0830":{"zip_code":"9650830","prefecture":"福島県","prefecture_kana":"フクシマケン","city":"会津若松市","city_kana":"アイヅワカマツシ","town":"西年貢","town_kana":"ニシネング","prefecture_code":7},"0861":{"zip_code":"9650861","prefecture":"福島県","prefecture_kana":"フクシマケン","city":"会津若松市","city_kana":"アイヅワカマツシ","town":"日新町","town_kana":"ニッシンマチ","prefecture_code":7},"0048":{"zip_code":"9650048","prefecture":"福島県","prefecture_kana":"フクシマケン","city":"会津若松市","city_kana":"アイヅワカマツシ","town":"橋本","town_kana":"ハシモト","prefecture_code":7},"0027":{"zip_code":"9650027","prefecture":"福島県","prefecture_kana":"フクシマケン","city":"会津若松市","city_kana":"アイヅワカマツシ","town":"花畑東","town_kana":"ハナバタケヒガシ","prefecture_code":7},"0804":{"zip_code":"9650804","prefecture":"福島県","prefecture_kana":"フクシマケン","city":"会津若松市","city_kana":"アイヅワカマツシ","town":"花春町","town_kana":"ハナハルマチ","prefecture_code":7},"0822":{"zip_code":"9650822","prefecture":"福島県","prefecture_kana":"フクシマケン","city":"会津若松市","city_kana":"アイヅワカマツシ","town":"花見ケ丘","town_kana":"ハナミガオカ","prefecture_code":7},"0036":{"zip_code":"9650036","prefecture":"福島県","prefecture_kana":"フクシマケン","city":"会津若松市","city_kana":"アイヅワカマツシ","town":"馬場本町","town_kana":"ババモトマチ","prefecture_code":7},"0035":{"zip_code":"9650035","prefecture":"福島県","prefecture_kana":"フクシマケン","city":"会津若松市","city_kana":"アイヅワカマツシ","town":"馬場町","town_kana":"ババマチ","prefecture_code":7},"0872":{"zip_code":"9650872","prefecture":"福島県","prefecture_kana":"フクシマケン","city":"会津若松市","city_kana":"アイヅワカマツシ","town":"東栄町","town_kana":"ヒガシサカエマチ","prefecture_code":7},"0818":{"zip_code":"9650818","prefecture":"福島県","prefecture_kana":"フクシマケン","city":"会津若松市","city_kana":"アイヅワカマツシ","town":"東千石","town_kana":"ヒガシセンゴク","prefecture_code":7},"0839":{"zip_code":"9650839","prefecture":"福島県","prefecture_kana":"フクシマケン","city":"会津若松市","city_kana":"アイヅワカマツシ","town":"東年貢","town_kana":"ヒガシネング","prefecture_code":7},"0813":{"zip_code":"9650813","prefecture":"福島県","prefecture_kana":"フクシマケン","city":"会津若松市","city_kana":"アイヅワカマツシ","town":"東山町石山","town_kana":"ヒガシヤママチイシヤマ","prefecture_code":7},"0815":{"zip_code":"9650815","prefecture":"福島県","prefecture_kana":"フクシマケン","city":"会津若松市","city_kana":"アイヅワカマツシ","town":"東山町湯川","town_kana":"ヒガシヤママチユガワ","prefecture_code":7},"0814":{"zip_code":"9650814","prefecture":"福島県","prefecture_kana":"フクシマケン","city":"会津若松市","city_kana":"アイヅワカマツシ","town":"東山町湯本","town_kana":"ヒガシヤママチユモト","prefecture_code":7},"0008":{"zip_code":"9650008","prefecture":"福島県","prefecture_kana":"フクシマケン","city":"会津若松市","city_kana":"アイヅワカマツシ","town":"桧町","town_kana":"ヒノキマチ","prefecture_code":7},"0024":{"zip_code":"9650024","prefecture":"福島県","prefecture_kana":"フクシマケン","city":"会津若松市","city_kana":"アイヅワカマツシ","town":"白虎町","town_kana":"ビャッコマチ","prefecture_code":7},"0852":{"zip_code":"9650852","prefecture":"福島県","prefecture_kana":"フクシマケン","city":"会津若松市","city_kana":"アイヅワカマツシ","town":"日吉町","town_kana":"ヒヨシマチ","prefecture_code":7},"0838":{"zip_code":"9650838","prefecture":"福島県","prefecture_kana":"フクシマケン","city":"会津若松市","city_kana":"アイヅワカマツシ","town":"古川町","town_kana":"フルカワマチ","prefecture_code":7},"0026":{"zip_code":"9650026","prefecture":"福島県","prefecture_kana":"フクシマケン","city":"会津若松市","city_kana":"アイヅワカマツシ","town":"平安町","town_kana":"ヘイアンマチ","prefecture_code":7},"0862":{"zip_code":"9650862","prefecture":"福島県","prefecture_kana":"フクシマケン","city":"会津若松市","city_kana":"アイヅワカマツシ","town":"本町","town_kana":"ホンマチ","prefecture_code":7},"0856":{"zip_code":"9650856","prefecture":"福島県","prefecture_kana":"フクシマケン","city":"会津若松市","city_kana":"アイヅワカマツシ","town":"幕内東町","town_kana":"マクウチヒガシマチ","prefecture_code":7},"0849":{"zip_code":"9650849","prefecture":"福島県","prefecture_kana":"フクシマケン","city":"会津若松市","city_kana":"アイヅワカマツシ","town":"幕内南町","town_kana":"マクウチミナミマチ","prefecture_code":7},"0054":{"zip_code":"9650054","prefecture":"福島県","prefecture_kana":"フクシマケン","city":"会津若松市","city_kana":"アイヅワカマツシ","town":"町北町石堂","town_kana":"マチキタマチイシドウ","prefecture_code":7},"0053":{"zip_code":"9650053","prefecture":"福島県","prefecture_kana":"フクシマケン","city":"会津若松市","city_kana":"アイヅワカマツシ","town":"町北町上荒久田","town_kana":"マチキタマチカミアラクダ","prefecture_code":7},"0058":{"zip_code":"9650058","prefecture":"福島県","prefecture_kana":"フクシマケン","city":"会津若松市","city_kana":"アイヅワカマツシ","town":"町北町中沢","town_kana":"マチキタマチナカサワ","prefecture_code":7},"0088":{"zip_code":"9650088","prefecture":"福島県","prefecture_kana":"フクシマケン","city":"会津若松市","city_kana":"アイヅワカマツシ","town":"町北町中沢西","town_kana":"マチキタマチナカサワニシ","prefecture_code":7},"0052":{"zip_code":"9650052","prefecture":"福島県","prefecture_kana":"フクシマケン","city":"会津若松市","city_kana":"アイヅワカマツシ","town":"町北町始","town_kana":"マチキタマチハシメ","prefecture_code":7},"0057":{"zip_code":"9650057","prefecture":"福島県","prefecture_kana":"フクシマケン","city":"会津若松市","city_kana":"アイヅワカマツシ","town":"町北町藤室","town_kana":"マチキタマチフジムロ","prefecture_code":7},"0051":{"zip_code":"9650051","prefecture":"福島県","prefecture_kana":"フクシマケン","city":"会津若松市","city_kana":"アイヅワカマツシ","town":"町北町谷地","town_kana":"マチキタマチヤチ","prefecture_code":7},"0102":{"zip_code":"9650102","prefecture":"福島県","prefecture_kana":"フクシマケン","city":"会津若松市","city_kana":"アイヅワカマツシ","town":"真宮新町北","town_kana":"マミヤシンマチキタ","prefecture_code":7},"0103":{"zip_code":"9650103","prefecture":"福島県","prefecture_kana":"フクシマケン","city":"会津若松市","city_kana":"アイヅワカマツシ","town":"真宮新町南","town_kana":"マミヤシンマチミナミ","prefecture_code":7},"0867":{"zip_code":"9650867","prefecture":"福島県","prefecture_kana":"フクシマケン","city":"会津若松市","city_kana":"アイヅワカマツシ","town":"緑町","town_kana":"ミドリマチ","prefecture_code":7},"0201":{"zip_code":"9650201","prefecture":"福島県","prefecture_kana":"フクシマケン","city":"会津若松市","city_kana":"アイヅワカマツシ","town":"湊町赤井","town_kana":"ミナトマチアカイ","prefecture_code":7},"0202":{"zip_code":"9650202","prefecture":"福島県","prefecture_kana":"フクシマケン","city":"会津若松市","city_kana":"アイヅワカマツシ","town":"湊町共和","town_kana":"ミナトマチキョウワ","prefecture_code":7},"0203":{"zip_code":"9650203","prefecture":"福島県","prefecture_kana":"フクシマケン","city":"会津若松市","city_kana":"アイヅワカマツシ","town":"湊町静潟","town_kana":"ミナトマチシズカタ","prefecture_code":7},"0204":{"zip_code":"9650204","prefecture":"福島県","prefecture_kana":"フクシマケン","city":"会津若松市","city_kana":"アイヅワカマツシ","town":"湊町原","town_kana":"ミナトマチハラ","prefecture_code":7},"0205":{"zip_code":"9650205","prefecture":"福島県","prefecture_kana":"フクシマケン","city":"会津若松市","city_kana":"アイヅワカマツシ","town":"湊町平潟","town_kana":"ミナトマチヒラカタ","prefecture_code":7},"0816":{"zip_code":"9650816","prefecture":"福島県","prefecture_kana":"フクシマケン","city":"会津若松市","city_kana":"アイヅワカマツシ","town":"南千石町","town_kana":"ミナミセンゴクマチ","prefecture_code":7},"0874":{"zip_code":"9650874","prefecture":"福島県","prefecture_kana":"フクシマケン","city":"会津若松市","city_kana":"アイヅワカマツシ","town":"南花畑","town_kana":"ミナミハナバタケ","prefecture_code":7},"0808":{"zip_code":"9650808","prefecture":"福島県","prefecture_kana":"フクシマケン","city":"会津若松市","city_kana":"アイヅワカマツシ","town":"南町","town_kana":"ミナミマチ","prefecture_code":7},"0801":{"zip_code":"9650801","prefecture":"福島県","prefecture_kana":"フクシマケン","city":"会津若松市","city_kana":"アイヅワカマツシ","town":"宮町","town_kana":"ミヤマチ","prefecture_code":7},"0833":{"zip_code":"9650833","prefecture":"福島県","prefecture_kana":"フクシマケン","city":"会津若松市","city_kana":"アイヅワカマツシ","town":"明和町","town_kana":"メイワマチ","prefecture_code":7},"0844":{"zip_code":"9650844","prefecture":"福島県","prefecture_kana":"フクシマケン","city":"会津若松市","city_kana":"アイヅワカマツシ","town":"門田町一ノ堰","town_kana":"モンデンマチイチノセキ","prefecture_code":7},"0828":{"zip_code":"9650828","prefecture":"福島県","prefecture_kana":"フクシマケン","city":"会津若松市","city_kana":"アイヅワカマツシ","town":"門田町面川","town_kana":"モンデンマチオモガワ","prefecture_code":7},"0826":{"zip_code":"9650826","prefecture":"福島県","prefecture_kana":"フクシマケン","city":"会津若松市","city_kana":"アイヅワカマツシ","town":"門田町御山","town_kana":"モンデンマチオヤマ","prefecture_code":7},"0825":{"zip_code":"9650825","prefecture":"福島県","prefecture_kana":"フクシマケン","city":"会津若松市","city_kana":"アイヅワカマツシ","town":"門田町黒岩","town_kana":"モンデンマチクロイワ","prefecture_code":7},"0827":{"zip_code":"9650827","prefecture":"福島県","prefecture_kana":"フクシマケン","city":"会津若松市","city_kana":"アイヅワカマツシ","town":"門田町堤沢","town_kana":"モンデンマチツツミザワ","prefecture_code":7},"0843":{"zip_code":"9650843","prefecture":"福島県","prefecture_kana":"フクシマケン","city":"会津若松市","city_kana":"アイヅワカマツシ","town":"門田町徳久","town_kana":"モンデンマチトクヒサ","prefecture_code":7},"0842":{"zip_code":"9650842","prefecture":"福島県","prefecture_kana":"フクシマケン","city":"会津若松市","city_kana":"アイヅワカマツシ","town":"門田町中野","town_kana":"モンデンマチナカノ","prefecture_code":7},"0846":{"zip_code":"9650846","prefecture":"福島県","prefecture_kana":"フクシマケン","city":"会津若松市","city_kana":"アイヅワカマツシ","town":"門田町飯寺","town_kana":"モンデンマチニイデラ","prefecture_code":7},"0834":{"zip_code":"9650834","prefecture":"福島県","prefecture_kana":"フクシマケン","city":"会津若松市","city_kana":"アイヅワカマツシ","town":"門田町年貢町","town_kana":"モンデンマチネングマチ","prefecture_code":7},"0841":{"zip_code":"9650841","prefecture":"福島県","prefecture_kana":"フクシマケン","city":"会津若松市","city_kana":"アイヅワカマツシ","town":"門田町日吉","town_kana":"モンデンマチヒヨシ","prefecture_code":7},"0845":{"zip_code":"9650845","prefecture":"福島県","prefecture_kana":"フクシマケン","city":"会津若松市","city_kana":"アイヅワカマツシ","town":"門田町工業団地","town_kana":"モンデンマチコウギョウダンチ","prefecture_code":7},"0009":{"zip_code":"9650009","prefecture":"福島県","prefecture_kana":"フクシマケン","city":"会津若松市","city_kana":"アイヅワカマツシ","town":"八角町","town_kana":"ヤスミマチ","prefecture_code":7},"0857":{"zip_code":"9650857","prefecture":"福島県","prefecture_kana":"フクシマケン","city":"会津若松市","city_kana":"アイヅワカマツシ","town":"柳原町","town_kana":"ヤナギワラマチ","prefecture_code":7},"0876":{"zip_code":"9650876","prefecture":"福島県","prefecture_kana":"フクシマケン","city":"会津若松市","city_kana":"アイヅワカマツシ","town":"山鹿町","town_kana":"ヤマガマチ","prefecture_code":7},"0021":{"zip_code":"9650021","prefecture":"福島県","prefecture_kana":"フクシマケン","city":"会津若松市","city_kana":"アイヅワカマツシ","town":"山見町","town_kana":"ヤマミマチ","prefecture_code":7},"0863":{"zip_code":"9650863","prefecture":"福島県","prefecture_kana":"フクシマケン","city":"会津若松市","city_kana":"アイヅワカマツシ","town":"湯川町","town_kana":"ユガワマチ","prefecture_code":7},"0821":{"zip_code":"9650821","prefecture":"福島県","prefecture_kana":"フクシマケン","city":"会津若松市","city_kana":"アイヅワカマツシ","town":"湯川南","town_kana":"ユガワミナミ","prefecture_code":7},"0046":{"zip_code":"9650046","prefecture":"福島県","prefecture_kana":"フクシマケン","city":"会津若松市","city_kana":"アイヅワカマツシ","town":"八日町","town_kana":"ヨウカマチ","prefecture_code":7},"0875":{"zip_code":"9650875","prefecture":"福島県","prefecture_kana":"フクシマケン","city":"会津若松市","city_kana":"アイヅワカマツシ","town":"米代","town_kana":"ヨネダイ","prefecture_code":7},"0811":{"zip_code":"9650811","prefecture":"福島県","prefecture_kana":"フクシマケン","city":"会津若松市","city_kana":"アイヅワカマツシ","town":"和田","town_kana":"ワダ","prefecture_code":7}}