{"0000":{"zip_code":"9660000","prefecture":"福島県","prefecture_kana":"フクシマケン","city":"喜多方市","city_kana":"キタカタシ","town":"以下に掲載がない場合","town_kana":"イカニケイサイガナイバアイ","prefecture_code":7},"0819":{"zip_code":"9660819","prefecture":"福島県","prefecture_kana":"フクシマケン","city":"喜多方市","city_kana":"キタカタシ","town":"１丁目","town_kana":"1チョウメ","prefecture_code":7},"0818":{"zip_code":"9660818","prefecture":"福島県","prefecture_kana":"フクシマケン","city":"喜多方市","city_kana":"キタカタシ","town":"２丁目","town_kana":"2チョウメ","prefecture_code":7},"0817":{"zip_code":"9660817","prefecture":"福島県","prefecture_kana":"フクシマケン","city":"喜多方市","city_kana":"キタカタシ","town":"３丁目","town_kana":"3チョウメ","prefecture_code":7},"0091":{"zip_code":"9660091","prefecture":"福島県","prefecture_kana":"フクシマケン","city":"喜多方市","city_kana":"キタカタシ","town":"青葉台","town_kana":"アオバダイ","prefecture_code":7},"0108":{"zip_code":"9660108","prefecture":"福島県","prefecture_kana":"フクシマケン","city":"喜多方市","city_kana":"キタカタシ","town":"熱塩加納町相田","town_kana":"アツシオカノウマチアイタ","prefecture_code":7},"0101":{"zip_code":"9660101","prefecture":"福島県","prefecture_kana":"フクシマケン","city":"喜多方市","city_kana":"キタカタシ","town":"熱塩加納町熱塩","town_kana":"アツシオカノウマチアツシオ","prefecture_code":7},"0107":{"zip_code":"9660107","prefecture":"福島県","prefecture_kana":"フクシマケン","city":"喜多方市","city_kana":"キタカタシ","town":"熱塩加納町居廻","town_kana":"アツシオカノウマチイマワリ","prefecture_code":7},"0103":{"zip_code":"9660103","prefecture":"福島県","prefecture_kana":"フクシマケン","city":"喜多方市","city_kana":"キタカタシ","town":"熱塩加納町加納","town_kana":"アツシオカノウマチカノウ","prefecture_code":7},"0106":{"zip_code":"9660106","prefecture":"福島県","prefecture_kana":"フクシマケン","city":"喜多方市","city_kana":"キタカタシ","town":"熱塩加納町林際","town_kana":"アツシオカノウマチハヤシギワ","prefecture_code":7},"0105":{"zip_code":"9660105","prefecture":"福島県","prefecture_kana":"フクシマケン","city":"喜多方市","city_kana":"キタカタシ","town":"熱塩加納町宮川","town_kana":"アツシオカノウマチミヤカワ","prefecture_code":7},"0102":{"zip_code":"9660102","prefecture":"福島県","prefecture_kana":"フクシマケン","city":"喜多方市","city_kana":"キタカタシ","town":"熱塩加納町山田","town_kana":"アツシオカノウマチヤマダ","prefecture_code":7},"0104":{"zip_code":"9660104","prefecture":"福島県","prefecture_kana":"フクシマケン","city":"喜多方市","city_kana":"キタカタシ","town":"熱塩加納町米岡","town_kana":"アツシオカノウマチヨネオカ","prefecture_code":7},"0887":{"zip_code":"9660887","prefecture":"福島県","prefecture_kana":"フクシマケン","city":"喜多方市","city_kana":"キタカタシ","town":"飯田道上","town_kana":"イイダミチウエ","prefecture_code":7},"0053":{"zip_code":"9660053","prefecture":"福島県","prefecture_kana":"フクシマケン","city":"喜多方市","city_kana":"キタカタシ","town":"石田","town_kana":"イシダ","prefecture_code":7},"0868":{"zip_code":"9660868","prefecture":"福島県","prefecture_kana":"フクシマケン","city":"喜多方市","city_kana":"キタカタシ","town":"市道","town_kana":"イチミチ","prefecture_code":7},"0849":{"zip_code":"9660849","prefecture":"福島県","prefecture_kana":"フクシマケン","city":"喜多方市","city_kana":"キタカタシ","town":"一本木上","town_kana":"イッポンギウエ","prefecture_code":7},"0848":{"zip_code":"9660848","prefecture":"福島県","prefecture_kana":"フクシマケン","city":"喜多方市","city_kana":"キタカタシ","town":"一本木下","town_kana":"イッポンギシタ","prefecture_code":7},"0057":{"zip_code":"9660057","prefecture":"福島県","prefecture_kana":"フクシマケン","city":"喜多方市","city_kana":"キタカタシ","town":"井戸尻","town_kana":"イドジリ","prefecture_code":7},"0069":{"zip_code":"9660069","prefecture":"福島県","prefecture_kana":"フクシマケン","city":"喜多方市","city_kana":"キタカタシ","town":"稲清水","town_kana":"イナシミズ","prefecture_code":7},"0087":{"zip_code":"9660087","prefecture":"福島県","prefecture_kana":"フクシマケン","city":"喜多方市","city_kana":"キタカタシ","town":"稲荷宮","town_kana":"イナリノミヤ","prefecture_code":7},"0001":{"zip_code":"9660001","prefecture":"福島県","prefecture_kana":"フクシマケン","city":"喜多方市","city_kana":"キタカタシ","town":"岩月町入田付","town_kana":"イワツキマチイリタツキ","prefecture_code":7},"0005":{"zip_code":"9660005","prefecture":"福島県","prefecture_kana":"フクシマケン","city":"喜多方市","city_kana":"キタカタシ","town":"岩月町大都","town_kana":"イワツキマチオオツ","prefecture_code":7},"0003":{"zip_code":"9660003","prefecture":"福島県","prefecture_kana":"フクシマケン","city":"喜多方市","city_kana":"キタカタシ","town":"岩月町橿野","town_kana":"イワツキマチカシワノ","prefecture_code":7},"0004":{"zip_code":"9660004","prefecture":"福島県","prefecture_kana":"フクシマケン","city":"喜多方市","city_kana":"キタカタシ","town":"岩月町喜多方","town_kana":"イワツキマチキタカタ","prefecture_code":7},"0002":{"zip_code":"9660002","prefecture":"福島県","prefecture_kana":"フクシマケン","city":"喜多方市","city_kana":"キタカタシ","town":"岩月町宮津","town_kana":"イワツキマチミヤツ","prefecture_code":7},"0821":{"zip_code":"9660821","prefecture":"福島県","prefecture_kana":"フクシマケン","city":"喜多方市","city_kana":"キタカタシ","town":"梅竹","town_kana":"ウメタケ","prefecture_code":7},"0838":{"zip_code":"9660838","prefecture":"福島県","prefecture_kana":"フクシマケン","city":"喜多方市","city_kana":"キタカタシ","town":"永久","town_kana":"エイキュウ","prefecture_code":7},"0085":{"zip_code":"9660085","prefecture":"福島県","prefecture_kana":"フクシマケン","city":"喜多方市","city_kana":"キタカタシ","town":"江中子","town_kana":"エナカコ","prefecture_code":7},"0867":{"zip_code":"9660867","prefecture":"福島県","prefecture_kana":"フクシマケン","city":"喜多方市","city_kana":"キタカタシ","town":"扇田","town_kana":"オウギダ","prefecture_code":7},"0904":{"zip_code":"9660904","prefecture":"福島県","prefecture_kana":"フクシマケン","city":"喜多方市","city_kana":"キタカタシ","town":"大荒井","town_kana":"オオアライ","prefecture_code":7},"0836":{"zip_code":"9660836","prefecture":"福島県","prefecture_kana":"フクシマケン","city":"喜多方市","city_kana":"キタカタシ","town":"大坪","town_kana":"オオツボ","prefecture_code":7},"0037":{"zip_code":"9660037","prefecture":"福島県","prefecture_kana":"フクシマケン","city":"喜多方市","city_kana":"キタカタシ","town":"大豆田","town_kana":"オオマメダ","prefecture_code":7},"0839":{"zip_code":"9660839","prefecture":"福島県","prefecture_kana":"フクシマケン","city":"喜多方市","city_kana":"キタカタシ","town":"大道田","town_kana":"オオミチタ","prefecture_code":7},"0915":{"zip_code":"9660915","prefecture":"福島県","prefecture_kana":"フクシマケン","city":"喜多方市","city_kana":"キタカタシ","town":"大谷地","town_kana":"オオヤチ","prefecture_code":7},"0054":{"zip_code":"9660054","prefecture":"福島県","prefecture_kana":"フクシマケン","city":"喜多方市","city_kana":"キタカタシ","town":"大谷地田","town_kana":"オオヤチタ","prefecture_code":7},"0094":{"zip_code":"9660094","prefecture":"福島県","prefecture_kana":"フクシマケン","city":"喜多方市","city_kana":"キタカタシ","town":"押切","town_kana":"オシキリ","prefecture_code":7},"0095":{"zip_code":"9660095","prefecture":"福島県","prefecture_kana":"フクシマケン","city":"喜多方市","city_kana":"キタカタシ","town":"押切東","town_kana":"オシキリヒガシ","prefecture_code":7},"0096":{"zip_code":"9660096","prefecture":"福島県","prefecture_kana":"フクシマケン","city":"喜多方市","city_kana":"キタカタシ","town":"押切南","town_kana":"オシキリミナミ","prefecture_code":7},"0814":[{"zip_code":"9660814","prefecture":"福島県","prefecture_kana":"フクシマケン","city":"喜多方市","city_kana":"キタカタシ","town":"御清水","town_kana":"オシミズ","prefecture_code":7},{"zip_code":"9660814","prefecture":"福島県","prefecture_kana":"フクシマケン","city":"喜多方市","city_kana":"キタカタシ","town":"御清水東","town_kana":"オシミズヒガシ","prefecture_code":7}],"0825":{"zip_code":"9660825","prefecture":"福島県","prefecture_kana":"フクシマケン","city":"喜多方市","city_kana":"キタカタシ","town":"御清水南","town_kana":"オシミズミナミ","prefecture_code":7},"0831":{"zip_code":"9660831","prefecture":"福島県","prefecture_kana":"フクシマケン","city":"喜多方市","city_kana":"キタカタシ","town":"小田","town_kana":"オダ","prefecture_code":7},"0805":{"zip_code":"9660805","prefecture":"福島県","prefecture_kana":"フクシマケン","city":"喜多方市","city_kana":"キタカタシ","town":"小田付道上","town_kana":"オタヅキミチウエ","prefecture_code":7},"0813":{"zip_code":"9660813","prefecture":"福島県","prefecture_kana":"フクシマケン","city":"喜多方市","city_kana":"キタカタシ","town":"小田付道下","town_kana":"オタヅキミチシタ","prefecture_code":7},"0803":{"zip_code":"9660803","prefecture":"福島県","prefecture_kana":"フクシマケン","city":"喜多方市","city_kana":"キタカタシ","town":"落合","town_kana":"オチアイ","prefecture_code":7},"0894":{"zip_code":"9660894","prefecture":"福島県","prefecture_kana":"フクシマケン","city":"喜多方市","city_kana":"キタカタシ","town":"御茶屋","town_kana":"オチヤヤ","prefecture_code":7},"0039":{"zip_code":"9660039","prefecture":"福島県","prefecture_kana":"フクシマケン","city":"喜多方市","city_kana":"キタカタシ","town":"加登","town_kana":"カト","prefecture_code":7},"0891":{"zip_code":"9660891","prefecture":"福島県","prefecture_kana":"フクシマケン","city":"喜多方市","city_kana":"キタカタシ","town":"蝦蟆渕","town_kana":"ガマブチ","prefecture_code":7},"0043":{"zip_code":"9660043","prefecture":"福島県","prefecture_kana":"フクシマケン","city":"喜多方市","city_kana":"キタカタシ","town":"上江","town_kana":"カミエ","prefecture_code":7},"0811":{"zip_code":"9660811","prefecture":"福島県","prefecture_kana":"フクシマケン","city":"喜多方市","city_kana":"キタカタシ","town":"上川向","town_kana":"カミカワムカイ","prefecture_code":7},"0931":{"zip_code":"9660931","prefecture":"福島県","prefecture_kana":"フクシマケン","city":"喜多方市","city_kana":"キタカタシ","town":"上三宮町上三宮","town_kana":"カミサンミヤマチカミサンミヤ","prefecture_code":7},"0933":{"zip_code":"9660933","prefecture":"福島県","prefecture_kana":"フクシマケン","city":"喜多方市","city_kana":"キタカタシ","town":"上三宮町三谷","town_kana":"カミサンミヤマチミタニ","prefecture_code":7},"0932":{"zip_code":"9660932","prefecture":"福島県","prefecture_kana":"フクシマケン","city":"喜多方市","city_kana":"キタカタシ","town":"上三宮町吉川","town_kana":"カミサンミヤマチヨシカワ","prefecture_code":7},"0842":{"zip_code":"9660842","prefecture":"福島県","prefecture_kana":"フクシマケン","city":"喜多方市","city_kana":"キタカタシ","town":"川下","town_kana":"カワシモ","prefecture_code":7},"0851":{"zip_code":"9660851","prefecture":"福島県","prefecture_kana":"フクシマケン","city":"喜多方市","city_kana":"キタカタシ","town":"北原","town_kana":"キタハラ","prefecture_code":7},"0072":{"zip_code":"9660072","prefecture":"福島県","prefecture_kana":"フクシマケン","city":"喜多方市","city_kana":"キタカタシ","town":"北町","town_kana":"キタマチ","prefecture_code":7},"0006":{"zip_code":"9660006","prefecture":"福島県","prefecture_kana":"フクシマケン","city":"喜多方市","city_kana":"キタカタシ","town":"北町上","town_kana":"キタマチカミ","prefecture_code":7},"0835":{"zip_code":"9660835","prefecture":"福島県","prefecture_kana":"フクシマケン","city":"喜多方市","city_kana":"キタカタシ","town":"行作","town_kana":"ギョウサク","prefecture_code":7},"0892":{"zip_code":"9660892","prefecture":"福島県","prefecture_kana":"フクシマケン","city":"喜多方市","city_kana":"キタカタシ","town":"経壇","town_kana":"キョウダン","prefecture_code":7},"0874":{"zip_code":"9660874","prefecture":"福島県","prefecture_kana":"フクシマケン","city":"喜多方市","city_kana":"キタカタシ","town":"窪屋敷","town_kana":"クボヤシキ","prefecture_code":7},"0022":{"zip_code":"9660022","prefecture":"福島県","prefecture_kana":"フクシマケン","city":"喜多方市","city_kana":"キタカタシ","town":"熊倉町雄国","town_kana":"クマグラマチオグニ","prefecture_code":7},"0024":{"zip_code":"9660024","prefecture":"福島県","prefecture_kana":"フクシマケン","city":"喜多方市","city_kana":"キタカタシ","town":"熊倉町熊倉","town_kana":"クマグラマチクマグラ","prefecture_code":7},"0023":{"zip_code":"9660023","prefecture":"福島県","prefecture_kana":"フクシマケン","city":"喜多方市","city_kana":"キタカタシ","town":"熊倉町新合","town_kana":"クマグラマチシンゴウ","prefecture_code":7},"0021":{"zip_code":"9660021","prefecture":"福島県","prefecture_kana":"フクシマケン","city":"喜多方市","city_kana":"キタカタシ","town":"熊倉町都","town_kana":"クマグラマチミヤコ","prefecture_code":7},"0923":{"zip_code":"9660923","prefecture":"福島県","prefecture_kana":"フクシマケン","city":"喜多方市","city_kana":"キタカタシ","town":"慶徳町新宮","town_kana":"ケイトクマチシングウ","prefecture_code":7},"0922":{"zip_code":"9660922","prefecture":"福島県","prefecture_kana":"フクシマケン","city":"喜多方市","city_kana":"キタカタシ","town":"慶徳町豊岡","town_kana":"ケイトクマチトヨオカ","prefecture_code":7},"0921":{"zip_code":"9660921","prefecture":"福島県","prefecture_kana":"フクシマケン","city":"喜多方市","city_kana":"キタカタシ","town":"慶徳町松舞家","town_kana":"ケイトクマチマツマイケ","prefecture_code":7},"0924":{"zip_code":"9660924","prefecture":"福島県","prefecture_kana":"フクシマケン","city":"喜多方市","city_kana":"キタカタシ","town":"慶徳町山科","town_kana":"ケイトクマチヤマシナ","prefecture_code":7},"0872":{"zip_code":"9660872","prefecture":"福島県","prefecture_kana":"フクシマケン","city":"喜多方市","city_kana":"キタカタシ","town":"慶徳道上","town_kana":"ケイトクミチウエ","prefecture_code":7},"0869":{"zip_code":"9660869","prefecture":"福島県","prefecture_kana":"フクシマケン","city":"喜多方市","city_kana":"キタカタシ","town":"慶徳道下","town_kana":"ケイトクミチシタ","prefecture_code":7},"0048":{"zip_code":"9660048","prefecture":"福島県","prefecture_kana":"フクシマケン","city":"喜多方市","city_kana":"キタカタシ","town":"越巻","town_kana":"コシマキ","prefecture_code":7},"0063":{"zip_code":"9660063","prefecture":"福島県","prefecture_kana":"フクシマケン","city":"喜多方市","city_kana":"キタカタシ","town":"五ノ神","town_kana":"ゴノカミ","prefecture_code":7},"0877":{"zip_code":"9660877","prefecture":"福島県","prefecture_kana":"フクシマケン","city":"喜多方市","city_kana":"キタカタシ","town":"坂井道上","town_kana":"サカイミチウエ","prefecture_code":7},"0802":{"zip_code":"9660802","prefecture":"福島県","prefecture_kana":"フクシマケン","city":"喜多方市","city_kana":"キタカタシ","town":"桜ガ丘","town_kana":"サクラガオカ","prefecture_code":7},"0038":{"zip_code":"9660038","prefecture":"福島県","prefecture_kana":"フクシマケン","city":"喜多方市","city_kana":"キタカタシ","town":"桜町","town_kana":"サクラチョウ","prefecture_code":7},"0841":{"zip_code":"9660841","prefecture":"福島県","prefecture_kana":"フクシマケン","city":"喜多方市","city_kana":"キタカタシ","town":"さつきが丘","town_kana":"サツキガオカ","prefecture_code":7},"0044":{"zip_code":"9660044","prefecture":"福島県","prefecture_kana":"フクシマケン","city":"喜多方市","city_kana":"キタカタシ","town":"沢ノ目","town_kana":"サワノメ","prefecture_code":7},"0827":{"zip_code":"9660827","prefecture":"福島県","prefecture_kana":"フクシマケン","city":"喜多方市","city_kana":"キタカタシ","town":"沢ノ免","town_kana":"サワノメン","prefecture_code":7},"0093":{"zip_code":"9660093","prefecture":"福島県","prefecture_kana":"フクシマケン","city":"喜多方市","city_kana":"キタカタシ","town":"清水が丘","town_kana":"シミズガオカ","prefecture_code":7},"0092":{"zip_code":"9660092","prefecture":"福島県","prefecture_kana":"フクシマケン","city":"喜多方市","city_kana":"キタカタシ","town":"清水台","town_kana":"シミズダイ","prefecture_code":7},"0042":{"zip_code":"9660042","prefecture":"福島県","prefecture_kana":"フクシマケン","city":"喜多方市","city_kana":"キタカタシ","town":"下江","town_kana":"シモエ","prefecture_code":7},"0850":{"zip_code":"9660850","prefecture":"福島県","prefecture_kana":"フクシマケン","city":"喜多方市","city_kana":"キタカタシ","town":"下川原","town_kana":"シモカワラ","prefecture_code":7},"0896":{"zip_code":"9660896","prefecture":"福島県","prefecture_kana":"フクシマケン","city":"喜多方市","city_kana":"キタカタシ","town":"諏訪","town_kana":"スワ","prefecture_code":7},"0015":{"zip_code":"9660015","prefecture":"福島県","prefecture_kana":"フクシマケン","city":"喜多方市","city_kana":"キタカタシ","town":"関柴町上高額","town_kana":"セキシバマチカミタカヒタイ","prefecture_code":7},"0014":{"zip_code":"9660014","prefecture":"福島県","prefecture_kana":"フクシマケン","city":"喜多方市","city_kana":"キタカタシ","town":"関柴町西勝","town_kana":"セキシバマチサイカチ","prefecture_code":7},"0012":{"zip_code":"9660012","prefecture":"福島県","prefecture_kana":"フクシマケン","city":"喜多方市","city_kana":"キタカタシ","town":"関柴町下柴","town_kana":"セキシバマチシモシバ","prefecture_code":7},"0011":{"zip_code":"9660011","prefecture":"福島県","prefecture_kana":"フクシマケン","city":"喜多方市","city_kana":"キタカタシ","town":"関柴町関柴","town_kana":"セキシバマチセキシバ","prefecture_code":7},"0013":{"zip_code":"9660013","prefecture":"福島県","prefecture_kana":"フクシマケン","city":"喜多方市","city_kana":"キタカタシ","town":"関柴町豊芦","town_kana":"セキシバマチトヨアシ","prefecture_code":7},"0016":{"zip_code":"9660016","prefecture":"福島県","prefecture_kana":"フクシマケン","city":"喜多方市","city_kana":"キタカタシ","town":"関柴町平林","town_kana":"セキシバマチヒラバヤシ","prefecture_code":7},"0017":{"zip_code":"9660017","prefecture":"福島県","prefecture_kana":"フクシマケン","city":"喜多方市","city_kana":"キタカタシ","town":"関柴町三津井","town_kana":"セキシバマチミツイ","prefecture_code":7},"0033":{"zip_code":"9660033","prefecture":"福島県","prefecture_kana":"フクシマケン","city":"喜多方市","city_kana":"キタカタシ","town":"瀬戸","town_kana":"セト","prefecture_code":7},"0047":{"zip_code":"9660047","prefecture":"福島県","prefecture_kana":"フクシマケン","city":"喜多方市","city_kana":"キタカタシ","town":"銭田","town_kana":"ゼニタ","prefecture_code":7},"0853":{"zip_code":"9660853","prefecture":"福島県","prefecture_kana":"フクシマケン","city":"喜多方市","city_kana":"キタカタシ","town":"千苅","town_kana":"センガリ","prefecture_code":7},"0854":{"zip_code":"9660854","prefecture":"福島県","prefecture_kana":"フクシマケン","city":"喜多方市","city_kana":"キタカタシ","town":"千苅道上","town_kana":"センガリミチウエ","prefecture_code":7},"0064":{"zip_code":"9660064","prefecture":"福島県","prefecture_kana":"フクシマケン","city":"喜多方市","city_kana":"キタカタシ","town":"惣座宮","town_kana":"ソウザノミヤ","prefecture_code":7},"0055":{"zip_code":"9660055","prefecture":"福島県","prefecture_kana":"フクシマケン","city":"喜多方市","city_kana":"キタカタシ","town":"台","town_kana":"ダイ","prefecture_code":7},"0855":{"zip_code":"9660855","prefecture":"福島県","prefecture_kana":"フクシマケン","city":"喜多方市","city_kana":"キタカタシ","town":"太子堂","town_kana":"タイシドウ","prefecture_code":7},"0873":{"zip_code":"9660873","prefecture":"福島県","prefecture_kana":"フクシマケン","city":"喜多方市","city_kana":"キタカタシ","town":"舘野","town_kana":"タテノ","prefecture_code":7},"0884":{"zip_code":"9660884","prefecture":"福島県","prefecture_kana":"フクシマケン","city":"喜多方市","city_kana":"キタカタシ","town":"壇ノ前","town_kana":"ダンノマエ","prefecture_code":7},"0856":{"zip_code":"9660856","prefecture":"福島県","prefecture_kana":"フクシマケン","city":"喜多方市","city_kana":"キタカタシ","town":"長源段","town_kana":"チョウゲンダン","prefecture_code":7},"0097":{"zip_code":"9660097","prefecture":"福島県","prefecture_kana":"フクシマケン","city":"喜多方市","city_kana":"キタカタシ","town":"通船場","town_kana":"ツウセンバ","prefecture_code":7},"0875":{"zip_code":"9660875","prefecture":"福島県","prefecture_kana":"フクシマケン","city":"喜多方市","city_kana":"キタカタシ","town":"鶴巻","town_kana":"ツルマキ","prefecture_code":7},"0865":{"zip_code":"9660865","prefecture":"福島県","prefecture_kana":"フクシマケン","city":"喜多方市","city_kana":"キタカタシ","town":"寺田","town_kana":"テラダ","prefecture_code":7},"0068":{"zip_code":"9660068","prefecture":"福島県","prefecture_kana":"フクシマケン","city":"喜多方市","city_kana":"キタカタシ","town":"寺西","town_kana":"テラニシ","prefecture_code":7},"0861":{"zip_code":"9660861","prefecture":"福島県","prefecture_kana":"フクシマケン","city":"喜多方市","city_kana":"キタカタシ","town":"寺町","town_kana":"テラマチ","prefecture_code":7},"0871":{"zip_code":"9660871","prefecture":"福島県","prefecture_kana":"フクシマケン","city":"喜多方市","city_kana":"キタカタシ","town":"寺町南","town_kana":"テラマチミナミ","prefecture_code":7},"0062":{"zip_code":"9660062","prefecture":"福島県","prefecture_kana":"フクシマケン","city":"喜多方市","city_kana":"キタカタシ","town":"寺南","town_kana":"テラミナミ","prefecture_code":7},"0852":{"zip_code":"9660852","prefecture":"福島県","prefecture_kana":"フクシマケン","city":"喜多方市","city_kana":"キタカタシ","town":"天満前","town_kana":"テンマンマエ","prefecture_code":7},"0899":{"zip_code":"9660899","prefecture":"福島県","prefecture_kana":"フクシマケン","city":"喜多方市","city_kana":"キタカタシ","town":"樋越","town_kana":"トイゴシ","prefecture_code":7},"0801":{"zip_code":"9660801","prefecture":"福島県","prefecture_kana":"フクシマケン","city":"喜多方市","city_kana":"キタカタシ","town":"常盤台","town_kana":"トキワダイ","prefecture_code":7},"0862":[{"zip_code":"9660862","prefecture":"福島県","prefecture_kana":"フクシマケン","city":"喜多方市","city_kana":"キタカタシ","town":"常盤町","town_kana":"トキワチョウ","prefecture_code":7},{"zip_code":"9660862","prefecture":"福島県","prefecture_kana":"フクシマケン","city":"喜多方市","city_kana":"キタカタシ","town":"前田","town_kana":"マエダ","prefecture_code":7}],"0912":{"zip_code":"9660912","prefecture":"福島県","prefecture_kana":"フクシマケン","city":"喜多方市","city_kana":"キタカタシ","town":"豊川町一井","town_kana":"トヨカワマチイチイ","prefecture_code":7},"0913":{"zip_code":"9660913","prefecture":"福島県","prefecture_kana":"フクシマケン","city":"喜多方市","city_kana":"キタカタシ","town":"豊川町沢部","town_kana":"トヨカワマチサワベ","prefecture_code":7},"0911":{"zip_code":"9660911","prefecture":"福島県","prefecture_kana":"フクシマケン","city":"喜多方市","city_kana":"キタカタシ","town":"豊川町高堂太","town_kana":"トヨカワマチタカドウタ","prefecture_code":7},"0914":{"zip_code":"9660914","prefecture":"福島県","prefecture_kana":"フクシマケン","city":"喜多方市","city_kana":"キタカタシ","town":"豊川町米室","town_kana":"トヨカワマチヨネムロ","prefecture_code":7},"0845":{"zip_code":"9660845","prefecture":"福島県","prefecture_kana":"フクシマケン","city":"喜多方市","city_kana":"キタカタシ","town":"長内","town_kana":"ナガウチ","prefecture_code":7},"0049":{"zip_code":"9660049","prefecture":"福島県","prefecture_kana":"フクシマケン","city":"喜多方市","city_kana":"キタカタシ","town":"長面","town_kana":"ナガオモテ","prefecture_code":7},"0065":{"zip_code":"9660065","prefecture":"福島県","prefecture_kana":"フクシマケン","city":"喜多方市","city_kana":"キタカタシ","town":"中川原","town_kana":"ナカガワラ","prefecture_code":7},"0833":{"zip_code":"9660833","prefecture":"福島県","prefecture_kana":"フクシマケン","city":"喜多方市","city_kana":"キタカタシ","town":"中島","town_kana":"ナカジマ","prefecture_code":7},"0881":{"zip_code":"9660881","prefecture":"福島県","prefecture_kana":"フクシマケン","city":"喜多方市","city_kana":"キタカタシ","town":"中清水","town_kana":"ナカシミズ","prefecture_code":7},"0035":[{"zip_code":"9660035","prefecture":"福島県","prefecture_kana":"フクシマケン","city":"喜多方市","city_kana":"キタカタシ","town":"中台","town_kana":"ナカダイ","prefecture_code":7},{"zip_code":"9660035","prefecture":"福島県","prefecture_kana":"フクシマケン","city":"喜多方市","city_kana":"キタカタシ","town":"畑台","town_kana":"ハタケダイ","prefecture_code":7}],"0882":{"zip_code":"9660882","prefecture":"福島県","prefecture_kana":"フクシマケン","city":"喜多方市","city_kana":"キタカタシ","town":"中寺","town_kana":"ナカデラ","prefecture_code":7},"0073":{"zip_code":"9660073","prefecture":"福島県","prefecture_kana":"フクシマケン","city":"喜多方市","city_kana":"キタカタシ","town":"中町","town_kana":"ナカマチ","prefecture_code":7},"0032":{"zip_code":"9660032","prefecture":"福島県","prefecture_kana":"フクシマケン","city":"喜多方市","city_kana":"キタカタシ","town":"梨子ノ木","town_kana":"ナシノキ","prefecture_code":7},"0864":{"zip_code":"9660864","prefecture":"福島県","prefecture_kana":"フクシマケン","city":"喜多方市","city_kana":"キタカタシ","town":"七百苅","town_kana":"ナナヒャクガリ","prefecture_code":7},"0082":{"zip_code":"9660082","prefecture":"福島県","prefecture_kana":"フクシマケン","city":"喜多方市","city_kana":"キタカタシ","town":"南條","town_kana":"ナンジョウ","prefecture_code":7},"0084":{"zip_code":"9660084","prefecture":"福島県","prefecture_kana":"フクシマケン","city":"喜多方市","city_kana":"キタカタシ","town":"西井戸尻","town_kana":"ニシイドジリ","prefecture_code":7},"0844":{"zip_code":"9660844","prefecture":"福島県","prefecture_kana":"フクシマケン","city":"喜多方市","city_kana":"キタカタシ","town":"西籠田","town_kana":"ニシカゴタ","prefecture_code":7},"0081":{"zip_code":"9660081","prefecture":"福島県","prefecture_kana":"フクシマケン","city":"喜多方市","city_kana":"キタカタシ","town":"西町","town_kana":"ニシマチ","prefecture_code":7},"0086":{"zip_code":"9660086","prefecture":"福島県","prefecture_kana":"フクシマケン","city":"喜多方市","city_kana":"キタカタシ","town":"西四ツ谷","town_kana":"ニシヨツヤ","prefecture_code":7},"0034":{"zip_code":"9660034","prefecture":"福島県","prefecture_kana":"フクシマケン","city":"喜多方市","city_kana":"キタカタシ","town":"二本木","town_kana":"ニホンギ","prefecture_code":7},"0804":{"zip_code":"9660804","prefecture":"福島県","prefecture_kana":"フクシマケン","city":"喜多方市","city_kana":"キタカタシ","town":"沼田","town_kana":"ヌマタ","prefecture_code":7},"0893":{"zip_code":"9660893","prefecture":"福島県","prefecture_kana":"フクシマケン","city":"喜多方市","city_kana":"キタカタシ","town":"花園","town_kana":"ハナゾノ","prefecture_code":7},"0061":{"zip_code":"9660061","prefecture":"福島県","prefecture_kana":"フクシマケン","city":"喜多方市","city_kana":"キタカタシ","town":"馬場","town_kana":"ババ","prefecture_code":7},"0046":{"zip_code":"9660046","prefecture":"福島県","prefecture_kana":"フクシマケン","city":"喜多方市","city_kana":"キタカタシ","town":"原田","town_kana":"ハラダ","prefecture_code":7},"0859":{"zip_code":"9660859","prefecture":"福島県","prefecture_kana":"フクシマケン","city":"喜多方市","city_kana":"キタカタシ","town":"番帳免","town_kana":"バンチョウメン","prefecture_code":7},"0895":{"zip_code":"9660895","prefecture":"福島県","prefecture_kana":"フクシマケン","city":"喜多方市","city_kana":"キタカタシ","town":"東小原","town_kana":"ヒガシオバラ","prefecture_code":7},"0843":{"zip_code":"9660843","prefecture":"福島県","prefecture_kana":"フクシマケン","city":"喜多方市","city_kana":"キタカタシ","town":"東籠田","town_kana":"ヒガシカゴタ","prefecture_code":7},"0823":{"zip_code":"9660823","prefecture":"福島県","prefecture_kana":"フクシマケン","city":"喜多方市","city_kana":"キタカタシ","town":"東川原田","town_kana":"ヒガシカワラダ","prefecture_code":7},"0007":{"zip_code":"9660007","prefecture":"福島県","prefecture_kana":"フクシマケン","city":"喜多方市","city_kana":"キタカタシ","town":"東桜ガ丘","town_kana":"ヒガシサクラガオカ","prefecture_code":7},"0051":{"zip_code":"9660051","prefecture":"福島県","prefecture_kana":"フクシマケン","city":"喜多方市","city_kana":"キタカタシ","town":"東町","town_kana":"ヒガシマチ","prefecture_code":7},"0832":{"zip_code":"9660832","prefecture":"福島県","prefecture_kana":"フクシマケン","city":"喜多方市","city_kana":"キタカタシ","town":"百苅田","town_kana":"ヒャクガリダ","prefecture_code":7},"0058":{"zip_code":"9660058","prefecture":"福島県","prefecture_kana":"フクシマケン","city":"喜多方市","city_kana":"キタカタシ","town":"広面","town_kana":"ヒロオモテ","prefecture_code":7},"0031":{"zip_code":"9660031","prefecture":"福島県","prefecture_kana":"フクシマケン","city":"喜多方市","city_kana":"キタカタシ","town":"舞台田","town_kana":"ブタイダ","prefecture_code":7},"0866":{"zip_code":"9660866","prefecture":"福島県","prefecture_kana":"フクシマケン","city":"喜多方市","city_kana":"キタカタシ","town":"古寺","town_kana":"フルデラ","prefecture_code":7},"0816":{"zip_code":"9660816","prefecture":"福島県","prefecture_kana":"フクシマケン","city":"喜多方市","city_kana":"キタカタシ","town":"細田","town_kana":"ホソダ","prefecture_code":7},"0837":{"zip_code":"9660837","prefecture":"福島県","prefecture_kana":"フクシマケン","city":"喜多方市","city_kana":"キタカタシ","town":"前田上","town_kana":"マエダカミ","prefecture_code":7},"0041":{"zip_code":"9660041","prefecture":"福島県","prefecture_kana":"フクシマケン","city":"喜多方市","city_kana":"キタカタシ","town":"蒔田","town_kana":"マキダ","prefecture_code":7},"0858":{"zip_code":"9660858","prefecture":"福島県","prefecture_kana":"フクシマケン","city":"喜多方市","city_kana":"キタカタシ","town":"町北","town_kana":"マチキタ","prefecture_code":7},"0863":{"zip_code":"9660863","prefecture":"福島県","prefecture_kana":"フクシマケン","city":"喜多方市","city_kana":"キタカタシ","town":"町尻西","town_kana":"マチジリニシ","prefecture_code":7},"0826":{"zip_code":"9660826","prefecture":"福島県","prefecture_kana":"フクシマケン","city":"喜多方市","city_kana":"キタカタシ","town":"町尻東","town_kana":"マチジリヒガシ","prefecture_code":7},"0847":{"zip_code":"9660847","prefecture":"福島県","prefecture_kana":"フクシマケン","city":"喜多方市","city_kana":"キタカタシ","town":"町田","town_kana":"マチダ","prefecture_code":7},"0846":{"zip_code":"9660846","prefecture":"福島県","prefecture_kana":"フクシマケン","city":"喜多方市","city_kana":"キタカタシ","town":"町田下","town_kana":"マチダシタ","prefecture_code":7},"0857":{"zip_code":"9660857","prefecture":"福島県","prefecture_kana":"フクシマケン","city":"喜多方市","city_kana":"キタカタシ","town":"町西","town_kana":"マチニシ","prefecture_code":7},"0903":{"zip_code":"9660903","prefecture":"福島県","prefecture_kana":"フクシマケン","city":"喜多方市","city_kana":"キタカタシ","town":"松山町大飯坂","town_kana":"マツヤママチオオイイザカ","prefecture_code":7},"0901":{"zip_code":"9660901","prefecture":"福島県","prefecture_kana":"フクシマケン","city":"喜多方市","city_kana":"キタカタシ","town":"松山町鳥見山","town_kana":"マツヤママチトリミヤマ","prefecture_code":7},"0902":{"zip_code":"9660902","prefecture":"福島県","prefecture_kana":"フクシマケン","city":"喜多方市","city_kana":"キタカタシ","town":"松山町村松","town_kana":"マツヤママチムラマツ","prefecture_code":7},"0898":{"zip_code":"9660898","prefecture":"福島県","prefecture_kana":"フクシマケン","city":"喜多方市","city_kana":"キタカタシ","town":"見頃道上","town_kana":"ミゴロミチウエ","prefecture_code":7},"0806":{"zip_code":"9660806","prefecture":"福島県","prefecture_kana":"フクシマケン","city":"喜多方市","city_kana":"キタカタシ","town":"水上","town_kana":"ミズカミ","prefecture_code":7},"0812":{"zip_code":"9660812","prefecture":"福島県","prefecture_kana":"フクシマケン","city":"喜多方市","city_kana":"キタカタシ","town":"緑町","town_kana":"ミドリチョウ","prefecture_code":7},"0045":{"zip_code":"9660045","prefecture":"福島県","prefecture_kana":"フクシマケン","city":"喜多方市","city_kana":"キタカタシ","town":"南原","town_kana":"ミナミハラ","prefecture_code":7},"0074":{"zip_code":"9660074","prefecture":"福島県","prefecture_kana":"フクシマケン","city":"喜多方市","city_kana":"キタカタシ","town":"南町","town_kana":"ミナミマチ","prefecture_code":7},"0066":{"zip_code":"9660066","prefecture":"福島県","prefecture_kana":"フクシマケン","city":"喜多方市","city_kana":"キタカタシ","town":"宮西","town_kana":"ミヤニシ","prefecture_code":7},"0067":{"zip_code":"9660067","prefecture":"福島県","prefecture_kana":"フクシマケン","city":"喜多方市","city_kana":"キタカタシ","town":"村西","town_kana":"ムラニシ","prefecture_code":7},"0056":{"zip_code":"9660056","prefecture":"福島県","prefecture_kana":"フクシマケン","city":"喜多方市","city_kana":"キタカタシ","town":"屋敷免","town_kana":"ヤシキメン","prefecture_code":7},"0815":{"zip_code":"9660815","prefecture":"福島県","prefecture_kana":"フクシマケン","city":"喜多方市","city_kana":"キタカタシ","town":"谷地田","town_kana":"ヤチタ","prefecture_code":7},"0834":{"zip_code":"9660834","prefecture":"福島県","prefecture_kana":"フクシマケン","city":"喜多方市","city_kana":"キタカタシ","town":"谷地田上","town_kana":"ヤチダカミ","prefecture_code":7},"0036":{"zip_code":"9660036","prefecture":"福島県","prefecture_kana":"フクシマケン","city":"喜多方市","city_kana":"キタカタシ","town":"柳清水","town_kana":"ヤナギシミズ","prefecture_code":7},"0822":{"zip_code":"9660822","prefecture":"福島県","prefecture_kana":"フクシマケン","city":"喜多方市","city_kana":"キタカタシ","town":"柳原","town_kana":"ヤナギハラ","prefecture_code":7},"0071":{"zip_code":"9660071","prefecture":"福島県","prefecture_kana":"フクシマケン","city":"喜多方市","city_kana":"キタカタシ","town":"山ノ神","town_kana":"ヤマノカミ","prefecture_code":7},"0052":{"zip_code":"9660052","prefecture":"福島県","prefecture_kana":"フクシマケン","city":"喜多方市","city_kana":"キタカタシ","town":"四百苅","town_kana":"ヨンヒャクガリ","prefecture_code":7},"0083":{"zip_code":"9660083","prefecture":"福島県","prefecture_kana":"フクシマケン","city":"喜多方市","city_kana":"キタカタシ","town":"六枚長","town_kana":"ロクマイオサ","prefecture_code":7},"0824":{"zip_code":"9660824","prefecture":"福島県","prefecture_kana":"フクシマケン","city":"喜多方市","city_kana":"キタカタシ","town":"六百刈","town_kana":"ロッピャクガリ","prefecture_code":7},"0400":{"zip_code":"9660400","prefecture":"福島県","prefecture_kana":"フクシマケン","city":"耶麻郡北塩原村","city_kana":"ヤマグンキタシオバラムラ","town":"以下に掲載がない場合","town_kana":"イカニケイサイガナイバアイ","prefecture_code":7},"0402":{"zip_code":"9660402","prefecture":"福島県","prefecture_kana":"フクシマケン","city":"耶麻郡北塩原村","city_kana":"ヤマグンキタシオバラムラ","town":"大塩","town_kana":"オオシオ","prefecture_code":7},"0404":{"zip_code":"9660404","prefecture":"福島県","prefecture_kana":"フクシマケン","city":"耶麻郡北塩原村","city_kana":"ヤマグンキタシオバラムラ","town":"北山","town_kana":"キタヤマ","prefecture_code":7},"0405":{"zip_code":"9660405","prefecture":"福島県","prefecture_kana":"フクシマケン","city":"耶麻郡北塩原村","city_kana":"ヤマグンキタシオバラムラ","town":"下吉","town_kana":"シモヨシ","prefecture_code":7},"0403":{"zip_code":"9660403","prefecture":"福島県","prefecture_kana":"フクシマケン","city":"耶麻郡北塩原村","city_kana":"ヤマグンキタシオバラムラ","town":"関屋","town_kana":"セキヤ","prefecture_code":7},"0501":[{"zip_code":"9660501","prefecture":"福島県","prefecture_kana":"フクシマケン","city":"耶麻郡北塩原村","city_kana":"ヤマグンキタシオバラムラ","town":"檜原（苧畑沢、金山、五十両原、巣ノ山、滝ノ原、道前原、墓下、桧原、無縁","town_kana":"ヒバラ(ウバタサワ、カナヤマ、ゴジュウリョウハラ、スノヤマ、タキノハラ、ドウゼンハラ、ハカシタ、ヒバラ、ムエン","prefecture_code":7},{"zip_code":"9660501","prefecture":"福島県","prefecture_kana":"フクシマケン","city":"耶麻郡北塩原村","city_kana":"ヤマグンキタシオバラムラ","town":"原、早稲沢、小屋沢、水梨原、中原、楢木平原、焼桂山、館山）","town_kana":"ハラ、ワセザワ、コヤサワ、ミズナシハラ、ナカハラ、ナラノキダイラハラ、ヤケガツラヤマ、タテヤマ)","prefecture_code":7}],"0401":[{"zip_code":"9660401","prefecture":"福島県","prefecture_kana":"フクシマケン","city":"耶麻郡北塩原村","city_kana":"ヤマグンキタシオバラムラ","town":"檜原（雄子沢、雄子沢原、細野、南黄連沢、南黄連沢山、黄連沢山、","town_kana":"ヒバラ(オシザワ、オシザワハラ、ホソノ、ミナミオウレンサワ、ミナミオウレンサワヤマ、オウレンサワヤマ、","prefecture_code":7},{"zip_code":"9660401","prefecture":"福島県","prefecture_kana":"フクシマケン","city":"耶麻郡北塩原村","city_kana":"ヤマグンキタシオバラムラ","town":"黄連原山）","town_kana":"オウレンハラヤマ)","prefecture_code":7}]}