{"0500":{"zip_code":"9670500","prefecture":"福島県","prefecture_kana":"フクシマケン","city":"南会津郡檜枝岐村","city_kana":"ミナミアイヅグンヒノエマタムラ","town":"","town_kana":"","prefecture_code":7},"0521":{"zip_code":"9670521","prefecture":"福島県","prefecture_kana":"フクシマケン","city":"南会津郡檜枝岐村","city_kana":"ミナミアイヅグンヒノエマタムラ","town":"居平","town_kana":"イダイラ","prefecture_code":7},"0524":{"zip_code":"9670524","prefecture":"福島県","prefecture_kana":"フクシマケン","city":"南会津郡檜枝岐村","city_kana":"ミナミアイヅグンヒノエマタムラ","town":"上ノ台","town_kana":"ウエノダイ","prefecture_code":7},"0532":{"zip_code":"9670532","prefecture":"福島県","prefecture_kana":"フクシマケン","city":"南会津郡檜枝岐村","city_kana":"ミナミアイヅグンヒノエマタムラ","town":"尾瀬沼","town_kana":"オゼヌマ","prefecture_code":7},"0522":{"zip_code":"9670522","prefecture":"福島県","prefecture_kana":"フクシマケン","city":"南会津郡檜枝岐村","city_kana":"ミナミアイヅグンヒノエマタムラ","town":"上ノ原","town_kana":"カミノハラ","prefecture_code":7},"0523":{"zip_code":"9670523","prefecture":"福島県","prefecture_kana":"フクシマケン","city":"南会津郡檜枝岐村","city_kana":"ミナミアイヅグンヒノエマタムラ","town":"下ノ台","town_kana":"シタノダイ","prefecture_code":7},"0525":{"zip_code":"9670525","prefecture":"福島県","prefecture_kana":"フクシマケン","city":"南会津郡檜枝岐村","city_kana":"ミナミアイヅグンヒノエマタムラ","town":"下ノ原","town_kana":"シモノハラ","prefecture_code":7},"0526":{"zip_code":"9670526","prefecture":"福島県","prefecture_kana":"フクシマケン","city":"南会津郡檜枝岐村","city_kana":"ミナミアイヅグンヒノエマタムラ","town":"滝沢","town_kana":"タキザワ","prefecture_code":7},"0531":{"zip_code":"9670531","prefecture":"福島県","prefecture_kana":"フクシマケン","city":"南会津郡檜枝岐村","city_kana":"ミナミアイヅグンヒノエマタムラ","town":"燧ケ岳","town_kana":"ヒウチガタケ","prefecture_code":7},"0527":{"zip_code":"9670527","prefecture":"福島県","prefecture_kana":"フクシマケン","city":"南会津郡檜枝岐村","city_kana":"ミナミアイヅグンヒノエマタムラ","town":"見通","town_kana":"ミヅウリ","prefecture_code":7},"0528":{"zip_code":"9670528","prefecture":"福島県","prefecture_kana":"フクシマケン","city":"南会津郡檜枝岐村","city_kana":"ミナミアイヅグンヒノエマタムラ","town":"葭ケ平","town_kana":"ヨシガタイラ","prefecture_code":7},"0000":{"zip_code":"9670000","prefecture":"福島県","prefecture_kana":"フクシマケン","city":"南会津郡南会津町","city_kana":"ミナミアイヅグンミナミアイヅマチ","town":"","town_kana":"","prefecture_code":7},"0507":{"zip_code":"9670507","prefecture":"福島県","prefecture_kana":"フクシマケン","city":"南会津郡南会津町","city_kana":"ミナミアイヅグンミナミアイヅマチ","town":"青柳","town_kana":"アオヤギ","prefecture_code":7},"0605":{"zip_code":"9670605","prefecture":"福島県","prefecture_kana":"フクシマケン","city":"南会津郡南会津町","city_kana":"ミナミアイヅグンミナミアイヅマチ","town":"東","town_kana":"アズマ","prefecture_code":7},"0341":{"zip_code":"9670341","prefecture":"福島県","prefecture_kana":"フクシマケン","city":"南会津郡南会津町","city_kana":"ミナミアイヅグンミナミアイヅマチ","town":"穴原","town_kana":"アナバラ","prefecture_code":7},"0321":{"zip_code":"9670321","prefecture":"福島県","prefecture_kana":"フクシマケン","city":"南会津郡南会津町","city_kana":"ミナミアイヅグンミナミアイヅマチ","town":"井桁","town_kana":"イゲタ","prefecture_code":7},"0641":{"zip_code":"9670641","prefecture":"福島県","prefecture_kana":"フクシマケン","city":"南会津郡南会津町","city_kana":"ミナミアイヅグンミナミアイヅマチ","town":"和泉田","town_kana":"イズミタ","prefecture_code":7},"0014":{"zip_code":"9670014","prefecture":"福島県","prefecture_kana":"フクシマケン","city":"南会津郡南会津町","city_kana":"ミナミアイヅグンミナミアイヅマチ","town":"糸沢","town_kana":"イトザワ","prefecture_code":7},"0317":{"zip_code":"9670317","prefecture":"福島県","prefecture_kana":"フクシマケン","city":"南会津郡南会津町","city_kana":"ミナミアイヅグンミナミアイヅマチ","town":"伊与戸","town_kana":"イヨト","prefecture_code":7},"0323":{"zip_code":"9670323","prefecture":"福島県","prefecture_kana":"フクシマケン","city":"南会津郡南会津町","city_kana":"ミナミアイヅグンミナミアイヅマチ","town":"岩下","town_kana":"イワシタ","prefecture_code":7},"0511":{"zip_code":"9670511","prefecture":"福島県","prefecture_kana":"フクシマケン","city":"南会津郡南会津町","city_kana":"ミナミアイヅグンミナミアイヅマチ","town":"内川","town_kana":"ウチカワ","prefecture_code":7},"0319":{"zip_code":"9670319","prefecture":"福島県","prefecture_kana":"フクシマケン","city":"南会津郡南会津町","city_kana":"ミナミアイヅグンミナミアイヅマチ","town":"大久保","town_kana":"オオクボ","prefecture_code":7},"0603":{"zip_code":"9670603","prefecture":"福島県","prefecture_kana":"フクシマケン","city":"南会津郡南会津町","city_kana":"ミナミアイヅグンミナミアイヅマチ","town":"大新田","town_kana":"オオニタ","prefecture_code":7},"0604":{"zip_code":"9670604","prefecture":"福島県","prefecture_kana":"フクシマケン","city":"南会津郡南会津町","city_kana":"ミナミアイヅグンミナミアイヅマチ","town":"大橋","town_kana":"オオハシ","prefecture_code":7},"0513":{"zip_code":"9670513","prefecture":"福島県","prefecture_kana":"フクシマケン","city":"南会津郡南会津町","city_kana":"ミナミアイヅグンミナミアイヅマチ","town":"大原","town_kana":"オオハラ","prefecture_code":7},"0515":{"zip_code":"9670515","prefecture":"福島県","prefecture_kana":"フクシマケン","city":"南会津郡南会津町","city_kana":"ミナミアイヅグンミナミアイヅマチ","town":"大桃","town_kana":"オオモモ","prefecture_code":7},"0331":{"zip_code":"9670331","prefecture":"福島県","prefecture_kana":"フクシマケン","city":"南会津郡南会津町","city_kana":"ミナミアイヅグンミナミアイヅマチ","town":"押戸","town_kana":"オシド","prefecture_code":7},"0642":{"zip_code":"9670642","prefecture":"福島県","prefecture_kana":"フクシマケン","city":"南会津郡南会津町","city_kana":"ミナミアイヅグンミナミアイヅマチ","town":"小野島","town_kana":"オノシマ","prefecture_code":7},"0335":{"zip_code":"9670335","prefecture":"福島県","prefecture_kana":"フクシマケン","city":"南会津郡南会津町","city_kana":"ミナミアイヅグンミナミアイヅマチ","town":"貝原","town_kana":"カイバラ","prefecture_code":7},"0632":{"zip_code":"9670632","prefecture":"福島県","prefecture_kana":"フクシマケン","city":"南会津郡南会津町","city_kana":"ミナミアイヅグンミナミアイヅマチ","town":"片貝","town_kana":"カタカイ","prefecture_code":7},"0024":{"zip_code":"9670024","prefecture":"福島県","prefecture_kana":"フクシマケン","city":"南会津郡南会津町","city_kana":"ミナミアイヅグンミナミアイヅマチ","town":"金井沢","town_kana":"カナイザワ","prefecture_code":7},"0344":{"zip_code":"9670344","prefecture":"福島県","prefecture_kana":"フクシマケン","city":"南会津郡南会津町","city_kana":"ミナミアイヅグンミナミアイヅマチ","town":"上ミノ原","town_kana":"カミノハラ","prefecture_code":7},"0346":{"zip_code":"9670346","prefecture":"福島県","prefecture_kana":"フクシマケン","city":"南会津郡南会津町","city_kana":"ミナミアイヅグンミナミアイヅマチ","town":"川衣","town_kana":"カワギヌ","prefecture_code":7},"0012":{"zip_code":"9670012","prefecture":"福島県","prefecture_kana":"フクシマケン","city":"南会津郡南会津町","city_kana":"ミナミアイヅグンミナミアイヅマチ","town":"川島","town_kana":"カワシマ","prefecture_code":7},"0601":{"zip_code":"9670601","prefecture":"福島県","prefecture_kana":"フクシマケン","city":"南会津郡南会津町","city_kana":"ミナミアイヅグンミナミアイヅマチ","town":"木伏","town_kana":"キブシ","prefecture_code":7},"0011":{"zip_code":"9670011","prefecture":"福島県","prefecture_kana":"フクシマケン","city":"南会津郡南会津町","city_kana":"ミナミアイヅグンミナミアイヅマチ","town":"栗生沢","town_kana":"クリュウザワ","prefecture_code":7},"0021":{"zip_code":"9670021","prefecture":"福島県","prefecture_kana":"フクシマケン","city":"南会津郡南会津町","city_kana":"ミナミアイヅグンミナミアイヅマチ","town":"高野","town_kana":"コウヤ","prefecture_code":7},"0506":{"zip_code":"9670506","prefecture":"福島県","prefecture_kana":"フクシマケン","city":"南会津郡南会津町","city_kana":"ミナミアイヅグンミナミアイヅマチ","town":"小塩","town_kana":"コシオ","prefecture_code":7},"0343":{"zip_code":"9670343","prefecture":"福島県","prefecture_kana":"フクシマケン","city":"南会津郡南会津町","city_kana":"ミナミアイヅグンミナミアイヅマチ","town":"小高林","town_kana":"コタカバヤシ","prefecture_code":7},"0514":{"zip_code":"9670514","prefecture":"福島県","prefecture_kana":"フクシマケン","city":"南会津郡南会津町","city_kana":"ミナミアイヅグンミナミアイヅマチ","town":"小立岩","town_kana":"コダテイワ","prefecture_code":7},"0631":{"zip_code":"9670631","prefecture":"福島県","prefecture_kana":"フクシマケン","city":"南会津郡南会津町","city_kana":"ミナミアイヅグンミナミアイヅマチ","town":"界","town_kana":"サカイ","prefecture_code":7},"0022":{"zip_code":"9670022","prefecture":"福島県","prefecture_kana":"フクシマケン","city":"南会津郡南会津町","city_kana":"ミナミアイヅグンミナミアイヅマチ","town":"塩江","town_kana":"シオエ","prefecture_code":7},"0302":{"zip_code":"9670302","prefecture":"福島県","prefecture_kana":"フクシマケン","city":"南会津郡南会津町","city_kana":"ミナミアイヅグンミナミアイヅマチ","town":"塩ノ原","town_kana":"シオノハラ","prefecture_code":7},"0025":{"zip_code":"9670025","prefecture":"福島県","prefecture_kana":"フクシマケン","city":"南会津郡南会津町","city_kana":"ミナミアイヅグンミナミアイヅマチ","town":"静川","town_kana":"シズカワ","prefecture_code":7},"0634":{"zip_code":"9670634","prefecture":"福島県","prefecture_kana":"フクシマケン","city":"南会津郡南会津町","city_kana":"ミナミアイヅグンミナミアイヅマチ","town":"下山","town_kana":"シモヤマ","prefecture_code":7},"0322":{"zip_code":"9670322","prefecture":"福島県","prefecture_kana":"フクシマケン","city":"南会津郡南会津町","city_kana":"ミナミアイヅグンミナミアイヅマチ","town":"精舎","town_kana":"ショウジャ","prefecture_code":7},"0503":{"zip_code":"9670503","prefecture":"福島県","prefecture_kana":"フクシマケン","city":"南会津郡南会津町","city_kana":"ミナミアイヅグンミナミアイヅマチ","town":"白沢","town_kana":"シラサワ","prefecture_code":7},"0311":{"zip_code":"9670311","prefecture":"福島県","prefecture_kana":"フクシマケン","city":"南会津郡南会津町","city_kana":"ミナミアイヅグンミナミアイヅマチ","town":"新田原","town_kana":"シンデンハラ","prefecture_code":7},"0307":{"zip_code":"9670307","prefecture":"福島県","prefecture_kana":"フクシマケン","city":"南会津郡南会津町","city_kana":"ミナミアイヅグンミナミアイヅマチ","town":"水石","town_kana":"スイシ","prefecture_code":7},"0342":{"zip_code":"9670342","prefecture":"福島県","prefecture_kana":"フクシマケン","city":"南会津郡南会津町","city_kana":"ミナミアイヅグンミナミアイヅマチ","town":"助木生","town_kana":"スケギュウ","prefecture_code":7},"0013":{"zip_code":"9670013","prefecture":"福島県","prefecture_kana":"フクシマケン","city":"南会津郡南会津町","city_kana":"ミナミアイヅグンミナミアイヅマチ","town":"関本","town_kana":"セキモト","prefecture_code":7},"0315":{"zip_code":"9670315","prefecture":"福島県","prefecture_kana":"フクシマケン","city":"南会津郡南会津町","city_kana":"ミナミアイヅグンミナミアイヅマチ","town":"高杖原","town_kana":"タカツエハラ","prefecture_code":7},"0015":{"zip_code":"9670015","prefecture":"福島県","prefecture_kana":"フクシマケン","city":"南会津郡南会津町","city_kana":"ミナミアイヅグンミナミアイヅマチ","town":"滝原","town_kana":"タキノハラ","prefecture_code":7},"0004":{"zip_code":"9670004","prefecture":"福島県","prefecture_kana":"フクシマケン","city":"南会津郡南会津町","city_kana":"ミナミアイヅグンミナミアイヅマチ","town":"田島","town_kana":"タジマ","prefecture_code":7},"0502":{"zip_code":"9670502","prefecture":"福島県","prefecture_kana":"フクシマケン","city":"南会津郡南会津町","city_kana":"ミナミアイヅグンミナミアイヅマチ","town":"多々石","town_kana":"タダイシ","prefecture_code":7},"0301":{"zip_code":"9670301","prefecture":"福島県","prefecture_kana":"フクシマケン","city":"南会津郡南会津町","city_kana":"ミナミアイヅグンミナミアイヅマチ","town":"たのせ","town_kana":"タノセ","prefecture_code":7},"0002":{"zip_code":"9670002","prefecture":"福島県","prefecture_kana":"フクシマケン","city":"南会津郡南会津町","city_kana":"ミナミアイヅグンミナミアイヅマチ","town":"田部","town_kana":"タベ","prefecture_code":7},"0007":{"zip_code":"9670007","prefecture":"福島県","prefecture_kana":"フクシマケン","city":"南会津郡南会津町","city_kana":"ミナミアイヅグンミナミアイヅマチ","town":"丹藤","town_kana":"タンドウ","prefecture_code":7},"0332":{"zip_code":"9670332","prefecture":"福島県","prefecture_kana":"フクシマケン","city":"南会津郡南会津町","city_kana":"ミナミアイヅグンミナミアイヅマチ","town":"角生","town_kana":"ツノウ","prefecture_code":7},"0016":{"zip_code":"9670016","prefecture":"福島県","prefecture_kana":"フクシマケン","city":"南会津郡南会津町","city_kana":"ミナミアイヅグンミナミアイヅマチ","town":"藤生","town_kana":"トウニュウ","prefecture_code":7},"0621":{"zip_code":"9670621","prefecture":"福島県","prefecture_kana":"フクシマケン","city":"南会津郡南会津町","city_kana":"ミナミアイヅグンミナミアイヅマチ","town":"鴇巣","town_kana":"トウノス","prefecture_code":7},"0345":{"zip_code":"9670345","prefecture":"福島県","prefecture_kana":"フクシマケン","city":"南会津郡南会津町","city_kana":"ミナミアイヅグンミナミアイヅマチ","town":"木賊","town_kana":"トクサ","prefecture_code":7},"0305":{"zip_code":"9670305","prefecture":"福島県","prefecture_kana":"フクシマケン","city":"南会津郡南会津町","city_kana":"ミナミアイヅグンミナミアイヅマチ","town":"戸中","town_kana":"トチュウ","prefecture_code":7},"0633":{"zip_code":"9670633","prefecture":"福島県","prefecture_kana":"フクシマケン","city":"南会津郡南会津町","city_kana":"ミナミアイヅグンミナミアイヅマチ","town":"富山","town_kana":"トミヤマ","prefecture_code":7},"0005":{"zip_code":"9670005","prefecture":"福島県","prefecture_kana":"フクシマケン","city":"南会津郡南会津町","city_kana":"ミナミアイヅグンミナミアイヅマチ","town":"中荒井","town_kana":"ナカアライ","prefecture_code":7},"0006":{"zip_code":"9670006","prefecture":"福島県","prefecture_kana":"フクシマケン","city":"南会津郡南会津町","city_kana":"ミナミアイヅグンミナミアイヅマチ","town":"永田","town_kana":"ナガタ","prefecture_code":7},"0001":{"zip_code":"9670001","prefecture":"福島県","prefecture_kana":"フクシマケン","city":"南会津郡南会津町","city_kana":"ミナミアイヅグンミナミアイヅマチ","town":"長野","town_kana":"ナガノ","prefecture_code":7},"0312":{"zip_code":"9670312","prefecture":"福島県","prefecture_kana":"フクシマケン","city":"南会津郡南会津町","city_kana":"ミナミアイヅグンミナミアイヅマチ","town":"熨斗戸","town_kana":"ノシト","prefecture_code":7},"0512":{"zip_code":"9670512","prefecture":"福島県","prefecture_kana":"フクシマケン","city":"南会津郡南会津町","city_kana":"ミナミアイヅグンミナミアイヅマチ","town":"耻風","town_kana":"ハジカゼ","prefecture_code":7},"0504":{"zip_code":"9670504","prefecture":"福島県","prefecture_kana":"フクシマケン","city":"南会津郡南会津町","city_kana":"ミナミアイヅグンミナミアイヅマチ","town":"浜野","town_kana":"ハマノ","prefecture_code":7},"0026":{"zip_code":"9670026","prefecture":"福島県","prefecture_kana":"フクシマケン","city":"南会津郡南会津町","city_kana":"ミナミアイヅグンミナミアイヅマチ","town":"針生","town_kana":"ハリュウ","prefecture_code":7},"0324":{"zip_code":"9670324","prefecture":"福島県","prefecture_kana":"フクシマケン","city":"南会津郡南会津町","city_kana":"ミナミアイヅグンミナミアイヅマチ","town":"番屋","town_kana":"バンヤ","prefecture_code":7},"0023":{"zip_code":"9670023","prefecture":"福島県","prefecture_kana":"フクシマケン","city":"南会津郡南会津町","city_kana":"ミナミアイヅグンミナミアイヅマチ","town":"福米沢","town_kana":"フクメザワ","prefecture_code":7},"0303":{"zip_code":"9670303","prefecture":"福島県","prefecture_kana":"フクシマケン","city":"南会津郡南会津町","city_kana":"ミナミアイヅグンミナミアイヅマチ","town":"福渡","town_kana":"フクワタ","prefecture_code":7},"0501":{"zip_code":"9670501","prefecture":"福島県","prefecture_kana":"フクシマケン","city":"南会津郡南会津町","city_kana":"ミナミアイヅグンミナミアイヅマチ","town":"古町","town_kana":"フルマチ","prefecture_code":7},"0306":{"zip_code":"9670306","prefecture":"福島県","prefecture_kana":"フクシマケン","city":"南会津郡南会津町","city_kana":"ミナミアイヅグンミナミアイヅマチ","town":"前沢","town_kana":"マエザワ","prefecture_code":7},"0304":{"zip_code":"9670304","prefecture":"福島県","prefecture_kana":"フクシマケン","city":"南会津郡南会津町","city_kana":"ミナミアイヅグンミナミアイヅマチ","town":"松戸原","town_kana":"マツトハラ","prefecture_code":7},"0003":{"zip_code":"9670003","prefecture":"福島県","prefecture_kana":"フクシマケン","city":"南会津郡南会津町","city_kana":"ミナミアイヅグンミナミアイヅマチ","town":"水無","town_kana":"ミズナシ","prefecture_code":7},"0602":{"zip_code":"9670602","prefecture":"福島県","prefecture_kana":"フクシマケン","city":"南会津郡南会津町","city_kana":"ミナミアイヅグンミナミアイヅマチ","town":"水根沢","town_kana":"ミズネサワ","prefecture_code":7},"0334":{"zip_code":"9670334","prefecture":"福島県","prefecture_kana":"フクシマケン","city":"南会津郡南会津町","city_kana":"ミナミアイヅグンミナミアイヅマチ","town":"水引","town_kana":"ミズヒキ","prefecture_code":7},"0347":{"zip_code":"9670347","prefecture":"福島県","prefecture_kana":"フクシマケン","city":"南会津郡南会津町","city_kana":"ミナミアイヅグンミナミアイヅマチ","town":"宮里","town_kana":"ミヤザト","prefecture_code":7},"0505":{"zip_code":"9670505","prefecture":"福島県","prefecture_kana":"フクシマケン","city":"南会津郡南会津町","city_kana":"ミナミアイヅグンミナミアイヅマチ","town":"宮沢","town_kana":"ミヤザワ","prefecture_code":7},"0622":{"zip_code":"9670622","prefecture":"福島県","prefecture_kana":"フクシマケン","city":"南会津郡南会津町","city_kana":"ミナミアイヅグンミナミアイヅマチ","town":"宮床","town_kana":"ミヤトコ","prefecture_code":7},"0313":{"zip_code":"9670313","prefecture":"福島県","prefecture_kana":"フクシマケン","city":"南会津郡南会津町","city_kana":"ミナミアイヅグンミナミアイヅマチ","town":"森戸","town_kana":"モリト","prefecture_code":7},"0318":{"zip_code":"9670318","prefecture":"福島県","prefecture_kana":"フクシマケン","city":"南会津郡南会津町","city_kana":"ミナミアイヅグンミナミアイヅマチ","town":"八木ノ沢","town_kana":"ヤギノサワ","prefecture_code":7},"0314":{"zip_code":"9670314","prefecture":"福島県","prefecture_kana":"フクシマケン","city":"南会津郡南会津町","city_kana":"ミナミアイヅグンミナミアイヅマチ","town":"八総","town_kana":"ヤソウ","prefecture_code":7},"0611":{"zip_code":"9670611","prefecture":"福島県","prefecture_kana":"フクシマケン","city":"南会津郡南会津町","city_kana":"ミナミアイヅグンミナミアイヅマチ","town":"山口","town_kana":"ヤマグチ","prefecture_code":7},"0333":{"zip_code":"9670333","prefecture":"福島県","prefecture_kana":"フクシマケン","city":"南会津郡南会津町","city_kana":"ミナミアイヅグンミナミアイヅマチ","town":"湯ノ花","town_kana":"ユノハナ","prefecture_code":7},"0336":{"zip_code":"9670336","prefecture":"福島県","prefecture_kana":"フクシマケン","city":"南会津郡南会津町","city_kana":"ミナミアイヅグンミナミアイヅマチ","town":"吉高","town_kana":"ヨシタカ","prefecture_code":7}}