{"5147":{"zip_code":"9695147","prefecture":"福島県","prefecture_kana":"フクシマケン","city":"会津若松市","city_kana":"アイヅワカマツシ","town":"大戸町芦牧","town_kana":"オオトマチアシノマキ","prefecture_code":7},"5111":{"zip_code":"9695111","prefecture":"福島県","prefecture_kana":"フクシマケン","city":"会津若松市","city_kana":"アイヅワカマツシ","town":"大戸町石村","town_kana":"オオトマチイシムラ","prefecture_code":7},"5133":{"zip_code":"9695133","prefecture":"福島県","prefecture_kana":"フクシマケン","city":"会津若松市","city_kana":"アイヅワカマツシ","town":"大戸町大川","town_kana":"オオトマチオオカワ","prefecture_code":7},"5141":{"zip_code":"9695141","prefecture":"福島県","prefecture_kana":"フクシマケン","city":"会津若松市","city_kana":"アイヅワカマツシ","town":"大戸町小谷川端","town_kana":"オオトマチオヤカワバタ","prefecture_code":7},"5142":{"zip_code":"9695142","prefecture":"福島県","prefecture_kana":"フクシマケン","city":"会津若松市","city_kana":"アイヅワカマツシ","town":"大戸町小谷坂下","town_kana":"オオトマチオヤサカノシタ","prefecture_code":7},"5144":{"zip_code":"9695144","prefecture":"福島県","prefecture_kana":"フクシマケン","city":"会津若松市","city_kana":"アイヅワカマツシ","town":"大戸町小谷西村","town_kana":"オオトマチオヤニシムラ","prefecture_code":7},"5143":{"zip_code":"9695143","prefecture":"福島県","prefecture_kana":"フクシマケン","city":"会津若松市","city_kana":"アイヅワカマツシ","town":"大戸町小谷原","town_kana":"オオトマチオヤハラ","prefecture_code":7},"5145":{"zip_code":"9695145","prefecture":"福島県","prefecture_kana":"フクシマケン","city":"会津若松市","city_kana":"アイヅワカマツシ","town":"大戸町小谷平沢","town_kana":"オオトマチオヤヒラサワ","prefecture_code":7},"5146":{"zip_code":"9695146","prefecture":"福島県","prefecture_kana":"フクシマケン","city":"会津若松市","city_kana":"アイヅワカマツシ","town":"大戸町小谷湯ノ平","town_kana":"オオトマチオヤユノダイラ","prefecture_code":7},"5114":{"zip_code":"9695114","prefecture":"福島県","prefecture_kana":"フクシマケン","city":"会津若松市","city_kana":"アイヅワカマツシ","town":"大戸町上雨屋","town_kana":"オオトマチカミアマヤ","prefecture_code":7},"5132":{"zip_code":"9695132","prefecture":"福島県","prefecture_kana":"フクシマケン","city":"会津若松市","city_kana":"アイヅワカマツシ","town":"大戸町上小塩","town_kana":"オオトマチカミオシュウ","prefecture_code":7},"5123":[{"zip_code":"9695123","prefecture":"福島県","prefecture_kana":"フクシマケン","city":"会津若松市","city_kana":"アイヅワカマツシ","town":"大戸町上三寄大豆田","town_kana":"オオトマチカミミヨリオオマメタ","prefecture_code":7},{"zip_code":"9695123","prefecture":"福島県","prefecture_kana":"フクシマケン","city":"会津若松市","city_kana":"アイヅワカマツシ","town":"大戸町上三寄丙","town_kana":"オオトマチカミミヨリヘイ","prefecture_code":7}],"5122":[{"zip_code":"9695122","prefecture":"福島県","prefecture_kana":"フクシマケン","city":"会津若松市","city_kana":"アイヅワカマツシ","town":"大戸町上三寄乙","town_kana":"オオトマチカミミヨリオツ","prefecture_code":7},{"zip_code":"9695122","prefecture":"福島県","prefecture_kana":"フクシマケン","city":"会津若松市","city_kana":"アイヅワカマツシ","town":"大戸町上三寄香塩","town_kana":"オオトマチカミミヨリカシュウ","prefecture_code":7}],"5121":{"zip_code":"9695121","prefecture":"福島県","prefecture_kana":"フクシマケン","city":"会津若松市","city_kana":"アイヅワカマツシ","town":"大戸町上三寄南原","town_kana":"オオトマチカミミヨリミナミハラ","prefecture_code":7},"5112":{"zip_code":"9695112","prefecture":"福島県","prefecture_kana":"フクシマケン","city":"会津若松市","city_kana":"アイヅワカマツシ","town":"大戸町下雨屋","town_kana":"オオトマチシモアマヤ","prefecture_code":7},"5131":{"zip_code":"9695131","prefecture":"福島県","prefecture_kana":"フクシマケン","city":"会津若松市","city_kana":"アイヅワカマツシ","town":"大戸町高川","town_kana":"オオトマチタカガワ","prefecture_code":7},"5113":{"zip_code":"9695113","prefecture":"福島県","prefecture_kana":"フクシマケン","city":"会津若松市","city_kana":"アイヅワカマツシ","town":"大戸町宮内","town_kana":"オオトマチミヤウチ","prefecture_code":7},"3461":{"zip_code":"9693461","prefecture":"福島県","prefecture_kana":"フクシマケン","city":"会津若松市","city_kana":"アイヅワカマツシ","town":"河東町浅山","town_kana":"カワヒガシマチアサヤマ","prefecture_code":7},"3411":{"zip_code":"9693411","prefecture":"福島県","prefecture_kana":"フクシマケン","city":"会津若松市","city_kana":"アイヅワカマツシ","town":"河東町大田原","town_kana":"カワヒガシマチオオタワラ","prefecture_code":7},"3401":{"zip_code":"9693401","prefecture":"福島県","prefecture_kana":"フクシマケン","city":"会津若松市","city_kana":"アイヅワカマツシ","town":"河東町岡田","town_kana":"カワヒガシマチオカダ","prefecture_code":7},"3462":{"zip_code":"9693462","prefecture":"福島県","prefecture_kana":"フクシマケン","city":"会津若松市","city_kana":"アイヅワカマツシ","town":"河東町金田","town_kana":"カワヒガシマチカネダ","prefecture_code":7},"3421":{"zip_code":"9693421","prefecture":"福島県","prefecture_kana":"フクシマケン","city":"会津若松市","city_kana":"アイヅワカマツシ","town":"河東町熊野堂","town_kana":"カワヒガシマチクマノドウ","prefecture_code":7},"3463":{"zip_code":"9693463","prefecture":"福島県","prefecture_kana":"フクシマケン","city":"会津若松市","city_kana":"アイヅワカマツシ","town":"河東町倉橋","town_kana":"カワヒガシマチクラハシ","prefecture_code":7},"3464":{"zip_code":"9693464","prefecture":"福島県","prefecture_kana":"フクシマケン","city":"会津若松市","city_kana":"アイヅワカマツシ","town":"河東町工業団地","town_kana":"カワヒガシマチコウギョウダンチ","prefecture_code":7},"3422":{"zip_code":"9693422","prefecture":"福島県","prefecture_kana":"フクシマケン","city":"会津若松市","city_kana":"アイヅワカマツシ","town":"河東町広野","town_kana":"カワヒガシマチコウヤ","prefecture_code":7},"3481":{"zip_code":"9693481","prefecture":"福島県","prefecture_kana":"フクシマケン","city":"会津若松市","city_kana":"アイヅワカマツシ","town":"河東町郡山","town_kana":"カワヒガシマチコオリヤマ","prefecture_code":7},"3482":{"zip_code":"9693482","prefecture":"福島県","prefecture_kana":"フクシマケン","city":"会津若松市","city_kana":"アイヅワカマツシ","town":"河東町谷沢","town_kana":"カワヒガシマチタニサワ","prefecture_code":7},"3451":{"zip_code":"9693451","prefecture":"福島県","prefecture_kana":"フクシマケン","city":"会津若松市","city_kana":"アイヅワカマツシ","town":"河東町八田","town_kana":"カワヒガシマチハッタ","prefecture_code":7},"3431":{"zip_code":"9693431","prefecture":"福島県","prefecture_kana":"フクシマケン","city":"会津若松市","city_kana":"アイヅワカマツシ","town":"河東町東長原","town_kana":"カワヒガシマチヒガシナガハラ","prefecture_code":7},"3471":{"zip_code":"9693471","prefecture":"福島県","prefecture_kana":"フクシマケン","city":"会津若松市","city_kana":"アイヅワカマツシ","town":"河東町広田","town_kana":"カワヒガシマチヒロタ","prefecture_code":7},"3402":{"zip_code":"9693402","prefecture":"福島県","prefecture_kana":"フクシマケン","city":"会津若松市","city_kana":"アイヅワカマツシ","town":"河東町福島","town_kana":"カワヒガシマチフクシマ","prefecture_code":7},"3441":{"zip_code":"9693441","prefecture":"福島県","prefecture_kana":"フクシマケン","city":"会津若松市","city_kana":"アイヅワカマツシ","town":"河東町南高野","town_kana":"カワヒガシマチミナミコウヤ","prefecture_code":7},"3412":{"zip_code":"9693412","prefecture":"福島県","prefecture_kana":"フクシマケン","city":"会津若松市","city_kana":"アイヅワカマツシ","town":"河東町代田","town_kana":"カワヒガシマチヨダ","prefecture_code":7},"6002":{"zip_code":"9696002","prefecture":"福島県","prefecture_kana":"フクシマケン","city":"会津若松市","city_kana":"アイヅワカマツシ","town":"北会津町麻生新田","town_kana":"キタアイヅマチアソウシンデン","prefecture_code":7},"6008":{"zip_code":"9696008","prefecture":"福島県","prefecture_kana":"フクシマケン","city":"会津若松市","city_kana":"アイヅワカマツシ","town":"北会津町大島","town_kana":"キタアイヅマチオオシマ","prefecture_code":7},"6182":{"zip_code":"9696182","prefecture":"福島県","prefecture_kana":"フクシマケン","city":"会津若松市","city_kana":"アイヅワカマツシ","town":"北会津町柏原","town_kana":"キタアイヅマチカシワバラ","prefecture_code":7},"6012":{"zip_code":"9696012","prefecture":"福島県","prefecture_kana":"フクシマケン","city":"会津若松市","city_kana":"アイヅワカマツシ","town":"北会津町金屋","town_kana":"キタアイヅマチカナヤ","prefecture_code":7},"6183":{"zip_code":"9696183","prefecture":"福島県","prefecture_kana":"フクシマケン","city":"会津若松市","city_kana":"アイヅワカマツシ","town":"北会津町上米塚","town_kana":"キタアイヅマチカミヨネヅカ","prefecture_code":7},"6007":{"zip_code":"9696007","prefecture":"福島県","prefecture_kana":"フクシマケン","city":"会津若松市","city_kana":"アイヅワカマツシ","town":"北会津町北後庵","town_kana":"キタアイヅマチキタゴアン","prefecture_code":7},"6189":{"zip_code":"9696189","prefecture":"福島県","prefecture_kana":"フクシマケン","city":"会津若松市","city_kana":"アイヅワカマツシ","town":"北会津町小松","town_kana":"キタアイヅマチコマツ","prefecture_code":7},"6184":{"zip_code":"9696184","prefecture":"福島県","prefecture_kana":"フクシマケン","city":"会津若松市","city_kana":"アイヅワカマツシ","town":"北会津町三本松","town_kana":"キタアイヅマチサンボンマツ","prefecture_code":7},"6013":{"zip_code":"9696013","prefecture":"福島県","prefecture_kana":"フクシマケン","city":"会津若松市","city_kana":"アイヅワカマツシ","town":"北会津町下野","town_kana":"キタアイヅマチシモノ","prefecture_code":7},"6185":{"zip_code":"9696185","prefecture":"福島県","prefecture_kana":"フクシマケン","city":"会津若松市","city_kana":"アイヅワカマツシ","town":"北会津町下米塚","town_kana":"キタアイヅマチシモヨネヅカ","prefecture_code":7},"6006":{"zip_code":"9696006","prefecture":"福島県","prefecture_kana":"フクシマケン","city":"会津若松市","city_kana":"アイヅワカマツシ","town":"北会津町新在家","town_kana":"キタアイヅマチシンザイケ","prefecture_code":7},"6001":{"zip_code":"9696001","prefecture":"福島県","prefecture_kana":"フクシマケン","city":"会津若松市","city_kana":"アイヅワカマツシ","town":"北会津町天満","town_kana":"キタアイヅマチテンマン","prefecture_code":7},"6003":{"zip_code":"9696003","prefecture":"福島県","prefecture_kana":"フクシマケン","city":"会津若松市","city_kana":"アイヅワカマツシ","town":"北会津町西麻生","town_kana":"キタアイヅマチニシアソウ","prefecture_code":7},"6011":{"zip_code":"9696011","prefecture":"福島県","prefecture_kana":"フクシマケン","city":"会津若松市","city_kana":"アイヅワカマツシ","town":"北会津町西後庵","town_kana":"キタアイヅマチニシゴアン","prefecture_code":7},"6188":{"zip_code":"9696188","prefecture":"福島県","prefecture_kana":"フクシマケン","city":"会津若松市","city_kana":"アイヅワカマツシ","town":"北会津町東小松","town_kana":"キタアイヅマチヒガシコマツ","prefecture_code":7},"6004":{"zip_code":"9696004","prefecture":"福島県","prefecture_kana":"フクシマケン","city":"会津若松市","city_kana":"アイヅワカマツシ","town":"北会津町古麻生","town_kana":"キタアイヅマチフルアソウ","prefecture_code":7},"6186":{"zip_code":"9696186","prefecture":"福島県","prefecture_kana":"フクシマケン","city":"会津若松市","city_kana":"アイヅワカマツシ","town":"北会津町古館","town_kana":"キタアイヅマチフルダテ","prefecture_code":7},"6005":{"zip_code":"9696005","prefecture":"福島県","prefecture_kana":"フクシマケン","city":"会津若松市","city_kana":"アイヅワカマツシ","town":"北会津町松野","town_kana":"キタアイヅマチマツノ","prefecture_code":7},"6015":{"zip_code":"9696015","prefecture":"福島県","prefecture_kana":"フクシマケン","city":"会津若松市","city_kana":"アイヅワカマツシ","town":"北会津町水季の里","town_kana":"キタアイヅマチミズキノサト","prefecture_code":7},"6180":{"zip_code":"9696180","prefecture":"福島県","prefecture_kana":"フクシマケン","city":"会津若松市","city_kana":"アイヅワカマツシ","town":"北会津町両堂","town_kana":"キタアイヅマチリョウドウ","prefecture_code":7},"0301":{"zip_code":"9690301","prefecture":"福島県","prefecture_kana":"フクシマケン","city":"白河市","city_kana":"シラカワシ","town":"大信上新城","town_kana":"タイシンカミシンジョウ","prefecture_code":7},"0302":{"zip_code":"9690302","prefecture":"福島県","prefecture_kana":"フクシマケン","city":"白河市","city_kana":"シラカワシ","town":"大信隈戸","town_kana":"タイシンクマド","prefecture_code":7},"0303":{"zip_code":"9690303","prefecture":"福島県","prefecture_kana":"フクシマケン","city":"白河市","city_kana":"シラカワシ","town":"大信下小屋","town_kana":"タイシンシモコヤ","prefecture_code":7},"0304":{"zip_code":"9690304","prefecture":"福島県","prefecture_kana":"フクシマケン","city":"白河市","city_kana":"シラカワシ","town":"大信下新城","town_kana":"タイシンシモシンジョウ","prefecture_code":7},"0305":{"zip_code":"9690305","prefecture":"福島県","prefecture_kana":"フクシマケン","city":"白河市","city_kana":"シラカワシ","town":"大信田園町府","town_kana":"タイシンデンエンチョウフ","prefecture_code":7},"0306":{"zip_code":"9690306","prefecture":"福島県","prefecture_kana":"フクシマケン","city":"白河市","city_kana":"シラカワシ","town":"大信豊地","town_kana":"タイシントヨチ","prefecture_code":7},"0307":{"zip_code":"9690307","prefecture":"福島県","prefecture_kana":"フクシマケン","city":"白河市","city_kana":"シラカワシ","town":"大信中新城","town_kana":"タイシンナカシンジョウ","prefecture_code":7},"0308":{"zip_code":"9690308","prefecture":"福島県","prefecture_kana":"フクシマケン","city":"白河市","city_kana":"シラカワシ","town":"大信増見","town_kana":"タイシンマスミ","prefecture_code":7},"0309":{"zip_code":"9690309","prefecture":"福島県","prefecture_kana":"フクシマケン","city":"白河市","city_kana":"シラカワシ","town":"大信町屋","town_kana":"タイシンマチヤ","prefecture_code":7},"3538":{"zip_code":"9693538","prefecture":"福島県","prefecture_kana":"フクシマケン","city":"喜多方市","city_kana":"キタカタシ","town":"塩川町天沼","town_kana":"シオカワマチアマヌマ","prefecture_code":7},"3514":{"zip_code":"9693514","prefecture":"福島県","prefecture_kana":"フクシマケン","city":"喜多方市","city_kana":"キタカタシ","town":"塩川町新町","town_kana":"シオカワマチアラマチ","prefecture_code":7},"3523":[{"zip_code":"9693523","prefecture":"福島県","prefecture_kana":"フクシマケン","city":"喜多方市","city_kana":"キタカタシ","town":"塩川町石橋","town_kana":"シオカワマチイシバシ","prefecture_code":7},{"zip_code":"9693523","prefecture":"福島県","prefecture_kana":"フクシマケン","city":"喜多方市","city_kana":"キタカタシ","town":"塩川町反町","town_kana":"シオカワマチソリチョウ","prefecture_code":7}],"3532":[{"zip_code":"9693532","prefecture":"福島県","prefecture_kana":"フクシマケン","city":"喜多方市","city_kana":"キタカタシ","town":"塩川町大在家","town_kana":"シオカワマチオオザイケ","prefecture_code":7},{"zip_code":"9693532","prefecture":"福島県","prefecture_kana":"フクシマケン","city":"喜多方市","city_kana":"キタカタシ","town":"塩川町経塚","town_kana":"シオカワマチキョウヅカ","prefecture_code":7},{"zip_code":"9693532","prefecture":"福島県","prefecture_kana":"フクシマケン","city":"喜多方市","city_kana":"キタカタシ","town":"塩川町小府根","town_kana":"シオカワマチコフネ","prefecture_code":7},{"zip_code":"9693532","prefecture":"福島県","prefecture_kana":"フクシマケン","city":"喜多方市","city_kana":"キタカタシ","town":"塩川町高道","town_kana":"シオカワマチタカミチ","prefecture_code":7},{"zip_code":"9693532","prefecture":"福島県","prefecture_kana":"フクシマケン","city":"喜多方市","city_kana":"キタカタシ","town":"塩川町藤ノ木","town_kana":"シオカワマチフジノキ","prefecture_code":7}],"3536":{"zip_code":"9693536","prefecture":"福島県","prefecture_kana":"フクシマケン","city":"喜多方市","city_kana":"キタカタシ","town":"塩川町大田木","town_kana":"シオカワマチオオタキ","prefecture_code":7},"3521":[{"zip_code":"9693521","prefecture":"福島県","prefecture_kana":"フクシマケン","city":"喜多方市","city_kana":"キタカタシ","town":"塩川町岡ノ前","town_kana":"シオカワマチオカノマエ","prefecture_code":7},{"zip_code":"9693521","prefecture":"福島県","prefecture_kana":"フクシマケン","city":"喜多方市","city_kana":"キタカタシ","town":"塩川町東岡","town_kana":"シオカワマチヒガシオカ","prefecture_code":7},{"zip_code":"9693521","prefecture":"福島県","prefecture_kana":"フクシマケン","city":"喜多方市","city_kana":"キタカタシ","town":"塩川町身神","town_kana":"シオカワマチミカミ","prefecture_code":7}],"3535":{"zip_code":"9693535","prefecture":"福島県","prefecture_kana":"フクシマケン","city":"喜多方市","city_kana":"キタカタシ","town":"塩川町会知","town_kana":"シオカワマチカイチ","prefecture_code":7},"3505":{"zip_code":"9693505","prefecture":"福島県","prefecture_kana":"フクシマケン","city":"喜多方市","city_kana":"キタカタシ","town":"塩川町金橋","town_kana":"シオカワマチカナハシ","prefecture_code":7},"3506":{"zip_code":"9693506","prefecture":"福島県","prefecture_kana":"フクシマケン","city":"喜多方市","city_kana":"キタカタシ","town":"塩川町窪","town_kana":"シオカワマチクボ","prefecture_code":7},"3539":[{"zip_code":"9693539","prefecture":"福島県","prefecture_kana":"フクシマケン","city":"喜多方市","city_kana":"キタカタシ","town":"塩川町源太屋敷","town_kana":"シオカワマチゲンダヤシキ","prefecture_code":7},{"zip_code":"9693539","prefecture":"福島県","prefecture_kana":"フクシマケン","city":"喜多方市","city_kana":"キタカタシ","town":"塩川町吉沖","town_kana":"シオカワマチヨシオキ","prefecture_code":7}],"3525":[{"zip_code":"9693525","prefecture":"福島県","prefecture_kana":"フクシマケン","city":"喜多方市","city_kana":"キタカタシ","town":"塩川町黄金田","town_kana":"シオカワマチコガネダ","prefecture_code":7},{"zip_code":"9693525","prefecture":"福島県","prefecture_kana":"フクシマケン","city":"喜多方市","city_kana":"キタカタシ","town":"塩川町諏訪前","town_kana":"シオカワマチスワマエ","prefecture_code":7}],"3503":{"zip_code":"9693503","prefecture":"福島県","prefecture_kana":"フクシマケン","city":"喜多方市","city_kana":"キタカタシ","town":"塩川町五合","town_kana":"シオカワマチゴゴウ","prefecture_code":7},"3527":{"zip_code":"9693527","prefecture":"福島県","prefecture_kana":"フクシマケン","city":"喜多方市","city_kana":"キタカタシ","town":"塩川町御殿場","town_kana":"シオカワマチゴテンバ","prefecture_code":7},"3537":{"zip_code":"9693537","prefecture":"福島県","prefecture_kana":"フクシマケン","city":"喜多方市","city_kana":"キタカタシ","town":"塩川町四奈川","town_kana":"シオカワマチシナガワ","prefecture_code":7},"3524":[{"zip_code":"9693524","prefecture":"福島県","prefecture_kana":"フクシマケン","city":"喜多方市","city_kana":"キタカタシ","town":"塩川町清水岸","town_kana":"シオカワマチシミズギシ","prefecture_code":7},{"zip_code":"9693524","prefecture":"福島県","prefecture_kana":"フクシマケン","city":"喜多方市","city_kana":"キタカタシ","town":"塩川町竹ノ花","town_kana":"シオカワマチタケノハナ","prefecture_code":7},{"zip_code":"9693524","prefecture":"福島県","prefecture_kana":"フクシマケン","city":"喜多方市","city_kana":"キタカタシ","town":"塩川町舘ノ内","town_kana":"シオカワマチタテノウチ","prefecture_code":7}],"3522":{"zip_code":"9693522","prefecture":"福島県","prefecture_kana":"フクシマケン","city":"喜多方市","city_kana":"キタカタシ","town":"塩川町新丁","town_kana":"シオカワマチシンチョウ","prefecture_code":7},"3526":{"zip_code":"9693526","prefecture":"福島県","prefecture_kana":"フクシマケン","city":"喜多方市","city_kana":"キタカタシ","town":"塩川町諏訪町","town_kana":"シオカワマチスワチョウ","prefecture_code":7},"3534":[{"zip_code":"9693534","prefecture":"福島県","prefecture_kana":"フクシマケン","city":"喜多方市","city_kana":"キタカタシ","town":"塩川町遠田","town_kana":"シオカワマチトオタ","prefecture_code":7},{"zip_code":"9693534","prefecture":"福島県","prefecture_kana":"フクシマケン","city":"喜多方市","city_kana":"キタカタシ","town":"塩川町西ノ新田","town_kana":"シオカワマチニシノシンデン","prefecture_code":7}],"3502":{"zip_code":"9693502","prefecture":"福島県","prefecture_kana":"フクシマケン","city":"喜多方市","city_kana":"キタカタシ","town":"塩川町常世","town_kana":"シオカワマチトコヨ","prefecture_code":7},"3513":{"zip_code":"9693513","prefecture":"福島県","prefecture_kana":"フクシマケン","city":"喜多方市","city_kana":"キタカタシ","town":"塩川町中町","town_kana":"シオカワマチナカマチ","prefecture_code":7},"3504":{"zip_code":"9693504","prefecture":"福島県","prefecture_kana":"フクシマケン","city":"喜多方市","city_kana":"キタカタシ","town":"塩川町中屋沢","town_kana":"シオカワマチナカヤザワ","prefecture_code":7},"3531":{"zip_code":"9693531","prefecture":"福島県","prefecture_kana":"フクシマケン","city":"喜多方市","city_kana":"キタカタシ","town":"塩川町新井田谷地","town_kana":"シオカワマチニイダヤヂ","prefecture_code":7},"3533":{"zip_code":"9693533","prefecture":"福島県","prefecture_kana":"フクシマケン","city":"喜多方市","city_kana":"キタカタシ","town":"塩川町新江木","town_kana":"シオカワマチニエキ","prefecture_code":7},"3512":{"zip_code":"9693512","prefecture":"福島県","prefecture_kana":"フクシマケン","city":"喜多方市","city_kana":"キタカタシ","town":"塩川町東栄町","town_kana":"シオカワマチヒガシサカエマチ","prefecture_code":7},"3511":{"zip_code":"9693511","prefecture":"福島県","prefecture_kana":"フクシマケン","city":"喜多方市","city_kana":"キタカタシ","town":"塩川町町北","town_kana":"シオカワマチマチキタ","prefecture_code":7},"3501":{"zip_code":"9693501","prefecture":"福島県","prefecture_kana":"フクシマケン","city":"喜多方市","city_kana":"キタカタシ","town":"塩川町三吉","town_kana":"シオカワマチミヨシ","prefecture_code":7},"3515":{"zip_code":"9693515","prefecture":"福島県","prefecture_kana":"フクシマケン","city":"喜多方市","city_kana":"キタカタシ","town":"塩川町米沢町","town_kana":"シオカワマチヨネザワチョウ","prefecture_code":7},"4303":{"zip_code":"9694303","prefecture":"福島県","prefecture_kana":"フクシマケン","city":"喜多方市","city_kana":"キタカタシ","town":"高郷町揚津","town_kana":"タカサトマチアガツ","prefecture_code":7},"4312":{"zip_code":"9694312","prefecture":"福島県","prefecture_kana":"フクシマケン","city":"喜多方市","city_kana":"キタカタシ","town":"高郷町池ノ原","town_kana":"タカサトマチイケノハラ","prefecture_code":7},"4304":{"zip_code":"9694304","prefecture":"福島県","prefecture_kana":"フクシマケン","city":"喜多方市","city_kana":"キタカタシ","town":"高郷町磐見","town_kana":"タカサトマチイワミ","prefecture_code":7},"4316":{"zip_code":"9694316","prefecture":"福島県","prefecture_kana":"フクシマケン","city":"喜多方市","city_kana":"キタカタシ","town":"高郷町大田賀","town_kana":"タカサトマチオオタガ","prefecture_code":7},"4301":{"zip_code":"9694301","prefecture":"福島県","prefecture_kana":"フクシマケン","city":"喜多方市","city_kana":"キタカタシ","town":"高郷町上郷","town_kana":"タカサトマチカミゴウ","prefecture_code":7},"4314":{"zip_code":"9694314","prefecture":"福島県","prefecture_kana":"フクシマケン","city":"喜多方市","city_kana":"キタカタシ","town":"高郷町川井","town_kana":"タカサトマチカワイ","prefecture_code":7},"4313":{"zip_code":"9694313","prefecture":"福島県","prefecture_kana":"フクシマケン","city":"喜多方市","city_kana":"キタカタシ","town":"高郷町塩坪","town_kana":"タカサトマチシオツボ","prefecture_code":7},"4315":{"zip_code":"9694315","prefecture":"福島県","prefecture_kana":"フクシマケン","city":"喜多方市","city_kana":"キタカタシ","town":"高郷町夏井","town_kana":"タカサトマチナツイ","prefecture_code":7},"4311":{"zip_code":"9694311","prefecture":"福島県","prefecture_kana":"フクシマケン","city":"喜多方市","city_kana":"キタカタシ","town":"高郷町西羽賀","town_kana":"タカサトマチニシハガ","prefecture_code":7},"4302":{"zip_code":"9694302","prefecture":"福島県","prefecture_kana":"フクシマケン","city":"喜多方市","city_kana":"キタカタシ","town":"高郷町峯","town_kana":"タカサトマチミネ","prefecture_code":7},"4107":{"zip_code":"9694107","prefecture":"福島県","prefecture_kana":"フクシマケン","city":"喜多方市","city_kana":"キタカタシ","town":"山都町相川","town_kana":"ヤマトマチアイカワ","prefecture_code":7},"4106":{"zip_code":"9694106","prefecture":"福島県","prefecture_kana":"フクシマケン","city":"喜多方市","city_kana":"キタカタシ","town":"山都町朝倉","town_kana":"ヤマトマチアサクラ","prefecture_code":7},"4147":{"zip_code":"9694147","prefecture":"福島県","prefecture_kana":"フクシマケン","city":"喜多方市","city_kana":"キタカタシ","town":"山都町石堀古","town_kana":"ヤマトマチイシボツコ","prefecture_code":7},"4102":{"zip_code":"9694102","prefecture":"福島県","prefecture_kana":"フクシマケン","city":"喜多方市","city_kana":"キタカタシ","town":"山都町一川","town_kana":"ヤマトマチイチカワ","prefecture_code":7},"4108":{"zip_code":"9694108","prefecture":"福島県","prefecture_kana":"フクシマケン","city":"喜多方市","city_kana":"キタカタシ","town":"山都町一ノ木","town_kana":"ヤマトマチイチノキ","prefecture_code":7},"4155":{"zip_code":"9694155","prefecture":"福島県","prefecture_kana":"フクシマケン","city":"喜多方市","city_kana":"キタカタシ","town":"山都町入海","town_kana":"ヤマトマチイリウミ","prefecture_code":7},"4148":{"zip_code":"9694148","prefecture":"福島県","prefecture_kana":"フクシマケン","city":"喜多方市","city_kana":"キタカタシ","town":"山都町岩渕","town_kana":"ヤマトマチイワブチ","prefecture_code":7},"4113":{"zip_code":"9694113","prefecture":"福島県","prefecture_kana":"フクシマケン","city":"喜多方市","city_kana":"キタカタシ","town":"山都町上ノ原道西","town_kana":"ヤマトマチウエノハラミチニシ","prefecture_code":7},"4112":{"zip_code":"9694112","prefecture":"福島県","prefecture_kana":"フクシマケン","city":"喜多方市","city_kana":"キタカタシ","town":"山都町上ノ原道東","town_kana":"ヤマトマチウエノハラミチヒガシ","prefecture_code":7},"4152":{"zip_code":"9694152","prefecture":"福島県","prefecture_kana":"フクシマケン","city":"喜多方市","city_kana":"キタカタシ","town":"山都町上ノ山平","town_kana":"ヤマトマチウエノヤマタイラ","prefecture_code":7},"4126":{"zip_code":"9694126","prefecture":"福島県","prefecture_kana":"フクシマケン","city":"喜多方市","city_kana":"キタカタシ","town":"山都町馬放場","town_kana":"ヤマトマチウマハナシバ","prefecture_code":7},"4119":{"zip_code":"9694119","prefecture":"福島県","prefecture_kana":"フクシマケン","city":"喜多方市","city_kana":"キタカタシ","town":"山都町江戸塚","town_kana":"ヤマトマチエドツカ","prefecture_code":7},"4121":{"zip_code":"9694121","prefecture":"福島県","prefecture_kana":"フクシマケン","city":"喜多方市","city_kana":"キタカタシ","town":"山都町太田","town_kana":"ヤマトマチオオタ","prefecture_code":7},"4167":{"zip_code":"9694167","prefecture":"福島県","prefecture_kana":"フクシマケン","city":"喜多方市","city_kana":"キタカタシ","town":"山都町大林","town_kana":"ヤマトマチオオバヤシ","prefecture_code":7},"4151":{"zip_code":"9694151","prefecture":"福島県","prefecture_kana":"フクシマケン","city":"喜多方市","city_kana":"キタカタシ","town":"山都町大山中","town_kana":"ヤマトマチオオヤマナカ","prefecture_code":7},"4164":{"zip_code":"9694164","prefecture":"福島県","prefecture_kana":"フクシマケン","city":"喜多方市","city_kana":"キタカタシ","town":"山都町上石打場","town_kana":"ヤマトマチカミイシウチバ","prefecture_code":7},"4162":{"zip_code":"9694162","prefecture":"福島県","prefecture_kana":"フクシマケン","city":"喜多方市","city_kana":"キタカタシ","town":"山都町上新田","town_kana":"ヤマトマチカミシンデン","prefecture_code":7},"4122":{"zip_code":"9694122","prefecture":"福島県","prefecture_kana":"フクシマケン","city":"喜多方市","city_kana":"キタカタシ","town":"山都町木曽","town_kana":"ヤマトマチキソ","prefecture_code":7},"4139":{"zip_code":"9694139","prefecture":"福島県","prefecture_kana":"フクシマケン","city":"喜多方市","city_kana":"キタカタシ","town":"山都町北松ノ前","town_kana":"ヤマトマチキタマツノマエ","prefecture_code":7},"4127":{"zip_code":"9694127","prefecture":"福島県","prefecture_kana":"フクシマケン","city":"喜多方市","city_kana":"キタカタシ","town":"山都町久祢花","town_kana":"ヤマトマチクヤバナ","prefecture_code":7},"4111":{"zip_code":"9694111","prefecture":"福島県","prefecture_kana":"フクシマケン","city":"喜多方市","city_kana":"キタカタシ","town":"山都町蔵ノ後","town_kana":"ヤマトマチクラノウシロ","prefecture_code":7},"4115":{"zip_code":"9694115","prefecture":"福島県","prefecture_kana":"フクシマケン","city":"喜多方市","city_kana":"キタカタシ","town":"山都町五十苅","town_kana":"ヤマトマチゴジュウカリ","prefecture_code":7},"4103":{"zip_code":"9694103","prefecture":"福島県","prefecture_kana":"フクシマケン","city":"喜多方市","city_kana":"キタカタシ","town":"山都町木幡","town_kana":"ヤマトマチコハタ","prefecture_code":7},"4101":{"zip_code":"9694101","prefecture":"福島県","prefecture_kana":"フクシマケン","city":"喜多方市","city_kana":"キタカタシ","town":"山都町小舟寺","town_kana":"ヤマトマチコフナジ","prefecture_code":7},"4157":{"zip_code":"9694157","prefecture":"福島県","prefecture_kana":"フクシマケン","city":"喜多方市","city_kana":"キタカタシ","town":"山都町小松","town_kana":"ヤマトマチコマツ","prefecture_code":7},"4114":{"zip_code":"9694114","prefecture":"福島県","prefecture_kana":"フクシマケン","city":"喜多方市","city_kana":"キタカタシ","town":"山都町小山","town_kana":"ヤマトマチコヤマ","prefecture_code":7},"4166":{"zip_code":"9694166","prefecture":"福島県","prefecture_kana":"フクシマケン","city":"喜多方市","city_kana":"キタカタシ","town":"山都町沢尻","town_kana":"ヤマトマチサワジリ","prefecture_code":7},"4143":{"zip_code":"9694143","prefecture":"福島県","prefecture_kana":"フクシマケン","city":"喜多方市","city_kana":"キタカタシ","town":"山都町沢田","town_kana":"ヤマトマチサワタ","prefecture_code":7},"4132":{"zip_code":"9694132","prefecture":"福島県","prefecture_kana":"フクシマケン","city":"喜多方市","city_kana":"キタカタシ","town":"山都町三ノ宮","town_kana":"ヤマトマチサンノミヤ","prefecture_code":7},"4116":{"zip_code":"9694116","prefecture":"福島県","prefecture_kana":"フクシマケン","city":"喜多方市","city_kana":"キタカタシ","town":"山都町清水上","town_kana":"ヤマトマチシミズウエ","prefecture_code":7},"4117":{"zip_code":"9694117","prefecture":"福島県","prefecture_kana":"フクシマケン","city":"喜多方市","city_kana":"キタカタシ","town":"山都町清水尻","town_kana":"ヤマトマチシミズジリ","prefecture_code":7},"4163":{"zip_code":"9694163","prefecture":"福島県","prefecture_kana":"フクシマケン","city":"喜多方市","city_kana":"キタカタシ","town":"山都町下石打場","town_kana":"ヤマトマチシモイシウチバ","prefecture_code":7},"4153":{"zip_code":"9694153","prefecture":"福島県","prefecture_kana":"フクシマケン","city":"喜多方市","city_kana":"キタカタシ","town":"山都町下殿戸","town_kana":"ヤマトマチシモトノト","prefecture_code":7},"4138":{"zip_code":"9694138","prefecture":"福島県","prefecture_kana":"フクシマケン","city":"喜多方市","city_kana":"キタカタシ","town":"山都町蛇崩","town_kana":"ヤマトマチジャクズレ","prefecture_code":7},"4154":{"zip_code":"9694154","prefecture":"福島県","prefecture_kana":"フクシマケン","city":"喜多方市","city_kana":"キタカタシ","town":"山都町舘原","town_kana":"ヤマトマチタテノハラ","prefecture_code":7},"4141":{"zip_code":"9694141","prefecture":"福島県","prefecture_kana":"フクシマケン","city":"喜多方市","city_kana":"キタカタシ","town":"山都町田向","town_kana":"ヤマトマチタムカイ","prefecture_code":7},"4144":{"zip_code":"9694144","prefecture":"福島県","prefecture_kana":"フクシマケン","city":"喜多方市","city_kana":"キタカタシ","town":"山都町殿戸","town_kana":"ヤマトマチトノト","prefecture_code":7},"4161":{"zip_code":"9694161","prefecture":"福島県","prefecture_kana":"フクシマケン","city":"喜多方市","city_kana":"キタカタシ","town":"山都町中石打場","town_kana":"ヤマトマチナカイシウチバ","prefecture_code":7},"4123":{"zip_code":"9694123","prefecture":"福島県","prefecture_kana":"フクシマケン","city":"喜多方市","city_kana":"キタカタシ","town":"山都町中新田","town_kana":"ヤマトマチナカシンデン","prefecture_code":7},"4137":{"zip_code":"9694137","prefecture":"福島県","prefecture_kana":"フクシマケン","city":"喜多方市","city_kana":"キタカタシ","town":"山都町中野","town_kana":"ヤマトマチナカノ","prefecture_code":7},"4142":{"zip_code":"9694142","prefecture":"福島県","prefecture_kana":"フクシマケン","city":"喜多方市","city_kana":"キタカタシ","town":"山都町七十苅","town_kana":"ヤマトマチナナジュウガリ","prefecture_code":7},"4156":{"zip_code":"9694156","prefecture":"福島県","prefecture_kana":"フクシマケン","city":"喜多方市","city_kana":"キタカタシ","town":"山都町西川","town_kana":"ヤマトマチニシカワ","prefecture_code":7},"4145":{"zip_code":"9694145","prefecture":"福島県","prefecture_kana":"フクシマケン","city":"喜多方市","city_kana":"キタカタシ","town":"山都町西原","town_kana":"ヤマトマチニシハラ","prefecture_code":7},"4124":{"zip_code":"9694124","prefecture":"福島県","prefecture_kana":"フクシマケン","city":"喜多方市","city_kana":"キタカタシ","town":"山都町墓ノ後","town_kana":"ヤマトマチハカノアト","prefecture_code":7},"4146":{"zip_code":"9694146","prefecture":"福島県","prefecture_kana":"フクシマケン","city":"喜多方市","city_kana":"キタカタシ","town":"山都町広古屋敷","town_kana":"ヤマトマチヒロコヤシキ","prefecture_code":7},"4135":{"zip_code":"9694135","prefecture":"福島県","prefecture_kana":"フクシマケン","city":"喜多方市","city_kana":"キタカタシ","town":"山都町広中新田","town_kana":"ヤマトマチヒロナカシンデン","prefecture_code":7},"4131":{"zip_code":"9694131","prefecture":"福島県","prefecture_kana":"フクシマケン","city":"喜多方市","city_kana":"キタカタシ","town":"山都町広野","town_kana":"ヤマトマチヒロノ","prefecture_code":7},"4133":{"zip_code":"9694133","prefecture":"福島県","prefecture_kana":"フクシマケン","city":"喜多方市","city_kana":"キタカタシ","town":"山都町広葎田","town_kana":"ヤマトマチヒロムクロダ","prefecture_code":7},"4118":{"zip_code":"9694118","prefecture":"福島県","prefecture_kana":"フクシマケン","city":"喜多方市","city_kana":"キタカタシ","town":"山都町古屋敷","town_kana":"ヤマトマチフルヤシキ","prefecture_code":7},"4104":{"zip_code":"9694104","prefecture":"福島県","prefecture_kana":"フクシマケン","city":"喜多方市","city_kana":"キタカタシ","town":"山都町蓬莱","town_kana":"ヤマトマチホウライ","prefecture_code":7},"4136":{"zip_code":"9694136","prefecture":"福島県","prefecture_kana":"フクシマケン","city":"喜多方市","city_kana":"キタカタシ","town":"山都町町尻","town_kana":"ヤマトマチマチジリ","prefecture_code":7},"4105":{"zip_code":"9694105","prefecture":"福島県","prefecture_kana":"フクシマケン","city":"喜多方市","city_kana":"キタカタシ","town":"山都町三津合","town_kana":"ヤマトマチミツアイ","prefecture_code":7},"4165":{"zip_code":"9694165","prefecture":"福島県","prefecture_kana":"フクシマケン","city":"喜多方市","city_kana":"キタカタシ","town":"山都町三ツ山","town_kana":"ヤマトマチミツヤマ","prefecture_code":7},"4134":{"zip_code":"9694134","prefecture":"福島県","prefecture_kana":"フクシマケン","city":"喜多方市","city_kana":"キタカタシ","town":"山都町葎田","town_kana":"ヤマトマチムクロダ","prefecture_code":7},"4125":{"zip_code":"9694125","prefecture":"福島県","prefecture_kana":"フクシマケン","city":"喜多方市","city_kana":"キタカタシ","town":"山都町弥左エ門田","town_kana":"ヤマトマチヤザエモンデン","prefecture_code":7},"4149":{"zip_code":"9694149","prefecture":"福島県","prefecture_kana":"フクシマケン","city":"喜多方市","city_kana":"キタカタシ","town":"山都町谷地","town_kana":"ヤマトマチヤチ","prefecture_code":7},"4109":{"zip_code":"9694109","prefecture":"福島県","prefecture_kana":"フクシマケン","city":"喜多方市","city_kana":"キタカタシ","town":"山都町早稲谷","town_kana":"ヤマトマチワセタニ","prefecture_code":7},"1513":{"zip_code":"9691513","prefecture":"福島県","prefecture_kana":"フクシマケン","city":"二本松市","city_kana":"ニホンマツシ","town":"小沢","town_kana":"オザワ","prefecture_code":7},"1512":{"zip_code":"9691512","prefecture":"福島県","prefecture_kana":"フクシマケン","city":"二本松市","city_kana":"ニホンマツシ","town":"上川崎","town_kana":"カミカワサキ","prefecture_code":7},"1403":{"zip_code":"9691403","prefecture":"福島県","prefecture_kana":"フクシマケン","city":"二本松市","city_kana":"ニホンマツシ","town":"渋川","town_kana":"シブカワ","prefecture_code":7},"1511":{"zip_code":"9691511","prefecture":"福島県","prefecture_kana":"フクシマケン","city":"二本松市","city_kana":"ニホンマツシ","town":"下川崎","town_kana":"シモカワサキ","prefecture_code":7},"1405":{"zip_code":"9691405","prefecture":"福島県","prefecture_kana":"フクシマケン","city":"二本松市","city_kana":"ニホンマツシ","town":"智恵子の森","town_kana":"チエコノモリ","prefecture_code":7},"1404":{"zip_code":"9691404","prefecture":"福島県","prefecture_kana":"フクシマケン","city":"二本松市","city_kana":"ニホンマツシ","town":"油井","town_kana":"ユイ","prefecture_code":7},"1401":{"zip_code":"9691401","prefecture":"福島県","prefecture_kana":"フクシマケン","city":"二本松市","city_kana":"ニホンマツシ","town":"吉倉","town_kana":"ヨシクラ","prefecture_code":7},"1402":{"zip_code":"9691402","prefecture":"福島県","prefecture_kana":"フクシマケン","city":"二本松市","city_kana":"ニホンマツシ","town":"米沢","town_kana":"ヨナザワ","prefecture_code":7},"1100":{"zip_code":"9691100","prefecture":"福島県","prefecture_kana":"フクシマケン","city":"本宮市","city_kana":"モトミヤシ","town":"","town_kana":"","prefecture_code":7},"1107":{"zip_code":"9691107","prefecture":"福島県","prefecture_kana":"フクシマケン","city":"本宮市","city_kana":"モトミヤシ","town":"青田","town_kana":"アオタ","prefecture_code":7},"1104":{"zip_code":"9691104","prefecture":"福島県","prefecture_kana":"フクシマケン","city":"本宮市","city_kana":"モトミヤシ","town":"荒井","town_kana":"アライ","prefecture_code":7},"1201":{"zip_code":"9691201","prefecture":"福島県","prefecture_kana":"フクシマケン","city":"本宮市","city_kana":"モトミヤシ","town":"稲沢","town_kana":"イナザワ","prefecture_code":7},"1106":{"zip_code":"9691106","prefecture":"福島県","prefecture_kana":"フクシマケン","city":"本宮市","city_kana":"モトミヤシ","town":"岩根","town_kana":"イワネ","prefecture_code":7},"1203":{"zip_code":"9691203","prefecture":"福島県","prefecture_kana":"フクシマケン","city":"本宮市","city_kana":"モトミヤシ","town":"白岩","town_kana":"シライワ","prefecture_code":7},"1105":{"zip_code":"9691105","prefecture":"福島県","prefecture_kana":"フクシマケン","city":"本宮市","city_kana":"モトミヤシ","town":"関下","town_kana":"セキシタ","prefecture_code":7},"1101":{"zip_code":"9691101","prefecture":"福島県","prefecture_kana":"フクシマケン","city":"本宮市","city_kana":"モトミヤシ","town":"高木","town_kana":"タカギ","prefecture_code":7},"1206":{"zip_code":"9691206","prefecture":"福島県","prefecture_kana":"フクシマケン","city":"本宮市","city_kana":"モトミヤシ","town":"長屋","town_kana":"ナガヤ","prefecture_code":7},"1103":{"zip_code":"9691103","prefecture":"福島県","prefecture_kana":"フクシマケン","city":"本宮市","city_kana":"モトミヤシ","town":"仁井田","town_kana":"ニイタ","prefecture_code":7},"1204":{"zip_code":"9691204","prefecture":"福島県","prefecture_kana":"フクシマケン","city":"本宮市","city_kana":"モトミヤシ","town":"糠沢","town_kana":"ヌカザワ","prefecture_code":7},"1202":{"zip_code":"9691202","prefecture":"福島県","prefecture_kana":"フクシマケン","city":"本宮市","city_kana":"モトミヤシ","town":"松沢","town_kana":"マツザワ","prefecture_code":7},"1176":[{"zip_code":"9691176","prefecture":"福島県","prefecture_kana":"フクシマケン","city":"本宮市","city_kana":"モトミヤシ","town":"本宮赤坂","town_kana":"モトミヤアカサカ","prefecture_code":7},{"zip_code":"9691176","prefecture":"福島県","prefecture_kana":"フクシマケン","city":"本宮市","city_kana":"モトミヤシ","town":"本宮地蔵堂","town_kana":"モトミヤジゾウドウ","prefecture_code":7}],"1158":[{"zip_code":"9691158","prefecture":"福島県","prefecture_kana":"フクシマケン","city":"本宮市","city_kana":"モトミヤシ","town":"本宮天ヶ","town_kana":"モトミヤアマガ","prefecture_code":7},{"zip_code":"9691158","prefecture":"福島県","prefecture_kana":"フクシマケン","city":"本宮市","city_kana":"モトミヤシ","town":"本宮蛇ノ鼻","town_kana":"モトミヤジャノハナ","prefecture_code":7},{"zip_code":"9691158","prefecture":"福島県","prefecture_kana":"フクシマケン","city":"本宮市","city_kana":"モトミヤシ","town":"本宮平井","town_kana":"モトミヤヒライ","prefecture_code":7}],"1125":{"zip_code":"9691125","prefecture":"福島県","prefecture_kana":"フクシマケン","city":"本宮市","city_kana":"モトミヤシ","town":"本宮荒町","town_kana":"モトミヤアラマチ","prefecture_code":7},"1139":{"zip_code":"9691139","prefecture":"福島県","prefecture_kana":"フクシマケン","city":"本宮市","city_kana":"モトミヤシ","town":"本宮石塚","town_kana":"モトミヤイシヅカ","prefecture_code":7},"1112":{"zip_code":"9691112","prefecture":"福島県","prefecture_kana":"フクシマケン","city":"本宮市","city_kana":"モトミヤシ","town":"本宮大榎","town_kana":"モトミヤオオエノキ","prefecture_code":7},"1166":{"zip_code":"9691166","prefecture":"福島県","prefecture_kana":"フクシマケン","city":"本宮市","city_kana":"モトミヤシ","town":"本宮近江内","town_kana":"モトミヤオオミウチ","prefecture_code":7},"1144":{"zip_code":"9691144","prefecture":"福島県","prefecture_kana":"フクシマケン","city":"本宮市","city_kana":"モトミヤシ","town":"本宮大森","town_kana":"モトミヤオオモリ","prefecture_code":7},"1159":[{"zip_code":"9691159","prefecture":"福島県","prefecture_kana":"フクシマケン","city":"本宮市","city_kana":"モトミヤシ","town":"本宮小幡","town_kana":"モトミヤオバタ","prefecture_code":7},{"zip_code":"9691159","prefecture":"福島県","prefecture_kana":"フクシマケン","city":"本宮市","city_kana":"モトミヤシ","town":"本宮小籏北","town_kana":"モトミヤオバタキタ","prefecture_code":7},{"zip_code":"9691159","prefecture":"福島県","prefecture_kana":"フクシマケン","city":"本宮市","city_kana":"モトミヤシ","town":"本宮広町","town_kana":"モトミヤヒロマチ","prefecture_code":7}],"1161":{"zip_code":"9691161","prefecture":"福島県","prefecture_kana":"フクシマケン","city":"本宮市","city_kana":"モトミヤシ","town":"本宮欠下","town_kana":"モトミヤガケシタ","prefecture_code":7},"1129":[{"zip_code":"9691129","prefecture":"福島県","prefecture_kana":"フクシマケン","city":"本宮市","city_kana":"モトミヤシ","town":"本宮鍛冶免","town_kana":"モトミヤカジメン","prefecture_code":7},{"zip_code":"9691129","prefecture":"福島県","prefecture_kana":"フクシマケン","city":"本宮市","city_kana":"モトミヤシ","town":"本宮矢来","town_kana":"モトミヤヤライ","prefecture_code":7}],"1141":{"zip_code":"9691141","prefecture":"福島県","prefecture_kana":"フクシマケン","city":"本宮市","city_kana":"モトミヤシ","town":"本宮兼谷","town_kana":"モトミヤカナヤ","prefecture_code":7},"1142":{"zip_code":"9691142","prefecture":"福島県","prefecture_kana":"フクシマケン","city":"本宮市","city_kana":"モトミヤシ","town":"本宮兼谷平","town_kana":"モトミヤカナヤダイラ","prefecture_code":7},"1117":{"zip_code":"9691117","prefecture":"福島県","prefecture_kana":"フクシマケン","city":"本宮市","city_kana":"モトミヤシ","town":"本宮鹿ノ子田","town_kana":"モトミヤカノコダ","prefecture_code":7},"1152":[{"zip_code":"9691152","prefecture":"福島県","prefecture_kana":"フクシマケン","city":"本宮市","city_kana":"モトミヤシ","town":"本宮上千束","town_kana":"モトミヤカミセンゾク","prefecture_code":7},{"zip_code":"9691152","prefecture":"福島県","prefecture_kana":"フクシマケン","city":"本宮市","city_kana":"モトミヤシ","town":"本宮千束","town_kana":"モトミヤセンゾク","prefecture_code":7}],"1134":{"zip_code":"9691134","prefecture":"福島県","prefecture_kana":"フクシマケン","city":"本宮市","city_kana":"モトミヤシ","town":"本宮上町","town_kana":"モトミヤカミマチ","prefecture_code":7},"1155":[{"zip_code":"9691155","prefecture":"福島県","prefecture_kana":"フクシマケン","city":"本宮市","city_kana":"モトミヤシ","town":"本宮懸鉄","town_kana":"モトミヤカンカネ","prefecture_code":7},{"zip_code":"9691155","prefecture":"福島県","prefecture_kana":"フクシマケン","city":"本宮市","city_kana":"モトミヤシ","town":"本宮反町","town_kana":"モトミヤソリマチ","prefecture_code":7},{"zip_code":"9691155","prefecture":"福島県","prefecture_kana":"フクシマケン","city":"本宮市","city_kana":"モトミヤシ","town":"本宮雲雀田","town_kana":"モトミヤヒバリタ","prefecture_code":7},{"zip_code":"9691155","prefecture":"福島県","prefecture_kana":"フクシマケン","city":"本宮市","city_kana":"モトミヤシ","town":"本宮舞台","town_kana":"モトミヤブタイ","prefecture_code":7}],"1162":[{"zip_code":"9691162","prefecture":"福島県","prefecture_kana":"フクシマケン","city":"本宮市","city_kana":"モトミヤシ","town":"本宮北川原田","town_kana":"モトミヤキタカワハラダ","prefecture_code":7},{"zip_code":"9691162","prefecture":"福島県","prefecture_kana":"フクシマケン","city":"本宮市","city_kana":"モトミヤシ","town":"本宮南河原田","town_kana":"モトミヤミナミカワハラダ","prefecture_code":7}],"1172":{"zip_code":"9691172","prefecture":"福島県","prefecture_kana":"フクシマケン","city":"本宮市","city_kana":"モトミヤシ","town":"本宮北ノ内","town_kana":"モトミヤキタノウチ","prefecture_code":7},"1167":[{"zip_code":"9691167","prefecture":"福島県","prefecture_kana":"フクシマケン","city":"本宮市","city_kana":"モトミヤシ","town":"本宮北山神","town_kana":"モトミヤキタヤマノカミ","prefecture_code":7},{"zip_code":"9691167","prefecture":"福島県","prefecture_kana":"フクシマケン","city":"本宮市","city_kana":"モトミヤシ","town":"本宮道屋敷","town_kana":"モトミヤドウヤシキ","prefecture_code":7}],"1136":{"zip_code":"9691136","prefecture":"福島県","prefecture_kana":"フクシマケン","city":"本宮市","city_kana":"モトミヤシ","town":"本宮九縄","town_kana":"モトミヤクナワ","prefecture_code":7},"1169":{"zip_code":"9691169","prefecture":"福島県","prefecture_kana":"フクシマケン","city":"本宮市","city_kana":"モトミヤシ","town":"本宮小原田","town_kana":"モトミヤコハラダ","prefecture_code":7},"1148":{"zip_code":"9691148","prefecture":"福島県","prefecture_kana":"フクシマケン","city":"本宮市","city_kana":"モトミヤシ","town":"本宮栄田","town_kana":"モトミヤサカエダ","prefecture_code":7},"1111":[{"zip_code":"9691111","prefecture":"福島県","prefecture_kana":"フクシマケン","city":"本宮市","city_kana":"モトミヤシ","town":"本宮作田","town_kana":"モトミヤサクタ","prefecture_code":7},{"zip_code":"9691111","prefecture":"福島県","prefecture_kana":"フクシマケン","city":"本宮市","city_kana":"モトミヤシ","town":"本宮作田台","town_kana":"モトミヤサクタダイ","prefecture_code":7}],"1154":{"zip_code":"9691154","prefecture":"福島県","prefecture_kana":"フクシマケン","city":"本宮市","city_kana":"モトミヤシ","town":"本宮塩田","town_kana":"モトミヤシオダ","prefecture_code":7},"1153":{"zip_code":"9691153","prefecture":"福島県","prefecture_kana":"フクシマケン","city":"本宮市","city_kana":"モトミヤシ","town":"本宮塩田入","town_kana":"モトミヤシオダイリ","prefecture_code":7},"1118":{"zip_code":"9691118","prefecture":"福島県","prefecture_kana":"フクシマケン","city":"本宮市","city_kana":"モトミヤシ","town":"本宮下台","town_kana":"モトミヤシモダイ","prefecture_code":7},"1132":{"zip_code":"9691132","prefecture":"福島県","prefecture_kana":"フクシマケン","city":"本宮市","city_kana":"モトミヤシ","town":"本宮下町","town_kana":"モトミヤシモマチ","prefecture_code":7},"1163":{"zip_code":"9691163","prefecture":"福島県","prefecture_kana":"フクシマケン","city":"本宮市","city_kana":"モトミヤシ","town":"本宮白川","town_kana":"モトミヤシラカワ","prefecture_code":7},"1156":[{"zip_code":"9691156","prefecture":"福島県","prefecture_kana":"フクシマケン","city":"本宮市","city_kana":"モトミヤシ","town":"本宮諏訪","town_kana":"モトミヤスワ","prefecture_code":7},{"zip_code":"9691156","prefecture":"福島県","prefecture_kana":"フクシマケン","city":"本宮市","city_kana":"モトミヤシ","town":"本宮鍋田","town_kana":"モトミヤナベタ","prefecture_code":7}],"1114":{"zip_code":"9691114","prefecture":"福島県","prefecture_kana":"フクシマケン","city":"本宮市","city_kana":"モトミヤシ","town":"本宮関根","town_kana":"モトミヤセキネ","prefecture_code":7},"1157":[{"zip_code":"9691157","prefecture":"福島県","prefecture_kana":"フクシマケン","city":"本宮市","city_kana":"モトミヤシ","town":"本宮瀬樋内","town_kana":"モトミヤセビウチ","prefecture_code":7},{"zip_code":"9691157","prefecture":"福島県","prefecture_kana":"フクシマケン","city":"本宮市","city_kana":"モトミヤシ","town":"本宮田中","town_kana":"モトミヤタナカ","prefecture_code":7}],"1122":{"zip_code":"9691122","prefecture":"福島県","prefecture_kana":"フクシマケン","city":"本宮市","city_kana":"モトミヤシ","town":"本宮大町","town_kana":"モトミヤダイマチ","prefecture_code":7},"1175":[{"zip_code":"9691175","prefecture":"福島県","prefecture_kana":"フクシマケン","city":"本宮市","city_kana":"モトミヤシ","town":"本宮竹花","town_kana":"モトミヤタケノハナ","prefecture_code":7},{"zip_code":"9691175","prefecture":"福島県","prefecture_kana":"フクシマケン","city":"本宮市","city_kana":"モトミヤシ","town":"本宮名郷","town_kana":"モトミヤナゴウ","prefecture_code":7},{"zip_code":"9691175","prefecture":"福島県","prefecture_kana":"フクシマケン","city":"本宮市","city_kana":"モトミヤシ","town":"本宮名郷脇","town_kana":"モトミヤナゴウワキ","prefecture_code":7}],"1115":{"zip_code":"9691115","prefecture":"福島県","prefecture_kana":"フクシマケン","city":"本宮市","city_kana":"モトミヤシ","town":"本宮立石","town_kana":"モトミヤタテイシ","prefecture_code":7},"1121":{"zip_code":"9691121","prefecture":"福島県","prefecture_kana":"フクシマケン","city":"本宮市","city_kana":"モトミヤシ","town":"本宮舘ノ越","town_kana":"モトミヤタテノコシ","prefecture_code":7},"1128":{"zip_code":"9691128","prefecture":"福島県","prefecture_kana":"フクシマケン","city":"本宮市","city_kana":"モトミヤシ","town":"本宮舘町","town_kana":"モトミヤタテマチ","prefecture_code":7},"1137":{"zip_code":"9691137","prefecture":"福島県","prefecture_kana":"フクシマケン","city":"本宮市","city_kana":"モトミヤシ","town":"本宮太郎丸","town_kana":"モトミヤタロウマル","prefecture_code":7},"1151":{"zip_code":"9691151","prefecture":"福島県","prefecture_kana":"フクシマケン","city":"本宮市","city_kana":"モトミヤシ","town":"本宮千代田","town_kana":"モトミヤチヨダ","prefecture_code":7},"1135":[{"zip_code":"9691135","prefecture":"福島県","prefecture_kana":"フクシマケン","city":"本宮市","city_kana":"モトミヤシ","town":"本宮土樋","town_kana":"モトミヤツチドイ","prefecture_code":7},{"zip_code":"9691135","prefecture":"福島県","prefecture_kana":"フクシマケン","city":"本宮市","city_kana":"モトミヤシ","town":"本宮蛭田","town_kana":"モトミヤヒルタ","prefecture_code":7}],"1127":{"zip_code":"9691127","prefecture":"福島県","prefecture_kana":"フクシマケン","city":"本宮市","city_kana":"モトミヤシ","town":"本宮鉄砲町","town_kana":"モトミヤテッポウマチ","prefecture_code":7},"1171":{"zip_code":"9691171","prefecture":"福島県","prefecture_kana":"フクシマケン","city":"本宮市","city_kana":"モトミヤシ","town":"本宮樋ノ口","town_kana":"モトミヤトイノクチ","prefecture_code":7},"1164":{"zip_code":"9691164","prefecture":"福島県","prefecture_kana":"フクシマケン","city":"本宮市","city_kana":"モトミヤシ","town":"本宮戸崎","town_kana":"モトミヤトサキ","prefecture_code":7},"1109":{"zip_code":"9691109","prefecture":"福島県","prefecture_kana":"フクシマケン","city":"本宮市","city_kana":"モトミヤシ","town":"本宮富ヶ峰","town_kana":"モトミヤトミガミネ","prefecture_code":7},"1133":{"zip_code":"9691133","prefecture":"福島県","prefecture_kana":"フクシマケン","city":"本宮市","city_kana":"モトミヤシ","town":"本宮中條","town_kana":"モトミヤナカジョウ","prefecture_code":7},"1165":{"zip_code":"9691165","prefecture":"福島県","prefecture_kana":"フクシマケン","city":"本宮市","city_kana":"モトミヤシ","town":"本宮中台","town_kana":"モトミヤナカダイ","prefecture_code":7},"1173":[{"zip_code":"9691173","prefecture":"福島県","prefecture_kana":"フクシマケン","city":"本宮市","city_kana":"モトミヤシ","town":"本宮中野","town_kana":"モトミヤナカノ","prefecture_code":7},{"zip_code":"9691173","prefecture":"福島県","prefecture_kana":"フクシマケン","city":"本宮市","city_kana":"モトミヤシ","town":"本宮中野後","town_kana":"モトミヤナカノウシロ","prefecture_code":7}],"1124":{"zip_code":"9691124","prefecture":"福島県","prefecture_kana":"フクシマケン","city":"本宮市","city_kana":"モトミヤシ","town":"本宮仲町","town_kana":"モトミヤナカマチ","prefecture_code":7},"1138":{"zip_code":"9691138","prefecture":"福島県","prefecture_kana":"フクシマケン","city":"本宮市","city_kana":"モトミヤシ","town":"本宮鳴瀬","town_kana":"モトミヤナルセ","prefecture_code":7},"1147":{"zip_code":"9691147","prefecture":"福島県","prefecture_kana":"フクシマケン","city":"本宮市","city_kana":"モトミヤシ","town":"本宮花町","town_kana":"モトミヤハナマチ","prefecture_code":7},"1126":{"zip_code":"9691126","prefecture":"福島県","prefecture_kana":"フクシマケン","city":"本宮市","city_kana":"モトミヤシ","town":"本宮馬場","town_kana":"モトミヤババ","prefecture_code":7},"1149":{"zip_code":"9691149","prefecture":"福島県","prefecture_kana":"フクシマケン","city":"本宮市","city_kana":"モトミヤシ","town":"本宮万世","town_kana":"モトミヤバンセイ","prefecture_code":7},"1123":[{"zip_code":"9691123","prefecture":"福島県","prefecture_kana":"フクシマケン","city":"本宮市","city_kana":"モトミヤシ","town":"本宮東町","town_kana":"モトミヤヒガシマチ","prefecture_code":7},{"zip_code":"9691123","prefecture":"福島県","prefecture_kana":"フクシマケン","city":"本宮市","city_kana":"モトミヤシ","town":"本宮東町裏","town_kana":"モトミヤヒガシマチウラ","prefecture_code":7}],"1168":{"zip_code":"9691168","prefecture":"福島県","prefecture_kana":"フクシマケン","city":"本宮市","city_kana":"モトミヤシ","town":"本宮一ッ屋","town_kana":"モトミヤヒトツヤ","prefecture_code":7},"1116":{"zip_code":"9691116","prefecture":"福島県","prefecture_kana":"フクシマケン","city":"本宮市","city_kana":"モトミヤシ","town":"本宮弁天","town_kana":"モトミヤベンテン","prefecture_code":7},"1113":{"zip_code":"9691113","prefecture":"福島県","prefecture_kana":"フクシマケン","city":"本宮市","city_kana":"モトミヤシ","town":"本宮坊屋敷","town_kana":"モトミヤボウヤシキ","prefecture_code":7},"1108":{"zip_code":"9691108","prefecture":"福島県","prefecture_kana":"フクシマケン","city":"本宮市","city_kana":"モトミヤシ","town":"本宮堀切","town_kana":"モトミヤホッキリ","prefecture_code":7},"1174":{"zip_code":"9691174","prefecture":"福島県","prefecture_kana":"フクシマケン","city":"本宮市","city_kana":"モトミヤシ","town":"本宮南ノ内","town_kana":"モトミヤミナミノウチ","prefecture_code":7},"1131":{"zip_code":"9691131","prefecture":"福島県","prefecture_kana":"フクシマケン","city":"本宮市","city_kana":"モトミヤシ","town":"本宮南町裡","town_kana":"モトミヤミナミマチウラ","prefecture_code":7},"1146":{"zip_code":"9691146","prefecture":"福島県","prefecture_kana":"フクシマケン","city":"本宮市","city_kana":"モトミヤシ","town":"本宮南山神","town_kana":"モトミヤミナミヤマカミ","prefecture_code":7},"1119":{"zip_code":"9691119","prefecture":"福島県","prefecture_kana":"フクシマケン","city":"本宮市","city_kana":"モトミヤシ","town":"本宮柳ノ内","town_kana":"モトミヤヤナギノウチ","prefecture_code":7},"1143":{"zip_code":"9691143","prefecture":"福島県","prefecture_kana":"フクシマケン","city":"本宮市","city_kana":"モトミヤシ","town":"本宮山田","town_kana":"モトミヤヤマダ","prefecture_code":7},"1145":{"zip_code":"9691145","prefecture":"福島県","prefecture_kana":"フクシマケン","city":"本宮市","city_kana":"モトミヤシ","town":"本宮葭ヶ入","town_kana":"モトミヤヨシガイリ","prefecture_code":7},"1205":{"zip_code":"9691205","prefecture":"福島県","prefecture_kana":"フクシマケン","city":"本宮市","city_kana":"モトミヤシ","town":"和田","town_kana":"ワダ","prefecture_code":7},"1600":{"zip_code":"9691600","prefecture":"福島県","prefecture_kana":"フクシマケン","city":"伊達郡桑折町","city_kana":"ダテグンコオリマチ","town":"","town_kana":"","prefecture_code":7},"1633":[{"zip_code":"9691633","prefecture":"福島県","prefecture_kana":"フクシマケン","city":"伊達郡桑折町","city_kana":"ダテグンコオリマチ","town":"赤坂","town_kana":"アカサカ","prefecture_code":7},{"zip_code":"9691633","prefecture":"福島県","prefecture_kana":"フクシマケン","city":"伊達郡桑折町","city_kana":"ダテグンコオリマチ","town":"一里壇","town_kana":"イチリダン","prefecture_code":7},{"zip_code":"9691633","prefecture":"福島県","prefecture_kana":"フクシマケン","city":"伊達郡桑折町","city_kana":"ダテグンコオリマチ","town":"界","town_kana":"サカイ","prefecture_code":7}],"1603":{"zip_code":"9691603","prefecture":"福島県","prefecture_kana":"フクシマケン","city":"伊達郡桑折町","city_kana":"ダテグンコオリマチ","town":"上町","town_kana":"ウワマチ","prefecture_code":7},"1623":{"zip_code":"9691623","prefecture":"福島県","prefecture_kana":"フクシマケン","city":"伊達郡桑折町","city_kana":"ダテグンコオリマチ","town":"和尚堂","town_kana":"オショウドウ","prefecture_code":7},"1634":[{"zip_code":"9691634","prefecture":"福島県","prefecture_kana":"フクシマケン","city":"伊達郡桑折町","city_kana":"ダテグンコオリマチ","town":"落合","town_kana":"オチアイ","prefecture_code":7},{"zip_code":"9691634","prefecture":"福島県","prefecture_kana":"フクシマケン","city":"伊達郡桑折町","city_kana":"ダテグンコオリマチ","town":"杉ノ前","town_kana":"スギノマエ","prefecture_code":7},{"zip_code":"9691634","prefecture":"福島県","prefecture_kana":"フクシマケン","city":"伊達郡桑折町","city_kana":"ダテグンコオリマチ","town":"砂子沢","town_kana":"スナゴザワ","prefecture_code":7}],"1661":{"zip_code":"9691661","prefecture":"福島県","prefecture_kana":"フクシマケン","city":"伊達郡桑折町","city_kana":"ダテグンコオリマチ","town":"上郡","town_kana":"カミゴオリ","prefecture_code":7},"1619":{"zip_code":"9691619","prefecture":"福島県","prefecture_kana":"フクシマケン","city":"伊達郡桑折町","city_kana":"ダテグンコオリマチ","town":"仮屋","town_kana":"カリヤ","prefecture_code":7},"1642":{"zip_code":"9691642","prefecture":"福島県","prefecture_kana":"フクシマケン","city":"伊達郡桑折町","city_kana":"ダテグンコオリマチ","town":"北半田","town_kana":"キタハンダ","prefecture_code":7},"1601":{"zip_code":"9691601","prefecture":"福島県","prefecture_kana":"フクシマケン","city":"伊達郡桑折町","city_kana":"ダテグンコオリマチ","town":"北町","town_kana":"キタマチ","prefecture_code":7},"1635":[{"zip_code":"9691635","prefecture":"福島県","prefecture_kana":"フクシマケン","city":"伊達郡桑折町","city_kana":"ダテグンコオリマチ","town":"狐崎","town_kana":"キツネザキ","prefecture_code":7},{"zip_code":"9691635","prefecture":"福島県","prefecture_kana":"フクシマケン","city":"伊達郡桑折町","city_kana":"ダテグンコオリマチ","town":"東八串","town_kana":"ヒガシヤクシ","prefecture_code":7}],"1618":{"zip_code":"9691618","prefecture":"福島県","prefecture_kana":"フクシマケン","city":"伊達郡桑折町","city_kana":"ダテグンコオリマチ","town":"庫場","town_kana":"クラバ","prefecture_code":7},"1613":{"zip_code":"9691613","prefecture":"福島県","prefecture_kana":"フクシマケン","city":"伊達郡桑折町","city_kana":"ダテグンコオリマチ","town":"桑島","town_kana":"クワジマ","prefecture_code":7},"1615":{"zip_code":"9691615","prefecture":"福島県","prefecture_kana":"フクシマケン","city":"伊達郡桑折町","city_kana":"ダテグンコオリマチ","town":"沢","town_kana":"サワ","prefecture_code":7},"1608":{"zip_code":"9691608","prefecture":"福島県","prefecture_kana":"フクシマケン","city":"伊達郡桑折町","city_kana":"ダテグンコオリマチ","town":"芝堤","town_kana":"シバツツミ","prefecture_code":7},"1662":{"zip_code":"9691662","prefecture":"福島県","prefecture_kana":"フクシマケン","city":"伊達郡桑折町","city_kana":"ダテグンコオリマチ","town":"下郡","town_kana":"シモゴオリ","prefecture_code":7},"1631":[{"zip_code":"9691631","prefecture":"福島県","prefecture_kana":"フクシマケン","city":"伊達郡桑折町","city_kana":"ダテグンコオリマチ","town":"白銀","town_kana":"シロガネ","prefecture_code":7},{"zip_code":"9691631","prefecture":"福島県","prefecture_kana":"フクシマケン","city":"伊達郡桑折町","city_kana":"ダテグンコオリマチ","town":"薮内","town_kana":"ヤブウチ","prefecture_code":7}],"1628":{"zip_code":"9691628","prefecture":"福島県","prefecture_kana":"フクシマケン","city":"伊達郡桑折町","city_kana":"ダテグンコオリマチ","town":"新町","town_kana":"シンマチ","prefecture_code":7},"1617":{"zip_code":"9691617","prefecture":"福島県","prefecture_kana":"フクシマケン","city":"伊達郡桑折町","city_kana":"ダテグンコオリマチ","town":"陣屋","town_kana":"ジンヤ","prefecture_code":7},"1625":{"zip_code":"9691625","prefecture":"福島県","prefecture_kana":"フクシマケン","city":"伊達郡桑折町","city_kana":"ダテグンコオリマチ","town":"新吉町","town_kana":"シンヨシチョウ","prefecture_code":7},"1624":{"zip_code":"9691624","prefecture":"福島県","prefecture_kana":"フクシマケン","city":"伊達郡桑折町","city_kana":"ダテグンコオリマチ","town":"新和町","town_kana":"シンワチョウ","prefecture_code":7},"1627":{"zip_code":"9691627","prefecture":"福島県","prefecture_kana":"フクシマケン","city":"伊達郡桑折町","city_kana":"ダテグンコオリマチ","town":"諏訪","town_kana":"スワ","prefecture_code":7},"1605":{"zip_code":"9691605","prefecture":"福島県","prefecture_kana":"フクシマケン","city":"伊達郡桑折町","city_kana":"ダテグンコオリマチ","town":"堰合","town_kana":"セキアイ","prefecture_code":7},"1604":{"zip_code":"9691604","prefecture":"福島県","prefecture_kana":"フクシマケン","city":"伊達郡桑折町","city_kana":"ダテグンコオリマチ","town":"堰下","town_kana":"セキシタ","prefecture_code":7},"1632":{"zip_code":"9691632","prefecture":"福島県","prefecture_kana":"フクシマケン","city":"伊達郡桑折町","city_kana":"ダテグンコオリマチ","town":"田植","town_kana":"タウエ","prefecture_code":7},"1616":{"zip_code":"9691616","prefecture":"福島県","prefecture_kana":"フクシマケン","city":"伊達郡桑折町","city_kana":"ダテグンコオリマチ","town":"舘","town_kana":"タテ","prefecture_code":7},"1663":{"zip_code":"9691663","prefecture":"福島県","prefecture_kana":"フクシマケン","city":"伊達郡桑折町","city_kana":"ダテグンコオリマチ","town":"伊達崎","town_kana":"ダンザキ","prefecture_code":7},"1626":{"zip_code":"9691626","prefecture":"福島県","prefecture_kana":"フクシマケン","city":"伊達郡桑折町","city_kana":"ダテグンコオリマチ","town":"寺坂","town_kana":"テラサカ","prefecture_code":7},"1621":{"zip_code":"9691621","prefecture":"福島県","prefecture_kana":"フクシマケン","city":"伊達郡桑折町","city_kana":"ダテグンコオリマチ","town":"道場前","town_kana":"ドウジョウマエ","prefecture_code":7},"1652":{"zip_code":"9691652","prefecture":"福島県","prefecture_kana":"フクシマケン","city":"伊達郡桑折町","city_kana":"ダテグンコオリマチ","town":"成田","town_kana":"ナリタ","prefecture_code":7},"1612":{"zip_code":"9691612","prefecture":"福島県","prefecture_kana":"フクシマケン","city":"伊達郡桑折町","city_kana":"ダテグンコオリマチ","town":"西大隅","town_kana":"ニシオオスミ","prefecture_code":7},"1607":{"zip_code":"9691607","prefecture":"福島県","prefecture_kana":"フクシマケン","city":"伊達郡桑折町","city_kana":"ダテグンコオリマチ","town":"西段","town_kana":"ニシダン","prefecture_code":7},"1629":{"zip_code":"9691629","prefecture":"福島県","prefecture_kana":"フクシマケン","city":"伊達郡桑折町","city_kana":"ダテグンコオリマチ","town":"西町","town_kana":"ニシマチ","prefecture_code":7},"1611":{"zip_code":"9691611","prefecture":"福島県","prefecture_kana":"フクシマケン","city":"伊達郡桑折町","city_kana":"ダテグンコオリマチ","town":"東大隅","town_kana":"ヒガシオオスミ","prefecture_code":7},"1606":{"zip_code":"9691606","prefecture":"福島県","prefecture_kana":"フクシマケン","city":"伊達郡桑折町","city_kana":"ダテグンコオリマチ","town":"東段","town_kana":"ヒガシダン","prefecture_code":7},"1654":{"zip_code":"9691654","prefecture":"福島県","prefecture_kana":"フクシマケン","city":"伊達郡桑折町","city_kana":"ダテグンコオリマチ","town":"平沢","town_kana":"ヒラサワ","prefecture_code":7},"1602":{"zip_code":"9691602","prefecture":"福島県","prefecture_kana":"フクシマケン","city":"伊達郡桑折町","city_kana":"ダテグンコオリマチ","town":"町裏","town_kana":"マチウラ","prefecture_code":7},"1653":{"zip_code":"9691653","prefecture":"福島県","prefecture_kana":"フクシマケン","city":"伊達郡桑折町","city_kana":"ダテグンコオリマチ","town":"松原","town_kana":"マツバラ","prefecture_code":7},"1651":{"zip_code":"9691651","prefecture":"福島県","prefecture_kana":"フクシマケン","city":"伊達郡桑折町","city_kana":"ダテグンコオリマチ","town":"万正寺","town_kana":"マンショウジ","prefecture_code":7},"1641":{"zip_code":"9691641","prefecture":"福島県","prefecture_kana":"フクシマケン","city":"伊達郡桑折町","city_kana":"ダテグンコオリマチ","town":"南半田","town_kana":"ミナミハンダ","prefecture_code":7},"1622":{"zip_code":"9691622","prefecture":"福島県","prefecture_kana":"フクシマケン","city":"伊達郡桑折町","city_kana":"ダテグンコオリマチ","town":"南町","town_kana":"ミナミマチ","prefecture_code":7},"1614":{"zip_code":"9691614","prefecture":"福島県","prefecture_kana":"フクシマケン","city":"伊達郡桑折町","city_kana":"ダテグンコオリマチ","town":"本町","town_kana":"モトマチ","prefecture_code":7},"1643":{"zip_code":"9691643","prefecture":"福島県","prefecture_kana":"フクシマケン","city":"伊達郡桑折町","city_kana":"ダテグンコオリマチ","town":"谷地","town_kana":"ヤジ","prefecture_code":7},"1700":{"zip_code":"9691700","prefecture":"福島県","prefecture_kana":"フクシマケン","city":"伊達郡国見町","city_kana":"ダテグンクニミマチ","town":"","town_kana":"","prefecture_code":7},"1701":{"zip_code":"9691701","prefecture":"福島県","prefecture_kana":"フクシマケン","city":"伊達郡国見町","city_kana":"ダテグンクニミマチ","town":"石母田","town_kana":"イシモダ","prefecture_code":7},"1782":{"zip_code":"9691782","prefecture":"福島県","prefecture_kana":"フクシマケン","city":"伊達郡国見町","city_kana":"ダテグンクニミマチ","town":"泉田","town_kana":"イズミダ","prefecture_code":7},"1785":{"zip_code":"9691785","prefecture":"福島県","prefecture_kana":"フクシマケン","city":"伊達郡国見町","city_kana":"ダテグンクニミマチ","town":"板橋南","town_kana":"イタバシミナミ","prefecture_code":7},"1781":{"zip_code":"9691781","prefecture":"福島県","prefecture_kana":"フクシマケン","city":"伊達郡国見町","city_kana":"ダテグンクニミマチ","town":"内谷","town_kana":"ウチヤ","prefecture_code":7},"1713":{"zip_code":"9691713","prefecture":"福島県","prefecture_kana":"フクシマケン","city":"伊達郡国見町","city_kana":"ダテグンクニミマチ","town":"大木戸","town_kana":"オオキド","prefecture_code":7},"1711":{"zip_code":"9691711","prefecture":"福島県","prefecture_kana":"フクシマケン","city":"伊達郡国見町","city_kana":"ダテグンクニミマチ","town":"貝田","town_kana":"カイダ","prefecture_code":7},"1721":{"zip_code":"9691721","prefecture":"福島県","prefecture_kana":"フクシマケン","city":"伊達郡国見町","city_kana":"ダテグンクニミマチ","town":"川内","town_kana":"カワウチ","prefecture_code":7},"1712":{"zip_code":"9691712","prefecture":"福島県","prefecture_kana":"フクシマケン","city":"伊達郡国見町","city_kana":"ダテグンクニミマチ","town":"光明寺","town_kana":"コウミョウジ","prefecture_code":7},"1784":{"zip_code":"9691784","prefecture":"福島県","prefecture_kana":"フクシマケン","city":"伊達郡国見町","city_kana":"ダテグンクニミマチ","town":"小坂","town_kana":"コサカ","prefecture_code":7},"1788":{"zip_code":"9691788","prefecture":"福島県","prefecture_kana":"フクシマケン","city":"伊達郡国見町","city_kana":"ダテグンクニミマチ","town":"小坂南","town_kana":"コサカミナミ","prefecture_code":7},"1786":{"zip_code":"9691786","prefecture":"福島県","prefecture_kana":"フクシマケン","city":"伊達郡国見町","city_kana":"ダテグンクニミマチ","town":"新泉田","town_kana":"シンイズミダ","prefecture_code":7},"1780":{"zip_code":"9691780","prefecture":"福島県","prefecture_kana":"フクシマケン","city":"伊達郡国見町","city_kana":"ダテグンクニミマチ","town":"新内谷","town_kana":"シンウチヤ","prefecture_code":7},"1787":{"zip_code":"9691787","prefecture":"福島県","prefecture_kana":"フクシマケン","city":"伊達郡国見町","city_kana":"ダテグンクニミマチ","town":"新小坂","town_kana":"シンコサカ","prefecture_code":7},"1789":{"zip_code":"9691789","prefecture":"福島県","prefecture_kana":"フクシマケン","city":"伊達郡国見町","city_kana":"ダテグンクニミマチ","town":"新鳥取","town_kana":"シントットリ","prefecture_code":7},"1714":{"zip_code":"9691714","prefecture":"福島県","prefecture_kana":"フクシマケン","city":"伊達郡国見町","city_kana":"ダテグンクニミマチ","town":"高城","town_kana":"タカギ","prefecture_code":7},"1751":{"zip_code":"9691751","prefecture":"福島県","prefecture_kana":"フクシマケン","city":"伊達郡国見町","city_kana":"ダテグンクニミマチ","town":"塚野目","town_kana":"ツカノメ","prefecture_code":7},"1741":{"zip_code":"9691741","prefecture":"福島県","prefecture_kana":"フクシマケン","city":"伊達郡国見町","city_kana":"ダテグンクニミマチ","town":"徳江","town_kana":"トクエ","prefecture_code":7},"1783":{"zip_code":"9691783","prefecture":"福島県","prefecture_kana":"フクシマケン","city":"伊達郡国見町","city_kana":"ダテグンクニミマチ","town":"鳥取","town_kana":"トットリ","prefecture_code":7},"1722":{"zip_code":"9691722","prefecture":"福島県","prefecture_kana":"フクシマケン","city":"伊達郡国見町","city_kana":"ダテグンクニミマチ","town":"西大枝","town_kana":"ニシオオエダ","prefecture_code":7},"1761":{"zip_code":"9691761","prefecture":"福島県","prefecture_kana":"フクシマケン","city":"伊達郡国見町","city_kana":"ダテグンクニミマチ","town":"藤田","town_kana":"フジタ","prefecture_code":7},"1731":{"zip_code":"9691731","prefecture":"福島県","prefecture_kana":"フクシマケン","city":"伊達郡国見町","city_kana":"ダテグンクニミマチ","town":"森山","town_kana":"モリヤマ","prefecture_code":7},"1771":{"zip_code":"9691771","prefecture":"福島県","prefecture_kana":"フクシマケン","city":"伊達郡国見町","city_kana":"ダテグンクニミマチ","town":"山崎","town_kana":"ヤマザキ","prefecture_code":7},"1300":{"zip_code":"9691300","prefecture":"福島県","prefecture_kana":"フクシマケン","city":"安達郡大玉村","city_kana":"アダチグンオオタマムラ","town":"","town_kana":"","prefecture_code":7},"1301":{"zip_code":"9691301","prefecture":"福島県","prefecture_kana":"フクシマケン","city":"安達郡大玉村","city_kana":"アダチグンオオタマムラ","town":"大山","town_kana":"オオヤマ","prefecture_code":7},"1302":{"zip_code":"9691302","prefecture":"福島県","prefecture_kana":"フクシマケン","city":"安達郡大玉村","city_kana":"アダチグンオオタマムラ","town":"玉井","town_kana":"タマノイ","prefecture_code":7},"0400":{"zip_code":"9690400","prefecture":"福島県","prefecture_kana":"フクシマケン","city":"岩瀬郡鏡石町","city_kana":"イワセグンカガミイシマチ","town":"","town_kana":"","prefecture_code":7},"0404":[{"zip_code":"9690404","prefecture":"福島県","prefecture_kana":"フクシマケン","city":"岩瀬郡鏡石町","city_kana":"イワセグンカガミイシマチ","town":"旭町","town_kana":"アサヒマチ","prefecture_code":7},{"zip_code":"9690404","prefecture":"福島県","prefecture_kana":"フクシマケン","city":"岩瀬郡鏡石町","city_kana":"イワセグンカガミイシマチ","town":"大山","town_kana":"オオヤマ","prefecture_code":7},{"zip_code":"9690404","prefecture":"福島県","prefecture_kana":"フクシマケン","city":"岩瀬郡鏡石町","city_kana":"イワセグンカガミイシマチ","town":"岡の台","town_kana":"オカノダイ","prefecture_code":7},{"zip_code":"9690404","prefecture":"福島県","prefecture_kana":"フクシマケン","city":"岩瀬郡鏡石町","city_kana":"イワセグンカガミイシマチ","town":"笠石","town_kana":"カサイシ","prefecture_code":7},{"zip_code":"9690404","prefecture":"福島県","prefecture_kana":"フクシマケン","city":"岩瀬郡鏡石町","city_kana":"イワセグンカガミイシマチ","town":"笠石原町","town_kana":"カサイシハラマチ","prefecture_code":7},{"zip_code":"9690404","prefecture":"福島県","prefecture_kana":"フクシマケン","city":"岩瀬郡鏡石町","city_kana":"イワセグンカガミイシマチ","town":"中央","town_kana":"チュウオウ","prefecture_code":7},{"zip_code":"9690404","prefecture":"福島県","prefecture_kana":"フクシマケン","city":"岩瀬郡鏡石町","city_kana":"イワセグンカガミイシマチ","town":"豊郷","town_kana":"トヨサト","prefecture_code":7},{"zip_code":"9690404","prefecture":"福島県","prefecture_kana":"フクシマケン","city":"岩瀬郡鏡石町","city_kana":"イワセグンカガミイシマチ","town":"豊郷中","town_kana":"トヨサトナカ","prefecture_code":7},{"zip_code":"9690404","prefecture":"福島県","prefecture_kana":"フクシマケン","city":"岩瀬郡鏡石町","city_kana":"イワセグンカガミイシマチ","town":"中町","town_kana":"ナカマチ","prefecture_code":7},{"zip_code":"9690404","prefecture":"福島県","prefecture_kana":"フクシマケン","city":"岩瀬郡鏡石町","city_kana":"イワセグンカガミイシマチ","town":"羽鳥","town_kana":"ハトリ","prefecture_code":7},{"zip_code":"9690404","prefecture":"福島県","prefecture_kana":"フクシマケン","city":"岩瀬郡鏡石町","city_kana":"イワセグンカガミイシマチ","town":"東町","town_kana":"ヒガシマチ","prefecture_code":7},{"zip_code":"9690404","prefecture":"福島県","prefecture_kana":"フクシマケン","city":"岩瀬郡鏡石町","city_kana":"イワセグンカガミイシマチ","town":"堀米","town_kana":"ホリゴメ","prefecture_code":7},{"zip_code":"9690404","prefecture":"福島県","prefecture_kana":"フクシマケン","city":"岩瀬郡鏡石町","city_kana":"イワセグンカガミイシマチ","town":"緑町","town_kana":"ミドリマチ","prefecture_code":7},{"zip_code":"9690404","prefecture":"福島県","prefecture_kana":"フクシマケン","city":"岩瀬郡鏡石町","city_kana":"イワセグンカガミイシマチ","town":"南町","town_kana":"ミナミマチ","prefecture_code":7}],"0402":[{"zip_code":"9690402","prefecture":"福島県","prefecture_kana":"フクシマケン","city":"岩瀬郡鏡石町","city_kana":"イワセグンカガミイシマチ","town":"池の台","town_kana":"イケノダイ","prefecture_code":7},{"zip_code":"9690402","prefecture":"福島県","prefecture_kana":"フクシマケン","city":"岩瀬郡鏡石町","city_kana":"イワセグンカガミイシマチ","town":"大宮","town_kana":"オオミヤ","prefecture_code":7},{"zip_code":"9690402","prefecture":"福島県","prefecture_kana":"フクシマケン","city":"岩瀬郡鏡石町","city_kana":"イワセグンカガミイシマチ","town":"河原","town_kana":"カワラ","prefecture_code":7},{"zip_code":"9690402","prefecture":"福島県","prefecture_kana":"フクシマケン","city":"岩瀬郡鏡石町","city_kana":"イワセグンカガミイシマチ","town":"北町","town_kana":"キタマチ","prefecture_code":7},{"zip_code":"9690402","prefecture":"福島県","prefecture_kana":"フクシマケン","city":"岩瀬郡鏡石町","city_kana":"イワセグンカガミイシマチ","town":"新町","town_kana":"シンマチ","prefecture_code":7},{"zip_code":"9690402","prefecture":"福島県","prefecture_kana":"フクシマケン","city":"岩瀬郡鏡石町","city_kana":"イワセグンカガミイシマチ","town":"諏訪町","town_kana":"スワマチ","prefecture_code":7},{"zip_code":"9690402","prefecture":"福島県","prefecture_kana":"フクシマケン","city":"岩瀬郡鏡石町","city_kana":"イワセグンカガミイシマチ","town":"成田","town_kana":"ナリタ","prefecture_code":7},{"zip_code":"9690402","prefecture":"福島県","prefecture_kana":"フクシマケン","city":"岩瀬郡鏡石町","city_kana":"イワセグンカガミイシマチ","town":"成田原町","town_kana":"ナリタハラマチ","prefecture_code":7},{"zip_code":"9690402","prefecture":"福島県","prefecture_kana":"フクシマケン","city":"岩瀬郡鏡石町","city_kana":"イワセグンカガミイシマチ","town":"成田東","town_kana":"ナリタヒガシ","prefecture_code":7},{"zip_code":"9690402","prefecture":"福島県","prefecture_kana":"フクシマケン","city":"岩瀬郡鏡石町","city_kana":"イワセグンカガミイシマチ","town":"東河原","town_kana":"ヒガシカワラ","prefecture_code":7}],"0401":[{"zip_code":"9690401","prefecture":"福島県","prefecture_kana":"フクシマケン","city":"岩瀬郡鏡石町","city_kana":"イワセグンカガミイシマチ","town":"池ノ原","town_kana":"イケノハラ","prefecture_code":7},{"zip_code":"9690401","prefecture":"福島県","prefecture_kana":"フクシマケン","city":"岩瀬郡鏡石町","city_kana":"イワセグンカガミイシマチ","town":"大池","town_kana":"オオイケ","prefecture_code":7},{"zip_code":"9690401","prefecture":"福島県","prefecture_kana":"フクシマケン","city":"岩瀬郡鏡石町","city_kana":"イワセグンカガミイシマチ","town":"岡ノ内","town_kana":"オカノウチ","prefecture_code":7},{"zip_code":"9690401","prefecture":"福島県","prefecture_kana":"フクシマケン","city":"岩瀬郡鏡石町","city_kana":"イワセグンカガミイシマチ","town":"鏡田かげ沼町","town_kana":"カガミダカゲヌママチ","prefecture_code":7},{"zip_code":"9690401","prefecture":"福島県","prefecture_kana":"フクシマケン","city":"岩瀬郡鏡石町","city_kana":"イワセグンカガミイシマチ","town":"鏡沼","town_kana":"カガミヌマ","prefecture_code":7},{"zip_code":"9690401","prefecture":"福島県","prefecture_kana":"フクシマケン","city":"岩瀬郡鏡石町","city_kana":"イワセグンカガミイシマチ","town":"鹿島","town_kana":"カシマ","prefecture_code":7},{"zip_code":"9690401","prefecture":"福島県","prefecture_kana":"フクシマケン","city":"岩瀬郡鏡石町","city_kana":"イワセグンカガミイシマチ","town":"蒲之沢町","town_kana":"カバノサワマチ","prefecture_code":7},{"zip_code":"9690401","prefecture":"福島県","prefecture_kana":"フクシマケン","city":"岩瀬郡鏡石町","city_kana":"イワセグンカガミイシマチ","town":"川崎町","town_kana":"カワサキマチ","prefecture_code":7},{"zip_code":"9690401","prefecture":"福島県","prefecture_kana":"フクシマケン","city":"岩瀬郡鏡石町","city_kana":"イワセグンカガミイシマチ","town":"五斗蒔町","town_kana":"ゴトマキマチ","prefecture_code":7},{"zip_code":"9690401","prefecture":"福島県","prefecture_kana":"フクシマケン","city":"岩瀬郡鏡石町","city_kana":"イワセグンカガミイシマチ","town":"境","town_kana":"サカイ","prefecture_code":7},{"zip_code":"9690401","prefecture":"福島県","prefecture_kana":"フクシマケン","city":"岩瀬郡鏡石町","city_kana":"イワセグンカガミイシマチ","town":"桜町","town_kana":"サクラマチ","prefecture_code":7},{"zip_code":"9690401","prefecture":"福島県","prefecture_kana":"フクシマケン","city":"岩瀬郡鏡石町","city_kana":"イワセグンカガミイシマチ","town":"高久田","town_kana":"タカクダ","prefecture_code":7},{"zip_code":"9690401","prefecture":"福島県","prefecture_kana":"フクシマケン","city":"岩瀬郡鏡石町","city_kana":"イワセグンカガミイシマチ","town":"豊田","town_kana":"トヨダ","prefecture_code":7},{"zip_code":"9690401","prefecture":"福島県","prefecture_kana":"フクシマケン","city":"岩瀬郡鏡石町","city_kana":"イワセグンカガミイシマチ","town":"仁井田","town_kana":"ニイダ","prefecture_code":7},{"zip_code":"9690401","prefecture":"福島県","prefecture_kana":"フクシマケン","city":"岩瀬郡鏡石町","city_kana":"イワセグンカガミイシマチ","town":"東鹿島","town_kana":"ヒガシカシマ","prefecture_code":7},{"zip_code":"9690401","prefecture":"福島県","prefecture_kana":"フクシマケン","city":"岩瀬郡鏡石町","city_kana":"イワセグンカガミイシマチ","town":"深内町","town_kana":"フコウチマチ","prefecture_code":7},{"zip_code":"9690401","prefecture":"福島県","prefecture_kana":"フクシマケン","city":"岩瀬郡鏡石町","city_kana":"イワセグンカガミイシマチ","town":"不時沼","town_kana":"フジヌマ","prefecture_code":7},{"zip_code":"9690401","prefecture":"福島県","prefecture_kana":"フクシマケン","city":"岩瀬郡鏡石町","city_kana":"イワセグンカガミイシマチ","town":"前山","town_kana":"マエヤマ","prefecture_code":7},{"zip_code":"9690401","prefecture":"福島県","prefecture_kana":"フクシマケン","city":"岩瀬郡鏡石町","city_kana":"イワセグンカガミイシマチ","town":"南高久田","town_kana":"ミナミタカクダ","prefecture_code":7},{"zip_code":"9690401","prefecture":"福島県","prefecture_kana":"フクシマケン","city":"岩瀬郡鏡石町","city_kana":"イワセグンカガミイシマチ","town":"本町","town_kana":"モトマチ","prefecture_code":7}],"0403":[{"zip_code":"9690403","prefecture":"福島県","prefecture_kana":"フクシマケン","city":"岩瀬郡鏡石町","city_kana":"イワセグンカガミイシマチ","town":"借宿","town_kana":"カリヤド","prefecture_code":7},{"zip_code":"9690403","prefecture":"福島県","prefecture_kana":"フクシマケン","city":"岩瀬郡鏡石町","city_kana":"イワセグンカガミイシマチ","town":"久来石","town_kana":"キュウライシ","prefecture_code":7},{"zip_code":"9690403","prefecture":"福島県","prefecture_kana":"フクシマケン","city":"岩瀬郡鏡石町","city_kana":"イワセグンカガミイシマチ","town":"久来石南","town_kana":"キュウライシミナミ","prefecture_code":7},{"zip_code":"9690403","prefecture":"福島県","prefecture_kana":"フクシマケン","city":"岩瀬郡鏡石町","city_kana":"イワセグンカガミイシマチ","town":"小栗山","town_kana":"コグリヤマ","prefecture_code":7},{"zip_code":"9690403","prefecture":"福島県","prefecture_kana":"フクシマケン","city":"岩瀬郡鏡石町","city_kana":"イワセグンカガミイシマチ","town":"桜岡","town_kana":"サクラオカ","prefecture_code":7},{"zip_code":"9690403","prefecture":"福島県","prefecture_kana":"フクシマケン","city":"岩瀬郡鏡石町","city_kana":"イワセグンカガミイシマチ","town":"城ノ内","town_kana":"ジョウノウチ","prefecture_code":7},{"zip_code":"9690403","prefecture":"福島県","prefecture_kana":"フクシマケン","city":"岩瀬郡鏡石町","city_kana":"イワセグンカガミイシマチ","town":"堂前","town_kana":"ドウマエ","prefecture_code":7}],"5300":{"zip_code":"9695300","prefecture":"福島県","prefecture_kana":"フクシマケン","city":"南会津郡下郷町","city_kana":"ミナミアイヅグンシモゴウマチ","town":"","town_kana":"","prefecture_code":7},"5333":{"zip_code":"9695333","prefecture":"福島県","prefecture_kana":"フクシマケン","city":"南会津郡下郷町","city_kana":"ミナミアイヅグンシモゴウマチ","town":"合川","town_kana":"アイカワ","prefecture_code":7},"5315":{"zip_code":"9695315","prefecture":"福島県","prefecture_kana":"フクシマケン","city":"南会津郡下郷町","city_kana":"ミナミアイヅグンシモゴウマチ","town":"荒石","town_kana":"アライシ","prefecture_code":7},"5331":{"zip_code":"9695331","prefecture":"福島県","prefecture_kana":"フクシマケン","city":"南会津郡下郷町","city_kana":"ミナミアイヅグンシモゴウマチ","town":"澳田","town_kana":"イクタ","prefecture_code":7},"5316":{"zip_code":"9695316","prefecture":"福島県","prefecture_kana":"フクシマケン","city":"南会津郡下郷町","city_kana":"ミナミアイヅグンシモゴウマチ","town":"石井","town_kana":"イシイ","prefecture_code":7},"5318":{"zip_code":"9695318","prefecture":"福島県","prefecture_kana":"フクシマケン","city":"南会津郡下郷町","city_kana":"ミナミアイヅグンシモゴウマチ","town":"磯上","town_kana":"イソガミ","prefecture_code":7},"5326":{"zip_code":"9695326","prefecture":"福島県","prefecture_kana":"フクシマケン","city":"南会津郡下郷町","city_kana":"ミナミアイヅグンシモゴウマチ","town":"栄富","town_kana":"エイトミ","prefecture_code":7},"5202":{"zip_code":"9695202","prefecture":"福島県","prefecture_kana":"フクシマケン","city":"南会津郡下郷町","city_kana":"ミナミアイヅグンシモゴウマチ","town":"枝松","town_kana":"エダマツ","prefecture_code":7},"5207":{"zip_code":"9695207","prefecture":"福島県","prefecture_kana":"フクシマケン","city":"南会津郡下郷町","city_kana":"ミナミアイヅグンシモゴウマチ","town":"大内","town_kana":"オオウチ","prefecture_code":7},"5205":{"zip_code":"9695205","prefecture":"福島県","prefecture_kana":"フクシマケン","city":"南会津郡下郷町","city_kana":"ミナミアイヅグンシモゴウマチ","town":"大沢","town_kana":"オオサワ","prefecture_code":7},"5334":{"zip_code":"9695334","prefecture":"福島県","prefecture_kana":"フクシマケン","city":"南会津郡下郷町","city_kana":"ミナミアイヅグンシモゴウマチ","town":"大松川","town_kana":"オオマツカワ","prefecture_code":7},"5343":{"zip_code":"9695343","prefecture":"福島県","prefecture_kana":"フクシマケン","city":"南会津郡下郷町","city_kana":"ミナミアイヅグンシモゴウマチ","town":"落合","town_kana":"オチアイ","prefecture_code":7},"5342":{"zip_code":"9695342","prefecture":"福島県","prefecture_kana":"フクシマケン","city":"南会津郡下郷町","city_kana":"ミナミアイヅグンシモゴウマチ","town":"音金","town_kana":"オトカネ","prefecture_code":7},"5208":{"zip_code":"9695208","prefecture":"福島県","prefecture_kana":"フクシマケン","city":"南会津郡下郷町","city_kana":"ミナミアイヅグンシモゴウマチ","town":"小沼崎","town_kana":"オヌマザキ","prefecture_code":7},"5323":{"zip_code":"9695323","prefecture":"福島県","prefecture_kana":"フクシマケン","city":"南会津郡下郷町","city_kana":"ミナミアイヅグンシモゴウマチ","town":"桑取火","town_kana":"クワトビ","prefecture_code":7},"5321":{"zip_code":"9695321","prefecture":"福島県","prefecture_kana":"フクシマケン","city":"南会津郡下郷町","city_kana":"ミナミアイヅグンシモゴウマチ","town":"沢口","town_kana":"サワグチ","prefecture_code":7},"5344":{"zip_code":"9695344","prefecture":"福島県","prefecture_kana":"フクシマケン","city":"南会津郡下郷町","city_kana":"ミナミアイヅグンシモゴウマチ","town":"沢田","town_kana":"サワダ","prefecture_code":7},"5345":{"zip_code":"9695345","prefecture":"福島県","prefecture_kana":"フクシマケン","city":"南会津郡下郷町","city_kana":"ミナミアイヅグンシモゴウマチ","town":"塩生","town_kana":"シオノウ","prefecture_code":7},"5317":{"zip_code":"9695317","prefecture":"福島県","prefecture_kana":"フクシマケン","city":"南会津郡下郷町","city_kana":"ミナミアイヅグンシモゴウマチ","town":"志源行","town_kana":"シゲンギョウ","prefecture_code":7},"5203":{"zip_code":"9695203","prefecture":"福島県","prefecture_kana":"フクシマケン","city":"南会津郡下郷町","city_kana":"ミナミアイヅグンシモゴウマチ","town":"白岩","town_kana":"シライワ","prefecture_code":7},"5201":{"zip_code":"9695201","prefecture":"福島県","prefecture_kana":"フクシマケン","city":"南会津郡下郷町","city_kana":"ミナミアイヅグンシモゴウマチ","town":"高陦","town_kana":"タカシマ","prefecture_code":7},"5312":{"zip_code":"9695312","prefecture":"福島県","prefecture_kana":"フクシマケン","city":"南会津郡下郷町","city_kana":"ミナミアイヅグンシモゴウマチ","town":"戸赤","town_kana":"トアカ","prefecture_code":7},"5311":{"zip_code":"9695311","prefecture":"福島県","prefecture_kana":"フクシマケン","city":"南会津郡下郷町","city_kana":"ミナミアイヅグンシモゴウマチ","town":"豊成","town_kana":"トヨナリ","prefecture_code":7},"5332":{"zip_code":"9695332","prefecture":"福島県","prefecture_kana":"フクシマケン","city":"南会津郡下郷町","city_kana":"ミナミアイヅグンシモゴウマチ","town":"中妻","town_kana":"ナカヅマ","prefecture_code":7},"5325":{"zip_code":"9695325","prefecture":"福島県","prefecture_kana":"フクシマケン","city":"南会津郡下郷町","city_kana":"ミナミアイヅグンシモゴウマチ","town":"中山","town_kana":"ナカヤマ","prefecture_code":7},"5335":{"zip_code":"9695335","prefecture":"福島県","prefecture_kana":"フクシマケン","city":"南会津郡下郷町","city_kana":"ミナミアイヅグンシモゴウマチ","town":"南倉沢","town_kana":"ナグラサワ","prefecture_code":7},"5341":{"zip_code":"9695341","prefecture":"福島県","prefecture_kana":"フクシマケン","city":"南会津郡下郷町","city_kana":"ミナミアイヅグンシモゴウマチ","town":"野際新田","town_kana":"ノギワシンデン","prefecture_code":7},"5313":{"zip_code":"9695313","prefecture":"福島県","prefecture_kana":"フクシマケン","city":"南会津郡下郷町","city_kana":"ミナミアイヅグンシモゴウマチ","town":"原","town_kana":"ハラ","prefecture_code":7},"5314":{"zip_code":"9695314","prefecture":"福島県","prefecture_kana":"フクシマケン","city":"南会津郡下郷町","city_kana":"ミナミアイヅグンシモゴウマチ","town":"日影","town_kana":"ヒカゲ","prefecture_code":7},"5204":{"zip_code":"9695204","prefecture":"福島県","prefecture_kana":"フクシマケン","city":"南会津郡下郷町","city_kana":"ミナミアイヅグンシモゴウマチ","town":"弥五島","town_kana":"ヤゴシマ","prefecture_code":7},"5324":{"zip_code":"9695324","prefecture":"福島県","prefecture_kana":"フクシマケン","city":"南会津郡下郷町","city_kana":"ミナミアイヅグンシモゴウマチ","town":"安張","town_kana":"ヤスハリ","prefecture_code":7},"5206":{"zip_code":"9695206","prefecture":"福島県","prefecture_kana":"フクシマケン","city":"南会津郡下郷町","city_kana":"ミナミアイヅグンシモゴウマチ","town":"湯野上","town_kana":"ユノカミ","prefecture_code":7},"5322":{"zip_code":"9695322","prefecture":"福島県","prefecture_kana":"フクシマケン","city":"南会津郡下郷町","city_kana":"ミナミアイヅグンシモゴウマチ","town":"領毛","town_kana":"リョウゲ","prefecture_code":7},"2701":[{"zip_code":"9692701","prefecture":"福島県","prefecture_kana":"フクシマケン","city":"耶麻郡北塩原村","city_kana":"ヤマグンキタシオバラムラ","town":"檜原秋元","town_kana":"ヒバラアキモト","prefecture_code":7},{"zip_code":"9692701","prefecture":"福島県","prefecture_kana":"フクシマケン","city":"耶麻郡北塩原村","city_kana":"ヤマグンキタシオバラムラ","town":"檜原荒砂沢山","town_kana":"ヒバラアラスナサワヤマ","prefecture_code":7},{"zip_code":"9692701","prefecture":"福島県","prefecture_kana":"フクシマケン","city":"耶麻郡北塩原村","city_kana":"ヤマグンキタシオバラムラ","town":"檜原裏磐梯","town_kana":"ヒバラウラバンダイ","prefecture_code":7},{"zip_code":"9692701","prefecture":"福島県","prefecture_kana":"フクシマケン","city":"耶麻郡北塩原村","city_kana":"ヤマグンキタシオバラムラ","town":"檜原大府平","town_kana":"ヒバラオオブダイラ","prefecture_code":7},{"zip_code":"9692701","prefecture":"福島県","prefecture_kana":"フクシマケン","city":"耶麻郡北塩原村","city_kana":"ヤマグンキタシオバラムラ","town":"檜原小野川","town_kana":"ヒバラオノガワ","prefecture_code":7},{"zip_code":"9692701","prefecture":"福島県","prefecture_kana":"フクシマケン","city":"耶麻郡北塩原村","city_kana":"ヤマグンキタシオバラムラ","town":"檜原小野川原","town_kana":"ヒバラオノガワハラ","prefecture_code":7},{"zip_code":"9692701","prefecture":"福島県","prefecture_kana":"フクシマケン","city":"耶麻郡北塩原村","city_kana":"ヤマグンキタシオバラムラ","town":"檜原剣ケ峯","town_kana":"ヒバラケンガミネ","prefecture_code":7},{"zip_code":"9692701","prefecture":"福島県","prefecture_kana":"フクシマケン","city":"耶麻郡北塩原村","city_kana":"ヤマグンキタシオバラムラ","town":"檜原狐鷹森","town_kana":"ヒバラコタカモリ","prefecture_code":7},{"zip_code":"9692701","prefecture":"福島県","prefecture_kana":"フクシマケン","city":"耶麻郡北塩原村","city_kana":"ヤマグンキタシオバラムラ","town":"檜原五色沼","town_kana":"ヒバラゴシキヌマ","prefecture_code":7},{"zip_code":"9692701","prefecture":"福島県","prefecture_kana":"フクシマケン","city":"耶麻郡北塩原村","city_kana":"ヤマグンキタシオバラムラ","town":"檜原甚九郎山","town_kana":"ヒバラジンクロウヤマ","prefecture_code":7},{"zip_code":"9692701","prefecture":"福島県","prefecture_kana":"フクシマケン","city":"耶麻郡北塩原村","city_kana":"ヤマグンキタシオバラムラ","town":"檜原曽原山","town_kana":"ヒバラソハラヤマ","prefecture_code":7},{"zip_code":"9692701","prefecture":"福島県","prefecture_kana":"フクシマケン","city":"耶麻郡北塩原村","city_kana":"ヤマグンキタシオバラムラ","town":"檜原寺沢山","town_kana":"ヒバラテラサワヤマ","prefecture_code":7},{"zip_code":"9692701","prefecture":"福島県","prefecture_kana":"フクシマケン","city":"耶麻郡北塩原村","city_kana":"ヤマグンキタシオバラムラ","town":"檜原蛇平原山","town_kana":"ヒバラヘビタイラハラヤマ","prefecture_code":7},{"zip_code":"9692701","prefecture":"福島県","prefecture_kana":"フクシマケン","city":"耶麻郡北塩原村","city_kana":"ヤマグンキタシオバラムラ","town":"檜原湯平山","town_kana":"ヒバラユダイラヤマ","prefecture_code":7},{"zip_code":"9692701","prefecture":"福島県","prefecture_kana":"フクシマケン","city":"耶麻郡北塩原村","city_kana":"ヤマグンキタシオバラムラ","town":"檜原簗部沢山","town_kana":"ヒバラヤナベサワヤマ","prefecture_code":7}],"4400":{"zip_code":"9694400","prefecture":"福島県","prefecture_kana":"フクシマケン","city":"耶麻郡西会津町","city_kana":"ヤマグンニシアイヅマチ","town":"","town_kana":"","prefecture_code":7},"4734":{"zip_code":"9694734","prefecture":"福島県","prefecture_kana":"フクシマケン","city":"耶麻郡西会津町","city_kana":"ヤマグンニシアイヅマチ","town":"奥川飯里","town_kana":"オクガワイイサト","prefecture_code":7},"4732":{"zip_code":"9694732","prefecture":"福島県","prefecture_kana":"フクシマケン","city":"耶麻郡西会津町","city_kana":"ヤマグンニシアイヅマチ","town":"奥川飯沢","town_kana":"オクガワイイザワ","prefecture_code":7},"4731":{"zip_code":"9694731","prefecture":"福島県","prefecture_kana":"フクシマケン","city":"耶麻郡西会津町","city_kana":"ヤマグンニシアイヅマチ","town":"奥川飯根","town_kana":"オクガワイイネ","prefecture_code":7},"4733":{"zip_code":"9694733","prefecture":"福島県","prefecture_kana":"フクシマケン","city":"耶麻郡西会津町","city_kana":"ヤマグンニシアイヅマチ","town":"奥川大綱木","town_kana":"オクガワオオツナギ","prefecture_code":7},"4737":{"zip_code":"9694737","prefecture":"福島県","prefecture_kana":"フクシマケン","city":"耶麻郡西会津町","city_kana":"ヤマグンニシアイヅマチ","town":"奥川高陽根","town_kana":"オクガワカヤネ","prefecture_code":7},"4735":{"zip_code":"9694735","prefecture":"福島県","prefecture_kana":"フクシマケン","city":"耶麻郡西会津町","city_kana":"ヤマグンニシアイヅマチ","town":"奥川豊島","town_kana":"オクガワトヨシマ","prefecture_code":7},"4736":{"zip_code":"9694736","prefecture":"福島県","prefecture_kana":"フクシマケン","city":"耶麻郡西会津町","city_kana":"ヤマグンニシアイヅマチ","town":"奥川元島","town_kana":"オクガワモトシマ","prefecture_code":7},"4402":{"zip_code":"9694402","prefecture":"福島県","prefecture_kana":"フクシマケン","city":"耶麻郡西会津町","city_kana":"ヤマグンニシアイヅマチ","town":"尾野本","town_kana":"オノモト","prefecture_code":7},"4512":{"zip_code":"9694512","prefecture":"福島県","prefecture_kana":"フクシマケン","city":"耶麻郡西会津町","city_kana":"ヤマグンニシアイヅマチ","town":"上野尻","town_kana":"カミノジリ","prefecture_code":7},"4405":{"zip_code":"9694405","prefecture":"福島県","prefecture_kana":"フクシマケン","city":"耶麻郡西会津町","city_kana":"ヤマグンニシアイヅマチ","town":"下谷","town_kana":"シタタニ","prefecture_code":7},"4515":{"zip_code":"9694515","prefecture":"福島県","prefecture_kana":"フクシマケン","city":"耶麻郡西会津町","city_kana":"ヤマグンニシアイヅマチ","town":"下野尻","town_kana":"シモノジリ","prefecture_code":7},"4622":{"zip_code":"9694622","prefecture":"福島県","prefecture_kana":"フクシマケン","city":"耶麻郡西会津町","city_kana":"ヤマグンニシアイヅマチ","town":"新郷笹川","town_kana":"シンゴウササガワ","prefecture_code":7},"4623":{"zip_code":"9694623","prefecture":"福島県","prefecture_kana":"フクシマケン","city":"耶麻郡西会津町","city_kana":"ヤマグンニシアイヅマチ","town":"新郷豊洲","town_kana":"シンゴウトヨス","prefecture_code":7},"4621":{"zip_code":"9694621","prefecture":"福島県","prefecture_kana":"フクシマケン","city":"耶麻郡西会津町","city_kana":"ヤマグンニシアイヅマチ","town":"新郷冨士","town_kana":"シンゴウフジ","prefecture_code":7},"4624":{"zip_code":"9694624","prefecture":"福島県","prefecture_kana":"フクシマケン","city":"耶麻郡西会津町","city_kana":"ヤマグンニシアイヅマチ","town":"新郷三河","town_kana":"シンゴウミカワ","prefecture_code":7},"4403":{"zip_code":"9694403","prefecture":"福島県","prefecture_kana":"フクシマケン","city":"耶麻郡西会津町","city_kana":"ヤマグンニシアイヅマチ","town":"束松","town_kana":"タバネマツ","prefecture_code":7},"4401":{"zip_code":"9694401","prefecture":"福島県","prefecture_kana":"フクシマケン","city":"耶麻郡西会津町","city_kana":"ヤマグンニシアイヅマチ","town":"登世島","town_kana":"トセジマ","prefecture_code":7},"4406":{"zip_code":"9694406","prefecture":"福島県","prefecture_kana":"フクシマケン","city":"耶麻郡西会津町","city_kana":"ヤマグンニシアイヅマチ","town":"野沢","town_kana":"ノザワ","prefecture_code":7},"4514":{"zip_code":"9694514","prefecture":"福島県","prefecture_kana":"フクシマケン","city":"耶麻郡西会津町","city_kana":"ヤマグンニシアイヅマチ","town":"宝坂宝坂","town_kana":"ホウサカホウサカ","prefecture_code":7},"4513":{"zip_code":"9694513","prefecture":"福島県","prefecture_kana":"フクシマケン","city":"耶麻郡西会津町","city_kana":"ヤマグンニシアイヅマチ","town":"宝坂屋敷","town_kana":"ホウサカヤシキ","prefecture_code":7},"4404":{"zip_code":"9694404","prefecture":"福島県","prefecture_kana":"フクシマケン","city":"耶麻郡西会津町","city_kana":"ヤマグンニシアイヅマチ","town":"睦合","town_kana":"ムツアイ","prefecture_code":7},"4511":{"zip_code":"9694511","prefecture":"福島県","prefecture_kana":"フクシマケン","city":"耶麻郡西会津町","city_kana":"ヤマグンニシアイヅマチ","town":"群岡","town_kana":"ムラオカ","prefecture_code":7},"3300":{"zip_code":"9693300","prefecture":"福島県","prefecture_kana":"フクシマケン","city":"耶麻郡磐梯町","city_kana":"ヤマグンバンダイマチ","town":"","town_kana":"","prefecture_code":7},"3303":{"zip_code":"9693303","prefecture":"福島県","prefecture_kana":"フクシマケン","city":"耶麻郡磐梯町","city_kana":"ヤマグンバンダイマチ","town":"赤枝","town_kana":"アカエダ","prefecture_code":7},"3304":{"zip_code":"9693304","prefecture":"福島県","prefecture_kana":"フクシマケン","city":"耶麻郡磐梯町","city_kana":"ヤマグンバンダイマチ","town":"大谷","town_kana":"オオタニ","prefecture_code":7},"3302":{"zip_code":"9693302","prefecture":"福島県","prefecture_kana":"フクシマケン","city":"耶麻郡磐梯町","city_kana":"ヤマグンバンダイマチ","town":"更科","town_kana":"サラシナ","prefecture_code":7},"3301":{"zip_code":"9693301","prefecture":"福島県","prefecture_kana":"フクシマケン","city":"耶麻郡磐梯町","city_kana":"ヤマグンバンダイマチ","town":"磐梯","town_kana":"バンダイ","prefecture_code":7},"3100":{"zip_code":"9693100","prefecture":"福島県","prefecture_kana":"フクシマケン","city":"耶麻郡猪苗代町","city_kana":"ヤマグンイナワシロマチ","town":"","town_kana":"","prefecture_code":7},"3121":[{"zip_code":"9693121","prefecture":"福島県","prefecture_kana":"フクシマケン","city":"耶麻郡猪苗代町","city_kana":"ヤマグンイナワシロマチ","town":"芦原","town_kana":"アシハラ","prefecture_code":7},{"zip_code":"9693121","prefecture":"福島県","prefecture_kana":"フクシマケン","city":"耶麻郡猪苗代町","city_kana":"ヤマグンイナワシロマチ","town":"裏町","town_kana":"ウラマチ","prefecture_code":7},{"zip_code":"9693121","prefecture":"福島県","prefecture_kana":"フクシマケン","city":"耶麻郡猪苗代町","city_kana":"ヤマグンイナワシロマチ","town":"オヒテ川","town_kana":"オヒテカワ","prefecture_code":7},{"zip_code":"9693121","prefecture":"福島県","prefecture_kana":"フクシマケン","city":"耶麻郡猪苗代町","city_kana":"ヤマグンイナワシロマチ","town":"上ザル田","town_kana":"カミザルタ","prefecture_code":7},{"zip_code":"9693121","prefecture":"福島県","prefecture_kana":"フクシマケン","city":"耶麻郡猪苗代町","city_kana":"ヤマグンイナワシロマチ","town":"津金沢","town_kana":"ツガネサワ","prefecture_code":7},{"zip_code":"9693121","prefecture":"福島県","prefecture_kana":"フクシマケン","city":"耶麻郡猪苗代町","city_kana":"ヤマグンイナワシロマチ","town":"寺東","town_kana":"テラヒガシ","prefecture_code":7},{"zip_code":"9693121","prefecture":"福島県","prefecture_kana":"フクシマケン","city":"耶麻郡猪苗代町","city_kana":"ヤマグンイナワシロマチ","town":"梨木西","town_kana":"ナシノキニシ","prefecture_code":7},{"zip_code":"9693121","prefecture":"福島県","prefecture_kana":"フクシマケン","city":"耶麻郡猪苗代町","city_kana":"ヤマグンイナワシロマチ","town":"町東","town_kana":"マチヒガシ","prefecture_code":7},{"zip_code":"9693121","prefecture":"福島県","prefecture_kana":"フクシマケン","city":"耶麻郡猪苗代町","city_kana":"ヤマグンイナワシロマチ","town":"横まくり","town_kana":"ヨコマクリ","prefecture_code":7},{"zip_code":"9693121","prefecture":"福島県","prefecture_kana":"フクシマケン","city":"耶麻郡猪苗代町","city_kana":"ヤマグンイナワシロマチ","town":"横マクリ","town_kana":"ヨコマクリ","prefecture_code":7}],"3122":[{"zip_code":"9693122","prefecture":"福島県","prefecture_kana":"フクシマケン","city":"耶麻郡猪苗代町","city_kana":"ヤマグンイナワシロマチ","town":"新町","town_kana":"アラマチ","prefecture_code":7},{"zip_code":"9693122","prefecture":"福島県","prefecture_kana":"フクシマケン","city":"耶麻郡猪苗代町","city_kana":"ヤマグンイナワシロマチ","town":"カキ田","town_kana":"カキタ","prefecture_code":7},{"zip_code":"9693122","prefecture":"福島県","prefecture_kana":"フクシマケン","city":"耶麻郡猪苗代町","city_kana":"ヤマグンイナワシロマチ","town":"ガギ田","town_kana":"ガギタ","prefecture_code":7},{"zip_code":"9693122","prefecture":"福島県","prefecture_kana":"フクシマケン","city":"耶麻郡猪苗代町","city_kana":"ヤマグンイナワシロマチ","town":"坂下","town_kana":"サカシタ","prefecture_code":7},{"zip_code":"9693122","prefecture":"福島県","prefecture_kana":"フクシマケン","city":"耶麻郡猪苗代町","city_kana":"ヤマグンイナワシロマチ","town":"塚田","town_kana":"ツカタ","prefecture_code":7},{"zip_code":"9693122","prefecture":"福島県","prefecture_kana":"フクシマケン","city":"耶麻郡猪苗代町","city_kana":"ヤマグンイナワシロマチ","town":"町尻","town_kana":"マチジリ","prefecture_code":7},{"zip_code":"9693122","prefecture":"福島県","prefecture_kana":"フクシマケン","city":"耶麻郡猪苗代町","city_kana":"ヤマグンイナワシロマチ","town":"本町","town_kana":"モトマチ","prefecture_code":7}],"3101":[{"zip_code":"9693101","prefecture":"福島県","prefecture_kana":"フクシマケン","city":"耶麻郡猪苗代町","city_kana":"ヤマグンイナワシロマチ","town":"家ノ前","town_kana":"イエノマエ","prefecture_code":7},{"zip_code":"9693101","prefecture":"福島県","prefecture_kana":"フクシマケン","city":"耶麻郡猪苗代町","city_kana":"ヤマグンイナワシロマチ","town":"上ノ山","town_kana":"ウエノヤマ","prefecture_code":7},{"zip_code":"9693101","prefecture":"福島県","prefecture_kana":"フクシマケン","city":"耶麻郡猪苗代町","city_kana":"ヤマグンイナワシロマチ","town":"大谷地","town_kana":"オオヤチ","prefecture_code":7},{"zip_code":"9693101","prefecture":"福島県","prefecture_kana":"フクシマケン","city":"耶麻郡猪苗代町","city_kana":"ヤマグンイナワシロマチ","town":"欠上り","town_kana":"カケアガリ","prefecture_code":7},{"zip_code":"9693101","prefecture":"福島県","prefecture_kana":"フクシマケン","city":"耶麻郡猪苗代町","city_kana":"ヤマグンイナワシロマチ","town":"北ノ林","town_kana":"キタノハヤシ","prefecture_code":7},{"zip_code":"9693101","prefecture":"福島県","prefecture_kana":"フクシマケン","city":"耶麻郡猪苗代町","city_kana":"ヤマグンイナワシロマチ","town":"行人壇","town_kana":"ギョウニンダン","prefecture_code":7},{"zip_code":"9693101","prefecture":"福島県","prefecture_kana":"フクシマケン","city":"耶麻郡猪苗代町","city_kana":"ヤマグンイナワシロマチ","town":"グミ沢原","town_kana":"グミザワハラ","prefecture_code":7},{"zip_code":"9693101","prefecture":"福島県","prefecture_kana":"フクシマケン","city":"耶麻郡猪苗代町","city_kana":"ヤマグンイナワシロマチ","town":"渋谷","town_kana":"シブタニ","prefecture_code":7},{"zip_code":"9693101","prefecture":"福島県","prefecture_kana":"フクシマケン","city":"耶麻郡猪苗代町","city_kana":"ヤマグンイナワシロマチ","town":"清水","town_kana":"シミズ","prefecture_code":7},{"zip_code":"9693101","prefecture":"福島県","prefecture_kana":"フクシマケン","city":"耶麻郡猪苗代町","city_kana":"ヤマグンイナワシロマチ","town":"清水端","town_kana":"シミズバタ","prefecture_code":7},{"zip_code":"9693101","prefecture":"福島県","prefecture_kana":"フクシマケン","city":"耶麻郡猪苗代町","city_kana":"ヤマグンイナワシロマチ","town":"下辺沢","town_kana":"シモヘンザワ","prefecture_code":7},{"zip_code":"9693101","prefecture":"福島県","prefecture_kana":"フクシマケン","city":"耶麻郡猪苗代町","city_kana":"ヤマグンイナワシロマチ","town":"菖蒲田","town_kana":"ショウブダ","prefecture_code":7},{"zip_code":"9693101","prefecture":"福島県","prefecture_kana":"フクシマケン","city":"耶麻郡猪苗代町","city_kana":"ヤマグンイナワシロマチ","town":"新堀田東","town_kana":"シンボリタヒガシ","prefecture_code":7},{"zip_code":"9693101","prefecture":"福島県","prefecture_kana":"フクシマケン","city":"耶麻郡猪苗代町","city_kana":"ヤマグンイナワシロマチ","town":"新堀西","town_kana":"シンボリニシ","prefecture_code":7},{"zip_code":"9693101","prefecture":"福島県","prefecture_kana":"フクシマケン","city":"耶麻郡猪苗代町","city_kana":"ヤマグンイナワシロマチ","town":"堰間上","town_kana":"セキマウエ","prefecture_code":7},{"zip_code":"9693101","prefecture":"福島県","prefecture_kana":"フクシマケン","city":"耶麻郡猪苗代町","city_kana":"ヤマグンイナワシロマチ","town":"芹沢","town_kana":"セリサワ","prefecture_code":7},{"zip_code":"9693101","prefecture":"福島県","prefecture_kana":"フクシマケン","city":"耶麻郡猪苗代町","city_kana":"ヤマグンイナワシロマチ","town":"土湯沢山","town_kana":"ツチユサワヤマ","prefecture_code":7},{"zip_code":"9693101","prefecture":"福島県","prefecture_kana":"フクシマケン","city":"耶麻郡猪苗代町","city_kana":"ヤマグンイナワシロマチ","town":"土手間","town_kana":"ドテマ","prefecture_code":7},{"zip_code":"9693101","prefecture":"福島県","prefecture_kana":"フクシマケン","city":"耶麻郡猪苗代町","city_kana":"ヤマグンイナワシロマチ","town":"中道西","town_kana":"ナカミチニシ","prefecture_code":7},{"zip_code":"9693101","prefecture":"福島県","prefecture_kana":"フクシマケン","city":"耶麻郡猪苗代町","city_kana":"ヤマグンイナワシロマチ","town":"長坂","town_kana":"ナガサカ","prefecture_code":7},{"zip_code":"9693101","prefecture":"福島県","prefecture_kana":"フクシマケン","city":"耶麻郡猪苗代町","city_kana":"ヤマグンイナワシロマチ","town":"沼ノ倉","town_kana":"ヌマノクラ","prefecture_code":7},{"zip_code":"9693101","prefecture":"福島県","prefecture_kana":"フクシマケン","city":"耶麻郡猪苗代町","city_kana":"ヤマグンイナワシロマチ","town":"琵琶沢原","town_kana":"ビワサワハラ","prefecture_code":7},{"zip_code":"9693101","prefecture":"福島県","prefecture_kana":"フクシマケン","city":"耶麻郡猪苗代町","city_kana":"ヤマグンイナワシロマチ","town":"辺沢","town_kana":"ヘンザワ","prefecture_code":7},{"zip_code":"9693101","prefecture":"福島県","prefecture_kana":"フクシマケン","city":"耶麻郡猪苗代町","city_kana":"ヤマグンイナワシロマチ","town":"程塚","town_kana":"ホドヅカ","prefecture_code":7},{"zip_code":"9693101","prefecture":"福島県","prefecture_kana":"フクシマケン","city":"耶麻郡猪苗代町","city_kana":"ヤマグンイナワシロマチ","town":"三ツ屋","town_kana":"ミツヤ","prefecture_code":7},{"zip_code":"9693101","prefecture":"福島県","prefecture_kana":"フクシマケン","city":"耶麻郡猪苗代町","city_kana":"ヤマグンイナワシロマチ","town":"村中","town_kana":"ムラナカ","prefecture_code":7},{"zip_code":"9693101","prefecture":"福島県","prefecture_kana":"フクシマケン","city":"耶麻郡猪苗代町","city_kana":"ヤマグンイナワシロマチ","town":"村北","town_kana":"ムラキタ","prefecture_code":7},{"zip_code":"9693101","prefecture":"福島県","prefecture_kana":"フクシマケン","city":"耶麻郡猪苗代町","city_kana":"ヤマグンイナワシロマチ","town":"山神原","town_kana":"ヤマカミハラ","prefecture_code":7}],"3111":[{"zip_code":"9693111","prefecture":"福島県","prefecture_kana":"フクシマケン","city":"耶麻郡猪苗代町","city_kana":"ヤマグンイナワシロマチ","town":"雷","town_kana":"イカズチ","prefecture_code":7},{"zip_code":"9693111","prefecture":"福島県","prefecture_kana":"フクシマケン","city":"耶麻郡猪苗代町","city_kana":"ヤマグンイナワシロマチ","town":"出雲壇","town_kana":"イズモダン","prefecture_code":7},{"zip_code":"9693111","prefecture":"福島県","prefecture_kana":"フクシマケン","city":"耶麻郡猪苗代町","city_kana":"ヤマグンイナワシロマチ","town":"板橋北","town_kana":"イタバシキタ","prefecture_code":7},{"zip_code":"9693111","prefecture":"福島県","prefecture_kana":"フクシマケン","city":"耶麻郡猪苗代町","city_kana":"ヤマグンイナワシロマチ","town":"太田","town_kana":"オオタ","prefecture_code":7},{"zip_code":"9693111","prefecture":"福島県","prefecture_kana":"フクシマケン","city":"耶麻郡猪苗代町","city_kana":"ヤマグンイナワシロマチ","town":"太田西","town_kana":"オオタニシ","prefecture_code":7},{"zip_code":"9693111","prefecture":"福島県","prefecture_kana":"フクシマケン","city":"耶麻郡猪苗代町","city_kana":"ヤマグンイナワシロマチ","town":"小黒川","town_kana":"オグロガワ","prefecture_code":7},{"zip_code":"9693111","prefecture":"福島県","prefecture_kana":"フクシマケン","city":"耶麻郡猪苗代町","city_kana":"ヤマグンイナワシロマチ","town":"窪田","town_kana":"クボタ","prefecture_code":7},{"zip_code":"9693111","prefecture":"福島県","prefecture_kana":"フクシマケン","city":"耶麻郡猪苗代町","city_kana":"ヤマグンイナワシロマチ","town":"窪ノ内","town_kana":"クボノウチ","prefecture_code":7},{"zip_code":"9693111","prefecture":"福島県","prefecture_kana":"フクシマケン","city":"耶麻郡猪苗代町","city_kana":"ヤマグンイナワシロマチ","town":"窪南","town_kana":"クボミナミ","prefecture_code":7},{"zip_code":"9693111","prefecture":"福島県","prefecture_kana":"フクシマケン","city":"耶麻郡猪苗代町","city_kana":"ヤマグンイナワシロマチ","town":"御三壇","town_kana":"ゴサンダン","prefecture_code":7},{"zip_code":"9693111","prefecture":"福島県","prefecture_kana":"フクシマケン","city":"耶麻郡猪苗代町","city_kana":"ヤマグンイナワシロマチ","town":"五百苅","town_kana":"ゴヒャクガリ","prefecture_code":7},{"zip_code":"9693111","prefecture":"福島県","prefecture_kana":"フクシマケン","city":"耶麻郡猪苗代町","city_kana":"ヤマグンイナワシロマチ","town":"猿壇","town_kana":"サルダン","prefecture_code":7},{"zip_code":"9693111","prefecture":"福島県","prefecture_kana":"フクシマケン","city":"耶麻郡猪苗代町","city_kana":"ヤマグンイナワシロマチ","town":"二丁田","town_kana":"ニチョウダ","prefecture_code":7},{"zip_code":"9693111","prefecture":"福島県","prefecture_kana":"フクシマケン","city":"耶麻郡猪苗代町","city_kana":"ヤマグンイナワシロマチ","town":"沼田","town_kana":"ヌマタ","prefecture_code":7},{"zip_code":"9693111","prefecture":"福島県","prefecture_kana":"フクシマケン","city":"耶麻郡猪苗代町","city_kana":"ヤマグンイナワシロマチ","town":"東町裏","town_kana":"ヒガシマチウラ","prefecture_code":7},{"zip_code":"9693111","prefecture":"福島県","prefecture_kana":"フクシマケン","city":"耶麻郡猪苗代町","city_kana":"ヤマグンイナワシロマチ","town":"明円","town_kana":"ミョウエン","prefecture_code":7},{"zip_code":"9693111","prefecture":"福島県","prefecture_kana":"フクシマケン","city":"耶麻郡猪苗代町","city_kana":"ヤマグンイナワシロマチ","town":"村東下","town_kana":"ムラヒガシシタ","prefecture_code":7},{"zip_code":"9693111","prefecture":"福島県","prefecture_kana":"フクシマケン","city":"耶麻郡猪苗代町","city_kana":"ヤマグンイナワシロマチ","town":"村東","town_kana":"ムラヒガシ","prefecture_code":7}],"3131":[{"zip_code":"9693131","prefecture":"福島県","prefecture_kana":"フクシマケン","city":"耶麻郡猪苗代町","city_kana":"ヤマグンイナワシロマチ","town":"今泉","town_kana":"イマイズミ","prefecture_code":7},{"zip_code":"9693131","prefecture":"福島県","prefecture_kana":"フクシマケン","city":"耶麻郡猪苗代町","city_kana":"ヤマグンイナワシロマチ","town":"上屋敷","town_kana":"カミヤシキ","prefecture_code":7},{"zip_code":"9693131","prefecture":"福島県","prefecture_kana":"フクシマケン","city":"耶麻郡猪苗代町","city_kana":"ヤマグンイナワシロマチ","town":"下園","town_kana":"シモゾノ","prefecture_code":7},{"zip_code":"9693131","prefecture":"福島県","prefecture_kana":"フクシマケン","city":"耶麻郡猪苗代町","city_kana":"ヤマグンイナワシロマチ","town":"新堀向","town_kana":"シンボリムカイ","prefecture_code":7},{"zip_code":"9693131","prefecture":"福島県","prefecture_kana":"フクシマケン","city":"耶麻郡猪苗代町","city_kana":"ヤマグンイナワシロマチ","town":"西舘","town_kana":"ニシダテ","prefecture_code":7},{"zip_code":"9693131","prefecture":"福島県","prefecture_kana":"フクシマケン","city":"耶麻郡猪苗代町","city_kana":"ヤマグンイナワシロマチ","town":"東谷地","town_kana":"ヒガシヤチ","prefecture_code":7},{"zip_code":"9693131","prefecture":"福島県","prefecture_kana":"フクシマケン","city":"耶麻郡猪苗代町","city_kana":"ヤマグンイナワシロマチ","town":"村南","town_kana":"ムラミナミ","prefecture_code":7}],"3141":[{"zip_code":"9693141","prefecture":"福島県","prefecture_kana":"フクシマケン","city":"耶麻郡猪苗代町","city_kana":"ヤマグンイナワシロマチ","town":"磐里","town_kana":"イワサト","prefecture_code":7},{"zip_code":"9693141","prefecture":"福島県","prefecture_kana":"フクシマケン","city":"耶麻郡猪苗代町","city_kana":"ヤマグンイナワシロマチ","town":"六角","town_kana":"ロッカク","prefecture_code":7}],"3286":{"zip_code":"9693286","prefecture":"福島県","prefecture_kana":"フクシマケン","city":"耶麻郡猪苗代町","city_kana":"ヤマグンイナワシロマチ","town":"磐根","town_kana":"イワネ","prefecture_code":7},"3102":[{"zip_code":"9693102","prefecture":"福島県","prefecture_kana":"フクシマケン","city":"耶麻郡猪苗代町","city_kana":"ヤマグンイナワシロマチ","town":"右近山","town_kana":"ウコンヤマ","prefecture_code":7},{"zip_code":"9693102","prefecture":"福島県","prefecture_kana":"フクシマケン","city":"耶麻郡猪苗代町","city_kana":"ヤマグンイナワシロマチ","town":"西峰","town_kana":"ニシミネ","prefecture_code":7},{"zip_code":"9693102","prefecture":"福島県","prefecture_kana":"フクシマケン","city":"耶麻郡猪苗代町","city_kana":"ヤマグンイナワシロマチ","town":"猫石山","town_kana":"ネコイシヤマ","prefecture_code":7},{"zip_code":"9693102","prefecture":"福島県","prefecture_kana":"フクシマケン","city":"耶麻郡猪苗代町","city_kana":"ヤマグンイナワシロマチ","town":"葉山","town_kana":"ハヤマ","prefecture_code":7},{"zip_code":"9693102","prefecture":"福島県","prefecture_kana":"フクシマケン","city":"耶麻郡猪苗代町","city_kana":"ヤマグンイナワシロマチ","town":"雛草","town_kana":"ヒナクサ","prefecture_code":7},{"zip_code":"9693102","prefecture":"福島県","prefecture_kana":"フクシマケン","city":"耶麻郡猪苗代町","city_kana":"ヤマグンイナワシロマチ","town":"見禰","town_kana":"ミネ","prefecture_code":7},{"zip_code":"9693102","prefecture":"福島県","prefecture_kana":"フクシマケン","city":"耶麻郡猪苗代町","city_kana":"ヤマグンイナワシロマチ","town":"見禰山","town_kana":"ミネヤマ","prefecture_code":7}],"3113":[{"zip_code":"9693113","prefecture":"福島県","prefecture_kana":"フクシマケン","city":"耶麻郡猪苗代町","city_kana":"ヤマグンイナワシロマチ","town":"大道西","town_kana":"オオミチニシ","prefecture_code":7},{"zip_code":"9693113","prefecture":"福島県","prefecture_kana":"フクシマケン","city":"耶麻郡猪苗代町","city_kana":"ヤマグンイナワシロマチ","town":"北半坂","town_kana":"キタハンザカ","prefecture_code":7},{"zip_code":"9693113","prefecture":"福島県","prefecture_kana":"フクシマケン","city":"耶麻郡猪苗代町","city_kana":"ヤマグンイナワシロマチ","town":"新地","town_kana":"シンチ","prefecture_code":7},{"zip_code":"9693113","prefecture":"福島県","prefecture_kana":"フクシマケン","city":"耶麻郡猪苗代町","city_kana":"ヤマグンイナワシロマチ","town":"茶園","town_kana":"チャエン","prefecture_code":7},{"zip_code":"9693113","prefecture":"福島県","prefecture_kana":"フクシマケン","city":"耶麻郡猪苗代町","city_kana":"ヤマグンイナワシロマチ","town":"堤下","town_kana":"ツツミシタ","prefecture_code":7},{"zip_code":"9693113","prefecture":"福島県","prefecture_kana":"フクシマケン","city":"耶麻郡猪苗代町","city_kana":"ヤマグンイナワシロマチ","town":"堤北","town_kana":"ツツミキタ","prefecture_code":7},{"zip_code":"9693113","prefecture":"福島県","prefecture_kana":"フクシマケン","city":"耶麻郡猪苗代町","city_kana":"ヤマグンイナワシロマチ","town":"鶴峰西","town_kana":"ツルミネニシ","prefecture_code":7},{"zip_code":"9693113","prefecture":"福島県","prefecture_kana":"フクシマケン","city":"耶麻郡猪苗代町","city_kana":"ヤマグンイナワシロマチ","town":"樋場","town_kana":"トイバ","prefecture_code":7},{"zip_code":"9693113","prefecture":"福島県","prefecture_kana":"フクシマケン","city":"耶麻郡猪苗代町","city_kana":"ヤマグンイナワシロマチ","town":"樋場道下","town_kana":"トイバミチシタ","prefecture_code":7},{"zip_code":"9693113","prefecture":"福島県","prefecture_kana":"フクシマケン","city":"耶麻郡猪苗代町","city_kana":"ヤマグンイナワシロマチ","town":"並杉西","town_kana":"ナミスギニシ","prefecture_code":7},{"zip_code":"9693113","prefecture":"福島県","prefecture_kana":"フクシマケン","city":"耶麻郡猪苗代町","city_kana":"ヤマグンイナワシロマチ","town":"土町","town_kana":"ハニマチ","prefecture_code":7},{"zip_code":"9693113","prefecture":"福島県","prefecture_kana":"フクシマケン","city":"耶麻郡猪苗代町","city_kana":"ヤマグンイナワシロマチ","town":"土町西裡","town_kana":"ハニマチニシウラ","prefecture_code":7},{"zip_code":"9693113","prefecture":"福島県","prefecture_kana":"フクシマケン","city":"耶麻郡猪苗代町","city_kana":"ヤマグンイナワシロマチ","town":"土町南","town_kana":"ハニマチミナミ","prefecture_code":7},{"zip_code":"9693113","prefecture":"福島県","prefecture_kana":"フクシマケン","city":"耶麻郡猪苗代町","city_kana":"ヤマグンイナワシロマチ","town":"半坂","town_kana":"ハンザカ","prefecture_code":7},{"zip_code":"9693113","prefecture":"福島県","prefecture_kana":"フクシマケン","city":"耶麻郡猪苗代町","city_kana":"ヤマグンイナワシロマチ","town":"町西","town_kana":"マチニシ","prefecture_code":7},{"zip_code":"9693113","prefecture":"福島県","prefecture_kana":"フクシマケン","city":"耶麻郡猪苗代町","city_kana":"ヤマグンイナワシロマチ","town":"南半坂","town_kana":"ミナミハンザカ","prefecture_code":7}],"3285":{"zip_code":"9693285","prefecture":"福島県","prefecture_kana":"フクシマケン","city":"耶麻郡猪苗代町","city_kana":"ヤマグンイナワシロマチ","town":"翁沢","town_kana":"オキナザワ","prefecture_code":7},"3283":{"zip_code":"9693283","prefecture":"福島県","prefecture_kana":"フクシマケン","city":"耶麻郡猪苗代町","city_kana":"ヤマグンイナワシロマチ","town":"長田","town_kana":"オサダ","prefecture_code":7},"3132":{"zip_code":"9693132","prefecture":"福島県","prefecture_kana":"フクシマケン","city":"耶麻郡猪苗代町","city_kana":"ヤマグンイナワシロマチ","town":"堅田","town_kana":"カタダ","prefecture_code":7},"2272":{"zip_code":"9692272","prefecture":"福島県","prefecture_kana":"フクシマケン","city":"耶麻郡猪苗代町","city_kana":"ヤマグンイナワシロマチ","town":"金田","town_kana":"カネダ","prefecture_code":7},"3103":[{"zip_code":"9693103","prefecture":"福島県","prefecture_kana":"フクシマケン","city":"耶麻郡猪苗代町","city_kana":"ヤマグンイナワシロマチ","town":"鹿野境","town_kana":"カノザカイ","prefecture_code":7},{"zip_code":"9693103","prefecture":"福島県","prefecture_kana":"フクシマケン","city":"耶麻郡猪苗代町","city_kana":"ヤマグンイナワシロマチ","town":"上村前","town_kana":"カミムラマエ","prefecture_code":7},{"zip_code":"9693103","prefecture":"福島県","prefecture_kana":"フクシマケン","city":"耶麻郡猪苗代町","city_kana":"ヤマグンイナワシロマチ","town":"上村東","town_kana":"カミムラヒガシ","prefecture_code":7},{"zip_code":"9693103","prefecture":"福島県","prefecture_kana":"フクシマケン","city":"耶麻郡猪苗代町","city_kana":"ヤマグンイナワシロマチ","town":"桐木沢","town_kana":"キリノキザワ","prefecture_code":7},{"zip_code":"9693103","prefecture":"福島県","prefecture_kana":"フクシマケン","city":"耶麻郡猪苗代町","city_kana":"ヤマグンイナワシロマチ","town":"五輪原","town_kana":"ゴリンパラ","prefecture_code":7},{"zip_code":"9693103","prefecture":"福島県","prefecture_kana":"フクシマケン","city":"耶麻郡猪苗代町","city_kana":"ヤマグンイナワシロマチ","town":"諏訪前","town_kana":"スワマエ","prefecture_code":7},{"zip_code":"9693103","prefecture":"福島県","prefecture_kana":"フクシマケン","city":"耶麻郡猪苗代町","city_kana":"ヤマグンイナワシロマチ","town":"諏訪東","town_kana":"スワヒガシ","prefecture_code":7},{"zip_code":"9693103","prefecture":"福島県","prefecture_kana":"フクシマケン","city":"耶麻郡猪苗代町","city_kana":"ヤマグンイナワシロマチ","town":"諏訪西","town_kana":"スワニシ","prefecture_code":7},{"zip_code":"9693103","prefecture":"福島県","prefecture_kana":"フクシマケン","city":"耶麻郡猪苗代町","city_kana":"ヤマグンイナワシロマチ","town":"禰次","town_kana":"ネツギ","prefecture_code":7},{"zip_code":"9693103","prefecture":"福島県","prefecture_kana":"フクシマケン","city":"耶麻郡猪苗代町","city_kana":"ヤマグンイナワシロマチ","town":"ハノ木沢","town_kana":"ハノキザワ","prefecture_code":7},{"zip_code":"9693103","prefecture":"福島県","prefecture_kana":"フクシマケン","city":"耶麻郡猪苗代町","city_kana":"ヤマグンイナワシロマチ","town":"林崎","town_kana":"ハヤシザキ","prefecture_code":7},{"zip_code":"9693103","prefecture":"福島県","prefecture_kana":"フクシマケン","city":"耶麻郡猪苗代町","city_kana":"ヤマグンイナワシロマチ","town":"町島田","town_kana":"マチシマダ","prefecture_code":7}],"2663":{"zip_code":"9692663","prefecture":"福島県","prefecture_kana":"フクシマケン","city":"耶麻郡猪苗代町","city_kana":"ヤマグンイナワシロマチ","town":"川桁","town_kana":"カワゲタ","prefecture_code":7},"2752":{"zip_code":"9692752","prefecture":"福島県","prefecture_kana":"フクシマケン","city":"耶麻郡猪苗代町","city_kana":"ヤマグンイナワシロマチ","town":"蚕養","town_kana":"コガイ","prefecture_code":7},"3123":[{"zip_code":"9693123","prefecture":"福島県","prefecture_kana":"フクシマケン","city":"耶麻郡猪苗代町","city_kana":"ヤマグンイナワシロマチ","town":"古城跡","town_kana":"コジョウアト","prefecture_code":7},{"zip_code":"9693123","prefecture":"福島県","prefecture_kana":"フクシマケン","city":"耶麻郡猪苗代町","city_kana":"ヤマグンイナワシロマチ","town":"古城町","town_kana":"コジョウマチ","prefecture_code":7},{"zip_code":"9693123","prefecture":"福島県","prefecture_kana":"フクシマケン","city":"耶麻郡猪苗代町","city_kana":"ヤマグンイナワシロマチ","town":"城南","town_kana":"シロミナミ","prefecture_code":7},{"zip_code":"9693123","prefecture":"福島県","prefecture_kana":"フクシマケン","city":"耶麻郡猪苗代町","city_kana":"ヤマグンイナワシロマチ","town":"鶴田","town_kana":"ツルタ","prefecture_code":7}],"3282":{"zip_code":"9693282","prefecture":"福島県","prefecture_kana":"フクシマケン","city":"耶麻郡猪苗代町","city_kana":"ヤマグンイナワシロマチ","town":"酸奨沢","town_kana":"サンショウザワ","prefecture_code":7},"2273":{"zip_code":"9692273","prefecture":"福島県","prefecture_kana":"フクシマケン","city":"耶麻郡猪苗代町","city_kana":"ヤマグンイナワシロマチ","town":"関都","town_kana":"セキト","prefecture_code":7},"3133":{"zip_code":"9693133","prefecture":"福島県","prefecture_kana":"フクシマケン","city":"耶麻郡猪苗代町","city_kana":"ヤマグンイナワシロマチ","town":"千代田","town_kana":"チヨダ","prefecture_code":7},"3112":[{"zip_code":"9693112","prefecture":"福島県","prefecture_kana":"フクシマケン","city":"耶麻郡猪苗代町","city_kana":"ヤマグンイナワシロマチ","town":"堤","town_kana":"ツツミ","prefecture_code":7},{"zip_code":"9693112","prefecture":"福島県","prefecture_kana":"フクシマケン","city":"耶麻郡猪苗代町","city_kana":"ヤマグンイナワシロマチ","town":"寺後","town_kana":"テラゴ","prefecture_code":7},{"zip_code":"9693112","prefecture":"福島県","prefecture_kana":"フクシマケン","city":"耶麻郡猪苗代町","city_kana":"ヤマグンイナワシロマチ","town":"中町","town_kana":"ナカマチ","prefecture_code":7},{"zip_code":"9693112","prefecture":"福島県","prefecture_kana":"フクシマケン","city":"耶麻郡猪苗代町","city_kana":"ヤマグンイナワシロマチ","town":"馬場","town_kana":"ババ","prefecture_code":7},{"zip_code":"9693112","prefecture":"福島県","prefecture_kana":"フクシマケン","city":"耶麻郡猪苗代町","city_kana":"ヤマグンイナワシロマチ","town":"弁才天西","town_kana":"ベンザイテンニシ","prefecture_code":7}],"2274":{"zip_code":"9692274","prefecture":"福島県","prefecture_kana":"フクシマケン","city":"耶麻郡猪苗代町","city_kana":"ヤマグンイナワシロマチ","town":"壺楊","town_kana":"ツボヨウ","prefecture_code":7},"2271":{"zip_code":"9692271","prefecture":"福島県","prefecture_kana":"フクシマケン","city":"耶麻郡猪苗代町","city_kana":"ヤマグンイナワシロマチ","town":"中小松","town_kana":"ナカコマツ","prefecture_code":7},"3281":{"zip_code":"9693281","prefecture":"福島県","prefecture_kana":"フクシマケン","city":"耶麻郡猪苗代町","city_kana":"ヤマグンイナワシロマチ","town":"西葉山","town_kana":"ニシハヤマ","prefecture_code":7},"3287":{"zip_code":"9693287","prefecture":"福島県","prefecture_kana":"フクシマケン","city":"耶麻郡猪苗代町","city_kana":"ヤマグンイナワシロマチ","town":"不動","town_kana":"フドウ","prefecture_code":7},"2661":{"zip_code":"9692661","prefecture":"福島県","prefecture_kana":"フクシマケン","city":"耶麻郡猪苗代町","city_kana":"ヤマグンイナワシロマチ","town":"三郷","town_kana":"ミサト","prefecture_code":7},"3284":{"zip_code":"9693284","prefecture":"福島県","prefecture_kana":"フクシマケン","city":"耶麻郡猪苗代町","city_kana":"ヤマグンイナワシロマチ","town":"三ツ和","town_kana":"ミツワ","prefecture_code":7},"2662":{"zip_code":"9692662","prefecture":"福島県","prefecture_kana":"フクシマケン","city":"耶麻郡猪苗代町","city_kana":"ヤマグンイナワシロマチ","town":"八幡","town_kana":"ヤハタ","prefecture_code":7},"2275":{"zip_code":"9692275","prefecture":"福島県","prefecture_kana":"フクシマケン","city":"耶麻郡猪苗代町","city_kana":"ヤマグンイナワシロマチ","town":"山潟","town_kana":"ヤマガタ","prefecture_code":7},"2751":{"zip_code":"9692751","prefecture":"福島県","prefecture_kana":"フクシマケン","city":"耶麻郡猪苗代町","city_kana":"ヤマグンイナワシロマチ","town":"若宮","town_kana":"ワカミヤ","prefecture_code":7},"3288":{"zip_code":"9693288","prefecture":"福島県","prefecture_kana":"フクシマケン","city":"耶麻郡猪苗代町","city_kana":"ヤマグンイナワシロマチ","town":"綿場","town_kana":"ワタバ","prefecture_code":7},"6500":{"zip_code":"9696500","prefecture":"福島県","prefecture_kana":"フクシマケン","city":"河沼郡会津坂下町","city_kana":"カワヌマグンアイヅバンゲマチ","town":"","town_kana":"","prefecture_code":7},"6517":{"zip_code":"9696517","prefecture":"福島県","prefecture_kana":"フクシマケン","city":"河沼郡会津坂下町","city_kana":"カワヌマグンアイヅバンゲマチ","town":"合川","town_kana":"アイカワ","prefecture_code":7},"6511":{"zip_code":"9696511","prefecture":"福島県","prefecture_kana":"フクシマケン","city":"河沼郡会津坂下町","city_kana":"カワヌマグンアイヅバンゲマチ","town":"青木","town_kana":"アオキ","prefecture_code":7},"6518":{"zip_code":"9696518","prefecture":"福島県","prefecture_kana":"フクシマケン","city":"河沼郡会津坂下町","city_kana":"カワヌマグンアイヅバンゲマチ","town":"青津","town_kana":"アオヅ","prefecture_code":7},"6535":[{"zip_code":"9696535","prefecture":"福島県","prefecture_kana":"フクシマケン","city":"河沼郡会津坂下町","city_kana":"カワヌマグンアイヅバンゲマチ","town":"家ノ前乙","town_kana":"イエノマエオツ","prefecture_code":7},{"zip_code":"9696535","prefecture":"福島県","prefecture_kana":"フクシマケン","city":"河沼郡会津坂下町","city_kana":"カワヌマグンアイヅバンゲマチ","town":"東屋敷添乙","town_kana":"ヒガシヤシキゾエオツ","prefecture_code":7}],"6553":[{"zip_code":"9696553","prefecture":"福島県","prefecture_kana":"フクシマケン","city":"河沼郡会津坂下町","city_kana":"カワヌマグンアイヅバンゲマチ","town":"石田","town_kana":"イシダ","prefecture_code":7},{"zip_code":"9696553","prefecture":"福島県","prefecture_kana":"フクシマケン","city":"河沼郡会津坂下町","city_kana":"カワヌマグンアイヅバンゲマチ","town":"西南町裏甲","town_kana":"セイナンマチウラコウ","prefecture_code":7}],"6563":{"zip_code":"9696563","prefecture":"福島県","prefecture_kana":"フクシマケン","city":"河沼郡会津坂下町","city_kana":"カワヌマグンアイヅバンゲマチ","town":"市中新町甲","town_kana":"イチナカシンチョウコウ","prefecture_code":7},"6536":{"zip_code":"9696536","prefecture":"福島県","prefecture_kana":"フクシマケン","city":"河沼郡会津坂下町","city_kana":"カワヌマグンアイヅバンゲマチ","town":"市中一番甲","town_kana":"イチナカ1バンコウ","prefecture_code":7},"6543":{"zip_code":"9696543","prefecture":"福島県","prefecture_kana":"フクシマケン","city":"河沼郡会津坂下町","city_kana":"カワヌマグンアイヅバンゲマチ","town":"市中二番甲","town_kana":"イチナカ2バンコウ","prefecture_code":7},"6547":{"zip_code":"9696547","prefecture":"福島県","prefecture_kana":"フクシマケン","city":"河沼郡会津坂下町","city_kana":"カワヌマグンアイヅバンゲマチ","town":"市中三番甲","town_kana":"イチナカ3バンコウ","prefecture_code":7},"6557":{"zip_code":"9696557","prefecture":"福島県","prefecture_kana":"フクシマケン","city":"河沼郡会津坂下町","city_kana":"カワヌマグンアイヅバンゲマチ","town":"市中四番甲","town_kana":"イチナカ4バンコウ","prefecture_code":7},"6562":[{"zip_code":"9696562","prefecture":"福島県","prefecture_kana":"フクシマケン","city":"河沼郡会津坂下町","city_kana":"カワヌマグンアイヅバンゲマチ","town":"一丁田甲","town_kana":"イッチョウダコウ","prefecture_code":7},{"zip_code":"9696562","prefecture":"福島県","prefecture_kana":"フクシマケン","city":"河沼郡会津坂下町","city_kana":"カワヌマグンアイヅバンゲマチ","town":"中岡甲","town_kana":"ナカオカコウ","prefecture_code":7}],"6566":{"zip_code":"9696566","prefecture":"福島県","prefecture_kana":"フクシマケン","city":"河沼郡会津坂下町","city_kana":"カワヌマグンアイヅバンゲマチ","town":"稲荷塚","town_kana":"イナリヅカ","prefecture_code":7},"6537":[{"zip_code":"9696537","prefecture":"福島県","prefecture_kana":"フクシマケン","city":"河沼郡会津坂下町","city_kana":"カワヌマグンアイヅバンゲマチ","town":"戌亥乙","town_kana":"イヌイオツ","prefecture_code":7},{"zip_code":"9696537","prefecture":"福島県","prefecture_kana":"フクシマケン","city":"河沼郡会津坂下町","city_kana":"カワヌマグンアイヅバンゲマチ","town":"西ノ宮乙","town_kana":"ニシノミヤオツ","prefecture_code":7}],"6576":{"zip_code":"9696576","prefecture":"福島県","prefecture_kana":"フクシマケン","city":"河沼郡会津坂下町","city_kana":"カワヌマグンアイヅバンゲマチ","town":"牛川","town_kana":"ウシカワ","prefecture_code":7},"6503":{"zip_code":"9696503","prefecture":"福島県","prefecture_kana":"フクシマケン","city":"河沼郡会津坂下町","city_kana":"カワヌマグンアイヅバンゲマチ","town":"宇内","town_kana":"ウナイ","prefecture_code":7},"6538":[{"zip_code":"9696538","prefecture":"福島県","prefecture_kana":"フクシマケン","city":"河沼郡会津坂下町","city_kana":"カワヌマグンアイヅバンゲマチ","town":"姥ケ下乙","town_kana":"ウバガシタオツ","prefecture_code":7},{"zip_code":"9696538","prefecture":"福島県","prefecture_kana":"フクシマケン","city":"河沼郡会津坂下町","city_kana":"カワヌマグンアイヅバンゲマチ","town":"上窪道北乙","town_kana":"カミクボミチキタオツ","prefecture_code":7},{"zip_code":"9696538","prefecture":"福島県","prefecture_kana":"フクシマケン","city":"河沼郡会津坂下町","city_kana":"カワヌマグンアイヅバンゲマチ","town":"上沼ノ上丙","town_kana":"カミヌマノウエヘイ","prefecture_code":7}],"6523":{"zip_code":"9696523","prefecture":"福島県","prefecture_kana":"フクシマケン","city":"河沼郡会津坂下町","city_kana":"カワヌマグンアイヅバンゲマチ","town":"海老細","town_kana":"エビサイ","prefecture_code":7},"6519":[{"zip_code":"9696519","prefecture":"福島県","prefecture_kana":"フクシマケン","city":"河沼郡会津坂下町","city_kana":"カワヌマグンアイヅバンゲマチ","town":"御池田","town_kana":"オイケダ","prefecture_code":7},{"zip_code":"9696519","prefecture":"福島県","prefecture_kana":"フクシマケン","city":"河沼郡会津坂下町","city_kana":"カワヌマグンアイヅバンゲマチ","town":"三谷","town_kana":"ミタニ","prefecture_code":7}],"6573":{"zip_code":"9696573","prefecture":"福島県","prefecture_kana":"フクシマケン","city":"河沼郡会津坂下町","city_kana":"カワヌマグンアイヅバンゲマチ","town":"大沖","town_kana":"オオオキ","prefecture_code":7},"6507":{"zip_code":"9696507","prefecture":"福島県","prefecture_kana":"フクシマケン","city":"河沼郡会津坂下町","city_kana":"カワヌマグンアイヅバンゲマチ","town":"大上","town_kana":"オオカミ","prefecture_code":7},"6544":[{"zip_code":"9696544","prefecture":"福島県","prefecture_kana":"フクシマケン","city":"河沼郡会津坂下町","city_kana":"カワヌマグンアイヅバンゲマチ","town":"大堀川西甲","town_kana":"オオホリカワニシコウ","prefecture_code":7},{"zip_code":"9696544","prefecture":"福島県","prefecture_kana":"フクシマケン","city":"河沼郡会津坂下町","city_kana":"カワヌマグンアイヅバンゲマチ","town":"東南町裏甲","town_kana":"トウナンマチウラコウ","prefecture_code":7}],"6534":[{"zip_code":"9696534","prefecture":"福島県","prefecture_kana":"フクシマケン","city":"河沼郡会津坂下町","city_kana":"カワヌマグンアイヅバンゲマチ","town":"小川原","town_kana":"オガワハラ","prefecture_code":7},{"zip_code":"9696534","prefecture":"福島県","prefecture_kana":"フクシマケン","city":"河沼郡会津坂下町","city_kana":"カワヌマグンアイヅバンゲマチ","town":"北小川原乙","town_kana":"キタオガワハラオツ","prefecture_code":7},{"zip_code":"9696534","prefecture":"福島県","prefecture_kana":"フクシマケン","city":"河沼郡会津坂下町","city_kana":"カワヌマグンアイヅバンゲマチ","town":"原道東甲","town_kana":"ハラミチヒガシコウ","prefecture_code":7}],"6525":{"zip_code":"9696525","prefecture":"福島県","prefecture_kana":"フクシマケン","city":"河沼郡会津坂下町","city_kana":"カワヌマグンアイヅバンゲマチ","town":"開津","town_kana":"カイヅ","prefecture_code":7},"6581":{"zip_code":"9696581","prefecture":"福島県","prefecture_kana":"フクシマケン","city":"河沼郡会津坂下町","city_kana":"カワヌマグンアイヅバンゲマチ","town":"片門","town_kana":"カタカド","prefecture_code":7},"6575":{"zip_code":"9696575","prefecture":"福島県","prefecture_kana":"フクシマケン","city":"河沼郡会津坂下町","city_kana":"カワヌマグンアイヅバンゲマチ","town":"勝大","town_kana":"カツオオ","prefecture_code":7},"6521":{"zip_code":"9696521","prefecture":"福島県","prefecture_kana":"フクシマケン","city":"河沼郡会津坂下町","city_kana":"カワヌマグンアイヅバンゲマチ","town":"金上","town_kana":"カナガミ","prefecture_code":7},"6541":[{"zip_code":"9696541","prefecture":"福島県","prefecture_kana":"フクシマケン","city":"河沼郡会津坂下町","city_kana":"カワヌマグンアイヅバンゲマチ","town":"上四十石甲","town_kana":"カミシジュツコクコウ","prefecture_code":7},{"zip_code":"9696541","prefecture":"福島県","prefecture_kana":"フクシマケン","city":"河沼郡会津坂下町","city_kana":"カワヌマグンアイヅバンゲマチ","town":"四十石","town_kana":"シジュツコク","prefecture_code":7}],"6533":[{"zip_code":"9696533","prefecture":"福島県","prefecture_kana":"フクシマケン","city":"河沼郡会津坂下町","city_kana":"カワヌマグンアイヅバンゲマチ","town":"上ノ台乙","town_kana":"カミノダイオツ","prefecture_code":7},{"zip_code":"9696533","prefecture":"福島県","prefecture_kana":"フクシマケン","city":"河沼郡会津坂下町","city_kana":"カワヌマグンアイヅバンゲマチ","town":"台ノ下","town_kana":"ダイノシタ","prefecture_code":7}],"6556":[{"zip_code":"9696556","prefecture":"福島県","prefecture_kana":"フクシマケン","city":"河沼郡会津坂下町","city_kana":"カワヌマグンアイヅバンゲマチ","town":"北逆水甲","town_kana":"キタサカミズコウ","prefecture_code":7},{"zip_code":"9696556","prefecture":"福島県","prefecture_kana":"フクシマケン","city":"河沼郡会津坂下町","city_kana":"カワヌマグンアイヅバンゲマチ","town":"逆水","town_kana":"サカミズ","prefecture_code":7}],"6583":{"zip_code":"9696583","prefecture":"福島県","prefecture_kana":"フクシマケン","city":"河沼郡会津坂下町","city_kana":"カワヌマグンアイヅバンゲマチ","town":"気多宮","town_kana":"ケタノミヤ","prefecture_code":7},"6542":[{"zip_code":"9696542","prefecture":"福島県","prefecture_kana":"フクシマケン","city":"河沼郡会津坂下町","city_kana":"カワヌマグンアイヅバンゲマチ","town":"光明寺東甲","town_kana":"コウミョウジヒガシコウ","prefecture_code":7},{"zip_code":"9696542","prefecture":"福島県","prefecture_kana":"フクシマケン","city":"河沼郡会津坂下町","city_kana":"カワヌマグンアイヅバンゲマチ","town":"古屋敷甲","town_kana":"フルヤシキコウ","prefecture_code":7}],"6514":{"zip_code":"9696514","prefecture":"福島県","prefecture_kana":"フクシマケン","city":"河沼郡会津坂下町","city_kana":"カワヌマグンアイヅバンゲマチ","town":"五香","town_kana":"ゴカ","prefecture_code":7},"6545":{"zip_code":"9696545","prefecture":"福島県","prefecture_kana":"フクシマケン","city":"河沼郡会津坂下町","city_kana":"カワヌマグンアイヅバンゲマチ","town":"五反田","town_kana":"ゴタンダ","prefecture_code":7},"6526":{"zip_code":"9696526","prefecture":"福島県","prefecture_kana":"フクシマケン","city":"河沼郡会津坂下町","city_kana":"カワヌマグンアイヅバンゲマチ","town":"五ノ併","town_kana":"ゴノヘイ","prefecture_code":7},"6586":{"zip_code":"9696586","prefecture":"福島県","prefecture_kana":"フクシマケン","city":"河沼郡会津坂下町","city_kana":"カワヌマグンアイヅバンゲマチ","town":"坂本","town_kana":"サカモト","prefecture_code":7},"6555":{"zip_code":"9696555","prefecture":"福島県","prefecture_kana":"フクシマケン","city":"河沼郡会津坂下町","city_kana":"カワヌマグンアイヅバンゲマチ","town":"沢ノ目","town_kana":"サワノメ","prefecture_code":7},"6531":[{"zip_code":"9696531","prefecture":"福島県","prefecture_kana":"フクシマケン","city":"河沼郡会津坂下町","city_kana":"カワヌマグンアイヅバンゲマチ","town":"上口","town_kana":"ジョウグチ","prefecture_code":7},{"zip_code":"9696531","prefecture":"福島県","prefecture_kana":"フクシマケン","city":"河沼郡会津坂下町","city_kana":"カワヌマグンアイヅバンゲマチ","town":"東上口甲","town_kana":"ヒガシジョウグチコウ","prefecture_code":7}],"6528":{"zip_code":"9696528","prefecture":"福島県","prefecture_kana":"フクシマケン","city":"河沼郡会津坂下町","city_kana":"カワヌマグンアイヅバンゲマチ","town":"新開津","town_kana":"シンカイヅ","prefecture_code":7},"6565":{"zip_code":"9696565","prefecture":"福島県","prefecture_kana":"フクシマケン","city":"河沼郡会津坂下町","city_kana":"カワヌマグンアイヅバンゲマチ","town":"惣六","town_kana":"ソウロク","prefecture_code":7},"6561":{"zip_code":"9696561","prefecture":"福島県","prefecture_kana":"フクシマケン","city":"河沼郡会津坂下町","city_kana":"カワヌマグンアイヅバンゲマチ","town":"大道","town_kana":"ダイドウ","prefecture_code":7},"6582":{"zip_code":"9696582","prefecture":"福島県","prefecture_kana":"フクシマケン","city":"河沼郡会津坂下町","city_kana":"カワヌマグンアイヅバンゲマチ","town":"高寺","town_kana":"タカテラ","prefecture_code":7},"6513":{"zip_code":"9696513","prefecture":"福島県","prefecture_kana":"フクシマケン","city":"河沼郡会津坂下町","city_kana":"カワヌマグンアイヅバンゲマチ","town":"立川","town_kana":"タチカワ","prefecture_code":7},"6552":{"zip_code":"9696552","prefecture":"福島県","prefecture_kana":"フクシマケン","city":"河沼郡会津坂下町","city_kana":"カワヌマグンアイヅバンゲマチ","town":"舘ノ内甲","town_kana":"タテノウチコウ","prefecture_code":7},"6551":{"zip_code":"9696551","prefecture":"福島県","prefecture_kana":"フクシマケン","city":"河沼郡会津坂下町","city_kana":"カワヌマグンアイヅバンゲマチ","town":"舘ノ下","town_kana":"タテノシタ","prefecture_code":7},"6587":{"zip_code":"9696587","prefecture":"福島県","prefecture_kana":"フクシマケン","city":"河沼郡会津坂下町","city_kana":"カワヌマグンアイヅバンゲマチ","town":"束松","town_kana":"タバネマツ","prefecture_code":7},"6548":{"zip_code":"9696548","prefecture":"福島県","prefecture_kana":"フクシマケン","city":"河沼郡会津坂下町","city_kana":"カワヌマグンアイヅバンゲマチ","town":"茶屋町甲","town_kana":"チャヤマチコウ","prefecture_code":7},"6524":{"zip_code":"9696524","prefecture":"福島県","prefecture_kana":"フクシマケン","city":"河沼郡会津坂下町","city_kana":"カワヌマグンアイヅバンゲマチ","town":"束原","town_kana":"ツカハラ","prefecture_code":7},"6502":{"zip_code":"9696502","prefecture":"福島県","prefecture_kana":"フクシマケン","city":"河沼郡会津坂下町","city_kana":"カワヌマグンアイヅバンゲマチ","town":"津尻","town_kana":"ツジリ","prefecture_code":7},"6574":{"zip_code":"9696574","prefecture":"福島県","prefecture_kana":"フクシマケン","city":"河沼郡会津坂下町","city_kana":"カワヌマグンアイヅバンゲマチ","town":"樋島","town_kana":"トイシマ","prefecture_code":7},"6584":{"zip_code":"9696584","prefecture":"福島県","prefecture_kana":"フクシマケン","city":"河沼郡会津坂下町","city_kana":"カワヌマグンアイヅバンゲマチ","town":"塔寺","town_kana":"トウデラ","prefecture_code":7},"6516":{"zip_code":"9696516","prefecture":"福島県","prefecture_kana":"フクシマケン","city":"河沼郡会津坂下町","city_kana":"カワヌマグンアイヅバンゲマチ","town":"中泉","town_kana":"ナカイズミ","prefecture_code":7},"6564":{"zip_code":"9696564","prefecture":"福島県","prefecture_kana":"フクシマケン","city":"河沼郡会津坂下町","city_kana":"カワヌマグンアイヅバンゲマチ","town":"中岩田","town_kana":"ナカイワタ","prefecture_code":7},"6501":{"zip_code":"9696501","prefecture":"福島県","prefecture_kana":"フクシマケン","city":"河沼郡会津坂下町","city_kana":"カワヌマグンアイヅバンゲマチ","town":"長井","town_kana":"ナガイ","prefecture_code":7},"6505":{"zip_code":"9696505","prefecture":"福島県","prefecture_kana":"フクシマケン","city":"河沼郡会津坂下町","city_kana":"カワヌマグンアイヅバンゲマチ","town":"新舘","town_kana":"ニイダテ","prefecture_code":7},"6512":{"zip_code":"9696512","prefecture":"福島県","prefecture_kana":"フクシマケン","city":"河沼郡会津坂下町","city_kana":"カワヌマグンアイヅバンゲマチ","town":"沼越","town_kana":"ヌマコシ","prefecture_code":7},"6567":{"zip_code":"9696567","prefecture":"福島県","prefecture_kana":"フクシマケン","city":"河沼郡会津坂下町","city_kana":"カワヌマグンアイヅバンゲマチ","town":"沼田甲","town_kana":"ヌマタコウ","prefecture_code":7},"6572":{"zip_code":"9696572","prefecture":"福島県","prefecture_kana":"フクシマケン","city":"河沼郡会津坂下町","city_kana":"カワヌマグンアイヅバンゲマチ","town":"羽林","town_kana":"ハバヤシ","prefecture_code":7},"6532":[{"zip_code":"9696532","prefecture":"福島県","prefecture_kana":"フクシマケン","city":"河沼郡会津坂下町","city_kana":"カワヌマグンアイヅバンゲマチ","town":"東川前丙","town_kana":"ヒガシカワマエヘイ","prefecture_code":7},{"zip_code":"9696532","prefecture":"福島県","prefecture_kana":"フクシマケン","city":"河沼郡会津坂下町","city_kana":"カワヌマグンアイヅバンゲマチ","town":"道下丙","town_kana":"ミチシタヘイ","prefecture_code":7}],"6571":{"zip_code":"9696571","prefecture":"福島県","prefecture_kana":"フクシマケン","city":"河沼郡会津坂下町","city_kana":"カワヌマグンアイヅバンゲマチ","town":"白狐","town_kana":"ビャッコ","prefecture_code":7},"6527":{"zip_code":"9696527","prefecture":"福島県","prefecture_kana":"フクシマケン","city":"河沼郡会津坂下町","city_kana":"カワヌマグンアイヅバンゲマチ","town":"福原","town_kana":"フクハラ","prefecture_code":7},"6515":{"zip_code":"9696515","prefecture":"福島県","prefecture_kana":"フクシマケン","city":"河沼郡会津坂下町","city_kana":"カワヌマグンアイヅバンゲマチ","town":"福原前","town_kana":"フクハラマエ","prefecture_code":7},"6585":{"zip_code":"9696585","prefecture":"福島県","prefecture_kana":"フクシマケン","city":"河沼郡会津坂下町","city_kana":"カワヌマグンアイヅバンゲマチ","town":"船杉","town_kana":"フナスギ","prefecture_code":7},"6539":{"zip_code":"9696539","prefecture":"福島県","prefecture_kana":"フクシマケン","city":"河沼郡会津坂下町","city_kana":"カワヌマグンアイヅバンゲマチ","town":"古市乙","town_kana":"フルイチオツ","prefecture_code":7},"6549":{"zip_code":"9696549","prefecture":"福島県","prefecture_kana":"フクシマケン","city":"河沼郡会津坂下町","city_kana":"カワヌマグンアイヅバンゲマチ","town":"古町川尻","town_kana":"フルマチカワジリ","prefecture_code":7},"6546":{"zip_code":"9696546","prefecture":"福島県","prefecture_kana":"フクシマケン","city":"河沼郡会津坂下町","city_kana":"カワヌマグンアイヅバンゲマチ","town":"曲田","town_kana":"マガリダ","prefecture_code":7},"6554":{"zip_code":"9696554","prefecture":"福島県","prefecture_kana":"フクシマケン","city":"河沼郡会津坂下町","city_kana":"カワヌマグンアイヅバンゲマチ","town":"松ノ目","town_kana":"マツノメ","prefecture_code":7},"6506":{"zip_code":"9696506","prefecture":"福島県","prefecture_kana":"フクシマケン","city":"河沼郡会津坂下町","city_kana":"カワヌマグンアイヅバンゲマチ","town":"見明","town_kana":"ミミョウ","prefecture_code":7},"6522":{"zip_code":"9696522","prefecture":"福島県","prefecture_kana":"フクシマケン","city":"河沼郡会津坂下町","city_kana":"カワヌマグンアイヅバンゲマチ","town":"宮古","town_kana":"ミヤコ","prefecture_code":7},"6504":{"zip_code":"9696504","prefecture":"福島県","prefecture_kana":"フクシマケン","city":"河沼郡会津坂下町","city_kana":"カワヌマグンアイヅバンゲマチ","town":"八日沢","town_kana":"ヨウカザワ","prefecture_code":7},"3500":{"zip_code":"9693500","prefecture":"福島県","prefecture_kana":"フクシマケン","city":"河沼郡湯川村","city_kana":"カワヌマグンユガワムラ","town":"","town_kana":"","prefecture_code":7},"3543":{"zip_code":"9693543","prefecture":"福島県","prefecture_kana":"フクシマケン","city":"河沼郡湯川村","city_kana":"カワヌマグンユガワムラ","town":"笈川","town_kana":"オイカワ","prefecture_code":7},"3554":{"zip_code":"9693554","prefecture":"福島県","prefecture_kana":"フクシマケン","city":"河沼郡湯川村","city_kana":"カワヌマグンユガワムラ","town":"熊ノ目","town_kana":"クマノメ","prefecture_code":7},"3545":{"zip_code":"9693545","prefecture":"福島県","prefecture_kana":"フクシマケン","city":"河沼郡湯川村","city_kana":"カワヌマグンユガワムラ","town":"桜町","town_kana":"サクラマチ","prefecture_code":7},"3555":{"zip_code":"9693555","prefecture":"福島県","prefecture_kana":"フクシマケン","city":"河沼郡湯川村","city_kana":"カワヌマグンユガワムラ","town":"佐野目","town_kana":"サノメ","prefecture_code":7},"3544":{"zip_code":"9693544","prefecture":"福島県","prefecture_kana":"フクシマケン","city":"河沼郡湯川村","city_kana":"カワヌマグンユガワムラ","town":"清水田","town_kana":"シミズダ","prefecture_code":7},"3556":{"zip_code":"9693556","prefecture":"福島県","prefecture_kana":"フクシマケン","city":"河沼郡湯川村","city_kana":"カワヌマグンユガワムラ","town":"勝常","town_kana":"ショウジョウ","prefecture_code":7},"3553":{"zip_code":"9693553","prefecture":"福島県","prefecture_kana":"フクシマケン","city":"河沼郡湯川村","city_kana":"カワヌマグンユガワムラ","town":"田川","town_kana":"タガワ","prefecture_code":7},"3551":{"zip_code":"9693551","prefecture":"福島県","prefecture_kana":"フクシマケン","city":"河沼郡湯川村","city_kana":"カワヌマグンユガワムラ","town":"堂畑","town_kana":"ドウバタケ","prefecture_code":7},"3541":{"zip_code":"9693541","prefecture":"福島県","prefecture_kana":"フクシマケン","city":"河沼郡湯川村","city_kana":"カワヌマグンユガワムラ","town":"浜崎","town_kana":"ハマサキ","prefecture_code":7},"3552":{"zip_code":"9693552","prefecture":"福島県","prefecture_kana":"フクシマケン","city":"河沼郡湯川村","city_kana":"カワヌマグンユガワムラ","town":"三川","town_kana":"ミカワ","prefecture_code":7},"3546":{"zip_code":"9693546","prefecture":"福島県","prefecture_kana":"フクシマケン","city":"河沼郡湯川村","city_kana":"カワヌマグンユガワムラ","town":"美田園","town_kana":"ミタゾノ","prefecture_code":7},"3542":{"zip_code":"9693542","prefecture":"福島県","prefecture_kana":"フクシマケン","city":"河沼郡湯川村","city_kana":"カワヌマグンユガワムラ","town":"湊","town_kana":"ミナト","prefecture_code":7},"7200":{"zip_code":"9697200","prefecture":"福島県","prefecture_kana":"フクシマケン","city":"河沼郡柳津町","city_kana":"カワヌマグンヤナイヅマチ","town":"","town_kana":"","prefecture_code":7},"7206":{"zip_code":"9697206","prefecture":"福島県","prefecture_kana":"フクシマケン","city":"河沼郡柳津町","city_kana":"カワヌマグンヤナイヅマチ","town":"飯谷","town_kana":"イイタニ","prefecture_code":7},"7204":{"zip_code":"9697204","prefecture":"福島県","prefecture_kana":"フクシマケン","city":"河沼郡柳津町","city_kana":"カワヌマグンヤナイヅマチ","town":"猪倉野","town_kana":"イクラノ","prefecture_code":7},"7323":{"zip_code":"9697323","prefecture":"福島県","prefecture_kana":"フクシマケン","city":"河沼郡柳津町","city_kana":"カワヌマグンヤナイヅマチ","town":"芋小屋","town_kana":"イモゴヤ","prefecture_code":7},"7325":{"zip_code":"9697325","prefecture":"福島県","prefecture_kana":"フクシマケン","city":"河沼郡柳津町","city_kana":"カワヌマグンヤナイヅマチ","town":"大成沢","town_kana":"オオナリサワ","prefecture_code":7},"7202":{"zip_code":"9697202","prefecture":"福島県","prefecture_kana":"フクシマケン","city":"河沼郡柳津町","city_kana":"カワヌマグンヤナイヅマチ","town":"大柳","town_kana":"オオリュウ","prefecture_code":7},"7324":{"zip_code":"9697324","prefecture":"福島県","prefecture_kana":"フクシマケン","city":"河沼郡柳津町","city_kana":"カワヌマグンヤナイヅマチ","town":"胄中","town_kana":"カブチュウ","prefecture_code":7},"7203":{"zip_code":"9697203","prefecture":"福島県","prefecture_kana":"フクシマケン","city":"河沼郡柳津町","city_kana":"カワヌマグンヤナイヅマチ","town":"軽井沢","town_kana":"カルイザワ","prefecture_code":7},"7312":{"zip_code":"9697312","prefecture":"福島県","prefecture_kana":"フクシマケン","city":"河沼郡柳津町","city_kana":"カワヌマグンヤナイヅマチ","town":"久保田","town_kana":"クボタ","prefecture_code":7},"7322":{"zip_code":"9697322","prefecture":"福島県","prefecture_kana":"フクシマケン","city":"河沼郡柳津町","city_kana":"カワヌマグンヤナイヅマチ","town":"黒沢","town_kana":"クロサワ","prefecture_code":7},"7205":{"zip_code":"9697205","prefecture":"福島県","prefecture_kana":"フクシマケン","city":"河沼郡柳津町","city_kana":"カワヌマグンヤナイヅマチ","town":"郷戸","town_kana":"ゴウド","prefecture_code":7},"7313":{"zip_code":"9697313","prefecture":"福島県","prefecture_kana":"フクシマケン","city":"河沼郡柳津町","city_kana":"カワヌマグンヤナイヅマチ","town":"五畳敷","town_kana":"ゴジョウジキ","prefecture_code":7},"7207":{"zip_code":"9697207","prefecture":"福島県","prefecture_kana":"フクシマケン","city":"河沼郡柳津町","city_kana":"カワヌマグンヤナイヅマチ","town":"小椿","town_kana":"コツバキ","prefecture_code":7},"7321":{"zip_code":"9697321","prefecture":"福島県","prefecture_kana":"フクシマケン","city":"河沼郡柳津町","city_kana":"カワヌマグンヤナイヅマチ","town":"砂子原","town_kana":"スナコハラ","prefecture_code":7},"7326":{"zip_code":"9697326","prefecture":"福島県","prefecture_kana":"フクシマケン","city":"河沼郡柳津町","city_kana":"カワヌマグンヤナイヅマチ","town":"琵琶首","town_kana":"ビワクビ","prefecture_code":7},"7208":{"zip_code":"9697208","prefecture":"福島県","prefecture_kana":"フクシマケン","city":"河沼郡柳津町","city_kana":"カワヌマグンヤナイヅマチ","town":"藤","town_kana":"フジ","prefecture_code":7},"7209":{"zip_code":"9697209","prefecture":"福島県","prefecture_kana":"フクシマケン","city":"河沼郡柳津町","city_kana":"カワヌマグンヤナイヅマチ","town":"細八","town_kana":"ホソハチ","prefecture_code":7},"7314":{"zip_code":"9697314","prefecture":"福島県","prefecture_kana":"フクシマケン","city":"河沼郡柳津町","city_kana":"カワヌマグンヤナイヅマチ","town":"牧沢","town_kana":"マキザワ","prefecture_code":7},"7201":{"zip_code":"9697201","prefecture":"福島県","prefecture_kana":"フクシマケン","city":"河沼郡柳津町","city_kana":"カワヌマグンヤナイヅマチ","town":"柳津","town_kana":"ヤナイヅ","prefecture_code":7},"7311":{"zip_code":"9697311","prefecture":"福島県","prefecture_kana":"フクシマケン","city":"河沼郡柳津町","city_kana":"カワヌマグンヤナイヅマチ","town":"湯八木沢","town_kana":"ユヤギサワ","prefecture_code":7},"7315":{"zip_code":"9697315","prefecture":"福島県","prefecture_kana":"フクシマケン","city":"河沼郡柳津町","city_kana":"カワヌマグンヤナイヅマチ","town":"四つ谷","town_kana":"ヨツヤ","prefecture_code":7},"7500":{"zip_code":"9697500","prefecture":"福島県","prefecture_kana":"フクシマケン","city":"大沼郡三島町","city_kana":"オオヌマグンミシママチ","town":"","town_kana":"","prefecture_code":7},"7518":{"zip_code":"9697518","prefecture":"福島県","prefecture_kana":"フクシマケン","city":"大沼郡三島町","city_kana":"オオヌマグンミシママチ","town":"浅岐","town_kana":"アサマタ","prefecture_code":7},"7407":{"zip_code":"9697407","prefecture":"福島県","prefecture_kana":"フクシマケン","city":"大沼郡三島町","city_kana":"オオヌマグンミシママチ","town":"大石田","town_kana":"オオイシダ","prefecture_code":7},"7517":{"zip_code":"9697517","prefecture":"福島県","prefecture_kana":"フクシマケン","city":"大沼郡三島町","city_kana":"オオヌマグンミシママチ","town":"大谷","town_kana":"オオタニ","prefecture_code":7},"7516":{"zip_code":"9697516","prefecture":"福島県","prefecture_kana":"フクシマケン","city":"大沼郡三島町","city_kana":"オオヌマグンミシママチ","town":"大登","town_kana":"オオノボリ","prefecture_code":7},"7515":{"zip_code":"9697515","prefecture":"福島県","prefecture_kana":"フクシマケン","city":"大沼郡三島町","city_kana":"オオヌマグンミシママチ","town":"川井","town_kana":"カワイ","prefecture_code":7},"7512":{"zip_code":"9697512","prefecture":"福島県","prefecture_kana":"フクシマケン","city":"大沼郡三島町","city_kana":"オオヌマグンミシママチ","town":"桑原","town_kana":"クワノハラ","prefecture_code":7},"7403":{"zip_code":"9697403","prefecture":"福島県","prefecture_kana":"フクシマケン","city":"大沼郡三島町","city_kana":"オオヌマグンミシママチ","town":"小山","town_kana":"コヤマ","prefecture_code":7},"7404":{"zip_code":"9697404","prefecture":"福島県","prefecture_kana":"フクシマケン","city":"大沼郡三島町","city_kana":"オオヌマグンミシママチ","town":"高清水","town_kana":"タカシミズ","prefecture_code":7},"7405":{"zip_code":"9697405","prefecture":"福島県","prefecture_kana":"フクシマケン","city":"大沼郡三島町","city_kana":"オオヌマグンミシママチ","town":"滝原","town_kana":"タキバラ","prefecture_code":7},"7514":{"zip_code":"9697514","prefecture":"福島県","prefecture_kana":"フクシマケン","city":"大沼郡三島町","city_kana":"オオヌマグンミシママチ","town":"滝谷","town_kana":"タキヤ","prefecture_code":7},"7402":{"zip_code":"9697402","prefecture":"福島県","prefecture_kana":"フクシマケン","city":"大沼郡三島町","city_kana":"オオヌマグンミシママチ","town":"名入","town_kana":"ナイリ","prefecture_code":7},"7401":{"zip_code":"9697401","prefecture":"福島県","prefecture_kana":"フクシマケン","city":"大沼郡三島町","city_kana":"オオヌマグンミシママチ","town":"西方","town_kana":"ニシカタ","prefecture_code":7},"7406":{"zip_code":"9697406","prefecture":"福島県","prefecture_kana":"フクシマケン","city":"大沼郡三島町","city_kana":"オオヌマグンミシママチ","town":"早戸","town_kana":"ハヤト","prefecture_code":7},"7413":{"zip_code":"9697413","prefecture":"福島県","prefecture_kana":"フクシマケン","city":"大沼郡三島町","city_kana":"オオヌマグンミシママチ","town":"桧原小和瀬","town_kana":"ヒノハラコワゼ","prefecture_code":7},"7513":{"zip_code":"9697513","prefecture":"福島県","prefecture_kana":"フクシマケン","city":"大沼郡三島町","city_kana":"オオヌマグンミシママチ","town":"桧原","town_kana":"ヒノハラ","prefecture_code":7},"7519":{"zip_code":"9697519","prefecture":"福島県","prefecture_kana":"フクシマケン","city":"大沼郡三島町","city_kana":"オオヌマグンミシママチ","town":"間方","town_kana":"マガタ","prefecture_code":7},"7511":{"zip_code":"9697511","prefecture":"福島県","prefecture_kana":"フクシマケン","city":"大沼郡三島町","city_kana":"オオヌマグンミシママチ","town":"宮下","town_kana":"ミヤシタ","prefecture_code":7},"6200":{"zip_code":"9696200","prefecture":"福島県","prefecture_kana":"フクシマケン","city":"大沼郡会津美里町","city_kana":"オオヌマグンアイヅミサトマチ","town":"","town_kana":"","prefecture_code":7},"6272":{"zip_code":"9696272","prefecture":"福島県","prefecture_kana":"フクシマケン","city":"大沼郡会津美里町","city_kana":"オオヌマグンアイヅミサトマチ","town":"赤留","town_kana":"アカル","prefecture_code":7},"6222":{"zip_code":"9696222","prefecture":"福島県","prefecture_kana":"フクシマケン","city":"大沼郡会津美里町","city_kana":"オオヌマグンアイヅミサトマチ","town":"旭市川","town_kana":"アサヒイチカワ","prefecture_code":7},"6226":{"zip_code":"9696226","prefecture":"福島県","prefecture_kana":"フクシマケン","city":"大沼郡会津美里町","city_kana":"オオヌマグンアイヅミサトマチ","town":"旭杉原","town_kana":"アサヒスギハラ","prefecture_code":7},"6221":{"zip_code":"9696221","prefecture":"福島県","prefecture_kana":"フクシマケン","city":"大沼郡会津美里町","city_kana":"オオヌマグンアイヅミサトマチ","town":"旭館端","town_kana":"アサヒタテハタ","prefecture_code":7},"6223":{"zip_code":"9696223","prefecture":"福島県","prefecture_kana":"フクシマケン","city":"大沼郡会津美里町","city_kana":"オオヌマグンアイヅミサトマチ","town":"旭寺入","town_kana":"アサヒテライリ","prefecture_code":7},"6225":{"zip_code":"9696225","prefecture":"福島県","prefecture_kana":"フクシマケン","city":"大沼郡会津美里町","city_kana":"オオヌマグンアイヅミサトマチ","town":"旭三寄","town_kana":"アサヒミヨセ","prefecture_code":7},"6224":{"zip_code":"9696224","prefecture":"福島県","prefecture_kana":"フクシマケン","city":"大沼郡会津美里町","city_kana":"オオヌマグンアイヅミサトマチ","town":"旭無量","town_kana":"アサヒムリョウ","prefecture_code":7},"6351":{"zip_code":"9696351","prefecture":"福島県","prefecture_kana":"フクシマケン","city":"大沼郡会津美里町","city_kana":"オオヌマグンアイヅミサトマチ","town":"穴田","town_kana":"アナダ","prefecture_code":7},"6352":{"zip_code":"9696352","prefecture":"福島県","prefecture_kana":"フクシマケン","city":"大沼郡会津美里町","city_kana":"オオヌマグンアイヅミサトマチ","town":"穴田乙","town_kana":"アナダオツ","prefecture_code":7},"6266":[{"zip_code":"9696266","prefecture":"福島県","prefecture_kana":"フクシマケン","city":"大沼郡会津美里町","city_kana":"オオヌマグンアイヅミサトマチ","town":"油田","town_kana":"アブラデン","prefecture_code":7},{"zip_code":"9696266","prefecture":"福島県","prefecture_kana":"フクシマケン","city":"大沼郡会津美里町","city_kana":"オオヌマグンアイヅミサトマチ","town":"新丁屋敷","town_kana":"シンチョウヤシキ","prefecture_code":7},{"zip_code":"9696266","prefecture":"福島県","prefecture_kana":"フクシマケン","city":"大沼郡会津美里町","city_kana":"オオヌマグンアイヅミサトマチ","town":"館ノ越","town_kana":"タテノコシ","prefecture_code":7},{"zip_code":"9696266","prefecture":"福島県","prefecture_kana":"フクシマケン","city":"大沼郡会津美里町","city_kana":"オオヌマグンアイヅミサトマチ","town":"西裏屋敷添","town_kana":"ニシウラヤシキゾエ","prefecture_code":7},{"zip_code":"9696266","prefecture":"福島県","prefecture_kana":"フクシマケン","city":"大沼郡会津美里町","city_kana":"オオヌマグンアイヅミサトマチ","town":"布才地","town_kana":"フサイチ","prefecture_code":7},{"zip_code":"9696266","prefecture":"福島県","prefecture_kana":"フクシマケン","city":"大沼郡会津美里町","city_kana":"オオヌマグンアイヅミサトマチ","town":"竜興寺北","town_kana":"リュウコウジキタ","prefecture_code":7}],"6171":{"zip_code":"9696171","prefecture":"福島県","prefecture_kana":"フクシマケン","city":"大沼郡会津美里町","city_kana":"オオヌマグンアイヅミサトマチ","town":"荒井","town_kana":"アライ","prefecture_code":7},"6027":{"zip_code":"9696027","prefecture":"福島県","prefecture_kana":"フクシマケン","city":"大沼郡会津美里町","city_kana":"オオヌマグンアイヅミサトマチ","town":"荒井甲","town_kana":"アライコウ","prefecture_code":7},"6161":{"zip_code":"9696161","prefecture":"福島県","prefecture_kana":"フクシマケン","city":"大沼郡会津美里町","city_kana":"オオヌマグンアイヅミサトマチ","town":"荒井前","town_kana":"アライマエ","prefecture_code":7},"6111":{"zip_code":"9696111","prefecture":"福島県","prefecture_kana":"フクシマケン","city":"大沼郡会津美里町","city_kana":"オオヌマグンアイヅミサトマチ","town":"家西","town_kana":"イエニシ","prefecture_code":7},"6037":{"zip_code":"9696037","prefecture":"福島県","prefecture_kana":"フクシマケン","city":"大沼郡会津美里町","city_kana":"オオヌマグンアイヅミサトマチ","town":"家西甲","town_kana":"イエニシコウ","prefecture_code":7},"6206":[{"zip_code":"9696206","prefecture":"福島県","prefecture_kana":"フクシマケン","city":"大沼郡会津美里町","city_kana":"オオヌマグンアイヅミサトマチ","town":"家ノ下","town_kana":"イエノシタ","prefecture_code":7},{"zip_code":"9696206","prefecture":"福島県","prefecture_kana":"フクシマケン","city":"大沼郡会津美里町","city_kana":"オオヌマグンアイヅミサトマチ","town":"坂ノ下道上","town_kana":"サカノシタミチウエ","prefecture_code":7},{"zip_code":"9696206","prefecture":"福島県","prefecture_kana":"フクシマケン","city":"大沼郡会津美里町","city_kana":"オオヌマグンアイヅミサトマチ","town":"坂ノ下道下","town_kana":"サカノシタミチシタ","prefecture_code":7},{"zip_code":"9696206","prefecture":"福島県","prefecture_kana":"フクシマケン","city":"大沼郡会津美里町","city_kana":"オオヌマグンアイヅミサトマチ","town":"坂ノ下道下甲","town_kana":"サカノシタミチシタコウ","prefecture_code":7},{"zip_code":"9696206","prefecture":"福島県","prefecture_kana":"フクシマケン","city":"大沼郡会津美里町","city_kana":"オオヌマグンアイヅミサトマチ","town":"佐布川","town_kana":"サブカワ","prefecture_code":7},{"zip_code":"9696206","prefecture":"福島県","prefecture_kana":"フクシマケン","city":"大沼郡会津美里町","city_kana":"オオヌマグンアイヅミサトマチ","town":"高田中川原道下","town_kana":"タカダナカガワラミチシタ","prefecture_code":7},{"zip_code":"9696206","prefecture":"福島県","prefecture_kana":"フクシマケン","city":"大沼郡会津美里町","city_kana":"オオヌマグンアイヅミサトマチ","town":"松木田","town_kana":"マツキダ","prefecture_code":7},{"zip_code":"9696206","prefecture":"福島県","prefecture_kana":"フクシマケン","city":"大沼郡会津美里町","city_kana":"オオヌマグンアイヅミサトマチ","town":"葭添","town_kana":"ヨシゾエ","prefecture_code":7}],"6112":{"zip_code":"9696112","prefecture":"福島県","prefecture_kana":"フクシマケン","city":"大沼郡会津美里町","city_kana":"オオヌマグンアイヅミサトマチ","town":"家東甲","town_kana":"イエヒガシコウ","prefecture_code":7},"6151":{"zip_code":"9696151","prefecture":"福島県","prefecture_kana":"フクシマケン","city":"大沼郡会津美里町","city_kana":"オオヌマグンアイヅミサトマチ","town":"石切畑","town_kana":"イシキリバタケ","prefecture_code":7},"6046":{"zip_code":"9696046","prefecture":"福島県","prefecture_kana":"フクシマケン","city":"大沼郡会津美里町","city_kana":"オオヌマグンアイヅミサトマチ","town":"石切畑甲","town_kana":"イシキリバタコウ","prefecture_code":7},"6307":{"zip_code":"9696307","prefecture":"福島県","prefecture_kana":"フクシマケン","city":"大沼郡会津美里町","city_kana":"オオヌマグンアイヅミサトマチ","town":"石田甲","town_kana":"イシダコウ","prefecture_code":7},"6036":{"zip_code":"9696036","prefecture":"福島県","prefecture_kana":"フクシマケン","city":"大沼郡会津美里町","city_kana":"オオヌマグンアイヅミサトマチ","town":"上野川原","town_kana":"ウエノカワラ","prefecture_code":7},"6261":[{"zip_code":"9696261","prefecture":"福島県","prefecture_kana":"フクシマケン","city":"大沼郡会津美里町","city_kana":"オオヌマグンアイヅミサトマチ","town":"内川原","town_kana":"ウチカワラ","prefecture_code":7},{"zip_code":"9696261","prefecture":"福島県","prefecture_kana":"フクシマケン","city":"大沼郡会津美里町","city_kana":"オオヌマグンアイヅミサトマチ","town":"梅ノ木","town_kana":"ウメノキ","prefecture_code":7},{"zip_code":"9696261","prefecture":"福島県","prefecture_kana":"フクシマケン","city":"大沼郡会津美里町","city_kana":"オオヌマグンアイヅミサトマチ","town":"権現宮","town_kana":"ゴンゲンミヤ","prefecture_code":7},{"zip_code":"9696261","prefecture":"福島県","prefecture_kana":"フクシマケン","city":"大沼郡会津美里町","city_kana":"オオヌマグンアイヅミサトマチ","town":"権現宮甲","town_kana":"ゴンゲンミヤコウ","prefecture_code":7},{"zip_code":"9696261","prefecture":"福島県","prefecture_kana":"フクシマケン","city":"大沼郡会津美里町","city_kana":"オオヌマグンアイヅミサトマチ","town":"権現宮南","town_kana":"ゴンゲンミヤミナミ","prefecture_code":7},{"zip_code":"9696261","prefecture":"福島県","prefecture_kana":"フクシマケン","city":"大沼郡会津美里町","city_kana":"オオヌマグンアイヅミサトマチ","town":"権現宮南甲","town_kana":"ゴンゲンミヤミナミコウ","prefecture_code":7},{"zip_code":"9696261","prefecture":"福島県","prefecture_kana":"フクシマケン","city":"大沼郡会津美里町","city_kana":"オオヌマグンアイヅミサトマチ","town":"高田道上","town_kana":"タカダミチウエ","prefecture_code":7},{"zip_code":"9696261","prefecture":"福島県","prefecture_kana":"フクシマケン","city":"大沼郡会津美里町","city_kana":"オオヌマグンアイヅミサトマチ","town":"地尻","town_kana":"チジリ","prefecture_code":7},{"zip_code":"9696261","prefecture":"福島県","prefecture_kana":"フクシマケン","city":"大沼郡会津美里町","city_kana":"オオヌマグンアイヅミサトマチ","town":"東川原","town_kana":"ヒガシカワラ","prefecture_code":7}],"6265":[{"zip_code":"9696265","prefecture":"福島県","prefecture_kana":"フクシマケン","city":"大沼郡会津美里町","city_kana":"オオヌマグンアイヅミサトマチ","town":"漆原北","town_kana":"ウルシワラキタ","prefecture_code":7},{"zip_code":"9696265","prefecture":"福島県","prefecture_kana":"フクシマケン","city":"大沼郡会津美里町","city_kana":"オオヌマグンアイヅミサトマチ","town":"御蔵南","town_kana":"オクラミナミ","prefecture_code":7},{"zip_code":"9696265","prefecture":"福島県","prefecture_kana":"フクシマケン","city":"大沼郡会津美里町","city_kana":"オオヌマグンアイヅミサトマチ","town":"川添","town_kana":"カワゾエ","prefecture_code":7},{"zip_code":"9696265","prefecture":"福島県","prefecture_kana":"フクシマケン","city":"大沼郡会津美里町","city_kana":"オオヌマグンアイヅミサトマチ","town":"館南","town_kana":"タテミナミ","prefecture_code":7},{"zip_code":"9696265","prefecture":"福島県","prefecture_kana":"フクシマケン","city":"大沼郡会津美里町","city_kana":"オオヌマグンアイヅミサトマチ","town":"長光寺南","town_kana":"チョウコウジミナミ","prefecture_code":7},{"zip_code":"9696265","prefecture":"福島県","prefecture_kana":"フクシマケン","city":"大沼郡会津美里町","city_kana":"オオヌマグンアイヅミサトマチ","town":"六地蔵","town_kana":"ロクジゾウ","prefecture_code":7}],"6407":{"zip_code":"9696407","prefecture":"福島県","prefecture_kana":"フクシマケン","city":"大沼郡会津美里町","city_kana":"オオヌマグンアイヅミサトマチ","town":"上平","town_kana":"ウワダイラ","prefecture_code":7},"6061":{"zip_code":"9696061","prefecture":"福島県","prefecture_kana":"フクシマケン","city":"大沼郡会津美里町","city_kana":"オオヌマグンアイヅミサトマチ","town":"上町甲","town_kana":"ウワマチコウ","prefecture_code":7},"6101":{"zip_code":"9696101","prefecture":"福島県","prefecture_kana":"フクシマケン","city":"大沼郡会津美里町","city_kana":"オオヌマグンアイヅミサトマチ","town":"駅前","town_kana":"エキマエ","prefecture_code":7},"6121":{"zip_code":"9696121","prefecture":"福島県","prefecture_kana":"フクシマケン","city":"大沼郡会津美里町","city_kana":"オオヌマグンアイヅミサトマチ","town":"延命寺前","town_kana":"エンメイジマエ","prefecture_code":7},"6306":{"zip_code":"9696306","prefecture":"福島県","prefecture_kana":"フクシマケン","city":"大沼郡会津美里町","city_kana":"オオヌマグンアイヅミサトマチ","town":"延命寺前乙","town_kana":"エンメイジマエオツ","prefecture_code":7},"6305":{"zip_code":"9696305","prefecture":"福島県","prefecture_kana":"フクシマケン","city":"大沼郡会津美里町","city_kana":"オオヌマグンアイヅミサトマチ","town":"延命寺前甲","town_kana":"エンメイジマエコウ","prefecture_code":7},"6131":{"zip_code":"9696131","prefecture":"福島県","prefecture_kana":"フクシマケン","city":"大沼郡会津美里町","city_kana":"オオヌマグンアイヅミサトマチ","town":"大石","town_kana":"オオイシ","prefecture_code":7},"6057":{"zip_code":"9696057","prefecture":"福島県","prefecture_kana":"フクシマケン","city":"大沼郡会津美里町","city_kana":"オオヌマグンアイヅミサトマチ","town":"大川端甲","town_kana":"オオカワバタコウ","prefecture_code":7},"6141":{"zip_code":"9696141","prefecture":"福島県","prefecture_kana":"フクシマケン","city":"大沼郡会津美里町","city_kana":"オオヌマグンアイヅミサトマチ","town":"大八郷","town_kana":"オオハチゴウ","prefecture_code":7},"6333":{"zip_code":"9696333","prefecture":"福島県","prefecture_kana":"フクシマケン","city":"大沼郡会津美里町","city_kana":"オオヌマグンアイヅミサトマチ","town":"大八郷乙","town_kana":"オオハチゴウオツ","prefecture_code":7},"6173":{"zip_code":"9696173","prefecture":"福島県","prefecture_kana":"フクシマケン","city":"大沼郡会津美里町","city_kana":"オオヌマグンアイヅミサトマチ","town":"大道上","town_kana":"オオミチカミ","prefecture_code":7},"6022":{"zip_code":"9696022","prefecture":"福島県","prefecture_kana":"フクシマケン","city":"大沼郡会津美里町","city_kana":"オオヌマグンアイヅミサトマチ","town":"大道上甲","town_kana":"オオミチカミコウ","prefecture_code":7},"6242":{"zip_code":"9696242","prefecture":"福島県","prefecture_kana":"フクシマケン","city":"大沼郡会津美里町","city_kana":"オオヌマグンアイヅミサトマチ","town":"大室","town_kana":"オオムロ","prefecture_code":7},"6254":{"zip_code":"9696254","prefecture":"福島県","prefecture_kana":"フクシマケン","city":"大沼郡会津美里町","city_kana":"オオヌマグンアイヅミサトマチ","town":"荻窪","town_kana":"オギクボ","prefecture_code":7},"6343":{"zip_code":"9696343","prefecture":"福島県","prefecture_kana":"フクシマケン","city":"大沼郡会津美里町","city_kana":"オオヌマグンアイヅミサトマチ","town":"沖田","town_kana":"オキタ","prefecture_code":7},"6409":{"zip_code":"9696409","prefecture":"福島県","prefecture_kana":"フクシマケン","city":"大沼郡会津美里町","city_kana":"オオヌマグンアイヅミサトマチ","town":"小沢","town_kana":"オザワ","prefecture_code":7},"6231":{"zip_code":"9696231","prefecture":"福島県","prefecture_kana":"フクシマケン","city":"大沼郡会津美里町","city_kana":"オオヌマグンアイヅミサトマチ","town":"尾岐窪","town_kana":"オマタクボ","prefecture_code":7},"6051":{"zip_code":"9696051","prefecture":"福島県","prefecture_kana":"フクシマケン","city":"大沼郡会津美里町","city_kana":"オオヌマグンアイヅミサトマチ","town":"思堀","town_kana":"オモイボリ","prefecture_code":7},"6102":{"zip_code":"9696102","prefecture":"福島県","prefecture_kana":"フクシマケン","city":"大沼郡会津美里町","city_kana":"オオヌマグンアイヅミサトマチ","town":"思堀向","town_kana":"オモイボリムカイ","prefecture_code":7},"6205":{"zip_code":"9696205","prefecture":"福島県","prefecture_kana":"フクシマケン","city":"大沼郡会津美里町","city_kana":"オオヌマグンアイヅミサトマチ","town":"御田","town_kana":"オンタ","prefecture_code":7},"6262":[{"zip_code":"9696262","prefecture":"福島県","prefecture_kana":"フクシマケン","city":"大沼郡会津美里町","city_kana":"オオヌマグンアイヅミサトマチ","town":"鹿島","town_kana":"カシマ","prefecture_code":7},{"zip_code":"9696262","prefecture":"福島県","prefecture_kana":"フクシマケン","city":"大沼郡会津美里町","city_kana":"オオヌマグンアイヅミサトマチ","town":"観音北","town_kana":"カンノンキタ","prefecture_code":7},{"zip_code":"9696262","prefecture":"福島県","prefecture_kana":"フクシマケン","city":"大沼郡会津美里町","city_kana":"オオヌマグンアイヅミサトマチ","town":"外川原","town_kana":"ソトカワラ","prefecture_code":7},{"zip_code":"9696262","prefecture":"福島県","prefecture_kana":"フクシマケン","city":"大沼郡会津美里町","city_kana":"オオヌマグンアイヅミサトマチ","town":"外川原甲","town_kana":"ソトカワラコウ","prefecture_code":7},{"zip_code":"9696262","prefecture":"福島県","prefecture_kana":"フクシマケン","city":"大沼郡会津美里町","city_kana":"オオヌマグンアイヅミサトマチ","town":"法憧寺北","town_kana":"ホウドウジキタ","prefecture_code":7},{"zip_code":"9696262","prefecture":"福島県","prefecture_kana":"フクシマケン","city":"大沼郡会津美里町","city_kana":"オオヌマグンアイヅミサトマチ","town":"法憧寺北甲","town_kana":"ホウドウジキタコウ","prefecture_code":7},{"zip_code":"9696262","prefecture":"福島県","prefecture_kana":"フクシマケン","city":"大沼郡会津美里町","city_kana":"オオヌマグンアイヅミサトマチ","town":"法憧寺東","town_kana":"ホウドウジヒガシ","prefecture_code":7},{"zip_code":"9696262","prefecture":"福島県","prefecture_kana":"フクシマケン","city":"大沼郡会津美里町","city_kana":"オオヌマグンアイヅミサトマチ","town":"法憧寺南","town_kana":"ホウドウジミナミ","prefecture_code":7},{"zip_code":"9696262","prefecture":"福島県","prefecture_kana":"フクシマケン","city":"大沼郡会津美里町","city_kana":"オオヌマグンアイヅミサトマチ","town":"法憧寺南甲","town_kana":"ホウドウジミナミコウ","prefecture_code":7}],"6213":{"zip_code":"9696213","prefecture":"福島県","prefecture_kana":"フクシマケン","city":"大沼郡会津美里町","city_kana":"オオヌマグンアイヅミサトマチ","town":"勝原","town_kana":"カツハラ","prefecture_code":7},"6103":{"zip_code":"9696103","prefecture":"福島県","prefecture_kana":"フクシマケン","city":"大沼郡会津美里町","city_kana":"オオヌマグンアイヅミサトマチ","town":"上村北","town_kana":"カミムラキタ","prefecture_code":7},"6104":[{"zip_code":"9696104","prefecture":"福島県","prefecture_kana":"フクシマケン","city":"大沼郡会津美里町","city_kana":"オオヌマグンアイヅミサトマチ","town":"上村西道上","town_kana":"カミムラニシミチカミ","prefecture_code":7},{"zip_code":"9696104","prefecture":"福島県","prefecture_kana":"フクシマケン","city":"大沼郡会津美里町","city_kana":"オオヌマグンアイヅミサトマチ","town":"上村西道下","town_kana":"カミムラニシミチシタ","prefecture_code":7}],"6105":[{"zip_code":"9696105","prefecture":"福島県","prefecture_kana":"フクシマケン","city":"大沼郡会津美里町","city_kana":"オオヌマグンアイヅミサトマチ","town":"上村東","town_kana":"カミムラヒガシ","prefecture_code":7},{"zip_code":"9696105","prefecture":"福島県","prefecture_kana":"フクシマケン","city":"大沼郡会津美里町","city_kana":"オオヌマグンアイヅミサトマチ","town":"上村南","town_kana":"カミムラミナミ","prefecture_code":7}],"6159":{"zip_code":"9696159","prefecture":"福島県","prefecture_kana":"フクシマケン","city":"大沼郡会津美里町","city_kana":"オオヌマグンアイヅミサトマチ","town":"川原町北","town_kana":"カワハラチョウキタ","prefecture_code":7},"6041":{"zip_code":"9696041","prefecture":"福島県","prefecture_kana":"フクシマケン","city":"大沼郡会津美里町","city_kana":"オオヌマグンアイヅミサトマチ","town":"川原町","town_kana":"カワラチョウ","prefecture_code":7},"6024":{"zip_code":"9696024","prefecture":"福島県","prefecture_kana":"フクシマケン","city":"大沼郡会津美里町","city_kana":"オオヌマグンアイヅミサトマチ","town":"川原町北甲","town_kana":"カワラチョウキタコウ","prefecture_code":7},"6152":{"zip_code":"9696152","prefecture":"福島県","prefecture_kana":"フクシマケン","city":"大沼郡会津美里町","city_kana":"オオヌマグンアイヅミサトマチ","town":"川原町甲","town_kana":"カワラチョウコウ","prefecture_code":7},"6154":{"zip_code":"9696154","prefecture":"福島県","prefecture_kana":"フクシマケン","city":"大沼郡会津美里町","city_kana":"オオヌマグンアイヅミサトマチ","town":"北浦","town_kana":"キタウラ","prefecture_code":7},"6045":{"zip_code":"9696045","prefecture":"福島県","prefecture_kana":"フクシマケン","city":"大沼郡会津美里町","city_kana":"オオヌマグンアイヅミサトマチ","town":"北浦甲","town_kana":"キタウラコウ","prefecture_code":7},"6155":{"zip_code":"9696155","prefecture":"福島県","prefecture_kana":"フクシマケン","city":"大沼郡会津美里町","city_kana":"オオヌマグンアイヅミサトマチ","town":"北川原","town_kana":"キタガワラ","prefecture_code":7},"6047":{"zip_code":"9696047","prefecture":"福島県","prefecture_kana":"フクシマケン","city":"大沼郡会津美里町","city_kana":"オオヌマグンアイヅミサトマチ","town":"北川原甲","town_kana":"キタガワラコウ","prefecture_code":7},"6316":{"zip_code":"9696316","prefecture":"福島県","prefecture_kana":"フクシマケン","city":"大沼郡会津美里町","city_kana":"オオヌマグンアイヅミサトマチ","town":"北原","town_kana":"キタハラ","prefecture_code":7},"6318":{"zip_code":"9696318","prefecture":"福島県","prefecture_kana":"フクシマケン","city":"大沼郡会津美里町","city_kana":"オオヌマグンアイヅミサトマチ","town":"北原乙","town_kana":"キタハラオツ","prefecture_code":7},"6317":{"zip_code":"9696317","prefecture":"福島県","prefecture_kana":"フクシマケン","city":"大沼郡会津美里町","city_kana":"オオヌマグンアイヅミサトマチ","town":"北原甲","town_kana":"キタハラコウ","prefecture_code":7},"6342":{"zip_code":"9696342","prefecture":"福島県","prefecture_kana":"フクシマケン","city":"大沼郡会津美里町","city_kana":"オオヌマグンアイヅミサトマチ","town":"倉田","town_kana":"クラタ","prefecture_code":7},"6113":{"zip_code":"9696113","prefecture":"福島県","prefecture_kana":"フクシマケン","city":"大沼郡会津美里町","city_kana":"オオヌマグンアイヅミサトマチ","town":"車川原","town_kana":"クルマガワラ","prefecture_code":7},"6068":{"zip_code":"9696068","prefecture":"福島県","prefecture_kana":"フクシマケン","city":"大沼郡会津美里町","city_kana":"オオヌマグンアイヅミサトマチ","town":"車川原甲","town_kana":"クルマガワラコウ","prefecture_code":7},"6052":{"zip_code":"9696052","prefecture":"福島県","prefecture_kana":"フクシマケン","city":"大沼郡会津美里町","city_kana":"オオヌマグンアイヅミサトマチ","town":"黒川","town_kana":"クロカワ","prefecture_code":7},"6106":{"zip_code":"9696106","prefecture":"福島県","prefecture_kana":"フクシマケン","city":"大沼郡会津美里町","city_kana":"オオヌマグンアイヅミサトマチ","town":"黒川内","town_kana":"クロカワウチ","prefecture_code":7},"6163":{"zip_code":"9696163","prefecture":"福島県","prefecture_kana":"フクシマケン","city":"大沼郡会津美里町","city_kana":"オオヌマグンアイヅミサトマチ","town":"黒沢","town_kana":"クロサワ","prefecture_code":7},"6304":{"zip_code":"9696304","prefecture":"福島県","prefecture_kana":"フクシマケン","city":"大沼郡会津美里町","city_kana":"オオヌマグンアイヅミサトマチ","town":"黒沢甲","town_kana":"クロサワコウ","prefecture_code":7},"6062":{"zip_code":"9696062","prefecture":"福島県","prefecture_kana":"フクシマケン","city":"大沼郡会津美里町","city_kana":"オオヌマグンアイヅミサトマチ","town":"御用地","town_kana":"ゴヨウチ","prefecture_code":7},"6114":{"zip_code":"9696114","prefecture":"福島県","prefecture_kana":"フクシマケン","city":"大沼郡会津美里町","city_kana":"オオヌマグンアイヅミサトマチ","town":"御用地跡","town_kana":"ゴヨウチアト","prefecture_code":7},"6063":{"zip_code":"9696063","prefecture":"福島県","prefecture_kana":"フクシマケン","city":"大沼郡会津美里町","city_kana":"オオヌマグンアイヅミサトマチ","town":"御用地跡甲","town_kana":"ゴヨウチアトコウ","prefecture_code":7},"6038":{"zip_code":"9696038","prefecture":"福島県","prefecture_kana":"フクシマケン","city":"大沼郡会津美里町","city_kana":"オオヌマグンアイヅミサトマチ","town":"御用地甲","town_kana":"ゴヨウチコウ","prefecture_code":7},"6023":{"zip_code":"9696023","prefecture":"福島県","prefecture_kana":"フクシマケン","city":"大沼郡会津美里町","city_kana":"オオヌマグンアイヅミサトマチ","town":"近右エ門田","town_kana":"コンウエモンデン","prefecture_code":7},"6174":{"zip_code":"9696174","prefecture":"福島県","prefecture_kana":"フクシマケン","city":"大沼郡会津美里町","city_kana":"オオヌマグンアイヅミサトマチ","town":"権現堂","town_kana":"ゴンゲンドウ","prefecture_code":7},"6025":{"zip_code":"9696025","prefecture":"福島県","prefecture_kana":"フクシマケン","city":"大沼郡会津美里町","city_kana":"オオヌマグンアイヅミサトマチ","town":"権現堂甲","town_kana":"ゴンゲンドウコウ","prefecture_code":7},"6404":{"zip_code":"9696404","prefecture":"福島県","prefecture_kana":"フクシマケン","city":"大沼郡会津美里町","city_kana":"オオヌマグンアイヅミサトマチ","town":"境野","town_kana":"サカイノ","prefecture_code":7},"6406":{"zip_code":"9696406","prefecture":"福島県","prefecture_kana":"フクシマケン","city":"大沼郡会津美里町","city_kana":"オオヌマグンアイヅミサトマチ","town":"佐賀瀬川","town_kana":"サカセガワ","prefecture_code":7},"6029":{"zip_code":"9696029","prefecture":"福島県","prefecture_kana":"フクシマケン","city":"大沼郡会津美里町","city_kana":"オオヌマグンアイヅミサトマチ","town":"三本松甲","town_kana":"サンボンマツコウ","prefecture_code":7},"6314":{"zip_code":"9696314","prefecture":"福島県","prefecture_kana":"フクシマケン","city":"大沼郡会津美里町","city_kana":"オオヌマグンアイヅミサトマチ","town":"清水川甲","town_kana":"シミズカワコウ","prefecture_code":7},"6311":{"zip_code":"9696311","prefecture":"福島県","prefecture_kana":"フクシマケン","city":"大沼郡会津美里町","city_kana":"オオヌマグンアイヅミサトマチ","town":"清水台","town_kana":"シミズダイ","prefecture_code":7},"6312":{"zip_code":"9696312","prefecture":"福島県","prefecture_kana":"フクシマケン","city":"大沼郡会津美里町","city_kana":"オオヌマグンアイヅミサトマチ","town":"清水台甲","town_kana":"シミズダイコウ","prefecture_code":7},"6166":{"zip_code":"9696166","prefecture":"福島県","prefecture_kana":"フクシマケン","city":"大沼郡会津美里町","city_kana":"オオヌマグンアイヅミサトマチ","town":"下川原","town_kana":"シモガワラ","prefecture_code":7},"6313":{"zip_code":"9696313","prefecture":"福島県","prefecture_kana":"フクシマケン","city":"大沼郡会津美里町","city_kana":"オオヌマグンアイヅミサトマチ","town":"下川原甲","town_kana":"シモカワラコウ","prefecture_code":7},"6215":{"zip_code":"9696215","prefecture":"福島県","prefecture_kana":"フクシマケン","city":"大沼郡会津美里町","city_kana":"オオヌマグンアイヅミサトマチ","town":"下堀","town_kana":"シモホリ","prefecture_code":7},"6256":{"zip_code":"9696256","prefecture":"福島県","prefecture_kana":"フクシマケン","city":"大沼郡会津美里町","city_kana":"オオヌマグンアイヅミサトマチ","town":"上戸原","town_kana":"ジョウドハラ","prefecture_code":7},"6115":{"zip_code":"9696115","prefecture":"福島県","prefecture_kana":"フクシマケン","city":"大沼郡会津美里町","city_kana":"オオヌマグンアイヅミサトマチ","town":"新町","town_kana":"シンチョウ","prefecture_code":7},"6267":[{"zip_code":"9696267","prefecture":"福島県","prefecture_kana":"フクシマケン","city":"大沼郡会津美里町","city_kana":"オオヌマグンアイヅミサトマチ","town":"新丁西","town_kana":"シンチョウニシ","prefecture_code":7},{"zip_code":"9696267","prefecture":"福島県","prefecture_kana":"フクシマケン","city":"大沼郡会津美里町","city_kana":"オオヌマグンアイヅミサトマチ","town":"西裏","town_kana":"ニシウラ","prefecture_code":7}],"6402":{"zip_code":"9696402","prefecture":"福島県","prefecture_kana":"フクシマケン","city":"大沼郡会津美里町","city_kana":"オオヌマグンアイヅミサトマチ","town":"新屋敷","town_kana":"シンヤシキ","prefecture_code":7},"6107":{"zip_code":"9696107","prefecture":"福島県","prefecture_kana":"フクシマケン","city":"大沼郡会津美里町","city_kana":"オオヌマグンアイヅミサトマチ","town":"新用地","town_kana":"シンヨウチ","prefecture_code":7},"6162":{"zip_code":"9696162","prefecture":"福島県","prefecture_kana":"フクシマケン","city":"大沼郡会津美里町","city_kana":"オオヌマグンアイヅミサトマチ","town":"杉","town_kana":"スギ","prefecture_code":7},"6301":{"zip_code":"9696301","prefecture":"福島県","prefecture_kana":"フクシマケン","city":"大沼郡会津美里町","city_kana":"オオヌマグンアイヅミサトマチ","town":"杉甲","town_kana":"スギコウ","prefecture_code":7},"6253":{"zip_code":"9696253","prefecture":"福島県","prefecture_kana":"フクシマケン","city":"大沼郡会津美里町","city_kana":"オオヌマグンアイヅミサトマチ","town":"杉屋","town_kana":"スギヤ","prefecture_code":7},"6274":{"zip_code":"9696274","prefecture":"福島県","prefecture_kana":"フクシマケン","city":"大沼郡会津美里町","city_kana":"オオヌマグンアイヅミサトマチ","town":"雀林","town_kana":"スズメバヤシ","prefecture_code":7},"6263":[{"zip_code":"9696263","prefecture":"福島県","prefecture_kana":"フクシマケン","city":"大沼郡会津美里町","city_kana":"オオヌマグンアイヅミサトマチ","town":"清竜寺北","town_kana":"セイリュウジキタ","prefecture_code":7},{"zip_code":"9696263","prefecture":"福島県","prefecture_kana":"フクシマケン","city":"大沼郡会津美里町","city_kana":"オオヌマグンアイヅミサトマチ","town":"宮北","town_kana":"ミヤキタ","prefecture_code":7},{"zip_code":"9696263","prefecture":"福島県","prefecture_kana":"フクシマケン","city":"大沼郡会津美里町","city_kana":"オオヌマグンアイヅミサトマチ","town":"宮林","town_kana":"ミヤバヤシ","prefecture_code":7},{"zip_code":"9696263","prefecture":"福島県","prefecture_kana":"フクシマケン","city":"大沼郡会津美里町","city_kana":"オオヌマグンアイヅミサトマチ","town":"宮林甲","town_kana":"ミヤバヤシコウ","prefecture_code":7},{"zip_code":"9696263","prefecture":"福島県","prefecture_kana":"フクシマケン","city":"大沼郡会津美里町","city_kana":"オオヌマグンアイヅミサトマチ","town":"文珠西","town_kana":"モンジュニシ","prefecture_code":7},{"zip_code":"9696263","prefecture":"福島県","prefecture_kana":"フクシマケン","city":"大沼郡会津美里町","city_kana":"オオヌマグンアイヅミサトマチ","town":"文珠東","town_kana":"モンジュヒガシ","prefecture_code":7}],"6108":{"zip_code":"9696108","prefecture":"福島県","prefecture_kana":"フクシマケン","city":"大沼郡会津美里町","city_kana":"オオヌマグンアイヅミサトマチ","town":"堰下","town_kana":"セキシタ","prefecture_code":7},"6033":{"zip_code":"9696033","prefecture":"福島県","prefecture_kana":"フクシマケン","city":"大沼郡会津美里町","city_kana":"オオヌマグンアイヅミサトマチ","town":"堰向","town_kana":"セキムカイ","prefecture_code":7},"6034":{"zip_code":"9696034","prefecture":"福島県","prefecture_kana":"フクシマケン","city":"大沼郡会津美里町","city_kana":"オオヌマグンアイヅミサトマチ","town":"堰向甲","town_kana":"セキムカイコウ","prefecture_code":7},"6116":{"zip_code":"9696116","prefecture":"福島県","prefecture_kana":"フクシマケン","city":"大沼郡会津美里町","city_kana":"オオヌマグンアイヅミサトマチ","town":"瀬戸町","town_kana":"セトマチ","prefecture_code":7},"6042":{"zip_code":"9696042","prefecture":"福島県","prefecture_kana":"フクシマケン","city":"大沼郡会津美里町","city_kana":"オオヌマグンアイヅミサトマチ","town":"瀬戸町甲","town_kana":"セトマチコウ","prefecture_code":7},"6044":{"zip_code":"9696044","prefecture":"福島県","prefecture_kana":"フクシマケン","city":"大沼郡会津美里町","city_kana":"オオヌマグンアイヅミサトマチ","town":"瀬戸屋前","town_kana":"セトヤマエ","prefecture_code":7},"6156":{"zip_code":"9696156","prefecture":"福島県","prefecture_kana":"フクシマケン","city":"大沼郡会津美里町","city_kana":"オオヌマグンアイヅミサトマチ","town":"瀬戸屋前甲","town_kana":"セトヤマエコウ","prefecture_code":7},"6055":{"zip_code":"9696055","prefecture":"福島県","prefecture_kana":"フクシマケン","city":"大沼郡会津美里町","city_kana":"オオヌマグンアイヅミサトマチ","town":"惣印甲","town_kana":"ソウインコウ","prefecture_code":7},"6056":{"zip_code":"9696056","prefecture":"福島県","prefecture_kana":"フクシマケン","city":"大沼郡会津美里町","city_kana":"オオヌマグンアイヅミサトマチ","town":"惣印東","town_kana":"ソウインヒガシ","prefecture_code":7},"6054":{"zip_code":"9696054","prefecture":"福島県","prefecture_kana":"フクシマケン","city":"大沼郡会津美里町","city_kana":"オオヌマグンアイヅミサトマチ","town":"惣印南","town_kana":"ソウインミナミ","prefecture_code":7},"6109":{"zip_code":"9696109","prefecture":"福島県","prefecture_kana":"フクシマケン","city":"大沼郡会津美里町","city_kana":"オオヌマグンアイヅミサトマチ","town":"宗頤町","town_kana":"ソウエンマチ","prefecture_code":7},"6204":[{"zip_code":"9696204","prefecture":"福島県","prefecture_kana":"フクシマケン","city":"大沼郡会津美里町","city_kana":"オオヌマグンアイヅミサトマチ","town":"台ノ下","town_kana":"ダイノシタ","prefecture_code":7},{"zip_code":"9696204","prefecture":"福島県","prefecture_kana":"フクシマケン","city":"大沼郡会津美里町","city_kana":"オオヌマグンアイヅミサトマチ","town":"宮ノ腰","town_kana":"ミヤノコシ","prefecture_code":7}],"6264":[{"zip_code":"9696264","prefecture":"福島県","prefecture_kana":"フクシマケン","city":"大沼郡会津美里町","city_kana":"オオヌマグンアイヅミサトマチ","town":"高田","town_kana":"タカダ","prefecture_code":7},{"zip_code":"9696264","prefecture":"福島県","prefecture_kana":"フクシマケン","city":"大沼郡会津美里町","city_kana":"オオヌマグンアイヅミサトマチ","town":"高田乙","town_kana":"タカダオツ","prefecture_code":7},{"zip_code":"9696264","prefecture":"福島県","prefecture_kana":"フクシマケン","city":"大沼郡会津美里町","city_kana":"オオヌマグンアイヅミサトマチ","town":"高田甲","town_kana":"タカダコウ","prefecture_code":7}],"6203":[{"zip_code":"9696203","prefecture":"福島県","prefecture_kana":"フクシマケン","city":"大沼郡会津美里町","city_kana":"オオヌマグンアイヅミサトマチ","town":"高田前川原","town_kana":"タカダマエカワハラ","prefecture_code":7},{"zip_code":"9696203","prefecture":"福島県","prefecture_kana":"フクシマケン","city":"大沼郡会津美里町","city_kana":"オオヌマグンアイヅミサトマチ","town":"水戸","town_kana":"ミト","prefecture_code":7}],"6202":[{"zip_code":"9696202","prefecture":"福島県","prefecture_kana":"フクシマケン","city":"大沼郡会津美里町","city_kana":"オオヌマグンアイヅミサトマチ","town":"高田村東","town_kana":"タカダムラヒガシ","prefecture_code":7},{"zip_code":"9696202","prefecture":"福島県","prefecture_kana":"フクシマケン","city":"大沼郡会津美里町","city_kana":"オオヌマグンアイヅミサトマチ","town":"村前","town_kana":"ムラマエ","prefecture_code":7}],"6032":{"zip_code":"9696032","prefecture":"福島県","prefecture_kana":"フクシマケン","city":"大沼郡会津美里町","city_kana":"オオヌマグンアイヅミサトマチ","town":"竹原","town_kana":"タケハラ","prefecture_code":7},"6411":{"zip_code":"9696411","prefecture":"福島県","prefecture_kana":"フクシマケン","city":"大沼郡会津美里町","city_kana":"オオヌマグンアイヅミサトマチ","town":"立石田","town_kana":"タチイシダ","prefecture_code":7},"6175":{"zip_code":"9696175","prefecture":"福島県","prefecture_kana":"フクシマケン","city":"大沼郡会津美里町","city_kana":"オオヌマグンアイヅミサトマチ","town":"舘ノ廻","town_kana":"タテノマワリ","prefecture_code":7},"6021":{"zip_code":"9696021","prefecture":"福島県","prefecture_kana":"フクシマケン","city":"大沼郡会津美里町","city_kana":"オオヌマグンアイヅミサトマチ","town":"舘ノ廻甲","town_kana":"タテノマワリコウ","prefecture_code":7},"6403":{"zip_code":"9696403","prefecture":"福島県","prefecture_kana":"フクシマケン","city":"大沼郡会津美里町","city_kana":"オオヌマグンアイヅミサトマチ","town":"鶴野辺","town_kana":"ツルノベ","prefecture_code":7},"6271":[{"zip_code":"9696271","prefecture":"福島県","prefecture_kana":"フクシマケン","city":"大沼郡会津美里町","city_kana":"オオヌマグンアイヅミサトマチ","town":"寺崎","town_kana":"テラサキ","prefecture_code":7},{"zip_code":"9696271","prefecture":"福島県","prefecture_kana":"フクシマケン","city":"大沼郡会津美里町","city_kana":"オオヌマグンアイヅミサトマチ","town":"沼ノ上","town_kana":"ヌマノウエ","prefecture_code":7}],"6122":{"zip_code":"9696122","prefecture":"福島県","prefecture_kana":"フクシマケン","city":"大沼郡会津美里町","city_kana":"オオヌマグンアイヅミサトマチ","town":"寺ノ前","town_kana":"テラノマエ","prefecture_code":7},"6073":{"zip_code":"9696073","prefecture":"福島県","prefecture_kana":"フクシマケン","city":"大沼郡会津美里町","city_kana":"オオヌマグンアイヅミサトマチ","town":"寺ノ前甲","town_kana":"テラノマエコウ","prefecture_code":7},"6353":{"zip_code":"9696353","prefecture":"福島県","prefecture_kana":"フクシマケン","city":"大沼郡会津美里町","city_kana":"オオヌマグンアイヅミサトマチ","town":"堂ノ前","town_kana":"ドウノマエ","prefecture_code":7},"6354":{"zip_code":"9696354","prefecture":"福島県","prefecture_kana":"フクシマケン","city":"大沼郡会津美里町","city_kana":"オオヌマグンアイヅミサトマチ","town":"堂ノ前甲","town_kana":"ドウノマエコウ","prefecture_code":7},"6214":{"zip_code":"9696214","prefecture":"福島県","prefecture_kana":"フクシマケン","city":"大沼郡会津美里町","city_kana":"オオヌマグンアイヅミサトマチ","town":"冨川","town_kana":"トミカワ","prefecture_code":7},"6251":{"zip_code":"9696251","prefecture":"福島県","prefecture_kana":"フクシマケン","city":"大沼郡会津美里町","city_kana":"オオヌマグンアイヅミサトマチ","town":"永井野","town_kana":"ナガイノ","prefecture_code":7},"6118":[{"zip_code":"9696118","prefecture":"福島県","prefecture_kana":"フクシマケン","city":"大沼郡会津美里町","city_kana":"オオヌマグンアイヅミサトマチ","town":"仲塚","town_kana":"ナカツカ","prefecture_code":7},{"zip_code":"9696118","prefecture":"福島県","prefecture_kana":"フクシマケン","city":"大沼郡会津美里町","city_kana":"オオヌマグンアイヅミサトマチ","town":"向川原甲","town_kana":"ムカイカワハラコウ","prefecture_code":7}],"6053":{"zip_code":"9696053","prefecture":"福島県","prefecture_kana":"フクシマケン","city":"大沼郡会津美里町","city_kana":"オオヌマグンアイヅミサトマチ","town":"仲塚甲","town_kana":"ナカヅカコウ","prefecture_code":7},"6035":{"zip_code":"9696035","prefecture":"福島県","prefecture_kana":"フクシマケン","city":"大沼郡会津美里町","city_kana":"オオヌマグンアイヅミサトマチ","town":"中樋","town_kana":"ナカトイ","prefecture_code":7},"6123":{"zip_code":"9696123","prefecture":"福島県","prefecture_kana":"フクシマケン","city":"大沼郡会津美里町","city_kana":"オオヌマグンアイヅミサトマチ","town":"中道下","town_kana":"ナカミチシタ","prefecture_code":7},"6074":{"zip_code":"9696074","prefecture":"福島県","prefecture_kana":"フクシマケン","city":"大沼郡会津美里町","city_kana":"オオヌマグンアイヅミサトマチ","town":"中道下甲","town_kana":"ナカミチシタコウ","prefecture_code":7},"6244":{"zip_code":"9696244","prefecture":"福島県","prefecture_kana":"フクシマケン","city":"大沼郡会津美里町","city_kana":"オオヌマグンアイヅミサトマチ","town":"西尾","town_kana":"ニシオ","prefecture_code":7},"6355":{"zip_code":"9696355","prefecture":"福島県","prefecture_kana":"フクシマケン","city":"大沼郡会津美里町","city_kana":"オオヌマグンアイヅミサトマチ","town":"西沖","town_kana":"ニシオキ","prefecture_code":7},"6245":{"zip_code":"9696245","prefecture":"福島県","prefecture_kana":"フクシマケン","city":"大沼郡会津美里町","city_kana":"オオヌマグンアイヅミサトマチ","town":"西本","town_kana":"ニシモト","prefecture_code":7},"6085":{"zip_code":"9696085","prefecture":"福島県","prefecture_kana":"フクシマケン","city":"大沼郡会津美里町","city_kana":"オオヌマグンアイヅミサトマチ","town":"西谷地","town_kana":"ニシヤチ","prefecture_code":7},"6086":{"zip_code":"9696086","prefecture":"福島県","prefecture_kana":"フクシマケン","city":"大沼郡会津美里町","city_kana":"オオヌマグンアイヅミサトマチ","town":"西谷地甲","town_kana":"ニシヤチコウ","prefecture_code":7},"6408":{"zip_code":"9696408","prefecture":"福島県","prefecture_kana":"フクシマケン","city":"大沼郡会津美里町","city_kana":"オオヌマグンアイヅミサトマチ","town":"沼田","town_kana":"ヌマタ","prefecture_code":7},"6211":{"zip_code":"9696211","prefecture":"福島県","prefecture_kana":"フクシマケン","city":"大沼郡会津美里町","city_kana":"オオヌマグンアイヅミサトマチ","town":"橋丸","town_kana":"ハシマル","prefecture_code":7},"6338":{"zip_code":"9696338","prefecture":"福島県","prefecture_kana":"フクシマケン","city":"大沼郡会津美里町","city_kana":"オオヌマグンアイヅミサトマチ","town":"橋本乙","town_kana":"ハシモトオツ","prefecture_code":7},"6356":{"zip_code":"9696356","prefecture":"福島県","prefecture_kana":"フクシマケン","city":"大沼郡会津美里町","city_kana":"オオヌマグンアイヅミサトマチ","town":"稗田乙","town_kana":"ヒエダオツ","prefecture_code":7},"6232":{"zip_code":"9696232","prefecture":"福島県","prefecture_kana":"フクシマケン","city":"大沼郡会津美里町","city_kana":"オオヌマグンアイヅミサトマチ","town":"東尾岐","town_kana":"ヒガシオマタ","prefecture_code":7},"6124":{"zip_code":"9696124","prefecture":"福島県","prefecture_kana":"フクシマケン","city":"大沼郡会津美里町","city_kana":"オオヌマグンアイヅミサトマチ","town":"東谷地","town_kana":"ヒガシヤチ","prefecture_code":7},"6077":{"zip_code":"9696077","prefecture":"福島県","prefecture_kana":"フクシマケン","city":"大沼郡会津美里町","city_kana":"オオヌマグンアイヅミサトマチ","town":"東谷地甲","town_kana":"ヒガシヤチコウ","prefecture_code":7},"6143":{"zip_code":"9696143","prefecture":"福島県","prefecture_kana":"フクシマケン","city":"大沼郡会津美里町","city_kana":"オオヌマグンアイヅミサトマチ","town":"氷玉","town_kana":"ヒダマ","prefecture_code":7},"6176":{"zip_code":"9696176","prefecture":"福島県","prefecture_kana":"フクシマケン","city":"大沼郡会津美里町","city_kana":"オオヌマグンアイヅミサトマチ","town":"旱泥","town_kana":"ヒドロ","prefecture_code":7},"6028":{"zip_code":"9696028","prefecture":"福島県","prefecture_kana":"フクシマケン","city":"大沼郡会津美里町","city_kana":"オオヌマグンアイヅミサトマチ","town":"旱泥甲","town_kana":"ヒドロコウ","prefecture_code":7},"6078":{"zip_code":"9696078","prefecture":"福島県","prefecture_kana":"フクシマケン","city":"大沼郡会津美里町","city_kana":"オオヌマグンアイヅミサトマチ","town":"蛭ケ窪","town_kana":"ヒルガクボ","prefecture_code":7},"6031":{"zip_code":"9696031","prefecture":"福島県","prefecture_kana":"フクシマケン","city":"大沼郡会津美里町","city_kana":"オオヌマグンアイヅミサトマチ","town":"広面","town_kana":"ヒロヅラ","prefecture_code":7},"6144":{"zip_code":"9696144","prefecture":"福島県","prefecture_kana":"フクシマケン","city":"大沼郡会津美里町","city_kana":"オオヌマグンアイヅミサトマチ","town":"福重岡","town_kana":"フクエオカ","prefecture_code":7},"6212":{"zip_code":"9696212","prefecture":"福島県","prefecture_kana":"フクシマケン","city":"大沼郡会津美里町","city_kana":"オオヌマグンアイヅミサトマチ","town":"藤家館","town_kana":"フジイエタテ","prefecture_code":7},"6133":{"zip_code":"9696133","prefecture":"福島県","prefecture_kana":"フクシマケン","city":"大沼郡会津美里町","city_kana":"オオヌマグンアイヅミサトマチ","town":"船場","town_kana":"フナバ","prefecture_code":7},"6069":{"zip_code":"9696069","prefecture":"福島県","prefecture_kana":"フクシマケン","city":"大沼郡会津美里町","city_kana":"オオヌマグンアイヅミサトマチ","town":"船場甲","town_kana":"フナバコウ","prefecture_code":7},"6315":{"zip_code":"9696315","prefecture":"福島県","prefecture_kana":"フクシマケン","city":"大沼郡会津美里町","city_kana":"オオヌマグンアイヅミサトマチ","town":"蛇ノ宮甲","town_kana":"ヘビノミヤコウ","prefecture_code":7},"6332":{"zip_code":"9696332","prefecture":"福島県","prefecture_kana":"フクシマケン","city":"大沼郡会津美里町","city_kana":"オオヌマグンアイヅミサトマチ","town":"本郷村西乙","town_kana":"ホウンゴウムラニシオツ","prefecture_code":7},"6135":{"zip_code":"9696135","prefecture":"福島県","prefecture_kana":"フクシマケン","city":"大沼郡会津美里町","city_kana":"オオヌマグンアイヅミサトマチ","town":"穂馬","town_kana":"ホマ","prefecture_code":7},"6125":{"zip_code":"9696125","prefecture":"福島県","prefecture_kana":"フクシマケン","city":"大沼郡会津美里町","city_kana":"オオヌマグンアイヅミサトマチ","town":"本郷","town_kana":"ホンゴウ","prefecture_code":7},"6066":{"zip_code":"9696066","prefecture":"福島県","prefecture_kana":"フクシマケン","city":"大沼郡会津美里町","city_kana":"オオヌマグンアイヅミサトマチ","town":"本郷入口中道上甲","town_kana":"ホンゴウイリグチナカミチウエコウ","prefecture_code":7},"6065":{"zip_code":"9696065","prefecture":"福島県","prefecture_kana":"フクシマケン","city":"大沼郡会津美里町","city_kana":"オオヌマグンアイヅミサトマチ","town":"本郷入口道上甲","town_kana":"ホンゴウイリグチミチウエコウ","prefecture_code":7},"6117":{"zip_code":"9696117","prefecture":"福島県","prefecture_kana":"フクシマケン","city":"大沼郡会津美里町","city_kana":"オオヌマグンアイヅミサトマチ","town":"本郷入口道上","town_kana":"ホンゴウイリクチミチカミ","prefecture_code":7},"6071":{"zip_code":"9696071","prefecture":"福島県","prefecture_kana":"フクシマケン","city":"大沼郡会津美里町","city_kana":"オオヌマグンアイヅミサトマチ","town":"本郷上","town_kana":"ホンゴウカミ","prefecture_code":7},"6127":{"zip_code":"9696127","prefecture":"福島県","prefecture_kana":"フクシマケン","city":"大沼郡会津美里町","city_kana":"オオヌマグンアイヅミサトマチ","town":"本郷上甲","town_kana":"ホンゴウカミコウ","prefecture_code":7},"6126":{"zip_code":"9696126","prefecture":"福島県","prefecture_kana":"フクシマケン","city":"大沼郡会津美里町","city_kana":"オオヌマグンアイヅミサトマチ","town":"本郷甲","town_kana":"ホンゴウコウ","prefecture_code":7},"6336":{"zip_code":"9696336","prefecture":"福島県","prefecture_kana":"フクシマケン","city":"大沼郡会津美里町","city_kana":"オオヌマグンアイヅミサトマチ","town":"本郷千苅","town_kana":"ホンゴウセンガリ","prefecture_code":7},"6337":{"zip_code":"9696337","prefecture":"福島県","prefecture_kana":"フクシマケン","city":"大沼郡会津美里町","city_kana":"オオヌマグンアイヅミサトマチ","town":"本郷千苅乙","town_kana":"ホンゴウセンガリオツ","prefecture_code":7},"6132":{"zip_code":"9696132","prefecture":"福島県","prefecture_kana":"フクシマケン","city":"大沼郡会津美里町","city_kana":"オオヌマグンアイヅミサトマチ","town":"本郷高田町","town_kana":"ホンゴウタカダマチ","prefecture_code":7},"6084":{"zip_code":"9696084","prefecture":"福島県","prefecture_kana":"フクシマケン","city":"大沼郡会津美里町","city_kana":"オオヌマグンアイヅミサトマチ","town":"本郷高田町甲","town_kana":"ホンゴウタカダマチコウ","prefecture_code":7},"6177":{"zip_code":"9696177","prefecture":"福島県","prefecture_kana":"フクシマケン","city":"大沼郡会津美里町","city_kana":"オオヌマグンアイヅミサトマチ","town":"本郷前川原","town_kana":"ホンゴウマエカワハラ","prefecture_code":7},"6026":{"zip_code":"9696026","prefecture":"福島県","prefecture_kana":"フクシマケン","city":"大沼郡会津美里町","city_kana":"オオヌマグンアイヅミサトマチ","town":"本郷前川原甲","town_kana":"ホンゴウマエカワハラコウ","prefecture_code":7},"6164":{"zip_code":"9696164","prefecture":"福島県","prefecture_kana":"フクシマケン","city":"大沼郡会津美里町","city_kana":"オオヌマグンアイヅミサトマチ","town":"本郷道上","town_kana":"ホンゴウミチカミ","prefecture_code":7},"6087":{"zip_code":"9696087","prefecture":"福島県","prefecture_kana":"フクシマケン","city":"大沼郡会津美里町","city_kana":"オオヌマグンアイヅミサトマチ","town":"本郷道西","town_kana":"ホンゴウミチニシ","prefecture_code":7},"6129":{"zip_code":"9696129","prefecture":"福島県","prefecture_kana":"フクシマケン","city":"大沼郡会津美里町","city_kana":"オオヌマグンアイヅミサトマチ","town":"本郷道西甲","town_kana":"ホンゴウミチニシコウ","prefecture_code":7},"6075":{"zip_code":"9696075","prefecture":"福島県","prefecture_kana":"フクシマケン","city":"大沼郡会津美里町","city_kana":"オオヌマグンアイヅミサトマチ","town":"本郷道東","town_kana":"ホンゴウミチヒガシ","prefecture_code":7},"6076":{"zip_code":"9696076","prefecture":"福島県","prefecture_kana":"フクシマケン","city":"大沼郡会津美里町","city_kana":"オオヌマグンアイヅミサトマチ","town":"本郷道東甲","town_kana":"ホンゴウミチヒガシコウ","prefecture_code":7},"6172":{"zip_code":"9696172","prefecture":"福島県","prefecture_kana":"フクシマケン","city":"大沼郡会津美里町","city_kana":"オオヌマグンアイヅミサトマチ","town":"本郷村西","town_kana":"ホンゴウムラニシ","prefecture_code":7},"6331":{"zip_code":"9696331","prefecture":"福島県","prefecture_kana":"フクシマケン","city":"大沼郡会津美里町","city_kana":"オオヌマグンアイヅミサトマチ","town":"本郷村西甲","town_kana":"ホンゴウムラニシコウ","prefecture_code":7},"6334":{"zip_code":"9696334","prefecture":"福島県","prefecture_kana":"フクシマケン","city":"大沼郡会津美里町","city_kana":"オオヌマグンアイヅミサトマチ","town":"本郷村東乙","town_kana":"ホンゴウムラヒガシオツ","prefecture_code":7},"6252":{"zip_code":"9696252","prefecture":"福島県","prefecture_kana":"フクシマケン","city":"大沼郡会津美里町","city_kana":"オオヌマグンアイヅミサトマチ","town":"松岸","town_kana":"マツキシ","prefecture_code":7},"6255":{"zip_code":"9696255","prefecture":"福島県","prefecture_kana":"フクシマケン","city":"大沼郡会津美里町","city_kana":"オオヌマグンアイヅミサトマチ","town":"松沢","town_kana":"マツザワ","prefecture_code":7},"6158":{"zip_code":"9696158","prefecture":"福島県","prefecture_kana":"フクシマケン","city":"大沼郡会津美里町","city_kana":"オオヌマグンアイヅミサトマチ","town":"松原際","town_kana":"マツバラキワ","prefecture_code":7},"6043":{"zip_code":"9696043","prefecture":"福島県","prefecture_kana":"フクシマケン","city":"大沼郡会津美里町","city_kana":"オオヌマグンアイヅミサトマチ","town":"松原際甲","town_kana":"マツバラギワコウ","prefecture_code":7},"6058":{"zip_code":"9696058","prefecture":"福島県","prefecture_kana":"フクシマケン","city":"大沼郡会津美里町","city_kana":"オオヌマグンアイヅミサトマチ","town":"的場甲","town_kana":"マトバコウ","prefecture_code":7},"6128":{"zip_code":"9696128","prefecture":"福島県","prefecture_kana":"フクシマケン","city":"大沼郡会津美里町","city_kana":"オオヌマグンアイヅミサトマチ","town":"真々川","town_kana":"ママカワ","prefecture_code":7},"6072":{"zip_code":"9696072","prefecture":"福島県","prefecture_kana":"フクシマケン","city":"大沼郡会津美里町","city_kana":"オオヌマグンアイヅミサトマチ","town":"真々川甲","town_kana":"ママカワコウ","prefecture_code":7},"6323":{"zip_code":"9696323","prefecture":"福島県","prefecture_kana":"フクシマケン","city":"大沼郡会津美里町","city_kana":"オオヌマグンアイヅミサトマチ","town":"丸山","town_kana":"マルヤマ","prefecture_code":7},"6324":{"zip_code":"9696324","prefecture":"福島県","prefecture_kana":"フクシマケン","city":"大沼郡会津美里町","city_kana":"オオヌマグンアイヅミサトマチ","town":"丸山乙","town_kana":"マルヤマオツ","prefecture_code":7},"6321":{"zip_code":"9696321","prefecture":"福島県","prefecture_kana":"フクシマケン","city":"大沼郡会津美里町","city_kana":"オオヌマグンアイヅミサトマチ","town":"丸山北","town_kana":"マルヤマキタ","prefecture_code":7},"6322":{"zip_code":"9696322","prefecture":"福島県","prefecture_kana":"フクシマケン","city":"大沼郡会津美里町","city_kana":"オオヌマグンアイヅミサトマチ","town":"丸山北甲","town_kana":"マルヤマキタコウ","prefecture_code":7},"6134":{"zip_code":"9696134","prefecture":"福島県","prefecture_kana":"フクシマケン","city":"大沼郡会津美里町","city_kana":"オオヌマグンアイヅミサトマチ","town":"三日町","town_kana":"ミッカマチ","prefecture_code":7},"6081":{"zip_code":"9696081","prefecture":"福島県","prefecture_kana":"フクシマケン","city":"大沼郡会津美里町","city_kana":"オオヌマグンアイヅミサトマチ","town":"三日町上","town_kana":"ミッカマチウエ","prefecture_code":7},"6082":{"zip_code":"9696082","prefecture":"福島県","prefecture_kana":"フクシマケン","city":"大沼郡会津美里町","city_kana":"オオヌマグンアイヅミサトマチ","town":"三日町上甲","town_kana":"ミッカマチウエコウ","prefecture_code":7},"6079":{"zip_code":"9696079","prefecture":"福島県","prefecture_kana":"フクシマケン","city":"大沼郡会津美里町","city_kana":"オオヌマグンアイヅミサトマチ","town":"三日町甲","town_kana":"ミッカマチコウ","prefecture_code":7},"6083":{"zip_code":"9696083","prefecture":"福島県","prefecture_kana":"フクシマケン","city":"大沼郡会津美里町","city_kana":"オオヌマグンアイヅミサトマチ","town":"三日町道上甲","town_kana":"ミッカマチミチウエコウ","prefecture_code":7},"6243":{"zip_code":"9696243","prefecture":"福島県","prefecture_kana":"フクシマケン","city":"大沼郡会津美里町","city_kana":"オオヌマグンアイヅミサトマチ","town":"宮川","town_kana":"ミヤカワ","prefecture_code":7},"6325":{"zip_code":"9696325","prefecture":"福島県","prefecture_kana":"フクシマケン","city":"大沼郡会津美里町","city_kana":"オオヌマグンアイヅミサトマチ","town":"宮後","town_kana":"ミヤゴ","prefecture_code":7},"6327":{"zip_code":"9696327","prefecture":"福島県","prefecture_kana":"フクシマケン","city":"大沼郡会津美里町","city_kana":"オオヌマグンアイヅミサトマチ","town":"宮後乙","town_kana":"ミヤゴオツ","prefecture_code":7},"6326":{"zip_code":"9696326","prefecture":"福島県","prefecture_kana":"フクシマケン","city":"大沼郡会津美里町","city_kana":"オオヌマグンアイヅミサトマチ","town":"宮後甲","town_kana":"ミヤゴコウ","prefecture_code":7},"6207":{"zip_code":"9696207","prefecture":"福島県","prefecture_kana":"フクシマケン","city":"大沼郡会津美里町","city_kana":"オオヌマグンアイヅミサトマチ","town":"宮里","town_kana":"ミヤザト","prefecture_code":7},"6059":{"zip_code":"9696059","prefecture":"福島県","prefecture_kana":"フクシマケン","city":"大沼郡会津美里町","city_kana":"オオヌマグンアイヅミサトマチ","town":"六日町甲","town_kana":"ムイカマチコウ","prefecture_code":7},"6064":{"zip_code":"9696064","prefecture":"福島県","prefecture_kana":"フクシマケン","city":"大沼郡会津美里町","city_kana":"オオヌマグンアイヅミサトマチ","town":"向川原","town_kana":"ムカイガワラ","prefecture_code":7},"6142":{"zip_code":"9696142","prefecture":"福島県","prefecture_kana":"フクシマケン","city":"大沼郡会津美里町","city_kana":"オオヌマグンアイヅミサトマチ","town":"村上","town_kana":"ムラカミ","prefecture_code":7},"6335":{"zip_code":"9696335","prefecture":"福島県","prefecture_kana":"フクシマケン","city":"大沼郡会津美里町","city_kana":"オオヌマグンアイヅミサトマチ","town":"村上乙","town_kana":"ムラカミオツ","prefecture_code":7},"6157":{"zip_code":"9696157","prefecture":"福島県","prefecture_kana":"フクシマケン","city":"大沼郡会津美里町","city_kana":"オオヌマグンアイヅミサトマチ","town":"本屋敷","town_kana":"モトヤシキ","prefecture_code":7},"6273":{"zip_code":"9696273","prefecture":"福島県","prefecture_kana":"フクシマケン","city":"大沼郡会津美里町","city_kana":"オオヌマグンアイヅミサトマチ","town":"八木沢","town_kana":"ヤギサワ","prefecture_code":7},"6201":[{"zip_code":"9696201","prefecture":"福島県","prefecture_kana":"フクシマケン","city":"大沼郡会津美里町","city_kana":"オオヌマグンアイヅミサトマチ","town":"安田","town_kana":"ヤスダ","prefecture_code":7},{"zip_code":"9696201","prefecture":"福島県","prefecture_kana":"フクシマケン","city":"大沼郡会津美里町","city_kana":"オオヌマグンアイヅミサトマチ","town":"安田乙","town_kana":"ヤスダオツ","prefecture_code":7}],"6268":[{"zip_code":"9696268","prefecture":"福島県","prefecture_kana":"フクシマケン","city":"大沼郡会津美里町","city_kana":"オオヌマグンアイヅミサトマチ","town":"谷地","town_kana":"ヤチ","prefecture_code":7},{"zip_code":"9696268","prefecture":"福島県","prefecture_kana":"フクシマケン","city":"大沼郡会津美里町","city_kana":"オオヌマグンアイヅミサトマチ","town":"谷地前","town_kana":"ヤチマエ","prefecture_code":7},{"zip_code":"9696268","prefecture":"福島県","prefecture_kana":"フクシマケン","city":"大沼郡会津美里町","city_kana":"オオヌマグンアイヅミサトマチ","town":"柳台","town_kana":"ヤナギダイ","prefecture_code":7},{"zip_code":"9696268","prefecture":"福島県","prefecture_kana":"フクシマケン","city":"大沼郡会津美里町","city_kana":"オオヌマグンアイヅミサトマチ","town":"柳台甲","town_kana":"ヤナギダイコウ","prefecture_code":7}],"6119":{"zip_code":"9696119","prefecture":"福島県","prefecture_kana":"フクシマケン","city":"大沼郡会津美里町","city_kana":"オオヌマグンアイヅミサトマチ","town":"梁場上","town_kana":"ヤナバカミ","prefecture_code":7},"6067":{"zip_code":"9696067","prefecture":"福島県","prefecture_kana":"フクシマケン","city":"大沼郡会津美里町","city_kana":"オオヌマグンアイヅミサトマチ","town":"梁場上甲","town_kana":"ヤナバカミコウ","prefecture_code":7},"6303":{"zip_code":"9696303","prefecture":"福島県","prefecture_kana":"フクシマケン","city":"大沼郡会津美里町","city_kana":"オオヌマグンアイヅミサトマチ","town":"山道上","town_kana":"ヤマミチカミ","prefecture_code":7},"6165":{"zip_code":"9696165","prefecture":"福島県","prefecture_kana":"フクシマケン","city":"大沼郡会津美里町","city_kana":"オオヌマグンアイヅミサトマチ","town":"山道下","town_kana":"ヤマミチシタ","prefecture_code":7},"6302":{"zip_code":"9696302","prefecture":"福島県","prefecture_kana":"フクシマケン","city":"大沼郡会津美里町","city_kana":"オオヌマグンアイヅミサトマチ","town":"山道下甲","town_kana":"ヤマミチシタコウ","prefecture_code":7},"6145":{"zip_code":"9696145","prefecture":"福島県","prefecture_kana":"フクシマケン","city":"大沼郡会津美里町","city_kana":"オオヌマグンアイヅミサトマチ","town":"山南","town_kana":"ヤマミナミ","prefecture_code":7},"6328":{"zip_code":"9696328","prefecture":"福島県","prefecture_kana":"フクシマケン","city":"大沼郡会津美里町","city_kana":"オオヌマグンアイヅミサトマチ","town":"山南乙","town_kana":"ヤマミナミオツ","prefecture_code":7},"6146":{"zip_code":"9696146","prefecture":"福島県","prefecture_kana":"フクシマケン","city":"大沼郡会津美里町","city_kana":"オオヌマグンアイヅミサトマチ","town":"横堀下","town_kana":"ヨコボリシタ","prefecture_code":7},"6341":{"zip_code":"9696341","prefecture":"福島県","prefecture_kana":"フクシマケン","city":"大沼郡会津美里町","city_kana":"オオヌマグンアイヅミサトマチ","town":"横堀下乙","town_kana":"ヨコボリシタオツ","prefecture_code":7},"6241":{"zip_code":"9696241","prefecture":"福島県","prefecture_kana":"フクシマケン","city":"大沼郡会津美里町","city_kana":"オオヌマグンアイヅミサトマチ","town":"吉田","town_kana":"ヨシダ","prefecture_code":7},"6405":{"zip_code":"9696405","prefecture":"福島県","prefecture_kana":"フクシマケン","city":"大沼郡会津美里町","city_kana":"オオヌマグンアイヅミサトマチ","town":"米田","town_kana":"ヨネタ","prefecture_code":7},"6401":{"zip_code":"9696401","prefecture":"福島県","prefecture_kana":"フクシマケン","city":"大沼郡会津美里町","city_kana":"オオヌマグンアイヅミサトマチ","town":"和田目","town_kana":"ワダメ","prefecture_code":7},"0100":{"zip_code":"9690100","prefecture":"福島県","prefecture_kana":"フクシマケン","city":"西白河郡泉崎村","city_kana":"ニシシラカワグンイズミザキムラ","town":"","town_kana":"","prefecture_code":7},"0101":{"zip_code":"9690101","prefecture":"福島県","prefecture_kana":"フクシマケン","city":"西白河郡泉崎村","city_kana":"ニシシラカワグンイズミザキムラ","town":"泉崎","town_kana":"イズミザキ","prefecture_code":7},"0104":{"zip_code":"9690104","prefecture":"福島県","prefecture_kana":"フクシマケン","city":"西白河郡泉崎村","city_kana":"ニシシラカワグンイズミザキムラ","town":"太田川","town_kana":"オオタガワ","prefecture_code":7},"0103":{"zip_code":"9690103","prefecture":"福島県","prefecture_kana":"フクシマケン","city":"西白河郡泉崎村","city_kana":"ニシシラカワグンイズミザキムラ","town":"北平山","town_kana":"キタヒラヤマ","prefecture_code":7},"0106":{"zip_code":"9690106","prefecture":"福島県","prefecture_kana":"フクシマケン","city":"西白河郡泉崎村","city_kana":"ニシシラカワグンイズミザキムラ","town":"関和久八雲神社","town_kana":"セキワグヤグモジンジャ","prefecture_code":7},"0102":{"zip_code":"9690102","prefecture":"福島県","prefecture_kana":"フクシマケン","city":"西白河郡泉崎村","city_kana":"ニシシラカワグンイズミザキムラ","town":"関和久","town_kana":"セキワグ","prefecture_code":7},"0105":{"zip_code":"9690105","prefecture":"福島県","prefecture_kana":"フクシマケン","city":"西白河郡泉崎村","city_kana":"ニシシラカワグンイズミザキムラ","town":"踏瀬","town_kana":"フマセ","prefecture_code":7},"0200":{"zip_code":"9690200","prefecture":"福島県","prefecture_kana":"フクシマケン","city":"西白河郡矢吹町","city_kana":"ニシシラカワグンヤブキマチ","town":"","town_kana":"","prefecture_code":7},"0206":{"zip_code":"9690206","prefecture":"福島県","prefecture_kana":"フクシマケン","city":"西白河郡矢吹町","city_kana":"ニシシラカワグンヤブキマチ","town":"赤沢","town_kana":"アカサワ","prefecture_code":7},"0272":{"zip_code":"9690272","prefecture":"福島県","prefecture_kana":"フクシマケン","city":"西白河郡矢吹町","city_kana":"ニシシラカワグンヤブキマチ","town":"曙町","town_kana":"アケボノチョウ","prefecture_code":7},"0236":[{"zip_code":"9690236","prefecture":"福島県","prefecture_kana":"フクシマケン","city":"西白河郡矢吹町","city_kana":"ニシシラカワグンヤブキマチ","town":"一本木","town_kana":"イッポンギ","prefecture_code":7},{"zip_code":"9690236","prefecture":"福島県","prefecture_kana":"フクシマケン","city":"西白河郡矢吹町","city_kana":"ニシシラカワグンヤブキマチ","town":"中畑新田","town_kana":"ナカハタシンデン","prefecture_code":7},{"zip_code":"9690236","prefecture":"福島県","prefecture_kana":"フクシマケン","city":"西白河郡矢吹町","city_kana":"ニシシラカワグンヤブキマチ","town":"矢吹","town_kana":"ヤブキ","prefecture_code":7}],"0287":[{"zip_code":"9690287","prefecture":"福島県","prefecture_kana":"フクシマケン","city":"西白河郡矢吹町","city_kana":"ニシシラカワグンヤブキマチ","town":"井戸尻","town_kana":"イドジリ","prefecture_code":7},{"zip_code":"9690287","prefecture":"福島県","prefecture_kana":"フクシマケン","city":"西白河郡矢吹町","city_kana":"ニシシラカワグンヤブキマチ","town":"川原","town_kana":"カワハラ","prefecture_code":7},{"zip_code":"9690287","prefecture":"福島県","prefecture_kana":"フクシマケン","city":"西白河郡矢吹町","city_kana":"ニシシラカワグンヤブキマチ","town":"堰の上","town_kana":"セキノウエ","prefecture_code":7}],"0238":{"zip_code":"9690238","prefecture":"福島県","prefecture_kana":"フクシマケン","city":"西白河郡矢吹町","city_kana":"ニシシラカワグンヤブキマチ","town":"大池","town_kana":"オオイケ","prefecture_code":7},"0224":{"zip_code":"9690224","prefecture":"福島県","prefecture_kana":"フクシマケン","city":"西白河郡矢吹町","city_kana":"ニシシラカワグンヤブキマチ","town":"大久保","town_kana":"オオクボ","prefecture_code":7},"0201":{"zip_code":"9690201","prefecture":"福島県","prefecture_kana":"フクシマケン","city":"西白河郡矢吹町","city_kana":"ニシシラカワグンヤブキマチ","town":"大町","town_kana":"オオマチ","prefecture_code":7},"0252":[{"zip_code":"9690252","prefecture":"福島県","prefecture_kana":"フクシマケン","city":"西白河郡矢吹町","city_kana":"ニシシラカワグンヤブキマチ","town":"神の内","town_kana":"カミノウチ","prefecture_code":7},{"zip_code":"9690252","prefecture":"福島県","prefecture_kana":"フクシマケン","city":"西白河郡矢吹町","city_kana":"ニシシラカワグンヤブキマチ","town":"堤","town_kana":"ツツミ","prefecture_code":7},{"zip_code":"9690252","prefecture":"福島県","prefecture_kana":"フクシマケン","city":"西白河郡矢吹町","city_kana":"ニシシラカワグンヤブキマチ","town":"中野目東","town_kana":"ナカノメヒガシ","prefecture_code":7},{"zip_code":"9690252","prefecture":"福島県","prefecture_kana":"フクシマケン","city":"西白河郡矢吹町","city_kana":"ニシシラカワグンヤブキマチ","town":"中野目西","town_kana":"ナカノメニシ","prefecture_code":7},{"zip_code":"9690252","prefecture":"福島県","prefecture_kana":"フクシマケン","city":"西白河郡矢吹町","city_kana":"ニシシラカワグンヤブキマチ","town":"東堤","town_kana":"ヒガシツツミ","prefecture_code":7}],"0257":[{"zip_code":"9690257","prefecture":"福島県","prefecture_kana":"フクシマケン","city":"西白河郡矢吹町","city_kana":"ニシシラカワグンヤブキマチ","town":"上の前","town_kana":"カミノマエ","prefecture_code":7},{"zip_code":"9690257","prefecture":"福島県","prefecture_kana":"フクシマケン","city":"西白河郡矢吹町","city_kana":"ニシシラカワグンヤブキマチ","town":"住吉","town_kana":"スミヨシ","prefecture_code":7},{"zip_code":"9690257","prefecture":"福島県","prefecture_kana":"フクシマケン","city":"西白河郡矢吹町","city_kana":"ニシシラカワグンヤブキマチ","town":"前久保","town_kana":"マエクボ","prefecture_code":7}],"0246":[{"zip_code":"9690246","prefecture":"福島県","prefecture_kana":"フクシマケン","city":"西白河郡矢吹町","city_kana":"ニシシラカワグンヤブキマチ","town":"上宮崎","town_kana":"カミミヤザキ","prefecture_code":7},{"zip_code":"9690246","prefecture":"福島県","prefecture_kana":"フクシマケン","city":"西白河郡矢吹町","city_kana":"ニシシラカワグンヤブキマチ","town":"下宮崎","town_kana":"シモミヤザキ","prefecture_code":7}],"0251":[{"zip_code":"9690251","prefecture":"福島県","prefecture_kana":"フクシマケン","city":"西白河郡矢吹町","city_kana":"ニシシラカワグンヤブキマチ","town":"神田東","town_kana":"カンタヒガシ","prefecture_code":7},{"zip_code":"9690251","prefecture":"福島県","prefecture_kana":"フクシマケン","city":"西白河郡矢吹町","city_kana":"ニシシラカワグンヤブキマチ","town":"神田西","town_kana":"カンタニシ","prefecture_code":7},{"zip_code":"9690251","prefecture":"福島県","prefecture_kana":"フクシマケン","city":"西白河郡矢吹町","city_kana":"ニシシラカワグンヤブキマチ","town":"神田南","town_kana":"カンタミナミ","prefecture_code":7}],"0203":{"zip_code":"9690203","prefecture":"福島県","prefecture_kana":"フクシマケン","city":"西白河郡矢吹町","city_kana":"ニシシラカワグンヤブキマチ","town":"北浦","town_kana":"キタウラ","prefecture_code":7},"0211":{"zip_code":"9690211","prefecture":"福島県","prefecture_kana":"フクシマケン","city":"西白河郡矢吹町","city_kana":"ニシシラカワグンヤブキマチ","town":"北町","town_kana":"キタマチ","prefecture_code":7},"0288":[{"zip_code":"9690288","prefecture":"福島県","prefecture_kana":"フクシマケン","city":"西白河郡矢吹町","city_kana":"ニシシラカワグンヤブキマチ","town":"子ハ清水","town_kana":"コハシミズ","prefecture_code":7},{"zip_code":"9690288","prefecture":"福島県","prefecture_kana":"フクシマケン","city":"西白河郡矢吹町","city_kana":"ニシシラカワグンヤブキマチ","town":"田内","town_kana":"タウチ","prefecture_code":7},{"zip_code":"9690288","prefecture":"福島県","prefecture_kana":"フクシマケン","city":"西白河郡矢吹町","city_kana":"ニシシラカワグンヤブキマチ","town":"東の内","town_kana":"ヒガシノウチ","prefecture_code":7}],"0205":{"zip_code":"9690205","prefecture":"福島県","prefecture_kana":"フクシマケン","city":"西白河郡矢吹町","city_kana":"ニシシラカワグンヤブキマチ","town":"五本松","town_kana":"ゴホンマツ","prefecture_code":7},"0271":{"zip_code":"9690271","prefecture":"福島県","prefecture_kana":"フクシマケン","city":"西白河郡矢吹町","city_kana":"ニシシラカワグンヤブキマチ","town":"小松","town_kana":"コマツ","prefecture_code":7},"0281":[{"zip_code":"9690281","prefecture":"福島県","prefecture_kana":"フクシマケン","city":"西白河郡矢吹町","city_kana":"ニシシラカワグンヤブキマチ","town":"境町","town_kana":"サカイチョウ","prefecture_code":7},{"zip_code":"9690281","prefecture":"福島県","prefecture_kana":"フクシマケン","city":"西白河郡矢吹町","city_kana":"ニシシラカワグンヤブキマチ","town":"馬場","town_kana":"ババ","prefecture_code":7}],"0258":{"zip_code":"9690258","prefecture":"福島県","prefecture_kana":"フクシマケン","city":"西白河郡矢吹町","city_kana":"ニシシラカワグンヤブキマチ","town":"沢尻","town_kana":"サワジリ","prefecture_code":7},"0242":{"zip_code":"9690242","prefecture":"福島県","prefecture_kana":"フクシマケン","city":"西白河郡矢吹町","city_kana":"ニシシラカワグンヤブキマチ","town":"三城目","town_kana":"サンジョウメ","prefecture_code":7},"0266":{"zip_code":"9690266","prefecture":"福島県","prefecture_kana":"フクシマケン","city":"西白河郡矢吹町","city_kana":"ニシシラカワグンヤブキマチ","town":"上敷面","town_kana":"ジョウシキメン","prefecture_code":7},"0241":[{"zip_code":"9690241","prefecture":"福島県","prefecture_kana":"フクシマケン","city":"西白河郡矢吹町","city_kana":"ニシシラカワグンヤブキマチ","town":"陣ケ岡","town_kana":"ジンガオカ","prefecture_code":7},{"zip_code":"9690241","prefecture":"福島県","prefecture_kana":"フクシマケン","city":"西白河郡矢吹町","city_kana":"ニシシラカワグンヤブキマチ","town":"天開","town_kana":"テンカイ","prefecture_code":7}],"0202":{"zip_code":"9690202","prefecture":"福島県","prefecture_kana":"フクシマケン","city":"西白河郡矢吹町","city_kana":"ニシシラカワグンヤブキマチ","town":"新町","town_kana":"シンマチ","prefecture_code":7},"0267":{"zip_code":"9690267","prefecture":"福島県","prefecture_kana":"フクシマケン","city":"西白河郡矢吹町","city_kana":"ニシシラカワグンヤブキマチ","town":"諏訪清水","town_kana":"スワシミズ","prefecture_code":7},"0247":[{"zip_code":"9690247","prefecture":"福島県","prefecture_kana":"フクシマケン","city":"西白河郡矢吹町","city_kana":"ニシシラカワグンヤブキマチ","town":"諏訪の前","town_kana":"スワノマエ","prefecture_code":7},{"zip_code":"9690247","prefecture":"福島県","prefecture_kana":"フクシマケン","city":"西白河郡矢吹町","city_kana":"ニシシラカワグンヤブキマチ","town":"寺の前","town_kana":"テラノマエ","prefecture_code":7}],"0204":{"zip_code":"9690204","prefecture":"福島県","prefecture_kana":"フクシマケン","city":"西白河郡矢吹町","city_kana":"ニシシラカワグンヤブキマチ","town":"関山","town_kana":"セキヤマ","prefecture_code":7},"0212":{"zip_code":"9690212","prefecture":"福島県","prefecture_kana":"フクシマケン","city":"西白河郡矢吹町","city_kana":"ニシシラカワグンヤブキマチ","town":"善郷内","town_kana":"ゼンゴウウチ","prefecture_code":7},"0284":[{"zip_code":"9690284","prefecture":"福島県","prefecture_kana":"フクシマケン","city":"西白河郡矢吹町","city_kana":"ニシシラカワグンヤブキマチ","town":"滝八幡","town_kana":"タキハチマン","prefecture_code":7},{"zip_code":"9690284","prefecture":"福島県","prefecture_kana":"フクシマケン","city":"西白河郡矢吹町","city_kana":"ニシシラカワグンヤブキマチ","town":"舘沢","town_kana":"タテサワ","prefecture_code":7}],"0227":{"zip_code":"9690227","prefecture":"福島県","prefecture_kana":"フクシマケン","city":"西白河郡矢吹町","city_kana":"ニシシラカワグンヤブキマチ","town":"田町","town_kana":"タマチ","prefecture_code":7},"0255":[{"zip_code":"9690255","prefecture":"福島県","prefecture_kana":"フクシマケン","city":"西白河郡矢吹町","city_kana":"ニシシラカワグンヤブキマチ","town":"寺内","town_kana":"テラウチ","prefecture_code":7},{"zip_code":"9690255","prefecture":"福島県","prefecture_kana":"フクシマケン","city":"西白河郡矢吹町","city_kana":"ニシシラカワグンヤブキマチ","town":"寺内東","town_kana":"テラウチヒガシ","prefecture_code":7},{"zip_code":"9690255","prefecture":"福島県","prefecture_kana":"フクシマケン","city":"西白河郡矢吹町","city_kana":"ニシシラカワグンヤブキマチ","town":"寺内西","town_kana":"テラウチニシ","prefecture_code":7},{"zip_code":"9690255","prefecture":"福島県","prefecture_kana":"フクシマケン","city":"西白河郡矢吹町","city_kana":"ニシシラカワグンヤブキマチ","town":"寺内南","town_kana":"テラウチミナミ","prefecture_code":7}],"0248":{"zip_code":"9690248","prefecture":"福島県","prefecture_kana":"フクシマケン","city":"西白河郡矢吹町","city_kana":"ニシシラカワグンヤブキマチ","town":"東郷","town_kana":"トウゴウ","prefecture_code":7},"0243":[{"zip_code":"9690243","prefecture":"福島県","prefecture_kana":"フクシマケン","city":"西白河郡矢吹町","city_kana":"ニシシラカワグンヤブキマチ","town":"中沖","town_kana":"ナカオキ","prefecture_code":7},{"zip_code":"9690243","prefecture":"福島県","prefecture_kana":"フクシマケン","city":"西白河郡矢吹町","city_kana":"ニシシラカワグンヤブキマチ","town":"東川原","town_kana":"ヒガシカワハラ","prefecture_code":7}],"0264":{"zip_code":"9690264","prefecture":"福島県","prefecture_kana":"フクシマケン","city":"西白河郡矢吹町","city_kana":"ニシシラカワグンヤブキマチ","town":"中畑","town_kana":"ナカハタ","prefecture_code":7},"0265":{"zip_code":"9690265","prefecture":"福島県","prefecture_kana":"フクシマケン","city":"西白河郡矢吹町","city_kana":"ニシシラカワグンヤブキマチ","town":"中畑南","town_kana":"ナカハタミナミ","prefecture_code":7},"0221":{"zip_code":"9690221","prefecture":"福島県","prefecture_kana":"フクシマケン","city":"西白河郡矢吹町","city_kana":"ニシシラカワグンヤブキマチ","town":"中町","town_kana":"ナカマチ","prefecture_code":7},"0231":{"zip_code":"9690231","prefecture":"福島県","prefecture_kana":"フクシマケン","city":"西白河郡矢吹町","city_kana":"ニシシラカワグンヤブキマチ","town":"中丸","town_kana":"ナカマル","prefecture_code":7},"0256":{"zip_code":"9690256","prefecture":"福島県","prefecture_kana":"フクシマケン","city":"西白河郡矢吹町","city_kana":"ニシシラカワグンヤブキマチ","town":"鍋内","town_kana":"ナベウチ","prefecture_code":7},"0226":{"zip_code":"9690226","prefecture":"福島県","prefecture_kana":"フクシマケン","city":"西白河郡矢吹町","city_kana":"ニシシラカワグンヤブキマチ","town":"西長峰","town_kana":"ニシナガミネ","prefecture_code":7},"0263":{"zip_code":"9690263","prefecture":"福島県","prefecture_kana":"フクシマケン","city":"西白河郡矢吹町","city_kana":"ニシシラカワグンヤブキマチ","town":"根宿","town_kana":"ネジュク","prefecture_code":7},"0245":{"zip_code":"9690245","prefecture":"福島県","prefecture_kana":"フクシマケン","city":"西白河郡矢吹町","city_kana":"ニシシラカワグンヤブキマチ","town":"白山","town_kana":"ハクサン","prefecture_code":7},"0222":{"zip_code":"9690222","prefecture":"福島県","prefecture_kana":"フクシマケン","city":"西白河郡矢吹町","city_kana":"ニシシラカワグンヤブキマチ","town":"八幡町","town_kana":"ハチマンチョウ","prefecture_code":7},"0285":{"zip_code":"9690285","prefecture":"福島県","prefecture_kana":"フクシマケン","city":"西白河郡矢吹町","city_kana":"ニシシラカワグンヤブキマチ","town":"花咲","town_kana":"ハナサキ","prefecture_code":7},"0233":{"zip_code":"9690233","prefecture":"福島県","prefecture_kana":"フクシマケン","city":"西白河郡矢吹町","city_kana":"ニシシラカワグンヤブキマチ","town":"花の里","town_kana":"ハナノサト","prefecture_code":7},"0225":{"zip_code":"9690225","prefecture":"福島県","prefecture_kana":"フクシマケン","city":"西白河郡矢吹町","city_kana":"ニシシラカワグンヤブキマチ","town":"東長峰","town_kana":"ヒガシナガミネ","prefecture_code":7},"0244":[{"zip_code":"9690244","prefecture":"福島県","prefecture_kana":"フクシマケン","city":"西白河郡矢吹町","city_kana":"ニシシラカワグンヤブキマチ","town":"奉行塚","town_kana":"ブギョウヅカ","prefecture_code":7},{"zip_code":"9690244","prefecture":"福島県","prefecture_kana":"フクシマケン","city":"西白河郡矢吹町","city_kana":"ニシシラカワグンヤブキマチ","town":"谷中","town_kana":"ヤナカ","prefecture_code":7}],"0223":{"zip_code":"9690223","prefecture":"福島県","prefecture_kana":"フクシマケン","city":"西白河郡矢吹町","city_kana":"ニシシラカワグンヤブキマチ","town":"文京町","town_kana":"ブンキョウチョウ","prefecture_code":7},"0254":{"zip_code":"9690254","prefecture":"福島県","prefecture_kana":"フクシマケン","city":"西白河郡矢吹町","city_kana":"ニシシラカワグンヤブキマチ","town":"平鉢","town_kana":"ヘイバチ","prefecture_code":7},"0237":{"zip_code":"9690237","prefecture":"福島県","prefecture_kana":"フクシマケン","city":"西白河郡矢吹町","city_kana":"ニシシラカワグンヤブキマチ","town":"牡丹平","town_kana":"ボタンダイラ","prefecture_code":7},"0282":{"zip_code":"9690282","prefecture":"福島県","prefecture_kana":"フクシマケン","city":"西白河郡矢吹町","city_kana":"ニシシラカワグンヤブキマチ","town":"本郷町","town_kana":"ホンゴウチョウ","prefecture_code":7},"0232":{"zip_code":"9690232","prefecture":"福島県","prefecture_kana":"フクシマケン","city":"西白河郡矢吹町","city_kana":"ニシシラカワグンヤブキマチ","town":"本城舘","town_kana":"ホンジョウダテ","prefecture_code":7},"0234":{"zip_code":"9690234","prefecture":"福島県","prefecture_kana":"フクシマケン","city":"西白河郡矢吹町","city_kana":"ニシシラカワグンヤブキマチ","town":"前田","town_kana":"マエダ","prefecture_code":7},"0268":{"zip_code":"9690268","prefecture":"福島県","prefecture_kana":"フクシマケン","city":"西白河郡矢吹町","city_kana":"ニシシラカワグンヤブキマチ","town":"松倉","town_kana":"マツクラ","prefecture_code":7},"0262":{"zip_code":"9690262","prefecture":"福島県","prefecture_kana":"フクシマケン","city":"西白河郡矢吹町","city_kana":"ニシシラカワグンヤブキマチ","town":"松房","town_kana":"マツボウ","prefecture_code":7},"0235":{"zip_code":"9690235","prefecture":"福島県","prefecture_kana":"フクシマケン","city":"西白河郡矢吹町","city_kana":"ニシシラカワグンヤブキマチ","town":"丸の内","town_kana":"マルノウチ","prefecture_code":7},"0283":{"zip_code":"9690283","prefecture":"福島県","prefecture_kana":"フクシマケン","city":"西白河郡矢吹町","city_kana":"ニシシラカワグンヤブキマチ","town":"南町","town_kana":"ミナミマチ","prefecture_code":7},"0253":[{"zip_code":"9690253","prefecture":"福島県","prefecture_kana":"フクシマケン","city":"西白河郡矢吹町","city_kana":"ニシシラカワグンヤブキマチ","town":"明新上","town_kana":"ミョウシンカミ","prefecture_code":7},{"zip_code":"9690253","prefecture":"福島県","prefecture_kana":"フクシマケン","city":"西白河郡矢吹町","city_kana":"ニシシラカワグンヤブキマチ","town":"明新中","town_kana":"ミョウシンナカ","prefecture_code":7},{"zip_code":"9690253","prefecture":"福島県","prefecture_kana":"フクシマケン","city":"西白河郡矢吹町","city_kana":"ニシシラカワグンヤブキマチ","town":"明新下","town_kana":"ミョウシンシモ","prefecture_code":7},{"zip_code":"9690253","prefecture":"福島県","prefecture_kana":"フクシマケン","city":"西白河郡矢吹町","city_kana":"ニシシラカワグンヤブキマチ","town":"明新原","town_kana":"ミョウシンハラ","prefecture_code":7},{"zip_code":"9690253","prefecture":"福島県","prefecture_kana":"フクシマケン","city":"西白河郡矢吹町","city_kana":"ニシシラカワグンヤブキマチ","town":"明新東","town_kana":"ミョウシンヒガシ","prefecture_code":7},{"zip_code":"9690253","prefecture":"福島県","prefecture_kana":"フクシマケン","city":"西白河郡矢吹町","city_kana":"ニシシラカワグンヤブキマチ","town":"明新西","town_kana":"ミョウシンニシ","prefecture_code":7}],"0213":{"zip_code":"9690213","prefecture":"福島県","prefecture_kana":"フクシマケン","city":"西白河郡矢吹町","city_kana":"ニシシラカワグンヤブキマチ","town":"本町","town_kana":"モトマチ","prefecture_code":7},"0261":{"zip_code":"9690261","prefecture":"福島県","prefecture_kana":"フクシマケン","city":"西白河郡矢吹町","city_kana":"ニシシラカワグンヤブキマチ","town":"弥栄","town_kana":"ヤサカエ","prefecture_code":7},"0286":{"zip_code":"9690286","prefecture":"福島県","prefecture_kana":"フクシマケン","city":"西白河郡矢吹町","city_kana":"ニシシラカワグンヤブキマチ","town":"大和内","town_kana":"ヤマトウチ","prefecture_code":7}}