{"8301":{"zip_code":"9728301","prefecture":"福島県","prefecture_kana":"フクシマケン","city":"いわき市","city_kana":"イワキシ","town":"草木台","town_kana":"クサキダイ","prefecture_code":7},"8324":{"zip_code":"9728324","prefecture":"福島県","prefecture_kana":"フクシマケン","city":"いわき市","city_kana":"イワキシ","town":"桜ケ丘","town_kana":"サクラガオカ","prefecture_code":7},"8313":{"zip_code":"9728313","prefecture":"福島県","prefecture_kana":"フクシマケン","city":"いわき市","city_kana":"イワキシ","town":"常磐岩ケ岡町","town_kana":"ジョウバンイワガオカマチ","prefecture_code":7},"8315":{"zip_code":"9728315","prefecture":"福島県","prefecture_kana":"フクシマケン","city":"いわき市","city_kana":"イワキシ","town":"常磐長孫町","town_kana":"ジョウバンオサマゴマチ","prefecture_code":7},"8322":{"zip_code":"9728322","prefecture":"福島県","prefecture_kana":"フクシマケン","city":"いわき市","city_kana":"イワキシ","town":"常磐上湯長谷町","town_kana":"ジョウバンカミユナガヤマチ","prefecture_code":7},"8317":{"zip_code":"9728317","prefecture":"福島県","prefecture_kana":"フクシマケン","city":"いわき市","city_kana":"イワキシ","town":"常磐下湯長谷町","town_kana":"ジョウバンシモユナガヤマチ","prefecture_code":7},"8312":{"zip_code":"9728312","prefecture":"福島県","prefecture_kana":"フクシマケン","city":"いわき市","city_kana":"イワキシ","town":"常磐下船尾町","town_kana":"ジョウバンシモフナオマチ","prefecture_code":7},"8325":{"zip_code":"9728325","prefecture":"福島県","prefecture_kana":"フクシマケン","city":"いわき市","city_kana":"イワキシ","town":"常磐白鳥町","town_kana":"ジョウバンシラトリマチ","prefecture_code":7},"8318":{"zip_code":"9728318","prefecture":"福島県","prefecture_kana":"フクシマケン","city":"いわき市","city_kana":"イワキシ","town":"常磐関船町","town_kana":"ジョウバンセキフネマチ","prefecture_code":7},"8316":{"zip_code":"9728316","prefecture":"福島県","prefecture_kana":"フクシマケン","city":"いわき市","city_kana":"イワキシ","town":"常磐西郷町","town_kana":"ジョウバンニシゴウマチ","prefecture_code":7},"8326":{"zip_code":"9728326","prefecture":"福島県","prefecture_kana":"フクシマケン","city":"いわき市","city_kana":"イワキシ","town":"常磐藤原町","town_kana":"ジョウバンフジワラマチ","prefecture_code":7},"8314":{"zip_code":"9728314","prefecture":"福島県","prefecture_kana":"フクシマケン","city":"いわき市","city_kana":"イワキシ","town":"常磐馬玉町","town_kana":"ジョウバンマダママチ","prefecture_code":7},"8323":{"zip_code":"9728323","prefecture":"福島県","prefecture_kana":"フクシマケン","city":"いわき市","city_kana":"イワキシ","town":"常磐松が台","town_kana":"ジョウバンマツガダイ","prefecture_code":7},"8311":{"zip_code":"9728311","prefecture":"福島県","prefecture_kana":"フクシマケン","city":"いわき市","city_kana":"イワキシ","town":"常磐水野谷町","town_kana":"ジョウバンミズノヤマチ","prefecture_code":7},"8321":{"zip_code":"9728321","prefecture":"福島県","prefecture_kana":"フクシマケン","city":"いわき市","city_kana":"イワキシ","town":"常磐湯本町","town_kana":"ジョウバンユモトマチ","prefecture_code":7},"8338":{"zip_code":"9728338","prefecture":"福島県","prefecture_kana":"フクシマケン","city":"いわき市","city_kana":"イワキシ","town":"中部工業団地","town_kana":"チュウブコウギョウダンチ","prefecture_code":7},"0251":{"zip_code":"9720251","prefecture":"福島県","prefecture_kana":"フクシマケン","city":"いわき市","city_kana":"イワキシ","town":"遠野町入遠野","town_kana":"トオノマチイリトオノ","prefecture_code":7},"0253":{"zip_code":"9720253","prefecture":"福島県","prefecture_kana":"フクシマケン","city":"いわき市","city_kana":"イワキシ","town":"遠野町大平","town_kana":"トオノマチオオダイラ","prefecture_code":7},"0161":{"zip_code":"9720161","prefecture":"福島県","prefecture_kana":"フクシマケン","city":"いわき市","city_kana":"イワキシ","town":"遠野町上遠野","town_kana":"トオノマチカトオノ","prefecture_code":7},"0252":{"zip_code":"9720252","prefecture":"福島県","prefecture_kana":"フクシマケン","city":"いわき市","city_kana":"イワキシ","town":"遠野町上根本","town_kana":"トオノマチカミネモト","prefecture_code":7},"0162":{"zip_code":"9720162","prefecture":"福島県","prefecture_kana":"フクシマケン","city":"いわき市","city_kana":"イワキシ","town":"遠野町滝","town_kana":"トオノマチタキ","prefecture_code":7},"0163":{"zip_code":"9720163","prefecture":"福島県","prefecture_kana":"フクシマケン","city":"いわき市","city_kana":"イワキシ","town":"遠野町根岸","town_kana":"トオノマチネギシ","prefecture_code":7},"0164":{"zip_code":"9720164","prefecture":"福島県","prefecture_kana":"フクシマケン","city":"いわき市","city_kana":"イワキシ","town":"遠野町深山田","town_kana":"トオノマチミヤマダ","prefecture_code":7},"8331":{"zip_code":"9728331","prefecture":"福島県","prefecture_kana":"フクシマケン","city":"いわき市","city_kana":"イワキシ","town":"渡辺町泉田","town_kana":"ワタナベマチイズミダ","prefecture_code":7},"8336":{"zip_code":"9728336","prefecture":"福島県","prefecture_kana":"フクシマケン","city":"いわき市","city_kana":"イワキシ","town":"渡辺町上釜戸","town_kana":"ワタナベマチカミカマド","prefecture_code":7},"8334":{"zip_code":"9728334","prefecture":"福島県","prefecture_kana":"フクシマケン","city":"いわき市","city_kana":"イワキシ","town":"渡辺町田部","town_kana":"ワタナベマチタナベ","prefecture_code":7},"8337":{"zip_code":"9728337","prefecture":"福島県","prefecture_kana":"フクシマケン","city":"いわき市","city_kana":"イワキシ","town":"渡辺町中釜戸","town_kana":"ワタナベマチナカカマド","prefecture_code":7},"8332":{"zip_code":"9728332","prefecture":"福島県","prefecture_kana":"フクシマケン","city":"いわき市","city_kana":"イワキシ","town":"渡辺町昼野","town_kana":"ワタナベマチヒルノ","prefecture_code":7},"8333":{"zip_code":"9728333","prefecture":"福島県","prefecture_kana":"フクシマケン","city":"いわき市","city_kana":"イワキシ","town":"渡辺町洞","town_kana":"ワタナベマチボラ","prefecture_code":7},"8335":{"zip_code":"9728335","prefecture":"福島県","prefecture_kana":"フクシマケン","city":"いわき市","city_kana":"イワキシ","town":"渡辺町松小屋","town_kana":"ワタナベマチマツゴヤ","prefecture_code":7}}