{"8212":{"zip_code":"9748212","prefecture":"福島県","prefecture_kana":"フクシマケン","city":"いわき市","city_kana":"イワキシ","town":"東田町","town_kana":"アズマダマチ","prefecture_code":7},"8213":{"zip_code":"9748213","prefecture":"福島県","prefecture_kana":"フクシマケン","city":"いわき市","city_kana":"イワキシ","town":"石塚町","town_kana":"イシヅカマチ","prefecture_code":7},"8222":{"zip_code":"9748222","prefecture":"福島県","prefecture_kana":"フクシマケン","city":"いわき市","city_kana":"イワキシ","town":"岩間町","town_kana":"イワママチ","prefecture_code":7},"8261":{"zip_code":"9748261","prefecture":"福島県","prefecture_kana":"フクシマケン","city":"いわき市","city_kana":"イワキシ","town":"植田町","town_kana":"ウエダマチ","prefecture_code":7},"8203":{"zip_code":"9748203","prefecture":"福島県","prefecture_kana":"フクシマケン","city":"いわき市","city_kana":"イワキシ","town":"後田町","town_kana":"ウシロダマチ","prefecture_code":7},"8201":{"zip_code":"9748201","prefecture":"福島県","prefecture_kana":"フクシマケン","city":"いわき市","city_kana":"イワキシ","town":"江畑町","town_kana":"エバタマチ","prefecture_code":7},"8221":{"zip_code":"9748221","prefecture":"福島県","prefecture_kana":"フクシマケン","city":"いわき市","city_kana":"イワキシ","town":"小浜町","town_kana":"オバママチ","prefecture_code":7},"8211":{"zip_code":"9748211","prefecture":"福島県","prefecture_kana":"フクシマケン","city":"いわき市","city_kana":"イワキシ","town":"金山町","town_kana":"カネヤママチ","prefecture_code":7},"8223":{"zip_code":"9748223","prefecture":"福島県","prefecture_kana":"フクシマケン","city":"いわき市","city_kana":"イワキシ","town":"佐糠町","town_kana":"サヌカマチ","prefecture_code":7},"8202":{"zip_code":"9748202","prefecture":"福島県","prefecture_kana":"フクシマケン","city":"いわき市","city_kana":"イワキシ","town":"添野町","town_kana":"ソエノマチ","prefecture_code":7},"8204":{"zip_code":"9748204","prefecture":"福島県","prefecture_kana":"フクシマケン","city":"いわき市","city_kana":"イワキシ","town":"高倉町","town_kana":"タカクラマチ","prefecture_code":7},"0243":{"zip_code":"9740243","prefecture":"福島県","prefecture_kana":"フクシマケン","city":"いわき市","city_kana":"イワキシ","town":"田人町石住","town_kana":"タビトマチイシズミ","prefecture_code":7},"0242":{"zip_code":"9740242","prefecture":"福島県","prefecture_kana":"フクシマケン","city":"いわき市","city_kana":"イワキシ","town":"田人町貝泊","town_kana":"タビトマチカイドマリ","prefecture_code":7},"0151":{"zip_code":"9740151","prefecture":"福島県","prefecture_kana":"フクシマケン","city":"いわき市","city_kana":"イワキシ","town":"田人町黒田","town_kana":"タビトマチクロダ","prefecture_code":7},"0241":{"zip_code":"9740241","prefecture":"福島県","prefecture_kana":"フクシマケン","city":"いわき市","city_kana":"イワキシ","town":"田人町荷路夫","town_kana":"タビトマチニチブ","prefecture_code":7},"0153":{"zip_code":"9740153","prefecture":"福島県","prefecture_kana":"フクシマケン","city":"いわき市","city_kana":"イワキシ","town":"田人町南大平","town_kana":"タビトマチミナミオオダイラ","prefecture_code":7},"0252":{"zip_code":"9740252","prefecture":"福島県","prefecture_kana":"フクシマケン","city":"いわき市","city_kana":"イワキシ","town":"田人町旅人（水呑場）","town_kana":"タビトマチタビウト(ミズノミバ)","prefecture_code":7},"0152":{"zip_code":"9740152","prefecture":"福島県","prefecture_kana":"フクシマケン","city":"いわき市","city_kana":"イワキシ","town":"田人町旅人（その他）","town_kana":"タビトマチタビウト(ソノタ)","prefecture_code":7},"8231":{"zip_code":"9748231","prefecture":"福島県","prefecture_kana":"フクシマケン","city":"いわき市","city_kana":"イワキシ","town":"富津町","town_kana":"トミツマチ","prefecture_code":7},"8251":{"zip_code":"9748251","prefecture":"福島県","prefecture_kana":"フクシマケン","city":"いわき市","city_kana":"イワキシ","town":"中岡町","town_kana":"ナカオカマチ","prefecture_code":7},"8252":{"zip_code":"9748252","prefecture":"福島県","prefecture_kana":"フクシマケン","city":"いわき市","city_kana":"イワキシ","town":"仁井田町","town_kana":"ニイダマチ","prefecture_code":7},"8232":{"zip_code":"9748232","prefecture":"福島県","prefecture_kana":"フクシマケン","city":"いわき市","city_kana":"イワキシ","town":"錦町","town_kana":"ニシキマチ","prefecture_code":7},"8233":{"zip_code":"9748233","prefecture":"福島県","prefecture_kana":"フクシマケン","city":"いわき市","city_kana":"イワキシ","town":"錦町中央","town_kana":"ニシキマチチュウオウ","prefecture_code":7},"8242":{"zip_code":"9748242","prefecture":"福島県","prefecture_kana":"フクシマケン","city":"いわき市","city_kana":"イワキシ","town":"南台","town_kana":"ミナミダイ","prefecture_code":7},"8241":{"zip_code":"9748241","prefecture":"福島県","prefecture_kana":"フクシマケン","city":"いわき市","city_kana":"イワキシ","town":"山田町","town_kana":"ヤマダマチ","prefecture_code":7}}