{"0000":{"zip_code":"9750000","prefecture":"福島県","prefecture_kana":"フクシマケン","city":"南相馬市","city_kana":"ミナミソウマシ","town":"","town_kana":"","prefecture_code":7},"0039":{"zip_code":"9750039","prefecture":"福島県","prefecture_kana":"フクシマケン","city":"南相馬市","city_kana":"ミナミソウマシ","town":"原町区青葉町","town_kana":"ハラマチクアオバチョウ","prefecture_code":7},"0004":{"zip_code":"9750004","prefecture":"福島県","prefecture_kana":"フクシマケン","city":"南相馬市","city_kana":"ミナミソウマシ","town":"原町区旭町","town_kana":"ハラマチクアサヒチョウ","prefecture_code":7},"0002":{"zip_code":"9750002","prefecture":"福島県","prefecture_kana":"フクシマケン","city":"南相馬市","city_kana":"ミナミソウマシ","town":"原町区東町","town_kana":"ハラマチクアズマチョウ","prefecture_code":7},"0075":{"zip_code":"9750075","prefecture":"福島県","prefecture_kana":"フクシマケン","city":"南相馬市","city_kana":"ミナミソウマシ","town":"原町区石神","town_kana":"ハラマチクイシガミ","prefecture_code":7},"0023":{"zip_code":"9750023","prefecture":"福島県","prefecture_kana":"フクシマケン","city":"南相馬市","city_kana":"ミナミソウマシ","town":"原町区泉","town_kana":"ハラマチクイズミ","prefecture_code":7},"0017":{"zip_code":"9750017","prefecture":"福島県","prefecture_kana":"フクシマケン","city":"南相馬市","city_kana":"ミナミソウマシ","town":"原町区牛越","town_kana":"ハラマチクウシゴエ","prefecture_code":7},"0047":{"zip_code":"9750047","prefecture":"福島県","prefecture_kana":"フクシマケン","city":"南相馬市","city_kana":"ミナミソウマシ","town":"原町区江井","town_kana":"ハラマチクエネイ","prefecture_code":7},"0078":{"zip_code":"9750078","prefecture":"福島県","prefecture_kana":"フクシマケン","city":"南相馬市","city_kana":"ミナミソウマシ","town":"原町区大谷","town_kana":"ハラマチクオオガイ","prefecture_code":7},"0061":{"zip_code":"9750061","prefecture":"福島県","prefecture_kana":"フクシマケン","city":"南相馬市","city_kana":"ミナミソウマシ","town":"原町区大木戸","town_kana":"ハラマチクオオキド","prefecture_code":7},"0079":{"zip_code":"9750079","prefecture":"福島県","prefecture_kana":"フクシマケン","city":"南相馬市","city_kana":"ミナミソウマシ","town":"原町区大原","town_kana":"ハラマチクオオハラ","prefecture_code":7},"0001":{"zip_code":"9750001","prefecture":"福島県","prefecture_kana":"フクシマケン","city":"南相馬市","city_kana":"ミナミソウマシ","town":"原町区大町","town_kana":"ハラマチクオオマチ","prefecture_code":7},"0049":{"zip_code":"9750049","prefecture":"福島県","prefecture_kana":"フクシマケン","city":"南相馬市","city_kana":"ミナミソウマシ","town":"原町区大甕","town_kana":"ハラマチクオオミカ","prefecture_code":7},"0011":{"zip_code":"9750011","prefecture":"福島県","prefecture_kana":"フクシマケン","city":"南相馬市","city_kana":"ミナミソウマシ","town":"原町区小川町","town_kana":"ハラマチクオガワチョウ","prefecture_code":7},"0055":{"zip_code":"9750055","prefecture":"福島県","prefecture_kana":"フクシマケン","city":"南相馬市","city_kana":"ミナミソウマシ","town":"原町区小木さく","town_kana":"ハラマチクオギサク","prefecture_code":7},"0064":{"zip_code":"9750064","prefecture":"福島県","prefecture_kana":"フクシマケン","city":"南相馬市","city_kana":"ミナミソウマシ","town":"原町区押釜","town_kana":"ハラマチクオシガマ","prefecture_code":7},"0036":{"zip_code":"9750036","prefecture":"福島県","prefecture_kana":"フクシマケン","city":"南相馬市","city_kana":"ミナミソウマシ","town":"原町区萱浜","town_kana":"ハラマチクカイバマ","prefecture_code":7},"0058":{"zip_code":"9750058","prefecture":"福島県","prefecture_kana":"フクシマケン","city":"南相馬市","city_kana":"ミナミソウマシ","town":"原町区片倉","town_kana":"ハラマチクカタクラ","prefecture_code":7},"0021":{"zip_code":"9750021","prefecture":"福島県","prefecture_kana":"フクシマケン","city":"南相馬市","city_kana":"ミナミソウマシ","town":"原町区金沢","town_kana":"ハラマチクカネザワ","prefecture_code":7},"0059":{"zip_code":"9750059","prefecture":"福島県","prefecture_kana":"フクシマケン","city":"南相馬市","city_kana":"ミナミソウマシ","town":"原町区上太田","town_kana":"ハラマチクカミオオタ","prefecture_code":7},"0027":{"zip_code":"9750027","prefecture":"福島県","prefecture_kana":"フクシマケン","city":"南相馬市","city_kana":"ミナミソウマシ","town":"原町区上北高平","town_kana":"ハラマチクカミキタタカヒラ","prefecture_code":7},"0034":{"zip_code":"9750034","prefecture":"福島県","prefecture_kana":"フクシマケン","city":"南相馬市","city_kana":"ミナミソウマシ","town":"原町区上渋佐","town_kana":"ハラマチクカミシブサ","prefecture_code":7},"0026":{"zip_code":"9750026","prefecture":"福島県","prefecture_kana":"フクシマケン","city":"南相馬市","city_kana":"ミナミソウマシ","town":"原町区上高平","town_kana":"ハラマチクカミタカヒラ","prefecture_code":7},"0013":{"zip_code":"9750013","prefecture":"福島県","prefecture_kana":"フクシマケン","city":"南相馬市","city_kana":"ミナミソウマシ","town":"原町区上町","town_kana":"ハラマチクカミマチ","prefecture_code":7},"0022":{"zip_code":"9750022","prefecture":"福島県","prefecture_kana":"フクシマケン","city":"南相馬市","city_kana":"ミナミソウマシ","town":"原町区北泉","town_kana":"ハラマチクキタイズミ","prefecture_code":7},"0072":{"zip_code":"9750072","prefecture":"福島県","prefecture_kana":"フクシマケン","city":"南相馬市","city_kana":"ミナミソウマシ","town":"原町区北長野","town_kana":"ハラマチクキタナガノ","prefecture_code":7},"0073":{"zip_code":"9750073","prefecture":"福島県","prefecture_kana":"フクシマケン","city":"南相馬市","city_kana":"ミナミソウマシ","town":"原町区北新田","town_kana":"ハラマチクキタニイダ","prefecture_code":7},"0037":{"zip_code":"9750037","prefecture":"福島県","prefecture_kana":"フクシマケン","city":"南相馬市","city_kana":"ミナミソウマシ","town":"原町区北原","town_kana":"ハラマチクキタハラ","prefecture_code":7},"0018":{"zip_code":"9750018","prefecture":"福島県","prefecture_kana":"フクシマケン","city":"南相馬市","city_kana":"ミナミソウマシ","town":"原町区北町","town_kana":"ハラマチクキタマチ","prefecture_code":7},"0015":{"zip_code":"9750015","prefecture":"福島県","prefecture_kana":"フクシマケン","city":"南相馬市","city_kana":"ミナミソウマシ","town":"原町区国見町","town_kana":"ハラマチククニミチョウ","prefecture_code":7},"0045":{"zip_code":"9750045","prefecture":"福島県","prefecture_kana":"フクシマケン","city":"南相馬市","city_kana":"ミナミソウマシ","town":"原町区小沢","town_kana":"ハラマチクコザワ","prefecture_code":7},"0043":{"zip_code":"9750043","prefecture":"福島県","prefecture_kana":"フクシマケン","city":"南相馬市","city_kana":"ミナミソウマシ","town":"原町区小浜","town_kana":"ハラマチクコバマ","prefecture_code":7},"0051":{"zip_code":"9750051","prefecture":"福島県","prefecture_kana":"フクシマケン","city":"南相馬市","city_kana":"ミナミソウマシ","town":"原町区牛来","town_kana":"ハラマチクゴライ","prefecture_code":7},"0003":{"zip_code":"9750003","prefecture":"福島県","prefecture_kana":"フクシマケン","city":"南相馬市","city_kana":"ミナミソウマシ","town":"原町区栄町","town_kana":"ハラマチクサカエチョウ","prefecture_code":7},"0032":{"zip_code":"9750032","prefecture":"福島県","prefecture_kana":"フクシマケン","city":"南相馬市","city_kana":"ミナミソウマシ","town":"原町区桜井町","town_kana":"ハラマチクサクライチョウ","prefecture_code":7},"0076":{"zip_code":"9750076","prefecture":"福島県","prefecture_kana":"フクシマケン","city":"南相馬市","city_kana":"ミナミソウマシ","town":"原町区信田沢","town_kana":"ハラマチクシダザワ","prefecture_code":7},"0042":{"zip_code":"9750042","prefecture":"福島県","prefecture_kana":"フクシマケン","city":"南相馬市","city_kana":"ミナミソウマシ","town":"原町区雫","town_kana":"ハラマチクシドケ","prefecture_code":7},"0044":{"zip_code":"9750044","prefecture":"福島県","prefecture_kana":"フクシマケン","city":"南相馬市","city_kana":"ミナミソウマシ","town":"原町区下江井","town_kana":"ハラマチクシモエネイ","prefecture_code":7},"0041":{"zip_code":"9750041","prefecture":"福島県","prefecture_kana":"フクシマケン","city":"南相馬市","city_kana":"ミナミソウマシ","town":"原町区下太田","town_kana":"ハラマチクシモオオタ","prefecture_code":7},"0024":{"zip_code":"9750024","prefecture":"福島県","prefecture_kana":"フクシマケン","city":"南相馬市","city_kana":"ミナミソウマシ","town":"原町区下北高平","town_kana":"ハラマチクシモキタタカヒラ","prefecture_code":7},"0035":{"zip_code":"9750035","prefecture":"福島県","prefecture_kana":"フクシマケン","city":"南相馬市","city_kana":"ミナミソウマシ","town":"原町区下渋佐","town_kana":"ハラマチクシモシブサ","prefecture_code":7},"0025":{"zip_code":"9750025","prefecture":"福島県","prefecture_kana":"フクシマケン","city":"南相馬市","city_kana":"ミナミソウマシ","town":"原町区下高平","town_kana":"ハラマチクシモタカヒラ","prefecture_code":7},"0054":{"zip_code":"9750054","prefecture":"福島県","prefecture_kana":"フクシマケン","city":"南相馬市","city_kana":"ミナミソウマシ","town":"原町区高","town_kana":"ハラマチクタカ","prefecture_code":7},"0077":{"zip_code":"9750077","prefecture":"福島県","prefecture_kana":"フクシマケン","city":"南相馬市","city_kana":"ミナミソウマシ","town":"原町区高倉","town_kana":"ハラマチクタカノクラ","prefecture_code":7},"0033":{"zip_code":"9750033","prefecture":"福島県","prefecture_kana":"フクシマケン","city":"南相馬市","city_kana":"ミナミソウマシ","town":"原町区高見町","town_kana":"ハラマチクタカミチョウ","prefecture_code":7},"0046":{"zip_code":"9750046","prefecture":"福島県","prefecture_kana":"フクシマケン","city":"南相馬市","city_kana":"ミナミソウマシ","town":"原町区堤谷","town_kana":"ハラマチクツツミガイ","prefecture_code":7},"0056":{"zip_code":"9750056","prefecture":"福島県","prefecture_kana":"フクシマケン","city":"南相馬市","city_kana":"ミナミソウマシ","town":"原町区鶴谷","town_kana":"ハラマチクツルガイ","prefecture_code":7},"0052":{"zip_code":"9750052","prefecture":"福島県","prefecture_kana":"フクシマケン","city":"南相馬市","city_kana":"ミナミソウマシ","town":"原町区中太田","town_kana":"ハラマチクナカオオタ","prefecture_code":7},"0074":{"zip_code":"9750074","prefecture":"福島県","prefecture_kana":"フクシマケン","city":"南相馬市","city_kana":"ミナミソウマシ","town":"原町区長野","town_kana":"ハラマチクナガノ","prefecture_code":7},"0016":{"zip_code":"9750016","prefecture":"福島県","prefecture_kana":"フクシマケン","city":"南相馬市","city_kana":"ミナミソウマシ","town":"原町区仲町","town_kana":"ハラマチクナカマチ","prefecture_code":7},"0031":{"zip_code":"9750031","prefecture":"福島県","prefecture_kana":"フクシマケン","city":"南相馬市","city_kana":"ミナミソウマシ","town":"原町区錦町","town_kana":"ハラマチクニシキチョウ","prefecture_code":7},"0014":{"zip_code":"9750014","prefecture":"福島県","prefecture_kana":"フクシマケン","city":"南相馬市","city_kana":"ミナミソウマシ","town":"原町区西町","town_kana":"ハラマチクニシマチ","prefecture_code":7},"0006":{"zip_code":"9750006","prefecture":"福島県","prefecture_kana":"フクシマケン","city":"南相馬市","city_kana":"ミナミソウマシ","town":"原町区橋本町","town_kana":"ハラマチクハシモトチョウ","prefecture_code":7},"0063":{"zip_code":"9750063","prefecture":"福島県","prefecture_kana":"フクシマケン","city":"南相馬市","city_kana":"ミナミソウマシ","town":"原町区馬場","town_kana":"ハラマチクババ","prefecture_code":7},"0038":{"zip_code":"9750038","prefecture":"福島県","prefecture_kana":"フクシマケン","city":"南相馬市","city_kana":"ミナミソウマシ","town":"原町区日の出町","town_kana":"ハラマチクヒノデチョウ","prefecture_code":7},"0071":{"zip_code":"9750071","prefecture":"福島県","prefecture_kana":"フクシマケン","city":"南相馬市","city_kana":"ミナミソウマシ","town":"原町区深野","town_kana":"ハラマチクフコウノ","prefecture_code":7},"0005":{"zip_code":"9750005","prefecture":"福島県","prefecture_kana":"フクシマケン","city":"南相馬市","city_kana":"ミナミソウマシ","town":"原町区二見町","town_kana":"ハラマチクフタミチョウ","prefecture_code":7},"0062":{"zip_code":"9750062","prefecture":"福島県","prefecture_kana":"フクシマケン","city":"南相馬市","city_kana":"ミナミソウマシ","town":"原町区本陣前","town_kana":"ハラマチクホンジンマエ","prefecture_code":7},"0053":{"zip_code":"9750053","prefecture":"福島県","prefecture_kana":"フクシマケン","city":"南相馬市","city_kana":"ミナミソウマシ","town":"原町区益田","town_kana":"ハラマチクマスダ","prefecture_code":7},"0012":{"zip_code":"9750012","prefecture":"福島県","prefecture_kana":"フクシマケン","city":"南相馬市","city_kana":"ミナミソウマシ","town":"原町区三島町","town_kana":"ハラマチクミシマチョウ","prefecture_code":7},"0007":{"zip_code":"9750007","prefecture":"福島県","prefecture_kana":"フクシマケン","city":"南相馬市","city_kana":"ミナミソウマシ","town":"原町区南町","town_kana":"ハラマチクミナミマチ","prefecture_code":7},"0048":{"zip_code":"9750048","prefecture":"福島県","prefecture_kana":"フクシマケン","city":"南相馬市","city_kana":"ミナミソウマシ","town":"原町区米々沢","town_kana":"ハラマチクメメザワ","prefecture_code":7},"0008":{"zip_code":"9750008","prefecture":"福島県","prefecture_kana":"フクシマケン","city":"南相馬市","city_kana":"ミナミソウマシ","town":"原町区本町","town_kana":"ハラマチクモトマチ","prefecture_code":7},"0057":{"zip_code":"9750057","prefecture":"福島県","prefecture_kana":"フクシマケン","city":"南相馬市","city_kana":"ミナミソウマシ","town":"原町区矢川原","town_kana":"ハラマチクヤガワラ","prefecture_code":7}}