{"0338":{"zip_code":"9790338","prefecture":"福島県","prefecture_kana":"フクシマケン","city":"いわき市","city_kana":"イワキシ","town":"大久町大久","town_kana":"オオヒサマチオオヒサ","prefecture_code":7},"0336":{"zip_code":"9790336","prefecture":"福島県","prefecture_kana":"フクシマケン","city":"いわき市","city_kana":"イワキシ","town":"大久町小山田","town_kana":"オオヒサマチオヤマダ","prefecture_code":7},"0337":{"zip_code":"9790337","prefecture":"福島県","prefecture_kana":"フクシマケン","city":"いわき市","city_kana":"イワキシ","town":"大久町小久","town_kana":"オオヒサマチコヒサ","prefecture_code":7},"3112":{"zip_code":"9793112","prefecture":"福島県","prefecture_kana":"フクシマケン","city":"いわき市","city_kana":"イワキシ","town":"小川町上平","town_kana":"オガワマチウワダイラ","prefecture_code":7},"3124":{"zip_code":"9793124","prefecture":"福島県","prefecture_kana":"フクシマケン","city":"いわき市","city_kana":"イワキシ","town":"小川町上小川","town_kana":"オガワマチカミオガワ","prefecture_code":7},"3115":{"zip_code":"9793115","prefecture":"福島県","prefecture_kana":"フクシマケン","city":"いわき市","city_kana":"イワキシ","town":"小川町下小川","town_kana":"オガワマチシモオガワ","prefecture_code":7},"3123":{"zip_code":"9793123","prefecture":"福島県","prefecture_kana":"フクシマケン","city":"いわき市","city_kana":"イワキシ","town":"小川町塩田","town_kana":"オガワマチシオダ","prefecture_code":7},"3111":{"zip_code":"9793111","prefecture":"福島県","prefecture_kana":"フクシマケン","city":"いわき市","city_kana":"イワキシ","town":"小川町柴原","town_kana":"オガワマチシバハラ","prefecture_code":7},"3114":{"zip_code":"9793114","prefecture":"福島県","prefecture_kana":"フクシマケン","city":"いわき市","city_kana":"イワキシ","town":"小川町関場","town_kana":"オガワマチセキバ","prefecture_code":7},"3122":{"zip_code":"9793122","prefecture":"福島県","prefecture_kana":"フクシマケン","city":"いわき市","city_kana":"イワキシ","town":"小川町高萩","town_kana":"オガワマチタカハギ","prefecture_code":7},"3121":{"zip_code":"9793121","prefecture":"福島県","prefecture_kana":"フクシマケン","city":"いわき市","city_kana":"イワキシ","town":"小川町西小川","town_kana":"オガワマチニシオガワ","prefecture_code":7},"3125":{"zip_code":"9793125","prefecture":"福島県","prefecture_kana":"フクシマケン","city":"いわき市","city_kana":"イワキシ","town":"小川町福岡","town_kana":"オガワマチフクオカ","prefecture_code":7},"3113":{"zip_code":"9793113","prefecture":"福島県","prefecture_kana":"フクシマケン","city":"いわき市","city_kana":"イワキシ","town":"小川町三島","town_kana":"オガワマチミシマ","prefecture_code":7},"0153":{"zip_code":"9790153","prefecture":"福島県","prefecture_kana":"フクシマケン","city":"いわき市","city_kana":"イワキシ","town":"川部町","town_kana":"カワベマチ","prefecture_code":7},"3204":{"zip_code":"9793204","prefecture":"福島県","prefecture_kana":"フクシマケン","city":"いわき市","city_kana":"イワキシ","town":"川前町小白井","town_kana":"カワマエマチオジロイ","prefecture_code":7},"3203":{"zip_code":"9793203","prefecture":"福島県","prefecture_kana":"フクシマケン","city":"いわき市","city_kana":"イワキシ","town":"川前町上桶売","town_kana":"カワマエマチカミオケウリ","prefecture_code":7},"3202":{"zip_code":"9793202","prefecture":"福島県","prefecture_kana":"フクシマケン","city":"いわき市","city_kana":"イワキシ","town":"川前町下桶売","town_kana":"カワマエマチシモオケウリ","prefecture_code":7},"3201":{"zip_code":"9793201","prefecture":"福島県","prefecture_kana":"フクシマケン","city":"いわき市","city_kana":"イワキシ","town":"川前町川前","town_kana":"カワマエマチカワマエ","prefecture_code":7},"0151":{"zip_code":"9790151","prefecture":"福島県","prefecture_kana":"フクシマケン","city":"いわき市","city_kana":"イワキシ","town":"瀬戸町","town_kana":"セトマチ","prefecture_code":7},"3131":{"zip_code":"9793131","prefecture":"福島県","prefecture_kana":"フクシマケン","city":"いわき市","city_kana":"イワキシ","town":"平赤井","town_kana":"タイラアカイ","prefecture_code":7},"3132":{"zip_code":"9793132","prefecture":"福島県","prefecture_kana":"フクシマケン","city":"いわき市","city_kana":"イワキシ","town":"平赤井比良","town_kana":"タイラアカイヒラ","prefecture_code":7},"0144":{"zip_code":"9790144","prefecture":"福島県","prefecture_kana":"フクシマケン","city":"いわき市","city_kana":"イワキシ","town":"勿来町（大高）","town_kana":"ナコソマチ(オオダカ)","prefecture_code":7},"0141":{"zip_code":"9790141","prefecture":"福島県","prefecture_kana":"フクシマケン","city":"いわき市","city_kana":"イワキシ","town":"勿来町（窪田）","town_kana":"ナコソマチ(クボタ)","prefecture_code":7},"0147":{"zip_code":"9790147","prefecture":"福島県","prefecture_kana":"フクシマケン","city":"いわき市","city_kana":"イワキシ","town":"勿来町（九面）","town_kana":"ナコソマチ(ココヅラ)","prefecture_code":7},"0142":{"zip_code":"9790142","prefecture":"福島県","prefecture_kana":"フクシマケン","city":"いわき市","city_kana":"イワキシ","town":"勿来町（酒井）","town_kana":"ナコソマチ(サカイ)","prefecture_code":7},"0145":{"zip_code":"9790145","prefecture":"福島県","prefecture_kana":"フクシマケン","city":"いわき市","city_kana":"イワキシ","town":"勿来町（四沢）","town_kana":"ナコソマチ(シサワ)","prefecture_code":7},"0143":{"zip_code":"9790143","prefecture":"福島県","prefecture_kana":"フクシマケン","city":"いわき市","city_kana":"イワキシ","town":"勿来町（白米）","town_kana":"ナコソマチ(シロヨネ)","prefecture_code":7},"0146":{"zip_code":"9790146","prefecture":"福島県","prefecture_kana":"フクシマケン","city":"いわき市","city_kana":"イワキシ","town":"勿来町（関田）","town_kana":"ナコソマチ(セキタ)","prefecture_code":7},"0154":{"zip_code":"9790154","prefecture":"福島県","prefecture_kana":"フクシマケン","city":"いわき市","city_kana":"イワキシ","town":"沼部町","town_kana":"ヌマベマチ","prefecture_code":7},"0332":{"zip_code":"9790332","prefecture":"福島県","prefecture_kana":"フクシマケン","city":"いわき市","city_kana":"イワキシ","town":"久之浜町金ケ沢","town_kana":"ヒサノハママチカネガサワ","prefecture_code":7},"0331":{"zip_code":"9790331","prefecture":"福島県","prefecture_kana":"フクシマケン","city":"いわき市","city_kana":"イワキシ","town":"久之浜町末続","town_kana":"ヒサノハママチスエツギ","prefecture_code":7},"0335":{"zip_code":"9790335","prefecture":"福島県","prefecture_kana":"フクシマケン","city":"いわき市","city_kana":"イワキシ","town":"久之浜町田之網","town_kana":"ヒサノハママチタノアミ","prefecture_code":7},"0333":{"zip_code":"9790333","prefecture":"福島県","prefecture_kana":"フクシマケン","city":"いわき市","city_kana":"イワキシ","town":"久之浜町久之浜","town_kana":"ヒサノハママチヒサノハマ","prefecture_code":7},"0334":{"zip_code":"9790334","prefecture":"福島県","prefecture_kana":"フクシマケン","city":"いわき市","city_kana":"イワキシ","town":"久之浜町西","town_kana":"ヒサノハママチニシ","prefecture_code":7},"0155":{"zip_code":"9790155","prefecture":"福島県","prefecture_kana":"フクシマケン","city":"いわき市","city_kana":"イワキシ","town":"三沢町","town_kana":"ミサワマチ","prefecture_code":7},"0152":{"zip_code":"9790152","prefecture":"福島県","prefecture_kana":"フクシマケン","city":"いわき市","city_kana":"イワキシ","town":"山玉町","town_kana":"ヤマダママチ","prefecture_code":7},"0201":{"zip_code":"9790201","prefecture":"福島県","prefecture_kana":"フクシマケン","city":"いわき市","city_kana":"イワキシ","town":"四倉町","town_kana":"ヨツクラマチ","prefecture_code":7},"0205":{"zip_code":"9790205","prefecture":"福島県","prefecture_kana":"フクシマケン","city":"いわき市","city_kana":"イワキシ","town":"四倉町大森","town_kana":"ヨツクラマチオオモリ","prefecture_code":7},"0221":{"zip_code":"9790221","prefecture":"福島県","prefecture_kana":"フクシマケン","city":"いわき市","city_kana":"イワキシ","town":"四倉町上岡","town_kana":"ヨツクラマチカミオカ","prefecture_code":7},"0202":{"zip_code":"9790202","prefecture":"福島県","prefecture_kana":"フクシマケン","city":"いわき市","city_kana":"イワキシ","town":"四倉町上仁井田","town_kana":"ヨツクラマチカミニイダ","prefecture_code":7},"0203":{"zip_code":"9790203","prefecture":"福島県","prefecture_kana":"フクシマケン","city":"いわき市","city_kana":"イワキシ","town":"四倉町下仁井田","town_kana":"ヨツクラマチシモニイダ","prefecture_code":7},"0226":{"zip_code":"9790226","prefecture":"福島県","prefecture_kana":"フクシマケン","city":"いわき市","city_kana":"イワキシ","town":"四倉町上柳生","town_kana":"ヨツクラマチカミヤギュウ","prefecture_code":7},"0225":{"zip_code":"9790225","prefecture":"福島県","prefecture_kana":"フクシマケン","city":"いわき市","city_kana":"イワキシ","town":"四倉町下柳生","town_kana":"ヨツクラマチシモヤギュウ","prefecture_code":7},"0206":{"zip_code":"9790206","prefecture":"福島県","prefecture_kana":"フクシマケン","city":"いわき市","city_kana":"イワキシ","town":"四倉町狐塚","town_kana":"ヨツクラマチキツネヅカ","prefecture_code":7},"0227":{"zip_code":"9790227","prefecture":"福島県","prefecture_kana":"フクシマケン","city":"いわき市","city_kana":"イワキシ","town":"四倉町駒込","town_kana":"ヨツクラマチコマゴメ","prefecture_code":7},"0207":{"zip_code":"9790207","prefecture":"福島県","prefecture_kana":"フクシマケン","city":"いわき市","city_kana":"イワキシ","town":"四倉町塩木","town_kana":"ヨツクラマチシオキ","prefecture_code":7},"0211":{"zip_code":"9790211","prefecture":"福島県","prefecture_kana":"フクシマケン","city":"いわき市","city_kana":"イワキシ","town":"四倉町白岩","town_kana":"ヨツクラマチシライワ","prefecture_code":7},"0216":{"zip_code":"9790216","prefecture":"福島県","prefecture_kana":"フクシマケン","city":"いわき市","city_kana":"イワキシ","town":"四倉町玉山","town_kana":"ヨツクラマチタマヤマ","prefecture_code":7},"0212":{"zip_code":"9790212","prefecture":"福島県","prefecture_kana":"フクシマケン","city":"いわき市","city_kana":"イワキシ","town":"四倉町戸田","town_kana":"ヨツクラマチトダ","prefecture_code":7},"0215":{"zip_code":"9790215","prefecture":"福島県","prefecture_kana":"フクシマケン","city":"いわき市","city_kana":"イワキシ","town":"四倉町中島","town_kana":"ヨツクラマチナカジマ","prefecture_code":7},"0214":{"zip_code":"9790214","prefecture":"福島県","prefecture_kana":"フクシマケン","city":"いわき市","city_kana":"イワキシ","town":"四倉町長友","town_kana":"ヨツクラマチナガトモ","prefecture_code":7},"0213":{"zip_code":"9790213","prefecture":"福島県","prefecture_kana":"フクシマケン","city":"いわき市","city_kana":"イワキシ","town":"四倉町名木","town_kana":"ヨツクラマチナギ","prefecture_code":7},"0204":{"zip_code":"9790204","prefecture":"福島県","prefecture_kana":"フクシマケン","city":"いわき市","city_kana":"イワキシ","town":"四倉町細谷","town_kana":"ヨツクラマチホソヤ","prefecture_code":7},"0224":{"zip_code":"9790224","prefecture":"福島県","prefecture_kana":"フクシマケン","city":"いわき市","city_kana":"イワキシ","town":"四倉町薬王寺","town_kana":"ヨツクラマチヤクオウジ","prefecture_code":7},"0222":{"zip_code":"9790222","prefecture":"福島県","prefecture_kana":"フクシマケン","city":"いわき市","city_kana":"イワキシ","town":"四倉町八茎","town_kana":"ヨツクラマチヤグキ","prefecture_code":7},"0223":{"zip_code":"9790223","prefecture":"福島県","prefecture_kana":"フクシマケン","city":"いわき市","city_kana":"イワキシ","town":"四倉町山田小湊","town_kana":"ヨツクラマチヤマダコミナト","prefecture_code":7},"2521":{"zip_code":"9792521","prefecture":"福島県","prefecture_kana":"フクシマケン","city":"相馬市","city_kana":"ソウマシ","town":"赤木","town_kana":"アカギ","prefecture_code":7},"2501":{"zip_code":"9792501","prefecture":"福島県","prefecture_kana":"フクシマケン","city":"相馬市","city_kana":"ソウマシ","town":"磯部","town_kana":"イソベ","prefecture_code":7},"2541":{"zip_code":"9792541","prefecture":"福島県","prefecture_kana":"フクシマケン","city":"相馬市","city_kana":"ソウマシ","town":"今田","town_kana":"イマダ","prefecture_code":7},"2511":{"zip_code":"9792511","prefecture":"福島県","prefecture_kana":"フクシマケン","city":"相馬市","city_kana":"ソウマシ","town":"蒲庭","town_kana":"カバニワ","prefecture_code":7},"2531":{"zip_code":"9792531","prefecture":"福島県","prefecture_kana":"フクシマケン","city":"相馬市","city_kana":"ソウマシ","town":"立谷","town_kana":"タチヤ","prefecture_code":7},"2533":{"zip_code":"9792533","prefecture":"福島県","prefecture_kana":"フクシマケン","city":"相馬市","city_kana":"ソウマシ","town":"坪田","town_kana":"ツボタ","prefecture_code":7},"2532":{"zip_code":"9792532","prefecture":"福島県","prefecture_kana":"フクシマケン","city":"相馬市","city_kana":"ソウマシ","town":"富沢","town_kana":"トミザワ","prefecture_code":7},"2542":{"zip_code":"9792542","prefecture":"福島県","prefecture_kana":"フクシマケン","city":"相馬市","city_kana":"ソウマシ","town":"成田","town_kana":"ナリタ","prefecture_code":7},"2522":{"zip_code":"9792522","prefecture":"福島県","prefecture_kana":"フクシマケン","city":"相馬市","city_kana":"ソウマシ","town":"日下石","town_kana":"ニッケシ","prefecture_code":7},"2512":{"zip_code":"9792512","prefecture":"福島県","prefecture_kana":"フクシマケン","city":"相馬市","city_kana":"ソウマシ","town":"柚木","town_kana":"ユヌキ","prefecture_code":7},"2133":{"zip_code":"9792133","prefecture":"福島県","prefecture_kana":"フクシマケン","city":"南相馬市","city_kana":"ミナミソウマシ","town":"小高区泉沢","town_kana":"オダカクイズミサワ","prefecture_code":7},"2144":{"zip_code":"9792144","prefecture":"福島県","prefecture_kana":"フクシマケン","city":"南相馬市","city_kana":"ミナミソウマシ","town":"小高区井田川","town_kana":"オダカクイダガワ","prefecture_code":7},"2145":{"zip_code":"9792145","prefecture":"福島県","prefecture_kana":"フクシマケン","city":"南相馬市","city_kana":"ミナミソウマシ","town":"小高区浦尻","town_kana":"オダカクウラジリ","prefecture_code":7},"2155":{"zip_code":"9792155","prefecture":"福島県","prefecture_kana":"フクシマケン","city":"南相馬市","city_kana":"ミナミソウマシ","town":"小高区上根沢","town_kana":"オダカクウワネザワ","prefecture_code":7},"2143":{"zip_code":"9792143","prefecture":"福島県","prefecture_kana":"フクシマケン","city":"南相馬市","city_kana":"ミナミソウマシ","town":"小高区蛯沢","town_kana":"オダカクエビサワ","prefecture_code":7},"2103":{"zip_code":"9792103","prefecture":"福島県","prefecture_kana":"フクシマケン","city":"南相馬市","city_kana":"ミナミソウマシ","town":"小高区大井","town_kana":"オダカクオオイ","prefecture_code":7},"2163":{"zip_code":"9792163","prefecture":"福島県","prefecture_kana":"フクシマケン","city":"南相馬市","city_kana":"ミナミソウマシ","town":"小高区大田和","town_kana":"オダカクオオタワ","prefecture_code":7},"2174":{"zip_code":"9792174","prefecture":"福島県","prefecture_kana":"フクシマケン","city":"南相馬市","city_kana":"ミナミソウマシ","town":"小高区大富","town_kana":"オダカクオオトミ","prefecture_code":7},"2123":{"zip_code":"9792123","prefecture":"福島県","prefecture_kana":"フクシマケン","city":"南相馬市","city_kana":"ミナミソウマシ","town":"小高区大町","town_kana":"オダカクオオマチ","prefecture_code":7},"2134":{"zip_code":"9792134","prefecture":"福島県","prefecture_kana":"フクシマケン","city":"南相馬市","city_kana":"ミナミソウマシ","town":"小高区岡田","town_kana":"オダカクオカダ","prefecture_code":7},"2102":{"zip_code":"9792102","prefecture":"福島県","prefecture_kana":"フクシマケン","city":"南相馬市","city_kana":"ミナミソウマシ","town":"小高区小高","town_kana":"オダカクオダカ","prefecture_code":7},"2147":{"zip_code":"9792147","prefecture":"福島県","prefecture_kana":"フクシマケン","city":"南相馬市","city_kana":"ミナミソウマシ","town":"小高区女場","town_kana":"オダカクオナバ","prefecture_code":7},"2173":{"zip_code":"9792173","prefecture":"福島県","prefecture_kana":"フクシマケン","city":"南相馬市","city_kana":"ミナミソウマシ","town":"小高区小谷","town_kana":"オダカクオヤ","prefecture_code":7},"2101":{"zip_code":"9792101","prefecture":"福島県","prefecture_kana":"フクシマケン","city":"南相馬市","city_kana":"ミナミソウマシ","town":"小高区片草","town_kana":"オダカクカタクサ","prefecture_code":7},"2165":{"zip_code":"9792165","prefecture":"福島県","prefecture_kana":"フクシマケン","city":"南相馬市","city_kana":"ミナミソウマシ","town":"小高区金谷","town_kana":"オダカクカナヤ","prefecture_code":7},"2153":{"zip_code":"9792153","prefecture":"福島県","prefecture_kana":"フクシマケン","city":"南相馬市","city_kana":"ミナミソウマシ","town":"小高区上浦","town_kana":"オダカクカミウラ","prefecture_code":7},"2115":{"zip_code":"9792115","prefecture":"福島県","prefecture_kana":"フクシマケン","city":"南相馬市","city_kana":"ミナミソウマシ","town":"小高区上町","town_kana":"オダカクカミマチ","prefecture_code":7},"2154":{"zip_code":"9792154","prefecture":"福島県","prefecture_kana":"フクシマケン","city":"南相馬市","city_kana":"ミナミソウマシ","town":"小高区神山","town_kana":"オダカクカミヤマ","prefecture_code":7},"2164":{"zip_code":"9792164","prefecture":"福島県","prefecture_kana":"フクシマケン","city":"南相馬市","city_kana":"ミナミソウマシ","town":"小高区川房","town_kana":"オダカクカワブサ","prefecture_code":7},"2171":{"zip_code":"9792171","prefecture":"福島県","prefecture_kana":"フクシマケン","city":"南相馬市","city_kana":"ミナミソウマシ","town":"小高区北鳩原","town_kana":"オダカクキタハツパラ","prefecture_code":7},"2156":{"zip_code":"9792156","prefecture":"福島県","prefecture_kana":"フクシマケン","city":"南相馬市","city_kana":"ミナミソウマシ","town":"小高区小屋木","town_kana":"オダカクコヤギ","prefecture_code":7},"2146":{"zip_code":"9792146","prefecture":"福島県","prefecture_kana":"フクシマケン","city":"南相馬市","city_kana":"ミナミソウマシ","town":"小高区下浦","town_kana":"オダカクシモウラ","prefecture_code":7},"2113":{"zip_code":"9792113","prefecture":"福島県","prefecture_kana":"フクシマケン","city":"南相馬市","city_kana":"ミナミソウマシ","town":"小高区関場","town_kana":"オダカクセキバ","prefecture_code":7},"2112":{"zip_code":"9792112","prefecture":"福島県","prefecture_kana":"フクシマケン","city":"南相馬市","city_kana":"ミナミソウマシ","town":"小高区田町","town_kana":"オダカクタマチ","prefecture_code":7},"2104":{"zip_code":"9792104","prefecture":"福島県","prefecture_kana":"フクシマケン","city":"南相馬市","city_kana":"ミナミソウマシ","town":"小高区塚原","town_kana":"オダカクツカバラ","prefecture_code":7},"2142":{"zip_code":"9792142","prefecture":"福島県","prefecture_kana":"フクシマケン","city":"南相馬市","city_kana":"ミナミソウマシ","town":"小高区角部内","town_kana":"オダカクツノベウチ","prefecture_code":7},"2111":{"zip_code":"9792111","prefecture":"福島県","prefecture_kana":"フクシマケン","city":"南相馬市","city_kana":"ミナミソウマシ","town":"小高区仲町","town_kana":"オダカクナカマチ","prefecture_code":7},"2152":{"zip_code":"9792152","prefecture":"福島県","prefecture_kana":"フクシマケン","city":"南相馬市","city_kana":"ミナミソウマシ","town":"小高区行津","town_kana":"オダカクナメヅ","prefecture_code":7},"2114":{"zip_code":"9792114","prefecture":"福島県","prefecture_kana":"フクシマケン","city":"南相馬市","city_kana":"ミナミソウマシ","town":"小高区西町","town_kana":"オダカクニシマチ","prefecture_code":7},"2175":{"zip_code":"9792175","prefecture":"福島県","prefecture_kana":"フクシマケン","city":"南相馬市","city_kana":"ミナミソウマシ","town":"小高区羽倉","town_kana":"オダカクハノクラ","prefecture_code":7},"2162":{"zip_code":"9792162","prefecture":"福島県","prefecture_kana":"フクシマケン","city":"南相馬市","city_kana":"ミナミソウマシ","town":"小高区飯崎","town_kana":"オダカクハンサキ","prefecture_code":7},"2121":{"zip_code":"9792121","prefecture":"福島県","prefecture_kana":"フクシマケン","city":"南相馬市","city_kana":"ミナミソウマシ","town":"小高区東町","town_kana":"オダカクヒガシマチ","prefecture_code":7},"2131":{"zip_code":"9792131","prefecture":"福島県","prefecture_kana":"フクシマケン","city":"南相馬市","city_kana":"ミナミソウマシ","town":"小高区福岡","town_kana":"オダカクフクオカ","prefecture_code":7},"2161":{"zip_code":"9792161","prefecture":"福島県","prefecture_kana":"フクシマケン","city":"南相馬市","city_kana":"ミナミソウマシ","town":"小高区藤木","town_kana":"オダカクフジキ","prefecture_code":7},"2132":{"zip_code":"9792132","prefecture":"福島県","prefecture_kana":"フクシマケン","city":"南相馬市","city_kana":"ミナミソウマシ","town":"小高区水谷","town_kana":"オダカクミズガイ","prefecture_code":7},"2172":{"zip_code":"9792172","prefecture":"福島県","prefecture_kana":"フクシマケン","city":"南相馬市","city_kana":"ミナミソウマシ","town":"小高区南鳩原","town_kana":"オダカクミナミハツパラ","prefecture_code":7},"2122":{"zip_code":"9792122","prefecture":"福島県","prefecture_kana":"フクシマケン","city":"南相馬市","city_kana":"ミナミソウマシ","town":"小高区南町","town_kana":"オダカクミナミマチ","prefecture_code":7},"2151":{"zip_code":"9792151","prefecture":"福島県","prefecture_kana":"フクシマケン","city":"南相馬市","city_kana":"ミナミソウマシ","town":"小高区耳谷","town_kana":"オダカクミミガイ","prefecture_code":7},"2141":{"zip_code":"9792141","prefecture":"福島県","prefecture_kana":"フクシマケン","city":"南相馬市","city_kana":"ミナミソウマシ","town":"小高区村上","town_kana":"オダカクムラカミ","prefecture_code":7},"2124":{"zip_code":"9792124","prefecture":"福島県","prefecture_kana":"フクシマケン","city":"南相馬市","city_kana":"ミナミソウマシ","town":"小高区本町","town_kana":"オダカクモトマチ","prefecture_code":7},"2157":{"zip_code":"9792157","prefecture":"福島県","prefecture_kana":"フクシマケン","city":"南相馬市","city_kana":"ミナミソウマシ","town":"小高区吉名","town_kana":"オダカクヨシナ","prefecture_code":7},"2336":{"zip_code":"9792336","prefecture":"福島県","prefecture_kana":"フクシマケン","city":"南相馬市","city_kana":"ミナミソウマシ","town":"鹿島区あさひ","town_kana":"カシマクアサヒ","prefecture_code":7},"2451":{"zip_code":"9792451","prefecture":"福島県","prefecture_kana":"フクシマケン","city":"南相馬市","city_kana":"ミナミソウマシ","town":"鹿島区浮田","town_kana":"カシマクウキタ","prefecture_code":7},"2443":{"zip_code":"9792443","prefecture":"福島県","prefecture_kana":"フクシマケン","city":"南相馬市","city_kana":"ミナミソウマシ","town":"鹿島区牛河内","town_kana":"カシマクウシコウチ","prefecture_code":7},"2331":{"zip_code":"9792331","prefecture":"福島県","prefecture_kana":"フクシマケン","city":"南相馬市","city_kana":"ミナミソウマシ","town":"鹿島区江垂","town_kana":"カシマクエタリ","prefecture_code":7},"2322":{"zip_code":"9792322","prefecture":"福島県","prefecture_kana":"フクシマケン","city":"南相馬市","city_kana":"ミナミソウマシ","town":"鹿島区大内","town_kana":"カシマクオオウチ","prefecture_code":7},"2444":{"zip_code":"9792444","prefecture":"福島県","prefecture_kana":"フクシマケン","city":"南相馬市","city_kana":"ミナミソウマシ","town":"鹿島区岡和田","town_kana":"カシマクオカワダ","prefecture_code":7},"2321":{"zip_code":"9792321","prefecture":"福島県","prefecture_kana":"フクシマケン","city":"南相馬市","city_kana":"ミナミソウマシ","town":"鹿島区小島田","town_kana":"カシマクオシマダ","prefecture_code":7},"2464":{"zip_code":"9792464","prefecture":"福島県","prefecture_kana":"フクシマケン","city":"南相馬市","city_kana":"ミナミソウマシ","town":"鹿島区御山","town_kana":"カシマクオヤマ","prefecture_code":7},"2335":{"zip_code":"9792335","prefecture":"福島県","prefecture_kana":"フクシマケン","city":"南相馬市","city_kana":"ミナミソウマシ","town":"鹿島区鹿島","town_kana":"カシマクカシマ","prefecture_code":7},"2462":{"zip_code":"9792462","prefecture":"福島県","prefecture_kana":"フクシマケン","city":"南相馬市","city_kana":"ミナミソウマシ","town":"鹿島区上栃窪","town_kana":"カシマクカミトチクボ","prefecture_code":7},"2323":{"zip_code":"9792323","prefecture":"福島県","prefecture_kana":"フクシマケン","city":"南相馬市","city_kana":"ミナミソウマシ","town":"鹿島区烏崎","town_kana":"カシマクカラスザキ","prefecture_code":7},"2324":{"zip_code":"9792324","prefecture":"福島県","prefecture_kana":"フクシマケン","city":"南相馬市","city_kana":"ミナミソウマシ","town":"鹿島区川子","town_kana":"カシマクカワゴ","prefecture_code":7},"2311":{"zip_code":"9792311","prefecture":"福島県","prefecture_kana":"フクシマケン","city":"南相馬市","city_kana":"ミナミソウマシ","town":"鹿島区北海老","town_kana":"カシマクキタエビ","prefecture_code":7},"2313":{"zip_code":"9792313","prefecture":"福島県","prefecture_kana":"フクシマケン","city":"南相馬市","city_kana":"ミナミソウマシ","town":"鹿島区北右田","town_kana":"カシマクキタミギタ","prefecture_code":7},"2303":{"zip_code":"9792303","prefecture":"福島県","prefecture_kana":"フクシマケン","city":"南相馬市","city_kana":"ミナミソウマシ","town":"鹿島区北屋形","town_kana":"カシマクキタヤカタ","prefecture_code":7},"2453":{"zip_code":"9792453","prefecture":"福島県","prefecture_kana":"フクシマケン","city":"南相馬市","city_kana":"ミナミソウマシ","town":"鹿島区小池","town_kana":"カシマクコイケ","prefecture_code":7},"2452":{"zip_code":"9792452","prefecture":"福島県","prefecture_kana":"フクシマケン","city":"南相馬市","city_kana":"ミナミソウマシ","town":"鹿島区小山田","town_kana":"カシマクコヤマダ","prefecture_code":7},"2332":{"zip_code":"9792332","prefecture":"福島県","prefecture_kana":"フクシマケン","city":"南相馬市","city_kana":"ミナミソウマシ","town":"鹿島区塩崎","town_kana":"カシマクシオノサキ","prefecture_code":7},"2454":{"zip_code":"9792454","prefecture":"福島県","prefecture_kana":"フクシマケン","city":"南相馬市","city_kana":"ミナミソウマシ","town":"鹿島区橲原","town_kana":"カシマクジサバラ","prefecture_code":7},"2441":{"zip_code":"9792441","prefecture":"福島県","prefecture_kana":"フクシマケン","city":"南相馬市","city_kana":"ミナミソウマシ","town":"鹿島区角川原","town_kana":"カシマクツノガワラ","prefecture_code":7},"2333":{"zip_code":"9792333","prefecture":"福島県","prefecture_kana":"フクシマケン","city":"南相馬市","city_kana":"ミナミソウマシ","town":"鹿島区寺内","town_kana":"カシマクテラウチ","prefecture_code":7},"2463":{"zip_code":"9792463","prefecture":"福島県","prefecture_kana":"フクシマケン","city":"南相馬市","city_kana":"ミナミソウマシ","town":"鹿島区栃窪","town_kana":"カシマクトチクボ","prefecture_code":7},"2305":{"zip_code":"9792305","prefecture":"福島県","prefecture_kana":"フクシマケン","city":"南相馬市","city_kana":"ミナミソウマシ","town":"鹿島区永田","town_kana":"カシマクナガタ","prefecture_code":7},"2301":{"zip_code":"9792301","prefecture":"福島県","prefecture_kana":"フクシマケン","city":"南相馬市","city_kana":"ミナミソウマシ","town":"鹿島区永渡","town_kana":"カシマクナガワタリ","prefecture_code":7},"2334":{"zip_code":"9792334","prefecture":"福島県","prefecture_kana":"フクシマケン","city":"南相馬市","city_kana":"ミナミソウマシ","town":"鹿島区西町","town_kana":"カシマクニシマチ","prefecture_code":7},"2312":{"zip_code":"9792312","prefecture":"福島県","prefecture_kana":"フクシマケン","city":"南相馬市","city_kana":"ミナミソウマシ","town":"鹿島区南海老","town_kana":"カシマクミナミエビ","prefecture_code":7},"2314":{"zip_code":"9792314","prefecture":"福島県","prefecture_kana":"フクシマケン","city":"南相馬市","city_kana":"ミナミソウマシ","town":"鹿島区南右田","town_kana":"カシマクミナミミギタ","prefecture_code":7},"2304":{"zip_code":"9792304","prefecture":"福島県","prefecture_kana":"フクシマケン","city":"南相馬市","city_kana":"ミナミソウマシ","town":"鹿島区南屋形","town_kana":"カシマクミナミヤカタ","prefecture_code":7},"2302":{"zip_code":"9792302","prefecture":"福島県","prefecture_kana":"フクシマケン","city":"南相馬市","city_kana":"ミナミソウマシ","town":"鹿島区南柚木","town_kana":"カシマクミナミユノキ","prefecture_code":7},"2461":{"zip_code":"9792461","prefecture":"福島県","prefecture_kana":"フクシマケン","city":"南相馬市","city_kana":"ミナミソウマシ","town":"鹿島区山下","town_kana":"カシマクヤマシタ","prefecture_code":7},"2442":{"zip_code":"9792442","prefecture":"福島県","prefecture_kana":"フクシマケン","city":"南相馬市","city_kana":"ミナミソウマシ","town":"鹿島区横手","town_kana":"カシマクヨコテ","prefecture_code":7},"0400":{"zip_code":"9790400","prefecture":"福島県","prefecture_kana":"フクシマケン","city":"双葉郡広野町","city_kana":"フタバグンヒロノマチ","town":"以下に掲載がない場合","town_kana":"イカニケイサイガナイバアイ","prefecture_code":7},"0404":{"zip_code":"9790404","prefecture":"福島県","prefecture_kana":"フクシマケン","city":"双葉郡広野町","city_kana":"フタバグンヒロノマチ","town":"折木","town_kana":"オリキ","prefecture_code":7},"0406":{"zip_code":"9790406","prefecture":"福島県","prefecture_kana":"フクシマケン","city":"双葉郡広野町","city_kana":"フタバグンヒロノマチ","town":"上浅見川","town_kana":"カミアサミガワ","prefecture_code":7},"0401":{"zip_code":"9790401","prefecture":"福島県","prefecture_kana":"フクシマケン","city":"双葉郡広野町","city_kana":"フタバグンヒロノマチ","town":"上北迫","town_kana":"カミキタバ","prefecture_code":7},"0407":{"zip_code":"9790407","prefecture":"福島県","prefecture_kana":"フクシマケン","city":"双葉郡広野町","city_kana":"フタバグンヒロノマチ","town":"広洋台","town_kana":"コウヨウダイ","prefecture_code":7},"0403":{"zip_code":"9790403","prefecture":"福島県","prefecture_kana":"フクシマケン","city":"双葉郡広野町","city_kana":"フタバグンヒロノマチ","town":"下浅見川","town_kana":"シモアサミガワ","prefecture_code":7},"0402":{"zip_code":"9790402","prefecture":"福島県","prefecture_kana":"フクシマケン","city":"双葉郡広野町","city_kana":"フタバグンヒロノマチ","town":"下北迫","town_kana":"シモキタバ","prefecture_code":7},"0408":{"zip_code":"9790408","prefecture":"福島県","prefecture_kana":"フクシマケン","city":"双葉郡広野町","city_kana":"フタバグンヒロノマチ","town":"中央台","town_kana":"チュウオウダイ","prefecture_code":7},"0405":{"zip_code":"9790405","prefecture":"福島県","prefecture_kana":"フクシマケン","city":"双葉郡広野町","city_kana":"フタバグンヒロノマチ","town":"夕筋","town_kana":"ユウスジ","prefecture_code":7},"0600":{"zip_code":"9790600","prefecture":"福島県","prefecture_kana":"フクシマケン","city":"双葉郡楢葉町","city_kana":"フタバグンナラハマチ","town":"以下に掲載がない場合","town_kana":"イカニケイサイガナイバアイ","prefecture_code":7},"0603":{"zip_code":"9790603","prefecture":"福島県","prefecture_kana":"フクシマケン","city":"双葉郡楢葉町","city_kana":"フタバグンナラハマチ","town":"井出","town_kana":"イデ","prefecture_code":7},"0605":{"zip_code":"9790605","prefecture":"福島県","prefecture_kana":"フクシマケン","city":"双葉郡楢葉町","city_kana":"フタバグンナラハマチ","town":"大谷","town_kana":"オオヤ","prefecture_code":7},"0515":{"zip_code":"9790515","prefecture":"福島県","prefecture_kana":"フクシマケン","city":"双葉郡楢葉町","city_kana":"フタバグンナラハマチ","town":"上小塙","town_kana":"カミコバナ","prefecture_code":7},"0606":{"zip_code":"9790606","prefecture":"福島県","prefecture_kana":"フクシマケン","city":"双葉郡楢葉町","city_kana":"フタバグンナラハマチ","town":"上繁岡","town_kana":"カミシゲオカ","prefecture_code":7},"0604":{"zip_code":"9790604","prefecture":"福島県","prefecture_kana":"フクシマケン","city":"双葉郡楢葉町","city_kana":"フタバグンナラハマチ","town":"北田","town_kana":"キタダ","prefecture_code":7},"0514":{"zip_code":"9790514","prefecture":"福島県","prefecture_kana":"フクシマケン","city":"双葉郡楢葉町","city_kana":"フタバグンナラハマチ","town":"下小塙","town_kana":"シモコバナ","prefecture_code":7},"0602":{"zip_code":"9790602","prefecture":"福島県","prefecture_kana":"フクシマケン","city":"双葉郡楢葉町","city_kana":"フタバグンナラハマチ","town":"下繁岡","town_kana":"シモシゲオカ","prefecture_code":7},"0601":{"zip_code":"9790601","prefecture":"福島県","prefecture_kana":"フクシマケン","city":"双葉郡楢葉町","city_kana":"フタバグンナラハマチ","town":"波倉","town_kana":"ナミクラ","prefecture_code":7},"0511":{"zip_code":"9790511","prefecture":"福島県","prefecture_kana":"フクシマケン","city":"双葉郡楢葉町","city_kana":"フタバグンナラハマチ","town":"前原","town_kana":"マエバラ","prefecture_code":7},"0513":{"zip_code":"9790513","prefecture":"福島県","prefecture_kana":"フクシマケン","city":"双葉郡楢葉町","city_kana":"フタバグンナラハマチ","town":"山田岡","town_kana":"ヤマダオカ","prefecture_code":7},"0512":{"zip_code":"9790512","prefecture":"福島県","prefecture_kana":"フクシマケン","city":"双葉郡楢葉町","city_kana":"フタバグンナラハマチ","town":"山田浜","town_kana":"ヤマダハマ","prefecture_code":7},"1100":{"zip_code":"9791100","prefecture":"福島県","prefecture_kana":"フクシマケン","city":"双葉郡富岡町","city_kana":"フタバグントミオカマチ","town":"以下に掲載がない場合","town_kana":"イカニケイサイガナイバアイ","prefecture_code":7},"1171":{"zip_code":"9791171","prefecture":"福島県","prefecture_kana":"フクシマケン","city":"双葉郡富岡町","city_kana":"フタバグントミオカマチ","town":"大菅","town_kana":"オオスゲ","prefecture_code":7},"1101":{"zip_code":"9791101","prefecture":"福島県","prefecture_kana":"フクシマケン","city":"双葉郡富岡町","city_kana":"フタバグントミオカマチ","town":"小良ケ浜","town_kana":"オラガハマ","prefecture_code":7},"1131":{"zip_code":"9791131","prefecture":"福島県","prefecture_kana":"フクシマケン","city":"双葉郡富岡町","city_kana":"フタバグントミオカマチ","town":"上郡山","town_kana":"カミコオリヤマ","prefecture_code":7},"1141":{"zip_code":"9791141","prefecture":"福島県","prefecture_kana":"フクシマケン","city":"双葉郡富岡町","city_kana":"フタバグントミオカマチ","town":"上手岡","town_kana":"カミテオカ","prefecture_code":7},"0622":[{"zip_code":"9790622","prefecture":"福島県","prefecture_kana":"フクシマケン","city":"双葉郡富岡町","city_kana":"フタバグントミオカマチ","town":"毛萱（前川原２３２〜２４４、３１１、３１２、３３７〜８６２番地","town_kana":"ケガヤ(マエカワハラ232-244、311、312、337-862バンチ","prefecture_code":7},{"zip_code":"9790622","prefecture":"福島県","prefecture_kana":"フクシマケン","city":"双葉郡富岡町","city_kana":"フタバグントミオカマチ","town":"〔東京電力福島第二原子力発電所構内〕）","town_kana":"トウキョウデンリョクフクシマダイ2ゲンシリョクハツデンショコウナイ)","prefecture_code":7}],"1122":{"zip_code":"9791122","prefecture":"福島県","prefecture_kana":"フクシマケン","city":"双葉郡富岡町","city_kana":"フタバグントミオカマチ","town":"毛萱（その他）","town_kana":"ケガヤ(ソノタ)","prefecture_code":7},"1111":{"zip_code":"9791111","prefecture":"福島県","prefecture_kana":"フクシマケン","city":"双葉郡富岡町","city_kana":"フタバグントミオカマチ","town":"小浜","town_kana":"コバマ","prefecture_code":7},"1162":{"zip_code":"9791162","prefecture":"福島県","prefecture_kana":"フクシマケン","city":"双葉郡富岡町","city_kana":"フタバグントミオカマチ","town":"桜","town_kana":"サクラ","prefecture_code":7},"1132":{"zip_code":"9791132","prefecture":"福島県","prefecture_kana":"フクシマケン","city":"双葉郡富岡町","city_kana":"フタバグントミオカマチ","town":"下郡山","town_kana":"シモコオリヤマ","prefecture_code":7},"1112":{"zip_code":"9791112","prefecture":"福島県","prefecture_kana":"フクシマケン","city":"双葉郡富岡町","city_kana":"フタバグントミオカマチ","town":"中央","town_kana":"チュウオウ","prefecture_code":7},"1121":{"zip_code":"9791121","prefecture":"福島県","prefecture_kana":"フクシマケン","city":"双葉郡富岡町","city_kana":"フタバグントミオカマチ","town":"仏浜","town_kana":"ホトケハマ","prefecture_code":7},"1151":{"zip_code":"9791151","prefecture":"福島県","prefecture_kana":"フクシマケン","city":"双葉郡富岡町","city_kana":"フタバグントミオカマチ","town":"本岡","town_kana":"モトオカ","prefecture_code":7},"1152":{"zip_code":"9791152","prefecture":"福島県","prefecture_kana":"フクシマケン","city":"双葉郡富岡町","city_kana":"フタバグントミオカマチ","town":"本町","town_kana":"モトマチ","prefecture_code":7},"1161":{"zip_code":"9791161","prefecture":"福島県","prefecture_kana":"フクシマケン","city":"双葉郡富岡町","city_kana":"フタバグントミオカマチ","town":"夜の森","town_kana":"ヨノモリ","prefecture_code":7},"1200":{"zip_code":"9791200","prefecture":"福島県","prefecture_kana":"フクシマケン","city":"双葉郡川内村","city_kana":"フタバグンカワウチムラ","town":"以下に掲載がない場合","town_kana":"イカニケイサイガナイバアイ","prefecture_code":7},"1201":{"zip_code":"9791201","prefecture":"福島県","prefecture_kana":"フクシマケン","city":"双葉郡川内村","city_kana":"フタバグンカワウチムラ","town":"上川内","town_kana":"カミカワウチ","prefecture_code":7},"1202":{"zip_code":"9791202","prefecture":"福島県","prefecture_kana":"フクシマケン","city":"双葉郡川内村","city_kana":"フタバグンカワウチムラ","town":"下川内","town_kana":"シモカワウチ","prefecture_code":7},"1300":{"zip_code":"9791300","prefecture":"福島県","prefecture_kana":"フクシマケン","city":"双葉郡大熊町","city_kana":"フタバグンオオクママチ","town":"以下に掲載がない場合","town_kana":"イカニケイサイガナイバアイ","prefecture_code":7},"1306":{"zip_code":"9791306","prefecture":"福島県","prefecture_kana":"フクシマケン","city":"双葉郡大熊町","city_kana":"フタバグンオオクママチ","town":"大川原","town_kana":"オオガワラ","prefecture_code":7},"1301":{"zip_code":"9791301","prefecture":"福島県","prefecture_kana":"フクシマケン","city":"双葉郡大熊町","city_kana":"フタバグンオオクママチ","town":"夫沢","town_kana":"オットザワ","prefecture_code":7},"1304":{"zip_code":"9791304","prefecture":"福島県","prefecture_kana":"フクシマケン","city":"双葉郡大熊町","city_kana":"フタバグンオオクママチ","town":"小良浜","town_kana":"オラハマ","prefecture_code":7},"1305":{"zip_code":"9791305","prefecture":"福島県","prefecture_kana":"フクシマケン","city":"双葉郡大熊町","city_kana":"フタバグンオオクママチ","town":"熊","town_kana":"クマ","prefecture_code":7},"1303":{"zip_code":"9791303","prefecture":"福島県","prefecture_kana":"フクシマケン","city":"双葉郡大熊町","city_kana":"フタバグンオオクママチ","town":"熊川","town_kana":"クマガワ","prefecture_code":7},"1302":{"zip_code":"9791302","prefecture":"福島県","prefecture_kana":"フクシマケン","city":"双葉郡大熊町","city_kana":"フタバグンオオクママチ","town":"小入野","town_kana":"コイリノ","prefecture_code":7},"1308":{"zip_code":"9791308","prefecture":"福島県","prefecture_kana":"フクシマケン","city":"双葉郡大熊町","city_kana":"フタバグンオオクママチ","town":"下野上","town_kana":"シモノガミ","prefecture_code":7},"1307":{"zip_code":"9791307","prefecture":"福島県","prefecture_kana":"フクシマケン","city":"双葉郡大熊町","city_kana":"フタバグンオオクママチ","town":"野上","town_kana":"ノガミ","prefecture_code":7},"1400":{"zip_code":"9791400","prefecture":"福島県","prefecture_kana":"フクシマケン","city":"双葉郡双葉町","city_kana":"フタバグンフタバマチ","town":"以下に掲載がない場合","town_kana":"イカニケイサイガナイバアイ","prefecture_code":7},"1433":{"zip_code":"9791433","prefecture":"福島県","prefecture_kana":"フクシマケン","city":"双葉郡双葉町","city_kana":"フタバグンフタバマチ","town":"石熊","town_kana":"イシクマ","prefecture_code":7},"1442":{"zip_code":"9791442","prefecture":"福島県","prefecture_kana":"フクシマケン","city":"双葉郡双葉町","city_kana":"フタバグンフタバマチ","town":"上羽鳥","town_kana":"カミハトリ","prefecture_code":7},"1463":{"zip_code":"9791463","prefecture":"福島県","prefecture_kana":"フクシマケン","city":"双葉郡双葉町","city_kana":"フタバグンフタバマチ","town":"鴻草","town_kana":"コウノクサ","prefecture_code":7},"1411":{"zip_code":"9791411","prefecture":"福島県","prefecture_kana":"フクシマケン","city":"双葉郡双葉町","city_kana":"フタバグンフタバマチ","town":"郡山","town_kana":"コオリヤマ","prefecture_code":7},"1451":{"zip_code":"9791451","prefecture":"福島県","prefecture_kana":"フクシマケン","city":"双葉郡双葉町","city_kana":"フタバグンフタバマチ","town":"渋川","town_kana":"シブカワ","prefecture_code":7},"1441":{"zip_code":"9791441","prefecture":"福島県","prefecture_kana":"フクシマケン","city":"双葉郡双葉町","city_kana":"フタバグンフタバマチ","town":"下羽鳥","town_kana":"シモハトリ","prefecture_code":7},"1472":{"zip_code":"9791472","prefecture":"福島県","prefecture_kana":"フクシマケン","city":"双葉郡双葉町","city_kana":"フタバグンフタバマチ","town":"新山","town_kana":"シンザン","prefecture_code":7},"1453":{"zip_code":"9791453","prefecture":"福島県","prefecture_kana":"フクシマケン","city":"双葉郡双葉町","city_kana":"フタバグンフタバマチ","town":"寺沢","town_kana":"テラザワ","prefecture_code":7},"1462":{"zip_code":"9791462","prefecture":"福島県","prefecture_kana":"フクシマケン","city":"双葉郡双葉町","city_kana":"フタバグンフタバマチ","town":"中田","town_kana":"ナカダ","prefecture_code":7},"1401":{"zip_code":"9791401","prefecture":"福島県","prefecture_kana":"フクシマケン","city":"双葉郡双葉町","city_kana":"フタバグンフタバマチ","town":"中野","town_kana":"ナカノ","prefecture_code":7},"1402":{"zip_code":"9791402","prefecture":"福島県","prefecture_kana":"フクシマケン","city":"双葉郡双葉町","city_kana":"フタバグンフタバマチ","town":"中浜","town_kana":"ナカハマ","prefecture_code":7},"1471":{"zip_code":"9791471","prefecture":"福島県","prefecture_kana":"フクシマケン","city":"双葉郡双葉町","city_kana":"フタバグンフタバマチ","town":"長塚","town_kana":"ナガツカ","prefecture_code":7},"1412":{"zip_code":"9791412","prefecture":"福島県","prefecture_kana":"フクシマケン","city":"双葉郡双葉町","city_kana":"フタバグンフタバマチ","town":"細谷","town_kana":"ホソヤ","prefecture_code":7},"1421":{"zip_code":"9791421","prefecture":"福島県","prefecture_kana":"フクシマケン","city":"双葉郡双葉町","city_kana":"フタバグンフタバマチ","town":"前田","town_kana":"マエダ","prefecture_code":7},"1452":{"zip_code":"9791452","prefecture":"福島県","prefecture_kana":"フクシマケン","city":"双葉郡双葉町","city_kana":"フタバグンフタバマチ","town":"松倉","town_kana":"マツクラ","prefecture_code":7},"1432":{"zip_code":"9791432","prefecture":"福島県","prefecture_kana":"フクシマケン","city":"双葉郡双葉町","city_kana":"フタバグンフタバマチ","town":"松迫","town_kana":"マツザク","prefecture_code":7},"1422":{"zip_code":"9791422","prefecture":"福島県","prefecture_kana":"フクシマケン","city":"双葉郡双葉町","city_kana":"フタバグンフタバマチ","town":"水沢","town_kana":"ミズサワ","prefecture_code":7},"1423":{"zip_code":"9791423","prefecture":"福島県","prefecture_kana":"フクシマケン","city":"双葉郡双葉町","city_kana":"フタバグンフタバマチ","town":"目迫","town_kana":"メサク","prefecture_code":7},"1461":{"zip_code":"9791461","prefecture":"福島県","prefecture_kana":"フクシマケン","city":"双葉郡双葉町","city_kana":"フタバグンフタバマチ","town":"両竹","town_kana":"モロタケ","prefecture_code":7},"1431":{"zip_code":"9791431","prefecture":"福島県","prefecture_kana":"フクシマケン","city":"双葉郡双葉町","city_kana":"フタバグンフタバマチ","town":"山田","town_kana":"ヤマダ","prefecture_code":7},"1500":{"zip_code":"9791500","prefecture":"福島県","prefecture_kana":"フクシマケン","city":"双葉郡浪江町","city_kana":"フタバグンナミエマチ","town":"以下に掲載がない場合","town_kana":"イカニケイサイガナイバアイ","prefecture_code":7},"1751":{"zip_code":"9791751","prefecture":"福島県","prefecture_kana":"フクシマケン","city":"双葉郡浪江町","city_kana":"フタバグンナミエマチ","town":"赤宇木","town_kana":"アコウギ","prefecture_code":7},"1535":{"zip_code":"9791535","prefecture":"福島県","prefecture_kana":"フクシマケン","city":"双葉郡浪江町","city_kana":"フタバグンナミエマチ","town":"井手","town_kana":"イデ","prefecture_code":7},"1522":{"zip_code":"9791522","prefecture":"福島県","prefecture_kana":"フクシマケン","city":"双葉郡浪江町","city_kana":"フタバグンナミエマチ","town":"請戸","town_kana":"ウケド","prefecture_code":7},"1526":{"zip_code":"9791526","prefecture":"福島県","prefecture_kana":"フクシマケン","city":"双葉郡浪江町","city_kana":"フタバグンナミエマチ","town":"牛渡","town_kana":"ウシワタ","prefecture_code":7},"1544":{"zip_code":"9791544","prefecture":"福島県","prefecture_kana":"フクシマケン","city":"双葉郡浪江町","city_kana":"フタバグンナミエマチ","town":"大堀","town_kana":"オオボリ","prefecture_code":7},"1543":{"zip_code":"9791543","prefecture":"福島県","prefecture_kana":"フクシマケン","city":"双葉郡浪江町","city_kana":"フタバグンナミエマチ","town":"小野田","town_kana":"オノダ","prefecture_code":7},"1545":{"zip_code":"9791545","prefecture":"福島県","prefecture_kana":"フクシマケン","city":"双葉郡浪江町","city_kana":"フタバグンナミエマチ","town":"小丸","town_kana":"オマル","prefecture_code":7},"1536":{"zip_code":"9791536","prefecture":"福島県","prefecture_kana":"フクシマケン","city":"双葉郡浪江町","city_kana":"フタバグンナミエマチ","town":"加倉","town_kana":"カクラ","prefecture_code":7},"1505":{"zip_code":"9791505","prefecture":"福島県","prefecture_kana":"フクシマケン","city":"双葉郡浪江町","city_kana":"フタバグンナミエマチ","town":"苅宿","town_kana":"カリヤド","prefecture_code":7},"1531":{"zip_code":"9791531","prefecture":"福島県","prefecture_kana":"フクシマケン","city":"双葉郡浪江町","city_kana":"フタバグンナミエマチ","town":"川添","town_kana":"カワゾエ","prefecture_code":7},"1753":{"zip_code":"9791753","prefecture":"福島県","prefecture_kana":"フクシマケン","city":"双葉郡浪江町","city_kana":"フタバグンナミエマチ","town":"川房","town_kana":"カワブサ","prefecture_code":7},"1512":{"zip_code":"9791512","prefecture":"福島県","prefecture_kana":"フクシマケン","city":"双葉郡浪江町","city_kana":"フタバグンナミエマチ","town":"北幾世橋","town_kana":"キタキヨハシ","prefecture_code":7},"1513":{"zip_code":"9791513","prefecture":"福島県","prefecture_kana":"フクシマケン","city":"双葉郡浪江町","city_kana":"フタバグンナミエマチ","town":"幾世橋","town_kana":"キヨハシ","prefecture_code":7},"1521":{"zip_code":"9791521","prefecture":"福島県","prefecture_kana":"フクシマケン","city":"双葉郡浪江町","city_kana":"フタバグンナミエマチ","town":"権現堂","town_kana":"ゴンゲンドウ","prefecture_code":7},"1533":{"zip_code":"9791533","prefecture":"福島県","prefecture_kana":"フクシマケン","city":"双葉郡浪江町","city_kana":"フタバグンナミエマチ","town":"酒井","town_kana":"サカイ","prefecture_code":7},"1504":{"zip_code":"9791504","prefecture":"福島県","prefecture_kana":"フクシマケン","city":"双葉郡浪江町","city_kana":"フタバグンナミエマチ","town":"酒田","town_kana":"サカタ","prefecture_code":7},"1756":{"zip_code":"9791756","prefecture":"福島県","prefecture_kana":"フクシマケン","city":"双葉郡浪江町","city_kana":"フタバグンナミエマチ","town":"下津島","town_kana":"シモツシマ","prefecture_code":7},"1542":{"zip_code":"9791542","prefecture":"福島県","prefecture_kana":"フクシマケン","city":"双葉郡浪江町","city_kana":"フタバグンナミエマチ","town":"末森","town_kana":"スエノモリ","prefecture_code":7},"1525":{"zip_code":"9791525","prefecture":"福島県","prefecture_kana":"フクシマケン","city":"双葉郡浪江町","city_kana":"フタバグンナミエマチ","town":"高瀬","town_kana":"タカセ","prefecture_code":7},"1541":{"zip_code":"9791541","prefecture":"福島県","prefecture_kana":"フクシマケン","city":"双葉郡浪江町","city_kana":"フタバグンナミエマチ","town":"田尻","town_kana":"タジリ","prefecture_code":7},"1501":{"zip_code":"9791501","prefecture":"福島県","prefecture_kana":"フクシマケン","city":"双葉郡浪江町","city_kana":"フタバグンナミエマチ","town":"立野","town_kana":"タツノ","prefecture_code":7},"1511":{"zip_code":"9791511","prefecture":"福島県","prefecture_kana":"フクシマケン","city":"双葉郡浪江町","city_kana":"フタバグンナミエマチ","town":"棚塩","town_kana":"タナシオ","prefecture_code":7},"1757":{"zip_code":"9791757","prefecture":"福島県","prefecture_kana":"フクシマケン","city":"双葉郡浪江町","city_kana":"フタバグンナミエマチ","town":"津島","town_kana":"ツシマ","prefecture_code":7},"1523":{"zip_code":"9791523","prefecture":"福島県","prefecture_kana":"フクシマケン","city":"双葉郡浪江町","city_kana":"フタバグンナミエマチ","town":"中浜","town_kana":"ナカハマ","prefecture_code":7},"1503":{"zip_code":"9791503","prefecture":"福島県","prefecture_kana":"フクシマケン","city":"双葉郡浪江町","city_kana":"フタバグンナミエマチ","town":"西台","town_kana":"ニシダイ","prefecture_code":7},"1755":{"zip_code":"9791755","prefecture":"福島県","prefecture_kana":"フクシマケン","city":"双葉郡浪江町","city_kana":"フタバグンナミエマチ","town":"羽附","town_kana":"ハツケ","prefecture_code":7},"1752":{"zip_code":"9791752","prefecture":"福島県","prefecture_kana":"フクシマケン","city":"双葉郡浪江町","city_kana":"フタバグンナミエマチ","town":"昼曽根","town_kana":"ヒルソネ","prefecture_code":7},"1532":{"zip_code":"9791532","prefecture":"福島県","prefecture_kana":"フクシマケン","city":"双葉郡浪江町","city_kana":"フタバグンナミエマチ","town":"樋渡","town_kana":"ヒワタシ","prefecture_code":7},"1502":{"zip_code":"9791502","prefecture":"福島県","prefecture_kana":"フクシマケン","city":"双葉郡浪江町","city_kana":"フタバグンナミエマチ","town":"藤橋","town_kana":"フジハシ","prefecture_code":7},"1754":{"zip_code":"9791754","prefecture":"福島県","prefecture_kana":"フクシマケン","city":"双葉郡浪江町","city_kana":"フタバグンナミエマチ","town":"南津島","town_kana":"ミナミツシマ","prefecture_code":7},"1706":{"zip_code":"9791706","prefecture":"福島県","prefecture_kana":"フクシマケン","city":"双葉郡浪江町","city_kana":"フタバグンナミエマチ","town":"室原（小伝谷６７）","town_kana":"ムロハラ(コデヤ67)","prefecture_code":7},"1506":{"zip_code":"9791506","prefecture":"福島県","prefecture_kana":"フクシマケン","city":"双葉郡浪江町","city_kana":"フタバグンナミエマチ","town":"室原（その他）","town_kana":"ムロハラ(ソノタ)","prefecture_code":7},"1524":{"zip_code":"9791524","prefecture":"福島県","prefecture_kana":"フクシマケン","city":"双葉郡浪江町","city_kana":"フタバグンナミエマチ","town":"両竹","town_kana":"モロタケ","prefecture_code":7},"1534":{"zip_code":"9791534","prefecture":"福島県","prefecture_kana":"フクシマケン","city":"双葉郡浪江町","city_kana":"フタバグンナミエマチ","town":"谷津田","town_kana":"ヤツダ","prefecture_code":7},"1600":{"zip_code":"9791600","prefecture":"福島県","prefecture_kana":"フクシマケン","city":"双葉郡葛尾村","city_kana":"フタバグンカツラオムラ","town":"以下に掲載がない場合","town_kana":"イカニケイサイガナイバアイ","prefecture_code":7},"1602":{"zip_code":"9791602","prefecture":"福島県","prefecture_kana":"フクシマケン","city":"双葉郡葛尾村","city_kana":"フタバグンカツラオムラ","town":"落合","town_kana":"オチアイ","prefecture_code":7},"1601":{"zip_code":"9791601","prefecture":"福島県","prefecture_kana":"フクシマケン","city":"双葉郡葛尾村","city_kana":"フタバグンカツラオムラ","town":"葛尾","town_kana":"カツラオ","prefecture_code":7},"1604":{"zip_code":"9791604","prefecture":"福島県","prefecture_kana":"フクシマケン","city":"双葉郡葛尾村","city_kana":"フタバグンカツラオムラ","town":"上野川","town_kana":"カミノガワ","prefecture_code":7},"1603":{"zip_code":"9791603","prefecture":"福島県","prefecture_kana":"フクシマケン","city":"双葉郡葛尾村","city_kana":"フタバグンカツラオムラ","town":"野川","town_kana":"ノガワ","prefecture_code":7},"2700":{"zip_code":"9792700","prefecture":"福島県","prefecture_kana":"フクシマケン","city":"相馬郡新地町","city_kana":"ソウマグンシンチマチ","town":"以下に掲載がない場合","town_kana":"イカニケイサイガナイバアイ","prefecture_code":7},"2705":{"zip_code":"9792705","prefecture":"福島県","prefecture_kana":"フクシマケン","city":"相馬郡新地町","city_kana":"ソウマグンシンチマチ","town":"今泉","town_kana":"イマイズミ","prefecture_code":7},"2704":{"zip_code":"9792704","prefecture":"福島県","prefecture_kana":"フクシマケン","city":"相馬郡新地町","city_kana":"ソウマグンシンチマチ","town":"大戸浜","town_kana":"オオドハマ","prefecture_code":7},"2703":{"zip_code":"9792703","prefecture":"福島県","prefecture_kana":"フクシマケン","city":"相馬郡新地町","city_kana":"ソウマグンシンチマチ","town":"小川","town_kana":"オガワ","prefecture_code":7},"2611":{"zip_code":"9792611","prefecture":"福島県","prefecture_kana":"フクシマケン","city":"相馬郡新地町","city_kana":"ソウマグンシンチマチ","town":"駒ケ嶺","town_kana":"コマガミネ","prefecture_code":7},"2706":{"zip_code":"9792706","prefecture":"福島県","prefecture_kana":"フクシマケン","city":"相馬郡新地町","city_kana":"ソウマグンシンチマチ","town":"杉目","town_kana":"スギノメ","prefecture_code":7},"2708":{"zip_code":"9792708","prefecture":"福島県","prefecture_kana":"フクシマケン","city":"相馬郡新地町","city_kana":"ソウマグンシンチマチ","town":"福田","town_kana":"フクダ","prefecture_code":7},"2707":{"zip_code":"9792707","prefecture":"福島県","prefecture_kana":"フクシマケン","city":"相馬郡新地町","city_kana":"ソウマグンシンチマチ","town":"真弓","town_kana":"マユミ","prefecture_code":7},"2702":{"zip_code":"9792702","prefecture":"福島県","prefecture_kana":"フクシマケン","city":"相馬郡新地町","city_kana":"ソウマグンシンチマチ","town":"谷地小屋","town_kana":"ヤチゴヤ","prefecture_code":7},"2701":{"zip_code":"9792701","prefecture":"福島県","prefecture_kana":"フクシマケン","city":"相馬郡新地町","city_kana":"ソウマグンシンチマチ","town":"埓木崎","town_kana":"ラチキザキ","prefecture_code":7}}