{"0916":{"zip_code":"9810916","prefecture":"宮城県","prefecture_kana":"ミヤギケン","city":"仙台市青葉区","city_kana":"センダイシアオバク","town":"青葉町","town_kana":"アオバマチ","prefecture_code":4},"0963":{"zip_code":"9810963","prefecture":"宮城県","prefecture_kana":"ミヤギケン","city":"仙台市青葉区","city_kana":"センダイシアオバク","town":"あけぼの町","town_kana":"アケボノマチ","prefecture_code":4},"0904":{"zip_code":"9810904","prefecture":"宮城県","prefecture_kana":"ミヤギケン","city":"仙台市青葉区","city_kana":"センダイシアオバク","town":"旭ケ丘","town_kana":"アサヒガオカ","prefecture_code":4},"0945":[{"zip_code":"9810945","prefecture":"宮城県","prefecture_kana":"ミヤギケン","city":"仙台市青葉区","city_kana":"センダイシアオバク","town":"荒巻西雷神","town_kana":"アラマキニシライジン","prefecture_code":4},{"zip_code":"9810945","prefecture":"宮城県","prefecture_kana":"ミヤギケン","city":"仙台市青葉区","city_kana":"センダイシアオバク","town":"荒巻仁田谷地","town_kana":"アラマキニタヤチ","prefecture_code":4},{"zip_code":"9810945","prefecture":"宮城県","prefecture_kana":"ミヤギケン","city":"仙台市青葉区","city_kana":"センダイシアオバク","town":"荒巻坊主門","town_kana":"アラマキボウズモン","prefecture_code":4}],"0965":{"zip_code":"9810965","prefecture":"宮城県","prefecture_kana":"ミヤギケン","city":"仙台市青葉区","city_kana":"センダイシアオバク","town":"荒巻神明町","town_kana":"アラマキシンメイマチ","prefecture_code":4},"0964":{"zip_code":"9810964","prefecture":"宮城県","prefecture_kana":"ミヤギケン","city":"仙台市青葉区","city_kana":"センダイシアオバク","town":"荒巻中央","town_kana":"アラマキチュウオウ","prefecture_code":4},"0966":{"zip_code":"9810966","prefecture":"宮城県","prefecture_kana":"ミヤギケン","city":"仙台市青葉区","city_kana":"センダイシアオバク","town":"荒巻本沢","town_kana":"アラマキホンザワ","prefecture_code":4},"0942":{"zip_code":"9810942","prefecture":"宮城県","prefecture_kana":"ミヤギケン","city":"仙台市青葉区","city_kana":"センダイシアオバク","town":"貝ケ森","town_kana":"カイガモリ","prefecture_code":4},"0933":{"zip_code":"9810933","prefecture":"宮城県","prefecture_kana":"ミヤギケン","city":"仙台市青葉区","city_kana":"センダイシアオバク","town":"柏木","town_kana":"カシワギ","prefecture_code":4},"0954":{"zip_code":"9810954","prefecture":"宮城県","prefecture_kana":"ミヤギケン","city":"仙台市青葉区","city_kana":"センダイシアオバク","town":"川平","town_kana":"カワダイラ","prefecture_code":4},"0941":{"zip_code":"9810941","prefecture":"宮城県","prefecture_kana":"ミヤギケン","city":"仙台市青葉区","city_kana":"センダイシアオバク","town":"菊田町","town_kana":"キクタマチ","prefecture_code":4},"0902":{"zip_code":"9810902","prefecture":"宮城県","prefecture_kana":"ミヤギケン","city":"仙台市青葉区","city_kana":"センダイシアオバク","town":"北根","town_kana":"キタネ","prefecture_code":4},"0901":{"zip_code":"9810901","prefecture":"宮城県","prefecture_kana":"ミヤギケン","city":"仙台市青葉区","city_kana":"センダイシアオバク","town":"北根黒松","town_kana":"キタネクロマツ","prefecture_code":4},"0931":{"zip_code":"9810931","prefecture":"宮城県","prefecture_kana":"ミヤギケン","city":"仙台市青葉区","city_kana":"センダイシアオバク","town":"北山","town_kana":"キタヤマ","prefecture_code":4},"0932":{"zip_code":"9810932","prefecture":"宮城県","prefecture_kana":"ミヤギケン","city":"仙台市青葉区","city_kana":"センダイシアオバク","town":"木町","town_kana":"キマチ","prefecture_code":4},"0943":{"zip_code":"9810943","prefecture":"宮城県","prefecture_kana":"ミヤギケン","city":"仙台市青葉区","city_kana":"センダイシアオバク","town":"国見","town_kana":"クニミ","prefecture_code":4},"0905":{"zip_code":"9810905","prefecture":"宮城県","prefecture_kana":"ミヤギケン","city":"仙台市青葉区","city_kana":"センダイシアオバク","town":"小松島","town_kana":"コマツシマ","prefecture_code":4},"0906":{"zip_code":"9810906","prefecture":"宮城県","prefecture_kana":"ミヤギケン","city":"仙台市青葉区","city_kana":"センダイシアオバク","town":"小松島新堤","town_kana":"コマツシマシンツツミ","prefecture_code":4},"0922":{"zip_code":"9810922","prefecture":"宮城県","prefecture_kana":"ミヤギケン","city":"仙台市青葉区","city_kana":"センダイシアオバク","town":"鷺ケ森","town_kana":"サギガモリ","prefecture_code":4},"0961":{"zip_code":"9810961","prefecture":"宮城県","prefecture_kana":"ミヤギケン","city":"仙台市青葉区","city_kana":"センダイシアオバク","town":"桜ケ丘","town_kana":"サクラガオカ","prefecture_code":4},"0935":{"zip_code":"9810935","prefecture":"宮城県","prefecture_kana":"ミヤギケン","city":"仙台市青葉区","city_kana":"センダイシアオバク","town":"三条町","town_kana":"サンジョウマチ","prefecture_code":4},"0944":{"zip_code":"9810944","prefecture":"宮城県","prefecture_kana":"ミヤギケン","city":"仙台市青葉区","city_kana":"センダイシアオバク","town":"子平町","town_kana":"シヘイマチ","prefecture_code":4},"0913":{"zip_code":"9810913","prefecture":"宮城県","prefecture_kana":"ミヤギケン","city":"仙台市青葉区","city_kana":"センダイシアオバク","town":"昭和町","town_kana":"ショウワマチ","prefecture_code":4},"0911":{"zip_code":"9810911","prefecture":"宮城県","prefecture_kana":"ミヤギケン","city":"仙台市青葉区","city_kana":"センダイシアオバク","town":"台原","town_kana":"ダイノハラ","prefecture_code":4},"0903":{"zip_code":"9810903","prefecture":"宮城県","prefecture_kana":"ミヤギケン","city":"仙台市青葉区","city_kana":"センダイシアオバク","town":"台原森林公園","town_kana":"ダイノハラシンリンコウエン","prefecture_code":4},"0907":{"zip_code":"9810907","prefecture":"宮城県","prefecture_kana":"ミヤギケン","city":"仙台市青葉区","city_kana":"センダイシアオバク","town":"高松","town_kana":"タカマツ","prefecture_code":4},"0951":{"zip_code":"9810951","prefecture":"宮城県","prefecture_kana":"ミヤギケン","city":"仙台市青葉区","city_kana":"センダイシアオバク","town":"滝道","town_kana":"タキミチ","prefecture_code":4},"0936":{"zip_code":"9810936","prefecture":"宮城県","prefecture_kana":"ミヤギケン","city":"仙台市青葉区","city_kana":"センダイシアオバク","town":"千代田町","town_kana":"チヨダマチ","prefecture_code":4},"0914":{"zip_code":"9810914","prefecture":"宮城県","prefecture_kana":"ミヤギケン","city":"仙台市青葉区","city_kana":"センダイシアオバク","town":"堤通雨宮町","town_kana":"ツツミドオリアマミヤマチ","prefecture_code":4},"0912":{"zip_code":"9810912","prefecture":"宮城県","prefecture_kana":"ミヤギケン","city":"仙台市青葉区","city_kana":"センダイシアオバク","town":"堤町","town_kana":"ツツミマチ","prefecture_code":4},"0908":{"zip_code":"9810908","prefecture":"宮城県","prefecture_kana":"ミヤギケン","city":"仙台市青葉区","city_kana":"センダイシアオバク","town":"東照宮","town_kana":"トウショウグウ","prefecture_code":4},"0915":{"zip_code":"9810915","prefecture":"宮城県","prefecture_kana":"ミヤギケン","city":"仙台市青葉区","city_kana":"センダイシアオバク","town":"通町","town_kana":"トオリチョウ","prefecture_code":4},"0952":{"zip_code":"9810952","prefecture":"宮城県","prefecture_kana":"ミヤギケン","city":"仙台市青葉区","city_kana":"センダイシアオバク","town":"中山","town_kana":"ナカヤマ","prefecture_code":4},"0934":{"zip_code":"9810934","prefecture":"宮城県","prefecture_kana":"ミヤギケン","city":"仙台市青葉区","city_kana":"センダイシアオバク","town":"新坂町","town_kana":"ニイザカマチ","prefecture_code":4},"0953":{"zip_code":"9810953","prefecture":"宮城県","prefecture_kana":"ミヤギケン","city":"仙台市青葉区","city_kana":"センダイシアオバク","town":"西勝山","town_kana":"ニシカツヤマ","prefecture_code":4},"0917":{"zip_code":"9810917","prefecture":"宮城県","prefecture_kana":"ミヤギケン","city":"仙台市青葉区","city_kana":"センダイシアオバク","town":"葉山町","town_kana":"ハヤママチ","prefecture_code":4},"0923":{"zip_code":"9810923","prefecture":"宮城県","prefecture_kana":"ミヤギケン","city":"仙台市青葉区","city_kana":"センダイシアオバク","town":"東勝山","town_kana":"ヒガシカツヤマ","prefecture_code":4},"0921":{"zip_code":"9810921","prefecture":"宮城県","prefecture_kana":"ミヤギケン","city":"仙台市青葉区","city_kana":"センダイシアオバク","town":"藤松","town_kana":"フジマツ","prefecture_code":4},"0924":{"zip_code":"9810924","prefecture":"宮城県","prefecture_kana":"ミヤギケン","city":"仙台市青葉区","city_kana":"センダイシアオバク","town":"双葉ケ丘","town_kana":"フタバガオカ","prefecture_code":4},"0962":{"zip_code":"9810962","prefecture":"宮城県","prefecture_kana":"ミヤギケン","city":"仙台市青葉区","city_kana":"センダイシアオバク","town":"水の森","town_kana":"ミズノモリ","prefecture_code":4},"0967":{"zip_code":"9810967","prefecture":"宮城県","prefecture_kana":"ミヤギケン","city":"仙台市青葉区","city_kana":"センダイシアオバク","town":"山手町","town_kana":"ヤマテマチ","prefecture_code":4},"1101":{"zip_code":"9811101","prefecture":"宮城県","prefecture_kana":"ミヤギケン","city":"仙台市太白区","city_kana":"センダイシタイハクク","town":"四郎丸","town_kana":"シロウマル","prefecture_code":4},"1104":{"zip_code":"9811104","prefecture":"宮城県","prefecture_kana":"ミヤギケン","city":"仙台市太白区","city_kana":"センダイシタイハクク","town":"中田","town_kana":"ナカダ","prefecture_code":4},"1103":{"zip_code":"9811103","prefecture":"宮城県","prefecture_kana":"ミヤギケン","city":"仙台市太白区","city_kana":"センダイシタイハクク","town":"中田町","town_kana":"ナカダマチ","prefecture_code":4},"1105":{"zip_code":"9811105","prefecture":"宮城県","prefecture_kana":"ミヤギケン","city":"仙台市太白区","city_kana":"センダイシタイハクク","town":"西中田","town_kana":"ニシナカダ","prefecture_code":4},"1107":{"zip_code":"9811107","prefecture":"宮城県","prefecture_kana":"ミヤギケン","city":"仙台市太白区","city_kana":"センダイシタイハクク","town":"東中田","town_kana":"ヒガシナカダ","prefecture_code":4},"1102":{"zip_code":"9811102","prefecture":"宮城県","prefecture_kana":"ミヤギケン","city":"仙台市太白区","city_kana":"センダイシタイハクク","town":"袋原","town_kana":"フクロバラ","prefecture_code":4},"1106":{"zip_code":"9811106","prefecture":"宮城県","prefecture_kana":"ミヤギケン","city":"仙台市太白区","city_kana":"センダイシタイハクク","town":"柳生","town_kana":"ヤナギウ","prefecture_code":4},"3100":{"zip_code":"9813100","prefecture":"宮城県","prefecture_kana":"ミヤギケン","city":"仙台市泉区","city_kana":"センダイシイズミク","town":"","town_kana":"","prefecture_code":4},"3115":{"zip_code":"9813115","prefecture":"宮城県","prefecture_kana":"ミヤギケン","city":"仙台市泉区","city_kana":"センダイシイズミク","town":"愛隣町","town_kana":"アイリンチョウ","prefecture_code":4},"3101":{"zip_code":"9813101","prefecture":"宮城県","prefecture_kana":"ミヤギケン","city":"仙台市泉区","city_kana":"センダイシイズミク","town":"明石南","town_kana":"アカイシミナミ","prefecture_code":4},"3206":{"zip_code":"9813206","prefecture":"宮城県","prefecture_kana":"ミヤギケン","city":"仙台市泉区","city_kana":"センダイシイズミク","town":"明通","town_kana":"アケドオリ","prefecture_code":4},"8004":{"zip_code":"9818004","prefecture":"宮城県","prefecture_kana":"ミヤギケン","city":"仙台市泉区","city_kana":"センダイシイズミク","town":"旭丘堤","town_kana":"アサヒガオカツツミ","prefecture_code":4},"3201":{"zip_code":"9813201","prefecture":"宮城県","prefecture_kana":"ミヤギケン","city":"仙台市泉区","city_kana":"センダイシイズミク","town":"泉ケ丘","town_kana":"イズミガオカ","prefecture_code":4},"3133":{"zip_code":"9813133","prefecture":"宮城県","prefecture_kana":"ミヤギケン","city":"仙台市泉区","city_kana":"センダイシイズミク","town":"泉中央","town_kana":"イズミチュウオウ","prefecture_code":4},"3117":{"zip_code":"9813117","prefecture":"宮城県","prefecture_kana":"ミヤギケン","city":"仙台市泉区","city_kana":"センダイシイズミク","town":"市名坂","town_kana":"イチナザカ","prefecture_code":4},"3104":{"zip_code":"9813104","prefecture":"宮城県","prefecture_kana":"ミヤギケン","city":"仙台市泉区","city_kana":"センダイシイズミク","town":"永和台","town_kana":"エイワダイ","prefecture_code":4},"3137":{"zip_code":"9813137","prefecture":"宮城県","prefecture_kana":"ミヤギケン","city":"仙台市泉区","city_kana":"センダイシイズミク","town":"大沢","town_kana":"オオサワ","prefecture_code":4},"3216":{"zip_code":"9813216","prefecture":"宮城県","prefecture_kana":"ミヤギケン","city":"仙台市泉区","city_kana":"センダイシイズミク","town":"小角","town_kana":"オガク","prefecture_code":4},"3134":{"zip_code":"9813134","prefecture":"宮城県","prefecture_kana":"ミヤギケン","city":"仙台市泉区","city_kana":"センダイシイズミク","town":"桂","town_kana":"カツラ","prefecture_code":4},"3121":{"zip_code":"9813121","prefecture":"宮城県","prefecture_kana":"ミヤギケン","city":"仙台市泉区","city_kana":"センダイシイズミク","town":"上谷刈","town_kana":"カミヤガリ","prefecture_code":4},"3122":{"zip_code":"9813122","prefecture":"宮城県","prefecture_kana":"ミヤギケン","city":"仙台市泉区","city_kana":"センダイシイズミク","town":"加茂","town_kana":"カモ","prefecture_code":4},"3202":{"zip_code":"9813202","prefecture":"宮城県","prefecture_kana":"ミヤギケン","city":"仙台市泉区","city_kana":"センダイシイズミク","town":"北高森","town_kana":"キタタカモリ","prefecture_code":4},"3215":{"zip_code":"9813215","prefecture":"宮城県","prefecture_kana":"ミヤギケン","city":"仙台市泉区","city_kana":"センダイシイズミク","town":"北中山","town_kana":"キタナカヤマ","prefecture_code":4},"8006":{"zip_code":"9818006","prefecture":"宮城県","prefecture_kana":"ミヤギケン","city":"仙台市泉区","city_kana":"センダイシイズミク","town":"黒松","town_kana":"クロマツ","prefecture_code":4},"3102":{"zip_code":"9813102","prefecture":"宮城県","prefecture_kana":"ミヤギケン","city":"仙台市泉区","city_kana":"センダイシイズミク","town":"向陽台","town_kana":"コウヨウダイ","prefecture_code":4},"3217":{"zip_code":"9813217","prefecture":"宮城県","prefecture_kana":"ミヤギケン","city":"仙台市泉区","city_kana":"センダイシイズミク","town":"実沢","town_kana":"サネザワ","prefecture_code":4},"3132":{"zip_code":"9813132","prefecture":"宮城県","prefecture_kana":"ミヤギケン","city":"仙台市泉区","city_kana":"センダイシイズミク","town":"将監","town_kana":"ショウゲン","prefecture_code":4},"3136":{"zip_code":"9813136","prefecture":"宮城県","prefecture_kana":"ミヤギケン","city":"仙台市泉区","city_kana":"センダイシイズミク","town":"将監殿","town_kana":"ショウゲントノ","prefecture_code":4},"3108":{"zip_code":"9813108","prefecture":"宮城県","prefecture_kana":"ミヤギケン","city":"仙台市泉区","city_kana":"センダイシイズミク","town":"松陵","town_kana":"ショウリョウ","prefecture_code":4},"3222":{"zip_code":"9813222","prefecture":"宮城県","prefecture_kana":"ミヤギケン","city":"仙台市泉区","city_kana":"センダイシイズミク","town":"住吉台東","town_kana":"スミヨシダイヒガシ","prefecture_code":4},"3223":{"zip_code":"9813223","prefecture":"宮城県","prefecture_kana":"ミヤギケン","city":"仙台市泉区","city_kana":"センダイシイズミク","town":"住吉台西","town_kana":"スミヨシダイニシ","prefecture_code":4},"3116":{"zip_code":"9813116","prefecture":"宮城県","prefecture_kana":"ミヤギケン","city":"仙台市泉区","city_kana":"センダイシイズミク","town":"高玉町","town_kana":"タカダマチョウ","prefecture_code":4},"3203":{"zip_code":"9813203","prefecture":"宮城県","prefecture_kana":"ミヤギケン","city":"仙台市泉区","city_kana":"センダイシイズミク","town":"高森","town_kana":"タカモリ","prefecture_code":4},"3212":{"zip_code":"9813212","prefecture":"宮城県","prefecture_kana":"ミヤギケン","city":"仙台市泉区","city_kana":"センダイシイズミク","town":"長命ケ丘","town_kana":"チョウメイガオカ","prefecture_code":4},"3211":{"zip_code":"9813211","prefecture":"宮城県","prefecture_kana":"ミヤギケン","city":"仙台市泉区","city_kana":"センダイシイズミク","town":"長命ケ丘東","town_kana":"チョウメイガオカヒガシ","prefecture_code":4},"3109":{"zip_code":"9813109","prefecture":"宮城県","prefecture_kana":"ミヤギケン","city":"仙台市泉区","city_kana":"センダイシイズミク","town":"鶴が丘","town_kana":"ツルガオカ","prefecture_code":4},"3204":{"zip_code":"9813204","prefecture":"宮城県","prefecture_kana":"ミヤギケン","city":"仙台市泉区","city_kana":"センダイシイズミク","town":"寺岡","town_kana":"テラオカ","prefecture_code":4},"3105":{"zip_code":"9813105","prefecture":"宮城県","prefecture_kana":"ミヤギケン","city":"仙台市泉区","city_kana":"センダイシイズミク","town":"天神沢","town_kana":"テンジンザワ","prefecture_code":4},"3131":{"zip_code":"9813131","prefecture":"宮城県","prefecture_kana":"ミヤギケン","city":"仙台市泉区","city_kana":"センダイシイズミク","town":"七北田","town_kana":"ナナキタ","prefecture_code":4},"8003":{"zip_code":"9818003","prefecture":"宮城県","prefecture_kana":"ミヤギケン","city":"仙台市泉区","city_kana":"センダイシイズミク","town":"南光台","town_kana":"ナンコウダイ","prefecture_code":4},"8001":{"zip_code":"9818001","prefecture":"宮城県","prefecture_kana":"ミヤギケン","city":"仙台市泉区","city_kana":"センダイシイズミク","town":"南光台東","town_kana":"ナンコウダイヒガシ","prefecture_code":4},"8002":{"zip_code":"9818002","prefecture":"宮城県","prefecture_kana":"ミヤギケン","city":"仙台市泉区","city_kana":"センダイシイズミク","town":"南光台南","town_kana":"ナンコウダイミナミ","prefecture_code":4},"3224":{"zip_code":"9813224","prefecture":"宮城県","prefecture_kana":"ミヤギケン","city":"仙台市泉区","city_kana":"センダイシイズミク","town":"西田中","town_kana":"ニシタナカ","prefecture_code":4},"8007":{"zip_code":"9818007","prefecture":"宮城県","prefecture_kana":"ミヤギケン","city":"仙台市泉区","city_kana":"センダイシイズミク","town":"虹の丘","town_kana":"ニジノオカ","prefecture_code":4},"3221":{"zip_code":"9813221","prefecture":"宮城県","prefecture_kana":"ミヤギケン","city":"仙台市泉区","city_kana":"センダイシイズミク","town":"根白石","town_kana":"ネノシロイシ","prefecture_code":4},"3124":{"zip_code":"9813124","prefecture":"宮城県","prefecture_kana":"ミヤギケン","city":"仙台市泉区","city_kana":"センダイシイズミク","town":"野村","town_kana":"ノムラ","prefecture_code":4},"8005":{"zip_code":"9818005","prefecture":"宮城県","prefecture_kana":"ミヤギケン","city":"仙台市泉区","city_kana":"センダイシイズミク","town":"東黒松","town_kana":"ヒガシクロマツ","prefecture_code":4},"3225":{"zip_code":"9813225","prefecture":"宮城県","prefecture_kana":"ミヤギケン","city":"仙台市泉区","city_kana":"センダイシイズミク","town":"福岡","town_kana":"フクオカ","prefecture_code":4},"3123":{"zip_code":"9813123","prefecture":"宮城県","prefecture_kana":"ミヤギケン","city":"仙台市泉区","city_kana":"センダイシイズミク","town":"古内","town_kana":"フルウチ","prefecture_code":4},"3226":{"zip_code":"9813226","prefecture":"宮城県","prefecture_kana":"ミヤギケン","city":"仙台市泉区","city_kana":"センダイシイズミク","town":"朴沢","town_kana":"ホウザワ","prefecture_code":4},"3106":{"zip_code":"9813106","prefecture":"宮城県","prefecture_kana":"ミヤギケン","city":"仙台市泉区","city_kana":"センダイシイズミク","town":"歩坂町","town_kana":"ホサカチョウ","prefecture_code":4},"3107":{"zip_code":"9813107","prefecture":"宮城県","prefecture_kana":"ミヤギケン","city":"仙台市泉区","city_kana":"センダイシイズミク","town":"本田町","town_kana":"ホンダチョウ","prefecture_code":4},"3111":{"zip_code":"9813111","prefecture":"宮城県","prefecture_kana":"ミヤギケン","city":"仙台市泉区","city_kana":"センダイシイズミク","town":"松森","town_kana":"マツモリ","prefecture_code":4},"3113":{"zip_code":"9813113","prefecture":"宮城県","prefecture_kana":"ミヤギケン","city":"仙台市泉区","city_kana":"センダイシイズミク","town":"真美沢","town_kana":"マミサワ","prefecture_code":4},"3125":{"zip_code":"9813125","prefecture":"宮城県","prefecture_kana":"ミヤギケン","city":"仙台市泉区","city_kana":"センダイシイズミク","town":"みずほ台","town_kana":"ミズホダイ","prefecture_code":4},"3213":{"zip_code":"9813213","prefecture":"宮城県","prefecture_kana":"ミヤギケン","city":"仙台市泉区","city_kana":"センダイシイズミク","town":"南中山","town_kana":"ミナミナカヤマ","prefecture_code":4},"3205":{"zip_code":"9813205","prefecture":"宮城県","prefecture_kana":"ミヤギケン","city":"仙台市泉区","city_kana":"センダイシイズミク","town":"紫山","town_kana":"ムラサキヤマ","prefecture_code":4},"3112":{"zip_code":"9813112","prefecture":"宮城県","prefecture_kana":"ミヤギケン","city":"仙台市泉区","city_kana":"センダイシイズミク","town":"八乙女","town_kana":"ヤオトメ","prefecture_code":4},"3135":{"zip_code":"9813135","prefecture":"宮城県","prefecture_kana":"ミヤギケン","city":"仙台市泉区","city_kana":"センダイシイズミク","town":"八乙女中央","town_kana":"ヤオトメチュウオウ","prefecture_code":4},"3214":{"zip_code":"9813214","prefecture":"宮城県","prefecture_kana":"ミヤギケン","city":"仙台市泉区","city_kana":"センダイシイズミク","town":"館","town_kana":"ヤカタ","prefecture_code":4},"3103":{"zip_code":"9813103","prefecture":"宮城県","prefecture_kana":"ミヤギケン","city":"仙台市泉区","city_kana":"センダイシイズミク","town":"山の寺","town_kana":"ヤマノテラ","prefecture_code":4},"3114":{"zip_code":"9813114","prefecture":"宮城県","prefecture_kana":"ミヤギケン","city":"仙台市泉区","city_kana":"センダイシイズミク","town":"友愛町","town_kana":"ユウアイチョウ","prefecture_code":4},"1200":{"zip_code":"9811200","prefecture":"宮城県","prefecture_kana":"ミヤギケン","city":"名取市","city_kana":"ナトリシ","town":"","town_kana":"","prefecture_code":4},"1230":{"zip_code":"9811230","prefecture":"宮城県","prefecture_kana":"ミヤギケン","city":"名取市","city_kana":"ナトリシ","town":"愛の杜","town_kana":"アイノモリ","prefecture_code":4},"1225":{"zip_code":"9811225","prefecture":"宮城県","prefecture_kana":"ミヤギケン","city":"名取市","city_kana":"ナトリシ","town":"飯野坂","town_kana":"イイノザカ","prefecture_code":4},"1226":{"zip_code":"9811226","prefecture":"宮城県","prefecture_kana":"ミヤギケン","city":"名取市","city_kana":"ナトリシ","town":"植松","town_kana":"ウエマツ","prefecture_code":4},"1215":{"zip_code":"9811215","prefecture":"宮城県","prefecture_kana":"ミヤギケン","city":"名取市","city_kana":"ナトリシ","town":"牛野","town_kana":"ウシノ","prefecture_code":4},"1232":{"zip_code":"9811232","prefecture":"宮城県","prefecture_kana":"ミヤギケン","city":"名取市","city_kana":"ナトリシ","town":"大手町","town_kana":"オオテマチ","prefecture_code":4},"1216":{"zip_code":"9811216","prefecture":"宮城県","prefecture_kana":"ミヤギケン","city":"名取市","city_kana":"ナトリシ","town":"大曲","town_kana":"オオマガリ","prefecture_code":4},"1233":{"zip_code":"9811233","prefecture":"宮城県","prefecture_kana":"ミヤギケン","city":"名取市","city_kana":"ナトリシ","town":"小山","town_kana":"オヤマ","prefecture_code":4},"1222":{"zip_code":"9811222","prefecture":"宮城県","prefecture_kana":"ミヤギケン","city":"名取市","city_kana":"ナトリシ","town":"上余田","town_kana":"カミヨウデン","prefecture_code":4},"1212":{"zip_code":"9811212","prefecture":"宮城県","prefecture_kana":"ミヤギケン","city":"名取市","city_kana":"ナトリシ","town":"小塚原","town_kana":"コヅカハラ","prefecture_code":4},"1201":{"zip_code":"9811201","prefecture":"宮城県","prefecture_kana":"ミヤギケン","city":"名取市","city_kana":"ナトリシ","town":"下増田","town_kana":"シモマスダ","prefecture_code":4},"1223":{"zip_code":"9811223","prefecture":"宮城県","prefecture_kana":"ミヤギケン","city":"名取市","city_kana":"ナトリシ","town":"下余田","town_kana":"シモヨウデン","prefecture_code":4},"1214":{"zip_code":"9811214","prefecture":"宮城県","prefecture_kana":"ミヤギケン","city":"名取市","city_kana":"ナトリシ","town":"杉ケ袋","town_kana":"スギガフクロ","prefecture_code":4},"1246":{"zip_code":"9811246","prefecture":"宮城県","prefecture_kana":"ミヤギケン","city":"名取市","city_kana":"ナトリシ","town":"相互台","town_kana":"ソウゴダイ","prefecture_code":4},"1248":{"zip_code":"9811248","prefecture":"宮城県","prefecture_kana":"ミヤギケン","city":"名取市","city_kana":"ナトリシ","town":"相互台東","town_kana":"ソウゴダイヒガシ","prefecture_code":4},"1243":{"zip_code":"9811243","prefecture":"宮城県","prefecture_kana":"ミヤギケン","city":"名取市","city_kana":"ナトリシ","town":"高舘川上","town_kana":"タカダテカワカミ","prefecture_code":4},"1241":{"zip_code":"9811241","prefecture":"宮城県","prefecture_kana":"ミヤギケン","city":"名取市","city_kana":"ナトリシ","town":"高舘熊野堂","town_kana":"タカダテクマノドウ","prefecture_code":4},"1242":{"zip_code":"9811242","prefecture":"宮城県","prefecture_kana":"ミヤギケン","city":"名取市","city_kana":"ナトリシ","town":"高舘吉田","town_kana":"タカダテヨシダ","prefecture_code":4},"1211":{"zip_code":"9811211","prefecture":"宮城県","prefecture_kana":"ミヤギケン","city":"名取市","city_kana":"ナトリシ","town":"高柳","town_kana":"タカヤナギ","prefecture_code":4},"1221":{"zip_code":"9811221","prefecture":"宮城県","prefecture_kana":"ミヤギケン","city":"名取市","city_kana":"ナトリシ","town":"田高","town_kana":"タコウ","prefecture_code":4},"1231":{"zip_code":"9811231","prefecture":"宮城県","prefecture_kana":"ミヤギケン","city":"名取市","city_kana":"ナトリシ","town":"手倉田","town_kana":"テクラダ","prefecture_code":4},"1244":{"zip_code":"9811244","prefecture":"宮城県","prefecture_kana":"ミヤギケン","city":"名取市","city_kana":"ナトリシ","town":"那智が丘","town_kana":"ナチガオカ","prefecture_code":4},"1235":{"zip_code":"9811235","prefecture":"宮城県","prefecture_kana":"ミヤギケン","city":"名取市","city_kana":"ナトリシ","town":"名取が丘","town_kana":"ナトリガオカ","prefecture_code":4},"1234":{"zip_code":"9811234","prefecture":"宮城県","prefecture_kana":"ミヤギケン","city":"名取市","city_kana":"ナトリシ","town":"箱塚","town_kana":"ハコヅカ","prefecture_code":4},"1224":{"zip_code":"9811224","prefecture":"宮城県","prefecture_kana":"ミヤギケン","city":"名取市","city_kana":"ナトリシ","town":"増田","town_kana":"マスダ","prefecture_code":4},"1217":{"zip_code":"9811217","prefecture":"宮城県","prefecture_kana":"ミヤギケン","city":"名取市","city_kana":"ナトリシ","town":"美田園","town_kana":"ミタゾノ","prefecture_code":4},"1247":{"zip_code":"9811247","prefecture":"宮城県","prefecture_kana":"ミヤギケン","city":"名取市","city_kana":"ナトリシ","town":"みどり台","town_kana":"ミドリダイ","prefecture_code":4},"1236":{"zip_code":"9811236","prefecture":"宮城県","prefecture_kana":"ミヤギケン","city":"名取市","city_kana":"ナトリシ","town":"愛島小豆島","town_kana":"メデシマアズキシマ","prefecture_code":4},"1238":{"zip_code":"9811238","prefecture":"宮城県","prefecture_kana":"ミヤギケン","city":"名取市","city_kana":"ナトリシ","town":"愛島笠島","town_kana":"メデシマカサシマ","prefecture_code":4},"1237":{"zip_code":"9811237","prefecture":"宮城県","prefecture_kana":"ミヤギケン","city":"名取市","city_kana":"ナトリシ","town":"愛島北目","town_kana":"メデシマキタメ","prefecture_code":4},"1239":{"zip_code":"9811239","prefecture":"宮城県","prefecture_kana":"ミヤギケン","city":"名取市","city_kana":"ナトリシ","town":"愛島塩手","town_kana":"メデシマシオテ","prefecture_code":4},"1251":{"zip_code":"9811251","prefecture":"宮城県","prefecture_kana":"ミヤギケン","city":"名取市","city_kana":"ナトリシ","town":"愛島台","town_kana":"メデシマダイ","prefecture_code":4},"1227":{"zip_code":"9811227","prefecture":"宮城県","prefecture_kana":"ミヤギケン","city":"名取市","city_kana":"ナトリシ","town":"杜せきのした","town_kana":"モリセキノシタ","prefecture_code":4},"1213":{"zip_code":"9811213","prefecture":"宮城県","prefecture_kana":"ミヤギケン","city":"名取市","city_kana":"ナトリシ","town":"閖上","town_kana":"ユリアゲ","prefecture_code":4},"1245":{"zip_code":"9811245","prefecture":"宮城県","prefecture_kana":"ミヤギケン","city":"名取市","city_kana":"ナトリシ","town":"ゆりが丘","town_kana":"ユリガオカ","prefecture_code":4},"1500":{"zip_code":"9811500","prefecture":"宮城県","prefecture_kana":"ミヤギケン","city":"角田市","city_kana":"カクダシ","town":"","town_kana":"","prefecture_code":4},"1518":{"zip_code":"9811518","prefecture":"宮城県","prefecture_kana":"ミヤギケン","city":"角田市","city_kana":"カクダシ","town":"稲置","town_kana":"イナオキ","prefecture_code":4},"1521":{"zip_code":"9811521","prefecture":"宮城県","prefecture_kana":"ミヤギケン","city":"角田市","city_kana":"カクダシ","town":"江尻","town_kana":"エジリ","prefecture_code":4},"1504":{"zip_code":"9811504","prefecture":"宮城県","prefecture_kana":"ミヤギケン","city":"角田市","city_kana":"カクダシ","town":"枝野","town_kana":"エダノ","prefecture_code":4},"1524":{"zip_code":"9811524","prefecture":"宮城県","prefecture_kana":"ミヤギケン","city":"角田市","city_kana":"カクダシ","town":"岡","town_kana":"オカ","prefecture_code":4},"1532":{"zip_code":"9811532","prefecture":"宮城県","prefecture_kana":"ミヤギケン","city":"角田市","city_kana":"カクダシ","town":"小坂","town_kana":"オサカ","prefecture_code":4},"1514":{"zip_code":"9811514","prefecture":"宮城県","prefecture_kana":"ミヤギケン","city":"角田市","city_kana":"カクダシ","town":"小田","town_kana":"オダ","prefecture_code":4},"1502":{"zip_code":"9811502","prefecture":"宮城県","prefecture_kana":"ミヤギケン","city":"角田市","city_kana":"カクダシ","town":"尾山","town_kana":"オヤマ","prefecture_code":4},"1505":{"zip_code":"9811505","prefecture":"宮城県","prefecture_kana":"ミヤギケン","city":"角田市","city_kana":"カクダシ","town":"角田","town_kana":"カクダ","prefecture_code":4},"1515":{"zip_code":"9811515","prefecture":"宮城県","prefecture_kana":"ミヤギケン","city":"角田市","city_kana":"カクダシ","town":"笠島","town_kana":"カサシマ","prefecture_code":4},"1523":{"zip_code":"9811523","prefecture":"宮城県","prefecture_kana":"ミヤギケン","city":"角田市","city_kana":"カクダシ","town":"梶賀","town_kana":"カジカ","prefecture_code":4},"1525":{"zip_code":"9811525","prefecture":"宮城県","prefecture_kana":"ミヤギケン","city":"角田市","city_kana":"カクダシ","town":"君萱","town_kana":"キミガヤ","prefecture_code":4},"1517":{"zip_code":"9811517","prefecture":"宮城県","prefecture_kana":"ミヤギケン","city":"角田市","city_kana":"カクダシ","town":"毛萱","town_kana":"ケガヤ","prefecture_code":4},"1534":{"zip_code":"9811534","prefecture":"宮城県","prefecture_kana":"ミヤギケン","city":"角田市","city_kana":"カクダシ","town":"坂津田","town_kana":"サカツタ","prefecture_code":4},"1522":{"zip_code":"9811522","prefecture":"宮城県","prefecture_kana":"ミヤギケン","city":"角田市","city_kana":"カクダシ","town":"佐倉","town_kana":"サクラ","prefecture_code":4},"1503":{"zip_code":"9811503","prefecture":"宮城県","prefecture_kana":"ミヤギケン","city":"角田市","city_kana":"カクダシ","town":"島田","town_kana":"シマダ","prefecture_code":4},"1526":{"zip_code":"9811526","prefecture":"宮城県","prefecture_kana":"ミヤギケン","city":"角田市","city_kana":"カクダシ","town":"神次郎","town_kana":"ジンジロウ","prefecture_code":4},"1516":{"zip_code":"9811516","prefecture":"宮城県","prefecture_kana":"ミヤギケン","city":"角田市","city_kana":"カクダシ","town":"高倉","town_kana":"タカクラ","prefecture_code":4},"1513":{"zip_code":"9811513","prefecture":"宮城県","prefecture_kana":"ミヤギケン","city":"角田市","city_kana":"カクダシ","town":"豊室","town_kana":"トヨムロ","prefecture_code":4},"1531":{"zip_code":"9811531","prefecture":"宮城県","prefecture_kana":"ミヤギケン","city":"角田市","city_kana":"カクダシ","town":"鳩原","town_kana":"ハトバラ","prefecture_code":4},"1511":{"zip_code":"9811511","prefecture":"宮城県","prefecture_kana":"ミヤギケン","city":"角田市","city_kana":"カクダシ","town":"花島","town_kana":"ハナシマ","prefecture_code":4},"1533":{"zip_code":"9811533","prefecture":"宮城県","prefecture_kana":"ミヤギケン","city":"角田市","city_kana":"カクダシ","town":"平貫","town_kana":"ヒラヌキ","prefecture_code":4},"1501":{"zip_code":"9811501","prefecture":"宮城県","prefecture_kana":"ミヤギケン","city":"角田市","city_kana":"カクダシ","town":"藤田","town_kana":"フジタ","prefecture_code":4},"1512":{"zip_code":"9811512","prefecture":"宮城県","prefecture_kana":"ミヤギケン","city":"角田市","city_kana":"カクダシ","town":"横倉","town_kana":"ヨコクラ","prefecture_code":4},"0500":{"zip_code":"9810500","prefecture":"宮城県","prefecture_kana":"ミヤギケン","city":"東松島市","city_kana":"ヒガシマツシマシ","town":"","town_kana":"","prefecture_code":4},"0501":{"zip_code":"9810501","prefecture":"宮城県","prefecture_kana":"ミヤギケン","city":"東松島市","city_kana":"ヒガシマツシマシ","town":"赤井","town_kana":"アカイ","prefecture_code":4},"0415":{"zip_code":"9810415","prefecture":"宮城県","prefecture_kana":"ミヤギケン","city":"東松島市","city_kana":"ヒガシマツシマシ","town":"浅井","town_kana":"アサイ","prefecture_code":4},"0301":{"zip_code":"9810301","prefecture":"宮城県","prefecture_kana":"ミヤギケン","city":"東松島市","city_kana":"ヒガシマツシマシ","town":"牛網","town_kana":"ウシアミ","prefecture_code":4},"0505":{"zip_code":"9810505","prefecture":"宮城県","prefecture_kana":"ミヤギケン","city":"東松島市","city_kana":"ヒガシマツシマシ","town":"大塩","town_kana":"オオシオ","prefecture_code":4},"0414":{"zip_code":"9810414","prefecture":"宮城県","prefecture_kana":"ミヤギケン","city":"東松島市","city_kana":"ヒガシマツシマシ","town":"大塚","town_kana":"オオツカ","prefecture_code":4},"0502":{"zip_code":"9810502","prefecture":"宮城県","prefecture_kana":"ミヤギケン","city":"東松島市","city_kana":"ヒガシマツシマシ","town":"大曲","town_kana":"オオマガリ","prefecture_code":4},"0303":{"zip_code":"9810303","prefecture":"宮城県","prefecture_kana":"ミヤギケン","city":"東松島市","city_kana":"ヒガシマツシマシ","town":"小野","town_kana":"オノ","prefecture_code":4},"0304":{"zip_code":"9810304","prefecture":"宮城県","prefecture_kana":"ミヤギケン","city":"東松島市","city_kana":"ヒガシマツシマシ","town":"川下","town_kana":"カワクダリ","prefecture_code":4},"0504":{"zip_code":"9810504","prefecture":"宮城県","prefecture_kana":"ミヤギケン","city":"東松島市","city_kana":"ヒガシマツシマシ","town":"小松","town_kana":"コマツ","prefecture_code":4},"0305":{"zip_code":"9810305","prefecture":"宮城県","prefecture_kana":"ミヤギケン","city":"東松島市","city_kana":"ヒガシマツシマシ","town":"上下堤","town_kana":"ジョウゲツツミ","prefecture_code":4},"0413":{"zip_code":"9810413","prefecture":"宮城県","prefecture_kana":"ミヤギケン","city":"東松島市","city_kana":"ヒガシマツシマシ","town":"新東名","town_kana":"シントウナ","prefecture_code":4},"0308":{"zip_code":"9810308","prefecture":"宮城県","prefecture_kana":"ミヤギケン","city":"東松島市","city_kana":"ヒガシマツシマシ","town":"高松","town_kana":"タカマツ","prefecture_code":4},"0306":{"zip_code":"9810306","prefecture":"宮城県","prefecture_kana":"ミヤギケン","city":"東松島市","city_kana":"ヒガシマツシマシ","town":"西福田","town_kana":"ニシフクダ","prefecture_code":4},"0307":{"zip_code":"9810307","prefecture":"宮城県","prefecture_kana":"ミヤギケン","city":"東松島市","city_kana":"ヒガシマツシマシ","town":"新田","town_kana":"ニツタ","prefecture_code":4},"0309":{"zip_code":"9810309","prefecture":"宮城県","prefecture_kana":"ミヤギケン","city":"東松島市","city_kana":"ヒガシマツシマシ","town":"根古","town_kana":"ネコ","prefecture_code":4},"0411":{"zip_code":"9810411","prefecture":"宮城県","prefecture_kana":"ミヤギケン","city":"東松島市","city_kana":"ヒガシマツシマシ","town":"野蒜","town_kana":"ノビル","prefecture_code":4},"0302":{"zip_code":"9810302","prefecture":"宮城県","prefecture_kana":"ミヤギケン","city":"東松島市","city_kana":"ヒガシマツシマシ","town":"浜市","town_kana":"ハマイチ","prefecture_code":4},"0412":{"zip_code":"9810412","prefecture":"宮城県","prefecture_kana":"ミヤギケン","city":"東松島市","city_kana":"ヒガシマツシマシ","town":"宮戸","town_kana":"ミヤト","prefecture_code":4},"0503":{"zip_code":"9810503","prefecture":"宮城県","prefecture_kana":"ミヤギケン","city":"東松島市","city_kana":"ヒガシマツシマシ","town":"矢本","town_kana":"ヤモト","prefecture_code":4},"2100":{"zip_code":"9812100","prefecture":"宮城県","prefecture_kana":"ミヤギケン","city":"伊具郡丸森町","city_kana":"イググンマルモリマチ","town":"","town_kana":"","prefecture_code":4},"2114":[{"zip_code":"9812114","prefecture":"宮城県","prefecture_kana":"ミヤギケン","city":"伊具郡丸森町","city_kana":"イググンマルモリマチ","town":"赤堀","town_kana":"アカボリ","prefecture_code":4},{"zip_code":"9812114","prefecture":"宮城県","prefecture_kana":"ミヤギケン","city":"伊具郡丸森町","city_kana":"イググンマルモリマチ","town":"泉","town_kana":"イズミ","prefecture_code":4},{"zip_code":"9812114","prefecture":"宮城県","prefecture_kana":"ミヤギケン","city":"伊具郡丸森町","city_kana":"イググンマルモリマチ","town":"泉下","town_kana":"イズミシタ","prefecture_code":4},{"zip_code":"9812114","prefecture":"宮城県","prefecture_kana":"ミヤギケン","city":"伊具郡丸森町","city_kana":"イググンマルモリマチ","town":"大目","town_kana":"オオメ","prefecture_code":4},{"zip_code":"9812114","prefecture":"宮城県","prefecture_kana":"ミヤギケン","city":"伊具郡丸森町","city_kana":"イググンマルモリマチ","town":"北前","town_kana":"キタマエ","prefecture_code":4},{"zip_code":"9812114","prefecture":"宮城県","prefecture_kana":"ミヤギケン","city":"伊具郡丸森町","city_kana":"イググンマルモリマチ","town":"天王","town_kana":"テンノウ","prefecture_code":4}],"2133":[{"zip_code":"9812133","prefecture":"宮城県","prefecture_kana":"ミヤギケン","city":"伊具郡丸森町","city_kana":"イググンマルモリマチ","town":"秋柴","town_kana":"アキシバ","prefecture_code":4},{"zip_code":"9812133","prefecture":"宮城県","prefecture_kana":"ミヤギケン","city":"伊具郡丸森町","city_kana":"イググンマルモリマチ","town":"四重麦一","town_kana":"ヨエムギ1","prefecture_code":4},{"zip_code":"9812133","prefecture":"宮城県","prefecture_kana":"ミヤギケン","city":"伊具郡丸森町","city_kana":"イググンマルモリマチ","town":"四重麦二","town_kana":"ヨエムギ2","prefecture_code":4},{"zip_code":"9812133","prefecture":"宮城県","prefecture_kana":"ミヤギケン","city":"伊具郡丸森町","city_kana":"イググンマルモリマチ","town":"四重麦三","town_kana":"ヨエムギ3","prefecture_code":4},{"zip_code":"9812133","prefecture":"宮城県","prefecture_kana":"ミヤギケン","city":"伊具郡丸森町","city_kana":"イググンマルモリマチ","town":"四重麦四","town_kana":"ヨエムギ4","prefecture_code":4},{"zip_code":"9812133","prefecture":"宮城県","prefecture_kana":"ミヤギケン","city":"伊具郡丸森町","city_kana":"イググンマルモリマチ","town":"四重麦五","town_kana":"ヨエムギ5","prefecture_code":4},{"zip_code":"9812133","prefecture":"宮城県","prefecture_kana":"ミヤギケン","city":"伊具郡丸森町","city_kana":"イググンマルモリマチ","town":"四重麦六","town_kana":"ヨエムギ6","prefecture_code":4},{"zip_code":"9812133","prefecture":"宮城県","prefecture_kana":"ミヤギケン","city":"伊具郡丸森町","city_kana":"イググンマルモリマチ","town":"四重麦七","town_kana":"ヨエムギ7","prefecture_code":4}],"2173":[{"zip_code":"9812173","prefecture":"宮城県","prefecture_kana":"ミヤギケン","city":"伊具郡丸森町","city_kana":"イググンマルモリマチ","town":"天炉","town_kana":"アマホド","prefecture_code":4},{"zip_code":"9812173","prefecture":"宮城県","prefecture_kana":"ミヤギケン","city":"伊具郡丸森町","city_kana":"イググンマルモリマチ","town":"船越","town_kana":"フナコシ","prefecture_code":4},{"zip_code":"9812173","prefecture":"宮城県","prefecture_kana":"ミヤギケン","city":"伊具郡丸森町","city_kana":"イググンマルモリマチ","town":"山田上","town_kana":"ヤマダカミ","prefecture_code":4},{"zip_code":"9812173","prefecture":"宮城県","prefecture_kana":"ミヤギケン","city":"伊具郡丸森町","city_kana":"イググンマルモリマチ","town":"山田下","town_kana":"ヤマダシモ","prefecture_code":4}],"2122":[{"zip_code":"9812122","prefecture":"宮城県","prefecture_kana":"ミヤギケン","city":"伊具郡丸森町","city_kana":"イググンマルモリマチ","town":"荒田","town_kana":"アラダ","prefecture_code":4},{"zip_code":"9812122","prefecture":"宮城県","prefecture_kana":"ミヤギケン","city":"伊具郡丸森町","city_kana":"イググンマルモリマチ","town":"福沢","town_kana":"フクザワ","prefecture_code":4},{"zip_code":"9812122","prefecture":"宮城県","prefecture_kana":"ミヤギケン","city":"伊具郡丸森町","city_kana":"イググンマルモリマチ","town":"福沢前","town_kana":"フクザワマエ","prefecture_code":4}],"2187":[{"zip_code":"9812187","prefecture":"宮城県","prefecture_kana":"ミヤギケン","city":"伊具郡丸森町","city_kana":"イググンマルモリマチ","town":"荒屋敷","town_kana":"アラヤシキ","prefecture_code":4},{"zip_code":"9812187","prefecture":"宮城県","prefecture_kana":"ミヤギケン","city":"伊具郡丸森町","city_kana":"イググンマルモリマチ","town":"大巻南","town_kana":"オオマキミナミ","prefecture_code":4},{"zip_code":"9812187","prefecture":"宮城県","prefecture_kana":"ミヤギケン","city":"伊具郡丸森町","city_kana":"イググンマルモリマチ","town":"大巻北","town_kana":"オオマキキタ","prefecture_code":4},{"zip_code":"9812187","prefecture":"宮城県","prefecture_kana":"ミヤギケン","city":"伊具郡丸森町","city_kana":"イググンマルモリマチ","town":"川原田","town_kana":"カワハラダ","prefecture_code":4},{"zip_code":"9812187","prefecture":"宮城県","prefecture_kana":"ミヤギケン","city":"伊具郡丸森町","city_kana":"イググンマルモリマチ","town":"川前","town_kana":"カワマエ","prefecture_code":4},{"zip_code":"9812187","prefecture":"宮城県","prefecture_kana":"ミヤギケン","city":"伊具郡丸森町","city_kana":"イググンマルモリマチ","town":"北原東","town_kana":"キタハラヒガシ","prefecture_code":4},{"zip_code":"9812187","prefecture":"宮城県","prefecture_kana":"ミヤギケン","city":"伊具郡丸森町","city_kana":"イググンマルモリマチ","town":"北原南","town_kana":"キタハラミナミ","prefecture_code":4},{"zip_code":"9812187","prefecture":"宮城県","prefecture_kana":"ミヤギケン","city":"伊具郡丸森町","city_kana":"イググンマルモリマチ","town":"袖五郎","town_kana":"ソデゴロウ","prefecture_code":4},{"zip_code":"9812187","prefecture":"宮城県","prefecture_kana":"ミヤギケン","city":"伊具郡丸森町","city_kana":"イググンマルモリマチ","town":"日照田","town_kana":"ヒデリダ","prefecture_code":4},{"zip_code":"9812187","prefecture":"宮城県","prefecture_kana":"ミヤギケン","city":"伊具郡丸森町","city_kana":"イググンマルモリマチ","town":"水沢","town_kana":"ミズサワ","prefecture_code":4}],"2142":[{"zip_code":"9812142","prefecture":"宮城県","prefecture_kana":"ミヤギケン","city":"伊具郡丸森町","city_kana":"イググンマルモリマチ","town":"飯泉","town_kana":"イイセン","prefecture_code":4},{"zip_code":"9812142","prefecture":"宮城県","prefecture_kana":"ミヤギケン","city":"伊具郡丸森町","city_kana":"イググンマルモリマチ","town":"飯塚","town_kana":"イイヅカ","prefecture_code":4},{"zip_code":"9812142","prefecture":"宮城県","prefecture_kana":"ミヤギケン","city":"伊具郡丸森町","city_kana":"イググンマルモリマチ","town":"飯塚下","town_kana":"イイヅカシモ","prefecture_code":4},{"zip_code":"9812142","prefecture":"宮城県","prefecture_kana":"ミヤギケン","city":"伊具郡丸森町","city_kana":"イググンマルモリマチ","town":"竹谷","town_kana":"タケヤ","prefecture_code":4},{"zip_code":"9812142","prefecture":"宮城県","prefecture_kana":"ミヤギケン","city":"伊具郡丸森町","city_kana":"イググンマルモリマチ","town":"垂松","town_kana":"タレマツ","prefecture_code":4},{"zip_code":"9812142","prefecture":"宮城県","prefecture_kana":"ミヤギケン","city":"伊具郡丸森町","city_kana":"イググンマルモリマチ","town":"日向","town_kana":"ヒナタ","prefecture_code":4},{"zip_code":"9812142","prefecture":"宮城県","prefecture_kana":"ミヤギケン","city":"伊具郡丸森町","city_kana":"イググンマルモリマチ","town":"日向上","town_kana":"ヒナタカミ","prefecture_code":4}],"2183":[{"zip_code":"9812183","prefecture":"宮城県","prefecture_kana":"ミヤギケン","city":"伊具郡丸森町","city_kana":"イググンマルモリマチ","town":"石釜","town_kana":"イシガマ","prefecture_code":4},{"zip_code":"9812183","prefecture":"宮城県","prefecture_kana":"ミヤギケン","city":"伊具郡丸森町","city_kana":"イググンマルモリマチ","town":"大高森","town_kana":"オオタカモリ","prefecture_code":4},{"zip_code":"9812183","prefecture":"宮城県","prefecture_kana":"ミヤギケン","city":"伊具郡丸森町","city_kana":"イググンマルモリマチ","town":"萱森","town_kana":"カヤモリ","prefecture_code":4},{"zip_code":"9812183","prefecture":"宮城県","prefecture_kana":"ミヤギケン","city":"伊具郡丸森町","city_kana":"イググンマルモリマチ","town":"塩ノ貝","town_kana":"シオノガイ","prefecture_code":4},{"zip_code":"9812183","prefecture":"宮城県","prefecture_kana":"ミヤギケン","city":"伊具郡丸森町","city_kana":"イググンマルモリマチ","town":"塩ノ貝後","town_kana":"シオノガイウシロ","prefecture_code":4},{"zip_code":"9812183","prefecture":"宮城県","prefecture_kana":"ミヤギケン","city":"伊具郡丸森町","city_kana":"イググンマルモリマチ","town":"空焼","town_kana":"ソラヤキ","prefecture_code":4},{"zip_code":"9812183","prefecture":"宮城県","prefecture_kana":"ミヤギケン","city":"伊具郡丸森町","city_kana":"イググンマルモリマチ","town":"角切","town_kana":"ツノキリ","prefecture_code":4},{"zip_code":"9812183","prefecture":"宮城県","prefecture_kana":"ミヤギケン","city":"伊具郡丸森町","city_kana":"イググンマルモリマチ","town":"鳥木","town_kana":"トリキ","prefecture_code":4},{"zip_code":"9812183","prefecture":"宮城県","prefecture_kana":"ミヤギケン","city":"伊具郡丸森町","city_kana":"イググンマルモリマチ","town":"屋敷","town_kana":"ヤシキ","prefecture_code":4},{"zip_code":"9812183","prefecture":"宮城県","prefecture_kana":"ミヤギケン","city":"伊具郡丸森町","city_kana":"イググンマルモリマチ","town":"屋敷前","town_kana":"ヤシキマエ","prefecture_code":4}],"2116":[{"zip_code":"9812116","prefecture":"宮城県","prefecture_kana":"ミヤギケン","city":"伊具郡丸森町","city_kana":"イググンマルモリマチ","town":"石倉","town_kana":"イシクラ","prefecture_code":4},{"zip_code":"9812116","prefecture":"宮城県","prefecture_kana":"ミヤギケン","city":"伊具郡丸森町","city_kana":"イググンマルモリマチ","town":"石倉前","town_kana":"イシクラマエ","prefecture_code":4},{"zip_code":"9812116","prefecture":"宮城県","prefecture_kana":"ミヤギケン","city":"伊具郡丸森町","city_kana":"イググンマルモリマチ","town":"石羽","town_kana":"イシパ","prefecture_code":4},{"zip_code":"9812116","prefecture":"宮城県","prefecture_kana":"ミヤギケン","city":"伊具郡丸森町","city_kana":"イググンマルモリマチ","town":"上滝東","town_kana":"カミダキヒガシ","prefecture_code":4},{"zip_code":"9812116","prefecture":"宮城県","prefecture_kana":"ミヤギケン","city":"伊具郡丸森町","city_kana":"イググンマルモリマチ","town":"上滝西","town_kana":"カミダキニシ","prefecture_code":4},{"zip_code":"9812116","prefecture":"宮城県","prefecture_kana":"ミヤギケン","city":"伊具郡丸森町","city_kana":"イググンマルモリマチ","town":"桜渕","town_kana":"サクラブチ","prefecture_code":4},{"zip_code":"9812116","prefecture":"宮城県","prefecture_kana":"ミヤギケン","city":"伊具郡丸森町","city_kana":"イググンマルモリマチ","town":"新田向","town_kana":"シンデンムカエ","prefecture_code":4},{"zip_code":"9812116","prefecture":"宮城県","prefecture_kana":"ミヤギケン","city":"伊具郡丸森町","city_kana":"イググンマルモリマチ","town":"新田東","town_kana":"シンデンヒガシ","prefecture_code":4},{"zip_code":"9812116","prefecture":"宮城県","prefecture_kana":"ミヤギケン","city":"伊具郡丸森町","city_kana":"イググンマルモリマチ","town":"新田西","town_kana":"シンデンニシ","prefecture_code":4},{"zip_code":"9812116","prefecture":"宮城県","prefecture_kana":"ミヤギケン","city":"伊具郡丸森町","city_kana":"イググンマルモリマチ","town":"高松","town_kana":"タカマツ","prefecture_code":4},{"zip_code":"9812116","prefecture":"宮城県","prefecture_kana":"ミヤギケン","city":"伊具郡丸森町","city_kana":"イググンマルモリマチ","town":"滝原","town_kana":"タキパラ","prefecture_code":4},{"zip_code":"9812116","prefecture":"宮城県","prefecture_kana":"ミヤギケン","city":"伊具郡丸森町","city_kana":"イググンマルモリマチ","town":"不動","town_kana":"フドウ","prefecture_code":4}],"2112":[{"zip_code":"9812112","prefecture":"宮城県","prefecture_kana":"ミヤギケン","city":"伊具郡丸森町","city_kana":"イググンマルモリマチ","town":"石渕","town_kana":"イシブチ","prefecture_code":4},{"zip_code":"9812112","prefecture":"宮城県","prefecture_kana":"ミヤギケン","city":"伊具郡丸森町","city_kana":"イググンマルモリマチ","town":"作田","town_kana":"サクダ","prefecture_code":4},{"zip_code":"9812112","prefecture":"宮城県","prefecture_kana":"ミヤギケン","city":"伊具郡丸森町","city_kana":"イググンマルモリマチ","town":"城東","town_kana":"ジョウトウ","prefecture_code":4},{"zip_code":"9812112","prefecture":"宮城県","prefecture_kana":"ミヤギケン","city":"伊具郡丸森町","city_kana":"イググンマルモリマチ","town":"新町","town_kana":"シンマチ","prefecture_code":4},{"zip_code":"9812112","prefecture":"宮城県","prefecture_kana":"ミヤギケン","city":"伊具郡丸森町","city_kana":"イググンマルモリマチ","town":"平","town_kana":"タイラ","prefecture_code":4},{"zip_code":"9812112","prefecture":"宮城県","prefecture_kana":"ミヤギケン","city":"伊具郡丸森町","city_kana":"イググンマルモリマチ","town":"寺内","town_kana":"テラウチ","prefecture_code":4},{"zip_code":"9812112","prefecture":"宮城県","prefecture_kana":"ミヤギケン","city":"伊具郡丸森町","city_kana":"イググンマルモリマチ","town":"寺内前","town_kana":"テラウチマエ","prefecture_code":4},{"zip_code":"9812112","prefecture":"宮城県","prefecture_kana":"ミヤギケン","city":"伊具郡丸森町","city_kana":"イググンマルモリマチ","town":"羽山","town_kana":"ハヤマ","prefecture_code":4},{"zip_code":"9812112","prefecture":"宮城県","prefecture_kana":"ミヤギケン","city":"伊具郡丸森町","city_kana":"イググンマルモリマチ","town":"蛭田","town_kana":"ヒルタ","prefecture_code":4},{"zip_code":"9812112","prefecture":"宮城県","prefecture_kana":"ミヤギケン","city":"伊具郡丸森町","city_kana":"イググンマルモリマチ","town":"渕ノ上","town_kana":"フチノウエ","prefecture_code":4},{"zip_code":"9812112","prefecture":"宮城県","prefecture_kana":"ミヤギケン","city":"伊具郡丸森町","city_kana":"イググンマルモリマチ","town":"矢洗","town_kana":"ヤアライ","prefecture_code":4}],"2141":[{"zip_code":"9812141","prefecture":"宮城県","prefecture_kana":"ミヤギケン","city":"伊具郡丸森町","city_kana":"イググンマルモリマチ","town":"板山","town_kana":"イタヤマ","prefecture_code":4},{"zip_code":"9812141","prefecture":"宮城県","prefecture_kana":"ミヤギケン","city":"伊具郡丸森町","city_kana":"イググンマルモリマチ","town":"梅木平","town_kana":"ウメキダイラ","prefecture_code":4},{"zip_code":"9812141","prefecture":"宮城県","prefecture_kana":"ミヤギケン","city":"伊具郡丸森町","city_kana":"イググンマルモリマチ","town":"北沢","town_kana":"キタザワ","prefecture_code":4},{"zip_code":"9812141","prefecture":"宮城県","prefecture_kana":"ミヤギケン","city":"伊具郡丸森町","city_kana":"イググンマルモリマチ","town":"小保田","town_kana":"コボタ","prefecture_code":4}],"2182":[{"zip_code":"9812182","prefecture":"宮城県","prefecture_kana":"ミヤギケン","city":"伊具郡丸森町","city_kana":"イググンマルモリマチ","town":"覆盆子原","town_kana":"イチゴハラ","prefecture_code":4},{"zip_code":"9812182","prefecture":"宮城県","prefecture_kana":"ミヤギケン","city":"伊具郡丸森町","city_kana":"イググンマルモリマチ","town":"大鹿野","town_kana":"オオガノ","prefecture_code":4}],"2131":[{"zip_code":"9812131","prefecture":"宮城県","prefecture_kana":"ミヤギケン","city":"伊具郡丸森町","city_kana":"イググンマルモリマチ","town":"銀杏","town_kana":"イチョウ","prefecture_code":4},{"zip_code":"9812131","prefecture":"宮城県","prefecture_kana":"ミヤギケン","city":"伊具郡丸森町","city_kana":"イググンマルモリマチ","town":"後屋敷","town_kana":"ウシロヤシキ","prefecture_code":4},{"zip_code":"9812131","prefecture":"宮城県","prefecture_kana":"ミヤギケン","city":"伊具郡丸森町","city_kana":"イググンマルモリマチ","town":"五福谷","town_kana":"ゴフクヤ","prefecture_code":4},{"zip_code":"9812131","prefecture":"宮城県","prefecture_kana":"ミヤギケン","city":"伊具郡丸森町","city_kana":"イググンマルモリマチ","town":"四反田","town_kana":"シタンダ","prefecture_code":4},{"zip_code":"9812131","prefecture":"宮城県","prefecture_kana":"ミヤギケン","city":"伊具郡丸森町","city_kana":"イググンマルモリマチ","town":"上地","town_kana":"ジョウチ","prefecture_code":4},{"zip_code":"9812131","prefecture":"宮城県","prefecture_kana":"ミヤギケン","city":"伊具郡丸森町","city_kana":"イググンマルモリマチ","town":"塚田","town_kana":"ツカダ","prefecture_code":4},{"zip_code":"9812131","prefecture":"宮城県","prefecture_kana":"ミヤギケン","city":"伊具郡丸森町","city_kana":"イググンマルモリマチ","town":"坂上","town_kana":"バンジョウ","prefecture_code":4}],"2115":[{"zip_code":"9812115","prefecture":"宮城県","prefecture_kana":"ミヤギケン","city":"伊具郡丸森町","city_kana":"イググンマルモリマチ","town":"稲場","town_kana":"イナバ","prefecture_code":4},{"zip_code":"9812115","prefecture":"宮城県","prefecture_kana":"ミヤギケン","city":"伊具郡丸森町","city_kana":"イググンマルモリマチ","town":"稲場東","town_kana":"イナバヒガシ","prefecture_code":4},{"zip_code":"9812115","prefecture":"宮城県","prefecture_kana":"ミヤギケン","city":"伊具郡丸森町","city_kana":"イググンマルモリマチ","town":"三瓶内","town_kana":"サンベイウチ","prefecture_code":4},{"zip_code":"9812115","prefecture":"宮城県","prefecture_kana":"ミヤギケン","city":"伊具郡丸森町","city_kana":"イググンマルモリマチ","town":"沼","town_kana":"ヌマ","prefecture_code":4},{"zip_code":"9812115","prefecture":"宮城県","prefecture_kana":"ミヤギケン","city":"伊具郡丸森町","city_kana":"イググンマルモリマチ","town":"前河原","town_kana":"マエカワラ","prefecture_code":4},{"zip_code":"9812115","prefecture":"宮城県","prefecture_kana":"ミヤギケン","city":"伊具郡丸森町","city_kana":"イググンマルモリマチ","town":"山古谷","town_kana":"ヤマゴヤ","prefecture_code":4}],"2132":[{"zip_code":"9812132","prefecture":"宮城県","prefecture_kana":"ミヤギケン","city":"伊具郡丸森町","city_kana":"イググンマルモリマチ","town":"牛子","town_kana":"ウシコ","prefecture_code":4},{"zip_code":"9812132","prefecture":"宮城県","prefecture_kana":"ミヤギケン","city":"伊具郡丸森町","city_kana":"イググンマルモリマチ","town":"薄平","town_kana":"ウスダイラ","prefecture_code":4},{"zip_code":"9812132","prefecture":"宮城県","prefecture_kana":"ミヤギケン","city":"伊具郡丸森町","city_kana":"イググンマルモリマチ","town":"馬渕","town_kana":"マブチ","prefecture_code":4},{"zip_code":"9812132","prefecture":"宮城県","prefecture_kana":"ミヤギケン","city":"伊具郡丸森町","city_kana":"イググンマルモリマチ","town":"向原","town_kana":"ムカエパラ","prefecture_code":4},{"zip_code":"9812132","prefecture":"宮城県","prefecture_kana":"ミヤギケン","city":"伊具郡丸森町","city_kana":"イググンマルモリマチ","town":"蕨平","town_kana":"ワラビダイラ","prefecture_code":4}],"2126":[{"zip_code":"9812126","prefecture":"宮城県","prefecture_kana":"ミヤギケン","city":"伊具郡丸森町","city_kana":"イググンマルモリマチ","town":"梅木坂","town_kana":"ウメキザカ","prefecture_code":4},{"zip_code":"9812126","prefecture":"宮城県","prefecture_kana":"ミヤギケン","city":"伊具郡丸森町","city_kana":"イググンマルモリマチ","town":"金ケ作","town_kana":"カネガサク","prefecture_code":4},{"zip_code":"9812126","prefecture":"宮城県","prefecture_kana":"ミヤギケン","city":"伊具郡丸森町","city_kana":"イググンマルモリマチ","town":"金ケ作前","town_kana":"カネガサクマエ","prefecture_code":4}],"2156":[{"zip_code":"9812156","prefecture":"宮城県","prefecture_kana":"ミヤギケン","city":"伊具郡丸森町","city_kana":"イググンマルモリマチ","town":"うるし原","town_kana":"ウルシバラ","prefecture_code":4},{"zip_code":"9812156","prefecture":"宮城県","prefecture_kana":"ミヤギケン","city":"伊具郡丸森町","city_kana":"イググンマルモリマチ","town":"小塚","town_kana":"コヅカ","prefecture_code":4},{"zip_code":"9812156","prefecture":"宮城県","prefecture_kana":"ミヤギケン","city":"伊具郡丸森町","city_kana":"イググンマルモリマチ","town":"玉貫","town_kana":"タマヌキ","prefecture_code":4},{"zip_code":"9812156","prefecture":"宮城県","prefecture_kana":"ミヤギケン","city":"伊具郡丸森町","city_kana":"イググンマルモリマチ","town":"菱川内","town_kana":"ヒシカワウチ","prefecture_code":4}],"2501":{"zip_code":"9812501","prefecture":"宮城県","prefecture_kana":"ミヤギケン","city":"伊具郡丸森町","city_kana":"イググンマルモリマチ","town":"大内","town_kana":"オオウチ","prefecture_code":4},"2154":[{"zip_code":"9812154","prefecture":"宮城県","prefecture_kana":"ミヤギケン","city":"伊具郡丸森町","city_kana":"イググンマルモリマチ","town":"大川口","town_kana":"オオカワグチ","prefecture_code":4},{"zip_code":"9812154","prefecture":"宮城県","prefecture_kana":"ミヤギケン","city":"伊具郡丸森町","city_kana":"イググンマルモリマチ","town":"大川口前","town_kana":"オオカワグチマエ","prefecture_code":4}],"2104":{"zip_code":"9812104","prefecture":"宮城県","prefecture_kana":"ミヤギケン","city":"伊具郡丸森町","city_kana":"イググンマルモリマチ","town":"大舘","town_kana":"オオダテ","prefecture_code":4},"2301":{"zip_code":"9812301","prefecture":"宮城県","prefecture_kana":"ミヤギケン","city":"伊具郡丸森町","city_kana":"イググンマルモリマチ","town":"大張大蔵","town_kana":"オオハリオオクラ","prefecture_code":4},"2302":{"zip_code":"9812302","prefecture":"宮城県","prefecture_kana":"ミヤギケン","city":"伊具郡丸森町","city_kana":"イググンマルモリマチ","town":"大張川張","town_kana":"オオハリカワハリ","prefecture_code":4},"2144":[{"zip_code":"9812144","prefecture":"宮城県","prefecture_kana":"ミヤギケン","city":"伊具郡丸森町","city_kana":"イググンマルモリマチ","town":"大畑","town_kana":"オオバタケ","prefecture_code":4},{"zip_code":"9812144","prefecture":"宮城県","prefecture_kana":"ミヤギケン","city":"伊具郡丸森町","city_kana":"イググンマルモリマチ","town":"大畑前","town_kana":"オオバタケマエ","prefecture_code":4},{"zip_code":"9812144","prefecture":"宮城県","prefecture_kana":"ミヤギケン","city":"伊具郡丸森町","city_kana":"イググンマルモリマチ","town":"土ケ森","town_kana":"ツチガモリ","prefecture_code":4},{"zip_code":"9812144","prefecture":"宮城県","prefecture_kana":"ミヤギケン","city":"伊具郡丸森町","city_kana":"イググンマルモリマチ","town":"武士沢","town_kana":"ブシザワ","prefecture_code":4},{"zip_code":"9812144","prefecture":"宮城県","prefecture_kana":"ミヤギケン","city":"伊具郡丸森町","city_kana":"イググンマルモリマチ","town":"由縄坂","town_kana":"ヨナザカ","prefecture_code":4}],"2174":[{"zip_code":"9812174","prefecture":"宮城県","prefecture_kana":"ミヤギケン","city":"伊具郡丸森町","city_kana":"イググンマルモリマチ","town":"岡巻","town_kana":"オカマキ","prefecture_code":4},{"zip_code":"9812174","prefecture":"宮城県","prefecture_kana":"ミヤギケン","city":"伊具郡丸森町","city_kana":"イググンマルモリマチ","town":"木落","town_kana":"キオトシ","prefecture_code":4},{"zip_code":"9812174","prefecture":"宮城県","prefecture_kana":"ミヤギケン","city":"伊具郡丸森町","city_kana":"イググンマルモリマチ","town":"小倉","town_kana":"コグラ","prefecture_code":4},{"zip_code":"9812174","prefecture":"宮城県","prefecture_kana":"ミヤギケン","city":"伊具郡丸森町","city_kana":"イググンマルモリマチ","town":"砂ノ入","town_kana":"スナノイリ","prefecture_code":4}],"2146":[{"zip_code":"9812146","prefecture":"宮城県","prefecture_kana":"ミヤギケン","city":"伊具郡丸森町","city_kana":"イググンマルモリマチ","town":"欠入上","town_kana":"カケイリカミ","prefecture_code":4},{"zip_code":"9812146","prefecture":"宮城県","prefecture_kana":"ミヤギケン","city":"伊具郡丸森町","city_kana":"イググンマルモリマチ","town":"欠入下","town_kana":"カケイリシモ","prefecture_code":4},{"zip_code":"9812146","prefecture":"宮城県","prefecture_kana":"ミヤギケン","city":"伊具郡丸森町","city_kana":"イググンマルモリマチ","town":"欠入菅","town_kana":"カケイリスゲ","prefecture_code":4},{"zip_code":"9812146","prefecture":"宮城県","prefecture_kana":"ミヤギケン","city":"伊具郡丸森町","city_kana":"イググンマルモリマチ","town":"欠入前山","town_kana":"カケイリマエヤマ","prefecture_code":4},{"zip_code":"9812146","prefecture":"宮城県","prefecture_kana":"ミヤギケン","city":"伊具郡丸森町","city_kana":"イググンマルモリマチ","town":"関場","town_kana":"セキバ","prefecture_code":4},{"zip_code":"9812146","prefecture":"宮城県","prefecture_kana":"ミヤギケン","city":"伊具郡丸森町","city_kana":"イググンマルモリマチ","town":"手掛橋中","town_kana":"テカケバシナカ","prefecture_code":4},{"zip_code":"9812146","prefecture":"宮城県","prefecture_kana":"ミヤギケン","city":"伊具郡丸森町","city_kana":"イググンマルモリマチ","town":"手掛橋東","town_kana":"テカケバシヒガシ","prefecture_code":4},{"zip_code":"9812146","prefecture":"宮城県","prefecture_kana":"ミヤギケン","city":"伊具郡丸森町","city_kana":"イググンマルモリマチ","town":"手掛橋西","town_kana":"テカケバシニシ","prefecture_code":4},{"zip_code":"9812146","prefecture":"宮城県","prefecture_kana":"ミヤギケン","city":"伊具郡丸森町","city_kana":"イググンマルモリマチ","town":"中道","town_kana":"ナカミチ","prefecture_code":4},{"zip_code":"9812146","prefecture":"宮城県","prefecture_kana":"ミヤギケン","city":"伊具郡丸森町","city_kana":"イググンマルモリマチ","town":"広町","town_kana":"ヒロマチ","prefecture_code":4}],"2184":[{"zip_code":"9812184","prefecture":"宮城県","prefecture_kana":"ミヤギケン","city":"伊具郡丸森町","city_kana":"イググンマルモリマチ","town":"笠松","town_kana":"カサマツ","prefecture_code":4},{"zip_code":"9812184","prefecture":"宮城県","prefecture_kana":"ミヤギケン","city":"伊具郡丸森町","city_kana":"イググンマルモリマチ","town":"柏木","town_kana":"カシワギ","prefecture_code":4},{"zip_code":"9812184","prefecture":"宮城県","prefecture_kana":"ミヤギケン","city":"伊具郡丸森町","city_kana":"イググンマルモリマチ","town":"坂下","town_kana":"サカシタ","prefecture_code":4},{"zip_code":"9812184","prefecture":"宮城県","prefecture_kana":"ミヤギケン","city":"伊具郡丸森町","city_kana":"イググンマルモリマチ","town":"田ノ入","town_kana":"タノイリ","prefecture_code":4},{"zip_code":"9812184","prefecture":"宮城県","prefecture_kana":"ミヤギケン","city":"伊具郡丸森町","city_kana":"イググンマルモリマチ","town":"深田","town_kana":"フカダ","prefecture_code":4},{"zip_code":"9812184","prefecture":"宮城県","prefecture_kana":"ミヤギケン","city":"伊具郡丸森町","city_kana":"イググンマルモリマチ","town":"森","town_kana":"モリ","prefecture_code":4}],"2155":[{"zip_code":"9812155","prefecture":"宮城県","prefecture_kana":"ミヤギケン","city":"伊具郡丸森町","city_kana":"イググンマルモリマチ","town":"片岸","town_kana":"カタギシ","prefecture_code":4},{"zip_code":"9812155","prefecture":"宮城県","prefecture_kana":"ミヤギケン","city":"伊具郡丸森町","city_kana":"イググンマルモリマチ","town":"山崎","town_kana":"ヤマザキ","prefecture_code":4},{"zip_code":"9812155","prefecture":"宮城県","prefecture_kana":"ミヤギケン","city":"伊具郡丸森町","city_kana":"イググンマルモリマチ","town":"山崎前","town_kana":"ヤマザキマエ","prefecture_code":4}],"2402":{"zip_code":"9812402","prefecture":"宮城県","prefecture_kana":"ミヤギケン","city":"伊具郡丸森町","city_kana":"イググンマルモリマチ","town":"金山","town_kana":"カネヤマ","prefecture_code":4},"2153":{"zip_code":"9812153","prefecture":"宮城県","prefecture_kana":"ミヤギケン","city":"伊具郡丸森町","city_kana":"イググンマルモリマチ","town":"雁歌","town_kana":"カリガ","prefecture_code":4},"2145":[{"zip_code":"9812145","prefecture":"宮城県","prefecture_kana":"ミヤギケン","city":"伊具郡丸森町","city_kana":"イググンマルモリマチ","town":"川田島","town_kana":"カワダシマ","prefecture_code":4},{"zip_code":"9812145","prefecture":"宮城県","prefecture_kana":"ミヤギケン","city":"伊具郡丸森町","city_kana":"イググンマルモリマチ","town":"川田島菅","town_kana":"カワダシマスゲ","prefecture_code":4},{"zip_code":"9812145","prefecture":"宮城県","prefecture_kana":"ミヤギケン","city":"伊具郡丸森町","city_kana":"イググンマルモリマチ","town":"川端","town_kana":"カワバタ","prefecture_code":4},{"zip_code":"9812145","prefecture":"宮城県","prefecture_kana":"ミヤギケン","city":"伊具郡丸森町","city_kana":"イググンマルモリマチ","town":"五本松","town_kana":"ゴホンマツ","prefecture_code":4}],"2106":{"zip_code":"9812106","prefecture":"宮城県","prefecture_kana":"ミヤギケン","city":"伊具郡丸森町","city_kana":"イググンマルモリマチ","town":"木沼","town_kana":"キヌマ","prefecture_code":4},"2124":[{"zip_code":"9812124","prefecture":"宮城県","prefecture_kana":"ミヤギケン","city":"伊具郡丸森町","city_kana":"イググンマルモリマチ","town":"切立","town_kana":"キリタテ","prefecture_code":4},{"zip_code":"9812124","prefecture":"宮城県","prefecture_kana":"ミヤギケン","city":"伊具郡丸森町","city_kana":"イググンマルモリマチ","town":"椚塚","town_kana":"クヌギヅカ","prefecture_code":4}],"2185":[{"zip_code":"9812185","prefecture":"宮城県","prefecture_kana":"ミヤギケン","city":"伊具郡丸森町","city_kana":"イググンマルモリマチ","town":"椚林","town_kana":"クヌギバヤシ","prefecture_code":4},{"zip_code":"9812185","prefecture":"宮城県","prefecture_kana":"ミヤギケン","city":"伊具郡丸森町","city_kana":"イググンマルモリマチ","town":"滝の上","town_kana":"タキノカミ","prefecture_code":4},{"zip_code":"9812185","prefecture":"宮城県","prefecture_kana":"ミヤギケン","city":"伊具郡丸森町","city_kana":"イググンマルモリマチ","town":"羽出庭","town_kana":"ハデニワ","prefecture_code":4},{"zip_code":"9812185","prefecture":"宮城県","prefecture_kana":"ミヤギケン","city":"伊具郡丸森町","city_kana":"イググンマルモリマチ","town":"火打石","town_kana":"ヒウチイシ","prefecture_code":4}],"2123":[{"zip_code":"9812123","prefecture":"宮城県","prefecture_kana":"ミヤギケン","city":"伊具郡丸森町","city_kana":"イググンマルモリマチ","town":"原場","town_kana":"ゲンバ","prefecture_code":4},{"zip_code":"9812123","prefecture":"宮城県","prefecture_kana":"ミヤギケン","city":"伊具郡丸森町","city_kana":"イググンマルモリマチ","town":"柳田","town_kana":"ヤナギダ","prefecture_code":4}],"2303":{"zip_code":"9812303","prefecture":"宮城県","prefecture_kana":"ミヤギケン","city":"伊具郡丸森町","city_kana":"イググンマルモリマチ","town":"耕野","town_kana":"コウヤ","prefecture_code":4},"2113":[{"zip_code":"9812113","prefecture":"宮城県","prefecture_kana":"ミヤギケン","city":"伊具郡丸森町","city_kana":"イググンマルモリマチ","town":"越田","town_kana":"コエダ","prefecture_code":4},{"zip_code":"9812113","prefecture":"宮城県","prefecture_kana":"ミヤギケン","city":"伊具郡丸森町","city_kana":"イググンマルモリマチ","town":"羽入","town_kana":"ハニュウ","prefecture_code":4},{"zip_code":"9812113","prefecture":"宮城県","prefecture_kana":"ミヤギケン","city":"伊具郡丸森町","city_kana":"イググンマルモリマチ","town":"羽入前","town_kana":"ハニュウマエ","prefecture_code":4},{"zip_code":"9812113","prefecture":"宮城県","prefecture_kana":"ミヤギケン","city":"伊具郡丸森町","city_kana":"イググンマルモリマチ","town":"宮脇","town_kana":"ミヤノワキ","prefecture_code":4}],"2143":[{"zip_code":"9812143","prefecture":"宮城県","prefecture_kana":"ミヤギケン","city":"伊具郡丸森町","city_kana":"イググンマルモリマチ","town":"虚空蔵上","town_kana":"コクゾウカミ","prefecture_code":4},{"zip_code":"9812143","prefecture":"宮城県","prefecture_kana":"ミヤギケン","city":"伊具郡丸森町","city_kana":"イググンマルモリマチ","town":"虚空蔵中","town_kana":"コクゾウナカ","prefecture_code":4},{"zip_code":"9812143","prefecture":"宮城県","prefecture_kana":"ミヤギケン","city":"伊具郡丸森町","city_kana":"イググンマルモリマチ","town":"虚空蔵下","town_kana":"コクゾウシモ","prefecture_code":4}],"2401":{"zip_code":"9812401","prefecture":"宮城県","prefecture_kana":"ミヤギケン","city":"伊具郡丸森町","city_kana":"イググンマルモリマチ","town":"小斎","town_kana":"コサイ","prefecture_code":4},"2186":[{"zip_code":"9812186","prefecture":"宮城県","prefecture_kana":"ミヤギケン","city":"伊具郡丸森町","city_kana":"イググンマルモリマチ","town":"小坊木南","town_kana":"コボウギミナミ","prefecture_code":4},{"zip_code":"9812186","prefecture":"宮城県","prefecture_kana":"ミヤギケン","city":"伊具郡丸森町","city_kana":"イググンマルモリマチ","town":"小坊木北","town_kana":"コボウギキタ","prefecture_code":4},{"zip_code":"9812186","prefecture":"宮城県","prefecture_kana":"ミヤギケン","city":"伊具郡丸森町","city_kana":"イググンマルモリマチ","town":"立沢南","town_kana":"タツザワミナミ","prefecture_code":4},{"zip_code":"9812186","prefecture":"宮城県","prefecture_kana":"ミヤギケン","city":"伊具郡丸森町","city_kana":"イググンマルモリマチ","town":"立沢北","town_kana":"タツザワキタ","prefecture_code":4},{"zip_code":"9812186","prefecture":"宮城県","prefecture_kana":"ミヤギケン","city":"伊具郡丸森町","city_kana":"イググンマルモリマチ","town":"早坂","town_kana":"ハヤサカ","prefecture_code":4}],"2181":[{"zip_code":"9812181","prefecture":"宮城県","prefecture_kana":"ミヤギケン","city":"伊具郡丸森町","city_kana":"イググンマルモリマチ","town":"子安","town_kana":"コヤス","prefecture_code":4},{"zip_code":"9812181","prefecture":"宮城県","prefecture_kana":"ミヤギケン","city":"伊具郡丸森町","city_kana":"イググンマルモリマチ","town":"高見南","town_kana":"タカミミナミ","prefecture_code":4},{"zip_code":"9812181","prefecture":"宮城県","prefecture_kana":"ミヤギケン","city":"伊具郡丸森町","city_kana":"イググンマルモリマチ","town":"高見北","town_kana":"タカミキタ","prefecture_code":4},{"zip_code":"9812181","prefecture":"宮城県","prefecture_kana":"ミヤギケン","city":"伊具郡丸森町","city_kana":"イググンマルモリマチ","town":"曲木","town_kana":"マガキ","prefecture_code":4},{"zip_code":"9812181","prefecture":"宮城県","prefecture_kana":"ミヤギケン","city":"伊具郡丸森町","city_kana":"イググンマルモリマチ","town":"廻倉","town_kana":"マワリグラ","prefecture_code":4}],"2172":[{"zip_code":"9812172","prefecture":"宮城県","prefecture_kana":"ミヤギケン","city":"伊具郡丸森町","city_kana":"イググンマルモリマチ","town":"敷文東","town_kana":"シキブミヒガシ","prefecture_code":4},{"zip_code":"9812172","prefecture":"宮城県","prefecture_kana":"ミヤギケン","city":"伊具郡丸森町","city_kana":"イググンマルモリマチ","town":"敷文西","town_kana":"シキブミニシ","prefecture_code":4},{"zip_code":"9812172","prefecture":"宮城県","prefecture_kana":"ミヤギケン","city":"伊具郡丸森町","city_kana":"イググンマルモリマチ","town":"百合沢","town_kana":"ユリサワ","prefecture_code":4}],"2171":[{"zip_code":"9812171","prefecture":"宮城県","prefecture_kana":"ミヤギケン","city":"伊具郡丸森町","city_kana":"イググンマルモリマチ","town":"下滝","town_kana":"シモタキ","prefecture_code":4},{"zip_code":"9812171","prefecture":"宮城県","prefecture_kana":"ミヤギケン","city":"伊具郡丸森町","city_kana":"イググンマルモリマチ","town":"下滝南","town_kana":"シモタキミナミ","prefecture_code":4},{"zip_code":"9812171","prefecture":"宮城県","prefecture_kana":"ミヤギケン","city":"伊具郡丸森町","city_kana":"イググンマルモリマチ","town":"船場","town_kana":"フナバ","prefecture_code":4}],"2117":[{"zip_code":"9812117","prefecture":"宮城県","prefecture_kana":"ミヤギケン","city":"伊具郡丸森町","city_kana":"イググンマルモリマチ","town":"上林東","town_kana":"ジョウリンヒガシ","prefecture_code":4},{"zip_code":"9812117","prefecture":"宮城県","prefecture_kana":"ミヤギケン","city":"伊具郡丸森町","city_kana":"イググンマルモリマチ","town":"上林西","town_kana":"ジョウリンニシ","prefecture_code":4},{"zip_code":"9812117","prefecture":"宮城県","prefecture_kana":"ミヤギケン","city":"伊具郡丸森町","city_kana":"イググンマルモリマチ","town":"上林南","town_kana":"ジョウリンミナミ","prefecture_code":4},{"zip_code":"9812117","prefecture":"宮城県","prefecture_kana":"ミヤギケン","city":"伊具郡丸森町","city_kana":"イググンマルモリマチ","town":"中島","town_kana":"ナカジマ","prefecture_code":4},{"zip_code":"9812117","prefecture":"宮城県","prefecture_kana":"ミヤギケン","city":"伊具郡丸森町","city_kana":"イググンマルモリマチ","town":"畑中","town_kana":"ハタケナカ","prefecture_code":4},{"zip_code":"9812117","prefecture":"宮城県","prefecture_kana":"ミヤギケン","city":"伊具郡丸森町","city_kana":"イググンマルモリマチ","town":"和田東","town_kana":"ワダヒガシ","prefecture_code":4},{"zip_code":"9812117","prefecture":"宮城県","prefecture_kana":"ミヤギケン","city":"伊具郡丸森町","city_kana":"イググンマルモリマチ","town":"和田西","town_kana":"ワダニシ","prefecture_code":4}],"2111":[{"zip_code":"9812111","prefecture":"宮城県","prefecture_kana":"ミヤギケン","city":"伊具郡丸森町","city_kana":"イググンマルモリマチ","town":"神明","town_kana":"シンメイ","prefecture_code":4},{"zip_code":"9812111","prefecture":"宮城県","prefecture_kana":"ミヤギケン","city":"伊具郡丸森町","city_kana":"イググンマルモリマチ","town":"神明東","town_kana":"シンメイヒガシ","prefecture_code":4},{"zip_code":"9812111","prefecture":"宮城県","prefecture_kana":"ミヤギケン","city":"伊具郡丸森町","city_kana":"イググンマルモリマチ","town":"神明南","town_kana":"シンメイミナミ","prefecture_code":4}],"2151":{"zip_code":"9812151","prefecture":"宮城県","prefecture_kana":"ミヤギケン","city":"伊具郡丸森町","city_kana":"イググンマルモリマチ","town":"千刈場","town_kana":"センガリバ","prefecture_code":4},"2166":{"zip_code":"9812166","prefecture":"宮城県","prefecture_kana":"ミヤギケン","city":"伊具郡丸森町","city_kana":"イググンマルモリマチ","town":"高畑","town_kana":"タカバタケ","prefecture_code":4},"2101":{"zip_code":"9812101","prefecture":"宮城県","prefecture_kana":"ミヤギケン","city":"伊具郡丸森町","city_kana":"イググンマルモリマチ","town":"舘矢間木沼","town_kana":"タテヤマキヌマ","prefecture_code":4},"2102":{"zip_code":"9812102","prefecture":"宮城県","prefecture_kana":"ミヤギケン","city":"伊具郡丸森町","city_kana":"イググンマルモリマチ","town":"舘矢間舘山","town_kana":"タテヤマタテヤマ","prefecture_code":4},"2105":{"zip_code":"9812105","prefecture":"宮城県","prefecture_kana":"ミヤギケン","city":"伊具郡丸森町","city_kana":"イググンマルモリマチ","town":"舘矢間松掛","town_kana":"タテヤママツカケ","prefecture_code":4},"2103":{"zip_code":"9812103","prefecture":"宮城県","prefecture_kana":"ミヤギケン","city":"伊具郡丸森町","city_kana":"イググンマルモリマチ","town":"舘矢間山田","town_kana":"タテヤマヤマダ","prefecture_code":4},"2167":{"zip_code":"9812167","prefecture":"宮城県","prefecture_kana":"ミヤギケン","city":"伊具郡丸森町","city_kana":"イググンマルモリマチ","town":"田町南","town_kana":"タマチミナミ","prefecture_code":4},"2168":{"zip_code":"9812168","prefecture":"宮城県","prefecture_kana":"ミヤギケン","city":"伊具郡丸森町","city_kana":"イググンマルモリマチ","town":"田町北","town_kana":"タマチキタ","prefecture_code":4},"2134":[{"zip_code":"9812134","prefecture":"宮城県","prefecture_kana":"ミヤギケン","city":"伊具郡丸森町","city_kana":"イググンマルモリマチ","town":"峠上","town_kana":"トウゲカミ","prefecture_code":4},{"zip_code":"9812134","prefecture":"宮城県","prefecture_kana":"ミヤギケン","city":"伊具郡丸森町","city_kana":"イググンマルモリマチ","town":"峠革踏石","town_kana":"トウゲカワフミイシ","prefecture_code":4},{"zip_code":"9812134","prefecture":"宮城県","prefecture_kana":"ミヤギケン","city":"伊具郡丸森町","city_kana":"イググンマルモリマチ","town":"峠小屋下","town_kana":"トウゲコヤシモ","prefecture_code":4},{"zip_code":"9812134","prefecture":"宮城県","prefecture_kana":"ミヤギケン","city":"伊具郡丸森町","city_kana":"イググンマルモリマチ","town":"峠境","town_kana":"トウゲサカイ","prefecture_code":4},{"zip_code":"9812134","prefecture":"宮城県","prefecture_kana":"ミヤギケン","city":"伊具郡丸森町","city_kana":"イググンマルモリマチ","town":"峠坂下","town_kana":"トウゲサカシタ","prefecture_code":4},{"zip_code":"9812134","prefecture":"宮城県","prefecture_kana":"ミヤギケン","city":"伊具郡丸森町","city_kana":"イググンマルモリマチ","town":"峠下","town_kana":"トウゲシモ","prefecture_code":4},{"zip_code":"9812134","prefecture":"宮城県","prefecture_kana":"ミヤギケン","city":"伊具郡丸森町","city_kana":"イググンマルモリマチ","town":"峠滝沢","town_kana":"トウゲタキザワ","prefecture_code":4},{"zip_code":"9812134","prefecture":"宮城県","prefecture_kana":"ミヤギケン","city":"伊具郡丸森町","city_kana":"イググンマルモリマチ","town":"峠野上","town_kana":"トウゲノジョウ","prefecture_code":4},{"zip_code":"9812134","prefecture":"宮城県","prefecture_kana":"ミヤギケン","city":"伊具郡丸森町","city_kana":"イググンマルモリマチ","town":"峠橋元","town_kana":"トウゲハシモト","prefecture_code":4},{"zip_code":"9812134","prefecture":"宮城県","prefecture_kana":"ミヤギケン","city":"伊具郡丸森町","city_kana":"イググンマルモリマチ","town":"峠前","town_kana":"トウゲマエ","prefecture_code":4},{"zip_code":"9812134","prefecture":"宮城県","prefecture_kana":"ミヤギケン","city":"伊具郡丸森町","city_kana":"イググンマルモリマチ","town":"峠廻戸","town_kana":"トウゲマワリド","prefecture_code":4},{"zip_code":"9812134","prefecture":"宮城県","prefecture_kana":"ミヤギケン","city":"伊具郡丸森町","city_kana":"イググンマルモリマチ","town":"峠向","town_kana":"トウゲムカイ","prefecture_code":4},{"zip_code":"9812134","prefecture":"宮城県","prefecture_kana":"ミヤギケン","city":"伊具郡丸森町","city_kana":"イググンマルモリマチ","town":"峠横向","town_kana":"トウゲヨコムキ","prefecture_code":4}],"2152":[{"zip_code":"9812152","prefecture":"宮城県","prefecture_kana":"ミヤギケン","city":"伊具郡丸森町","city_kana":"イググンマルモリマチ","town":"鳥屋","town_kana":"トリヤ","prefecture_code":4},{"zip_code":"9812152","prefecture":"宮城県","prefecture_kana":"ミヤギケン","city":"伊具郡丸森町","city_kana":"イググンマルモリマチ","town":"花田","town_kana":"ハナダ","prefecture_code":4}],"2127":{"zip_code":"9812127","prefecture":"宮城県","prefecture_kana":"ミヤギケン","city":"伊具郡丸森町","city_kana":"イググンマルモリマチ","town":"中ノ内","town_kana":"ナカノウチ","prefecture_code":4},"2163":{"zip_code":"9812163","prefecture":"宮城県","prefecture_kana":"ミヤギケン","city":"伊具郡丸森町","city_kana":"イググンマルモリマチ","town":"除","town_kana":"ノゾキ","prefecture_code":4},"2161":{"zip_code":"9812161","prefecture":"宮城県","prefecture_kana":"ミヤギケン","city":"伊具郡丸森町","city_kana":"イググンマルモリマチ","town":"除南","town_kana":"ノゾキミナミ","prefecture_code":4},"2162":{"zip_code":"9812162","prefecture":"宮城県","prefecture_kana":"ミヤギケン","city":"伊具郡丸森町","city_kana":"イググンマルモリマチ","town":"除北","town_kana":"ノゾキキタ","prefecture_code":4},"2201":{"zip_code":"9812201","prefecture":"宮城県","prefecture_kana":"ミヤギケン","city":"伊具郡丸森町","city_kana":"イググンマルモリマチ","town":"筆甫","town_kana":"ヒッポ","prefecture_code":4},"2125":[{"zip_code":"9812125","prefecture":"宮城県","prefecture_kana":"ミヤギケン","city":"伊具郡丸森町","city_kana":"イググンマルモリマチ","town":"深田上","town_kana":"フカダカミ","prefecture_code":4},{"zip_code":"9812125","prefecture":"宮城県","prefecture_kana":"ミヤギケン","city":"伊具郡丸森町","city_kana":"イググンマルモリマチ","town":"深田下","town_kana":"フカダシモ","prefecture_code":4}],"2164":{"zip_code":"9812164","prefecture":"宮城県","prefecture_kana":"ミヤギケン","city":"伊具郡丸森町","city_kana":"イググンマルモリマチ","town":"町東","town_kana":"マチヒガシ","prefecture_code":4},"2165":{"zip_code":"9812165","prefecture":"宮城県","prefecture_kana":"ミヤギケン","city":"伊具郡丸森町","city_kana":"イググンマルモリマチ","town":"町西","town_kana":"マチニシ","prefecture_code":4},"2121":{"zip_code":"9812121","prefecture":"宮城県","prefecture_kana":"ミヤギケン","city":"伊具郡丸森町","city_kana":"イググンマルモリマチ","town":"吉田","town_kana":"ヨシダ","prefecture_code":4},"0200":{"zip_code":"9810200","prefecture":"宮城県","prefecture_kana":"ミヤギケン","city":"宮城郡松島町","city_kana":"ミヤギグンマツシママチ","town":"","town_kana":"","prefecture_code":4},"0212":{"zip_code":"9810212","prefecture":"宮城県","prefecture_kana":"ミヤギケン","city":"宮城郡松島町","city_kana":"ミヤギグンマツシママチ","town":"磯崎","town_kana":"イソザキ","prefecture_code":4},"0202":{"zip_code":"9810202","prefecture":"宮城県","prefecture_kana":"ミヤギケン","city":"宮城郡松島町","city_kana":"ミヤギグンマツシママチ","town":"北小泉","town_kana":"キタコイズミ","prefecture_code":4},"0214":{"zip_code":"9810214","prefecture":"宮城県","prefecture_kana":"ミヤギケン","city":"宮城郡松島町","city_kana":"ミヤギグンマツシママチ","town":"桜渡戸","town_kana":"サクラワタシド","prefecture_code":4},"0215":{"zip_code":"9810215","prefecture":"宮城県","prefecture_kana":"ミヤギケン","city":"宮城郡松島町","city_kana":"ミヤギグンマツシママチ","town":"高城","town_kana":"タカギ","prefecture_code":4},"0201":{"zip_code":"9810201","prefecture":"宮城県","prefecture_kana":"ミヤギケン","city":"宮城郡松島町","city_kana":"ミヤギグンマツシママチ","town":"竹谷","town_kana":"タケヤ","prefecture_code":4},"0211":{"zip_code":"9810211","prefecture":"宮城県","prefecture_kana":"ミヤギケン","city":"宮城郡松島町","city_kana":"ミヤギグンマツシママチ","town":"手樽","town_kana":"テタル","prefecture_code":4},"0203":{"zip_code":"9810203","prefecture":"宮城県","prefecture_kana":"ミヤギケン","city":"宮城郡松島町","city_kana":"ミヤギグンマツシママチ","town":"根廻","town_kana":"ネマワリ","prefecture_code":4},"0205":{"zip_code":"9810205","prefecture":"宮城県","prefecture_kana":"ミヤギケン","city":"宮城郡松島町","city_kana":"ミヤギグンマツシママチ","town":"幡谷","town_kana":"ハタヤ","prefecture_code":4},"0204":{"zip_code":"9810204","prefecture":"宮城県","prefecture_kana":"ミヤギケン","city":"宮城郡松島町","city_kana":"ミヤギグンマツシママチ","town":"初原","town_kana":"ハツバラ","prefecture_code":4},"0213":{"zip_code":"9810213","prefecture":"宮城県","prefecture_kana":"ミヤギケン","city":"宮城郡松島町","city_kana":"ミヤギグンマツシママチ","town":"松島","town_kana":"マツシマ","prefecture_code":4},"0100":{"zip_code":"9810100","prefecture":"宮城県","prefecture_kana":"ミヤギケン","city":"宮城郡利府町","city_kana":"ミヤギグンリフチョウ","town":"","town_kana":"","prefecture_code":4},"0133":{"zip_code":"9810133","prefecture":"宮城県","prefecture_kana":"ミヤギケン","city":"宮城郡利府町","city_kana":"ミヤギグンリフチョウ","town":"青葉台","town_kana":"アオバダイ","prefecture_code":4},"0131":{"zip_code":"9810131","prefecture":"宮城県","prefecture_kana":"ミヤギケン","city":"宮城郡利府町","city_kana":"ミヤギグンリフチョウ","town":"青山","town_kana":"アオヤマ","prefecture_code":4},"0101":{"zip_code":"9810101","prefecture":"宮城県","prefecture_kana":"ミヤギケン","city":"宮城郡利府町","city_kana":"ミヤギグンリフチョウ","town":"赤沼","town_kana":"アカヌマ","prefecture_code":4},"0113":{"zip_code":"9810113","prefecture":"宮城県","prefecture_kana":"ミヤギケン","city":"宮城郡利府町","city_kana":"ミヤギグンリフチョウ","town":"飯土井","town_kana":"イイドイ","prefecture_code":4},"0102":{"zip_code":"9810102","prefecture":"宮城県","prefecture_kana":"ミヤギケン","city":"宮城郡利府町","city_kana":"ミヤギグンリフチョウ","town":"春日","town_kana":"カスガ","prefecture_code":4},"0111":{"zip_code":"9810111","prefecture":"宮城県","prefecture_kana":"ミヤギケン","city":"宮城郡利府町","city_kana":"ミヤギグンリフチョウ","town":"加瀬","town_kana":"カセ","prefecture_code":4},"0121":{"zip_code":"9810121","prefecture":"宮城県","prefecture_kana":"ミヤギケン","city":"宮城郡利府町","city_kana":"ミヤギグンリフチョウ","town":"神谷沢","town_kana":"カミヤサワ","prefecture_code":4},"0123":{"zip_code":"9810123","prefecture":"宮城県","prefecture_kana":"ミヤギケン","city":"宮城郡利府町","city_kana":"ミヤギグンリフチョウ","town":"沢乙","town_kana":"サワオト","prefecture_code":4},"0124":{"zip_code":"9810124","prefecture":"宮城県","prefecture_kana":"ミヤギケン","city":"宮城郡利府町","city_kana":"ミヤギグンリフチョウ","town":"沢乙東","town_kana":"サワオトヒガシ","prefecture_code":4},"0134":{"zip_code":"9810134","prefecture":"宮城県","prefecture_kana":"ミヤギケン","city":"宮城郡利府町","city_kana":"ミヤギグンリフチョウ","town":"しらかし台","town_kana":"シラカシダイ","prefecture_code":4},"0122":{"zip_code":"9810122","prefecture":"宮城県","prefecture_kana":"ミヤギケン","city":"宮城郡利府町","city_kana":"ミヤギグンリフチョウ","town":"菅谷","town_kana":"スガヤ","prefecture_code":4},"0135":{"zip_code":"9810135","prefecture":"宮城県","prefecture_kana":"ミヤギケン","city":"宮城郡利府町","city_kana":"ミヤギグンリフチョウ","town":"菅谷台","town_kana":"スガヤダイ","prefecture_code":4},"0104":{"zip_code":"9810104","prefecture":"宮城県","prefecture_kana":"ミヤギケン","city":"宮城郡利府町","city_kana":"ミヤギグンリフチョウ","town":"中央","town_kana":"チュウオウ","prefecture_code":4},"0132":{"zip_code":"9810132","prefecture":"宮城県","prefecture_kana":"ミヤギケン","city":"宮城郡利府町","city_kana":"ミヤギグンリフチョウ","town":"花園","town_kana":"ハナゾノ","prefecture_code":4},"0105":{"zip_code":"9810105","prefecture":"宮城県","prefecture_kana":"ミヤギケン","city":"宮城郡利府町","city_kana":"ミヤギグンリフチョウ","town":"葉山","town_kana":"ハヤマ","prefecture_code":4},"0136":{"zip_code":"9810136","prefecture":"宮城県","prefecture_kana":"ミヤギケン","city":"宮城郡利府町","city_kana":"ミヤギグンリフチョウ","town":"皆の丘","town_kana":"ミナノオカ","prefecture_code":4},"0103":{"zip_code":"9810103","prefecture":"宮城県","prefecture_kana":"ミヤギケン","city":"宮城郡利府町","city_kana":"ミヤギグンリフチョウ","town":"森郷","town_kana":"モリゴウ","prefecture_code":4},"0112":{"zip_code":"9810112","prefecture":"宮城県","prefecture_kana":"ミヤギケン","city":"宮城郡利府町","city_kana":"ミヤギグンリフチョウ","town":"利府","town_kana":"リフ","prefecture_code":4},"3600":[{"zip_code":"9813600","prefecture":"宮城県","prefecture_kana":"ミヤギケン","city":"黒川郡大和町","city_kana":"クロカワグンタイワチョウ","town":"","town_kana":"","prefecture_code":4},{"zip_code":"9813600","prefecture":"宮城県","prefecture_kana":"ミヤギケン","city":"黒川郡大衡村","city_kana":"クロカワグンオオヒラムラ","town":"","town_kana":"","prefecture_code":4}],"3404":{"zip_code":"9813404","prefecture":"宮城県","prefecture_kana":"ミヤギケン","city":"黒川郡大和町","city_kana":"クロカワグンタイワチョウ","town":"落合相川","town_kana":"オチアイアイカワ","prefecture_code":4},"3401":{"zip_code":"9813401","prefecture":"宮城県","prefecture_kana":"ミヤギケン","city":"黒川郡大和町","city_kana":"クロカワグンタイワチョウ","town":"落合三ケ内","town_kana":"オチアイサンガウチ","prefecture_code":4},"3406":{"zip_code":"9813406","prefecture":"宮城県","prefecture_kana":"ミヤギケン","city":"黒川郡大和町","city_kana":"クロカワグンタイワチョウ","town":"落合蒜袋","town_kana":"オチアイヒルブクロ","prefecture_code":4},"3403":{"zip_code":"9813403","prefecture":"宮城県","prefecture_kana":"ミヤギケン","city":"黒川郡大和町","city_kana":"クロカワグンタイワチョウ","town":"落合檜和田","town_kana":"オチアイヒワダ","prefecture_code":4},"3402":{"zip_code":"9813402","prefecture":"宮城県","prefecture_kana":"ミヤギケン","city":"黒川郡大和町","city_kana":"クロカワグンタイワチョウ","town":"落合報恩寺","town_kana":"オチアイホウオンジ","prefecture_code":4},"3405":{"zip_code":"9813405","prefecture":"宮城県","prefecture_kana":"ミヤギケン","city":"黒川郡大和町","city_kana":"クロカワグンタイワチョウ","town":"落合舞野","town_kana":"オチアイマイノ","prefecture_code":4},"3407":{"zip_code":"9813407","prefecture":"宮城県","prefecture_kana":"ミヤギケン","city":"黒川郡大和町","city_kana":"クロカワグンタイワチョウ","town":"落合松坂","town_kana":"オチアイマツサカ","prefecture_code":4},"3623":{"zip_code":"9813623","prefecture":"宮城県","prefecture_kana":"ミヤギケン","city":"黒川郡大和町","city_kana":"クロカワグンタイワチョウ","town":"小野","town_kana":"オノ","prefecture_code":4},"3271":{"zip_code":"9813271","prefecture":"宮城県","prefecture_kana":"ミヤギケン","city":"黒川郡大和町","city_kana":"クロカワグンタイワチョウ","town":"学苑","town_kana":"ガクエン","prefecture_code":4},"3414":{"zip_code":"9813414","prefecture":"宮城県","prefecture_kana":"ミヤギケン","city":"黒川郡大和町","city_kana":"クロカワグンタイワチョウ","town":"鶴巣太田","town_kana":"ツルスオオタ","prefecture_code":4},"3411":{"zip_code":"9813411","prefecture":"宮城県","prefecture_kana":"ミヤギケン","city":"黒川郡大和町","city_kana":"クロカワグンタイワチョウ","town":"鶴巣大平","town_kana":"ツルスオオダイラ","prefecture_code":4},"3415":{"zip_code":"9813415","prefecture":"宮城県","prefecture_kana":"ミヤギケン","city":"黒川郡大和町","city_kana":"クロカワグンタイワチョウ","town":"鶴巣小鶴沢","town_kana":"ツルスオヅルサワ","prefecture_code":4},"3417":{"zip_code":"9813417","prefecture":"宮城県","prefecture_kana":"ミヤギケン","city":"黒川郡大和町","city_kana":"クロカワグンタイワチョウ","town":"鶴巣北目大崎","town_kana":"ツルスキタメオオサキ","prefecture_code":4},"3418":{"zip_code":"9813418","prefecture":"宮城県","prefecture_kana":"ミヤギケン","city":"黒川郡大和町","city_kana":"クロカワグンタイワチョウ","town":"鶴巣下草","town_kana":"ツルスシモクサ","prefecture_code":4},"3412":{"zip_code":"9813412","prefecture":"宮城県","prefecture_kana":"ミヤギケン","city":"黒川郡大和町","city_kana":"クロカワグンタイワチョウ","town":"鶴巣鳥屋","town_kana":"ツルストヤ","prefecture_code":4},"3413":{"zip_code":"9813413","prefecture":"宮城県","prefecture_kana":"ミヤギケン","city":"黒川郡大和町","city_kana":"クロカワグンタイワチョウ","town":"鶴巣幕柳","town_kana":"ツルスマクヤナギ","prefecture_code":4},"3416":{"zip_code":"9813416","prefecture":"宮城県","prefecture_kana":"ミヤギケン","city":"黒川郡大和町","city_kana":"クロカワグンタイワチョウ","town":"鶴巣山田","town_kana":"ツルスヤマダ","prefecture_code":4},"3629":{"zip_code":"9813629","prefecture":"宮城県","prefecture_kana":"ミヤギケン","city":"黒川郡大和町","city_kana":"クロカワグンタイワチョウ","town":"テクノヒルズ","town_kana":"テクノヒルズ","prefecture_code":4},"3419":{"zip_code":"9813419","prefecture":"宮城県","prefecture_kana":"ミヤギケン","city":"黒川郡大和町","city_kana":"クロカワグンタイワチョウ","town":"まいの","town_kana":"マイノ","prefecture_code":4},"3408":{"zip_code":"9813408","prefecture":"宮城県","prefecture_kana":"ミヤギケン","city":"黒川郡大和町","city_kana":"クロカワグンタイワチョウ","town":"松坂平","town_kana":"マツサカダイラ","prefecture_code":4},"3624":{"zip_code":"9813624","prefecture":"宮城県","prefecture_kana":"ミヤギケン","city":"黒川郡大和町","city_kana":"クロカワグンタイワチョウ","town":"宮床","town_kana":"ミヤトコ","prefecture_code":4},"3622":{"zip_code":"9813622","prefecture":"宮城県","prefecture_kana":"ミヤギケン","city":"黒川郡大和町","city_kana":"クロカワグンタイワチョウ","town":"もみじケ丘","town_kana":"モミジガオカ","prefecture_code":4},"3628":{"zip_code":"9813628","prefecture":"宮城県","prefecture_kana":"ミヤギケン","city":"黒川郡大和町","city_kana":"クロカワグンタイワチョウ","town":"杜の丘","town_kana":"モリノオカ","prefecture_code":4},"3621":{"zip_code":"9813621","prefecture":"宮城県","prefecture_kana":"ミヤギケン","city":"黒川郡大和町","city_kana":"クロカワグンタイワチョウ","town":"吉岡","town_kana":"ヨシオカ","prefecture_code":4},"3627":{"zip_code":"9813627","prefecture":"宮城県","prefecture_kana":"ミヤギケン","city":"黒川郡大和町","city_kana":"クロカワグンタイワチョウ","town":"吉岡東","town_kana":"ヨシオカヒガシ","prefecture_code":4},"3626":{"zip_code":"9813626","prefecture":"宮城県","prefecture_kana":"ミヤギケン","city":"黒川郡大和町","city_kana":"クロカワグンタイワチョウ","town":"吉岡南","town_kana":"ヨシオカミナミ","prefecture_code":4},"3625":{"zip_code":"9813625","prefecture":"宮城県","prefecture_kana":"ミヤギケン","city":"黒川郡大和町","city_kana":"クロカワグンタイワチョウ","town":"吉田","town_kana":"ヨシダ","prefecture_code":4},"3409":{"zip_code":"9813409","prefecture":"宮城県","prefecture_kana":"ミヤギケン","city":"黒川郡大和町","city_kana":"クロカワグンタイワチョウ","town":"流通平","town_kana":"リュウツウダイラ","prefecture_code":4},"3500":{"zip_code":"9813500","prefecture":"宮城県","prefecture_kana":"ミヤギケン","city":"黒川郡大郷町","city_kana":"クロカワグンオオサトチョウ","town":"","town_kana":"","prefecture_code":4},"3503":{"zip_code":"9813503","prefecture":"宮城県","prefecture_kana":"ミヤギケン","city":"黒川郡大郷町","city_kana":"クロカワグンオオサトチョウ","town":"石原","town_kana":"イシバラ","prefecture_code":4},"3524":{"zip_code":"9813524","prefecture":"宮城県","prefecture_kana":"ミヤギケン","city":"黒川郡大郷町","city_kana":"クロカワグンオオサトチョウ","town":"鶉崎","town_kana":"ウズラサキ","prefecture_code":4},"3501":{"zip_code":"9813501","prefecture":"宮城県","prefecture_kana":"ミヤギケン","city":"黒川郡大郷町","city_kana":"クロカワグンオオサトチョウ","town":"大松沢","town_kana":"オオマツザワ","prefecture_code":4},"3502":{"zip_code":"9813502","prefecture":"宮城県","prefecture_kana":"ミヤギケン","city":"黒川郡大郷町","city_kana":"クロカワグンオオサトチョウ","town":"粕川","town_kana":"カスカワ","prefecture_code":4},"3514":{"zip_code":"9813514","prefecture":"宮城県","prefecture_kana":"ミヤギケン","city":"黒川郡大郷町","city_kana":"クロカワグンオオサトチョウ","town":"川内","town_kana":"カワウチ","prefecture_code":4},"3512":{"zip_code":"9813512","prefecture":"宮城県","prefecture_kana":"ミヤギケン","city":"黒川郡大郷町","city_kana":"クロカワグンオオサトチョウ","town":"不来内","town_kana":"コズナイ","prefecture_code":4},"3523":{"zip_code":"9813523","prefecture":"宮城県","prefecture_kana":"ミヤギケン","city":"黒川郡大郷町","city_kana":"クロカワグンオオサトチョウ","town":"土橋","town_kana":"ツチハシ","prefecture_code":4},"3521":{"zip_code":"9813521","prefecture":"宮城県","prefecture_kana":"ミヤギケン","city":"黒川郡大郷町","city_kana":"クロカワグンオオサトチョウ","town":"中村","town_kana":"ナカムラ","prefecture_code":4},"3515":{"zip_code":"9813515","prefecture":"宮城県","prefecture_kana":"ミヤギケン","city":"黒川郡大郷町","city_kana":"クロカワグンオオサトチョウ","town":"羽生","town_kana":"ハニュウ","prefecture_code":4},"3522":{"zip_code":"9813522","prefecture":"宮城県","prefecture_kana":"ミヤギケン","city":"黒川郡大郷町","city_kana":"クロカワグンオオサトチョウ","town":"東成田","town_kana":"ヒガシナリタ","prefecture_code":4},"3513":{"zip_code":"9813513","prefecture":"宮城県","prefecture_kana":"ミヤギケン","city":"黒川郡大郷町","city_kana":"クロカワグンオオサトチョウ","town":"味明","town_kana":"ミアケ","prefecture_code":4},"3511":{"zip_code":"9813511","prefecture":"宮城県","prefecture_kana":"ミヤギケン","city":"黒川郡大郷町","city_kana":"クロカワグンオオサトチョウ","town":"山崎","town_kana":"ヤマサキ","prefecture_code":4},"3300":{"zip_code":"9813300","prefecture":"宮城県","prefecture_kana":"ミヤギケン","city":"黒川郡富谷町","city_kana":"クロカワグントミヤマチ","town":"","town_kana":"","prefecture_code":4},"3326":{"zip_code":"9813326","prefecture":"宮城県","prefecture_kana":"ミヤギケン","city":"黒川郡富谷町","city_kana":"クロカワグントミヤマチ","town":"明石","town_kana":"アカイシ","prefecture_code":4},"3332":{"zip_code":"9813332","prefecture":"宮城県","prefecture_kana":"ミヤギケン","city":"黒川郡富谷町","city_kana":"クロカワグントミヤマチ","town":"明石台","town_kana":"アカイシダイ","prefecture_code":4},"3361":{"zip_code":"9813361","prefecture":"宮城県","prefecture_kana":"ミヤギケン","city":"黒川郡富谷町","city_kana":"クロカワグントミヤマチ","town":"あけの平","town_kana":"アケノダイラ","prefecture_code":4},"3325":{"zip_code":"9813325","prefecture":"宮城県","prefecture_kana":"ミヤギケン","city":"黒川郡富谷町","city_kana":"クロカワグントミヤマチ","town":"石積","town_kana":"イシヅモリ","prefecture_code":4},"3305":{"zip_code":"9813305","prefecture":"宮城県","prefecture_kana":"ミヤギケン","city":"黒川郡富谷町","city_kana":"クロカワグントミヤマチ","town":"一ノ関","town_kana":"イチノセキ","prefecture_code":4},"3322":{"zip_code":"9813322","prefecture":"宮城県","prefecture_kana":"ミヤギケン","city":"黒川郡富谷町","city_kana":"クロカワグントミヤマチ","town":"今泉","town_kana":"イマイズミ","prefecture_code":4},"3323":{"zip_code":"9813323","prefecture":"宮城県","prefecture_kana":"ミヤギケン","city":"黒川郡富谷町","city_kana":"クロカワグントミヤマチ","town":"大亀","town_kana":"オオガメ","prefecture_code":4},"3329":{"zip_code":"9813329","prefecture":"宮城県","prefecture_kana":"ミヤギケン","city":"黒川郡富谷町","city_kana":"クロカワグントミヤマチ","town":"大清水","town_kana":"オオシミズ","prefecture_code":4},"3321":{"zip_code":"9813321","prefecture":"宮城県","prefecture_kana":"ミヤギケン","city":"黒川郡富谷町","city_kana":"クロカワグントミヤマチ","town":"大童","town_kana":"オオワラ","prefecture_code":4},"3328":{"zip_code":"9813328","prefecture":"宮城県","prefecture_kana":"ミヤギケン","city":"黒川郡富谷町","city_kana":"クロカワグントミヤマチ","town":"上桜木","town_kana":"カミサクラギ","prefecture_code":4},"3327":{"zip_code":"9813327","prefecture":"宮城県","prefecture_kana":"ミヤギケン","city":"黒川郡富谷町","city_kana":"クロカワグントミヤマチ","town":"穀田","town_kana":"コクダ","prefecture_code":4},"3302":{"zip_code":"9813302","prefecture":"宮城県","prefecture_kana":"ミヤギケン","city":"黒川郡富谷町","city_kana":"クロカワグントミヤマチ","town":"三ノ関","town_kana":"サンノセキ","prefecture_code":4},"3301":{"zip_code":"9813301","prefecture":"宮城県","prefecture_kana":"ミヤギケン","city":"黒川郡富谷町","city_kana":"クロカワグントミヤマチ","town":"志戸田","town_kana":"シトダ","prefecture_code":4},"3303":{"zip_code":"9813303","prefecture":"宮城県","prefecture_kana":"ミヤギケン","city":"黒川郡富谷町","city_kana":"クロカワグントミヤマチ","town":"太子堂","town_kana":"タイシドウ","prefecture_code":4},"3351":{"zip_code":"9813351","prefecture":"宮城県","prefecture_kana":"ミヤギケン","city":"黒川郡富谷町","city_kana":"クロカワグントミヤマチ","town":"鷹乃杜","town_kana":"タカノモリ","prefecture_code":4},"3312":{"zip_code":"9813312","prefecture":"宮城県","prefecture_kana":"ミヤギケン","city":"黒川郡富谷町","city_kana":"クロカワグントミヤマチ","town":"とちの木","town_kana":"トチノキ","prefecture_code":4},"3352":{"zip_code":"9813352","prefecture":"宮城県","prefecture_kana":"ミヤギケン","city":"黒川郡富谷町","city_kana":"クロカワグントミヤマチ","town":"富ケ丘","town_kana":"トミガオカ","prefecture_code":4},"3311":{"zip_code":"9813311","prefecture":"宮城県","prefecture_kana":"ミヤギケン","city":"黒川郡富谷町","city_kana":"クロカワグントミヤマチ","town":"富谷","town_kana":"トミヤ","prefecture_code":4},"3341":{"zip_code":"9813341","prefecture":"宮城県","prefecture_kana":"ミヤギケン","city":"黒川郡富谷町","city_kana":"クロカワグントミヤマチ","town":"成田","town_kana":"ナリタ","prefecture_code":4},"3324":{"zip_code":"9813324","prefecture":"宮城県","prefecture_kana":"ミヤギケン","city":"黒川郡富谷町","city_kana":"クロカワグントミヤマチ","town":"西成田","town_kana":"ニシナリタ","prefecture_code":4},"3306":{"zip_code":"9813306","prefecture":"宮城県","prefecture_kana":"ミヤギケン","city":"黒川郡富谷町","city_kana":"クロカワグントミヤマチ","town":"二ノ関","town_kana":"ニノセキ","prefecture_code":4},"3331":{"zip_code":"9813331","prefecture":"宮城県","prefecture_kana":"ミヤギケン","city":"黒川郡富谷町","city_kana":"クロカワグントミヤマチ","town":"東向陽台","town_kana":"ヒガシコウヨウダイ","prefecture_code":4},"3362":{"zip_code":"9813362","prefecture":"宮城県","prefecture_kana":"ミヤギケン","city":"黒川郡富谷町","city_kana":"クロカワグントミヤマチ","town":"日吉台","town_kana":"ヒヨシダイ","prefecture_code":4},"3304":{"zip_code":"9813304","prefecture":"宮城県","prefecture_kana":"ミヤギケン","city":"黒川郡富谷町","city_kana":"クロカワグントミヤマチ","town":"ひより台","town_kana":"ヒヨリダイ","prefecture_code":4},"3363":{"zip_code":"9813363","prefecture":"宮城県","prefecture_kana":"ミヤギケン","city":"黒川郡富谷町","city_kana":"クロカワグントミヤマチ","town":"杜乃橋","town_kana":"モリノハシ","prefecture_code":4},"3601":{"zip_code":"9813601","prefecture":"宮城県","prefecture_kana":"ミヤギケン","city":"黒川郡大衡村","city_kana":"クロカワグンオオヒラムラ","town":"大瓜","town_kana":"オオウリ","prefecture_code":4},"3602":{"zip_code":"9813602","prefecture":"宮城県","prefecture_kana":"ミヤギケン","city":"黒川郡大衡村","city_kana":"クロカワグンオオヒラムラ","town":"大衡","town_kana":"オオヒラ","prefecture_code":4},"3605":{"zip_code":"9813605","prefecture":"宮城県","prefecture_kana":"ミヤギケン","city":"黒川郡大衡村","city_kana":"クロカワグンオオヒラムラ","town":"大森","town_kana":"オオモリ","prefecture_code":4},"3603":{"zip_code":"9813603","prefecture":"宮城県","prefecture_kana":"ミヤギケン","city":"黒川郡大衡村","city_kana":"クロカワグンオオヒラムラ","town":"沖の平","town_kana":"オキノダイラ","prefecture_code":4},"3607":{"zip_code":"9813607","prefecture":"宮城県","prefecture_kana":"ミヤギケン","city":"黒川郡大衡村","city_kana":"クロカワグンオオヒラムラ","town":"奥田","town_kana":"オクダ","prefecture_code":4},"3606":{"zip_code":"9813606","prefecture":"宮城県","prefecture_kana":"ミヤギケン","city":"黒川郡大衡村","city_kana":"クロカワグンオオヒラムラ","town":"桔梗平","town_kana":"キキョウダイラ","prefecture_code":4},"3604":{"zip_code":"9813604","prefecture":"宮城県","prefecture_kana":"ミヤギケン","city":"黒川郡大衡村","city_kana":"クロカワグンオオヒラムラ","town":"駒場","town_kana":"コマバ","prefecture_code":4},"3609":{"zip_code":"9813609","prefecture":"宮城県","prefecture_kana":"ミヤギケン","city":"黒川郡大衡村","city_kana":"クロカワグンオオヒラムラ","town":"中央平","town_kana":"チュウオウダイラ","prefecture_code":4},"3611":{"zip_code":"9813611","prefecture":"宮城県","prefecture_kana":"ミヤギケン","city":"黒川郡大衡村","city_kana":"クロカワグンオオヒラムラ","town":"ときわ台","town_kana":"トキワダイ","prefecture_code":4},"3608":{"zip_code":"9813608","prefecture":"宮城県","prefecture_kana":"ミヤギケン","city":"黒川郡大衡村","city_kana":"クロカワグンオオヒラムラ","town":"松の平","town_kana":"マツノダイラ","prefecture_code":4},"4100":{"zip_code":"9814100","prefecture":"宮城県","prefecture_kana":"ミヤギケン","city":"加美郡色麻町","city_kana":"カミグンシカマチョウ","town":"","town_kana":"","prefecture_code":4},"4121":{"zip_code":"9814121","prefecture":"宮城県","prefecture_kana":"ミヤギケン","city":"加美郡色麻町","city_kana":"カミグンシカマチョウ","town":"一の関","town_kana":"イチノセキ","prefecture_code":4},"4141":{"zip_code":"9814141","prefecture":"宮城県","prefecture_kana":"ミヤギケン","city":"加美郡色麻町","city_kana":"カミグンシカマチョウ","town":"王城寺","town_kana":"オウジョウジ","prefecture_code":4},"4101":{"zip_code":"9814101","prefecture":"宮城県","prefecture_kana":"ミヤギケン","city":"加美郡色麻町","city_kana":"カミグンシカマチョウ","town":"清水","town_kana":"キヨミズ","prefecture_code":4},"4111":{"zip_code":"9814111","prefecture":"宮城県","prefecture_kana":"ミヤギケン","city":"加美郡色麻町","city_kana":"カミグンシカマチョウ","town":"黒沢","town_kana":"クロサワ","prefecture_code":4},"4151":{"zip_code":"9814151","prefecture":"宮城県","prefecture_kana":"ミヤギケン","city":"加美郡色麻町","city_kana":"カミグンシカマチョウ","town":"小栗山","town_kana":"コグリヤマ","prefecture_code":4},"4122":{"zip_code":"9814122","prefecture":"宮城県","prefecture_kana":"ミヤギケン","city":"加美郡色麻町","city_kana":"カミグンシカマチョウ","town":"四竃","town_kana":"シカマ","prefecture_code":4},"4112":{"zip_code":"9814112","prefecture":"宮城県","prefecture_kana":"ミヤギケン","city":"加美郡色麻町","city_kana":"カミグンシカマチョウ","town":"志津","town_kana":"シヅ","prefecture_code":4},"4131":{"zip_code":"9814131","prefecture":"宮城県","prefecture_kana":"ミヤギケン","city":"加美郡色麻町","city_kana":"カミグンシカマチョウ","town":"大","town_kana":"ダイ","prefecture_code":4},"4102":{"zip_code":"9814102","prefecture":"宮城県","prefecture_kana":"ミヤギケン","city":"加美郡色麻町","city_kana":"カミグンシカマチョウ","town":"高城","town_kana":"タカギ","prefecture_code":4},"4103":{"zip_code":"9814103","prefecture":"宮城県","prefecture_kana":"ミヤギケン","city":"加美郡色麻町","city_kana":"カミグンシカマチョウ","town":"高根","town_kana":"タカネ","prefecture_code":4},"4104":{"zip_code":"9814104","prefecture":"宮城県","prefecture_kana":"ミヤギケン","city":"加美郡色麻町","city_kana":"カミグンシカマチョウ","town":"平沢","town_kana":"ヒラサワ","prefecture_code":4},"4105":{"zip_code":"9814105","prefecture":"宮城県","prefecture_kana":"ミヤギケン","city":"加美郡色麻町","city_kana":"カミグンシカマチョウ","town":"吉田","town_kana":"ヨシダ","prefecture_code":4},"4200":{"zip_code":"9814200","prefecture":"宮城県","prefecture_kana":"ミヤギケン","city":"加美郡加美町","city_kana":"カミグンカミマチ","town":"","town_kana":"","prefecture_code":4},"4264":{"zip_code":"9814264","prefecture":"宮城県","prefecture_kana":"ミヤギケン","city":"加美郡加美町","city_kana":"カミグンカミマチ","town":"赤塚","town_kana":"アカツカ","prefecture_code":4},"4375":{"zip_code":"9814375","prefecture":"宮城県","prefecture_kana":"ミヤギケン","city":"加美郡加美町","city_kana":"カミグンカミマチ","town":"味ケ袋","town_kana":"アジガフクロ","prefecture_code":4},"4275":{"zip_code":"9814275","prefecture":"宮城県","prefecture_kana":"ミヤギケン","city":"加美郡加美町","city_kana":"カミグンカミマチ","town":"穴畑","town_kana":"アナハタ","prefecture_code":4},"4323":{"zip_code":"9814323","prefecture":"宮城県","prefecture_kana":"ミヤギケン","city":"加美郡加美町","city_kana":"カミグンカミマチ","town":"石原","town_kana":"イシハラ","prefecture_code":4},"4311":{"zip_code":"9814311","prefecture":"宮城県","prefecture_kana":"ミヤギケン","city":"加美郡加美町","city_kana":"カミグンカミマチ","town":"板橋","town_kana":"イタバシ","prefecture_code":4},"4328":{"zip_code":"9814328","prefecture":"宮城県","prefecture_kana":"ミヤギケン","city":"加美郡加美町","city_kana":"カミグンカミマチ","town":"一里塚","town_kana":"イチリツカ","prefecture_code":4},"4262":{"zip_code":"9814262","prefecture":"宮城県","prefecture_kana":"ミヤギケン","city":"加美郡加美町","city_kana":"カミグンカミマチ","town":"一本杉","town_kana":"イッポンスギ","prefecture_code":4},"4274":{"zip_code":"9814274","prefecture":"宮城県","prefecture_kana":"ミヤギケン","city":"加美郡加美町","city_kana":"カミグンカミマチ","town":"一本柳","town_kana":"イッポンヤナギ","prefecture_code":4},"4277":{"zip_code":"9814277","prefecture":"宮城県","prefecture_kana":"ミヤギケン","city":"加美郡加美町","city_kana":"カミグンカミマチ","town":"一本柳南","town_kana":"イッポンヤナギミナミ","prefecture_code":4},"4356":{"zip_code":"9814356","prefecture":"宮城県","prefecture_kana":"ミヤギケン","city":"加美郡加美町","city_kana":"カミグンカミマチ","town":"芋沢","town_kana":"イモザワ","prefecture_code":4},"4327":{"zip_code":"9814327","prefecture":"宮城県","prefecture_kana":"ミヤギケン","city":"加美郡加美町","city_kana":"カミグンカミマチ","town":"上野原","town_kana":"ウエノハラ","prefecture_code":4},"4343":{"zip_code":"9814343","prefecture":"宮城県","prefecture_kana":"ミヤギケン","city":"加美郡加美町","city_kana":"カミグンカミマチ","town":"内谷地","town_kana":"ウチヤジ","prefecture_code":4},"4368":{"zip_code":"9814368","prefecture":"宮城県","prefecture_kana":"ミヤギケン","city":"加美郡加美町","city_kana":"カミグンカミマチ","town":"漆沢","town_kana":"ウルシザワ","prefecture_code":4},"4255":{"zip_code":"9814255","prefecture":"宮城県","prefecture_kana":"ミヤギケン","city":"加美郡加美町","city_kana":"カミグンカミマチ","town":"岡町","town_kana":"オカマチ","prefecture_code":4},"4226":{"zip_code":"9814226","prefecture":"宮城県","prefecture_kana":"ミヤギケン","city":"加美郡加美町","city_kana":"カミグンカミマチ","town":"押登目","town_kana":"オシトメ","prefecture_code":4},"4228":{"zip_code":"9814228","prefecture":"宮城県","prefecture_kana":"ミヤギケン","city":"加美郡加美町","city_kana":"カミグンカミマチ","town":"鹿島越","town_kana":"カシマゴシ","prefecture_code":4},"4367":{"zip_code":"9814367","prefecture":"宮城県","prefecture_kana":"ミヤギケン","city":"加美郡加美町","city_kana":"カミグンカミマチ","town":"門沢","town_kana":"カドサワ","prefecture_code":4},"4355":{"zip_code":"9814355","prefecture":"宮城県","prefecture_kana":"ミヤギケン","city":"加美郡加美町","city_kana":"カミグンカミマチ","town":"鹿原","town_kana":"カノハラ","prefecture_code":4},"4211":{"zip_code":"9814211","prefecture":"宮城県","prefecture_kana":"ミヤギケン","city":"加美郡加美町","city_kana":"カミグンカミマチ","town":"上狼塚","town_kana":"カミオイノヅカ","prefecture_code":4},"4273":{"zip_code":"9814273","prefecture":"宮城県","prefecture_kana":"ミヤギケン","city":"加美郡加美町","city_kana":"カミグンカミマチ","town":"上川原","town_kana":"カミカワラ","prefecture_code":4},"4201":{"zip_code":"9814201","prefecture":"宮城県","prefecture_kana":"ミヤギケン","city":"加美郡加美町","city_kana":"カミグンカミマチ","town":"上多田川","town_kana":"カミタダガワ","prefecture_code":4},"4374":{"zip_code":"9814374","prefecture":"宮城県","prefecture_kana":"ミヤギケン","city":"加美郡加美町","city_kana":"カミグンカミマチ","town":"上野目","town_kana":"カミノメ","prefecture_code":4},"4263":{"zip_code":"9814263","prefecture":"宮城県","prefecture_kana":"ミヤギケン","city":"加美郡加美町","city_kana":"カミグンカミマチ","town":"雁原","town_kana":"ガンバラ","prefecture_code":4},"4402":{"zip_code":"9814402","prefecture":"宮城県","prefecture_kana":"ミヤギケン","city":"加美郡加美町","city_kana":"カミグンカミマチ","town":"北川内","town_kana":"キタカワウチ","prefecture_code":4},"4322":{"zip_code":"9814322","prefecture":"宮城県","prefecture_kana":"ミヤギケン","city":"加美郡加美町","city_kana":"カミグンカミマチ","town":"北下原","town_kana":"キタシモハラ","prefecture_code":4},"4307":{"zip_code":"9814307","prefecture":"宮城県","prefecture_kana":"ミヤギケン","city":"加美郡加美町","city_kana":"カミグンカミマチ","town":"北田","town_kana":"キタダ","prefecture_code":4},"4331":{"zip_code":"9814331","prefecture":"宮城県","prefecture_kana":"ミヤギケン","city":"加美郡加美町","city_kana":"カミグンカミマチ","town":"北寺宿","town_kana":"キタテラシュク","prefecture_code":4},"4326":{"zip_code":"9814326","prefecture":"宮城県","prefecture_kana":"ミヤギケン","city":"加美郡加美町","city_kana":"カミグンカミマチ","town":"北ノ口","town_kana":"キタノクチ","prefecture_code":4},"4324":{"zip_code":"9814324","prefecture":"宮城県","prefecture_kana":"ミヤギケン","city":"加美郡加美町","city_kana":"カミグンカミマチ","town":"北原","town_kana":"キタハラ","prefecture_code":4},"4254":{"zip_code":"9814254","prefecture":"宮城県","prefecture_kana":"ミヤギケン","city":"加美郡加美町","city_kana":"カミグンカミマチ","town":"北町","town_kana":"キタマチ","prefecture_code":4},"4224":{"zip_code":"9814224","prefecture":"宮城県","prefecture_kana":"ミヤギケン","city":"加美郡加美町","city_kana":"カミグンカミマチ","town":"木伏","town_kana":"キップシ","prefecture_code":4},"4419":{"zip_code":"9814419","prefecture":"宮城県","prefecture_kana":"ミヤギケン","city":"加美郡加美町","city_kana":"カミグンカミマチ","town":"木舟","town_kana":"キブネ","prefecture_code":4},"4417":{"zip_code":"9814417","prefecture":"宮城県","prefecture_kana":"ミヤギケン","city":"加美郡加美町","city_kana":"カミグンカミマチ","town":"君ケ袋","town_kana":"キミガフクロ","prefecture_code":4},"4234":{"zip_code":"9814234","prefecture":"宮城県","prefecture_kana":"ミヤギケン","city":"加美郡加美町","city_kana":"カミグンカミマチ","town":"旧舘１番","town_kana":"キュウカン1バン","prefecture_code":4},"4235":{"zip_code":"9814235","prefecture":"宮城県","prefecture_kana":"ミヤギケン","city":"加美郡加美町","city_kana":"カミグンカミマチ","town":"旧舘２番","town_kana":"キュウカン2バン","prefecture_code":4},"4304":{"zip_code":"9814304","prefecture":"宮城県","prefecture_kana":"ミヤギケン","city":"加美郡加美町","city_kana":"カミグンカミマチ","town":"久保","town_kana":"クボ","prefecture_code":4},"4418":{"zip_code":"9814418","prefecture":"宮城県","prefecture_kana":"ミヤギケン","city":"加美郡加美町","city_kana":"カミグンカミマチ","town":"小泉","town_kana":"コイズミ","prefecture_code":4},"4362":{"zip_code":"9814362","prefecture":"宮城県","prefecture_kana":"ミヤギケン","city":"加美郡加美町","city_kana":"カミグンカミマチ","town":"小瀬","town_kana":"コゼ","prefecture_code":4},"4325":{"zip_code":"9814325","prefecture":"宮城県","prefecture_kana":"ミヤギケン","city":"加美郡加美町","city_kana":"カミグンカミマチ","town":"五百刈","town_kana":"ゴヒャクガリ","prefecture_code":4},"4415":{"zip_code":"9814415","prefecture":"宮城県","prefecture_kana":"ミヤギケン","city":"加美郡加美町","city_kana":"カミグンカミマチ","town":"米泉","town_kana":"コメイズミ","prefecture_code":4},"4212":{"zip_code":"9814212","prefecture":"宮城県","prefecture_kana":"ミヤギケン","city":"加美郡加美町","city_kana":"カミグンカミマチ","town":"下狼塚","town_kana":"シモオイノヅカ","prefecture_code":4},"4256":{"zip_code":"9814256","prefecture":"宮城県","prefecture_kana":"ミヤギケン","city":"加美郡加美町","city_kana":"カミグンカミマチ","town":"下川原","town_kana":"シモカワラ","prefecture_code":4},"4345":{"zip_code":"9814345","prefecture":"宮城県","prefecture_kana":"ミヤギケン","city":"加美郡加美町","city_kana":"カミグンカミマチ","town":"下北浦","town_kana":"シモキタウラ","prefecture_code":4},"4336":{"zip_code":"9814336","prefecture":"宮城県","prefecture_kana":"ミヤギケン","city":"加美郡加美町","city_kana":"カミグンカミマチ","town":"下タ川原","town_kana":"シモタカワハラ","prefecture_code":4},"4202":{"zip_code":"9814202","prefecture":"宮城県","prefecture_kana":"ミヤギケン","city":"加美郡加美町","city_kana":"カミグンカミマチ","town":"下多田川","town_kana":"シモタダガワ","prefecture_code":4},"4222":{"zip_code":"9814222","prefecture":"宮城県","prefecture_kana":"ミヤギケン","city":"加美郡加美町","city_kana":"カミグンカミマチ","town":"下新田","town_kana":"シモニイダ","prefecture_code":4},"4302":{"zip_code":"9814302","prefecture":"宮城県","prefecture_kana":"ミヤギケン","city":"加美郡加美町","city_kana":"カミグンカミマチ","town":"下野目","town_kana":"シモノメ","prefecture_code":4},"4321":{"zip_code":"9814321","prefecture":"宮城県","prefecture_kana":"ミヤギケン","city":"加美郡加美町","city_kana":"カミグンカミマチ","town":"下原","town_kana":"シモハラ","prefecture_code":4},"4272":{"zip_code":"9814272","prefecture":"宮城県","prefecture_kana":"ミヤギケン","city":"加美郡加美町","city_kana":"カミグンカミマチ","town":"城生","town_kana":"ジョウ","prefecture_code":4},"4227":{"zip_code":"9814227","prefecture":"宮城県","prefecture_kana":"ミヤギケン","city":"加美郡加美町","city_kana":"カミグンカミマチ","town":"新川原","town_kana":"シンカワラ","prefecture_code":4},"4225":{"zip_code":"9814225","prefecture":"宮城県","prefecture_kana":"ミヤギケン","city":"加美郡加美町","city_kana":"カミグンカミマチ","town":"新木伏","town_kana":"シンキツプシ","prefecture_code":4},"4335":{"zip_code":"9814335","prefecture":"宮城県","prefecture_kana":"ミヤギケン","city":"加美郡加美町","city_kana":"カミグンカミマチ","town":"新小路","town_kana":"シンコウジ","prefecture_code":4},"4317":{"zip_code":"9814317","prefecture":"宮城県","prefecture_kana":"ミヤギケン","city":"加美郡加美町","city_kana":"カミグンカミマチ","town":"神山西","town_kana":"シンザンニシ","prefecture_code":4},"4223":{"zip_code":"9814223","prefecture":"宮城県","prefecture_kana":"ミヤギケン","city":"加美郡加美町","city_kana":"カミグンカミマチ","town":"雑式ノ目","town_kana":"ゾウシキノメ","prefecture_code":4},"4253":{"zip_code":"9814253","prefecture":"宮城県","prefecture_kana":"ミヤギケン","city":"加美郡加美町","city_kana":"カミグンカミマチ","town":"大門","town_kana":"ダイモン","prefecture_code":4},"4363":{"zip_code":"9814363","prefecture":"宮城県","prefecture_kana":"ミヤギケン","city":"加美郡加美町","city_kana":"カミグンカミマチ","town":"滝下","town_kana":"タキシタ","prefecture_code":4},"4314":{"zip_code":"9814314","prefecture":"宮城県","prefecture_kana":"ミヤギケン","city":"加美郡加美町","city_kana":"カミグンカミマチ","town":"田中","town_kana":"タナカ","prefecture_code":4},"4372":{"zip_code":"9814372","prefecture":"宮城県","prefecture_kana":"ミヤギケン","city":"加美郡加美町","city_kana":"カミグンカミマチ","town":"長清水","town_kana":"チョウシミズ","prefecture_code":4},"4312":{"zip_code":"9814312","prefecture":"宮城県","prefecture_kana":"ミヤギケン","city":"加美郡加美町","city_kana":"カミグンカミマチ","town":"月崎皆屋敷","town_kana":"ツキザキミナヤシキ","prefecture_code":4},"4316":{"zip_code":"9814316","prefecture":"宮城県","prefecture_kana":"ミヤギケン","city":"加美郡加美町","city_kana":"カミグンカミマチ","town":"月崎","town_kana":"ツキザキ","prefecture_code":4},"4329":[{"zip_code":"9814329","prefecture":"宮城県","prefecture_kana":"ミヤギケン","city":"加美郡加美町","city_kana":"カミグンカミマチ","town":"鶴喰","town_kana":"ツルバミ","prefecture_code":4},{"zip_code":"9814329","prefecture":"宮城県","prefecture_kana":"ミヤギケン","city":"加美郡加美町","city_kana":"カミグンカミマチ","town":"鶴羽美","town_kana":"ツルバミ","prefecture_code":4}],"4353":{"zip_code":"9814353","prefecture":"宮城県","prefecture_kana":"ミヤギケン","city":"加美郡加美町","city_kana":"カミグンカミマチ","town":"照井","town_kana":"テルイ","prefecture_code":4},"4306":{"zip_code":"9814306","prefecture":"宮城県","prefecture_kana":"ミヤギケン","city":"加美郡加美町","city_kana":"カミグンカミマチ","town":"天王","town_kana":"テンノウ","prefecture_code":4},"4301":{"zip_code":"9814301","prefecture":"宮城県","prefecture_kana":"ミヤギケン","city":"加美郡加美町","city_kana":"カミグンカミマチ","town":"樋田","town_kana":"トイダ","prefecture_code":4},"4361":{"zip_code":"9814361","prefecture":"宮城県","prefecture_kana":"ミヤギケン","city":"加美郡加美町","city_kana":"カミグンカミマチ","town":"藤兵衛前","town_kana":"トウベイマエ","prefecture_code":4},"4231":{"zip_code":"9814231","prefecture":"宮城県","prefecture_kana":"ミヤギケン","city":"加美郡加美町","city_kana":"カミグンカミマチ","town":"百目木１番","town_kana":"ドウメキ1バン","prefecture_code":4},"4232":{"zip_code":"9814232","prefecture":"宮城県","prefecture_kana":"ミヤギケン","city":"加美郡加美町","city_kana":"カミグンカミマチ","town":"百目木２番","town_kana":"ドウメキ2バン","prefecture_code":4},"4233":{"zip_code":"9814233","prefecture":"宮城県","prefecture_kana":"ミヤギケン","city":"加美郡加美町","city_kana":"カミグンカミマチ","town":"百目木３番","town_kana":"ドウメキ3バン","prefecture_code":4},"4412":{"zip_code":"9814412","prefecture":"宮城県","prefecture_kana":"ミヤギケン","city":"加美郡加美町","city_kana":"カミグンカミマチ","town":"鳥嶋","town_kana":"トリシマ","prefecture_code":4},"4413":{"zip_code":"9814413","prefecture":"宮城県","prefecture_kana":"ミヤギケン","city":"加美郡加美町","city_kana":"カミグンカミマチ","town":"鳥屋ケ崎","town_kana":"トリヤガサキ","prefecture_code":4},"4315":{"zip_code":"9814315","prefecture":"宮城県","prefecture_kana":"ミヤギケン","city":"加美郡加美町","city_kana":"カミグンカミマチ","town":"中嶋","town_kana":"ナカジマ","prefecture_code":4},"4337":{"zip_code":"9814337","prefecture":"宮城県","prefecture_kana":"ミヤギケン","city":"加美郡加美町","city_kana":"カミグンカミマチ","town":"長檀","town_kana":"ナガダン","prefecture_code":4},"4333":{"zip_code":"9814333","prefecture":"宮城県","prefecture_kana":"ミヤギケン","city":"加美郡加美町","city_kana":"カミグンカミマチ","town":"中畑","town_kana":"ナカハタ","prefecture_code":4},"4341":{"zip_code":"9814341","prefecture":"宮城県","prefecture_kana":"ミヤギケン","city":"加美郡加美町","city_kana":"カミグンカミマチ","town":"中原","town_kana":"ナカハラ","prefecture_code":4},"4203":{"zip_code":"9814203","prefecture":"宮城県","prefecture_kana":"ミヤギケン","city":"加美郡加美町","city_kana":"カミグンカミマチ","town":"菜切谷","town_kana":"ナギリヤ","prefecture_code":4},"4252":{"zip_code":"9814252","prefecture":"宮城県","prefecture_kana":"ミヤギケン","city":"加美郡加美町","city_kana":"カミグンカミマチ","town":"西田","town_kana":"ニシダ","prefecture_code":4},"4251":{"zip_code":"9814251","prefecture":"宮城県","prefecture_kana":"ミヤギケン","city":"加美郡加美町","city_kana":"カミグンカミマチ","town":"西町","town_kana":"ニシマチ","prefecture_code":4},"4313":{"zip_code":"9814313","prefecture":"宮城県","prefecture_kana":"ミヤギケン","city":"加美郡加美町","city_kana":"カミグンカミマチ","town":"二ノ坪","town_kana":"ニノツボ","prefecture_code":4},"4416":{"zip_code":"9814416","prefecture":"宮城県","prefecture_kana":"ミヤギケン","city":"加美郡加美町","city_kana":"カミグンカミマチ","town":"沼ケ袋","town_kana":"ヌマガフクロ","prefecture_code":4},"4365":{"zip_code":"9814365","prefecture":"宮城県","prefecture_kana":"ミヤギケン","city":"加美郡加美町","city_kana":"カミグンカミマチ","town":"伯治","town_kana":"ハクジ","prefecture_code":4},"4352":{"zip_code":"9814352","prefecture":"宮城県","prefecture_kana":"ミヤギケン","city":"加美郡加美町","city_kana":"カミグンカミマチ","town":"八石下","town_kana":"ハッコクシタ","prefecture_code":4},"4271":{"zip_code":"9814271","prefecture":"宮城県","prefecture_kana":"ミヤギケン","city":"加美郡加美町","city_kana":"カミグンカミマチ","town":"羽場","town_kana":"ハバ","prefecture_code":4},"4371":{"zip_code":"9814371","prefecture":"宮城県","prefecture_kana":"ミヤギケン","city":"加美郡加美町","city_kana":"カミグンカミマチ","town":"原","town_kana":"ハラ","prefecture_code":4},"4347":{"zip_code":"9814347","prefecture":"宮城県","prefecture_kana":"ミヤギケン","city":"加美郡加美町","city_kana":"カミグンカミマチ","town":"原高谷地屋敷","town_kana":"ハラタカヤジヤシキ","prefecture_code":4},"4342":{"zip_code":"9814342","prefecture":"宮城県","prefecture_kana":"ミヤギケン","city":"加美郡加美町","city_kana":"カミグンカミマチ","town":"原中原浦","town_kana":"ハラナカハラウラ","prefecture_code":4},"4373":{"zip_code":"9814373","prefecture":"宮城県","prefecture_kana":"ミヤギケン","city":"加美郡加美町","city_kana":"カミグンカミマチ","town":"原町","town_kana":"ハラマチ","prefecture_code":4},"4344":{"zip_code":"9814344","prefecture":"宮城県","prefecture_kana":"ミヤギケン","city":"加美郡加美町","city_kana":"カミグンカミマチ","town":"原道端屋敷","town_kana":"ハラミチバタヤシキ","prefecture_code":4},"4346":{"zip_code":"9814346","prefecture":"宮城県","prefecture_kana":"ミヤギケン","city":"加美郡加美町","city_kana":"カミグンカミマチ","town":"原南江端","town_kana":"ハラミナミエバタ","prefecture_code":4},"4213":{"zip_code":"9814213","prefecture":"宮城県","prefecture_kana":"ミヤギケン","city":"加美郡加美町","city_kana":"カミグンカミマチ","town":"平柳","town_kana":"ヒラヤナギ","prefecture_code":4},"4354":{"zip_code":"9814354","prefecture":"宮城県","prefecture_kana":"ミヤギケン","city":"加美郡加美町","city_kana":"カミグンカミマチ","town":"麓山","town_kana":"フモトヤマ","prefecture_code":4},"4303":{"zip_code":"9814303","prefecture":"宮城県","prefecture_kana":"ミヤギケン","city":"加美郡加美町","city_kana":"カミグンカミマチ","town":"前田下","town_kana":"マエダシモ","prefecture_code":4},"4414":{"zip_code":"9814414","prefecture":"宮城県","prefecture_kana":"ミヤギケン","city":"加美郡加美町","city_kana":"カミグンカミマチ","town":"孫沢","town_kana":"マゴサワ","prefecture_code":4},"4261":{"zip_code":"9814261","prefecture":"宮城県","prefecture_kana":"ミヤギケン","city":"加美郡加美町","city_kana":"カミグンカミマチ","town":"町裏","town_kana":"マチウラ","prefecture_code":4},"4242":{"zip_code":"9814242","prefecture":"宮城県","prefecture_kana":"ミヤギケン","city":"加美郡加美町","city_kana":"カミグンカミマチ","town":"町西","town_kana":"マチニシ","prefecture_code":4},"4334":{"zip_code":"9814334","prefecture":"宮城県","prefecture_kana":"ミヤギケン","city":"加美郡加美町","city_kana":"カミグンカミマチ","town":"町屋敷","town_kana":"マチヤシキ","prefecture_code":4},"4364":{"zip_code":"9814364","prefecture":"宮城県","prefecture_kana":"ミヤギケン","city":"加美郡加美町","city_kana":"カミグンカミマチ","town":"松田","town_kana":"マツタ","prefecture_code":4},"4366":{"zip_code":"9814366","prefecture":"宮城県","prefecture_kana":"ミヤギケン","city":"加美郡加美町","city_kana":"カミグンカミマチ","town":"水芋","town_kana":"ミズイモ","prefecture_code":4},"4351":{"zip_code":"9814351","prefecture":"宮城県","prefecture_kana":"ミヤギケン","city":"加美郡加美町","city_kana":"カミグンカミマチ","town":"南小路","town_kana":"ミナミコウジ","prefecture_code":4},"4332":{"zip_code":"9814332","prefecture":"宮城県","prefecture_kana":"ミヤギケン","city":"加美郡加美町","city_kana":"カミグンカミマチ","town":"南寺宿","town_kana":"ミナミテラシュク","prefecture_code":4},"4241":{"zip_code":"9814241","prefecture":"宮城県","prefecture_kana":"ミヤギケン","city":"加美郡加美町","city_kana":"カミグンカミマチ","town":"南町","town_kana":"ミナミマチ","prefecture_code":4},"4401":{"zip_code":"9814401","prefecture":"宮城県","prefecture_kana":"ミヤギケン","city":"加美郡加美町","city_kana":"カミグンカミマチ","town":"宮崎","town_kana":"ミヤザキ","prefecture_code":4},"4305":{"zip_code":"9814305","prefecture":"宮城県","prefecture_kana":"ミヤギケン","city":"加美郡加美町","city_kana":"カミグンカミマチ","town":"宮田","town_kana":"ミヤタ","prefecture_code":4},"4276":{"zip_code":"9814276","prefecture":"宮城県","prefecture_kana":"ミヤギケン","city":"加美郡加美町","city_kana":"カミグンカミマチ","town":"焼橋","town_kana":"ヤキハシ","prefecture_code":4},"4229":{"zip_code":"9814229","prefecture":"宮城県","prefecture_kana":"ミヤギケン","city":"加美郡加美町","city_kana":"カミグンカミマチ","town":"薬師堂","town_kana":"ヤクシドウ","prefecture_code":4},"4265":{"zip_code":"9814265","prefecture":"宮城県","prefecture_kana":"ミヤギケン","city":"加美郡加美町","city_kana":"カミグンカミマチ","town":"矢越","town_kana":"ヤゴシ","prefecture_code":4},"4411":{"zip_code":"9814411","prefecture":"宮城県","prefecture_kana":"ミヤギケン","city":"加美郡加美町","city_kana":"カミグンカミマチ","town":"谷地森","town_kana":"ヤチモリ","prefecture_code":4},"4403":{"zip_code":"9814403","prefecture":"宮城県","prefecture_kana":"ミヤギケン","city":"加美郡加美町","city_kana":"カミグンカミマチ","town":"柳沢","town_kana":"ヤナギサワ","prefecture_code":4},"4221":{"zip_code":"9814221","prefecture":"宮城県","prefecture_kana":"ミヤギケン","city":"加美郡加美町","city_kana":"カミグンカミマチ","town":"四日市場","town_kana":"ヨッカイチバ","prefecture_code":4}}