{"0000":{"zip_code":"9830000","prefecture":"宮城県","prefecture_kana":"ミヤギケン","city":"仙台市宮城野区","city_kana":"センダイシミヤギノク","town":"","town_kana":"","prefecture_code":4},"0832":{"zip_code":"9830832","prefecture":"宮城県","prefecture_kana":"ミヤギケン","city":"仙台市宮城野区","city_kana":"センダイシミヤギノク","town":"安養寺","town_kana":"アンヨウジ","prefecture_code":4},"0047":{"zip_code":"9830047","prefecture":"宮城県","prefecture_kana":"ミヤギケン","city":"仙台市宮城野区","city_kana":"センダイシミヤギノク","town":"銀杏町","town_kana":"イチョウマチ","prefecture_code":4},"0012":{"zip_code":"9830012","prefecture":"宮城県","prefecture_kana":"ミヤギケン","city":"仙台市宮城野区","city_kana":"センダイシミヤギノク","town":"出花","town_kana":"イデカ","prefecture_code":4},"0821":{"zip_code":"9830821","prefecture":"宮城県","prefecture_kana":"ミヤギケン","city":"仙台市宮城野区","city_kana":"センダイシミヤギノク","town":"岩切","town_kana":"イワキリ","prefecture_code":4},"0828":{"zip_code":"9830828","prefecture":"宮城県","prefecture_kana":"ミヤギケン","city":"仙台市宮城野区","city_kana":"センダイシミヤギノク","town":"岩切分台","town_kana":"イワキリブンダイ","prefecture_code":4},"0034":{"zip_code":"9830034","prefecture":"宮城県","prefecture_kana":"ミヤギケン","city":"仙台市宮城野区","city_kana":"センダイシミヤギノク","town":"扇町","town_kana":"オウギマチ","prefecture_code":4},"0835":{"zip_code":"9830835","prefecture":"宮城県","prefecture_kana":"ミヤギケン","city":"仙台市宮城野区","city_kana":"センダイシミヤギノク","town":"大梶","town_kana":"オオカジ","prefecture_code":4},"0003":{"zip_code":"9830003","prefecture":"宮城県","prefecture_kana":"ミヤギケン","city":"仙台市宮城野区","city_kana":"センダイシミヤギノク","town":"岡田","town_kana":"オカダ","prefecture_code":4},"0004":{"zip_code":"9830004","prefecture":"宮城県","prefecture_kana":"ミヤギケン","city":"仙台市宮城野区","city_kana":"センダイシミヤギノク","town":"岡田西町","town_kana":"オカダニシマチ","prefecture_code":4},"0803":{"zip_code":"9830803","prefecture":"宮城県","prefecture_kana":"ミヤギケン","city":"仙台市宮城野区","city_kana":"センダイシミヤギノク","town":"小田原","town_kana":"オダワラ","prefecture_code":4},"0813":{"zip_code":"9830813","prefecture":"宮城県","prefecture_kana":"ミヤギケン","city":"仙台市宮城野区","city_kana":"センダイシミヤギノク","town":"小田原牛小屋丁","town_kana":"オダワラウシゴヤチョウ","prefecture_code":4},"0816":{"zip_code":"9830816","prefecture":"宮城県","prefecture_kana":"ミヤギケン","city":"仙台市宮城野区","city_kana":"センダイシミヤギノク","town":"小田原金剛院丁","town_kana":"オダワラコンゴウインチョウ","prefecture_code":4},"0811":{"zip_code":"9830811","prefecture":"宮城県","prefecture_kana":"ミヤギケン","city":"仙台市宮城野区","city_kana":"センダイシミヤギノク","town":"小田原清水沼通","town_kana":"オダワラシミズヌマドオリ","prefecture_code":4},"0814":{"zip_code":"9830814","prefecture":"宮城県","prefecture_kana":"ミヤギケン","city":"仙台市宮城野区","city_kana":"センダイシミヤギノク","town":"小田原大行院丁","town_kana":"オダワラダイギョウインチョウ","prefecture_code":4},"0815":{"zip_code":"9830815","prefecture":"宮城県","prefecture_kana":"ミヤギケン","city":"仙台市宮城野区","city_kana":"センダイシミヤギノク","town":"小田原広丁","town_kana":"オダワラヒロチョウ","prefecture_code":4},"0817":{"zip_code":"9830817","prefecture":"宮城県","prefecture_kana":"ミヤギケン","city":"仙台市宮城野区","city_kana":"センダイシミヤギノク","town":"小田原山本丁","town_kana":"オダワラヤマモトチョウ","prefecture_code":4},"0812":{"zip_code":"9830812","prefecture":"宮城県","prefecture_kana":"ミヤギケン","city":"仙台市宮城野区","city_kana":"センダイシミヤギノク","town":"小田原弓ノ町","town_kana":"オダワラユミノマチ","prefecture_code":4},"0866":{"zip_code":"9830866","prefecture":"宮城県","prefecture_kana":"ミヤギケン","city":"仙台市宮城野区","city_kana":"センダイシミヤギノク","town":"花京院通","town_kana":"カキョウインドオリ","prefecture_code":4},"0839":{"zip_code":"9830839","prefecture":"宮城県","prefecture_kana":"ミヤギケン","city":"仙台市宮城野区","city_kana":"センダイシミヤギノク","town":"蟹沢","town_kana":"カニサワ","prefecture_code":4},"0002":{"zip_code":"9830002","prefecture":"宮城県","prefecture_kana":"ミヤギケン","city":"仙台市宮城野区","city_kana":"センダイシミヤギノク","town":"蒲生","town_kana":"ガモウ","prefecture_code":4},"0863":{"zip_code":"9830863","prefecture":"宮城県","prefecture_kana":"ミヤギケン","city":"仙台市宮城野区","city_kana":"センダイシミヤギノク","town":"車町","town_kana":"クルママチ","prefecture_code":4},"0031":{"zip_code":"9830031","prefecture":"宮城県","prefecture_kana":"ミヤギケン","city":"仙台市宮城野区","city_kana":"センダイシミヤギノク","town":"小鶴","town_kana":"コヅル","prefecture_code":4},"0842":{"zip_code":"9830842","prefecture":"宮城県","prefecture_kana":"ミヤギケン","city":"仙台市宮城野区","city_kana":"センダイシミヤギノク","town":"五輪","town_kana":"ゴリン","prefecture_code":4},"0836":{"zip_code":"9830836","prefecture":"宮城県","prefecture_kana":"ミヤギケン","city":"仙台市宮城野区","city_kana":"センダイシミヤギノク","town":"幸町","town_kana":"サイワイチョウ","prefecture_code":4},"0011":{"zip_code":"9830011","prefecture":"宮城県","prefecture_kana":"ミヤギケン","city":"仙台市宮城野区","city_kana":"センダイシミヤギノク","town":"栄","town_kana":"サカエ","prefecture_code":4},"0845":{"zip_code":"9830845","prefecture":"宮城県","prefecture_kana":"ミヤギケン","city":"仙台市宮城野区","city_kana":"センダイシミヤギノク","town":"清水沼","town_kana":"シミズヌマ","prefecture_code":4},"0831":{"zip_code":"9830831","prefecture":"宮城県","prefecture_kana":"ミヤギケン","city":"仙台市宮城野区","city_kana":"センダイシミヤギノク","town":"自由ケ丘","town_kana":"ジユウガオカ","prefecture_code":4},"0006":{"zip_code":"9830006","prefecture":"宮城県","prefecture_kana":"ミヤギケン","city":"仙台市宮城野区","city_kana":"センダイシミヤギノク","town":"白鳥","town_kana":"シラトリ","prefecture_code":4},"0038":{"zip_code":"9830038","prefecture":"宮城県","prefecture_kana":"ミヤギケン","city":"仙台市宮城野区","city_kana":"センダイシミヤギノク","town":"新田","town_kana":"シンデン","prefecture_code":4},"0039":{"zip_code":"9830039","prefecture":"宮城県","prefecture_kana":"ミヤギケン","city":"仙台市宮城野区","city_kana":"センダイシミヤギノク","town":"新田東","town_kana":"シンデンヒガシ","prefecture_code":4},"0032":{"zip_code":"9830032","prefecture":"宮城県","prefecture_kana":"ミヤギケン","city":"仙台市宮城野区","city_kana":"センダイシミヤギノク","town":"仙石","town_kana":"センゴク","prefecture_code":4},"0007":{"zip_code":"9830007","prefecture":"宮城県","prefecture_kana":"ミヤギケン","city":"仙台市宮城野区","city_kana":"センダイシミヤギノク","town":"仙台港北","town_kana":"センダイコウキタ","prefecture_code":4},"0014":{"zip_code":"9830014","prefecture":"宮城県","prefecture_kana":"ミヤギケン","city":"仙台市宮城野区","city_kana":"センダイシミヤギノク","town":"高砂","town_kana":"タカサゴ","prefecture_code":4},"0021":{"zip_code":"9830021","prefecture":"宮城県","prefecture_kana":"ミヤギケン","city":"仙台市宮城野区","city_kana":"センダイシミヤギノク","town":"田子","town_kana":"タゴ","prefecture_code":4},"0026":{"zip_code":"9830026","prefecture":"宮城県","prefecture_kana":"ミヤギケン","city":"仙台市宮城野区","city_kana":"センダイシミヤギノク","town":"田子西","town_kana":"タゴニシ","prefecture_code":4},"0851":{"zip_code":"9830851","prefecture":"宮城県","prefecture_kana":"ミヤギケン","city":"仙台市宮城野区","city_kana":"センダイシミヤギノク","town":"榴ケ岡","town_kana":"ツツジガオカ","prefecture_code":4},"0852":{"zip_code":"9830852","prefecture":"宮城県","prefecture_kana":"ミヤギケン","city":"仙台市宮城野区","city_kana":"センダイシミヤギノク","town":"榴岡","town_kana":"ツツジガオカ","prefecture_code":4},"0823":{"zip_code":"9830823","prefecture":"宮城県","prefecture_kana":"ミヤギケン","city":"仙台市宮城野区","city_kana":"センダイシミヤギノク","town":"燕沢","town_kana":"ツバメサワ","prefecture_code":4},"0822":{"zip_code":"9830822","prefecture":"宮城県","prefecture_kana":"ミヤギケン","city":"仙台市宮城野区","city_kana":"センダイシミヤギノク","town":"燕沢東","town_kana":"ツバメサワヒガシ","prefecture_code":4},"0824":{"zip_code":"9830824","prefecture":"宮城県","prefecture_kana":"ミヤギケン","city":"仙台市宮城野区","city_kana":"センダイシミヤギノク","town":"鶴ケ谷","town_kana":"ツルガヤ","prefecture_code":4},"0826":{"zip_code":"9830826","prefecture":"宮城県","prefecture_kana":"ミヤギケン","city":"仙台市宮城野区","city_kana":"センダイシミヤギノク","town":"鶴ケ谷東","town_kana":"ツルガヤヒガシ","prefecture_code":4},"0825":{"zip_code":"9830825","prefecture":"宮城県","prefecture_kana":"ミヤギケン","city":"仙台市宮城野区","city_kana":"センダイシミヤギノク","town":"鶴ケ谷北","town_kana":"ツルガヤキタ","prefecture_code":4},"0024":{"zip_code":"9830024","prefecture":"宮城県","prefecture_kana":"ミヤギケン","city":"仙台市宮城野区","city_kana":"センダイシミヤギノク","town":"鶴巻","town_kana":"ツルマキ","prefecture_code":4},"0861":{"zip_code":"9830861","prefecture":"宮城県","prefecture_kana":"ミヤギケン","city":"仙台市宮城野区","city_kana":"センダイシミヤギノク","town":"鉄砲町","town_kana":"テッポウマチ","prefecture_code":4},"0868":{"zip_code":"9830868","prefecture":"宮城県","prefecture_kana":"ミヤギケン","city":"仙台市宮城野区","city_kana":"センダイシミヤギノク","town":"鉄砲町中","town_kana":"テッポウマチナカ","prefecture_code":4},"0869":{"zip_code":"9830869","prefecture":"宮城県","prefecture_kana":"ミヤギケン","city":"仙台市宮城野区","city_kana":"センダイシミヤギノク","town":"鉄砲町西","town_kana":"テッポウマチニシ","prefecture_code":4},"0867":{"zip_code":"9830867","prefecture":"宮城県","prefecture_kana":"ミヤギケン","city":"仙台市宮城野区","city_kana":"センダイシミヤギノク","town":"鉄砲町東","town_kana":"テッポウマチヒガシ","prefecture_code":4},"0864":{"zip_code":"9830864","prefecture":"宮城県","prefecture_kana":"ミヤギケン","city":"仙台市宮城野区","city_kana":"センダイシミヤギノク","town":"名掛丁","town_kana":"ナカケチョウ","prefecture_code":4},"0013":{"zip_code":"9830013","prefecture":"宮城県","prefecture_kana":"ミヤギケン","city":"仙台市宮城野区","city_kana":"センダイシミヤギノク","town":"中野","town_kana":"ナカノ","prefecture_code":4},"0036":[{"zip_code":"9830036","prefecture":"宮城県","prefecture_kana":"ミヤギケン","city":"仙台市宮城野区","city_kana":"センダイシミヤギノク","town":"苦竹","town_kana":"ニガタケ","prefecture_code":4},{"zip_code":"9830036","prefecture":"宮城県","prefecture_kana":"ミヤギケン","city":"仙台市宮城野区","city_kana":"センダイシミヤギノク","town":"原町苦竹","town_kana":"ハラノマチニガタケ","prefecture_code":4}],"0046":{"zip_code":"9830046","prefecture":"宮城県","prefecture_kana":"ミヤギケン","city":"仙台市宮城野区","city_kana":"センダイシミヤギノク","town":"西宮城野","town_kana":"ニシミヤギノ","prefecture_code":4},"0862":{"zip_code":"9830862","prefecture":"宮城県","prefecture_kana":"ミヤギケン","city":"仙台市宮城野区","city_kana":"センダイシミヤギノク","town":"二十人町","town_kana":"ニジュウニンマチ","prefecture_code":4},"0843":{"zip_code":"9830843","prefecture":"宮城県","prefecture_kana":"ミヤギケン","city":"仙台市宮城野区","city_kana":"センダイシミヤギノク","town":"二十人町通","town_kana":"ニジュウニンマチドオリ","prefecture_code":4},"0838":{"zip_code":"9830838","prefecture":"宮城県","prefecture_kana":"ミヤギケン","city":"仙台市宮城野区","city_kana":"センダイシミヤギノク","town":"二の森","town_kana":"ニノモリ","prefecture_code":4},"0043":{"zip_code":"9830043","prefecture":"宮城県","prefecture_kana":"ミヤギケン","city":"仙台市宮城野区","city_kana":"センダイシミヤギノク","town":"萩野町","town_kana":"ハギノマチ","prefecture_code":4},"0841":{"zip_code":"9830841","prefecture":"宮城県","prefecture_kana":"ミヤギケン","city":"仙台市宮城野区","city_kana":"センダイシミヤギノク","town":"原町","town_kana":"ハラノマチ","prefecture_code":4},"0844":{"zip_code":"9830844","prefecture":"宮城県","prefecture_kana":"ミヤギケン","city":"仙台市宮城野区","city_kana":"センダイシミヤギノク","town":"原町南目","town_kana":"ハラノマチミナミノメ","prefecture_code":4},"0833":{"zip_code":"9830833","prefecture":"宮城県","prefecture_kana":"ミヤギケン","city":"仙台市宮城野区","city_kana":"センダイシミヤギノク","town":"東仙台","town_kana":"ヒガシセンダイ","prefecture_code":4},"0042":{"zip_code":"9830042","prefecture":"宮城県","prefecture_kana":"ミヤギケン","city":"仙台市宮城野区","city_kana":"センダイシミヤギノク","town":"東宮城野","town_kana":"ヒガシミヤギノ","prefecture_code":4},"0853":{"zip_code":"9830853","prefecture":"宮城県","prefecture_kana":"ミヤギケン","city":"仙台市宮城野区","city_kana":"センダイシミヤギノク","town":"東六番丁","town_kana":"ヒガシ6バンチョウ","prefecture_code":4},"0854":{"zip_code":"9830854","prefecture":"宮城県","prefecture_kana":"ミヤギケン","city":"仙台市宮城野区","city_kana":"センダイシミヤギノク","town":"東七番丁","town_kana":"ヒガシ7バンチョウ","prefecture_code":4},"0855":{"zip_code":"9830855","prefecture":"宮城県","prefecture_kana":"ミヤギケン","city":"仙台市宮城野区","city_kana":"センダイシミヤギノク","town":"東八番丁","town_kana":"ヒガシ8バンチョウ","prefecture_code":4},"0856":{"zip_code":"9830856","prefecture":"宮城県","prefecture_kana":"ミヤギケン","city":"仙台市宮城野区","city_kana":"センダイシミヤギノク","town":"東九番丁","town_kana":"ヒガシ9バンチョウ","prefecture_code":4},"0857":{"zip_code":"9830857","prefecture":"宮城県","prefecture_kana":"ミヤギケン","city":"仙台市宮城野区","city_kana":"センダイシミヤギノク","town":"東十番丁","town_kana":"ヒガシ10バンチョウ","prefecture_code":4},"0035":{"zip_code":"9830035","prefecture":"宮城県","prefecture_kana":"ミヤギケン","city":"仙台市宮城野区","city_kana":"センダイシミヤギノク","town":"日の出町","town_kana":"ヒノデマチ","prefecture_code":4},"0033":{"zip_code":"9830033","prefecture":"宮城県","prefecture_kana":"ミヤギケン","city":"仙台市宮城野区","city_kana":"センダイシミヤギノク","town":"福住町","town_kana":"フクズミマチ","prefecture_code":4},"0023":{"zip_code":"9830023","prefecture":"宮城県","prefecture_kana":"ミヤギケン","city":"仙台市宮城野区","city_kana":"センダイシミヤギノク","town":"福田町","town_kana":"フクダマチ","prefecture_code":4},"0025":{"zip_code":"9830025","prefecture":"宮城県","prefecture_kana":"ミヤギケン","city":"仙台市宮城野区","city_kana":"センダイシミヤギノク","town":"福田町南","town_kana":"フクダマチミナミ","prefecture_code":4},"0005":{"zip_code":"9830005","prefecture":"宮城県","prefecture_kana":"ミヤギケン","city":"仙台市宮城野区","city_kana":"センダイシミヤギノク","town":"福室","town_kana":"フクムロ","prefecture_code":4},"0037":{"zip_code":"9830037","prefecture":"宮城県","prefecture_kana":"ミヤギケン","city":"仙台市宮城野区","city_kana":"センダイシミヤギノク","town":"平成","town_kana":"ヘイセイ","prefecture_code":4},"0837":{"zip_code":"9830837","prefecture":"宮城県","prefecture_kana":"ミヤギケン","city":"仙台市宮城野区","city_kana":"センダイシミヤギノク","town":"枡江","town_kana":"マスエ","prefecture_code":4},"0834":{"zip_code":"9830834","prefecture":"宮城県","prefecture_kana":"ミヤギケン","city":"仙台市宮城野区","city_kana":"センダイシミヤギノク","town":"松岡町","town_kana":"マツオカチョウ","prefecture_code":4},"0001":{"zip_code":"9830001","prefecture":"宮城県","prefecture_kana":"ミヤギケン","city":"仙台市宮城野区","city_kana":"センダイシミヤギノク","town":"港","town_kana":"ミナト","prefecture_code":4},"0041":{"zip_code":"9830041","prefecture":"宮城県","prefecture_kana":"ミヤギケン","city":"仙台市宮城野区","city_kana":"センダイシミヤギノク","town":"南目館","town_kana":"ミナミノメタテ","prefecture_code":4},"0045":{"zip_code":"9830045","prefecture":"宮城県","prefecture_kana":"ミヤギケン","city":"仙台市宮城野区","city_kana":"センダイシミヤギノク","town":"宮城野","town_kana":"ミヤギノ","prefecture_code":4},"0044":{"zip_code":"9830044","prefecture":"宮城県","prefecture_kana":"ミヤギケン","city":"仙台市宮城野区","city_kana":"センダイシミヤギノク","town":"宮千代","town_kana":"ミヤチヨ","prefecture_code":4},"0865":{"zip_code":"9830865","prefecture":"宮城県","prefecture_kana":"ミヤギケン","city":"仙台市宮城野区","city_kana":"センダイシミヤギノク","town":"元寺小路","town_kana":"モトテラコウジ","prefecture_code":4}}