{"0000":{"zip_code":"9840000","prefecture":"宮城県","prefecture_kana":"ミヤギケン","city":"仙台市若林区","city_kana":"センダイシワカバヤシク","town":"以下に掲載がない場合","town_kana":"イカニケイサイガナイバアイ","prefecture_code":4},"0032":{"zip_code":"9840032","prefecture":"宮城県","prefecture_kana":"ミヤギケン","city":"仙台市若林区","city_kana":"センダイシワカバヤシク","town":"荒井","town_kana":"アライ","prefecture_code":4},"0033":{"zip_code":"9840033","prefecture":"宮城県","prefecture_kana":"ミヤギケン","city":"仙台市若林区","city_kana":"センダイシワカバヤシク","town":"荒浜","town_kana":"アラハマ","prefecture_code":4},"0034":{"zip_code":"9840034","prefecture":"宮城県","prefecture_kana":"ミヤギケン","city":"仙台市若林区","city_kana":"センダイシワカバヤシク","town":"荒浜新","town_kana":"アラハマシン","prefecture_code":4},"0073":{"zip_code":"9840073","prefecture":"宮城県","prefecture_kana":"ミヤギケン","city":"仙台市若林区","city_kana":"センダイシワカバヤシク","town":"荒町","town_kana":"アラマチ","prefecture_code":4},"0833":{"zip_code":"9840833","prefecture":"宮城県","prefecture_kana":"ミヤギケン","city":"仙台市若林区","city_kana":"センダイシワカバヤシク","town":"飯田","town_kana":"イイダ","prefecture_code":4},"0038":{"zip_code":"9840038","prefecture":"宮城県","prefecture_kana":"ミヤギケン","city":"仙台市若林区","city_kana":"センダイシワカバヤシク","town":"伊在","town_kana":"イザイ","prefecture_code":4},"0064":{"zip_code":"9840064","prefecture":"宮城県","prefecture_kana":"ミヤギケン","city":"仙台市若林区","city_kana":"センダイシワカバヤシク","town":"石垣町","town_kana":"イシガキマチ","prefecture_code":4},"0063":{"zip_code":"9840063","prefecture":"宮城県","prefecture_kana":"ミヤギケン","city":"仙台市若林区","city_kana":"センダイシワカバヤシク","town":"石名坂","town_kana":"イシナザカ","prefecture_code":4},"0022":{"zip_code":"9840022","prefecture":"宮城県","prefecture_kana":"ミヤギケン","city":"仙台市若林区","city_kana":"センダイシワカバヤシク","town":"五橋（３丁目）","town_kana":"イツツバシ(3チョウメ)","prefecture_code":4},"0828":{"zip_code":"9840828","prefecture":"宮城県","prefecture_kana":"ミヤギケン","city":"仙台市若林区","city_kana":"センダイシワカバヤシク","town":"一本杉町","town_kana":"イッポンスギマチ","prefecture_code":4},"0842":{"zip_code":"9840842","prefecture":"宮城県","prefecture_kana":"ミヤギケン","city":"仙台市若林区","city_kana":"センダイシワカバヤシク","town":"井土","town_kana":"イド","prefecture_code":4},"0835":{"zip_code":"9840835","prefecture":"宮城県","prefecture_kana":"ミヤギケン","city":"仙台市若林区","city_kana":"センダイシワカバヤシク","town":"今泉","town_kana":"イマイズミ","prefecture_code":4},"0054":{"zip_code":"9840054","prefecture":"宮城県","prefecture_kana":"ミヤギケン","city":"仙台市若林区","city_kana":"センダイシワカバヤシク","town":"裏柴田町","town_kana":"ウラシバタマチ","prefecture_code":4},"0831":{"zip_code":"9840831","prefecture":"宮城県","prefecture_kana":"ミヤギケン","city":"仙台市若林区","city_kana":"センダイシワカバヤシク","town":"沖野","town_kana":"オキノ","prefecture_code":4},"0055":{"zip_code":"9840055","prefecture":"宮城県","prefecture_kana":"ミヤギケン","city":"仙台市若林区","city_kana":"センダイシワカバヤシク","town":"表柴田町","town_kana":"オモテシバタマチ","prefecture_code":4},"0015":{"zip_code":"9840015","prefecture":"宮城県","prefecture_kana":"ミヤギケン","city":"仙台市若林区","city_kana":"センダイシワカバヤシク","town":"卸町","town_kana":"オロシマチ","prefecture_code":4},"0002":{"zip_code":"9840002","prefecture":"宮城県","prefecture_kana":"ミヤギケン","city":"仙台市若林区","city_kana":"センダイシワカバヤシク","town":"卸町東","town_kana":"オロシマチヒガシ","prefecture_code":4},"0822":{"zip_code":"9840822","prefecture":"宮城県","prefecture_kana":"ミヤギケン","city":"仙台市若林区","city_kana":"センダイシワカバヤシク","town":"かすみ町","town_kana":"カスミチョウ","prefecture_code":4},"0035":{"zip_code":"9840035","prefecture":"宮城県","prefecture_kana":"ミヤギケン","city":"仙台市若林区","city_kana":"センダイシワカバヤシク","town":"霞目","town_kana":"カスミノメ","prefecture_code":4},"0037":{"zip_code":"9840037","prefecture":"宮城県","prefecture_kana":"ミヤギケン","city":"仙台市若林区","city_kana":"センダイシワカバヤシク","town":"蒲町","town_kana":"カバノマチ","prefecture_code":4},"0838":{"zip_code":"9840838","prefecture":"宮城県","prefecture_kana":"ミヤギケン","city":"仙台市若林区","city_kana":"センダイシワカバヤシク","town":"上飯田","town_kana":"カミイイダ","prefecture_code":4},"0816":{"zip_code":"9840816","prefecture":"宮城県","prefecture_kana":"ミヤギケン","city":"仙台市若林区","city_kana":"センダイシワカバヤシク","town":"河原町","town_kana":"カワラマチ","prefecture_code":4},"0047":{"zip_code":"9840047","prefecture":"宮城県","prefecture_kana":"ミヤギケン","city":"仙台市若林区","city_kana":"センダイシワカバヤシク","town":"木ノ下","town_kana":"キノシタ","prefecture_code":4},"0044":{"zip_code":"9840044","prefecture":"宮城県","prefecture_kana":"ミヤギケン","city":"仙台市若林区","city_kana":"センダイシワカバヤシク","town":"椌木通","town_kana":"ゴウラキドオリ","prefecture_code":4},"0807":{"zip_code":"9840807","prefecture":"宮城県","prefecture_kana":"ミヤギケン","city":"仙台市若林区","city_kana":"センダイシワカバヤシク","town":"穀町","town_kana":"コクチョウ","prefecture_code":4},"0812":{"zip_code":"9840812","prefecture":"宮城県","prefecture_kana":"ミヤギケン","city":"仙台市若林区","city_kana":"センダイシワカバヤシク","town":"五十人町","town_kana":"ゴジュウニンマチ","prefecture_code":4},"0057":{"zip_code":"9840057","prefecture":"宮城県","prefecture_kana":"ミヤギケン","city":"仙台市若林区","city_kana":"センダイシワカバヤシク","town":"三百人町","town_kana":"サンビャクニンマチ","prefecture_code":4},"0841":{"zip_code":"9840841","prefecture":"宮城県","prefecture_kana":"ミヤギケン","city":"仙台市若林区","city_kana":"センダイシワカバヤシク","town":"三本塚","town_kana":"サンボンツカ","prefecture_code":4},"0075":{"zip_code":"9840075","prefecture":"宮城県","prefecture_kana":"ミヤギケン","city":"仙台市若林区","city_kana":"センダイシワカバヤシク","town":"清水小路","town_kana":"シミズコウジ","prefecture_code":4},"0832":{"zip_code":"9840832","prefecture":"宮城県","prefecture_kana":"ミヤギケン","city":"仙台市若林区","city_kana":"センダイシワカバヤシク","town":"下飯田","town_kana":"シモイイダ","prefecture_code":4},"0048":{"zip_code":"9840048","prefecture":"宮城県","prefecture_kana":"ミヤギケン","city":"仙台市若林区","city_kana":"センダイシワカバヤシク","town":"白萩町","town_kana":"シラハギマチ","prefecture_code":4},"0836":{"zip_code":"9840836","prefecture":"宮城県","prefecture_kana":"ミヤギケン","city":"仙台市若林区","city_kana":"センダイシワカバヤシク","town":"四郎丸","town_kana":"シロウマル","prefecture_code":4},"0041":{"zip_code":"9840041","prefecture":"宮城県","prefecture_kana":"ミヤギケン","city":"仙台市若林区","city_kana":"センダイシワカバヤシク","town":"志波町","town_kana":"シワマチ","prefecture_code":4},"0051":{"zip_code":"9840051","prefecture":"宮城県","prefecture_kana":"ミヤギケン","city":"仙台市若林区","city_kana":"センダイシワカバヤシク","town":"新寺","town_kana":"シンテラ","prefecture_code":4},"0803":{"zip_code":"9840803","prefecture":"宮城県","prefecture_kana":"ミヤギケン","city":"仙台市若林区","city_kana":"センダイシワカバヤシク","town":"新弓ノ町","town_kana":"シンユミノマチ","prefecture_code":4},"0801":{"zip_code":"9840801","prefecture":"宮城県","prefecture_kana":"ミヤギケン","city":"仙台市若林区","city_kana":"センダイシワカバヤシク","town":"畳屋丁","town_kana":"タタミヤチョウ","prefecture_code":4},"0844":{"zip_code":"9840844","prefecture":"宮城県","prefecture_kana":"ミヤギケン","city":"仙台市若林区","city_kana":"センダイシワカバヤシク","town":"種次","town_kana":"タナツギ","prefecture_code":4},"0036":{"zip_code":"9840036","prefecture":"宮城県","prefecture_kana":"ミヤギケン","city":"仙台市若林区","city_kana":"センダイシワカバヤシク","town":"長喜城","town_kana":"チョウキジョウ","prefecture_code":4},"0065":{"zip_code":"9840065","prefecture":"宮城県","prefecture_kana":"ミヤギケン","city":"仙台市若林区","city_kana":"センダイシワカバヤシク","town":"土樋","town_kana":"ツチトイ","prefecture_code":4},"0001":{"zip_code":"9840001","prefecture":"宮城県","prefecture_kana":"ミヤギケン","city":"仙台市若林区","city_kana":"センダイシワカバヤシク","town":"鶴代町","town_kana":"ツルシロマチ","prefecture_code":4},"0817":{"zip_code":"9840817","prefecture":"宮城県","prefecture_kana":"ミヤギケン","city":"仙台市若林区","city_kana":"センダイシワカバヤシク","town":"堰場","town_kana":"ドウバ","prefecture_code":4},"0823":{"zip_code":"9840823","prefecture":"宮城県","prefecture_kana":"ミヤギケン","city":"仙台市若林区","city_kana":"センダイシワカバヤシク","town":"遠見塚","town_kana":"トオミヅカ","prefecture_code":4},"0824":{"zip_code":"9840824","prefecture":"宮城県","prefecture_kana":"ミヤギケン","city":"仙台市若林区","city_kana":"センダイシワカバヤシク","town":"遠見塚東","town_kana":"トオミヅカヒガシ","prefecture_code":4},"0821":{"zip_code":"9840821","prefecture":"宮城県","prefecture_kana":"ミヤギケン","city":"仙台市若林区","city_kana":"センダイシワカバヤシク","town":"中倉","town_kana":"ナカクラ","prefecture_code":4},"0056":{"zip_code":"9840056","prefecture":"宮城県","prefecture_kana":"ミヤギケン","city":"仙台市若林区","city_kana":"センダイシワカバヤシク","town":"成田町","town_kana":"ナリタマチ","prefecture_code":4},"0046":{"zip_code":"9840046","prefecture":"宮城県","prefecture_kana":"ミヤギケン","city":"仙台市若林区","city_kana":"センダイシワカバヤシク","town":"二軒茶屋","town_kana":"ニケンチャヤ","prefecture_code":4},"0045":{"zip_code":"9840045","prefecture":"宮城県","prefecture_kana":"ミヤギケン","city":"仙台市若林区","city_kana":"センダイシワカバヤシク","town":"西新丁","town_kana":"ニシシンチョウ","prefecture_code":4},"0837":{"zip_code":"9840837","prefecture":"宮城県","prefecture_kana":"ミヤギケン","city":"仙台市若林区","city_kana":"センダイシワカバヤシク","town":"日辺","town_kana":"ニッペ","prefecture_code":4},"0802":{"zip_code":"9840802","prefecture":"宮城県","prefecture_kana":"ミヤギケン","city":"仙台市若林区","city_kana":"センダイシワカバヤシク","town":"八軒小路","town_kana":"ハチケンコウジ","prefecture_code":4},"0043":{"zip_code":"9840043","prefecture":"宮城県","prefecture_kana":"ミヤギケン","city":"仙台市若林区","city_kana":"センダイシワカバヤシク","town":"東新丁","town_kana":"ヒガシシンチョウ","prefecture_code":4},"0074":{"zip_code":"9840074","prefecture":"宮城県","prefecture_kana":"ミヤギケン","city":"仙台市若林区","city_kana":"センダイシワカバヤシク","town":"東七番丁","town_kana":"ヒガシ7バンチョウ","prefecture_code":4},"0072":{"zip_code":"9840072","prefecture":"宮城県","prefecture_kana":"ミヤギケン","city":"仙台市若林区","city_kana":"センダイシワカバヤシク","town":"東八番丁","town_kana":"ヒガシ8バンチョウ","prefecture_code":4},"0071":{"zip_code":"9840071","prefecture":"宮城県","prefecture_kana":"ミヤギケン","city":"仙台市若林区","city_kana":"センダイシワカバヤシク","town":"東九番丁","town_kana":"ヒガシ9バンチョウ","prefecture_code":4},"0843":{"zip_code":"9840843","prefecture":"宮城県","prefecture_kana":"ミヤギケン","city":"仙台市若林区","city_kana":"センダイシワカバヤシク","town":"藤塚","town_kana":"フジツカ","prefecture_code":4},"0845":{"zip_code":"9840845","prefecture":"宮城県","prefecture_kana":"ミヤギケン","city":"仙台市若林区","city_kana":"センダイシワカバヤシク","town":"二木","town_kana":"フタキ","prefecture_code":4},"0806":{"zip_code":"9840806","prefecture":"宮城県","prefecture_kana":"ミヤギケン","city":"仙台市若林区","city_kana":"センダイシワカバヤシク","town":"舟丁","town_kana":"フナチョウ","prefecture_code":4},"0825":{"zip_code":"9840825","prefecture":"宮城県","prefecture_kana":"ミヤギケン","city":"仙台市若林区","city_kana":"センダイシワカバヤシク","town":"古城","town_kana":"フルジロ","prefecture_code":4},"0815":{"zip_code":"9840815","prefecture":"宮城県","prefecture_kana":"ミヤギケン","city":"仙台市若林区","city_kana":"センダイシワカバヤシク","town":"文化町","town_kana":"ブンカマチ","prefecture_code":4},"0811":{"zip_code":"9840811","prefecture":"宮城県","prefecture_kana":"ミヤギケン","city":"仙台市若林区","city_kana":"センダイシワカバヤシク","town":"保春院前丁","town_kana":"ホシュンインマエチョウ","prefecture_code":4},"0804":{"zip_code":"9840804","prefecture":"宮城県","prefecture_kana":"ミヤギケン","city":"仙台市若林区","city_kana":"センダイシワカバヤシク","town":"南石切町","town_kana":"ミナミイシキリマチ","prefecture_code":4},"0061":{"zip_code":"9840061","prefecture":"宮城県","prefecture_kana":"ミヤギケン","city":"仙台市若林区","city_kana":"センダイシワカバヤシク","town":"南鍛冶町","town_kana":"ミナミカジマチ","prefecture_code":4},"0827":{"zip_code":"9840827","prefecture":"宮城県","prefecture_kana":"ミヤギケン","city":"仙台市若林区","city_kana":"センダイシワカバヤシク","town":"南小泉","town_kana":"ミナミコイズミ","prefecture_code":4},"0805":{"zip_code":"9840805","prefecture":"宮城県","prefecture_kana":"ミヤギケン","city":"仙台市若林区","city_kana":"センダイシワカバヤシク","town":"南材木町","town_kana":"ミナミザイモクチョウ","prefecture_code":4},"0814":{"zip_code":"9840814","prefecture":"宮城県","prefecture_kana":"ミヤギケン","city":"仙台市若林区","city_kana":"センダイシワカバヤシク","town":"南染師町","town_kana":"ミナミソメシマチ","prefecture_code":4},"0058":{"zip_code":"9840058","prefecture":"宮城県","prefecture_kana":"ミヤギケン","city":"仙台市若林区","city_kana":"センダイシワカバヤシク","town":"元茶畑","town_kana":"モトチャバタケ","prefecture_code":4},"0042":{"zip_code":"9840042","prefecture":"宮城県","prefecture_kana":"ミヤギケン","city":"仙台市若林区","city_kana":"センダイシワカバヤシク","town":"大和町","town_kana":"ヤマトマチ","prefecture_code":4},"0062":{"zip_code":"9840062","prefecture":"宮城県","prefecture_kana":"ミヤギケン","city":"仙台市若林区","city_kana":"センダイシワカバヤシク","town":"弓ノ町","town_kana":"ユミノマチ","prefecture_code":4},"0052":{"zip_code":"9840052","prefecture":"宮城県","prefecture_kana":"ミヤギケン","city":"仙台市若林区","city_kana":"センダイシワカバヤシク","town":"連坊","town_kana":"レンボウ","prefecture_code":4},"0053":{"zip_code":"9840053","prefecture":"宮城県","prefecture_kana":"ミヤギケン","city":"仙台市若林区","city_kana":"センダイシワカバヤシク","town":"連坊小路","town_kana":"レンボウコウジ","prefecture_code":4},"0834":{"zip_code":"9840834","prefecture":"宮城県","prefecture_kana":"ミヤギケン","city":"仙台市若林区","city_kana":"センダイシワカバヤシク","town":"六郷","town_kana":"ロクゴウ","prefecture_code":4},"0813":{"zip_code":"9840813","prefecture":"宮城県","prefecture_kana":"ミヤギケン","city":"仙台市若林区","city_kana":"センダイシワカバヤシク","town":"六十人町","town_kana":"ロクジュウニンマチ","prefecture_code":4},"0031":{"zip_code":"9840031","prefecture":"宮城県","prefecture_kana":"ミヤギケン","city":"仙台市若林区","city_kana":"センダイシワカバヤシク","town":"六丁目","town_kana":"ロクチョウノメ","prefecture_code":4},"0004":{"zip_code":"9840004","prefecture":"宮城県","prefecture_kana":"ミヤギケン","city":"仙台市若林区","city_kana":"センダイシワカバヤシク","town":"六丁の目東町","town_kana":"ロクチョウノメヒガシマチ","prefecture_code":4},"0011":{"zip_code":"9840011","prefecture":"宮城県","prefecture_kana":"ミヤギケン","city":"仙台市若林区","city_kana":"センダイシワカバヤシク","town":"六丁の目西町","town_kana":"ロクチョウノメニシマチ","prefecture_code":4},"0013":{"zip_code":"9840013","prefecture":"宮城県","prefecture_kana":"ミヤギケン","city":"仙台市若林区","city_kana":"センダイシワカバヤシク","town":"六丁の目南町","town_kana":"ロクチョウノメミナミマチ","prefecture_code":4},"0003":{"zip_code":"9840003","prefecture":"宮城県","prefecture_kana":"ミヤギケン","city":"仙台市若林区","city_kana":"センダイシワカバヤシク","town":"六丁の目北町","town_kana":"ロクチョウノメキタマチ","prefecture_code":4},"0012":{"zip_code":"9840012","prefecture":"宮城県","prefecture_kana":"ミヤギケン","city":"仙台市若林区","city_kana":"センダイシワカバヤシク","town":"六丁の目中町","town_kana":"ロクチョウノメナカマチ","prefecture_code":4},"0014":{"zip_code":"9840014","prefecture":"宮城県","prefecture_kana":"ミヤギケン","city":"仙台市若林区","city_kana":"センダイシワカバヤシク","town":"六丁の目元町","town_kana":"ロクチョウノメモトマチ","prefecture_code":4},"0826":{"zip_code":"9840826","prefecture":"宮城県","prefecture_kana":"ミヤギケン","city":"仙台市若林区","city_kana":"センダイシワカバヤシク","town":"若林","town_kana":"ワカバヤシ","prefecture_code":4}}