{"0000":{"zip_code":"9860000","prefecture":"宮城県","prefecture_kana":"ミヤギケン","city":"石巻市","city_kana":"イシノマキシ","town":"","town_kana":"","prefecture_code":4},"0101":{"zip_code":"9860101","prefecture":"宮城県","prefecture_kana":"ミヤギケン","city":"石巻市","city_kana":"イシノマキシ","town":"相野谷","town_kana":"アイノヤ","prefecture_code":4},"0866":{"zip_code":"9860866","prefecture":"宮城県","prefecture_kana":"ミヤギケン","city":"石巻市","city_kana":"イシノマキシ","town":"茜平","town_kana":"アカネダイラ","prefecture_code":4},"0862":{"zip_code":"9860862","prefecture":"宮城県","prefecture_kana":"ミヤギケン","city":"石巻市","city_kana":"イシノマキシ","town":"あけぼの","town_kana":"アケボノ","prefecture_code":4},"0828":{"zip_code":"9860828","prefecture":"宮城県","prefecture_kana":"ミヤギケン","city":"石巻市","city_kana":"イシノマキシ","town":"旭町","town_kana":"アサヒチョウ","prefecture_code":4},"2526":{"zip_code":"9862526","prefecture":"宮城県","prefecture_kana":"ミヤギケン","city":"石巻市","city_kana":"イシノマキシ","town":"網地浜","town_kana":"アジハマ","prefecture_code":4},"2522":{"zip_code":"9862522","prefecture":"宮城県","prefecture_kana":"ミヤギケン","city":"石巻市","city_kana":"イシノマキシ","town":"鮎川大町","town_kana":"アユカワオオマチ","prefecture_code":4},"2523":{"zip_code":"9862523","prefecture":"宮城県","prefecture_kana":"ミヤギケン","city":"石巻市","city_kana":"イシノマキシ","town":"鮎川浜","town_kana":"アユカワハマ","prefecture_code":4},"2524":{"zip_code":"9862524","prefecture":"宮城県","prefecture_kana":"ミヤギケン","city":"石巻市","city_kana":"イシノマキシ","town":"鮎川浜丁","town_kana":"アユカワハマチョウ","prefecture_code":4},"0131":{"zip_code":"9860131","prefecture":"宮城県","prefecture_kana":"ミヤギケン","city":"石巻市","city_kana":"イシノマキシ","town":"飯野","town_kana":"イイノ","prefecture_code":4},"0832":{"zip_code":"9860832","prefecture":"宮城県","prefecture_kana":"ミヤギケン","city":"石巻市","city_kana":"イシノマキシ","town":"泉町","town_kana":"イズミチョウ","prefecture_code":4},"2123":{"zip_code":"9862123","prefecture":"宮城県","prefecture_kana":"ミヤギケン","city":"石巻市","city_kana":"イシノマキシ","town":"伊勢町","town_kana":"イセチョウ","prefecture_code":4},"0826":{"zip_code":"9860826","prefecture":"宮城県","prefecture_kana":"ミヤギケン","city":"石巻市","city_kana":"イシノマキシ","town":"鋳銭場","town_kana":"イセンバ","prefecture_code":4},"0003":{"zip_code":"9860003","prefecture":"宮城県","prefecture_kana":"ミヤギケン","city":"石巻市","city_kana":"イシノマキシ","town":"井内","town_kana":"イナイ","prefecture_code":4},"0041":{"zip_code":"9860041","prefecture":"宮城県","prefecture_kana":"ミヤギケン","city":"石巻市","city_kana":"イシノマキシ","town":"伊原津","town_kana":"イバラツ","prefecture_code":4},"2113":{"zip_code":"9862113","prefecture":"宮城県","prefecture_kana":"ミヤギケン","city":"石巻市","city_kana":"イシノマキシ","town":"宇田川町","town_kana":"ウダガワチョウ","prefecture_code":4},"0813":{"zip_code":"9860813","prefecture":"宮城県","prefecture_kana":"ミヤギケン","city":"石巻市","city_kana":"イシノマキシ","town":"駅前北通り","town_kana":"エキマエキタドオリ","prefecture_code":4},"0005":{"zip_code":"9860005","prefecture":"宮城県","prefecture_kana":"ミヤギケン","city":"石巻市","city_kana":"イシノマキシ","town":"大瓜","town_kana":"オウリ","prefecture_code":4},"0854":{"zip_code":"9860854","prefecture":"宮城県","prefecture_kana":"ミヤギケン","city":"石巻市","city_kana":"イシノマキシ","town":"大街道北","town_kana":"オオカイドウキタ","prefecture_code":4},"0859":{"zip_code":"9860859","prefecture":"宮城県","prefecture_kana":"ミヤギケン","city":"石巻市","city_kana":"イシノマキシ","town":"大街道西","town_kana":"オオカイドウニシ","prefecture_code":4},"0855":{"zip_code":"9860855","prefecture":"宮城県","prefecture_kana":"ミヤギケン","city":"石巻市","city_kana":"イシノマキシ","town":"大街道東","town_kana":"オオカイドウヒガシ","prefecture_code":4},"0856":{"zip_code":"9860856","prefecture":"宮城県","prefecture_kana":"ミヤギケン","city":"石巻市","city_kana":"イシノマキシ","town":"大街道南","town_kana":"オオカイドウミナミ","prefecture_code":4},"0838":{"zip_code":"9860838","prefecture":"宮城県","prefecture_kana":"ミヤギケン","city":"石巻市","city_kana":"イシノマキシ","town":"大手町","town_kana":"オオテマチ","prefecture_code":4},"0805":{"zip_code":"9860805","prefecture":"宮城県","prefecture_kana":"ミヤギケン","city":"石巻市","city_kana":"イシノマキシ","town":"大橋","town_kana":"オオハシ","prefecture_code":4},"2412":{"zip_code":"9862412","prefecture":"宮城県","prefecture_kana":"ミヤギケン","city":"石巻市","city_kana":"イシノマキシ","town":"大原浜","town_kana":"オオハラハマ","prefecture_code":4},"2132":{"zip_code":"9862132","prefecture":"宮城県","prefecture_kana":"ミヤギケン","city":"石巻市","city_kana":"イシノマキシ","town":"大宮町","town_kana":"オオミヤチョウ","prefecture_code":4},"0121":{"zip_code":"9860121","prefecture":"宮城県","prefecture_kana":"ミヤギケン","city":"石巻市","city_kana":"イシノマキシ","town":"大森","town_kana":"オオモリ","prefecture_code":4},"2405":{"zip_code":"9862405","prefecture":"宮城県","prefecture_kana":"ミヤギケン","city":"石巻市","city_kana":"イシノマキシ","town":"大谷川浜","town_kana":"オオヤガワハマ","prefecture_code":4},"1334":{"zip_code":"9861334","prefecture":"宮城県","prefecture_kana":"ミヤギケン","city":"石巻市","city_kana":"イシノマキシ","town":"雄勝町伊勢畑","town_kana":"オガツチョウイセハタ","prefecture_code":4},"1311":{"zip_code":"9861311","prefecture":"宮城県","prefecture_kana":"ミヤギケン","city":"石巻市","city_kana":"イシノマキシ","town":"雄勝町大須","town_kana":"オガツチョウオオス","prefecture_code":4},"1302":{"zip_code":"9861302","prefecture":"宮城県","prefecture_kana":"ミヤギケン","city":"石巻市","city_kana":"イシノマキシ","town":"雄勝町大浜","town_kana":"オガツチョウオオハマ","prefecture_code":4},"1333":{"zip_code":"9861333","prefecture":"宮城県","prefecture_kana":"ミヤギケン","city":"石巻市","city_kana":"イシノマキシ","town":"雄勝町雄勝","town_kana":"オガツチョウオガツ","prefecture_code":4},"1332":{"zip_code":"9861332","prefecture":"宮城県","prefecture_kana":"ミヤギケン","city":"石巻市","city_kana":"イシノマキシ","town":"雄勝町小島","town_kana":"オガツチョウオジマ","prefecture_code":4},"1336":{"zip_code":"9861336","prefecture":"宮城県","prefecture_kana":"ミヤギケン","city":"石巻市","city_kana":"イシノマキシ","town":"雄勝町上雄勝","town_kana":"オガツチョウカミオガツ","prefecture_code":4},"1312":{"zip_code":"9861312","prefecture":"宮城県","prefecture_kana":"ミヤギケン","city":"石巻市","city_kana":"イシノマキシ","town":"雄勝町熊沢","town_kana":"オガツチョウクマザワ","prefecture_code":4},"1313":{"zip_code":"9861313","prefecture":"宮城県","prefecture_kana":"ミヤギケン","city":"石巻市","city_kana":"イシノマキシ","town":"雄勝町桑浜","town_kana":"オガツチョウクワハマ","prefecture_code":4},"1335":{"zip_code":"9861335","prefecture":"宮城県","prefecture_kana":"ミヤギケン","city":"石巻市","city_kana":"イシノマキシ","town":"雄勝町下雄勝","town_kana":"オガツチョウシモオガツ","prefecture_code":4},"1303":{"zip_code":"9861303","prefecture":"宮城県","prefecture_kana":"ミヤギケン","city":"石巻市","city_kana":"イシノマキシ","town":"雄勝町立浜","town_kana":"オガツチョウタチハマ","prefecture_code":4},"1304":{"zip_code":"9861304","prefecture":"宮城県","prefecture_kana":"ミヤギケン","city":"石巻市","city_kana":"イシノマキシ","town":"雄勝町名振","town_kana":"オガツチョウナブリ","prefecture_code":4},"1301":{"zip_code":"9861301","prefecture":"宮城県","prefecture_kana":"ミヤギケン","city":"石巻市","city_kana":"イシノマキシ","town":"雄勝町船越","town_kana":"オガツチョウフナコシ","prefecture_code":4},"1321":{"zip_code":"9861321","prefecture":"宮城県","prefecture_kana":"ミヤギケン","city":"石巻市","city_kana":"イシノマキシ","town":"雄勝町水浜","town_kana":"オガツチョウミズハマ","prefecture_code":4},"1331":{"zip_code":"9861331","prefecture":"宮城県","prefecture_kana":"ミヤギケン","city":"石巻市","city_kana":"イシノマキシ","town":"雄勝町明神","town_kana":"オガツチョウミョウジン","prefecture_code":4},"1322":{"zip_code":"9861322","prefecture":"宮城県","prefecture_kana":"ミヤギケン","city":"石巻市","city_kana":"イシノマキシ","town":"雄勝町分浜","town_kana":"オガツチョウワケハマ","prefecture_code":4},"2341":{"zip_code":"9862341","prefecture":"宮城県","prefecture_kana":"ミヤギケン","city":"石巻市","city_kana":"イシノマキシ","town":"荻浜","town_kana":"オギノハマ","prefecture_code":4},"0113":{"zip_code":"9860113","prefecture":"宮城県","prefecture_kana":"ミヤギケン","city":"石巻市","city_kana":"イシノマキシ","town":"尾ノ崎","town_kana":"オノサキ","prefecture_code":4},"2355":{"zip_code":"9862355","prefecture":"宮城県","prefecture_kana":"ミヤギケン","city":"石巻市","city_kana":"イシノマキシ","town":"折浜","town_kana":"オリノハマ","prefecture_code":4},"0032":{"zip_code":"9860032","prefecture":"宮城県","prefecture_kana":"ミヤギケン","city":"石巻市","city_kana":"イシノマキシ","town":"開成","town_kana":"カイセイ","prefecture_code":4},"0806":{"zip_code":"9860806","prefecture":"宮城県","prefecture_kana":"ミヤギケン","city":"石巻市","city_kana":"イシノマキシ","town":"開北","town_kana":"カイホク","prefecture_code":4},"0043":{"zip_code":"9860043","prefecture":"宮城県","prefecture_kana":"ミヤギケン","city":"石巻市","city_kana":"イシノマキシ","town":"鹿妻北","town_kana":"カヅマキタ","prefecture_code":4},"0013":{"zip_code":"9860013","prefecture":"宮城県","prefecture_kana":"ミヤギケン","city":"石巻市","city_kana":"イシノマキシ","town":"鹿妻本町","town_kana":"カヅマホンチョウ","prefecture_code":4},"0042":{"zip_code":"9860042","prefecture":"宮城県","prefecture_kana":"ミヤギケン","city":"石巻市","city_kana":"イシノマキシ","town":"鹿妻南","town_kana":"カヅマミナミ","prefecture_code":4},"0853":{"zip_code":"9860853","prefecture":"宮城県","prefecture_kana":"ミヤギケン","city":"石巻市","city_kana":"イシノマキシ","town":"門脇","town_kana":"カドノワキ","prefecture_code":4},"0834":{"zip_code":"9860834","prefecture":"宮城県","prefecture_kana":"ミヤギケン","city":"石巻市","city_kana":"イシノマキシ","town":"門脇町","town_kana":"カドノワキチョウ","prefecture_code":4},"1111":{"zip_code":"9861111","prefecture":"宮城県","prefecture_kana":"ミヤギケン","city":"石巻市","city_kana":"イシノマキシ","town":"鹿又","town_kana":"カノマタ","prefecture_code":4},"0111":{"zip_code":"9860111","prefecture":"宮城県","prefecture_kana":"ミヤギケン","city":"石巻市","city_kana":"イシノマキシ","town":"釜谷","town_kana":"カマヤ","prefecture_code":4},"0024":{"zip_code":"9860024","prefecture":"宮城県","prefecture_kana":"ミヤギケン","city":"石巻市","city_kana":"イシノマキシ","town":"川口町","town_kana":"カワグチチョウ","prefecture_code":4},"0204":{"zip_code":"9860204","prefecture":"宮城県","prefecture_kana":"ミヤギケン","city":"石巻市","city_kana":"イシノマキシ","town":"北上町女川","town_kana":"キタカミチョウオナガワ","prefecture_code":4},"0201":{"zip_code":"9860201","prefecture":"宮城県","prefecture_kana":"ミヤギケン","city":"石巻市","city_kana":"イシノマキシ","town":"北上町十三浜","town_kana":"キタカミチョウジュウサンハマ","prefecture_code":4},"0203":{"zip_code":"9860203","prefecture":"宮城県","prefecture_kana":"ミヤギケン","city":"石巻市","city_kana":"イシノマキシ","town":"北上町長尾","town_kana":"キタカミチョウナガオ","prefecture_code":4},"0202":{"zip_code":"9860202","prefecture":"宮城県","prefecture_kana":"ミヤギケン","city":"石巻市","city_kana":"イシノマキシ","town":"北上町橋浦","town_kana":"キタカミチョウハシウラ","prefecture_code":4},"0123":{"zip_code":"9860123","prefecture":"宮城県","prefecture_kana":"ミヤギケン","city":"石巻市","city_kana":"イシノマキシ","town":"北境","town_kana":"キタザカイ","prefecture_code":4},"2345":{"zip_code":"9862345","prefecture":"宮城県","prefecture_kana":"ミヤギケン","city":"石巻市","city_kana":"イシノマキシ","town":"狐崎浜","town_kana":"キツネザキハマ","prefecture_code":4},"2411":{"zip_code":"9862411","prefecture":"宮城県","prefecture_kana":"ミヤギケン","city":"石巻市","city_kana":"イシノマキシ","town":"給分浜","town_kana":"キュウブンハマ","prefecture_code":4},"2527":{"zip_code":"9862527","prefecture":"宮城県","prefecture_kana":"ミヤギケン","city":"石巻市","city_kana":"イシノマキシ","town":"十八成浜","town_kana":"クグナリハマ","prefecture_code":4},"2414":{"zip_code":"9862414","prefecture":"宮城県","prefecture_kana":"ミヤギケン","city":"石巻市","city_kana":"イシノマキシ","town":"小網倉浜","town_kana":"コアミクラハマ","prefecture_code":4},"0863":{"zip_code":"9860863","prefecture":"宮城県","prefecture_kana":"ミヤギケン","city":"石巻市","city_kana":"イシノマキシ","town":"向陽町","town_kana":"コウヨウチョウ","prefecture_code":4},"0825":{"zip_code":"9860825","prefecture":"宮城県","prefecture_kana":"ミヤギケン","city":"石巻市","city_kana":"イシノマキシ","town":"穀町","town_kana":"コクチョウ","prefecture_code":4},"2112":{"zip_code":"9862112","prefecture":"宮城県","prefecture_kana":"ミヤギケン","city":"石巻市","city_kana":"イシノマキシ","town":"後生橋","town_kana":"ゴショウバシ","prefecture_code":4},"2116":{"zip_code":"9862116","prefecture":"宮城県","prefecture_kana":"ミヤギケン","city":"石巻市","city_kana":"イシノマキシ","town":"小竹浜","town_kana":"コダケハマ","prefecture_code":4},"2342":{"zip_code":"9862342","prefecture":"宮城県","prefecture_kana":"ミヤギケン","city":"石巻市","city_kana":"イシノマキシ","town":"小積浜","town_kana":"コヅミハマ","prefecture_code":4},"2415":{"zip_code":"9862415","prefecture":"宮城県","prefecture_kana":"ミヤギケン","city":"石巻市","city_kana":"イシノマキシ","town":"小渕浜","town_kana":"コブチハマ","prefecture_code":4},"0132":{"zip_code":"9860132","prefecture":"宮城県","prefecture_kana":"ミヤギケン","city":"石巻市","city_kana":"イシノマキシ","town":"小船越","town_kana":"コフナコシ","prefecture_code":4},"2122":{"zip_code":"9862122","prefecture":"宮城県","prefecture_kana":"ミヤギケン","city":"石巻市","city_kana":"イシノマキシ","town":"幸町","town_kana":"サイワイチョウ","prefecture_code":4},"0022":{"zip_code":"9860022","prefecture":"宮城県","prefecture_kana":"ミヤギケン","city":"石巻市","city_kana":"イシノマキシ","town":"魚町","town_kana":"サカナマチ","prefecture_code":4},"2351":{"zip_code":"9862351","prefecture":"宮城県","prefecture_kana":"ミヤギケン","city":"石巻市","city_kana":"イシノマキシ","town":"侍浜","town_kana":"サムライハマ","prefecture_code":4},"2403":{"zip_code":"9862403","prefecture":"宮城県","prefecture_kana":"ミヤギケン","city":"石巻市","city_kana":"イシノマキシ","town":"鮫浦","town_kana":"サメノウラ","prefecture_code":4},"0104":{"zip_code":"9860104","prefecture":"宮城県","prefecture_kana":"ミヤギケン","city":"石巻市","city_kana":"イシノマキシ","town":"皿貝","town_kana":"サラガイ","prefecture_code":4},"2102":{"zip_code":"9862102","prefecture":"宮城県","prefecture_kana":"ミヤギケン","city":"石巻市","city_kana":"イシノマキシ","town":"沢田","town_kana":"サワダ","prefecture_code":4},"2114":{"zip_code":"9862114","prefecture":"宮城県","prefecture_kana":"ミヤギケン","city":"石巻市","city_kana":"イシノマキシ","town":"塩富町","town_kana":"シオトミチョウ","prefecture_code":4},"0842":{"zip_code":"9860842","prefecture":"宮城県","prefecture_kana":"ミヤギケン","city":"石巻市","city_kana":"イシノマキシ","town":"潮見町","town_kana":"シオミチョウ","prefecture_code":4},"0844":{"zip_code":"9860844","prefecture":"宮城県","prefecture_kana":"ミヤギケン","city":"石巻市","city_kana":"イシノマキシ","town":"重吉町","town_kana":"シゲヨシチョウ","prefecture_code":4},"2413":{"zip_code":"9862413","prefecture":"宮城県","prefecture_kana":"ミヤギケン","city":"石巻市","city_kana":"イシノマキシ","town":"清水田浜","town_kana":"シミズダハマ","prefecture_code":4},"0871":{"zip_code":"9860871","prefecture":"宮城県","prefecture_kana":"ミヤギケン","city":"石巻市","city_kana":"イシノマキシ","town":"清水町","town_kana":"シミズチョウ","prefecture_code":4},"0004":{"zip_code":"9860004","prefecture":"宮城県","prefecture_kana":"ミヤギケン","city":"石巻市","city_kana":"イシノマキシ","town":"新栄","town_kana":"シンエイ","prefecture_code":4},"0864":{"zip_code":"9860864","prefecture":"宮城県","prefecture_kana":"ミヤギケン","city":"石巻市","city_kana":"イシノマキシ","town":"新境町","town_kana":"シンサカイチョウ","prefecture_code":4},"2105":{"zip_code":"9862105","prefecture":"宮城県","prefecture_kana":"ミヤギケン","city":"石巻市","city_kana":"イシノマキシ","town":"新成","town_kana":"シンセイ","prefecture_code":4},"0848":{"zip_code":"9860848","prefecture":"宮城県","prefecture_kana":"ミヤギケン","city":"石巻市","city_kana":"イシノマキシ","town":"新館","town_kana":"シンタテ","prefecture_code":4},"0878":{"zip_code":"9860878","prefecture":"宮城県","prefecture_kana":"ミヤギケン","city":"石巻市","city_kana":"イシノマキシ","town":"新橋","town_kana":"シンバシ","prefecture_code":4},"0801":{"zip_code":"9860801","prefecture":"宮城県","prefecture_kana":"ミヤギケン","city":"石巻市","city_kana":"イシノマキシ","town":"水明北","town_kana":"スイメイキタ","prefecture_code":4},"0802":{"zip_code":"9860802","prefecture":"宮城県","prefecture_kana":"ミヤギケン","city":"石巻市","city_kana":"イシノマキシ","town":"水明南","town_kana":"スイメイミナミ","prefecture_code":4},"0875":{"zip_code":"9860875","prefecture":"宮城県","prefecture_kana":"ミヤギケン","city":"石巻市","city_kana":"イシノマキシ","town":"末広町","town_kana":"スエヒロチョウ","prefecture_code":4},"2344":{"zip_code":"9862344","prefecture":"宮城県","prefecture_kana":"ミヤギケン","city":"石巻市","city_kana":"イシノマキシ","town":"鹿立","town_kana":"スダチ","prefecture_code":4},"0821":{"zip_code":"9860821","prefecture":"宮城県","prefecture_kana":"ミヤギケン","city":"石巻市","city_kana":"イシノマキシ","town":"住吉町","town_kana":"スミヨシチョウ","prefecture_code":4},"0827":{"zip_code":"9860827","prefecture":"宮城県","prefecture_kana":"ミヤギケン","city":"石巻市","city_kana":"イシノマキシ","town":"千石町","town_kana":"センゴクチョウ","prefecture_code":4},"0026":{"zip_code":"9860026","prefecture":"宮城県","prefecture_kana":"ミヤギケン","city":"石巻市","city_kana":"イシノマキシ","town":"大門町","town_kana":"ダイモンチョウ","prefecture_code":4},"0006":{"zip_code":"9860006","prefecture":"宮城県","prefecture_kana":"ミヤギケン","city":"石巻市","city_kana":"イシノマキシ","town":"高木","town_kana":"タカキ","prefecture_code":4},"2346":{"zip_code":"9862346","prefecture":"宮城県","prefecture_kana":"ミヤギケン","city":"石巻市","city_kana":"イシノマキシ","town":"竹浜","town_kana":"タケノハマ","prefecture_code":4},"0023":{"zip_code":"9860023","prefecture":"宮城県","prefecture_kana":"ミヤギケン","city":"石巻市","city_kana":"イシノマキシ","town":"田代浜","town_kana":"タシロハマ","prefecture_code":4},"0824":{"zip_code":"9860824","prefecture":"宮城県","prefecture_kana":"ミヤギケン","city":"石巻市","city_kana":"イシノマキシ","town":"立町","town_kana":"タチマチ","prefecture_code":4},"0872":{"zip_code":"9860872","prefecture":"宮城県","prefecture_kana":"ミヤギケン","city":"石巻市","city_kana":"イシノマキシ","town":"田道町","town_kana":"タミチチョウ","prefecture_code":4},"2104":{"zip_code":"9862104","prefecture":"宮城県","prefecture_kana":"ミヤギケン","city":"石巻市","city_kana":"イシノマキシ","town":"垂水町","town_kana":"タレミズチョウ","prefecture_code":4},"0822":{"zip_code":"9860822","prefecture":"宮城県","prefecture_kana":"ミヤギケン","city":"石巻市","city_kana":"イシノマキシ","town":"中央","town_kana":"チュウオウ","prefecture_code":4},"2352":{"zip_code":"9862352","prefecture":"宮城県","prefecture_kana":"ミヤギケン","city":"石巻市","city_kana":"イシノマキシ","town":"月浦","town_kana":"ツキノウラ","prefecture_code":4},"0857":{"zip_code":"9860857","prefecture":"宮城県","prefecture_kana":"ミヤギケン","city":"石巻市","city_kana":"イシノマキシ","town":"築山","town_kana":"ツキヤマ","prefecture_code":4},"0851":{"zip_code":"9860851","prefecture":"宮城県","prefecture_kana":"ミヤギケン","city":"石巻市","city_kana":"イシノマキシ","town":"貞山","town_kana":"テイザン","prefecture_code":4},"2401":{"zip_code":"9862401","prefecture":"宮城県","prefecture_kana":"ミヤギケン","city":"石巻市","city_kana":"イシノマキシ","town":"泊浜","town_kana":"トマリハマ","prefecture_code":4},"0847":{"zip_code":"9860847","prefecture":"宮城県","prefecture_kana":"ミヤギケン","city":"石巻市","city_kana":"イシノマキシ","town":"中浦","town_kana":"ナカウラ","prefecture_code":4},"0815":{"zip_code":"9860815","prefecture":"宮城県","prefecture_kana":"ミヤギケン","city":"石巻市","city_kana":"イシノマキシ","town":"中里","town_kana":"ナカサト","prefecture_code":4},"0103":{"zip_code":"9860103","prefecture":"宮城県","prefecture_kana":"ミヤギケン","city":"石巻市","city_kana":"イシノマキシ","town":"中島","town_kana":"ナカジマ","prefecture_code":4},"0845":{"zip_code":"9860845","prefecture":"宮城県","prefecture_kana":"ミヤギケン","city":"石巻市","city_kana":"イシノマキシ","town":"中島町","town_kana":"ナカジマチョウ","prefecture_code":4},"0823":{"zip_code":"9860823","prefecture":"宮城県","prefecture_kana":"ミヤギケン","city":"石巻市","city_kana":"イシノマキシ","town":"中瀬","town_kana":"ナカゼ","prefecture_code":4},"0112":{"zip_code":"9860112","prefecture":"宮城県","prefecture_kana":"ミヤギケン","city":"石巻市","city_kana":"イシノマキシ","town":"長面","town_kana":"ナガツラ","prefecture_code":4},"0105":{"zip_code":"9860105","prefecture":"宮城県","prefecture_kana":"ミヤギケン","city":"石巻市","city_kana":"イシノマキシ","town":"中野","town_kana":"ナカノ","prefecture_code":4},"2133":{"zip_code":"9862133","prefecture":"宮城県","prefecture_kana":"ミヤギケン","city":"石巻市","city_kana":"イシノマキシ","town":"長浜町","town_kana":"ナガハマチョウ","prefecture_code":4},"0849":{"zip_code":"9860849","prefecture":"宮城県","prefecture_kana":"ミヤギケン","city":"石巻市","city_kana":"イシノマキシ","town":"中屋敷","town_kana":"ナカヤシキ","prefecture_code":4},"2103":{"zip_code":"9862103","prefecture":"宮城県","prefecture_kana":"ミヤギケン","city":"石巻市","city_kana":"イシノマキシ","town":"流留","town_kana":"ナガル","prefecture_code":4},"0102":{"zip_code":"9860102","prefecture":"宮城県","prefecture_kana":"ミヤギケン","city":"石巻市","city_kana":"イシノマキシ","town":"成田","town_kana":"ナリタ","prefecture_code":4},"0836":{"zip_code":"9860836","prefecture":"宮城県","prefecture_kana":"ミヤギケン","city":"石巻市","city_kana":"イシノマキシ","town":"南光町","town_kana":"ナンコウチョウ","prefecture_code":4},"2521":{"zip_code":"9862521","prefecture":"宮城県","prefecture_kana":"ミヤギケン","city":"石巻市","city_kana":"イシノマキシ","town":"新山浜","town_kana":"ニイヤマハマ","prefecture_code":4},"0877":{"zip_code":"9860877","prefecture":"宮城県","prefecture_kana":"ミヤギケン","city":"石巻市","city_kana":"イシノマキシ","town":"錦町","town_kana":"ニシキチョウ","prefecture_code":4},"0843":{"zip_code":"9860843","prefecture":"宮城県","prefecture_kana":"ミヤギケン","city":"石巻市","city_kana":"イシノマキシ","town":"西浜町","town_kana":"ニシハマチョウ","prefecture_code":4},"0876":{"zip_code":"9860876","prefecture":"宮城県","prefecture_kana":"ミヤギケン","city":"石巻市","city_kana":"イシノマキシ","town":"西山町","town_kana":"ニシヤマチョウ","prefecture_code":4},"2101":{"zip_code":"9862101","prefecture":"宮城県","prefecture_kana":"ミヤギケン","city":"石巻市","city_kana":"イシノマキシ","town":"沼津","town_kana":"ヌマヅ","prefecture_code":4},"2136":{"zip_code":"9862136","prefecture":"宮城県","prefecture_kana":"ミヤギケン","city":"石巻市","city_kana":"イシノマキシ","town":"根岸","town_kana":"ネギシ","prefecture_code":4},"0831":{"zip_code":"9860831","prefecture":"宮城県","prefecture_kana":"ミヤギケン","city":"石巻市","city_kana":"イシノマキシ","town":"羽黒町","town_kana":"ハグロチョウ","prefecture_code":4},"0016":{"zip_code":"9860016","prefecture":"宮城県","prefecture_kana":"ミヤギケン","city":"石巻市","city_kana":"イシノマキシ","town":"八幡町","town_kana":"ハチマンチョウ","prefecture_code":4},"2354":{"zip_code":"9862354","prefecture":"宮城県","prefecture_kana":"ミヤギケン","city":"石巻市","city_kana":"イシノマキシ","town":"蛤浜","town_kana":"ハマグリハマ","prefecture_code":4},"2131":{"zip_code":"9862131","prefecture":"宮城県","prefecture_kana":"ミヤギケン","city":"石巻市","city_kana":"イシノマキシ","town":"浜松町","town_kana":"ハママツチョウ","prefecture_code":4},"0114":{"zip_code":"9860114","prefecture":"宮城県","prefecture_kana":"ミヤギケン","city":"石巻市","city_kana":"イシノマキシ","town":"針岡","town_kana":"ハリオカ","prefecture_code":4},"0812":{"zip_code":"9860812","prefecture":"宮城県","prefecture_kana":"ミヤギケン","city":"石巻市","city_kana":"イシノマキシ","town":"東中里","town_kana":"ヒガシナカサト","prefecture_code":4},"0122":{"zip_code":"9860122","prefecture":"宮城県","prefecture_kana":"ミヤギケン","city":"石巻市","city_kana":"イシノマキシ","town":"東福田","town_kana":"ヒガシフクダ","prefecture_code":4},"0841":{"zip_code":"9860841","prefecture":"宮城県","prefecture_kana":"ミヤギケン","city":"石巻市","city_kana":"イシノマキシ","town":"雲雀野町","town_kana":"ヒバリノチョウ","prefecture_code":4},"0833":{"zip_code":"9860833","prefecture":"宮城県","prefecture_kana":"ミヤギケン","city":"石巻市","city_kana":"イシノマキシ","town":"日和が丘","town_kana":"ヒヨリガオカ","prefecture_code":4},"0115":{"zip_code":"9860115","prefecture":"宮城県","prefecture_kana":"ミヤギケン","city":"石巻市","city_kana":"イシノマキシ","town":"福地","town_kana":"フクジ","prefecture_code":4},"0874":{"zip_code":"9860874","prefecture":"宮城県","prefecture_kana":"ミヤギケン","city":"石巻市","city_kana":"イシノマキシ","town":"双葉町","town_kana":"フタバチョウ","prefecture_code":4},"2525":{"zip_code":"9862525","prefecture":"宮城県","prefecture_kana":"ミヤギケン","city":"石巻市","city_kana":"イシノマキシ","town":"長渡浜","town_kana":"フタワタシハマ","prefecture_code":4},"2343":{"zip_code":"9862343","prefecture":"宮城県","prefecture_kana":"ミヤギケン","city":"石巻市","city_kana":"イシノマキシ","town":"福貴浦","town_kana":"フッキウラ","prefecture_code":4},"0017":{"zip_code":"9860017","prefecture":"宮城県","prefecture_kana":"ミヤギケン","city":"石巻市","city_kana":"イシノマキシ","town":"不動町","town_kana":"フドウチョウ","prefecture_code":4},"0861":{"zip_code":"9860861","prefecture":"宮城県","prefecture_kana":"ミヤギケン","city":"石巻市","city_kana":"イシノマキシ","town":"蛇田","town_kana":"ヘビタ","prefecture_code":4},"2406":{"zip_code":"9862406","prefecture":"宮城県","prefecture_kana":"ミヤギケン","city":"石巻市","city_kana":"イシノマキシ","town":"前網浜","town_kana":"マエアミハマ","prefecture_code":4},"2347":{"zip_code":"9862347","prefecture":"宮城県","prefecture_kana":"ミヤギケン","city":"石巻市","city_kana":"イシノマキシ","town":"牧浜","town_kana":"マキノハマ","prefecture_code":4},"0106":{"zip_code":"9860106","prefecture":"宮城県","prefecture_kana":"ミヤギケン","city":"石巻市","city_kana":"イシノマキシ","town":"馬鞍","town_kana":"マグラ","prefecture_code":4},"0028":{"zip_code":"9860028","prefecture":"宮城県","prefecture_kana":"ミヤギケン","city":"石巻市","city_kana":"イシノマキシ","town":"松並","town_kana":"マツナミ","prefecture_code":4},"2134":{"zip_code":"9862134","prefecture":"宮城県","prefecture_kana":"ミヤギケン","city":"石巻市","city_kana":"イシノマキシ","town":"松原町","town_kana":"マツバラチョウ","prefecture_code":4},"0002":{"zip_code":"9860002","prefecture":"宮城県","prefecture_kana":"ミヤギケン","city":"石巻市","city_kana":"イシノマキシ","town":"真野","town_kana":"マノ","prefecture_code":4},"0865":{"zip_code":"9860865","prefecture":"宮城県","prefecture_kana":"ミヤギケン","city":"石巻市","city_kana":"イシノマキシ","town":"丸井戸","town_kana":"マルイド","prefecture_code":4},"2115":{"zip_code":"9862115","prefecture":"宮城県","prefecture_kana":"ミヤギケン","city":"石巻市","city_kana":"イシノマキシ","town":"万石町","town_kana":"マンゴクチョウ","prefecture_code":4},"0846":{"zip_code":"9860846","prefecture":"宮城県","prefecture_kana":"ミヤギケン","city":"石巻市","city_kana":"イシノマキシ","town":"三河町","town_kana":"ミカワチョウ","prefecture_code":4},"0803":{"zip_code":"9860803","prefecture":"宮城県","prefecture_kana":"ミヤギケン","city":"石巻市","city_kana":"イシノマキシ","town":"水押","town_kana":"ミズオシ","prefecture_code":4},"0001":{"zip_code":"9860001","prefecture":"宮城県","prefecture_kana":"ミヤギケン","city":"石巻市","city_kana":"イシノマキシ","town":"水沼","town_kana":"ミズヌマ","prefecture_code":4},"0858":{"zip_code":"9860858","prefecture":"宮城県","prefecture_kana":"ミヤギケン","city":"石巻市","city_kana":"イシノマキシ","town":"三ツ股","town_kana":"ミツマタ","prefecture_code":4},"2111":{"zip_code":"9862111","prefecture":"宮城県","prefecture_kana":"ミヤギケン","city":"石巻市","city_kana":"イシノマキシ","town":"三和町","town_kana":"ミツワチョウ","prefecture_code":4},"0021":{"zip_code":"9860021","prefecture":"宮城県","prefecture_kana":"ミヤギケン","city":"石巻市","city_kana":"イシノマキシ","town":"緑町","town_kana":"ミドリチョウ","prefecture_code":4},"0011":{"zip_code":"9860011","prefecture":"宮城県","prefecture_kana":"ミヤギケン","city":"石巻市","city_kana":"イシノマキシ","town":"湊","town_kana":"ミナト","prefecture_code":4},"0025":{"zip_code":"9860025","prefecture":"宮城県","prefecture_kana":"ミヤギケン","city":"石巻市","city_kana":"イシノマキシ","town":"湊町","town_kana":"ミナトチョウ","prefecture_code":4},"0031":{"zip_code":"9860031","prefecture":"宮城県","prefecture_kana":"ミヤギケン","city":"石巻市","city_kana":"イシノマキシ","town":"南境","town_kana":"ミナミザカイ","prefecture_code":4},"0814":{"zip_code":"9860814","prefecture":"宮城県","prefecture_kana":"ミヤギケン","city":"石巻市","city_kana":"イシノマキシ","town":"南中里","town_kana":"ミナミナカサト","prefecture_code":4},"0835":{"zip_code":"9860835","prefecture":"宮城県","prefecture_kana":"ミヤギケン","city":"石巻市","city_kana":"イシノマキシ","town":"南浜町","town_kana":"ミナミハマチョウ","prefecture_code":4},"0852":{"zip_code":"9860852","prefecture":"宮城県","prefecture_kana":"ミヤギケン","city":"石巻市","city_kana":"イシノマキシ","town":"南谷地","town_kana":"ミナミヤチ","prefecture_code":4},"0124":{"zip_code":"9860124","prefecture":"宮城県","prefecture_kana":"ミヤギケン","city":"石巻市","city_kana":"イシノマキシ","town":"三輪田","town_kana":"ミノワダ","prefecture_code":4},"0027":{"zip_code":"9860027","prefecture":"宮城県","prefecture_kana":"ミヤギケン","city":"石巻市","city_kana":"イシノマキシ","town":"明神町","town_kana":"ミョウジンチョウ","prefecture_code":4},"0811":{"zip_code":"9860811","prefecture":"宮城県","prefecture_kana":"ミヤギケン","city":"石巻市","city_kana":"イシノマキシ","town":"元倉","town_kana":"モトクラ","prefecture_code":4},"0305":{"zip_code":"9860305","prefecture":"宮城県","prefecture_kana":"ミヤギケン","city":"石巻市","city_kana":"イシノマキシ","town":"桃生町牛田","town_kana":"モノウチョウウシタ","prefecture_code":4},"0311":{"zip_code":"9860311","prefecture":"宮城県","prefecture_kana":"ミヤギケン","city":"石巻市","city_kana":"イシノマキシ","town":"桃生町太田","town_kana":"モノウチョウオオタ","prefecture_code":4},"0304":{"zip_code":"9860304","prefecture":"宮城県","prefecture_kana":"ミヤギケン","city":"石巻市","city_kana":"イシノマキシ","town":"桃生町樫崎","town_kana":"モノウチョウカシザキ","prefecture_code":4},"0323":{"zip_code":"9860323","prefecture":"宮城県","prefecture_kana":"ミヤギケン","city":"石巻市","city_kana":"イシノマキシ","town":"桃生町神取","town_kana":"モノウチョウカンドリ","prefecture_code":4},"0322":{"zip_code":"9860322","prefecture":"宮城県","prefecture_kana":"ミヤギケン","city":"石巻市","city_kana":"イシノマキシ","town":"桃生町給人町","town_kana":"モノウチョウキュウニンマチ","prefecture_code":4},"0302":{"zip_code":"9860302","prefecture":"宮城県","prefecture_kana":"ミヤギケン","city":"石巻市","city_kana":"イシノマキシ","town":"桃生町倉埣","town_kana":"モノウチョウクラゾネ","prefecture_code":4},"0312":{"zip_code":"9860312","prefecture":"宮城県","prefecture_kana":"ミヤギケン","city":"石巻市","city_kana":"イシノマキシ","town":"桃生町城内","town_kana":"モノウチョウジョウナイ","prefecture_code":4},"0321":{"zip_code":"9860321","prefecture":"宮城県","prefecture_kana":"ミヤギケン","city":"石巻市","city_kana":"イシノマキシ","town":"桃生町新田","town_kana":"モノウチョウシンデン","prefecture_code":4},"0324":{"zip_code":"9860324","prefecture":"宮城県","prefecture_kana":"ミヤギケン","city":"石巻市","city_kana":"イシノマキシ","town":"桃生町高須賀","town_kana":"モノウチョウタカスカ","prefecture_code":4},"0314":{"zip_code":"9860314","prefecture":"宮城県","prefecture_kana":"ミヤギケン","city":"石巻市","city_kana":"イシノマキシ","town":"桃生町寺崎","town_kana":"モノウチョウテラサキ","prefecture_code":4},"0303":{"zip_code":"9860303","prefecture":"宮城県","prefecture_kana":"ミヤギケン","city":"石巻市","city_kana":"イシノマキシ","town":"桃生町永井","town_kana":"モノウチョウナガイ","prefecture_code":4},"0313":{"zip_code":"9860313","prefecture":"宮城県","prefecture_kana":"ミヤギケン","city":"石巻市","city_kana":"イシノマキシ","town":"桃生町中津山","town_kana":"モノウチョウナカツヤマ","prefecture_code":4},"0301":{"zip_code":"9860301","prefecture":"宮城県","prefecture_kana":"ミヤギケン","city":"石巻市","city_kana":"イシノマキシ","town":"桃生町脇谷","town_kana":"モノウチョウワキヤ","prefecture_code":4},"2353":{"zip_code":"9862353","prefecture":"宮城県","prefecture_kana":"ミヤギケン","city":"石巻市","city_kana":"イシノマキシ","town":"桃浦","town_kana":"モモノウラ","prefecture_code":4},"2402":{"zip_code":"9862402","prefecture":"宮城県","prefecture_kana":"ミヤギケン","city":"石巻市","city_kana":"イシノマキシ","town":"谷川浜","town_kana":"ヤガワハマ","prefecture_code":4},"0873":{"zip_code":"9860873","prefecture":"宮城県","prefecture_kana":"ミヤギケン","city":"石巻市","city_kana":"イシノマキシ","town":"山下町","town_kana":"ヤマシタチョウ","prefecture_code":4},"0015":{"zip_code":"9860015","prefecture":"宮城県","prefecture_kana":"ミヤギケン","city":"石巻市","city_kana":"イシノマキシ","town":"吉野町","town_kana":"ヨシノチョウ","prefecture_code":4},"0837":{"zip_code":"9860837","prefecture":"宮城県","prefecture_kana":"ミヤギケン","city":"石巻市","city_kana":"イシノマキシ","town":"宜山町","town_kana":"ヨシヤマチョウ","prefecture_code":4},"2404":{"zip_code":"9862404","prefecture":"宮城県","prefecture_kana":"ミヤギケン","city":"石巻市","city_kana":"イシノマキシ","town":"寄磯浜","town_kana":"ヨリイソハマ","prefecture_code":4},"2135":{"zip_code":"9862135","prefecture":"宮城県","prefecture_kana":"ミヤギケン","city":"石巻市","city_kana":"イシノマキシ","town":"渡波","town_kana":"ワタノハ","prefecture_code":4},"2121":{"zip_code":"9862121","prefecture":"宮城県","prefecture_kana":"ミヤギケン","city":"石巻市","city_kana":"イシノマキシ","town":"渡波町","town_kana":"ワタノハチョウ","prefecture_code":4},"0401":{"zip_code":"9860401","prefecture":"宮城県","prefecture_kana":"ミヤギケン","city":"登米市","city_kana":"トメシ","town":"津山町柳津","town_kana":"ツヤマチョウヤナイヅ","prefecture_code":4},"0402":{"zip_code":"9860402","prefecture":"宮城県","prefecture_kana":"ミヤギケン","city":"登米市","city_kana":"トメシ","town":"津山町横山","town_kana":"ツヤマチョウヨコヤマ","prefecture_code":4},"2200":{"zip_code":"9862200","prefecture":"宮城県","prefecture_kana":"ミヤギケン","city":"牡鹿郡女川町","city_kana":"オシカグンオナガワチョウ","town":"","town_kana":"","prefecture_code":4},"2251":{"zip_code":"9862251","prefecture":"宮城県","prefecture_kana":"ミヤギケン","city":"牡鹿郡女川町","city_kana":"オシカグンオナガワチョウ","town":"旭が丘","town_kana":"アサヒガオカ","prefecture_code":4},"2222":{"zip_code":"9862222","prefecture":"宮城県","prefecture_kana":"ミヤギケン","city":"牡鹿郡女川町","city_kana":"オシカグンオナガワチョウ","town":"飯子浜","town_kana":"イイゴハマ","prefecture_code":4},"2281":{"zip_code":"9862281","prefecture":"宮城県","prefecture_kana":"ミヤギケン","city":"牡鹿郡女川町","city_kana":"オシカグンオナガワチョウ","town":"石浜","town_kana":"イシハマ","prefecture_code":4},"2211":{"zip_code":"9862211","prefecture":"宮城県","prefecture_kana":"ミヤギケン","city":"牡鹿郡女川町","city_kana":"オシカグンオナガワチョウ","town":"出島","town_kana":"イズシマ","prefecture_code":4},"2231":{"zip_code":"9862231","prefecture":"宮城県","prefecture_kana":"ミヤギケン","city":"牡鹿郡女川町","city_kana":"オシカグンオナガワチョウ","town":"浦宿浜","town_kana":"ウラシュクハマ","prefecture_code":4},"2212":{"zip_code":"9862212","prefecture":"宮城県","prefecture_kana":"ミヤギケン","city":"牡鹿郡女川町","city_kana":"オシカグンオナガワチョウ","town":"江島","town_kana":"エノシマ","prefecture_code":4},"2202":{"zip_code":"9862202","prefecture":"宮城県","prefecture_kana":"ミヤギケン","city":"牡鹿郡女川町","city_kana":"オシカグンオナガワチョウ","town":"尾浦","town_kana":"オウラ","prefecture_code":4},"2224":{"zip_code":"9862224","prefecture":"宮城県","prefecture_kana":"ミヤギケン","city":"牡鹿郡女川町","city_kana":"オシカグンオナガワチョウ","town":"大石原浜","town_kana":"オオイシハラハマ","prefecture_code":4},"2261":{"zip_code":"9862261","prefecture":"宮城県","prefecture_kana":"ミヤギケン","city":"牡鹿郡女川町","city_kana":"オシカグンオナガワチョウ","town":"女川浜","town_kana":"オナガワハマ","prefecture_code":4},"2205":{"zip_code":"9862205","prefecture":"宮城県","prefecture_kana":"ミヤギケン","city":"牡鹿郡女川町","city_kana":"オシカグンオナガワチョウ","town":"御前浜","town_kana":"オンマエハマ","prefecture_code":4},"2204":{"zip_code":"9862204","prefecture":"宮城県","prefecture_kana":"ミヤギケン","city":"牡鹿郡女川町","city_kana":"オシカグンオナガワチョウ","town":"桐ケ崎","town_kana":"キリガサキ","prefecture_code":4},"2241":{"zip_code":"9862241","prefecture":"宮城県","prefecture_kana":"ミヤギケン","city":"牡鹿郡女川町","city_kana":"オシカグンオナガワチョウ","town":"黄金町","town_kana":"コガネチョウ","prefecture_code":4},"2245":{"zip_code":"9862245","prefecture":"宮城県","prefecture_kana":"ミヤギケン","city":"牡鹿郡女川町","city_kana":"オシカグンオナガワチョウ","town":"寿町","town_kana":"コトブキチョウ","prefecture_code":4},"2242":{"zip_code":"9862242","prefecture":"宮城県","prefecture_kana":"ミヤギケン","city":"牡鹿郡女川町","city_kana":"オシカグンオナガワチョウ","town":"小乗浜","town_kana":"コノリハマ","prefecture_code":4},"2244":{"zip_code":"9862244","prefecture":"宮城県","prefecture_kana":"ミヤギケン","city":"牡鹿郡女川町","city_kana":"オシカグンオナガワチョウ","town":"桜ケ丘","town_kana":"サクラガオカ","prefecture_code":4},"2201":{"zip_code":"9862201","prefecture":"宮城県","prefecture_kana":"ミヤギケン","city":"牡鹿郡女川町","city_kana":"オシカグンオナガワチョウ","town":"指ケ浜","town_kana":"サシノハマ","prefecture_code":4},"2271":{"zip_code":"9862271","prefecture":"宮城県","prefecture_kana":"ミヤギケン","city":"牡鹿郡女川町","city_kana":"オシカグンオナガワチョウ","town":"清水町","town_kana":"シミズチョウ","prefecture_code":4},"2226":{"zip_code":"9862226","prefecture":"宮城県","prefecture_kana":"ミヤギケン","city":"牡鹿郡女川町","city_kana":"オシカグンオナガワチョウ","town":"高白浜","town_kana":"タカシロハマ","prefecture_code":4},"2203":{"zip_code":"9862203","prefecture":"宮城県","prefecture_kana":"ミヤギケン","city":"牡鹿郡女川町","city_kana":"オシカグンオナガワチョウ","town":"竹浦","town_kana":"タケノウラ","prefecture_code":4},"2221":{"zip_code":"9862221","prefecture":"宮城県","prefecture_kana":"ミヤギケン","city":"牡鹿郡女川町","city_kana":"オシカグンオナガワチョウ","town":"塚浜","town_kana":"ツカハマ","prefecture_code":4},"2223":{"zip_code":"9862223","prefecture":"宮城県","prefecture_kana":"ミヤギケン","city":"牡鹿郡女川町","city_kana":"オシカグンオナガワチョウ","town":"野々浜","town_kana":"ノノハマ","prefecture_code":4},"2232":{"zip_code":"9862232","prefecture":"宮城県","prefecture_kana":"ミヤギケン","city":"牡鹿郡女川町","city_kana":"オシカグンオナガワチョウ","town":"針浜","town_kana":"ハリノハマ","prefecture_code":4},"2282":{"zip_code":"9862282","prefecture":"宮城県","prefecture_kana":"ミヤギケン","city":"牡鹿郡女川町","city_kana":"オシカグンオナガワチョウ","town":"宮ケ崎","town_kana":"ミヤガサキ","prefecture_code":4},"2225":{"zip_code":"9862225","prefecture":"宮城県","prefecture_kana":"ミヤギケン","city":"牡鹿郡女川町","city_kana":"オシカグンオナガワチョウ","town":"横浦","town_kana":"ヨコウラ","prefecture_code":4},"2243":{"zip_code":"9862243","prefecture":"宮城県","prefecture_kana":"ミヤギケン","city":"牡鹿郡女川町","city_kana":"オシカグンオナガワチョウ","town":"鷲神浜","town_kana":"ワシノカミハマ","prefecture_code":4},"0700":{"zip_code":"9860700","prefecture":"宮城県","prefecture_kana":"ミヤギケン","city":"本吉郡南三陸町","city_kana":"モトヨシグンミナミサンリクチョウ","town":"","town_kana":"","prefecture_code":4},"0782":{"zip_code":"9860782","prefecture":"宮城県","prefecture_kana":"ミヤギケン","city":"本吉郡南三陸町","city_kana":"モトヨシグンミナミサンリクチョウ","town":"入谷","town_kana":"イリヤ","prefecture_code":4},"0772":{"zip_code":"9860772","prefecture":"宮城県","prefecture_kana":"ミヤギケン","city":"本吉郡南三陸町","city_kana":"モトヨシグンミナミサンリクチョウ","town":"志津川秋目川","town_kana":"シヅガワアキメガワ","prefecture_code":4},"0733":{"zip_code":"9860733","prefecture":"宮城県","prefecture_kana":"ミヤギケン","city":"本吉郡南三陸町","city_kana":"モトヨシグンミナミサンリクチョウ","town":"志津川旭ケ浦","town_kana":"シヅガワアサヒガウラ","prefecture_code":4},"0705":{"zip_code":"9860705","prefecture":"宮城県","prefecture_kana":"ミヤギケン","city":"本吉郡南三陸町","city_kana":"モトヨシグンミナミサンリクチョウ","town":"志津川阿曽","town_kana":"シヅガワアソ","prefecture_code":4},"0707":{"zip_code":"9860707","prefecture":"宮城県","prefecture_kana":"ミヤギケン","city":"本吉郡南三陸町","city_kana":"モトヨシグンミナミサンリクチョウ","town":"志津川荒坂","town_kana":"シヅガワアラサカ","prefecture_code":4},"0726":{"zip_code":"9860726","prefecture":"宮城県","prefecture_kana":"ミヤギケン","city":"本吉郡南三陸町","city_kana":"モトヨシグンミナミサンリクチョウ","town":"志津川磯の沢","town_kana":"シヅガワイソノサワ","prefecture_code":4},"0752":{"zip_code":"9860752","prefecture":"宮城県","prefecture_kana":"ミヤギケン","city":"本吉郡南三陸町","city_kana":"モトヨシグンミナミサンリクチョウ","town":"志津川五日町","town_kana":"シヅガワイツカマチ","prefecture_code":4},"0709":{"zip_code":"9860709","prefecture":"宮城県","prefecture_kana":"ミヤギケン","city":"本吉郡南三陸町","city_kana":"モトヨシグンミナミサンリクチョウ","town":"志津川内井田","town_kana":"シヅガワウチイダ","prefecture_code":4},"0764":{"zip_code":"9860764","prefecture":"宮城県","prefecture_kana":"ミヤギケン","city":"本吉郡南三陸町","city_kana":"モトヨシグンミナミサンリクチョウ","town":"志津川大久保","town_kana":"シヅガワオオクボ","prefecture_code":4},"0771":{"zip_code":"9860771","prefecture":"宮城県","prefecture_kana":"ミヤギケン","city":"本吉郡南三陸町","city_kana":"モトヨシグンミナミサンリクチョウ","town":"志津川大沢","town_kana":"シヅガワオオサワ","prefecture_code":4},"0718":{"zip_code":"9860718","prefecture":"宮城県","prefecture_kana":"ミヤギケン","city":"本吉郡南三陸町","city_kana":"モトヨシグンミナミサンリクチョウ","town":"志津川大畑","town_kana":"シヅガワオオバタケ","prefecture_code":4},"0731":{"zip_code":"9860731","prefecture":"宮城県","prefecture_kana":"ミヤギケン","city":"本吉郡南三陸町","city_kana":"モトヨシグンミナミサンリクチョウ","town":"志津川大森","town_kana":"シヅガワオオモリ","prefecture_code":4},"0732":{"zip_code":"9860732","prefecture":"宮城県","prefecture_kana":"ミヤギケン","city":"本吉郡南三陸町","city_kana":"モトヨシグンミナミサンリクチョウ","town":"志津川大森町","town_kana":"シヅガワオオモリチョウ","prefecture_code":4},"0714":{"zip_code":"9860714","prefecture":"宮城県","prefecture_kana":"ミヤギケン","city":"本吉郡南三陸町","city_kana":"モトヨシグンミナミサンリクチョウ","town":"志津川蒲の沢","town_kana":"シヅガワカバノサワ","prefecture_code":4},"0751":{"zip_code":"9860751","prefecture":"宮城県","prefecture_kana":"ミヤギケン","city":"本吉郡南三陸町","city_kana":"モトヨシグンミナミサンリクチョウ","town":"志津川上の山","town_kana":"シヅガワカミノヤマ","prefecture_code":4},"0777":{"zip_code":"9860777","prefecture":"宮城県","prefecture_kana":"ミヤギケン","city":"本吉郡南三陸町","city_kana":"モトヨシグンミナミサンリクチョウ","town":"志津川上保呂毛","town_kana":"シヅガワカミホロケ","prefecture_code":4},"0712":{"zip_code":"9860712","prefecture":"宮城県","prefecture_kana":"ミヤギケン","city":"本吉郡南三陸町","city_kana":"モトヨシグンミナミサンリクチョウ","town":"志津川北の又","town_kana":"シヅガワキタノマタ","prefecture_code":4},"0773":{"zip_code":"9860773","prefecture":"宮城県","prefecture_kana":"ミヤギケン","city":"本吉郡南三陸町","city_kana":"モトヨシグンミナミサンリクチョウ","town":"志津川熊田","town_kana":"シヅガワクマダ","prefecture_code":4},"0766":{"zip_code":"9860766","prefecture":"宮城県","prefecture_kana":"ミヤギケン","city":"本吉郡南三陸町","city_kana":"モトヨシグンミナミサンリクチョウ","town":"志津川黒崎","town_kana":"シヅガワクロサキ","prefecture_code":4},"0768":{"zip_code":"9860768","prefecture":"宮城県","prefecture_kana":"ミヤギケン","city":"本吉郡南三陸町","city_kana":"モトヨシグンミナミサンリクチョウ","town":"志津川御前下","town_kana":"シヅガワゴゼンシタ","prefecture_code":4},"0721":{"zip_code":"9860721","prefecture":"宮城県","prefecture_kana":"ミヤギケン","city":"本吉郡南三陸町","city_kana":"モトヨシグンミナミサンリクチョウ","town":"志津川米広","town_kana":"シヅガワコメヒロ","prefecture_code":4},"0774":{"zip_code":"9860774","prefecture":"宮城県","prefecture_kana":"ミヤギケン","city":"本吉郡南三陸町","city_kana":"モトヨシグンミナミサンリクチョウ","town":"志津川小森","town_kana":"シヅガワコモリ","prefecture_code":4},"0711":{"zip_code":"9860711","prefecture":"宮城県","prefecture_kana":"ミヤギケン","city":"本吉郡南三陸町","city_kana":"モトヨシグンミナミサンリクチョウ","town":"志津川権現","town_kana":"シヅガワゴンゲン","prefecture_code":4},"0762":{"zip_code":"9860762","prefecture":"宮城県","prefecture_kana":"ミヤギケン","city":"本吉郡南三陸町","city_kana":"モトヨシグンミナミサンリクチョウ","town":"志津川塩入","town_kana":"シヅガワシオイリ","prefecture_code":4},"0763":{"zip_code":"9860763","prefecture":"宮城県","prefecture_kana":"ミヤギケン","city":"本吉郡南三陸町","city_kana":"モトヨシグンミナミサンリクチョウ","town":"志津川汐見町","town_kana":"シヅガワシオミチョウ","prefecture_code":4},"0706":{"zip_code":"9860706","prefecture":"宮城県","prefecture_kana":"ミヤギケン","city":"本吉郡南三陸町","city_kana":"モトヨシグンミナミサンリクチョウ","town":"志津川清水浜","town_kana":"シヅガワシズハマ","prefecture_code":4},"0778":{"zip_code":"9860778","prefecture":"宮城県","prefecture_kana":"ミヤギケン","city":"本吉郡南三陸町","city_kana":"モトヨシグンミナミサンリクチョウ","town":"志津川下保呂毛","town_kana":"シヅガワシモホロケ","prefecture_code":4},"0703":{"zip_code":"9860703","prefecture":"宮城県","prefecture_kana":"ミヤギケン","city":"本吉郡南三陸町","city_kana":"モトヨシグンミナミサンリクチョウ","town":"志津川蛇王","town_kana":"シヅガワジャオウ","prefecture_code":4},"0753":{"zip_code":"9860753","prefecture":"宮城県","prefecture_kana":"ミヤギケン","city":"本吉郡南三陸町","city_kana":"モトヨシグンミナミサンリクチョウ","town":"志津川城場","town_kana":"シヅガワジョウバ","prefecture_code":4},"0754":{"zip_code":"9860754","prefecture":"宮城県","prefecture_kana":"ミヤギケン","city":"本吉郡南三陸町","city_kana":"モトヨシグンミナミサンリクチョウ","town":"志津川助作","town_kana":"シヅガワスケヅクリ","prefecture_code":4},"0717":{"zip_code":"9860717","prefecture":"宮城県","prefecture_kana":"ミヤギケン","city":"本吉郡南三陸町","city_kana":"モトヨシグンミナミサンリクチョウ","town":"志津川袖浜","town_kana":"シヅガワソデハマ","prefecture_code":4},"0722":{"zip_code":"9860722","prefecture":"宮城県","prefecture_kana":"ミヤギケン","city":"本吉郡南三陸町","city_kana":"モトヨシグンミナミサンリクチョウ","town":"志津川大上坊","town_kana":"シヅガワダイジョウボウ","prefecture_code":4},"0776":{"zip_code":"9860776","prefecture":"宮城県","prefecture_kana":"ミヤギケン","city":"本吉郡南三陸町","city_kana":"モトヨシグンミナミサンリクチョウ","town":"志津川竹川原","town_kana":"シヅガワタケガワラ","prefecture_code":4},"0779":{"zip_code":"9860779","prefecture":"宮城県","prefecture_kana":"ミヤギケン","city":"本吉郡南三陸町","city_kana":"モトヨシグンミナミサンリクチョウ","town":"志津川田尻畑","town_kana":"シヅガワタジリバタケ","prefecture_code":4},"0723":{"zip_code":"9860723","prefecture":"宮城県","prefecture_kana":"ミヤギケン","city":"本吉郡南三陸町","city_kana":"モトヨシグンミナミサンリクチョウ","town":"志津川立沢","town_kana":"シヅガワタツサワ","prefecture_code":4},"0728":{"zip_code":"9860728","prefecture":"宮城県","prefecture_kana":"ミヤギケン","city":"本吉郡南三陸町","city_kana":"モトヨシグンミナミサンリクチョウ","town":"志津川天王山","town_kana":"シヅガワテンノウサン","prefecture_code":4},"0729":{"zip_code":"9860729","prefecture":"宮城県","prefecture_kana":"ミヤギケン","city":"本吉郡南三陸町","city_kana":"モトヨシグンミナミサンリクチョウ","town":"志津川天王前","town_kana":"シヅガワテンノウマエ","prefecture_code":4},"0741":{"zip_code":"9860741","prefecture":"宮城県","prefecture_kana":"ミヤギケン","city":"本吉郡南三陸町","city_kana":"モトヨシグンミナミサンリクチョウ","town":"志津川十日町","town_kana":"シヅガワトオカマチ","prefecture_code":4},"0767":{"zip_code":"9860767","prefecture":"宮城県","prefecture_kana":"ミヤギケン","city":"本吉郡南三陸町","city_kana":"モトヨシグンミナミサンリクチョウ","town":"志津川中瀬町","town_kana":"シヅガワナカセマチ","prefecture_code":4},"0727":{"zip_code":"9860727","prefecture":"宮城県","prefecture_kana":"ミヤギケン","city":"本吉郡南三陸町","city_kana":"モトヨシグンミナミサンリクチョウ","town":"志津川新井田","town_kana":"シヅガワニイダ","prefecture_code":4},"0701":{"zip_code":"9860701","prefecture":"宮城県","prefecture_kana":"ミヤギケン","city":"本吉郡南三陸町","city_kana":"モトヨシグンミナミサンリクチョウ","town":"志津川西田","town_kana":"シヅガワニシダ","prefecture_code":4},"0725":{"zip_code":"9860725","prefecture":"宮城県","prefecture_kana":"ミヤギケン","city":"本吉郡南三陸町","city_kana":"モトヨシグンミナミサンリクチョウ","town":"志津川沼田","town_kana":"シヅガワヌマダ","prefecture_code":4},"0765":{"zip_code":"9860765","prefecture":"宮城県","prefecture_kana":"ミヤギケン","city":"本吉郡南三陸町","city_kana":"モトヨシグンミナミサンリクチョウ","town":"志津川林","town_kana":"シヅガワハヤシ","prefecture_code":4},"0716":{"zip_code":"9860716","prefecture":"宮城県","prefecture_kana":"ミヤギケン","city":"本吉郡南三陸町","city_kana":"モトヨシグンミナミサンリクチョウ","town":"志津川平磯","town_kana":"シヅガワヒライソ","prefecture_code":4},"0724":{"zip_code":"9860724","prefecture":"宮城県","prefecture_kana":"ミヤギケン","city":"本吉郡南三陸町","city_kana":"モトヨシグンミナミサンリクチョウ","town":"志津川平井田","town_kana":"シヅガワヒライダ","prefecture_code":4},"0713":{"zip_code":"9860713","prefecture":"宮城県","prefecture_kana":"ミヤギケン","city":"本吉郡南三陸町","city_kana":"モトヨシグンミナミサンリクチョウ","town":"志津川平貝","town_kana":"シヅガワヒラガイ","prefecture_code":4},"0715":{"zip_code":"9860715","prefecture":"宮城県","prefecture_kana":"ミヤギケン","city":"本吉郡南三陸町","city_kana":"モトヨシグンミナミサンリクチョウ","town":"志津川深田","town_kana":"シヅガワフカダ","prefecture_code":4},"0702":{"zip_code":"9860702","prefecture":"宮城県","prefecture_kana":"ミヤギケン","city":"本吉郡南三陸町","city_kana":"モトヨシグンミナミサンリクチョウ","town":"志津川細浦","town_kana":"シヅガワホソウラ","prefecture_code":4},"0708":{"zip_code":"9860708","prefecture":"宮城県","prefecture_kana":"ミヤギケン","city":"本吉郡南三陸町","city_kana":"モトヨシグンミナミサンリクチョウ","town":"志津川松井田","town_kana":"シヅガワマツイダ","prefecture_code":4},"0775":{"zip_code":"9860775","prefecture":"宮城県","prefecture_kana":"ミヤギケン","city":"本吉郡南三陸町","city_kana":"モトヨシグンミナミサンリクチョウ","town":"志津川廻館","town_kana":"シヅガワマワリタテ","prefecture_code":4},"0761":{"zip_code":"9860761","prefecture":"宮城県","prefecture_kana":"ミヤギケン","city":"本吉郡南三陸町","city_kana":"モトヨシグンミナミサンリクチョウ","town":"志津川廻館前","town_kana":"シヅガワマワリタテマエ","prefecture_code":4},"0743":{"zip_code":"9860743","prefecture":"宮城県","prefecture_kana":"ミヤギケン","city":"本吉郡南三陸町","city_kana":"モトヨシグンミナミサンリクチョウ","town":"志津川南町","town_kana":"シヅガワミナミマチ","prefecture_code":4},"0742":{"zip_code":"9860742","prefecture":"宮城県","prefecture_kana":"ミヤギケン","city":"本吉郡南三陸町","city_kana":"モトヨシグンミナミサンリクチョウ","town":"志津川本浜町","town_kana":"シヅガワモトハマチョウ","prefecture_code":4},"0704":{"zip_code":"9860704","prefecture":"宮城県","prefecture_kana":"ミヤギケン","city":"本吉郡南三陸町","city_kana":"モトヨシグンミナミサンリクチョウ","town":"志津川森山","town_kana":"シヅガワモリヤマ","prefecture_code":4},"0781":{"zip_code":"9860781","prefecture":"宮城県","prefecture_kana":"ミヤギケン","city":"本吉郡南三陸町","city_kana":"モトヨシグンミナミサンリクチョウ","town":"戸倉","town_kana":"トクラ","prefecture_code":4}}