{"1103":{"zip_code":"9871103","prefecture":"宮城県","prefecture_kana":"ミヤギケン","city":"石巻市","city_kana":"イシノマキシ","town":"北村","town_kana":"キタムラ","prefecture_code":4},"1221":{"zip_code":"9871221","prefecture":"宮城県","prefecture_kana":"ミヤギケン","city":"石巻市","city_kana":"イシノマキシ","town":"須江","town_kana":"スエ","prefecture_code":4},"1222":{"zip_code":"9871222","prefecture":"宮城県","prefecture_kana":"ミヤギケン","city":"石巻市","city_kana":"イシノマキシ","town":"広渕","town_kana":"ヒロブチ","prefecture_code":4},"1101":{"zip_code":"9871101","prefecture":"宮城県","prefecture_kana":"ミヤギケン","city":"石巻市","city_kana":"イシノマキシ","town":"前谷地","town_kana":"マエヤチ","prefecture_code":4},"1102":{"zip_code":"9871102","prefecture":"宮城県","prefecture_kana":"ミヤギケン","city":"石巻市","city_kana":"イシノマキシ","town":"和渕","town_kana":"ワブチ","prefecture_code":4},"0500":{"zip_code":"9870500","prefecture":"宮城県","prefecture_kana":"ミヤギケン","city":"登米市","city_kana":"トメシ","town":"","town_kana":"","prefecture_code":4},"0903":{"zip_code":"9870903","prefecture":"宮城県","prefecture_kana":"ミヤギケン","city":"登米市","city_kana":"トメシ","town":"東和町錦織","town_kana":"トウワチョウニシキオリ","prefecture_code":4},"0902":{"zip_code":"9870902","prefecture":"宮城県","prefecture_kana":"ミヤギケン","city":"登米市","city_kana":"トメシ","town":"東和町米谷","town_kana":"トウワチョウマイヤ","prefecture_code":4},"0901":{"zip_code":"9870901","prefecture":"宮城県","prefecture_kana":"ミヤギケン","city":"登米市","city_kana":"トメシ","town":"東和町米川","town_kana":"トウワチョウヨネカワ","prefecture_code":4},"0355":[{"zip_code":"9870355","prefecture":"宮城県","prefecture_kana":"ミヤギケン","city":"登米市","city_kana":"トメシ","town":"豊里町後沢田","town_kana":"トヨサトチョウウシロサワダ","prefecture_code":4},{"zip_code":"9870355","prefecture":"宮城県","prefecture_kana":"ミヤギケン","city":"登米市","city_kana":"トメシ","town":"豊里町保手","town_kana":"トヨサトチョウホデ","prefecture_code":4}],"0377":[{"zip_code":"9870377","prefecture":"宮城県","prefecture_kana":"ミヤギケン","city":"登米市","city_kana":"トメシ","town":"豊里町内一番江","town_kana":"トヨサトチョウウチイチバンエ","prefecture_code":4},{"zip_code":"9870377","prefecture":"宮城県","prefecture_kana":"ミヤギケン","city":"登米市","city_kana":"トメシ","town":"豊里町外一番江","town_kana":"トヨサトチョウソトイチバンエ","prefecture_code":4}],"0385":[{"zip_code":"9870385","prefecture":"宮城県","prefecture_kana":"ミヤギケン","city":"登米市","city_kana":"トメシ","town":"豊里町内田","town_kana":"トヨサトチョウウチタ","prefecture_code":4},{"zip_code":"9870385","prefecture":"宮城県","prefecture_kana":"ミヤギケン","city":"登米市","city_kana":"トメシ","town":"豊里町内畑","town_kana":"トヨサトチョウウチハタ","prefecture_code":4},{"zip_code":"9870385","prefecture":"宮城県","prefecture_kana":"ミヤギケン","city":"登米市","city_kana":"トメシ","town":"豊里町下九","town_kana":"トヨサトチョウシモギュウ","prefecture_code":4}],"0373":[{"zip_code":"9870373","prefecture":"宮城県","prefecture_kana":"ミヤギケン","city":"登米市","city_kana":"トメシ","town":"豊里町内町浦","town_kana":"トヨサトチョウウチマチウラ","prefecture_code":4},{"zip_code":"9870373","prefecture":"宮城県","prefecture_kana":"ミヤギケン","city":"登米市","city_kana":"トメシ","town":"豊里町切津","town_kana":"トヨサトチョウキツツ","prefecture_code":4},{"zip_code":"9870373","prefecture":"宮城県","prefecture_kana":"ミヤギケン","city":"登米市","city_kana":"トメシ","town":"豊里町南切津","town_kana":"トヨサトチョウミナミキツツ","prefecture_code":4}],"0366":[{"zip_code":"9870366","prefecture":"宮城県","prefecture_kana":"ミヤギケン","city":"登米市","city_kana":"トメシ","town":"豊里町浦軒","town_kana":"トヨサトチョウウラケン","prefecture_code":4},{"zip_code":"9870366","prefecture":"宮城県","prefecture_kana":"ミヤギケン","city":"登米市","city_kana":"トメシ","town":"豊里町上屋浦","town_kana":"トヨサトチョウカミヤウラ","prefecture_code":4},{"zip_code":"9870366","prefecture":"宮城県","prefecture_kana":"ミヤギケン","city":"登米市","city_kana":"トメシ","town":"豊里町下屋浦","town_kana":"トヨサトチョウシモヤウラ","prefecture_code":4}],"0354":[{"zip_code":"9870354","prefecture":"宮城県","prefecture_kana":"ミヤギケン","city":"登米市","city_kana":"トメシ","town":"豊里町上沼田","town_kana":"トヨサトチョウウワヌマタ","prefecture_code":4},{"zip_code":"9870354","prefecture":"宮城県","prefecture_kana":"ミヤギケン","city":"登米市","city_kana":"トメシ","town":"豊里町下沼田","town_kana":"トヨサトチョウシモヌマタ","prefecture_code":4},{"zip_code":"9870354","prefecture":"宮城県","prefecture_kana":"ミヤギケン","city":"登米市","city_kana":"トメシ","town":"豊里町昭和","town_kana":"トヨサトチョウショウワ","prefecture_code":4},{"zip_code":"9870354","prefecture":"宮城県","prefecture_kana":"ミヤギケン","city":"登米市","city_kana":"トメシ","town":"豊里町中沼田","town_kana":"トヨサトチョウナカヌマダ","prefecture_code":4},{"zip_code":"9870354","prefecture":"宮城県","prefecture_kana":"ミヤギケン","city":"登米市","city_kana":"トメシ","town":"豊里町沼田","town_kana":"トヨサトチョウヌマタ","prefecture_code":4}],"0353":[{"zip_code":"9870353","prefecture":"宮城県","prefecture_kana":"ミヤギケン","city":"登米市","city_kana":"トメシ","town":"豊里町笑沢","town_kana":"トヨサトチョウエミサワ","prefecture_code":4},{"zip_code":"9870353","prefecture":"宮城県","prefecture_kana":"ミヤギケン","city":"登米市","city_kana":"トメシ","town":"豊里町大椚","town_kana":"トヨサトチョウオオクヌギ","prefecture_code":4},{"zip_code":"9870353","prefecture":"宮城県","prefecture_kana":"ミヤギケン","city":"登米市","city_kana":"トメシ","town":"豊里町平林","town_kana":"トヨサトチョウヒラバヤシ","prefecture_code":4}],"0341":[{"zip_code":"9870341","prefecture":"宮城県","prefecture_kana":"ミヤギケン","city":"登米市","city_kana":"トメシ","town":"豊里町大沢","town_kana":"トヨサトチョウオオサワ","prefecture_code":4},{"zip_code":"9870341","prefecture":"宮城県","prefecture_kana":"ミヤギケン","city":"登米市","city_kana":"トメシ","town":"豊里町大沢沼田","town_kana":"トヨサトチョウオオサワヌマタ","prefecture_code":4},{"zip_code":"9870341","prefecture":"宮城県","prefecture_kana":"ミヤギケン","city":"登米市","city_kana":"トメシ","town":"豊里町大沢谷岐","town_kana":"トヨサトチョウオオサワヤギ","prefecture_code":4},{"zip_code":"9870341","prefecture":"宮城県","prefecture_kana":"ミヤギケン","city":"登米市","city_kana":"トメシ","town":"豊里町十二沢","town_kana":"トヨサトチョウジュウニサワ","prefecture_code":4},{"zip_code":"9870341","prefecture":"宮城県","prefecture_kana":"ミヤギケン","city":"登米市","city_kana":"トメシ","town":"豊里町竹ノ沢","town_kana":"トヨサトチョウタケノサワ","prefecture_code":4}],"0371":[{"zip_code":"9870371","prefecture":"宮城県","prefecture_kana":"ミヤギケン","city":"登米市","city_kana":"トメシ","town":"豊里町大曲","town_kana":"トヨサトチョウオオマガリ","prefecture_code":4},{"zip_code":"9870371","prefecture":"宮城県","prefecture_kana":"ミヤギケン","city":"登米市","city_kana":"トメシ","town":"豊里町唐崎","town_kana":"トヨサトチョウカラサキ","prefecture_code":4},{"zip_code":"9870371","prefecture":"宮城県","prefecture_kana":"ミヤギケン","city":"登米市","city_kana":"トメシ","town":"豊里町十丁田","town_kana":"トヨサトチョウジッチョウダ","prefecture_code":4}],"0358":[{"zip_code":"9870358","prefecture":"宮城県","prefecture_kana":"ミヤギケン","city":"登米市","city_kana":"トメシ","town":"豊里町加々巻","town_kana":"トヨサトチョウカガマキ","prefecture_code":4},{"zip_code":"9870358","prefecture":"宮城県","prefecture_kana":"ミヤギケン","city":"登米市","city_kana":"トメシ","town":"豊里町小巻","town_kana":"トヨサトチョウコマキ","prefecture_code":4},{"zip_code":"9870358","prefecture":"宮城県","prefecture_kana":"ミヤギケン","city":"登米市","city_kana":"トメシ","town":"豊里町新加々巻","town_kana":"トヨサトチョウシンカガマキ","prefecture_code":4},{"zip_code":"9870358","prefecture":"宮城県","prefecture_kana":"ミヤギケン","city":"登米市","city_kana":"トメシ","town":"豊里町長根浦","town_kana":"トヨサトチョウナガネウラ","prefecture_code":4}],"0378":[{"zip_code":"9870378","prefecture":"宮城県","prefecture_kana":"ミヤギケン","city":"登米市","city_kana":"トメシ","town":"豊里町鏡形","town_kana":"トヨサトチョウカガミガタ","prefecture_code":4},{"zip_code":"9870378","prefecture":"宮城県","prefecture_kana":"ミヤギケン","city":"登米市","city_kana":"トメシ","town":"豊里町新田鏡形","town_kana":"トヨサトチョウシンデンカガミガタ","prefecture_code":4}],"0357":[{"zip_code":"9870357","prefecture":"宮城県","prefecture_kana":"ミヤギケン","city":"登米市","city_kana":"トメシ","town":"豊里町蕪木","town_kana":"トヨサトチョウカブキ","prefecture_code":4},{"zip_code":"9870357","prefecture":"宮城県","prefecture_kana":"ミヤギケン","city":"登米市","city_kana":"トメシ","town":"豊里町鳥越","town_kana":"トヨサトチョウトリゴエ","prefecture_code":4}],"0362":[{"zip_code":"9870362","prefecture":"宮城県","prefecture_kana":"ミヤギケン","city":"登米市","city_kana":"トメシ","town":"豊里町上町裏","town_kana":"トヨサトチョウカミマチウラ","prefecture_code":4},{"zip_code":"9870362","prefecture":"宮城県","prefecture_kana":"ミヤギケン","city":"登米市","city_kana":"トメシ","town":"豊里町小口前","town_kana":"トヨサトチョウコグチマエ","prefecture_code":4},{"zip_code":"9870362","prefecture":"宮城県","prefecture_kana":"ミヤギケン","city":"登米市","city_kana":"トメシ","town":"豊里町東待井下","town_kana":"トヨサトチョウヒガシマチイシタ","prefecture_code":4}],"0382":{"zip_code":"9870382","prefecture":"宮城県","prefecture_kana":"ミヤギケン","city":"登米市","city_kana":"トメシ","town":"豊里町上谷地","town_kana":"トヨサトチョウカミヤチ","prefecture_code":4},"0367":{"zip_code":"9870367","prefecture":"宮城県","prefecture_kana":"ミヤギケン","city":"登米市","city_kana":"トメシ","town":"豊里町川前","town_kana":"トヨサトチョウカワマエ","prefecture_code":4},"0351":[{"zip_code":"9870351","prefecture":"宮城県","prefecture_kana":"ミヤギケン","city":"登米市","city_kana":"トメシ","town":"豊里町久寿田","town_kana":"トヨサトチョウクスダ","prefecture_code":4},{"zip_code":"9870351","prefecture":"宮城県","prefecture_kana":"ミヤギケン","city":"登米市","city_kana":"トメシ","town":"豊里町久寿田前","town_kana":"トヨサトチョウクスダマエ","prefecture_code":4}],"0379":{"zip_code":"9870379","prefecture":"宮城県","prefecture_kana":"ミヤギケン","city":"登米市","city_kana":"トメシ","town":"豊里町剣先","town_kana":"トヨサトチョウケンザキ","prefecture_code":4},"0363":[{"zip_code":"9870363","prefecture":"宮城県","prefecture_kana":"ミヤギケン","city":"登米市","city_kana":"トメシ","town":"豊里町五反田","town_kana":"トヨサトチョウゴタンダ","prefecture_code":4},{"zip_code":"9870363","prefecture":"宮城県","prefecture_kana":"ミヤギケン","city":"登米市","city_kana":"トメシ","town":"豊里町横町","town_kana":"トヨサトチョウヨコチョウ","prefecture_code":4}],"0343":[{"zip_code":"9870343","prefecture":"宮城県","prefecture_kana":"ミヤギケン","city":"登米市","city_kana":"トメシ","town":"豊里町小谷地","town_kana":"トヨサトチョウコヤチ","prefecture_code":4},{"zip_code":"9870343","prefecture":"宮城県","prefecture_kana":"ミヤギケン","city":"登米市","city_kana":"トメシ","town":"豊里町沢尻","town_kana":"トヨサトチョウサワジリ","prefecture_code":4}],"0344":[{"zip_code":"9870344","prefecture":"宮城県","prefecture_kana":"ミヤギケン","city":"登米市","city_kana":"トメシ","town":"豊里町境沢","town_kana":"トヨサトチョウサカイザワ","prefecture_code":4},{"zip_code":"9870344","prefecture":"宮城県","prefecture_kana":"ミヤギケン","city":"登米市","city_kana":"トメシ","town":"豊里町佐野","town_kana":"トヨサトチョウサノ","prefecture_code":4},{"zip_code":"9870344","prefecture":"宮城県","prefecture_kana":"ミヤギケン","city":"登米市","city_kana":"トメシ","town":"豊里町迫","town_kana":"トヨサトチョウハサマ","prefecture_code":4}],"0356":[{"zip_code":"9870356","prefecture":"宮城県","prefecture_kana":"ミヤギケン","city":"登米市","city_kana":"トメシ","town":"豊里町芝下","town_kana":"トヨサトチョウシバシタ","prefecture_code":4},{"zip_code":"9870356","prefecture":"宮城県","prefecture_kana":"ミヤギケン","city":"登米市","city_kana":"トメシ","town":"豊里町杢沢","town_kana":"トヨサトチョウモクサワ","prefecture_code":4}],"0364":[{"zip_code":"9870364","prefecture":"宮城県","prefecture_kana":"ミヤギケン","city":"登米市","city_kana":"トメシ","town":"豊里町下古屋","town_kana":"トヨサトチョウシモコヤ","prefecture_code":4},{"zip_code":"9870364","prefecture":"宮城県","prefecture_kana":"ミヤギケン","city":"登米市","city_kana":"トメシ","town":"豊里町土手下","town_kana":"トヨサトチョウドテシタ","prefecture_code":4},{"zip_code":"9870364","prefecture":"宮城県","prefecture_kana":"ミヤギケン","city":"登米市","city_kana":"トメシ","town":"豊里町本地土手下","town_kana":"トヨサトチョウホンチドテシタ","prefecture_code":4}],"0384":[{"zip_code":"9870384","prefecture":"宮城県","prefecture_kana":"ミヤギケン","city":"登米市","city_kana":"トメシ","town":"豊里町十五貫","town_kana":"トヨサトチョウジュウゴカン","prefecture_code":4},{"zip_code":"9870384","prefecture":"宮城県","prefecture_kana":"ミヤギケン","city":"登米市","city_kana":"トメシ","town":"豊里町十五貫谷地","town_kana":"トヨサトチョウジュウゴカンヤチ","prefecture_code":4}],"0346":[{"zip_code":"9870346","prefecture":"宮城県","prefecture_kana":"ミヤギケン","city":"登米市","city_kana":"トメシ","town":"豊里町白鳥山","town_kana":"トヨサトチョウシラトリヤマ","prefecture_code":4},{"zip_code":"9870346","prefecture":"宮城県","prefecture_kana":"ミヤギケン","city":"登米市","city_kana":"トメシ","town":"豊里町白鳥","town_kana":"トヨサトチョウシロトリ","prefecture_code":4},{"zip_code":"9870346","prefecture":"宮城県","prefecture_kana":"ミヤギケン","city":"登米市","city_kana":"トメシ","town":"豊里町白鳥前","town_kana":"トヨサトチョウシロトリマエ","prefecture_code":4}],"0361":{"zip_code":"9870361","prefecture":"宮城県","prefecture_kana":"ミヤギケン","city":"登米市","city_kana":"トメシ","town":"豊里町新田町","town_kana":"トヨサトチョウシンデンマチ","prefecture_code":4},"0381":[{"zip_code":"9870381","prefecture":"宮城県","prefecture_kana":"ミヤギケン","city":"登米市","city_kana":"トメシ","town":"豊里町新長前","town_kana":"トヨサトチョウシンナガマエ","prefecture_code":4},{"zip_code":"9870381","prefecture":"宮城県","prefecture_kana":"ミヤギケン","city":"登米市","city_kana":"トメシ","town":"豊里町長前","town_kana":"トヨサトチョウナガマエ","prefecture_code":4}],"0376":[{"zip_code":"9870376","prefecture":"宮城県","prefecture_kana":"ミヤギケン","city":"登米市","city_kana":"トメシ","town":"豊里町新細沼","town_kana":"トヨサトチョウシンホソヌマ","prefecture_code":4},{"zip_code":"9870376","prefecture":"宮城県","prefecture_kana":"ミヤギケン","city":"登米市","city_kana":"トメシ","town":"豊里町細沼","town_kana":"トヨサトチョウホソヌマ","prefecture_code":4},{"zip_code":"9870376","prefecture":"宮城県","prefecture_kana":"ミヤギケン","city":"登米市","city_kana":"トメシ","town":"豊里町細沼田","town_kana":"トヨサトチョウホソヌマタ","prefecture_code":4}],"0365":{"zip_code":"9870365","prefecture":"宮城県","prefecture_kana":"ミヤギケン","city":"登米市","city_kana":"トメシ","town":"豊里町新町","town_kana":"トヨサトチョウシンマチ","prefecture_code":4},"0352":{"zip_code":"9870352","prefecture":"宮城県","prefecture_kana":"ミヤギケン","city":"登米市","city_kana":"トメシ","town":"豊里町寿崎","town_kana":"トヨサトチョウスサキ","prefecture_code":4},"0383":[{"zip_code":"9870383","prefecture":"宮城県","prefecture_kana":"ミヤギケン","city":"登米市","city_kana":"トメシ","town":"豊里町外五番江","town_kana":"トヨサトチョウソトゴバンエ","prefecture_code":4},{"zip_code":"9870383","prefecture":"宮城県","prefecture_kana":"ミヤギケン","city":"登米市","city_kana":"トメシ","town":"豊里町外三番江","town_kana":"トヨサトチョウソトサンバンエ","prefecture_code":4},{"zip_code":"9870383","prefecture":"宮城県","prefecture_kana":"ミヤギケン","city":"登米市","city_kana":"トメシ","town":"豊里町外七番江","town_kana":"トヨサトチョウソトナナバンエ","prefecture_code":4},{"zip_code":"9870383","prefecture":"宮城県","prefecture_kana":"ミヤギケン","city":"登米市","city_kana":"トメシ","town":"豊里町外二番江","town_kana":"トヨサトチョウソトニバンエ","prefecture_code":4},{"zip_code":"9870383","prefecture":"宮城県","prefecture_kana":"ミヤギケン","city":"登米市","city_kana":"トメシ","town":"豊里町外八番江","town_kana":"トヨサトチョウソトハチバンエ","prefecture_code":4},{"zip_code":"9870383","prefecture":"宮城県","prefecture_kana":"ミヤギケン","city":"登米市","city_kana":"トメシ","town":"豊里町外四番江","town_kana":"トヨサトチョウソトヨンバンエ","prefecture_code":4},{"zip_code":"9870383","prefecture":"宮城県","prefecture_kana":"ミヤギケン","city":"登米市","city_kana":"トメシ","town":"豊里町外六番江","town_kana":"トヨサトチョウソトロクバンエ","prefecture_code":4}],"0345":[{"zip_code":"9870345","prefecture":"宮城県","prefecture_kana":"ミヤギケン","city":"登米市","city_kana":"トメシ","town":"豊里町中谷岐","town_kana":"トヨサトチョウナカヤギ","prefecture_code":4},{"zip_code":"9870345","prefecture":"宮城県","prefecture_kana":"ミヤギケン","city":"登米市","city_kana":"トメシ","town":"豊里町福沢","town_kana":"トヨサトチョウフクサワ","prefecture_code":4}],"0368":[{"zip_code":"9870368","prefecture":"宮城県","prefecture_kana":"ミヤギケン","city":"登米市","city_kana":"トメシ","town":"豊里町七ツ塚","town_kana":"トヨサトチョウナナツヅカ","prefecture_code":4},{"zip_code":"9870368","prefecture":"宮城県","prefecture_kana":"ミヤギケン","city":"登米市","city_kana":"トメシ","town":"豊里町町浦","town_kana":"トヨサトチョウマチウラ","prefecture_code":4},{"zip_code":"9870368","prefecture":"宮城県","prefecture_kana":"ミヤギケン","city":"登米市","city_kana":"トメシ","town":"豊里町南町浦","town_kana":"トヨサトチョウミナミマチウラ","prefecture_code":4}],"0372":[{"zip_code":"9870372","prefecture":"宮城県","prefecture_kana":"ミヤギケン","city":"登米市","city_kana":"トメシ","town":"豊里町西前田","town_kana":"トヨサトチョウニシマエダ","prefecture_code":4},{"zip_code":"9870372","prefecture":"宮城県","prefecture_kana":"ミヤギケン","city":"登米市","city_kana":"トメシ","town":"豊里町前田","town_kana":"トヨサトチョウマエダ","prefecture_code":4}],"0359":[{"zip_code":"9870359","prefecture":"宮城県","prefecture_kana":"ミヤギケン","city":"登米市","city_kana":"トメシ","town":"豊里町八反","town_kana":"トヨサトチョウハツタン","prefecture_code":4},{"zip_code":"9870359","prefecture":"宮城県","prefecture_kana":"ミヤギケン","city":"登米市","city_kana":"トメシ","town":"豊里町本地八反","town_kana":"トヨサトチョウホンチハツタン","prefecture_code":4}],"0374":{"zip_code":"9870374","prefecture":"宮城県","prefecture_kana":"ミヤギケン","city":"登米市","city_kana":"トメシ","town":"豊里町東二ツ屋","town_kana":"トヨサトチョウヒガシフタツヤ","prefecture_code":4},"0375":{"zip_code":"9870375","prefecture":"宮城県","prefecture_kana":"ミヤギケン","city":"登米市","city_kana":"トメシ","town":"豊里町二ツ屋","town_kana":"トヨサトチョウフタツヤ","prefecture_code":4},"0342":[{"zip_code":"9870342","prefecture":"宮城県","prefecture_kana":"ミヤギケン","city":"登米市","city_kana":"トメシ","town":"豊里町山根","town_kana":"トヨサトチョウヤマネ","prefecture_code":4},{"zip_code":"9870342","prefecture":"宮城県","prefecture_kana":"ミヤギケン","city":"登米市","city_kana":"トメシ","town":"豊里町山根前","town_kana":"トヨサトチョウヤマネマエ","prefecture_code":4}],"0701":{"zip_code":"9870701","prefecture":"宮城県","prefecture_kana":"ミヤギケン","city":"登米市","city_kana":"トメシ","town":"登米町小島","town_kana":"トヨママチコジマ","prefecture_code":4},"0702":{"zip_code":"9870702","prefecture":"宮城県","prefecture_kana":"ミヤギケン","city":"登米市","city_kana":"トメシ","town":"登米町寺池","town_kana":"トヨママチテライケ","prefecture_code":4},"0703":{"zip_code":"9870703","prefecture":"宮城県","prefecture_kana":"ミヤギケン","city":"登米市","city_kana":"トメシ","town":"登米町日根牛","town_kana":"トヨママチヒネウシ","prefecture_code":4},"0704":{"zip_code":"9870704","prefecture":"宮城県","prefecture_kana":"ミヤギケン","city":"登米市","city_kana":"トメシ","town":"登米町日野渡","town_kana":"トヨママチヒノト","prefecture_code":4},"0611":{"zip_code":"9870611","prefecture":"宮城県","prefecture_kana":"ミヤギケン","city":"登米市","city_kana":"トメシ","town":"中田町浅水","town_kana":"ナカダチョウアサミズ","prefecture_code":4},"0601":{"zip_code":"9870601","prefecture":"宮城県","prefecture_kana":"ミヤギケン","city":"登米市","city_kana":"トメシ","town":"中田町石森","town_kana":"ナカダチョウイシノモリ","prefecture_code":4},"0602":{"zip_code":"9870602","prefecture":"宮城県","prefecture_kana":"ミヤギケン","city":"登米市","city_kana":"トメシ","town":"中田町上沼","town_kana":"ナカダチョウウワヌマ","prefecture_code":4},"0621":{"zip_code":"9870621","prefecture":"宮城県","prefecture_kana":"ミヤギケン","city":"登米市","city_kana":"トメシ","town":"中田町宝江黒沼","town_kana":"ナカダチョウタカラエクロヌマ","prefecture_code":4},"0622":{"zip_code":"9870622","prefecture":"宮城県","prefecture_kana":"ミヤギケン","city":"登米市","city_kana":"トメシ","town":"中田町宝江新井田","town_kana":"ナカダチョウタカラエニイダ","prefecture_code":4},"0623":{"zip_code":"9870623","prefecture":"宮城県","prefecture_kana":"ミヤギケン","city":"登米市","city_kana":"トメシ","town":"中田町宝江森","town_kana":"ナカダチョウタカラエモリ","prefecture_code":4},"0513":{"zip_code":"9870513","prefecture":"宮城県","prefecture_kana":"ミヤギケン","city":"登米市","city_kana":"トメシ","town":"迫町北方","town_kana":"ハサマチョウキタカタ","prefecture_code":4},"0511":{"zip_code":"9870511","prefecture":"宮城県","prefecture_kana":"ミヤギケン","city":"登米市","city_kana":"トメシ","town":"迫町佐沼","town_kana":"ハサマチョウサヌマ","prefecture_code":4},"0512":{"zip_code":"9870512","prefecture":"宮城県","prefecture_kana":"ミヤギケン","city":"登米市","city_kana":"トメシ","town":"迫町森","town_kana":"ハサマチョウモリ","prefecture_code":4},"0432":[{"zip_code":"9870432","prefecture":"宮城県","prefecture_kana":"ミヤギケン","city":"登米市","city_kana":"トメシ","town":"南方町青笹","town_kana":"ミナミカタマチアオザサ","prefecture_code":4},{"zip_code":"9870432","prefecture":"宮城県","prefecture_kana":"ミヤギケン","city":"登米市","city_kana":"トメシ","town":"南方町狼掛","town_kana":"ミナミカタマチオイノガケ","prefecture_code":4},{"zip_code":"9870432","prefecture":"宮城県","prefecture_kana":"ミヤギケン","city":"登米市","city_kana":"トメシ","town":"南方町上窪田","town_kana":"ミナミカタマチカミクボタ","prefecture_code":4},{"zip_code":"9870432","prefecture":"宮城県","prefecture_kana":"ミヤギケン","city":"登米市","city_kana":"トメシ","town":"南方町窪田","town_kana":"ミナミカタマチクボタ","prefecture_code":4},{"zip_code":"9870432","prefecture":"宮城県","prefecture_kana":"ミヤギケン","city":"登米市","city_kana":"トメシ","town":"南方町堤田","town_kana":"ミナミカタマチツツミタ","prefecture_code":4},{"zip_code":"9870432","prefecture":"宮城県","prefecture_kana":"ミヤギケン","city":"登米市","city_kana":"トメシ","town":"南方町畑岡","town_kana":"ミナミカタマチハタオカ","prefecture_code":4},{"zip_code":"9870432","prefecture":"宮城県","prefecture_kana":"ミヤギケン","city":"登米市","city_kana":"トメシ","town":"南方町畑岡下","town_kana":"ミナミカタマチハタオカシタ","prefecture_code":4}],"0441":[{"zip_code":"9870441","prefecture":"宮城県","prefecture_kana":"ミヤギケン","city":"登米市","city_kana":"トメシ","town":"南方町青島前","town_kana":"ミナミカタマチアオシママエ","prefecture_code":4},{"zip_code":"9870441","prefecture":"宮城県","prefecture_kana":"ミヤギケン","city":"登米市","city_kana":"トメシ","town":"南方町青島待井","town_kana":"ミナミカタマチアオシママチイ","prefecture_code":4},{"zip_code":"9870441","prefecture":"宮城県","prefecture_kana":"ミヤギケン","city":"登米市","city_kana":"トメシ","town":"南方町青島屋敷","town_kana":"ミナミカタマチアオシマヤシキ","prefecture_code":4}],"0412":[{"zip_code":"9870412","prefecture":"宮城県","prefecture_kana":"ミヤギケン","city":"登米市","city_kana":"トメシ","town":"南方町上ケ戸","town_kana":"ミナミカタマチアガト","prefecture_code":4},{"zip_code":"9870412","prefecture":"宮城県","prefecture_kana":"ミヤギケン","city":"登米市","city_kana":"トメシ","town":"南方町雷","town_kana":"ミナミカタマチイカズチ","prefecture_code":4},{"zip_code":"9870412","prefecture":"宮城県","prefecture_kana":"ミヤギケン","city":"登米市","city_kana":"トメシ","town":"南方町大涌戸","town_kana":"ミナミカタマチオオワクド","prefecture_code":4},{"zip_code":"9870412","prefecture":"宮城県","prefecture_kana":"ミヤギケン","city":"登米市","city_kana":"トメシ","town":"南方町大門","town_kana":"ミナミカタマチダイモン","prefecture_code":4},{"zip_code":"9870412","prefecture":"宮城県","prefecture_kana":"ミヤギケン","city":"登米市","city_kana":"トメシ","town":"南方町照井","town_kana":"ミナミカタマチテルイ","prefecture_code":4},{"zip_code":"9870412","prefecture":"宮城県","prefecture_kana":"ミヤギケン","city":"登米市","city_kana":"トメシ","town":"南方町峯前","town_kana":"ミナミカタマチミネマエ","prefecture_code":4}],"0444":[{"zip_code":"9870444","prefecture":"宮城県","prefecture_kana":"ミヤギケン","city":"登米市","city_kana":"トメシ","town":"南方町尼池","town_kana":"ミナミカタマチアマイケ","prefecture_code":4},{"zip_code":"9870444","prefecture":"宮城県","prefecture_kana":"ミヤギケン","city":"登米市","city_kana":"トメシ","town":"南方町大上","town_kana":"ミナミカタマチオオガミ","prefecture_code":4},{"zip_code":"9870444","prefecture":"宮城県","prefecture_kana":"ミヤギケン","city":"登米市","city_kana":"トメシ","town":"南方町大森前","town_kana":"ミナミカタマチオオモリマエ","prefecture_code":4},{"zip_code":"9870444","prefecture":"宮城県","prefecture_kana":"ミヤギケン","city":"登米市","city_kana":"トメシ","town":"南方町三代前","town_kana":"ミナミカタマチサンダイマエ","prefecture_code":4},{"zip_code":"9870444","prefecture":"宮城県","prefecture_kana":"ミヤギケン","city":"登米市","city_kana":"トメシ","town":"南方町下新山","town_kana":"ミナミカタマチシモシンザン","prefecture_code":4},{"zip_code":"9870444","prefecture":"宮城県","prefecture_kana":"ミヤギケン","city":"登米市","city_kana":"トメシ","town":"南方町角欠前","town_kana":"ミナミカタマチツノガケマエ","prefecture_code":4},{"zip_code":"9870444","prefecture":"宮城県","prefecture_kana":"ミヤギケン","city":"登米市","city_kana":"トメシ","town":"南方町間内","town_kana":"ミナミカタマチマウチ","prefecture_code":4},{"zip_code":"9870444","prefecture":"宮城県","prefecture_kana":"ミヤギケン","city":"登米市","city_kana":"トメシ","town":"南方町間内前","town_kana":"ミナミカタマチマウチマエ","prefecture_code":4},{"zip_code":"9870444","prefecture":"宮城県","prefecture_kana":"ミヤギケン","city":"登米市","city_kana":"トメシ","town":"南方町実沢","town_kana":"ミナミカタマチミサワ","prefecture_code":4},{"zip_code":"9870444","prefecture":"宮城県","prefecture_kana":"ミヤギケン","city":"登米市","city_kana":"トメシ","town":"南方町柳沢","town_kana":"ミナミカタマチヤナギサワ","prefecture_code":4},{"zip_code":"9870444","prefecture":"宮城県","prefecture_kana":"ミヤギケン","city":"登米市","city_kana":"トメシ","town":"南方町柳沢前","town_kana":"ミナミカタマチヤナギサワマエ","prefecture_code":4},{"zip_code":"9870444","prefecture":"宮城県","prefecture_kana":"ミヤギケン","city":"登米市","city_kana":"トメシ","town":"南方町横代","town_kana":"ミナミカタマチヨコダイ","prefecture_code":4}],"0411":[{"zip_code":"9870411","prefecture":"宮城県","prefecture_kana":"ミヤギケン","city":"登米市","city_kana":"トメシ","town":"南方町天沼","town_kana":"ミナミカタマチアマヌマ","prefecture_code":4},{"zip_code":"9870411","prefecture":"宮城県","prefecture_kana":"ミヤギケン","city":"登米市","city_kana":"トメシ","town":"南方町瀬ノ淵","town_kana":"ミナミカタマチセノフチ","prefecture_code":4},{"zip_code":"9870411","prefecture":"宮城県","prefecture_kana":"ミヤギケン","city":"登米市","city_kana":"トメシ","town":"南方町寺袋","town_kana":"ミナミカタマチテラブクロ","prefecture_code":4}],"0443":[{"zip_code":"9870443","prefecture":"宮城県","prefecture_kana":"ミヤギケン","city":"登米市","city_kana":"トメシ","town":"南方町板ケ沢","town_kana":"ミナミカタマチイタガサワ","prefecture_code":4},{"zip_code":"9870443","prefecture":"宮城県","prefecture_kana":"ミヤギケン","city":"登米市","city_kana":"トメシ","town":"南方町一網","town_kana":"ミナミカタマチイチアジ","prefecture_code":4},{"zip_code":"9870443","prefecture":"宮城県","prefecture_kana":"ミヤギケン","city":"登米市","city_kana":"トメシ","town":"南方町大坂前","town_kana":"ミナミカタマチオオザカマエ","prefecture_code":4},{"zip_code":"9870443","prefecture":"宮城県","prefecture_kana":"ミヤギケン","city":"登米市","city_kana":"トメシ","town":"南方町大西","town_kana":"ミナミカタマチオオニシ","prefecture_code":4},{"zip_code":"9870443","prefecture":"宮城県","prefecture_kana":"ミヤギケン","city":"登米市","city_kana":"トメシ","town":"南方町表前","town_kana":"ミナミカタマチオモテマエ","prefecture_code":4},{"zip_code":"9870443","prefecture":"宮城県","prefecture_kana":"ミヤギケン","city":"登米市","city_kana":"トメシ","town":"南方町苔野谷地","town_kana":"ミナミカタマチコケノヤチ","prefecture_code":4},{"zip_code":"9870443","prefecture":"宮城県","prefecture_kana":"ミヤギケン","city":"登米市","city_kana":"トメシ","town":"南方町新野谷地","town_kana":"ミナミカタマチシンノヤチ","prefecture_code":4},{"zip_code":"9870443","prefecture":"宮城県","prefecture_kana":"ミヤギケン","city":"登米市","city_kana":"トメシ","town":"南方町外浦","town_kana":"ミナミカタマチソトウラ","prefecture_code":4},{"zip_code":"9870443","prefecture":"宮城県","prefecture_kana":"ミヤギケン","city":"登米市","city_kana":"トメシ","town":"南方町長根","town_kana":"ミナミカタマチナガネ","prefecture_code":4},{"zip_code":"9870443","prefecture":"宮城県","prefecture_kana":"ミヤギケン","city":"登米市","city_kana":"トメシ","town":"南方町長根下","town_kana":"ミナミカタマチナガネシタ","prefecture_code":4},{"zip_code":"9870443","prefecture":"宮城県","prefecture_kana":"ミヤギケン","city":"登米市","city_kana":"トメシ","town":"南方町野谷地","town_kana":"ミナミカタマチノヤチ","prefecture_code":4}],"0402":[{"zip_code":"9870402","prefecture":"宮城県","prefecture_kana":"ミヤギケン","city":"登米市","city_kana":"トメシ","town":"南方町板倉","town_kana":"ミナミカタマチイタクラ","prefecture_code":4},{"zip_code":"9870402","prefecture":"宮城県","prefecture_kana":"ミヤギケン","city":"登米市","city_kana":"トメシ","town":"南方町板倉後","town_kana":"ミナミカタマチイタクラウシロ","prefecture_code":4},{"zip_code":"9870402","prefecture":"宮城県","prefecture_kana":"ミヤギケン","city":"登米市","city_kana":"トメシ","town":"南方町後屋敷待井","town_kana":"ミナミカタマチウシロヤシキマチイ","prefecture_code":4},{"zip_code":"9870402","prefecture":"宮城県","prefecture_kana":"ミヤギケン","city":"登米市","city_kana":"トメシ","town":"南方町沢田","town_kana":"ミナミカタマチサワダ","prefecture_code":4},{"zip_code":"9870402","prefecture":"宮城県","prefecture_kana":"ミヤギケン","city":"登米市","city_kana":"トメシ","town":"南方町沢田待井","town_kana":"ミナミカタマチサワダマチイ","prefecture_code":4},{"zip_code":"9870402","prefecture":"宮城県","prefecture_kana":"ミヤギケン","city":"登米市","city_kana":"トメシ","town":"南方町沢田屋敷","town_kana":"ミナミカタマチサワダヤシキ","prefecture_code":4},{"zip_code":"9870402","prefecture":"宮城県","prefecture_kana":"ミヤギケン","city":"登米市","city_kana":"トメシ","town":"南方町鶴代","town_kana":"ミナミカタマチツルシロ","prefecture_code":4},{"zip_code":"9870402","prefecture":"宮城県","prefecture_kana":"ミヤギケン","city":"登米市","city_kana":"トメシ","town":"南方町戸根屋敷","town_kana":"ミナミカタマチトネヤシキ","prefecture_code":4},{"zip_code":"9870402","prefecture":"宮城県","prefecture_kana":"ミヤギケン","city":"登米市","city_kana":"トメシ","town":"南方町中山","town_kana":"ミナミカタマチナカヤマ","prefecture_code":4},{"zip_code":"9870402","prefecture":"宮城県","prefecture_kana":"ミヤギケン","city":"登米市","city_kana":"トメシ","town":"南方町待井","town_kana":"ミナミカタマチマチイ","prefecture_code":4},{"zip_code":"9870402","prefecture":"宮城県","prefecture_kana":"ミヤギケン","city":"登米市","city_kana":"トメシ","town":"南方町松島屋敷","town_kana":"ミナミカタマチマツシマヤシキ","prefecture_code":4}],"0431":[{"zip_code":"9870431","prefecture":"宮城県","prefecture_kana":"ミヤギケン","city":"登米市","city_kana":"トメシ","town":"南方町一ノ曲","town_kana":"ミナミカタマチイチノマガリ","prefecture_code":4},{"zip_code":"9870431","prefecture":"宮城県","prefecture_kana":"ミヤギケン","city":"登米市","city_kana":"トメシ","town":"南方町大埣","town_kana":"ミナミカタマチオオゾネ","prefecture_code":4},{"zip_code":"9870431","prefecture":"宮城県","prefecture_kana":"ミヤギケン","city":"登米市","city_kana":"トメシ","town":"南方町太田","town_kana":"ミナミカタマチオオタ","prefecture_code":4},{"zip_code":"9870431","prefecture":"宮城県","prefecture_kana":"ミヤギケン","city":"登米市","city_kana":"トメシ","town":"南方町新一ノ曲","town_kana":"ミナミカタマチシンイチノマガリ","prefecture_code":4},{"zip_code":"9870431","prefecture":"宮城県","prefecture_kana":"ミヤギケン","city":"登米市","city_kana":"トメシ","town":"南方町横前","town_kana":"ミナミカタマチヨコマエ","prefecture_code":4}],"0442":[{"zip_code":"9870442","prefecture":"宮城県","prefecture_kana":"ミヤギケン","city":"登米市","city_kana":"トメシ","town":"南方町後高石","town_kana":"ミナミカタマチウシロタカイシ","prefecture_code":4},{"zip_code":"9870442","prefecture":"宮城県","prefecture_kana":"ミヤギケン","city":"登米市","city_kana":"トメシ","town":"南方町茶臼森","town_kana":"ミナミカタマチチャウスモリ","prefecture_code":4},{"zip_code":"9870442","prefecture":"宮城県","prefecture_kana":"ミヤギケン","city":"登米市","city_kana":"トメシ","town":"南方町茶臼森前","town_kana":"ミナミカタマチチャウスモリマエ","prefecture_code":4},{"zip_code":"9870442","prefecture":"宮城県","prefecture_kana":"ミヤギケン","city":"登米市","city_kana":"トメシ","town":"南方町中高石","town_kana":"ミナミカタマチナカタカイシ","prefecture_code":4}],"0403":[{"zip_code":"9870403","prefecture":"宮城県","prefecture_kana":"ミヤギケン","city":"登米市","city_kana":"トメシ","town":"南方町内ノ目","town_kana":"ミナミカタマチウチノメ","prefecture_code":4},{"zip_code":"9870403","prefecture":"宮城県","prefecture_kana":"ミヤギケン","city":"登米市","city_kana":"トメシ","town":"南方町王塚","town_kana":"ミナミカタマチオオツカ","prefecture_code":4},{"zip_code":"9870403","prefecture":"宮城県","prefecture_kana":"ミヤギケン","city":"登米市","city_kana":"トメシ","town":"南方町河面","town_kana":"ミナミカタマチカワヅラ","prefecture_code":4},{"zip_code":"9870403","prefecture":"宮城県","prefecture_kana":"ミヤギケン","city":"登米市","city_kana":"トメシ","town":"南方町鴻ノ木","town_kana":"ミナミカタマチコウノキ","prefecture_code":4},{"zip_code":"9870403","prefecture":"宮城県","prefecture_kana":"ミヤギケン","city":"登米市","city_kana":"トメシ","town":"南方町小山","town_kana":"ミナミカタマチコヤマ","prefecture_code":4},{"zip_code":"9870403","prefecture":"宮城県","prefecture_kana":"ミヤギケン","city":"登米市","city_kana":"トメシ","town":"南方町二ツ橋","town_kana":"ミナミカタマチフタツバシ","prefecture_code":4},{"zip_code":"9870403","prefecture":"宮城県","prefecture_kana":"ミヤギケン","city":"登米市","city_kana":"トメシ","town":"南方町峯","town_kana":"ミナミカタマチミネ","prefecture_code":4},{"zip_code":"9870403","prefecture":"宮城県","prefecture_kana":"ミヤギケン","city":"登米市","city_kana":"トメシ","town":"南方町薬師島屋敷","town_kana":"ミナミカタマチヤクシジマヤシキ","prefecture_code":4}],"0414":[{"zip_code":"9870414","prefecture":"宮城県","prefecture_kana":"ミヤギケン","city":"登米市","city_kana":"トメシ","town":"南方町内鰐丸","town_kana":"ミナミカタマチウチワニマル","prefecture_code":4},{"zip_code":"9870414","prefecture":"宮城県","prefecture_kana":"ミヤギケン","city":"登米市","city_kana":"トメシ","town":"南方町大村","town_kana":"ミナミカタマチオオムラ","prefecture_code":4},{"zip_code":"9870414","prefecture":"宮城県","prefecture_kana":"ミヤギケン","city":"登米市","city_kana":"トメシ","town":"南方町大村前","town_kana":"ミナミカタマチオオムラマエ","prefecture_code":4},{"zip_code":"9870414","prefecture":"宮城県","prefecture_kana":"ミヤギケン","city":"登米市","city_kana":"トメシ","town":"南方町松葉","town_kana":"ミナミカタマチマツバ","prefecture_code":4},{"zip_code":"9870414","prefecture":"宮城県","prefecture_kana":"ミヤギケン","city":"登米市","city_kana":"トメシ","town":"南方町松葉表","town_kana":"ミナミカタマチマツバオモテ","prefecture_code":4},{"zip_code":"9870414","prefecture":"宮城県","prefecture_kana":"ミヤギケン","city":"登米市","city_kana":"トメシ","town":"南方町松葉前","town_kana":"ミナミカタマチマツバマエ","prefecture_code":4},{"zip_code":"9870414","prefecture":"宮城県","prefecture_kana":"ミヤギケン","city":"登米市","city_kana":"トメシ","town":"南方町山成浦","town_kana":"ミナミカタマチヤマナリウラ","prefecture_code":4},{"zip_code":"9870414","prefecture":"宮城県","prefecture_kana":"ミヤギケン","city":"登米市","city_kana":"トメシ","town":"南方町鰐丸","town_kana":"ミナミカタマチワニマル","prefecture_code":4}],"0433":[{"zip_code":"9870433","prefecture":"宮城県","prefecture_kana":"ミヤギケン","city":"登米市","city_kana":"トメシ","town":"南方町大平","town_kana":"ミナミカタマチオオダイラ","prefecture_code":4},{"zip_code":"9870433","prefecture":"宮城県","prefecture_kana":"ミヤギケン","city":"登米市","city_kana":"トメシ","town":"南方町大平前","town_kana":"ミナミカタマチオオダイラマエ","prefecture_code":4},{"zip_code":"9870433","prefecture":"宮城県","prefecture_kana":"ミヤギケン","city":"登米市","city_kana":"トメシ","town":"南方町長者原","town_kana":"ミナミカタマチチョウジャハラ","prefecture_code":4},{"zip_code":"9870433","prefecture":"宮城県","prefecture_kana":"ミヤギケン","city":"登米市","city_kana":"トメシ","town":"南方町中ノ口","town_kana":"ミナミカタマチナカノクチ","prefecture_code":4},{"zip_code":"9870433","prefecture":"宮城県","prefecture_kana":"ミヤギケン","city":"登米市","city_kana":"トメシ","town":"南方町沼崎","town_kana":"ミナミカタマチヌマサキ","prefecture_code":4},{"zip_code":"9870433","prefecture":"宮城県","prefecture_kana":"ミヤギケン","city":"登米市","city_kana":"トメシ","town":"南方町沼崎前","town_kana":"ミナミカタマチヌマサキマエ","prefecture_code":4}],"0423":[{"zip_code":"9870423","prefecture":"宮城県","prefecture_kana":"ミヤギケン","city":"登米市","city_kana":"トメシ","town":"南方町大嶽","town_kana":"ミナミカタマチオオダケ","prefecture_code":4},{"zip_code":"9870423","prefecture":"宮城県","prefecture_kana":"ミヤギケン","city":"登米市","city_kana":"トメシ","town":"南方町大嶽前","town_kana":"ミナミカタマチオオダケマエ","prefecture_code":4},{"zip_code":"9870423","prefecture":"宮城県","prefecture_kana":"ミヤギケン","city":"登米市","city_kana":"トメシ","town":"南方町大嶽山","town_kana":"ミナミカタマチオオダケヤマ","prefecture_code":4},{"zip_code":"9870423","prefecture":"宮城県","prefecture_kana":"ミヤギケン","city":"登米市","city_kana":"トメシ","town":"南方町烏田","town_kana":"ミナミカタマチカラスダ","prefecture_code":4},{"zip_code":"9870423","prefecture":"宮城県","prefecture_kana":"ミヤギケン","city":"登米市","city_kana":"トメシ","town":"南方町ぜん荷前","town_kana":"ミナミカタマチゼンカマエ","prefecture_code":4},{"zip_code":"9870423","prefecture":"宮城県","prefecture_kana":"ミヤギケン","city":"登米市","city_kana":"トメシ","town":"南方町ぜん荷山","town_kana":"ミナミカタマチゼンカヤマ","prefecture_code":4},{"zip_code":"9870423","prefecture":"宮城県","prefecture_kana":"ミヤギケン","city":"登米市","city_kana":"トメシ","town":"南方町館","town_kana":"ミナミカタマチタテ","prefecture_code":4},{"zip_code":"9870423","prefecture":"宮城県","prefecture_kana":"ミヤギケン","city":"登米市","city_kana":"トメシ","town":"南方町堂地","town_kana":"ミナミカタマチドウチ","prefecture_code":4},{"zip_code":"9870423","prefecture":"宮城県","prefecture_kana":"ミヤギケン","city":"登米市","city_kana":"トメシ","town":"南方町堂地前","town_kana":"ミナミカタマチドウチマエ","prefecture_code":4},{"zip_code":"9870423","prefecture":"宮城県","prefecture_kana":"ミヤギケン","city":"登米市","city_kana":"トメシ","town":"南方町堀切","town_kana":"ミナミカタマチホッキリ","prefecture_code":4},{"zip_code":"9870423","prefecture":"宮城県","prefecture_kana":"ミヤギケン","city":"登米市","city_kana":"トメシ","town":"南方町本郷大嶽","town_kana":"ミナミカタマチホンゴウオオダケ","prefecture_code":4}],"0421":[{"zip_code":"9870421","prefecture":"宮城県","prefecture_kana":"ミヤギケン","city":"登米市","city_kana":"トメシ","town":"南方町大畑","town_kana":"ミナミカタマチオオバタ","prefecture_code":4},{"zip_code":"9870421","prefecture":"宮城県","prefecture_kana":"ミヤギケン","city":"登米市","city_kana":"トメシ","town":"南方町仕込","town_kana":"ミナミカタマチシコミ","prefecture_code":4},{"zip_code":"9870421","prefecture":"宮城県","prefecture_kana":"ミヤギケン","city":"登米市","city_kana":"トメシ","town":"南方町新井宿","town_kana":"ミナミカタマチニイジュク","prefecture_code":4},{"zip_code":"9870421","prefecture":"宮城県","prefecture_kana":"ミヤギケン","city":"登米市","city_kana":"トメシ","town":"南方町南大畑前","town_kana":"ミナミカタマチミナミオオバタマエ","prefecture_code":4}],"0422":[{"zip_code":"9870422","prefecture":"宮城県","prefecture_kana":"ミヤギケン","city":"登米市","city_kana":"トメシ","town":"南方町大畠前","town_kana":"ミナミカタマチオオハタマエ","prefecture_code":4},{"zip_code":"9870422","prefecture":"宮城県","prefecture_kana":"ミヤギケン","city":"登米市","city_kana":"トメシ","town":"南方町川前","town_kana":"ミナミカタマチカワマエ","prefecture_code":4},{"zip_code":"9870422","prefecture":"宮城県","prefecture_kana":"ミヤギケン","city":"登米市","city_kana":"トメシ","town":"南方町新大畑前","town_kana":"ミナミカタマチシンオオバタマエ","prefecture_code":4},{"zip_code":"9870422","prefecture":"宮城県","prefecture_kana":"ミヤギケン","city":"登米市","city_kana":"トメシ","town":"南方町新田","town_kana":"ミナミカタマチシンデン","prefecture_code":4},{"zip_code":"9870422","prefecture":"宮城県","prefecture_kana":"ミヤギケン","city":"登米市","city_kana":"トメシ","town":"南方町瀬川","town_kana":"ミナミカタマチセガワ","prefecture_code":4},{"zip_code":"9870422","prefecture":"宮城県","prefecture_kana":"ミヤギケン","city":"登米市","city_kana":"トメシ","town":"南方町東川前","town_kana":"ミナミカタマチヒガシカワマエ","prefecture_code":4},{"zip_code":"9870422","prefecture":"宮城県","prefecture_kana":"ミヤギケン","city":"登米市","city_kana":"トメシ","town":"南方町蛇沼","town_kana":"ミナミカタマチヘビヌマ","prefecture_code":4},{"zip_code":"9870422","prefecture":"宮城県","prefecture_kana":"ミヤギケン","city":"登米市","city_kana":"トメシ","town":"南方町室田","town_kana":"ミナミカタマチムロタ","prefecture_code":4},{"zip_code":"9870422","prefecture":"宮城県","prefecture_kana":"ミヤギケン","city":"登米市","city_kana":"トメシ","town":"南方町山崎","town_kana":"ミナミカタマチヤマザキ","prefecture_code":4}],"0426":[{"zip_code":"9870426","prefecture":"宮城県","prefecture_kana":"ミヤギケン","city":"登米市","city_kana":"トメシ","town":"南方町大袋","town_kana":"ミナミカタマチオオブクロ","prefecture_code":4},{"zip_code":"9870426","prefecture":"宮城県","prefecture_kana":"ミヤギケン","city":"登米市","city_kana":"トメシ","town":"南方町大袋浦","town_kana":"ミナミカタマチオオブクロウラ","prefecture_code":4},{"zip_code":"9870426","prefecture":"宮城県","prefecture_kana":"ミヤギケン","city":"登米市","city_kana":"トメシ","town":"南方町樟","town_kana":"ミナミカタマチクヌギ","prefecture_code":4},{"zip_code":"9870426","prefecture":"宮城県","prefecture_kana":"ミヤギケン","city":"登米市","city_kana":"トメシ","town":"南方町樟土手外","town_kana":"ミナミカタマチクヌギドテソト","prefecture_code":4},{"zip_code":"9870426","prefecture":"宮城県","prefecture_kana":"ミヤギケン","city":"登米市","city_kana":"トメシ","town":"南方町成田","town_kana":"ミナミカタマチナリタ","prefecture_code":4},{"zip_code":"9870426","prefecture":"宮城県","prefecture_kana":"ミヤギケン","city":"登米市","city_kana":"トメシ","town":"南方町若狭前","town_kana":"ミナミカタマチワカサマエ","prefecture_code":4}],"0424":[{"zip_code":"9870424","prefecture":"宮城県","prefecture_kana":"ミヤギケン","city":"登米市","city_kana":"トメシ","town":"南方町風張","town_kana":"ミナミカタマチカザハリ","prefecture_code":4},{"zip_code":"9870424","prefecture":"宮城県","prefecture_kana":"ミヤギケン","city":"登米市","city_kana":"トメシ","town":"南方町館浦","town_kana":"ミナミカタマチタテウラ","prefecture_code":4},{"zip_code":"9870424","prefecture":"宮城県","prefecture_kana":"ミヤギケン","city":"登米市","city_kana":"トメシ","town":"南方町細川","town_kana":"ミナミカタマチホソカワ","prefecture_code":4},{"zip_code":"9870424","prefecture":"宮城県","prefecture_kana":"ミヤギケン","city":"登米市","city_kana":"トメシ","town":"南方町細川浦","town_kana":"ミナミカタマチホソカワウラ","prefecture_code":4},{"zip_code":"9870424","prefecture":"宮城県","prefecture_kana":"ミヤギケン","city":"登米市","city_kana":"トメシ","town":"南方町細川前","town_kana":"ミナミカタマチホソカワマエ","prefecture_code":4},{"zip_code":"9870424","prefecture":"宮城県","prefecture_kana":"ミヤギケン","city":"登米市","city_kana":"トメシ","town":"南方町南沢","town_kana":"ミナミカタマチミナミザワ","prefecture_code":4},{"zip_code":"9870424","prefecture":"宮城県","prefecture_kana":"ミヤギケン","city":"登米市","city_kana":"トメシ","town":"南方町南細川","town_kana":"ミナミカタマチミナミホソカワ","prefecture_code":4}],"0425":[{"zip_code":"9870425","prefecture":"宮城県","prefecture_kana":"ミヤギケン","city":"登米市","city_kana":"トメシ","town":"南方町梶沼","town_kana":"ミナミカタマチカジヌマ","prefecture_code":4},{"zip_code":"9870425","prefecture":"宮城県","prefecture_kana":"ミヤギケン","city":"登米市","city_kana":"トメシ","town":"南方町梶沼川前","town_kana":"ミナミカタマチカジヌマカワマエ","prefecture_code":4},{"zip_code":"9870425","prefecture":"宮城県","prefecture_kana":"ミヤギケン","city":"登米市","city_kana":"トメシ","town":"南方町梶沼前","town_kana":"ミナミカタマチカジヌママエ","prefecture_code":4},{"zip_code":"9870425","prefecture":"宮城県","prefecture_kana":"ミヤギケン","city":"登米市","city_kana":"トメシ","town":"南方町上砥落","town_kana":"ミナミカタマチカミトオトシ","prefecture_code":4},{"zip_code":"9870425","prefecture":"宮城県","prefecture_kana":"ミヤギケン","city":"登米市","city_kana":"トメシ","town":"南方町下砥落","town_kana":"ミナミカタマチシモトオトシ","prefecture_code":4},{"zip_code":"9870425","prefecture":"宮城県","prefecture_kana":"ミヤギケン","city":"登米市","city_kana":"トメシ","town":"南方町十二山","town_kana":"ミナミカタマチジュウニヤマ","prefecture_code":4},{"zip_code":"9870425","prefecture":"宮城県","prefecture_kana":"ミヤギケン","city":"登米市","city_kana":"トメシ","town":"南方町田中浦","town_kana":"ミナミカタマチタナカウラ","prefecture_code":4},{"zip_code":"9870425","prefecture":"宮城県","prefecture_kana":"ミヤギケン","city":"登米市","city_kana":"トメシ","town":"南方町砥落","town_kana":"ミナミカタマチトオトシ","prefecture_code":4},{"zip_code":"9870425","prefecture":"宮城県","prefecture_kana":"ミヤギケン","city":"登米市","city_kana":"トメシ","town":"南方町沼向","town_kana":"ミナミカタマチヌマムカイ","prefecture_code":4},{"zip_code":"9870425","prefecture":"宮城県","prefecture_kana":"ミヤギケン","city":"登米市","city_kana":"トメシ","town":"南方町米袋","town_kana":"ミナミカタマチヨネブクロ","prefecture_code":4},{"zip_code":"9870425","prefecture":"宮城県","prefecture_kana":"ミヤギケン","city":"登米市","city_kana":"トメシ","town":"南方町米袋浦","town_kana":"ミナミカタマチヨネブクロウラ","prefecture_code":4},{"zip_code":"9870425","prefecture":"宮城県","prefecture_kana":"ミヤギケン","city":"登米市","city_kana":"トメシ","town":"南方町米袋前","town_kana":"ミナミカタマチヨネブクロマエ","prefecture_code":4}],"0413":[{"zip_code":"9870413","prefecture":"宮城県","prefecture_kana":"ミヤギケン","city":"登米市","city_kana":"トメシ","town":"南方町上原","town_kana":"ミナミカタマチカミハラ","prefecture_code":4},{"zip_code":"9870413","prefecture":"宮城県","prefecture_kana":"ミヤギケン","city":"登米市","city_kana":"トメシ","town":"南方町下原前","town_kana":"ミナミカタマチシモハラマエ","prefecture_code":4},{"zip_code":"9870413","prefecture":"宮城県","prefecture_kana":"ミヤギケン","city":"登米市","city_kana":"トメシ","town":"南方町宿畑","town_kana":"ミナミカタマチシュクバタ","prefecture_code":4},{"zip_code":"9870413","prefecture":"宮城県","prefecture_kana":"ミヤギケン","city":"登米市","city_kana":"トメシ","town":"南方町中原","town_kana":"ミナミカタマチナカハラ","prefecture_code":4},{"zip_code":"9870413","prefecture":"宮城県","prefecture_kana":"ミヤギケン","city":"登米市","city_kana":"トメシ","town":"南方町原","town_kana":"ミナミカタマチハラ","prefecture_code":4},{"zip_code":"9870413","prefecture":"宮城県","prefecture_kana":"ミヤギケン","city":"登米市","city_kana":"トメシ","town":"南方町原浦","town_kana":"ミナミカタマチハラウラ","prefecture_code":4},{"zip_code":"9870413","prefecture":"宮城県","prefecture_kana":"ミヤギケン","city":"登米市","city_kana":"トメシ","town":"南方町原前","town_kana":"ミナミカタマチハラマエ","prefecture_code":4},{"zip_code":"9870413","prefecture":"宮城県","prefecture_kana":"ミヤギケン","city":"登米市","city_kana":"トメシ","town":"南方町原屋敷","town_kana":"ミナミカタマチハラヤシキ","prefecture_code":4}],"0445":[{"zip_code":"9870445","prefecture":"宮城県","prefecture_kana":"ミヤギケン","city":"登米市","city_kana":"トメシ","town":"南方町上平貝","town_kana":"ミナミカタマチカミヒラガイ","prefecture_code":4},{"zip_code":"9870445","prefecture":"宮城県","prefecture_kana":"ミヤギケン","city":"登米市","city_kana":"トメシ","town":"南方町下平貝","town_kana":"ミナミカタマチシモヒラガイ","prefecture_code":4},{"zip_code":"9870445","prefecture":"宮城県","prefecture_kana":"ミヤギケン","city":"登米市","city_kana":"トメシ","town":"南方町銭金壇","town_kana":"ミナミカタマチゼニガネダン","prefecture_code":4},{"zip_code":"9870445","prefecture":"宮城県","prefecture_kana":"ミヤギケン","city":"登米市","city_kana":"トメシ","town":"南方町中須崎","town_kana":"ミナミカタマチナカスサキ","prefecture_code":4},{"zip_code":"9870445","prefecture":"宮城県","prefecture_kana":"ミヤギケン","city":"登米市","city_kana":"トメシ","town":"南方町平貝","town_kana":"ミナミカタマチヒラガイ","prefecture_code":4},{"zip_code":"9870445","prefecture":"宮城県","prefecture_kana":"ミヤギケン","city":"登米市","city_kana":"トメシ","town":"南方町翌沢","town_kana":"ミナミカタマチヨクサワ","prefecture_code":4}],"0404":{"zip_code":"9870404","prefecture":"宮城県","prefecture_kana":"ミヤギケン","city":"登米市","city_kana":"トメシ","town":"南方町新島前","town_kana":"ミナミカタマチシンシママエ","prefecture_code":4},"0446":{"zip_code":"9870446","prefecture":"宮城県","prefecture_kana":"ミヤギケン","city":"登米市","city_kana":"トメシ","town":"南方町新高石浦","town_kana":"ミナミカタマチシンタカイシウラ","prefecture_code":4},"0447":{"zip_code":"9870447","prefecture":"宮城県","prefecture_kana":"ミヤギケン","city":"登米市","city_kana":"トメシ","town":"南方町新長根下","town_kana":"ミナミカタマチシンナガネシタ","prefecture_code":4},"0405":{"zip_code":"9870405","prefecture":"宮城県","prefecture_kana":"ミヤギケン","city":"登米市","city_kana":"トメシ","town":"南方町新中山","town_kana":"ミナミカタマチシンナカヤマ","prefecture_code":4},"0401":[{"zip_code":"9870401","prefecture":"宮城県","prefecture_kana":"ミヤギケン","city":"登米市","city_kana":"トメシ","town":"南方町高石","town_kana":"ミナミカタマチタカイシ","prefecture_code":4},{"zip_code":"9870401","prefecture":"宮城県","prefecture_kana":"ミヤギケン","city":"登米市","city_kana":"トメシ","town":"南方町高石浦","town_kana":"ミナミカタマチタカイシウラ","prefecture_code":4},{"zip_code":"9870401","prefecture":"宮城県","prefecture_kana":"ミヤギケン","city":"登米市","city_kana":"トメシ","town":"南方町西山成","town_kana":"ミナミカタマチニシヤマナリ","prefecture_code":4},{"zip_code":"9870401","prefecture":"宮城県","prefecture_kana":"ミヤギケン","city":"登米市","city_kana":"トメシ","town":"南方町西山成前","town_kana":"ミナミカタマチニシヤマナリマエ","prefecture_code":4},{"zip_code":"9870401","prefecture":"宮城県","prefecture_kana":"ミヤギケン","city":"登米市","city_kana":"トメシ","town":"南方町八の森","town_kana":"ミナミカタマチハチノモリ","prefecture_code":4},{"zip_code":"9870401","prefecture":"宮城県","prefecture_kana":"ミヤギケン","city":"登米市","city_kana":"トメシ","town":"南方町山成","town_kana":"ミナミカタマチヤマナリ","prefecture_code":4},{"zip_code":"9870401","prefecture":"宮城県","prefecture_kana":"ミヤギケン","city":"登米市","city_kana":"トメシ","town":"南方町山成前","town_kana":"ミナミカタマチヤマナリマエ","prefecture_code":4}],"0415":{"zip_code":"9870415","prefecture":"宮城県","prefecture_kana":"ミヤギケン","city":"登米市","city_kana":"トメシ","town":"南方町真ケ沼","town_kana":"ミナミカタマチマガヌマ","prefecture_code":4},"0307":[{"zip_code":"9870307","prefecture":"宮城県","prefecture_kana":"ミヤギケン","city":"登米市","city_kana":"トメシ","town":"米山町愛宕下","town_kana":"ヨネヤマチョウアタゴシタ","prefecture_code":4},{"zip_code":"9870307","prefecture":"宮城県","prefecture_kana":"ミヤギケン","city":"登米市","city_kana":"トメシ","town":"米山町愛宕前","town_kana":"ヨネヤマチョウアタゴマエ","prefecture_code":4},{"zip_code":"9870307","prefecture":"宮城県","prefecture_kana":"ミヤギケン","city":"登米市","city_kana":"トメシ","town":"米山町犬子松","town_kana":"ヨネヤマチョウイヌコマツ","prefecture_code":4},{"zip_code":"9870307","prefecture":"宮城県","prefecture_kana":"ミヤギケン","city":"登米市","city_kana":"トメシ","town":"米山町猿ケ崎","town_kana":"ヨネヤマチョウサルガサキ","prefecture_code":4}],"0304":[{"zip_code":"9870304","prefecture":"宮城県","prefecture_kana":"ミヤギケン","city":"登米市","city_kana":"トメシ","town":"米山町内","town_kana":"ヨネヤマチョウウチ","prefecture_code":4},{"zip_code":"9870304","prefecture":"宮城県","prefecture_kana":"ミヤギケン","city":"登米市","city_kana":"トメシ","town":"米山町中道東","town_kana":"ヨネヤマチョウナカミチヒガシ","prefecture_code":4},{"zip_code":"9870304","prefecture":"宮城県","prefecture_kana":"ミヤギケン","city":"登米市","city_kana":"トメシ","town":"米山町中道前","town_kana":"ヨネヤマチョウナカミチマエ","prefecture_code":4}],"0305":[{"zip_code":"9870305","prefecture":"宮城県","prefecture_kana":"ミヤギケン","city":"登米市","city_kana":"トメシ","town":"米山町川前","town_kana":"ヨネヤマチョウカワマエ","prefecture_code":4},{"zip_code":"9870305","prefecture":"宮城県","prefecture_kana":"ミヤギケン","city":"登米市","city_kana":"トメシ","town":"米山町水門","town_kana":"ヨネヤマチョウスイモン","prefecture_code":4},{"zip_code":"9870305","prefecture":"宮城県","prefecture_kana":"ミヤギケン","city":"登米市","city_kana":"トメシ","town":"米山町八反","town_kana":"ヨネヤマチョウハッタン","prefecture_code":4}],"0308":[{"zip_code":"9870308","prefecture":"宮城県","prefecture_kana":"ミヤギケン","city":"登米市","city_kana":"トメシ","town":"米山町小待井","town_kana":"ヨネヤマチョウコマチイ","prefecture_code":4},{"zip_code":"9870308","prefecture":"宮城県","prefecture_kana":"ミヤギケン","city":"登米市","city_kana":"トメシ","town":"米山町小待井下","town_kana":"ヨネヤマチョウコマチイシタ","prefecture_code":4},{"zip_code":"9870308","prefecture":"宮城県","prefecture_kana":"ミヤギケン","city":"登米市","city_kana":"トメシ","town":"米山町待井下","town_kana":"ヨネヤマチョウマチイシタ","prefecture_code":4}],"0311":{"zip_code":"9870311","prefecture":"宮城県","prefecture_kana":"ミヤギケン","city":"登米市","city_kana":"トメシ","town":"米山町桜岡","town_kana":"ヨネヤマチョウサクラオカ","prefecture_code":4},"0306":[{"zip_code":"9870306","prefecture":"宮城県","prefecture_kana":"ミヤギケン","city":"登米市","city_kana":"トメシ","town":"米山町地蔵川","town_kana":"ヨネヤマチョウジゾウガワ","prefecture_code":4},{"zip_code":"9870306","prefecture":"宮城県","prefecture_kana":"ミヤギケン","city":"登米市","city_kana":"トメシ","town":"米山町土佐ケ渕","town_kana":"ヨネヤマチョウトサガフチ","prefecture_code":4}],"0301":{"zip_code":"9870301","prefecture":"宮城県","prefecture_kana":"ミヤギケン","city":"登米市","city_kana":"トメシ","town":"米山町善王寺","town_kana":"ヨネヤマチョウゼンノウジ","prefecture_code":4},"0309":[{"zip_code":"9870309","prefecture":"宮城県","prefecture_kana":"ミヤギケン","city":"登米市","city_kana":"トメシ","town":"米山町舘下","town_kana":"ヨネヤマチョウダテシタ","prefecture_code":4},{"zip_code":"9870309","prefecture":"宮城県","prefecture_kana":"ミヤギケン","city":"登米市","city_kana":"トメシ","town":"米山町舘前","town_kana":"ヨネヤマチョウダテマエ","prefecture_code":4}],"0303":[{"zip_code":"9870303","prefecture":"宮城県","prefecture_kana":"ミヤギケン","city":"登米市","city_kana":"トメシ","town":"米山町田畑西","town_kana":"ヨネヤマチョウタバタニシ","prefecture_code":4},{"zip_code":"9870303","prefecture":"宮城県","prefecture_kana":"ミヤギケン","city":"登米市","city_kana":"トメシ","town":"米山町田畑前","town_kana":"ヨネヤマチョウタバタマエ","prefecture_code":4}],"0331":{"zip_code":"9870331","prefecture":"宮城県","prefecture_kana":"ミヤギケン","city":"登米市","city_kana":"トメシ","town":"米山町中津山","town_kana":"ヨネヤマチョウナカツヤマ","prefecture_code":4},"0321":{"zip_code":"9870321","prefecture":"宮城県","prefecture_kana":"ミヤギケン","city":"登米市","city_kana":"トメシ","town":"米山町西野","town_kana":"ヨネヤマチョウニシノ","prefecture_code":4},"0302":[{"zip_code":"9870302","prefecture":"宮城県","prefecture_kana":"ミヤギケン","city":"登米市","city_kana":"トメシ","town":"米山町沼田","town_kana":"ヨネヤマチョウヌマタ","prefecture_code":4},{"zip_code":"9870302","prefecture":"宮城県","prefecture_kana":"ミヤギケン","city":"登米市","city_kana":"トメシ","town":"米山町櫓場","town_kana":"ヨネヤマチョウヤグラバ","prefecture_code":4},{"zip_code":"9870302","prefecture":"宮城県","prefecture_kana":"ミヤギケン","city":"登米市","city_kana":"トメシ","town":"米山町櫓場下","town_kana":"ヨネヤマチョウヤグラバシタ","prefecture_code":4}],"2200":{"zip_code":"9872200","prefecture":"宮城県","prefecture_kana":"ミヤギケン","city":"栗原市","city_kana":"クリハラシ","town":"","town_kana":"","prefecture_code":4},"2372":{"zip_code":"9872372","prefecture":"宮城県","prefecture_kana":"ミヤギケン","city":"栗原市","city_kana":"クリハラシ","town":"一迫青木","town_kana":"イチハサマアオキ","prefecture_code":4},"2369":{"zip_code":"9872369","prefecture":"宮城県","prefecture_kana":"ミヤギケン","city":"栗原市","city_kana":"クリハラシ","town":"一迫荒町","town_kana":"イチハサマアラマチ","prefecture_code":4},"2336":{"zip_code":"9872336","prefecture":"宮城県","prefecture_kana":"ミヤギケン","city":"栗原市","city_kana":"クリハラシ","town":"一迫荒屋敷","town_kana":"イチハサマアラヤシキ","prefecture_code":4},"2343":{"zip_code":"9872343","prefecture":"宮城県","prefecture_kana":"ミヤギケン","city":"栗原市","city_kana":"クリハラシ","town":"一迫一本杉","town_kana":"イチハサマイッポンスギ","prefecture_code":4},"2364":{"zip_code":"9872364","prefecture":"宮城県","prefecture_kana":"ミヤギケン","city":"栗原市","city_kana":"クリハラシ","town":"一迫岩ケ沢","town_kana":"イチハサマイワガサワ","prefecture_code":4},"2351":{"zip_code":"9872351","prefecture":"宮城県","prefecture_kana":"ミヤギケン","city":"栗原市","city_kana":"クリハラシ","town":"一迫宇南田","town_kana":"イチハサマウナンダ","prefecture_code":4},"2301":{"zip_code":"9872301","prefecture":"宮城県","prefecture_kana":"ミヤギケン","city":"栗原市","city_kana":"クリハラシ","town":"一迫大川口","town_kana":"イチハサマオオカワグチ","prefecture_code":4},"2362":{"zip_code":"9872362","prefecture":"宮城県","prefecture_kana":"ミヤギケン","city":"栗原市","city_kana":"クリハラシ","town":"一迫大栗","town_kana":"イチハサマオオグリ","prefecture_code":4},"2346":{"zip_code":"9872346","prefecture":"宮城県","prefecture_kana":"ミヤギケン","city":"栗原市","city_kana":"クリハラシ","town":"一迫大清水","town_kana":"イチハサマオオスズ","prefecture_code":4},"2348":{"zip_code":"9872348","prefecture":"宮城県","prefecture_kana":"ミヤギケン","city":"栗原市","city_kana":"クリハラシ","town":"一迫大平沢","town_kana":"イチハサマオオヒラサワ","prefecture_code":4},"2314":{"zip_code":"9872314","prefecture":"宮城県","prefecture_kana":"ミヤギケン","city":"栗原市","city_kana":"クリハラシ","town":"一迫岡田","town_kana":"イチハサマオカダ","prefecture_code":4},"2313":{"zip_code":"9872313","prefecture":"宮城県","prefecture_kana":"ミヤギケン","city":"栗原市","city_kana":"クリハラシ","town":"一迫沖","town_kana":"イチハサマオキ","prefecture_code":4},"2312":{"zip_code":"9872312","prefecture":"宮城県","prefecture_kana":"ミヤギケン","city":"栗原市","city_kana":"クリハラシ","town":"一迫沖浦","town_kana":"イチハサマオキウラ","prefecture_code":4},"2355":{"zip_code":"9872355","prefecture":"宮城県","prefecture_kana":"ミヤギケン","city":"栗原市","city_kana":"クリハラシ","town":"一迫鍛冶屋敷","town_kana":"イチハサマカジヤシキ","prefecture_code":4},"2302":{"zip_code":"9872302","prefecture":"宮城県","prefecture_kana":"ミヤギケン","city":"栗原市","city_kana":"クリハラシ","town":"一迫片子沢","town_kana":"イチハサマカタゴザワ","prefecture_code":4},"2367":{"zip_code":"9872367","prefecture":"宮城県","prefecture_kana":"ミヤギケン","city":"栗原市","city_kana":"クリハラシ","town":"一迫上大土","town_kana":"イチハサマカミオオド","prefecture_code":4},"2353":{"zip_code":"9872353","prefecture":"宮城県","prefecture_kana":"ミヤギケン","city":"栗原市","city_kana":"クリハラシ","town":"一迫上久保","town_kana":"イチハサマカミクボ","prefecture_code":4},"2339":{"zip_code":"9872339","prefecture":"宮城県","prefecture_kana":"ミヤギケン","city":"栗原市","city_kana":"クリハラシ","town":"一迫上中島","town_kana":"イチハサマカミナカジマ","prefecture_code":4},"2303":{"zip_code":"9872303","prefecture":"宮城県","prefecture_kana":"ミヤギケン","city":"栗原市","city_kana":"クリハラシ","town":"一迫川口","town_kana":"イチハサマカワグチ","prefecture_code":4},"2371":{"zip_code":"9872371","prefecture":"宮城県","prefecture_kana":"ミヤギケン","city":"栗原市","city_kana":"クリハラシ","town":"一迫川台","town_kana":"イチハサマカワダイ","prefecture_code":4},"2304":{"zip_code":"9872304","prefecture":"宮城県","prefecture_kana":"ミヤギケン","city":"栗原市","city_kana":"クリハラシ","town":"一迫北沢","town_kana":"イチハサマキタザワ","prefecture_code":4},"2305":{"zip_code":"9872305","prefecture":"宮城県","prefecture_kana":"ミヤギケン","city":"栗原市","city_kana":"クリハラシ","town":"一迫狐崎","town_kana":"イチハサマキツネザキ","prefecture_code":4},"2317":{"zip_code":"9872317","prefecture":"宮城県","prefecture_kana":"ミヤギケン","city":"栗原市","city_kana":"クリハラシ","town":"一迫久保田","town_kana":"イチハサマクボタ","prefecture_code":4},"2315":{"zip_code":"9872315","prefecture":"宮城県","prefecture_kana":"ミヤギケン","city":"栗原市","city_kana":"クリハラシ","town":"一迫間杭元","town_kana":"イチハサマケングイモト","prefecture_code":4},"2316":{"zip_code":"9872316","prefecture":"宮城県","prefecture_kana":"ミヤギケン","city":"栗原市","city_kana":"クリハラシ","town":"一迫小坂本","town_kana":"イチハサマコサカモト","prefecture_code":4},"2325":{"zip_code":"9872325","prefecture":"宮城県","prefecture_kana":"ミヤギケン","city":"栗原市","city_kana":"クリハラシ","town":"一迫坂下西","town_kana":"イチハサマサカシタニシ","prefecture_code":4},"2363":{"zip_code":"9872363","prefecture":"宮城県","prefecture_kana":"ミヤギケン","city":"栗原市","city_kana":"クリハラシ","town":"一迫佐野","town_kana":"イチハサマサノ","prefecture_code":4},"2359":{"zip_code":"9872359","prefecture":"宮城県","prefecture_kana":"ミヤギケン","city":"栗原市","city_kana":"クリハラシ","town":"一迫佐野原","town_kana":"イチハサマサノバラ","prefecture_code":4},"2342":{"zip_code":"9872342","prefecture":"宮城県","prefecture_kana":"ミヤギケン","city":"栗原市","city_kana":"クリハラシ","town":"一迫沢田","town_kana":"イチハサマサワダ","prefecture_code":4},"2352":{"zip_code":"9872352","prefecture":"宮城県","prefecture_kana":"ミヤギケン","city":"栗原市","city_kana":"クリハラシ","town":"一迫鹿込","town_kana":"イチハサマシシゴメ","prefecture_code":4},"2306":{"zip_code":"9872306","prefecture":"宮城県","prefecture_kana":"ミヤギケン","city":"栗原市","city_kana":"クリハラシ","town":"一迫嶋躰","town_kana":"イチハサマシマタイ","prefecture_code":4},"2374":{"zip_code":"9872374","prefecture":"宮城県","prefecture_kana":"ミヤギケン","city":"栗原市","city_kana":"クリハラシ","town":"一迫清水原","town_kana":"イチハサマシミズバラ","prefecture_code":4},"2368":{"zip_code":"9872368","prefecture":"宮城県","prefecture_kana":"ミヤギケン","city":"栗原市","city_kana":"クリハラシ","town":"一迫下大土","town_kana":"イチハサマシモオオド","prefecture_code":4},"2358":{"zip_code":"9872358","prefecture":"宮城県","prefecture_kana":"ミヤギケン","city":"栗原市","city_kana":"クリハラシ","town":"一迫下小僧","town_kana":"イチハサマシモコゾウ","prefecture_code":4},"2334":{"zip_code":"9872334","prefecture":"宮城県","prefecture_kana":"ミヤギケン","city":"栗原市","city_kana":"クリハラシ","town":"一迫神山","town_kana":"イチハサマシンザン","prefecture_code":4},"2365":{"zip_code":"9872365","prefecture":"宮城県","prefecture_kana":"ミヤギケン","city":"栗原市","city_kana":"クリハラシ","town":"一迫新米","town_kana":"イチハサマシンマイ","prefecture_code":4},"2307":{"zip_code":"9872307","prefecture":"宮城県","prefecture_kana":"ミヤギケン","city":"栗原市","city_kana":"クリハラシ","town":"一迫清水目","town_kana":"イチハサマスズノメ","prefecture_code":4},"2349":{"zip_code":"9872349","prefecture":"宮城県","prefecture_kana":"ミヤギケン","city":"栗原市","city_kana":"クリハラシ","town":"一迫大際","town_kana":"イチハサマダイギワ","prefecture_code":4},"2335":{"zip_code":"9872335","prefecture":"宮城県","prefecture_kana":"ミヤギケン","city":"栗原市","city_kana":"クリハラシ","town":"一迫高田","town_kana":"イチハサマタカダ","prefecture_code":4},"2332":{"zip_code":"9872332","prefecture":"宮城県","prefecture_kana":"ミヤギケン","city":"栗原市","city_kana":"クリハラシ","town":"一迫高橋","town_kana":"イチハサマタカハシ","prefecture_code":4},"2328":{"zip_code":"9872328","prefecture":"宮城県","prefecture_kana":"ミヤギケン","city":"栗原市","city_kana":"クリハラシ","town":"一迫土川","town_kana":"イチハサマツチカワ","prefecture_code":4},"2327":{"zip_code":"9872327","prefecture":"宮城県","prefecture_kana":"ミヤギケン","city":"栗原市","city_kana":"クリハラシ","town":"一迫天神","town_kana":"イチハサマテンジン","prefecture_code":4},"2361":{"zip_code":"9872361","prefecture":"宮城県","prefecture_kana":"ミヤギケン","city":"栗原市","city_kana":"クリハラシ","town":"一迫中小僧","town_kana":"イチハサマナカコゾウ","prefecture_code":4},"2341":{"zip_code":"9872341","prefecture":"宮城県","prefecture_kana":"ミヤギケン","city":"栗原市","city_kana":"クリハラシ","town":"一迫中屋敷浦","town_kana":"イチハサマナカヤシキウラ","prefecture_code":4},"2354":{"zip_code":"9872354","prefecture":"宮城県","prefecture_kana":"ミヤギケン","city":"栗原市","city_kana":"クリハラシ","town":"一迫西風","town_kana":"イチハサマナライ","prefecture_code":4},"2357":{"zip_code":"9872357","prefecture":"宮城県","prefecture_kana":"ミヤギケン","city":"栗原市","city_kana":"クリハラシ","town":"一迫沼田","town_kana":"イチハサマヌマタ","prefecture_code":4},"2331":{"zip_code":"9872331","prefecture":"宮城県","prefecture_kana":"ミヤギケン","city":"栗原市","city_kana":"クリハラシ","town":"一迫萩生","town_kana":"イチハサマハギウ","prefecture_code":4},"2338":{"zip_code":"9872338","prefecture":"宮城県","prefecture_kana":"ミヤギケン","city":"栗原市","city_kana":"クリハラシ","town":"一迫日向","town_kana":"イチハサマヒナタ","prefecture_code":4},"2347":{"zip_code":"9872347","prefecture":"宮城県","prefecture_kana":"ミヤギケン","city":"栗原市","city_kana":"クリハラシ","town":"一迫平館","town_kana":"イチハサマヒラダテ","prefecture_code":4},"2373":{"zip_code":"9872373","prefecture":"宮城県","prefecture_kana":"ミヤギケン","city":"栗原市","city_kana":"クリハラシ","town":"一迫不動西","town_kana":"イチハサマフドウニシ","prefecture_code":4},"2329":{"zip_code":"9872329","prefecture":"宮城県","prefecture_kana":"ミヤギケン","city":"栗原市","city_kana":"クリハラシ","town":"一迫細越","town_kana":"イチハサマホソゴエ","prefecture_code":4},"2308":{"zip_code":"9872308","prefecture":"宮城県","prefecture_kana":"ミヤギケン","city":"栗原市","city_kana":"クリハラシ","town":"一迫真坂","town_kana":"イチハサママサカ","prefecture_code":4},"2318":{"zip_code":"9872318","prefecture":"宮城県","prefecture_kana":"ミヤギケン","city":"栗原市","city_kana":"クリハラシ","town":"一迫松の木","town_kana":"イチハサママツノキ","prefecture_code":4},"2337":{"zip_code":"9872337","prefecture":"宮城県","prefecture_kana":"ミヤギケン","city":"栗原市","city_kana":"クリハラシ","town":"一迫松原沢","town_kana":"イチハサママツバラザワ","prefecture_code":4},"2311":{"zip_code":"9872311","prefecture":"宮城県","prefecture_kana":"ミヤギケン","city":"栗原市","city_kana":"クリハラシ","town":"一迫御崎","town_kana":"イチハサマミサキ","prefecture_code":4},"2324":{"zip_code":"9872324","prefecture":"宮城県","prefecture_kana":"ミヤギケン","city":"栗原市","city_kana":"クリハラシ","town":"一迫三嶋","town_kana":"イチハサマミシマ","prefecture_code":4},"2344":{"zip_code":"9872344","prefecture":"宮城県","prefecture_kana":"ミヤギケン","city":"栗原市","city_kana":"クリハラシ","town":"一迫宮下","town_kana":"イチハサマミヤジタ","prefecture_code":4},"2319":{"zip_code":"9872319","prefecture":"宮城県","prefecture_kana":"ミヤギケン","city":"栗原市","city_kana":"クリハラシ","town":"一迫宮前","town_kana":"イチハサマミヤマエ","prefecture_code":4},"2323":{"zip_code":"9872323","prefecture":"宮城県","prefecture_kana":"ミヤギケン","city":"栗原市","city_kana":"クリハラシ","town":"一迫女子町","town_kana":"イチハサマメゴマチ","prefecture_code":4},"2345":{"zip_code":"9872345","prefecture":"宮城県","prefecture_kana":"ミヤギケン","city":"栗原市","city_kana":"クリハラシ","town":"一迫屋敷田","town_kana":"イチハサマヤシキダ","prefecture_code":4},"2309":{"zip_code":"9872309","prefecture":"宮城県","prefecture_kana":"ミヤギケン","city":"栗原市","city_kana":"クリハラシ","town":"一迫柳目","town_kana":"イチハサマヤナギノメ","prefecture_code":4},"2326":{"zip_code":"9872326","prefecture":"宮城県","prefecture_kana":"ミヤギケン","city":"栗原市","city_kana":"クリハラシ","town":"一迫山崎","town_kana":"イチハサマヤマザキ","prefecture_code":4},"2356":{"zip_code":"9872356","prefecture":"宮城県","prefecture_kana":"ミヤギケン","city":"栗原市","city_kana":"クリハラシ","town":"一迫山沢","town_kana":"イチハサマヤマサワ","prefecture_code":4},"2333":{"zip_code":"9872333","prefecture":"宮城県","prefecture_kana":"ミヤギケン","city":"栗原市","city_kana":"クリハラシ","town":"一迫要害","town_kana":"イチハサマヨウガイ","prefecture_code":4},"2321":{"zip_code":"9872321","prefecture":"宮城県","prefecture_kana":"ミヤギケン","city":"栗原市","city_kana":"クリハラシ","town":"一迫横町","town_kana":"イチハサマヨコマチ","prefecture_code":4},"2322":{"zip_code":"9872322","prefecture":"宮城県","prefecture_kana":"ミヤギケン","city":"栗原市","city_kana":"クリハラシ","town":"一迫横町浦","town_kana":"イチハサマヨコマチウラ","prefecture_code":4},"2366":{"zip_code":"9872366","prefecture":"宮城県","prefecture_kana":"ミヤギケン","city":"栗原市","city_kana":"クリハラシ","town":"一迫論田","town_kana":"イチハサマロンデン","prefecture_code":4},"2033":{"zip_code":"9872033","prefecture":"宮城県","prefecture_kana":"ミヤギケン","city":"栗原市","city_kana":"クリハラシ","town":"高清水浅野","town_kana":"タカシミズアザノ","prefecture_code":4},"2035":{"zip_code":"9872035","prefecture":"宮城県","prefecture_kana":"ミヤギケン","city":"栗原市","city_kana":"クリハラシ","town":"高清水浅野前","town_kana":"タカシミズアザノマエ","prefecture_code":4},"2185":{"zip_code":"9872185","prefecture":"宮城県","prefecture_kana":"ミヤギケン","city":"栗原市","city_kana":"クリハラシ","town":"高清水新町","town_kana":"タカシミズアラマチ","prefecture_code":4},"2017":{"zip_code":"9872017","prefecture":"宮城県","prefecture_kana":"ミヤギケン","city":"栗原市","city_kana":"クリハラシ","town":"高清水石沢","town_kana":"タカシミズイシザワ","prefecture_code":4},"2018":{"zip_code":"9872018","prefecture":"宮城県","prefecture_kana":"ミヤギケン","city":"栗原市","city_kana":"クリハラシ","town":"高清水石沢浦","town_kana":"タカシミズイシザワウラ","prefecture_code":4},"2115":{"zip_code":"9872115","prefecture":"宮城県","prefecture_kana":"ミヤギケン","city":"栗原市","city_kana":"クリハラシ","town":"高清水一本松","town_kana":"タカシミズイッポンマツ","prefecture_code":4},"2004":{"zip_code":"9872004","prefecture":"宮城県","prefecture_kana":"ミヤギケン","city":"栗原市","city_kana":"クリハラシ","town":"高清水浦南沢","town_kana":"タカシミズウラミナミサワ","prefecture_code":4},"2014":{"zip_code":"9872014","prefecture":"宮城県","prefecture_kana":"ミヤギケン","city":"栗原市","city_kana":"クリハラシ","town":"高清水大沢","town_kana":"タカシミズオオサワ","prefecture_code":4},"2025":{"zip_code":"9872025","prefecture":"宮城県","prefecture_kana":"ミヤギケン","city":"栗原市","city_kana":"クリハラシ","town":"高清水大西","town_kana":"タカシミズオオニシ","prefecture_code":4},"2054":{"zip_code":"9872054","prefecture":"宮城県","prefecture_kana":"ミヤギケン","city":"栗原市","city_kana":"クリハラシ","town":"高清水沖","town_kana":"タカシミズオキ","prefecture_code":4},"2146":[{"zip_code":"9872146","prefecture":"宮城県","prefecture_kana":"ミヤギケン","city":"栗原市","city_kana":"クリハラシ","town":"高清水乙牧堀","town_kana":"タカシミズオツマキボリ","prefecture_code":4},{"zip_code":"9872146","prefecture":"宮城県","prefecture_kana":"ミヤギケン","city":"栗原市","city_kana":"クリハラシ","town":"高清水甲牧堀","town_kana":"タカシミズコウマキボリ","prefecture_code":4},{"zip_code":"9872146","prefecture":"宮城県","prefecture_kana":"ミヤギケン","city":"栗原市","city_kana":"クリハラシ","town":"高清水丁牧堀","town_kana":"タカシミズテイマキボリ","prefecture_code":4},{"zip_code":"9872146","prefecture":"宮城県","prefecture_kana":"ミヤギケン","city":"栗原市","city_kana":"クリハラシ","town":"高清水丙牧堀","town_kana":"タカシミズヘイマキボリ","prefecture_code":4}],"2188":{"zip_code":"9872188","prefecture":"宮城県","prefecture_kana":"ミヤギケン","city":"栗原市","city_kana":"クリハラシ","town":"高清水小山下","town_kana":"タカシミズオヤマシタ","prefecture_code":4},"2024":{"zip_code":"9872024","prefecture":"宮城県","prefecture_kana":"ミヤギケン","city":"栗原市","city_kana":"クリハラシ","town":"高清水小山田","town_kana":"タカシミズオヤマダ","prefecture_code":4},"2113":{"zip_code":"9872113","prefecture":"宮城県","prefecture_kana":"ミヤギケン","city":"栗原市","city_kana":"クリハラシ","town":"高清水折木","town_kana":"タカシミズオリキ","prefecture_code":4},"2143":{"zip_code":"9872143","prefecture":"宮城県","prefecture_kana":"ミヤギケン","city":"栗原市","city_kana":"クリハラシ","town":"高清水覚満寺","town_kana":"タカシミズカクマンジ","prefecture_code":4},"2111":{"zip_code":"9872111","prefecture":"宮城県","prefecture_kana":"ミヤギケン","city":"栗原市","city_kana":"クリハラシ","town":"高清水影の沢","town_kana":"タカシミズカゲノサワ","prefecture_code":4},"2013":{"zip_code":"9872013","prefecture":"宮城県","prefecture_kana":"ミヤギケン","city":"栗原市","city_kana":"クリハラシ","town":"高清水欠屋敷","town_kana":"タカシミズカケヤシキ","prefecture_code":4},"2173":{"zip_code":"9872173","prefecture":"宮城県","prefecture_kana":"ミヤギケン","city":"栗原市","city_kana":"クリハラシ","town":"高清水桂葉","town_kana":"タカシミズカツラハ","prefecture_code":4},"2001":{"zip_code":"9872001","prefecture":"宮城県","prefecture_kana":"ミヤギケン","city":"栗原市","city_kana":"クリハラシ","town":"高清水蟹沢尻","town_kana":"タカシミズカニサワシリ","prefecture_code":4},"2112":{"zip_code":"9872112","prefecture":"宮城県","prefecture_kana":"ミヤギケン","city":"栗原市","city_kana":"クリハラシ","town":"高清水上折木","town_kana":"タカシミズカミオリキ","prefecture_code":4},"2174":{"zip_code":"9872174","prefecture":"宮城県","prefecture_kana":"ミヤギケン","city":"栗原市","city_kana":"クリハラシ","town":"高清水上桂葉","town_kana":"タカシミズカミカツラハ","prefecture_code":4},"2121":{"zip_code":"9872121","prefecture":"宮城県","prefecture_kana":"ミヤギケン","city":"栗原市","city_kana":"クリハラシ","town":"高清水上佐野","town_kana":"タカシミズカミサノ","prefecture_code":4},"2141":[{"zip_code":"9872141","prefecture":"宮城県","prefecture_kana":"ミヤギケン","city":"栗原市","city_kana":"クリハラシ","town":"高清水上外沢田","town_kana":"タカシミズカミソトサワタ","prefecture_code":4},{"zip_code":"9872141","prefecture":"宮城県","prefecture_kana":"ミヤギケン","city":"栗原市","city_kana":"クリハラシ","town":"高清水北甚六原","town_kana":"タカシミズキタジンロクハラ","prefecture_code":4}],"2158":[{"zip_code":"9872158","prefecture":"宮城県","prefecture_kana":"ミヤギケン","city":"栗原市","city_kana":"クリハラシ","town":"高清水上萩田","town_kana":"タカシミズカミハギタ","prefecture_code":4},{"zip_code":"9872158","prefecture":"宮城県","prefecture_kana":"ミヤギケン","city":"栗原市","city_kana":"クリハラシ","town":"高清水新中の茎","town_kana":"タカシミズシンナカノクキ","prefecture_code":4},{"zip_code":"9872158","prefecture":"宮城県","prefecture_kana":"ミヤギケン","city":"栗原市","city_kana":"クリハラシ","town":"高清水本道","town_kana":"タカシミズモトミチ","prefecture_code":4}],"2155":{"zip_code":"9872155","prefecture":"宮城県","prefecture_kana":"ミヤギケン","city":"栗原市","city_kana":"クリハラシ","town":"高清水萱刈","town_kana":"タカシミズカヤカリ","prefecture_code":4},"2147":[{"zip_code":"9872147","prefecture":"宮城県","prefecture_kana":"ミヤギケン","city":"栗原市","city_kana":"クリハラシ","town":"高清水観音沢","town_kana":"タカシミズカンノンザワ","prefecture_code":4},{"zip_code":"9872147","prefecture":"宮城県","prefecture_kana":"ミヤギケン","city":"栗原市","city_kana":"クリハラシ","town":"高清水観音堂","town_kana":"タカシミズカンノンドウ","prefecture_code":4}],"2021":{"zip_code":"9872021","prefecture":"宮城県","prefecture_kana":"ミヤギケン","city":"栗原市","city_kana":"クリハラシ","town":"高清水神原","town_kana":"タカシミズカンパラ","prefecture_code":4},"2153":{"zip_code":"9872153","prefecture":"宮城県","prefecture_kana":"ミヤギケン","city":"栗原市","city_kana":"クリハラシ","town":"高清水北原","town_kana":"タカシミズキタハラ","prefecture_code":4},"2011":{"zip_code":"9872011","prefecture":"宮城県","prefecture_kana":"ミヤギケン","city":"栗原市","city_kana":"クリハラシ","town":"高清水京の沢","town_kana":"タカシミズキョウノサワ","prefecture_code":4},"2026":{"zip_code":"9872026","prefecture":"宮城県","prefecture_kana":"ミヤギケン","city":"栗原市","city_kana":"クリハラシ","town":"高清水熊野","town_kana":"タカシミズクマノ","prefecture_code":4},"2023":{"zip_code":"9872023","prefecture":"宮城県","prefecture_kana":"ミヤギケン","city":"栗原市","city_kana":"クリハラシ","town":"高清水熊野堂","town_kana":"タカシミズクマノドウ","prefecture_code":4},"2175":{"zip_code":"9872175","prefecture":"宮城県","prefecture_kana":"ミヤギケン","city":"栗原市","city_kana":"クリハラシ","town":"高清水五輪","town_kana":"タカシミズゴリン","prefecture_code":4},"2133":{"zip_code":"9872133","prefecture":"宮城県","prefecture_kana":"ミヤギケン","city":"栗原市","city_kana":"クリハラシ","town":"高清水桜丁","town_kana":"タカシミズサクラチョウ","prefecture_code":4},"2055":{"zip_code":"9872055","prefecture":"宮城県","prefecture_kana":"ミヤギケン","city":"栗原市","city_kana":"クリハラシ","town":"高清水五月田","town_kana":"タカシミズサツキダ","prefecture_code":4},"2127":[{"zip_code":"9872127","prefecture":"宮城県","prefecture_kana":"ミヤギケン","city":"栗原市","city_kana":"クリハラシ","town":"高清水佐野沢田","town_kana":"タカシミズサノサワダ","prefecture_code":4},{"zip_code":"9872127","prefecture":"宮城県","prefecture_kana":"ミヤギケン","city":"栗原市","city_kana":"クリハラシ","town":"高清水太子堂","town_kana":"タカシミズタイシドウ","prefecture_code":4}],"2128":{"zip_code":"9872128","prefecture":"宮城県","prefecture_kana":"ミヤギケン","city":"栗原市","city_kana":"クリハラシ","town":"高清水佐野丁","town_kana":"タカシミズサノチョウ","prefecture_code":4},"2189":{"zip_code":"9872189","prefecture":"宮城県","prefecture_kana":"ミヤギケン","city":"栗原市","city_kana":"クリハラシ","town":"高清水下町","town_kana":"タカシミズシタマチ","prefecture_code":4},"2114":{"zip_code":"9872114","prefecture":"宮城県","prefecture_kana":"ミヤギケン","city":"栗原市","city_kana":"クリハラシ","town":"高清水下折木","town_kana":"タカシミズシモオリキ","prefecture_code":4},"2124":{"zip_code":"9872124","prefecture":"宮城県","prefecture_kana":"ミヤギケン","city":"栗原市","city_kana":"クリハラシ","town":"高清水下佐野","town_kana":"タカシミズシモサノ","prefecture_code":4},"2125":{"zip_code":"9872125","prefecture":"宮城県","prefecture_kana":"ミヤギケン","city":"栗原市","city_kana":"クリハラシ","town":"高清水十二の神","town_kana":"タカシミズジュウニノカミ","prefecture_code":4},"2042":{"zip_code":"9872042","prefecture":"宮城県","prefecture_kana":"ミヤギケン","city":"栗原市","city_kana":"クリハラシ","town":"高清水宿の沢","town_kana":"タカシミズシュクノサワ","prefecture_code":4},"2163":{"zip_code":"9872163","prefecture":"宮城県","prefecture_kana":"ミヤギケン","city":"栗原市","city_kana":"クリハラシ","town":"高清水勝負ケ町","town_kana":"タカシミズショウブガマチ","prefecture_code":4},"2177":{"zip_code":"9872177","prefecture":"宮城県","prefecture_kana":"ミヤギケン","city":"栗原市","city_kana":"クリハラシ","town":"高清水新桂葉","town_kana":"タカシミズシンカツラハ","prefecture_code":4},"2123":{"zip_code":"9872123","prefecture":"宮城県","prefecture_kana":"ミヤギケン","city":"栗原市","city_kana":"クリハラシ","town":"高清水新佐野","town_kana":"タカシミズシンサノ","prefecture_code":4},"2164":{"zip_code":"9872164","prefecture":"宮城県","prefecture_kana":"ミヤギケン","city":"栗原市","city_kana":"クリハラシ","town":"高清水新神明","town_kana":"タカシミズシンシンメイ","prefecture_code":4},"2031":{"zip_code":"9872031","prefecture":"宮城県","prefecture_kana":"ミヤギケン","city":"栗原市","city_kana":"クリハラシ","town":"高清水新田","town_kana":"タカシミズシンデン","prefecture_code":4},"2161":{"zip_code":"9872161","prefecture":"宮城県","prefecture_kana":"ミヤギケン","city":"栗原市","city_kana":"クリハラシ","town":"高清水神明","town_kana":"タカシミズシンメイ","prefecture_code":4},"2156":{"zip_code":"9872156","prefecture":"宮城県","prefecture_kana":"ミヤギケン","city":"栗原市","city_kana":"クリハラシ","town":"高清水千神","town_kana":"タカシミズセンガミ","prefecture_code":4},"2184":{"zip_code":"9872184","prefecture":"宮城県","prefecture_kana":"ミヤギケン","city":"栗原市","city_kana":"クリハラシ","town":"高清水善光寺","town_kana":"タカシミズゼンコウジ","prefecture_code":4},"2183":{"zip_code":"9872183","prefecture":"宮城県","prefecture_kana":"ミヤギケン","city":"栗原市","city_kana":"クリハラシ","town":"高清水袖山","town_kana":"タカシミズソデヤマ","prefecture_code":4},"2142":{"zip_code":"9872142","prefecture":"宮城県","prefecture_kana":"ミヤギケン","city":"栗原市","city_kana":"クリハラシ","town":"高清水外沢田","town_kana":"タカシミズソトサワダ","prefecture_code":4},"2126":{"zip_code":"9872126","prefecture":"宮城県","prefecture_kana":"ミヤギケン","city":"栗原市","city_kana":"クリハラシ","town":"高清水大寺","town_kana":"タカシミズダイテラ","prefecture_code":4},"2144":{"zip_code":"9872144","prefecture":"宮城県","prefecture_kana":"ミヤギケン","city":"栗原市","city_kana":"クリハラシ","town":"高清水台町","town_kana":"タカシミズダイマチ","prefecture_code":4},"2171":{"zip_code":"9872171","prefecture":"宮城県","prefecture_kana":"ミヤギケン","city":"栗原市","city_kana":"クリハラシ","town":"高清水長福寺","town_kana":"タカシミズチョウフクジ","prefecture_code":4},"2044":{"zip_code":"9872044","prefecture":"宮城県","prefecture_kana":"ミヤギケン","city":"栗原市","city_kana":"クリハラシ","town":"高清水堤下","town_kana":"タカシミズツツミシタ","prefecture_code":4},"2162":{"zip_code":"9872162","prefecture":"宮城県","prefecture_kana":"ミヤギケン","city":"栗原市","city_kana":"クリハラシ","town":"高清水丁神明","town_kana":"タカシミズテイシンメイ","prefecture_code":4},"2043":{"zip_code":"9872043","prefecture":"宮城県","prefecture_kana":"ミヤギケン","city":"栗原市","city_kana":"クリハラシ","town":"高清水手取","town_kana":"タカシミズテドリ","prefecture_code":4},"2152":{"zip_code":"9872152","prefecture":"宮城県","prefecture_kana":"ミヤギケン","city":"栗原市","city_kana":"クリハラシ","town":"高清水天王沢","town_kana":"タカシミズテンノウサワ","prefecture_code":4},"2182":{"zip_code":"9872182","prefecture":"宮城県","prefecture_kana":"ミヤギケン","city":"栗原市","city_kana":"クリハラシ","town":"高清水中里","town_kana":"タカシミズナカザト","prefecture_code":4},"2122":{"zip_code":"9872122","prefecture":"宮城県","prefecture_kana":"ミヤギケン","city":"栗原市","city_kana":"クリハラシ","town":"高清水中佐野","town_kana":"タカシミズナカサノ","prefecture_code":4},"2157":{"zip_code":"9872157","prefecture":"宮城県","prefecture_kana":"ミヤギケン","city":"栗原市","city_kana":"クリハラシ","town":"高清水中の茎","town_kana":"タカシミズナカノクキ","prefecture_code":4},"2012":{"zip_code":"9872012","prefecture":"宮城県","prefecture_kana":"ミヤギケン","city":"栗原市","city_kana":"クリハラシ","town":"高清水中の沢","town_kana":"タカシミズナカノサワ","prefecture_code":4},"2186":{"zip_code":"9872186","prefecture":"宮城県","prefecture_kana":"ミヤギケン","city":"栗原市","city_kana":"クリハラシ","town":"高清水中町","town_kana":"タカシミズナカマチ","prefecture_code":4},"2176":{"zip_code":"9872176","prefecture":"宮城県","prefecture_kana":"ミヤギケン","city":"栗原市","city_kana":"クリハラシ","town":"高清水西善光寺","town_kana":"タカシミズニシゼンコウジ","prefecture_code":4},"2045":{"zip_code":"9872045","prefecture":"宮城県","prefecture_kana":"ミヤギケン","city":"栗原市","city_kana":"クリハラシ","town":"高清水西手取","town_kana":"タカシミズニシテトリ","prefecture_code":4},"2015":{"zip_code":"9872015","prefecture":"宮城県","prefecture_kana":"ミヤギケン","city":"栗原市","city_kana":"クリハラシ","town":"高清水西中里","town_kana":"タカシミズニシナカザト","prefecture_code":4},"2005":{"zip_code":"9872005","prefecture":"宮城県","prefecture_kana":"ミヤギケン","city":"栗原市","city_kana":"クリハラシ","town":"高清水忽滑沢","town_kana":"タカシミズヌカリサワ","prefecture_code":4},"2022":{"zip_code":"9872022","prefecture":"宮城県","prefecture_kana":"ミヤギケン","city":"栗原市","city_kana":"クリハラシ","town":"高清水原","town_kana":"タカシミズハラ","prefecture_code":4},"2151":[{"zip_code":"9872151","prefecture":"宮城県","prefecture_kana":"ミヤギケン","city":"栗原市","city_kana":"クリハラシ","town":"高清水東浦","town_kana":"タカシミズヒガシウラ","prefecture_code":4},{"zip_code":"9872151","prefecture":"宮城県","prefecture_kana":"ミヤギケン","city":"栗原市","city_kana":"クリハラシ","town":"高清水仰ケ返り","town_kana":"タカシミズムケガエリ","prefecture_code":4}],"2181":{"zip_code":"9872181","prefecture":"宮城県","prefecture_kana":"ミヤギケン","city":"栗原市","city_kana":"クリハラシ","town":"高清水東善光寺","town_kana":"タカシミズヒガシゼンコウジ","prefecture_code":4},"2132":{"zip_code":"9872132","prefecture":"宮城県","prefecture_kana":"ミヤギケン","city":"栗原市","city_kana":"クリハラシ","town":"高清水東館","town_kana":"タカシミズヒガシタテ","prefecture_code":4},"2028":{"zip_code":"9872028","prefecture":"宮城県","prefecture_kana":"ミヤギケン","city":"栗原市","city_kana":"クリハラシ","town":"高清水日向","town_kana":"タカシミズヒナタ","prefecture_code":4},"2003":{"zip_code":"9872003","prefecture":"宮城県","prefecture_kana":"ミヤギケン","city":"栗原市","city_kana":"クリハラシ","town":"高清水福塚","town_kana":"タカシミズフクツカ","prefecture_code":4},"2053":{"zip_code":"9872053","prefecture":"宮城県","prefecture_kana":"ミヤギケン","city":"栗原市","city_kana":"クリハラシ","town":"高清水渕際","town_kana":"タカシミズフチギワ","prefecture_code":4},"2159":{"zip_code":"9872159","prefecture":"宮城県","prefecture_kana":"ミヤギケン","city":"栗原市","city_kana":"クリハラシ","town":"高清水松の木沢田","town_kana":"タカシミズマツノキサワダ","prefecture_code":4},"2172":{"zip_code":"9872172","prefecture":"宮城県","prefecture_kana":"ミヤギケン","city":"栗原市","city_kana":"クリハラシ","town":"高清水松原","town_kana":"タカシミズマツバラ","prefecture_code":4},"2131":{"zip_code":"9872131","prefecture":"宮城県","prefecture_kana":"ミヤギケン","city":"栗原市","city_kana":"クリハラシ","town":"高清水水の手","town_kana":"タカシミズミズノテ","prefecture_code":4},"2036":{"zip_code":"9872036","prefecture":"宮城県","prefecture_kana":"ミヤギケン","city":"栗原市","city_kana":"クリハラシ","town":"高清水南沢","town_kana":"タカシミズミナミサワ","prefecture_code":4},"2154":{"zip_code":"9872154","prefecture":"宮城県","prefecture_kana":"ミヤギケン","city":"栗原市","city_kana":"クリハラシ","town":"高清水南原","town_kana":"タカシミズミナミハラ","prefecture_code":4},"2051":{"zip_code":"9872051","prefecture":"宮城県","prefecture_kana":"ミヤギケン","city":"栗原市","city_kana":"クリハラシ","town":"高清水三森","town_kana":"タカシミズミモリ","prefecture_code":4},"2052":{"zip_code":"9872052","prefecture":"宮城県","prefecture_kana":"ミヤギケン","city":"栗原市","city_kana":"クリハラシ","town":"高清水宮脇","town_kana":"タカシミズミヤノワキ","prefecture_code":4},"2034":{"zip_code":"9872034","prefecture":"宮城県","prefecture_kana":"ミヤギケン","city":"栗原市","city_kana":"クリハラシ","town":"高清水明官","town_kana":"タカシミズミョウカン","prefecture_code":4},"2145":{"zip_code":"9872145","prefecture":"宮城県","prefecture_kana":"ミヤギケン","city":"栗原市","city_kana":"クリハラシ","town":"高清水向野","town_kana":"タカシミズムカイノ","prefecture_code":4},"2187":{"zip_code":"9872187","prefecture":"宮城県","prefecture_kana":"ミヤギケン","city":"栗原市","city_kana":"クリハラシ","town":"高清水本町","town_kana":"タカシミズモトマチ","prefecture_code":4},"2016":{"zip_code":"9872016","prefecture":"宮城県","prefecture_kana":"ミヤギケン","city":"栗原市","city_kana":"クリハラシ","town":"高清水茂路具多","town_kana":"タカシミズモログタ","prefecture_code":4},"2002":{"zip_code":"9872002","prefecture":"宮城県","prefecture_kana":"ミヤギケン","city":"栗原市","city_kana":"クリハラシ","town":"高清水八重壁","town_kana":"タカシミズヤエカベ","prefecture_code":4},"2041":{"zip_code":"9872041","prefecture":"宮城県","prefecture_kana":"ミヤギケン","city":"栗原市","city_kana":"クリハラシ","town":"高清水要の森","town_kana":"タカシミズヨウノモリ","prefecture_code":4},"2032":{"zip_code":"9872032","prefecture":"宮城県","prefecture_kana":"ミヤギケン","city":"栗原市","city_kana":"クリハラシ","town":"高清水横手","town_kana":"タカシミズヨコテ","prefecture_code":4},"2116":{"zip_code":"9872116","prefecture":"宮城県","prefecture_kana":"ミヤギケン","city":"栗原市","city_kana":"クリハラシ","town":"高清水来光沢","town_kana":"タカシミズライコウザワ","prefecture_code":4},"2027":{"zip_code":"9872027","prefecture":"宮城県","prefecture_kana":"ミヤギケン","city":"栗原市","city_kana":"クリハラシ","town":"高清水若宮","town_kana":"タカシミズワカミヤ","prefecture_code":4},"2253":{"zip_code":"9872253","prefecture":"宮城県","prefecture_kana":"ミヤギケン","city":"栗原市","city_kana":"クリハラシ","town":"築館青野","town_kana":"ツキダテアオノ","prefecture_code":4},"2231":{"zip_code":"9872231","prefecture":"宮城県","prefecture_kana":"ミヤギケン","city":"栗原市","city_kana":"クリハラシ","town":"築館赤坂","town_kana":"ツキダテアカサカ","prefecture_code":4},"2245":{"zip_code":"9872245","prefecture":"宮城県","prefecture_kana":"ミヤギケン","city":"栗原市","city_kana":"クリハラシ","town":"築館荒田沢","town_kana":"ツキダテアラタザワ","prefecture_code":4},"2216":{"zip_code":"9872216","prefecture":"宮城県","prefecture_kana":"ミヤギケン","city":"栗原市","city_kana":"クリハラシ","town":"築館伊豆","town_kana":"ツキダテイズ","prefecture_code":4},"2271":{"zip_code":"9872271","prefecture":"宮城県","prefecture_kana":"ミヤギケン","city":"栗原市","city_kana":"クリハラシ","town":"築館芋埣","town_kana":"ツキダテイモゾネ","prefecture_code":4},"2214":{"zip_code":"9872214","prefecture":"宮城県","prefecture_kana":"ミヤギケン","city":"栗原市","city_kana":"クリハラシ","town":"築館内沢","town_kana":"ツキダテウチサワ","prefecture_code":4},"2213":{"zip_code":"9872213","prefecture":"宮城県","prefecture_kana":"ミヤギケン","city":"栗原市","city_kana":"クリハラシ","town":"築館内南沢","town_kana":"ツキダテウチミナミザワ","prefecture_code":4},"2225":{"zip_code":"9872225","prefecture":"宮城県","prefecture_kana":"ミヤギケン","city":"栗原市","city_kana":"クリハラシ","town":"築館太田","town_kana":"ツキダテオオタ","prefecture_code":4},"2236":{"zip_code":"9872236","prefecture":"宮城県","prefecture_kana":"ミヤギケン","city":"栗原市","city_kana":"クリハラシ","town":"築館蟹沢","town_kana":"ツキダテカニサワ","prefecture_code":4},"2246":{"zip_code":"9872246","prefecture":"宮城県","prefecture_kana":"ミヤギケン","city":"栗原市","city_kana":"クリハラシ","town":"築館上高森","town_kana":"ツキダテカミタカモリ","prefecture_code":4},"2275":{"zip_code":"9872275","prefecture":"宮城県","prefecture_kana":"ミヤギケン","city":"栗原市","city_kana":"クリハラシ","town":"築館上宮野","town_kana":"ツキダテカミミヤノ","prefecture_code":4},"2262":{"zip_code":"9872262","prefecture":"宮城県","prefecture_kana":"ミヤギケン","city":"栗原市","city_kana":"クリハラシ","town":"築館唐竹林","town_kana":"ツキダテカラタケバヤシ","prefecture_code":4},"2228":{"zip_code":"9872228","prefecture":"宮城県","prefecture_kana":"ミヤギケン","city":"栗原市","city_kana":"クリハラシ","town":"築館川添","town_kana":"ツキダテカワゾエ","prefecture_code":4},"2212":{"zip_code":"9872212","prefecture":"宮城県","prefecture_kana":"ミヤギケン","city":"栗原市","city_kana":"クリハラシ","town":"築館木戸","town_kana":"ツキダテキド","prefecture_code":4},"2261":{"zip_code":"9872261","prefecture":"宮城県","prefecture_kana":"ミヤギケン","city":"栗原市","city_kana":"クリハラシ","town":"築館久伝","town_kana":"ツキダテキュウデン","prefecture_code":4},"2204":{"zip_code":"9872204","prefecture":"宮城県","prefecture_kana":"ミヤギケン","city":"栗原市","city_kana":"クリハラシ","town":"築館黒瀬","town_kana":"ツキダテクロセ","prefecture_code":4},"2211":{"zip_code":"9872211","prefecture":"宮城県","prefecture_kana":"ミヤギケン","city":"栗原市","city_kana":"クリハラシ","town":"築館源光","town_kana":"ツキダテゲンコウ","prefecture_code":4},"2273":{"zip_code":"9872273","prefecture":"宮城県","prefecture_kana":"ミヤギケン","city":"栗原市","city_kana":"クリハラシ","town":"築館左足","town_kana":"ツキダテコエダテ","prefecture_code":4},"2265":[{"zip_code":"9872265","prefecture":"宮城県","prefecture_kana":"ミヤギケン","city":"栗原市","city_kana":"クリハラシ","town":"築館小淵西","town_kana":"ツキダテコブチニシ","prefecture_code":4},{"zip_code":"9872265","prefecture":"宮城県","prefecture_kana":"ミヤギケン","city":"栗原市","city_kana":"クリハラシ","town":"築館小淵東","town_kana":"ツキダテコブチヒガシ","prefecture_code":4},{"zip_code":"9872265","prefecture":"宮城県","prefecture_kana":"ミヤギケン","city":"栗原市","city_kana":"クリハラシ","town":"築館境田","town_kana":"ツキダテサカイダ","prefecture_code":4},{"zip_code":"9872265","prefecture":"宮城県","prefecture_kana":"ミヤギケン","city":"栗原市","city_kana":"クリハラシ","town":"築館佐野原","town_kana":"ツキダテサノハラ","prefecture_code":4}],"2232":{"zip_code":"9872232","prefecture":"宮城県","prefecture_kana":"ミヤギケン","city":"栗原市","city_kana":"クリハラシ","town":"築館沢入","town_kana":"ツキダテサワイリ","prefecture_code":4},"2247":{"zip_code":"9872247","prefecture":"宮城県","prefecture_kana":"ミヤギケン","city":"栗原市","city_kana":"クリハラシ","town":"築館下高森","town_kana":"ツキダテシモタカモリ","prefecture_code":4},"2221":{"zip_code":"9872221","prefecture":"宮城県","prefecture_kana":"ミヤギケン","city":"栗原市","city_kana":"クリハラシ","town":"築館下待井","town_kana":"ツキダテシモマチイ","prefecture_code":4},"2203":{"zip_code":"9872203","prefecture":"宮城県","prefecture_kana":"ミヤギケン","city":"栗原市","city_kana":"クリハラシ","town":"築館下宮野","town_kana":"ツキダテシモミヤノ","prefecture_code":4},"2202":{"zip_code":"9872202","prefecture":"宮城県","prefecture_kana":"ミヤギケン","city":"栗原市","city_kana":"クリハラシ","town":"築館城生野","town_kana":"ツキダテジョウノ","prefecture_code":4},"2263":[{"zip_code":"9872263","prefecture":"宮城県","prefecture_kana":"ミヤギケン","city":"栗原市","city_kana":"クリハラシ","town":"築館新田","town_kana":"ツキダテシンデン","prefecture_code":4},{"zip_code":"9872263","prefecture":"宮城県","prefecture_kana":"ミヤギケン","city":"栗原市","city_kana":"クリハラシ","town":"築館薬師ケ丘","town_kana":"ツキダテヤクシガオカ","prefecture_code":4}],"2274":[{"zip_code":"9872274","prefecture":"宮城県","prefecture_kana":"ミヤギケン","city":"栗原市","city_kana":"クリハラシ","town":"築館新成田西","town_kana":"ツキダテシンナリタニシ","prefecture_code":4},{"zip_code":"9872274","prefecture":"宮城県","prefecture_kana":"ミヤギケン","city":"栗原市","city_kana":"クリハラシ","town":"築館成田","town_kana":"ツキダテナリタ","prefecture_code":4}],"2234":{"zip_code":"9872234","prefecture":"宮城県","prefecture_kana":"ミヤギケン","city":"栗原市","city_kana":"クリハラシ","town":"築館新八ツ沢","town_kana":"ツキダテシンヤツザワ","prefecture_code":4},"2222":{"zip_code":"9872222","prefecture":"宮城県","prefecture_kana":"ミヤギケン","city":"栗原市","city_kana":"クリハラシ","town":"築館外南沢","town_kana":"ツキダテソトミナミザワ","prefecture_code":4},"2215":{"zip_code":"9872215","prefecture":"宮城県","prefecture_kana":"ミヤギケン","city":"栗原市","city_kana":"クリハラシ","town":"築館高田","town_kana":"ツキダテタカダ","prefecture_code":4},"2242":{"zip_code":"9872242","prefecture":"宮城県","prefecture_kana":"ミヤギケン","city":"栗原市","city_kana":"クリハラシ","town":"築館館沢","town_kana":"ツキダテタテサワ","prefecture_code":4},"2241":{"zip_code":"9872241","prefecture":"宮城県","prefecture_kana":"ミヤギケン","city":"栗原市","city_kana":"クリハラシ","town":"築館館下","town_kana":"ツキダテタテシタ","prefecture_code":4},"2235":{"zip_code":"9872235","prefecture":"宮城県","prefecture_kana":"ミヤギケン","city":"栗原市","city_kana":"クリハラシ","town":"築館築館","town_kana":"ツキダテツキダテ","prefecture_code":4},"2233":{"zip_code":"9872233","prefecture":"宮城県","prefecture_kana":"ミヤギケン","city":"栗原市","city_kana":"クリハラシ","town":"築館照越","town_kana":"ツキダテテルコシ","prefecture_code":4},"2201":{"zip_code":"9872201","prefecture":"宮城県","prefecture_kana":"ミヤギケン","city":"栗原市","city_kana":"クリハラシ","town":"築館富","town_kana":"ツキダテトミ","prefecture_code":4},"2272":{"zip_code":"9872272","prefecture":"宮城県","prefecture_kana":"ミヤギケン","city":"栗原市","city_kana":"クリハラシ","town":"築館留場","town_kana":"ツキダテトメバ","prefecture_code":4},"2244":{"zip_code":"9872244","prefecture":"宮城県","prefecture_kana":"ミヤギケン","city":"栗原市","city_kana":"クリハラシ","town":"築館西小山","town_kana":"ツキダテニシコヤマ","prefecture_code":4},"2223":{"zip_code":"9872223","prefecture":"宮城県","prefecture_kana":"ミヤギケン","city":"栗原市","city_kana":"クリハラシ","town":"築館萩沢","town_kana":"ツキダテハギサワ","prefecture_code":4},"2243":[{"zip_code":"9872243","prefecture":"宮城県","prefecture_kana":"ミヤギケン","city":"栗原市","city_kana":"クリハラシ","town":"築館萩沢東","town_kana":"ツキダテハギサワヒガシ","prefecture_code":4},{"zip_code":"9872243","prefecture":"宮城県","prefecture_kana":"ミヤギケン","city":"栗原市","city_kana":"クリハラシ","town":"築館萩沢南","town_kana":"ツキダテハギサワミナミ","prefecture_code":4}],"2227":{"zip_code":"9872227","prefecture":"宮城県","prefecture_kana":"ミヤギケン","city":"栗原市","city_kana":"クリハラシ","town":"築館光屋敷","town_kana":"ツキダテヒカリヤシキ","prefecture_code":4},"2251":{"zip_code":"9872251","prefecture":"宮城県","prefecture_kana":"ミヤギケン","city":"栗原市","city_kana":"クリハラシ","town":"築館藤木","town_kana":"ツキダテフジキ","prefecture_code":4},"2205":{"zip_code":"9872205","prefecture":"宮城県","prefecture_kana":"ミヤギケン","city":"栗原市","city_kana":"クリハラシ","town":"築館宮野中央","town_kana":"ツキダテミヤノチュウオウ","prefecture_code":4},"2252":{"zip_code":"9872252","prefecture":"宮城県","prefecture_kana":"ミヤギケン","city":"栗原市","city_kana":"クリハラシ","town":"築館薬師","town_kana":"ツキダテヤクシ","prefecture_code":4},"2264":{"zip_code":"9872264","prefecture":"宮城県","prefecture_kana":"ミヤギケン","city":"栗原市","city_kana":"クリハラシ","town":"築館薬師台","town_kana":"ツキダテヤクシダイ","prefecture_code":4},"2226":{"zip_code":"9872226","prefecture":"宮城県","prefecture_kana":"ミヤギケン","city":"栗原市","city_kana":"クリハラシ","town":"築館八沢","town_kana":"ツキダテヤサワ","prefecture_code":4},"2224":{"zip_code":"9872224","prefecture":"宮城県","prefecture_kana":"ミヤギケン","city":"栗原市","city_kana":"クリハラシ","town":"築館横須賀","town_kana":"ツキダテヨコスカ","prefecture_code":4},"2512":{"zip_code":"9872512","prefecture":"宮城県","prefecture_kana":"ミヤギケン","city":"栗原市","city_kana":"クリハラシ","town":"花山草木沢","town_kana":"ハナヤマクサキサワ","prefecture_code":4},"2511":{"zip_code":"9872511","prefecture":"宮城県","prefecture_kana":"ミヤギケン","city":"栗原市","city_kana":"クリハラシ","town":"花山本沢","town_kana":"ハナヤマホンサワ","prefecture_code":4},"1303":{"zip_code":"9871303","prefecture":"宮城県","prefecture_kana":"ミヤギケン","city":"大崎市","city_kana":"オオサキシ","town":"松山金谷","town_kana":"マツヤマカナヤ","prefecture_code":4},"1306":{"zip_code":"9871306","prefecture":"宮城県","prefecture_kana":"ミヤギケン","city":"大崎市","city_kana":"オオサキシ","town":"松山下伊場野","town_kana":"マツヤマシモイバノ","prefecture_code":4},"1301":{"zip_code":"9871301","prefecture":"宮城県","prefecture_kana":"ミヤギケン","city":"大崎市","city_kana":"オオサキシ","town":"松山須摩屋","town_kana":"マツヤマスマヤ","prefecture_code":4},"1304":{"zip_code":"9871304","prefecture":"宮城県","prefecture_kana":"ミヤギケン","city":"大崎市","city_kana":"オオサキシ","town":"松山千石","town_kana":"マツヤマセンゴク","prefecture_code":4},"1305":{"zip_code":"9871305","prefecture":"宮城県","prefecture_kana":"ミヤギケン","city":"大崎市","city_kana":"オオサキシ","town":"松山次橋","town_kana":"マツヤマツギハシ","prefecture_code":4},"1302":{"zip_code":"9871302","prefecture":"宮城県","prefecture_kana":"ミヤギケン","city":"大崎市","city_kana":"オオサキシ","town":"松山長尾","town_kana":"マツヤマナガオ","prefecture_code":4},"0100":{"zip_code":"9870100","prefecture":"宮城県","prefecture_kana":"ミヤギケン","city":"遠田郡涌谷町","city_kana":"トオダグンワクヤチョウ","town":"","town_kana":"","prefecture_code":4},"0133":[{"zip_code":"9870133","prefecture":"宮城県","prefecture_kana":"ミヤギケン","city":"遠田郡涌谷町","city_kana":"トオダグンワクヤチョウ","town":"赤間屋敷","town_kana":"アカマヤシキ","prefecture_code":4},{"zip_code":"9870133","prefecture":"宮城県","prefecture_kana":"ミヤギケン","city":"遠田郡涌谷町","city_kana":"トオダグンワクヤチョウ","town":"掃部沖名","town_kana":"カモンオキナ","prefecture_code":4},{"zip_code":"9870133","prefecture":"宮城県","prefecture_kana":"ミヤギケン","city":"遠田郡涌谷町","city_kana":"トオダグンワクヤチョウ","town":"後藤江","town_kana":"ゴトウエ","prefecture_code":4},{"zip_code":"9870133","prefecture":"宮城県","prefecture_kana":"ミヤギケン","city":"遠田郡涌谷町","city_kana":"トオダグンワクヤチョウ","town":"今左衛門沖名","town_kana":"コンザエモンオキナ","prefecture_code":4},{"zip_code":"9870133","prefecture":"宮城県","prefecture_kana":"ミヤギケン","city":"遠田郡涌谷町","city_kana":"トオダグンワクヤチョウ","town":"新田","town_kana":"シンデン","prefecture_code":4},{"zip_code":"9870133","prefecture":"宮城県","prefecture_kana":"ミヤギケン","city":"遠田郡涌谷町","city_kana":"トオダグンワクヤチョウ","town":"関谷沖名","town_kana":"セキヤオキナ","prefecture_code":4},{"zip_code":"9870133","prefecture":"宮城県","prefecture_kana":"ミヤギケン","city":"遠田郡涌谷町","city_kana":"トオダグンワクヤチョウ","town":"台所橋道下","town_kana":"ダイドコロバシミチシタ","prefecture_code":4},{"zip_code":"9870133","prefecture":"宮城県","prefecture_kana":"ミヤギケン","city":"遠田郡涌谷町","city_kana":"トオダグンワクヤチョウ","town":"鷹野橋下中瀬","town_kana":"タカノバシシモナカゼ","prefecture_code":4}],"0145":[{"zip_code":"9870145","prefecture":"宮城県","prefecture_kana":"ミヤギケン","city":"遠田郡涌谷町","city_kana":"トオダグンワクヤチョウ","town":"市道","town_kana":"イチミチ","prefecture_code":4},{"zip_code":"9870145","prefecture":"宮城県","prefecture_kana":"ミヤギケン","city":"遠田郡涌谷町","city_kana":"トオダグンワクヤチョウ","town":"烏鴉","town_kana":"ウガラス","prefecture_code":4},{"zip_code":"9870145","prefecture":"宮城県","prefecture_kana":"ミヤギケン","city":"遠田郡涌谷町","city_kana":"トオダグンワクヤチョウ","town":"尾切","town_kana":"オギレ","prefecture_code":4},{"zip_code":"9870145","prefecture":"宮城県","prefecture_kana":"ミヤギケン","city":"遠田郡涌谷町","city_kana":"トオダグンワクヤチョウ","town":"鞍掛","town_kana":"クラガケ","prefecture_code":4},{"zip_code":"9870145","prefecture":"宮城県","prefecture_kana":"ミヤギケン","city":"遠田郡涌谷町","city_kana":"トオダグンワクヤチョウ","town":"花勝山","town_kana":"ケカツヤマ","prefecture_code":4},{"zip_code":"9870145","prefecture":"宮城県","prefecture_kana":"ミヤギケン","city":"遠田郡涌谷町","city_kana":"トオダグンワクヤチョウ","town":"新尾切","town_kana":"シンオギレ","prefecture_code":4},{"zip_code":"9870145","prefecture":"宮城県","prefecture_kana":"ミヤギケン","city":"遠田郡涌谷町","city_kana":"トオダグンワクヤチョウ","town":"新名鰭","town_kana":"シンナビレ","prefecture_code":4},{"zip_code":"9870145","prefecture":"宮城県","prefecture_kana":"ミヤギケン","city":"遠田郡涌谷町","city_kana":"トオダグンワクヤチョウ","town":"名鰭","town_kana":"ナビレ","prefecture_code":4}],"0136":{"zip_code":"9870136","prefecture":"宮城県","prefecture_kana":"ミヤギケン","city":"遠田郡涌谷町","city_kana":"トオダグンワクヤチョウ","town":"一本柳","town_kana":"イッポンヤナギ","prefecture_code":4},"0284":{"zip_code":"9870284","prefecture":"宮城県","prefecture_kana":"ミヤギケン","city":"遠田郡涌谷町","city_kana":"トオダグンワクヤチョウ","town":"猪岡短台","town_kana":"イノオカタンダイ","prefecture_code":4},"0103":{"zip_code":"9870103","prefecture":"宮城県","prefecture_kana":"ミヤギケン","city":"遠田郡涌谷町","city_kana":"トオダグンワクヤチョウ","town":"裏桜町","town_kana":"ウラサクラチョウ","prefecture_code":4},"0142":{"zip_code":"9870142","prefecture":"宮城県","prefecture_kana":"ミヤギケン","city":"遠田郡涌谷町","city_kana":"トオダグンワクヤチョウ","town":"浦町","town_kana":"ウラマチ","prefecture_code":4},"0165":{"zip_code":"9870165","prefecture":"宮城県","prefecture_kana":"ミヤギケン","city":"遠田郡涌谷町","city_kana":"トオダグンワクヤチョウ","town":"追廻町","town_kana":"オイマワシチョウ","prefecture_code":4},"0282":{"zip_code":"9870282","prefecture":"宮城県","prefecture_kana":"ミヤギケン","city":"遠田郡涌谷町","city_kana":"トオダグンワクヤチョウ","town":"太田","town_kana":"オオタ","prefecture_code":4},"0144":[{"zip_code":"9870144","prefecture":"宮城県","prefecture_kana":"ミヤギケン","city":"遠田郡涌谷町","city_kana":"トオダグンワクヤチョウ","town":"沖新田","town_kana":"オキシンデン","prefecture_code":4},{"zip_code":"9870144","prefecture":"宮城県","prefecture_kana":"ミヤギケン","city":"遠田郡涌谷町","city_kana":"トオダグンワクヤチョウ","town":"小山下","town_kana":"コヤマシタ","prefecture_code":4},{"zip_code":"9870144","prefecture":"宮城県","prefecture_kana":"ミヤギケン","city":"遠田郡涌谷町","city_kana":"トオダグンワクヤチョウ","town":"下新田","town_kana":"シモシンデン","prefecture_code":4},{"zip_code":"9870144","prefecture":"宮城県","prefecture_kana":"ミヤギケン","city":"遠田郡涌谷町","city_kana":"トオダグンワクヤチョウ","town":"砂田","town_kana":"スナタ","prefecture_code":4},{"zip_code":"9870144","prefecture":"宮城県","prefecture_kana":"ミヤギケン","city":"遠田郡涌谷町","city_kana":"トオダグンワクヤチョウ","town":"八百刈","town_kana":"ハッピャクガリ","prefecture_code":4},{"zip_code":"9870144","prefecture":"宮城県","prefecture_kana":"ミヤギケン","city":"遠田郡涌谷町","city_kana":"トオダグンワクヤチョウ","town":"薔薇島","town_kana":"バラジマ","prefecture_code":4}],"0281":{"zip_code":"9870281","prefecture":"宮城県","prefecture_kana":"ミヤギケン","city":"遠田郡涌谷町","city_kana":"トオダグンワクヤチョウ","town":"小里","town_kana":"オサト","prefecture_code":4},"0102":{"zip_code":"9870102","prefecture":"宮城県","prefecture_kana":"ミヤギケン","city":"遠田郡涌谷町","city_kana":"トオダグンワクヤチョウ","town":"表桜町","town_kana":"オモテサクラチョウ","prefecture_code":4},"0171":{"zip_code":"9870171","prefecture":"宮城県","prefecture_kana":"ミヤギケン","city":"遠田郡涌谷町","city_kana":"トオダグンワクヤチョウ","town":"上郡","town_kana":"カミゴオリ","prefecture_code":4},"0164":{"zip_code":"9870164","prefecture":"宮城県","prefecture_kana":"ミヤギケン","city":"遠田郡涌谷町","city_kana":"トオダグンワクヤチョウ","town":"刈萱町","town_kana":"カルカヤチョウ","prefecture_code":4},"0161":{"zip_code":"9870161","prefecture":"宮城県","prefecture_kana":"ミヤギケン","city":"遠田郡涌谷町","city_kana":"トオダグンワクヤチョウ","town":"川原町","town_kana":"カワラマチ","prefecture_code":4},"0134":[{"zip_code":"9870134","prefecture":"宮城県","prefecture_kana":"ミヤギケン","city":"遠田郡涌谷町","city_kana":"トオダグンワクヤチョウ","town":"北五反田","town_kana":"キタゴタンダ","prefecture_code":4},{"zip_code":"9870134","prefecture":"宮城県","prefecture_kana":"ミヤギケン","city":"遠田郡涌谷町","city_kana":"トオダグンワクヤチョウ","town":"九軒","town_kana":"クケン","prefecture_code":4},{"zip_code":"9870134","prefecture":"宮城県","prefecture_kana":"ミヤギケン","city":"遠田郡涌谷町","city_kana":"トオダグンワクヤチョウ","town":"五反田","town_kana":"ゴタンダ","prefecture_code":4},{"zip_code":"9870134","prefecture":"宮城県","prefecture_kana":"ミヤギケン","city":"遠田郡涌谷町","city_kana":"トオダグンワクヤチョウ","town":"佐山木","town_kana":"サヤマギ","prefecture_code":4},{"zip_code":"9870134","prefecture":"宮城県","prefecture_kana":"ミヤギケン","city":"遠田郡涌谷町","city_kana":"トオダグンワクヤチョウ","town":"地不足道","town_kana":"ジブソクミチ","prefecture_code":4},{"zip_code":"9870134","prefecture":"宮城県","prefecture_kana":"ミヤギケン","city":"遠田郡涌谷町","city_kana":"トオダグンワクヤチョウ","town":"西谷地","town_kana":"ニシヤチ","prefecture_code":4},{"zip_code":"9870134","prefecture":"宮城県","prefecture_kana":"ミヤギケン","city":"遠田郡涌谷町","city_kana":"トオダグンワクヤチョウ","town":"二歩","town_kana":"ニブ","prefecture_code":4},{"zip_code":"9870134","prefecture":"宮城県","prefecture_kana":"ミヤギケン","city":"遠田郡涌谷町","city_kana":"トオダグンワクヤチョウ","town":"蘭場谷地","town_kana":"ランバヤチ","prefecture_code":4}],"0131":{"zip_code":"9870131","prefecture":"宮城県","prefecture_kana":"ミヤギケン","city":"遠田郡涌谷町","city_kana":"トオダグンワクヤチョウ","town":"北田","town_kana":"キタダ","prefecture_code":4},"0132":[{"zip_code":"9870132","prefecture":"宮城県","prefecture_kana":"ミヤギケン","city":"遠田郡涌谷町","city_kana":"トオダグンワクヤチョウ","town":"蔵人沖名","town_kana":"クランドオキナ","prefecture_code":4},{"zip_code":"9870132","prefecture":"宮城県","prefecture_kana":"ミヤギケン","city":"遠田郡涌谷町","city_kana":"トオダグンワクヤチョウ","town":"小谷地","town_kana":"コヤチ","prefecture_code":4}],"0112":{"zip_code":"9870112","prefecture":"宮城県","prefecture_kana":"ミヤギケン","city":"遠田郡涌谷町","city_kana":"トオダグンワクヤチョウ","town":"桑木荒","town_kana":"クワノキアラ","prefecture_code":4},"0147":{"zip_code":"9870147","prefecture":"宮城県","prefecture_kana":"ミヤギケン","city":"遠田郡涌谷町","city_kana":"トオダグンワクヤチョウ","town":"下道","town_kana":"ゲドウ","prefecture_code":4},"0151":{"zip_code":"9870151","prefecture":"宮城県","prefecture_kana":"ミヤギケン","city":"遠田郡涌谷町","city_kana":"トオダグンワクヤチョウ","town":"小塚","town_kana":"コヅカ","prefecture_code":4},"0135":[{"zip_code":"9870135","prefecture":"宮城県","prefecture_kana":"ミヤギケン","city":"遠田郡涌谷町","city_kana":"トオダグンワクヤチョウ","town":"小蓋谷地","town_kana":"コブタヤチ","prefecture_code":4},{"zip_code":"9870135","prefecture":"宮城県","prefecture_kana":"ミヤギケン","city":"遠田郡涌谷町","city_kana":"トオダグンワクヤチョウ","town":"三十軒","town_kana":"サンジュッケン","prefecture_code":4}],"0101":{"zip_code":"9870101","prefecture":"宮城県","prefecture_kana":"ミヤギケン","city":"遠田郡涌谷町","city_kana":"トオダグンワクヤチョウ","town":"桜町裏","town_kana":"サクラチョウウラ","prefecture_code":4},"0148":{"zip_code":"9870148","prefecture":"宮城県","prefecture_kana":"ミヤギケン","city":"遠田郡涌谷町","city_kana":"トオダグンワクヤチョウ","town":"三軒屋敷","town_kana":"サンゲンヤシキ","prefecture_code":4},"0113":[{"zip_code":"9870113","prefecture":"宮城県","prefecture_kana":"ミヤギケン","city":"遠田郡涌谷町","city_kana":"トオダグンワクヤチョウ","town":"渋江","town_kana":"シブエ","prefecture_code":4},{"zip_code":"9870113","prefecture":"宮城県","prefecture_kana":"ミヤギケン","city":"遠田郡涌谷町","city_kana":"トオダグンワクヤチョウ","town":"古道下二本杉","town_kana":"フルミチシタニホンスギ","prefecture_code":4}],"0172":{"zip_code":"9870172","prefecture":"宮城県","prefecture_kana":"ミヤギケン","city":"遠田郡涌谷町","city_kana":"トオダグンワクヤチョウ","town":"下郡","town_kana":"シモゴオリ","prefecture_code":4},"0140":{"zip_code":"9870140","prefecture":"宮城県","prefecture_kana":"ミヤギケン","city":"遠田郡涌谷町","city_kana":"トオダグンワクヤチョウ","town":"新沖新田","town_kana":"シンオキシンデン","prefecture_code":4},"0130":{"zip_code":"9870130","prefecture":"宮城県","prefecture_kana":"ミヤギケン","city":"遠田郡涌谷町","city_kana":"トオダグンワクヤチョウ","town":"新九軒前","town_kana":"シンクケンマエ","prefecture_code":4},"0149":{"zip_code":"9870149","prefecture":"宮城県","prefecture_kana":"ミヤギケン","city":"遠田郡涌谷町","city_kana":"トオダグンワクヤチョウ","town":"新後藤江","town_kana":"シンゴトウエ","prefecture_code":4},"0138":{"zip_code":"9870138","prefecture":"宮城県","prefecture_kana":"ミヤギケン","city":"遠田郡涌谷町","city_kana":"トオダグンワクヤチョウ","town":"新境堀下","town_kana":"シンサカイボリシタ","prefecture_code":4},"0139":{"zip_code":"9870139","prefecture":"宮城県","prefecture_kana":"ミヤギケン","city":"遠田郡涌谷町","city_kana":"トオダグンワクヤチョウ","town":"新台所橋","town_kana":"シンダイドコロバシ","prefecture_code":4},"0137":[{"zip_code":"9870137","prefecture":"宮城県","prefecture_kana":"ミヤギケン","city":"遠田郡涌谷町","city_kana":"トオダグンワクヤチョウ","town":"新中島乙","town_kana":"シンナカジマオツ","prefecture_code":4},{"zip_code":"9870137","prefecture":"宮城県","prefecture_kana":"ミヤギケン","city":"遠田郡涌谷町","city_kana":"トオダグンワクヤチョウ","town":"中島","town_kana":"ナカジマ","prefecture_code":4},{"zip_code":"9870137","prefecture":"宮城県","prefecture_kana":"ミヤギケン","city":"遠田郡涌谷町","city_kana":"トオダグンワクヤチョウ","town":"中島乙","town_kana":"ナカジマオツ","prefecture_code":4},{"zip_code":"9870137","prefecture":"宮城県","prefecture_kana":"ミヤギケン","city":"遠田郡涌谷町","city_kana":"トオダグンワクヤチョウ","town":"中島川前","town_kana":"ナカジマカワマエ","prefecture_code":4},{"zip_code":"9870137","prefecture":"宮城県","prefecture_kana":"ミヤギケン","city":"遠田郡涌谷町","city_kana":"トオダグンワクヤチョウ","town":"中島甲","town_kana":"ナカジマコウ","prefecture_code":4}],"0115":{"zip_code":"9870115","prefecture":"宮城県","prefecture_kana":"ミヤギケン","city":"遠田郡涌谷町","city_kana":"トオダグンワクヤチョウ","town":"新町","town_kana":"シンマチ","prefecture_code":4},"0114":{"zip_code":"9870114","prefecture":"宮城県","prefecture_kana":"ミヤギケン","city":"遠田郡涌谷町","city_kana":"トオダグンワクヤチョウ","town":"新町裏","town_kana":"シンマチウラ","prefecture_code":4},"0163":{"zip_code":"9870163","prefecture":"宮城県","prefecture_kana":"ミヤギケン","city":"遠田郡涌谷町","city_kana":"トオダグンワクヤチョウ","town":"立町","town_kana":"タツチョウ","prefecture_code":4},"0104":{"zip_code":"9870104","prefecture":"宮城県","prefecture_kana":"ミヤギケン","city":"遠田郡涌谷町","city_kana":"トオダグンワクヤチョウ","town":"田沼町","town_kana":"タヌマチョウ","prefecture_code":4},"0141":{"zip_code":"9870141","prefecture":"宮城県","prefecture_kana":"ミヤギケン","city":"遠田郡涌谷町","city_kana":"トオダグンワクヤチョウ","town":"田町裏","town_kana":"タマチウラ","prefecture_code":4},"0146":{"zip_code":"9870146","prefecture":"宮城県","prefecture_kana":"ミヤギケン","city":"遠田郡涌谷町","city_kana":"トオダグンワクヤチョウ","town":"中下道","town_kana":"ナカゲドウ","prefecture_code":4},"0143":{"zip_code":"9870143","prefecture":"宮城県","prefecture_kana":"ミヤギケン","city":"遠田郡涌谷町","city_kana":"トオダグンワクヤチョウ","town":"長柄町","town_kana":"ナガエチョウ","prefecture_code":4},"0286":{"zip_code":"9870286","prefecture":"宮城県","prefecture_kana":"ミヤギケン","city":"遠田郡涌谷町","city_kana":"トオダグンワクヤチョウ","town":"成沢","town_kana":"ナリサワ","prefecture_code":4},"0105":{"zip_code":"9870105","prefecture":"宮城県","prefecture_kana":"ミヤギケン","city":"遠田郡涌谷町","city_kana":"トオダグンワクヤチョウ","town":"練丑町","town_kana":"ネリウシチョウ","prefecture_code":4},"0285":{"zip_code":"9870285","prefecture":"宮城県","prefecture_kana":"ミヤギケン","city":"遠田郡涌谷町","city_kana":"トオダグンワクヤチョウ","town":"箟岳","town_kana":"ノノダケ","prefecture_code":4},"0162":{"zip_code":"9870162","prefecture":"宮城県","prefecture_kana":"ミヤギケン","city":"遠田郡涌谷町","city_kana":"トオダグンワクヤチョウ","town":"本町","town_kana":"モトマチ","prefecture_code":4},"0111":{"zip_code":"9870111","prefecture":"宮城県","prefecture_kana":"ミヤギケン","city":"遠田郡涌谷町","city_kana":"トオダグンワクヤチョウ","town":"柳町","town_kana":"ヤナギチョウ","prefecture_code":4},"0283":{"zip_code":"9870283","prefecture":"宮城県","prefecture_kana":"ミヤギケン","city":"遠田郡涌谷町","city_kana":"トオダグンワクヤチョウ","town":"吉住","town_kana":"ヨシズミ","prefecture_code":4},"0106":{"zip_code":"9870106","prefecture":"宮城県","prefecture_kana":"ミヤギケン","city":"遠田郡涌谷町","city_kana":"トオダグンワクヤチョウ","town":"六軒町","town_kana":"ロッケンチョウ","prefecture_code":4},"0107":{"zip_code":"9870107","prefecture":"宮城県","prefecture_kana":"ミヤギケン","city":"遠田郡涌谷町","city_kana":"トオダグンワクヤチョウ","town":"六軒町裏","town_kana":"ロッケンチョウウラ","prefecture_code":4},"0121":{"zip_code":"9870121","prefecture":"宮城県","prefecture_kana":"ミヤギケン","city":"遠田郡涌谷町","city_kana":"トオダグンワクヤチョウ","town":"涌谷","town_kana":"ワクヤ","prefecture_code":4},"0000":{"zip_code":"9870000","prefecture":"宮城県","prefecture_kana":"ミヤギケン","city":"遠田郡美里町","city_kana":"トオダグンミサトマチ","town":"","town_kana":"","prefecture_code":4},"0015":{"zip_code":"9870015","prefecture":"宮城県","prefecture_kana":"ミヤギケン","city":"遠田郡美里町","city_kana":"トオダグンミサトマチ","town":"青生","town_kana":"アオウ","prefecture_code":4},"0056":{"zip_code":"9870056","prefecture":"宮城県","prefecture_kana":"ミヤギケン","city":"遠田郡美里町","city_kana":"トオダグンミサトマチ","town":"一本柳","town_kana":"イッポンヤナギ","prefecture_code":4},"0004":{"zip_code":"9870004","prefecture":"宮城県","prefecture_kana":"ミヤギケン","city":"遠田郡美里町","city_kana":"トオダグンミサトマチ","town":"牛飼","town_kana":"ウシカイ","prefecture_code":4},"0045":{"zip_code":"9870045","prefecture":"宮城県","prefecture_kana":"ミヤギケン","city":"遠田郡美里町","city_kana":"トオダグンミサトマチ","town":"内役田","town_kana":"ウチヤクデン","prefecture_code":4},"0038":{"zip_code":"9870038","prefecture":"宮城県","prefecture_kana":"ミヤギケン","city":"遠田郡美里町","city_kana":"トオダグンミサトマチ","town":"駅東","town_kana":"エキヒガシ","prefecture_code":4},"0022":{"zip_code":"9870022","prefecture":"宮城県","prefecture_kana":"ミヤギケン","city":"遠田郡美里町","city_kana":"トオダグンミサトマチ","town":"荻埣","town_kana":"オギゾネ","prefecture_code":4},"0032":{"zip_code":"9870032","prefecture":"宮城県","prefecture_kana":"ミヤギケン","city":"遠田郡美里町","city_kana":"トオダグンミサトマチ","town":"学田","town_kana":"ガクデン","prefecture_code":4},"0065":{"zip_code":"9870065","prefecture":"宮城県","prefecture_kana":"ミヤギケン","city":"遠田郡美里町","city_kana":"トオダグンミサトマチ","town":"勘堂","town_kana":"カンドウ","prefecture_code":4},"0005":{"zip_code":"9870005","prefecture":"宮城県","prefecture_kana":"ミヤギケン","city":"遠田郡美里町","city_kana":"トオダグンミサトマチ","town":"北浦","town_kana":"キタウラ","prefecture_code":4},"0069":{"zip_code":"9870069","prefecture":"宮城県","prefecture_kana":"ミヤギケン","city":"遠田郡美里町","city_kana":"トオダグンミサトマチ","town":"北原","town_kana":"キタハラ","prefecture_code":4},"0057":{"zip_code":"9870057","prefecture":"宮城県","prefecture_kana":"ミヤギケン","city":"遠田郡美里町","city_kana":"トオダグンミサトマチ","town":"狐山","town_kana":"キツネヤマ","prefecture_code":4},"0034":{"zip_code":"9870034","prefecture":"宮城県","prefecture_kana":"ミヤギケン","city":"遠田郡美里町","city_kana":"トオダグンミサトマチ","town":"化粧坂","town_kana":"ケショウザカ","prefecture_code":4},"0063":{"zip_code":"9870063","prefecture":"宮城県","prefecture_kana":"ミヤギケン","city":"遠田郡美里町","city_kana":"トオダグンミサトマチ","town":"小沼","town_kana":"コヌマ","prefecture_code":4},"0064":{"zip_code":"9870064","prefecture":"宮城県","prefecture_kana":"ミヤギケン","city":"遠田郡美里町","city_kana":"トオダグンミサトマチ","town":"小沼添","town_kana":"コヌマゾイ","prefecture_code":4},"0033":{"zip_code":"9870033","prefecture":"宮城県","prefecture_kana":"ミヤギケン","city":"遠田郡美里町","city_kana":"トオダグンミサトマチ","town":"小町井","town_kana":"コマチイ","prefecture_code":4},"0036":{"zip_code":"9870036","prefecture":"宮城県","prefecture_kana":"ミヤギケン","city":"遠田郡美里町","city_kana":"トオダグンミサトマチ","town":"妻の神","town_kana":"サイノカミ","prefecture_code":4},"0011":{"zip_code":"9870011","prefecture":"宮城県","prefecture_kana":"ミヤギケン","city":"遠田郡美里町","city_kana":"トオダグンミサトマチ","town":"桜木町","town_kana":"サクラギチョウ","prefecture_code":4},"0058":{"zip_code":"9870058","prefecture":"宮城県","prefecture_kana":"ミヤギケン","city":"遠田郡美里町","city_kana":"トオダグンミサトマチ","town":"塩釜","town_kana":"シオガマ","prefecture_code":4},"0059":{"zip_code":"9870059","prefecture":"宮城県","prefecture_kana":"ミヤギケン","city":"遠田郡美里町","city_kana":"トオダグンミサトマチ","town":"塩釜添","town_kana":"シオガマゾエ","prefecture_code":4},"0014":{"zip_code":"9870014","prefecture":"宮城県","prefecture_kana":"ミヤギケン","city":"遠田郡美里町","city_kana":"トオダグンミサトマチ","town":"志賀町","town_kana":"シガチョウ","prefecture_code":4},"0035":{"zip_code":"9870035","prefecture":"宮城県","prefecture_kana":"ミヤギケン","city":"遠田郡美里町","city_kana":"トオダグンミサトマチ","town":"志賀殿","town_kana":"シガデン","prefecture_code":4},"0061":{"zip_code":"9870061","prefecture":"宮城県","prefecture_kana":"ミヤギケン","city":"遠田郡美里町","city_kana":"トオダグンミサトマチ","town":"下境","town_kana":"シモサカイ","prefecture_code":4},"0053":{"zip_code":"9870053","prefecture":"宮城県","prefecture_kana":"ミヤギケン","city":"遠田郡美里町","city_kana":"トオダグンミサトマチ","town":"叔廼前","town_kana":"シュクノマエ","prefecture_code":4},"0051":{"zip_code":"9870051","prefecture":"宮城県","prefecture_kana":"ミヤギケン","city":"遠田郡美里町","city_kana":"トオダグンミサトマチ","town":"上意江","town_kana":"ジョウイエ","prefecture_code":4},"0055":{"zip_code":"9870055","prefecture":"宮城県","prefecture_kana":"ミヤギケン","city":"遠田郡美里町","city_kana":"トオダグンミサトマチ","town":"新一本柳","town_kana":"シンイッポンヤナギ","prefecture_code":4},"0043":{"zip_code":"9870043","prefecture":"宮城県","prefecture_kana":"ミヤギケン","city":"遠田郡美里町","city_kana":"トオダグンミサトマチ","town":"新妻の神","town_kana":"シンサイノカミ","prefecture_code":4},"0068":{"zip_code":"9870068","prefecture":"宮城県","prefecture_kana":"ミヤギケン","city":"遠田郡美里町","city_kana":"トオダグンミサトマチ","town":"新大所","town_kana":"シンダイドコロ","prefecture_code":4},"0037":{"zip_code":"9870037","prefecture":"宮城県","prefecture_kana":"ミヤギケン","city":"遠田郡美里町","city_kana":"トオダグンミサトマチ","town":"新藤ケ崎","town_kana":"シンフジガサキ","prefecture_code":4},"0052":{"zip_code":"9870052","prefecture":"宮城県","prefecture_kana":"ミヤギケン","city":"遠田郡美里町","city_kana":"トオダグンミサトマチ","town":"砂子田","town_kana":"スナゴダ","prefecture_code":4},"0006":{"zip_code":"9870006","prefecture":"宮城県","prefecture_kana":"ミヤギケン","city":"遠田郡美里町","city_kana":"トオダグンミサトマチ","town":"関根","town_kana":"セキネ","prefecture_code":4},"0013":{"zip_code":"9870013","prefecture":"宮城県","prefecture_kana":"ミヤギケン","city":"遠田郡美里町","city_kana":"トオダグンミサトマチ","town":"素山","town_kana":"ソヤマ","prefecture_code":4},"0012":{"zip_code":"9870012","prefecture":"宮城県","prefecture_kana":"ミヤギケン","city":"遠田郡美里町","city_kana":"トオダグンミサトマチ","town":"素山町","town_kana":"ソヤマチョウ","prefecture_code":4},"0067":{"zip_code":"9870067","prefecture":"宮城県","prefecture_kana":"ミヤギケン","city":"遠田郡美里町","city_kana":"トオダグンミサトマチ","town":"大所","town_kana":"ダイドコロ","prefecture_code":4},"0031":{"zip_code":"9870031","prefecture":"宮城県","prefecture_kana":"ミヤギケン","city":"遠田郡美里町","city_kana":"トオダグンミサトマチ","town":"高田","town_kana":"タカダ","prefecture_code":4},"0054":{"zip_code":"9870054","prefecture":"宮城県","prefecture_kana":"ミヤギケン","city":"遠田郡美里町","city_kana":"トオダグンミサトマチ","town":"塔の越","town_kana":"トウノコシ","prefecture_code":4},"0024":[{"zip_code":"9870024","prefecture":"宮城県","prefecture_kana":"ミヤギケン","city":"遠田郡美里町","city_kana":"トオダグンミサトマチ","town":"中埣","town_kana":"ナカゾネ","prefecture_code":4},{"zip_code":"9870024","prefecture":"宮城県","prefecture_kana":"ミヤギケン","city":"遠田郡美里町","city_kana":"トオダグンミサトマチ","town":"成田","town_kana":"ナリタ","prefecture_code":4}],"0025":{"zip_code":"9870025","prefecture":"宮城県","prefecture_kana":"ミヤギケン","city":"遠田郡美里町","city_kana":"トオダグンミサトマチ","town":"中高城","town_kana":"ナカタカギ","prefecture_code":4},"0044":{"zip_code":"9870044","prefecture":"宮城県","prefecture_kana":"ミヤギケン","city":"遠田郡美里町","city_kana":"トオダグンミサトマチ","town":"西舘","town_kana":"ニシダテ","prefecture_code":4},"0021":{"zip_code":"9870021","prefecture":"宮城県","prefecture_kana":"ミヤギケン","city":"遠田郡美里町","city_kana":"トオダグンミサトマチ","town":"平針","town_kana":"ヒラバリ","prefecture_code":4},"0001":{"zip_code":"9870001","prefecture":"宮城県","prefecture_kana":"ミヤギケン","city":"遠田郡美里町","city_kana":"トオダグンミサトマチ","town":"藤ケ崎","town_kana":"フジガサキ","prefecture_code":4},"0002":{"zip_code":"9870002","prefecture":"宮城県","prefecture_kana":"ミヤギケン","city":"遠田郡美里町","city_kana":"トオダグンミサトマチ","town":"藤ケ崎町","town_kana":"フジガサキチョウ","prefecture_code":4},"0066":{"zip_code":"9870066","prefecture":"宮城県","prefecture_kana":"ミヤギケン","city":"遠田郡美里町","city_kana":"トオダグンミサトマチ","town":"二ツ壇","town_kana":"フタツダン","prefecture_code":4},"0062":{"zip_code":"9870062","prefecture":"宮城県","prefecture_kana":"ミヤギケン","city":"遠田郡美里町","city_kana":"トオダグンミサトマチ","town":"待井","town_kana":"マチイ","prefecture_code":4},"0003":{"zip_code":"9870003","prefecture":"宮城県","prefecture_kana":"ミヤギケン","city":"遠田郡美里町","city_kana":"トオダグンミサトマチ","town":"南小牛田","town_kana":"ミナミコゴタ","prefecture_code":4},"0026":{"zip_code":"9870026","prefecture":"宮城県","prefecture_kana":"ミヤギケン","city":"遠田郡美里町","city_kana":"トオダグンミサトマチ","town":"南高城","town_kana":"ミナミタカギ","prefecture_code":4},"0041":{"zip_code":"9870041","prefecture":"宮城県","prefecture_kana":"ミヤギケン","city":"遠田郡美里町","city_kana":"トオダグンミサトマチ","town":"峯山","town_kana":"ミネヤマ","prefecture_code":4},"0042":{"zip_code":"9870042","prefecture":"宮城県","prefecture_kana":"ミヤギケン","city":"遠田郡美里町","city_kana":"トオダグンミサトマチ","town":"峯山浦","town_kana":"ミネヤマウラ","prefecture_code":4},"0046":{"zip_code":"9870046","prefecture":"宮城県","prefecture_kana":"ミヤギケン","city":"遠田郡美里町","city_kana":"トオダグンミサトマチ","town":"役田","town_kana":"ヤクデン","prefecture_code":4}}