{"0000":{"zip_code":"9880000","prefecture":"宮城県","prefecture_kana":"ミヤギケン","city":"気仙沼市","city_kana":"ケセンヌマシ","town":"","town_kana":"","prefecture_code":4},"0182":{"zip_code":"9880182","prefecture":"宮城県","prefecture_kana":"ミヤギケン","city":"気仙沼市","city_kana":"ケセンヌマシ","town":"赤岩石兜","town_kana":"アカイワイシカブト","prefecture_code":4},"0105":{"zip_code":"9880105","prefecture":"宮城県","prefecture_kana":"ミヤギケン","city":"気仙沼市","city_kana":"ケセンヌマシ","town":"赤岩老松","town_kana":"アカイワオイノマツ","prefecture_code":4},"0172":{"zip_code":"9880172","prefecture":"宮城県","prefecture_kana":"ミヤギケン","city":"気仙沼市","city_kana":"ケセンヌマシ","town":"赤岩大石倉","town_kana":"アカイワオオイシクラ","prefecture_code":4},"0174":{"zip_code":"9880174","prefecture":"宮城県","prefecture_kana":"ミヤギケン","city":"気仙沼市","city_kana":"ケセンヌマシ","town":"赤岩大滝","town_kana":"アカイワオオタキ","prefecture_code":4},"0185":{"zip_code":"9880185","prefecture":"宮城県","prefecture_kana":"ミヤギケン","city":"気仙沼市","city_kana":"ケセンヌマシ","town":"赤岩小田","town_kana":"アカイワオダ","prefecture_code":4},"0166":{"zip_code":"9880166","prefecture":"宮城県","prefecture_kana":"ミヤギケン","city":"気仙沼市","city_kana":"ケセンヌマシ","town":"赤岩上羽田","town_kana":"アカイワカミハダ","prefecture_code":4},"0104":{"zip_code":"9880104","prefecture":"宮城県","prefecture_kana":"ミヤギケン","city":"気仙沼市","city_kana":"ケセンヌマシ","town":"赤岩五駄鱈","town_kana":"アカイワゴダンタラ","prefecture_code":4},"0164":{"zip_code":"9880164","prefecture":"宮城県","prefecture_kana":"ミヤギケン","city":"気仙沼市","city_kana":"ケセンヌマシ","town":"赤岩四十二","town_kana":"アカイワシジュウニ","prefecture_code":4},"0181":{"zip_code":"9880181","prefecture":"宮城県","prefecture_kana":"ミヤギケン","city":"気仙沼市","city_kana":"ケセンヌマシ","town":"赤岩杉ノ沢","town_kana":"アカイワスギノサワ","prefecture_code":4},"0161":{"zip_code":"9880161","prefecture":"宮城県","prefecture_kana":"ミヤギケン","city":"気仙沼市","city_kana":"ケセンヌマシ","town":"赤岩高前田","town_kana":"アカイワタカマエダ","prefecture_code":4},"0101":{"zip_code":"9880101","prefecture":"宮城県","prefecture_kana":"ミヤギケン","city":"気仙沼市","city_kana":"ケセンヌマシ","town":"赤岩舘下","town_kana":"アカイワタテシタ","prefecture_code":4},"0102":{"zip_code":"9880102","prefecture":"宮城県","prefecture_kana":"ミヤギケン","city":"気仙沼市","city_kana":"ケセンヌマシ","town":"赤岩舘森","town_kana":"アカイワタテモリ","prefecture_code":4},"0183":{"zip_code":"9880183","prefecture":"宮城県","prefecture_kana":"ミヤギケン","city":"気仙沼市","city_kana":"ケセンヌマシ","town":"赤岩泥ノ木","town_kana":"アカイワドロノキ","prefecture_code":4},"0173":{"zip_code":"9880173","prefecture":"宮城県","prefecture_kana":"ミヤギケン","city":"気仙沼市","city_kana":"ケセンヌマシ","town":"赤岩長柴","town_kana":"アカイワナガシバ","prefecture_code":4},"0167":{"zip_code":"9880167","prefecture":"宮城県","prefecture_kana":"ミヤギケン","city":"気仙沼市","city_kana":"ケセンヌマシ","town":"赤岩羽田","town_kana":"アカイワハダ","prefecture_code":4},"0184":{"zip_code":"9880184","prefecture":"宮城県","prefecture_kana":"ミヤギケン","city":"気仙沼市","city_kana":"ケセンヌマシ","town":"赤岩平貝","town_kana":"アカイワヒラガイ","prefecture_code":4},"0162":{"zip_code":"9880162","prefecture":"宮城県","prefecture_kana":"ミヤギケン","city":"気仙沼市","city_kana":"ケセンヌマシ","town":"赤岩前田","town_kana":"アカイワマエダ","prefecture_code":4},"0171":{"zip_code":"9880171","prefecture":"宮城県","prefecture_kana":"ミヤギケン","city":"気仙沼市","city_kana":"ケセンヌマシ","town":"赤岩牧沢","town_kana":"アカイワマキサワ","prefecture_code":4},"0168":{"zip_code":"9880168","prefecture":"宮城県","prefecture_kana":"ミヤギケン","city":"気仙沼市","city_kana":"ケセンヌマシ","town":"赤岩水梨子","town_kana":"アカイワミズナシ","prefecture_code":4},"0103":{"zip_code":"9880103","prefecture":"宮城県","prefecture_kana":"ミヤギケン","city":"気仙沼市","city_kana":"ケセンヌマシ","town":"赤岩港","town_kana":"アカイワミナト","prefecture_code":4},"0163":{"zip_code":"9880163","prefecture":"宮城県","prefecture_kana":"ミヤギケン","city":"気仙沼市","city_kana":"ケセンヌマシ","town":"赤岩迎前田","town_kana":"アカイワムカエマエダ","prefecture_code":4},"0165":{"zip_code":"9880165","prefecture":"宮城県","prefecture_kana":"ミヤギケン","city":"気仙沼市","city_kana":"ケセンヌマシ","town":"赤岩物見","town_kana":"アカイワモノミ","prefecture_code":4},"0075":{"zip_code":"9880075","prefecture":"宮城県","prefecture_kana":"ミヤギケン","city":"気仙沼市","city_kana":"ケセンヌマシ","town":"赤坂","town_kana":"アカサカ","prefecture_code":4},"0062":{"zip_code":"9880062","prefecture":"宮城県","prefecture_kana":"ミヤギケン","city":"気仙沼市","city_kana":"ケセンヌマシ","town":"明戸","town_kana":"アケド","prefecture_code":4},"0623":{"zip_code":"9880623","prefecture":"宮城県","prefecture_kana":"ミヤギケン","city":"気仙沼市","city_kana":"ケセンヌマシ","town":"浅根","town_kana":"アサネ","prefecture_code":4},"0034":{"zip_code":"9880034","prefecture":"宮城県","prefecture_kana":"ミヤギケン","city":"気仙沼市","city_kana":"ケセンヌマシ","town":"朝日町","town_kana":"アサヒチョウ","prefecture_code":4},"0847":{"zip_code":"9880847","prefecture":"宮城県","prefecture_kana":"ミヤギケン","city":"気仙沼市","city_kana":"ケセンヌマシ","town":"阿霄月","town_kana":"アヨイヅキ","prefecture_code":4},"0071":{"zip_code":"9880071","prefecture":"宮城県","prefecture_kana":"ミヤギケン","city":"気仙沼市","city_kana":"ケセンヌマシ","town":"新町","town_kana":"アラマチ","prefecture_code":4},"0606":{"zip_code":"9880606","prefecture":"宮城県","prefecture_kana":"ミヤギケン","city":"気仙沼市","city_kana":"ケセンヌマシ","town":"磯草","town_kana":"イソクサ","prefecture_code":4},"0854":{"zip_code":"9880854","prefecture":"宮城県","prefecture_kana":"ミヤギケン","city":"気仙沼市","city_kana":"ケセンヌマシ","town":"磯沢","town_kana":"イソザワ","prefecture_code":4},"0032":{"zip_code":"9880032","prefecture":"宮城県","prefecture_kana":"ミヤギケン","city":"気仙沼市","city_kana":"ケセンヌマシ","town":"一景島","town_kana":"イッケイジマ","prefecture_code":4},"0083":{"zip_code":"9880083","prefecture":"宮城県","prefecture_kana":"ミヤギケン","city":"気仙沼市","city_kana":"ケセンヌマシ","town":"入沢","town_kana":"イリサワ","prefecture_code":4},"0061":{"zip_code":"9880061","prefecture":"宮城県","prefecture_kana":"ミヤギケン","city":"気仙沼市","city_kana":"ケセンヌマシ","town":"岩ケ崎","town_kana":"イワガサキ","prefecture_code":4},"0201":{"zip_code":"9880201","prefecture":"宮城県","prefecture_kana":"ミヤギケン","city":"気仙沼市","city_kana":"ケセンヌマシ","town":"岩月千岩田","town_kana":"イワツキセンガンダ","prefecture_code":4},"0207":{"zip_code":"9880207","prefecture":"宮城県","prefecture_kana":"ミヤギケン","city":"気仙沼市","city_kana":"ケセンヌマシ","town":"岩月宝ケ沢","town_kana":"イワツキタカラガサワ","prefecture_code":4},"0202":{"zip_code":"9880202","prefecture":"宮城県","prefecture_kana":"ミヤギケン","city":"気仙沼市","city_kana":"ケセンヌマシ","town":"岩月台ノ沢","town_kana":"イワツキダイノサワ","prefecture_code":4},"0206":{"zip_code":"9880206","prefecture":"宮城県","prefecture_kana":"ミヤギケン","city":"気仙沼市","city_kana":"ケセンヌマシ","town":"岩月寺沢","town_kana":"イワツキテラサワ","prefecture_code":4},"0204":{"zip_code":"9880204","prefecture":"宮城県","prefecture_kana":"ミヤギケン","city":"気仙沼市","city_kana":"ケセンヌマシ","town":"岩月長平","town_kana":"イワツキナガダイラ","prefecture_code":4},"0205":{"zip_code":"9880205","prefecture":"宮城県","prefecture_kana":"ミヤギケン","city":"気仙沼市","city_kana":"ケセンヌマシ","town":"岩月箒沢","town_kana":"イワツキホウキサワ","prefecture_code":4},"0203":{"zip_code":"9880203","prefecture":"宮城県","prefecture_kana":"ミヤギケン","city":"気仙沼市","city_kana":"ケセンヌマシ","town":"岩月星谷","town_kana":"イワツキホシヤ","prefecture_code":4},"0037":{"zip_code":"9880037","prefecture":"宮城県","prefecture_kana":"ミヤギケン","city":"気仙沼市","city_kana":"ケセンヌマシ","town":"魚市場前","town_kana":"ウオイチバマエ","prefecture_code":4},"0008":{"zip_code":"9880008","prefecture":"宮城県","prefecture_kana":"ミヤギケン","city":"気仙沼市","city_kana":"ケセンヌマシ","town":"魚浜町","town_kana":"ウオハマチョウ","prefecture_code":4},"0065":{"zip_code":"9880065","prefecture":"宮城県","prefecture_kana":"ミヤギケン","city":"気仙沼市","city_kana":"ケセンヌマシ","town":"後九条","town_kana":"ウシロクジョウ","prefecture_code":4},"0866":{"zip_code":"9880866","prefecture":"宮城県","prefecture_kana":"ミヤギケン","city":"気仙沼市","city_kana":"ケセンヌマシ","town":"内松川","town_kana":"ウチマツカワ","prefecture_code":4},"0605":{"zip_code":"9880605","prefecture":"宮城県","prefecture_kana":"ミヤギケン","city":"気仙沼市","city_kana":"ケセンヌマシ","town":"浦の浜","town_kana":"ウラノハマ","prefecture_code":4},"0812":[{"zip_code":"9880812","prefecture":"宮城県","prefecture_kana":"ミヤギケン","city":"気仙沼市","city_kana":"ケセンヌマシ","town":"大岩井山","town_kana":"オオイワイヤマ","prefecture_code":4},{"zip_code":"9880812","prefecture":"宮城県","prefecture_kana":"ミヤギケン","city":"気仙沼市","city_kana":"ケセンヌマシ","town":"大峠山","town_kana":"オオトウゲヤマ","prefecture_code":4}],"0814":{"zip_code":"9880814","prefecture":"宮城県","prefecture_kana":"ミヤギケン","city":"気仙沼市","city_kana":"ケセンヌマシ","town":"大浦","town_kana":"オオウラ","prefecture_code":4},"0082":{"zip_code":"9880082","prefecture":"宮城県","prefecture_kana":"ミヤギケン","city":"気仙沼市","city_kana":"ケセンヌマシ","town":"太田","town_kana":"オオタ","prefecture_code":4},"0602":{"zip_code":"9880602","prefecture":"宮城県","prefecture_kana":"ミヤギケン","city":"気仙沼市","city_kana":"ケセンヌマシ","town":"大初平","town_kana":"オオハツダイラ","prefecture_code":4},"0821":{"zip_code":"9880821","prefecture":"宮城県","prefecture_kana":"ミヤギケン","city":"気仙沼市","city_kana":"ケセンヌマシ","town":"大林","town_kana":"オオバヤシ","prefecture_code":4},"0612":{"zip_code":"9880612","prefecture":"宮城県","prefecture_kana":"ミヤギケン","city":"気仙沼市","city_kana":"ケセンヌマシ","town":"大向","town_kana":"オオムカイ","prefecture_code":4},"0843":{"zip_code":"9880843","prefecture":"宮城県","prefecture_kana":"ミヤギケン","city":"気仙沼市","city_kana":"ケセンヌマシ","town":"落合","town_kana":"オチアイ","prefecture_code":4},"0862":{"zip_code":"9880862","prefecture":"宮城県","prefecture_kana":"ミヤギケン","city":"気仙沼市","city_kana":"ケセンヌマシ","town":"角地","town_kana":"カクジ","prefecture_code":4},"0014":{"zip_code":"9880014","prefecture":"宮城県","prefecture_kana":"ミヤギケン","city":"気仙沼市","city_kana":"ケセンヌマシ","town":"柏崎","town_kana":"カシザキ","prefecture_code":4},"0837":{"zip_code":"9880837","prefecture":"宮城県","prefecture_kana":"ミヤギケン","city":"気仙沼市","city_kana":"ケセンヌマシ","town":"鹿ノ倉","town_kana":"カノクラ","prefecture_code":4},"0056":{"zip_code":"9880056","prefecture":"宮城県","prefecture_kana":"ミヤギケン","city":"気仙沼市","city_kana":"ケセンヌマシ","town":"上田中","town_kana":"カミタナカ","prefecture_code":4},"0803":{"zip_code":"9880803","prefecture":"宮城県","prefecture_kana":"ミヤギケン","city":"気仙沼市","city_kana":"ケセンヌマシ","town":"上東側","town_kana":"カミヒガシガワ","prefecture_code":4},"0806":{"zip_code":"9880806","prefecture":"宮城県","prefecture_kana":"ミヤギケン","city":"気仙沼市","city_kana":"ケセンヌマシ","town":"上西側","town_kana":"カミニシガワ","prefecture_code":4},"0801":{"zip_code":"9880801","prefecture":"宮城県","prefecture_kana":"ミヤギケン","city":"気仙沼市","city_kana":"ケセンヌマシ","town":"上東側根","town_kana":"カミヒガシガワネ","prefecture_code":4},"0044":{"zip_code":"9880044","prefecture":"宮城県","prefecture_kana":"ミヤギケン","city":"気仙沼市","city_kana":"ケセンヌマシ","town":"神山","town_kana":"カミヤマ","prefecture_code":4},"0607":{"zip_code":"9880607","prefecture":"宮城県","prefecture_kana":"ミヤギケン","city":"気仙沼市","city_kana":"ケセンヌマシ","town":"亀山","town_kana":"カメヤマ","prefecture_code":4},"0533":{"zip_code":"9880533","prefecture":"宮城県","prefecture_kana":"ミヤギケン","city":"気仙沼市","city_kana":"ケセンヌマシ","town":"唐桑町明戸","town_kana":"カラクワチョウアケド","prefecture_code":4},"0503":{"zip_code":"9880503","prefecture":"宮城県","prefecture_kana":"ミヤギケン","city":"気仙沼市","city_kana":"ケセンヌマシ","town":"唐桑町荒谷前","town_kana":"カラクワチョウアラヤマエ","prefecture_code":4},"0532":{"zip_code":"9880532","prefecture":"宮城県","prefecture_kana":"ミヤギケン","city":"気仙沼市","city_kana":"ケセンヌマシ","town":"唐桑町石浜","town_kana":"カラクワチョウイシハマ","prefecture_code":4},"0512":{"zip_code":"9880512","prefecture":"宮城県","prefecture_kana":"ミヤギケン","city":"気仙沼市","city_kana":"ケセンヌマシ","town":"唐桑町岩井沢","town_kana":"カラクワチョウイワイサワ","prefecture_code":4},"0581":{"zip_code":"9880581","prefecture":"宮城県","prefecture_kana":"ミヤギケン","city":"気仙沼市","city_kana":"ケセンヌマシ","town":"唐桑町浦","town_kana":"カラクワチョウウラ","prefecture_code":4},"0521":{"zip_code":"9880521","prefecture":"宮城県","prefecture_kana":"ミヤギケン","city":"気仙沼市","city_kana":"ケセンヌマシ","town":"唐桑町大畑","town_kana":"カラクワチョウオオハタ","prefecture_code":4},"0544":{"zip_code":"9880544","prefecture":"宮城県","prefecture_kana":"ミヤギケン","city":"気仙沼市","city_kana":"ケセンヌマシ","town":"唐桑町欠浜","town_kana":"カラクワチョウカケハマ","prefecture_code":4},"0501":{"zip_code":"9880501","prefecture":"宮城県","prefecture_kana":"ミヤギケン","city":"気仙沼市","city_kana":"ケセンヌマシ","town":"唐桑町釜石下","town_kana":"カラクワチョウカマイシシタ","prefecture_code":4},"0522":{"zip_code":"9880522","prefecture":"宮城県","prefecture_kana":"ミヤギケン","city":"気仙沼市","city_kana":"ケセンヌマシ","town":"唐桑町上川原","town_kana":"カラクワチョウカミカワラ","prefecture_code":4},"0562":{"zip_code":"9880562","prefecture":"宮城県","prefecture_kana":"ミヤギケン","city":"気仙沼市","city_kana":"ケセンヌマシ","town":"唐桑町上小鯖","town_kana":"カラクワチョウカミコサバ","prefecture_code":4},"0572":{"zip_code":"9880572","prefecture":"宮城県","prefecture_kana":"ミヤギケン","city":"気仙沼市","city_kana":"ケセンヌマシ","town":"唐桑町上鮪立","town_kana":"カラクワチョウカミシビタチ","prefecture_code":4},"0553":{"zip_code":"9880553","prefecture":"宮城県","prefecture_kana":"ミヤギケン","city":"気仙沼市","city_kana":"ケセンヌマシ","town":"唐桑町神の倉","town_kana":"カラクワチョウカンノクラ","prefecture_code":4},"0541":{"zip_code":"9880541","prefecture":"宮城県","prefecture_kana":"ミヤギケン","city":"気仙沼市","city_kana":"ケセンヌマシ","town":"唐桑町北中","town_kana":"カラクワチョウキタナカ","prefecture_code":4},"0561":{"zip_code":"9880561","prefecture":"宮城県","prefecture_kana":"ミヤギケン","city":"気仙沼市","city_kana":"ケセンヌマシ","town":"唐桑町小鯖","town_kana":"カラクワチョウコサバ","prefecture_code":4},"0514":{"zip_code":"9880514","prefecture":"宮城県","prefecture_kana":"ミヤギケン","city":"気仙沼市","city_kana":"ケセンヌマシ","town":"唐桑町小田","town_kana":"カラクワチョウコダ","prefecture_code":4},"0543":{"zip_code":"9880543","prefecture":"宮城県","prefecture_kana":"ミヤギケン","city":"気仙沼市","city_kana":"ケセンヌマシ","town":"唐桑町小長根","town_kana":"カラクワチョウコナガネ","prefecture_code":4},"0523":{"zip_code":"9880523","prefecture":"宮城県","prefecture_kana":"ミヤギケン","city":"気仙沼市","city_kana":"ケセンヌマシ","town":"唐桑町境","town_kana":"カラクワチョウサカイ","prefecture_code":4},"0554":{"zip_code":"9880554","prefecture":"宮城県","prefecture_kana":"ミヤギケン","city":"気仙沼市","city_kana":"ケセンヌマシ","town":"唐桑町崎浜","town_kana":"カラクワチョウサキハマ","prefecture_code":4},"0571":{"zip_code":"9880571","prefecture":"宮城県","prefecture_kana":"ミヤギケン","city":"気仙沼市","city_kana":"ケセンヌマシ","town":"唐桑町鮪立","town_kana":"カラクワチョウシビタチ","prefecture_code":4},"0534":{"zip_code":"9880534","prefecture":"宮城県","prefecture_kana":"ミヤギケン","city":"気仙沼市","city_kana":"ケセンヌマシ","town":"唐桑町宿浦","town_kana":"カラクワチョウシュクウラ","prefecture_code":4},"0502":{"zip_code":"9880502","prefecture":"宮城県","prefecture_kana":"ミヤギケン","city":"気仙沼市","city_kana":"ケセンヌマシ","town":"唐桑町台の下","town_kana":"カラクワチョウダイノシタ","prefecture_code":4},"0531":{"zip_code":"9880531","prefecture":"宮城県","prefecture_kana":"ミヤギケン","city":"気仙沼市","city_kana":"ケセンヌマシ","town":"唐桑町高石浜","town_kana":"カラクワチョウタカイシハマ","prefecture_code":4},"0504":{"zip_code":"9880504","prefecture":"宮城県","prefecture_kana":"ミヤギケン","city":"気仙沼市","city_kana":"ケセンヌマシ","town":"唐桑町竹の袖","town_kana":"カラクワチョウタケノソデ","prefecture_code":4},"0524":{"zip_code":"9880524","prefecture":"宮城県","prefecture_kana":"ミヤギケン","city":"気仙沼市","city_kana":"ケセンヌマシ","town":"唐桑町只越","town_kana":"カラクワチョウタダコシ","prefecture_code":4},"0526":{"zip_code":"9880526","prefecture":"宮城県","prefecture_kana":"ミヤギケン","city":"気仙沼市","city_kana":"ケセンヌマシ","town":"唐桑町唯越","town_kana":"カラクワチョウタダコシ","prefecture_code":4},"0511":{"zip_code":"9880511","prefecture":"宮城県","prefecture_kana":"ミヤギケン","city":"気仙沼市","city_kana":"ケセンヌマシ","town":"唐桑町舘","town_kana":"カラクワチョウタテ","prefecture_code":4},"0552":{"zip_code":"9880552","prefecture":"宮城県","prefecture_kana":"ミヤギケン","city":"気仙沼市","city_kana":"ケセンヌマシ","town":"唐桑町津本","town_kana":"カラクワチョウツモト","prefecture_code":4},"0506":{"zip_code":"9880506","prefecture":"宮城県","prefecture_kana":"ミヤギケン","city":"気仙沼市","city_kana":"ケセンヌマシ","town":"唐桑町出山","town_kana":"カラクワチョウデヤマ","prefecture_code":4},"0525":{"zip_code":"9880525","prefecture":"宮城県","prefecture_kana":"ミヤギケン","city":"気仙沼市","city_kana":"ケセンヌマシ","town":"唐桑町堂角","town_kana":"カラクワチョウドウカク","prefecture_code":4},"0542":{"zip_code":"9880542","prefecture":"宮城県","prefecture_kana":"ミヤギケン","city":"気仙沼市","city_kana":"ケセンヌマシ","town":"唐桑町中","town_kana":"カラクワチョウナカ","prefecture_code":4},"0563":{"zip_code":"9880563","prefecture":"宮城県","prefecture_kana":"ミヤギケン","city":"気仙沼市","city_kana":"ケセンヌマシ","town":"唐桑町中井","town_kana":"カラクワチョウナカイ","prefecture_code":4},"0927":{"zip_code":"9880927","prefecture":"宮城県","prefecture_kana":"ミヤギケン","city":"気仙沼市","city_kana":"ケセンヌマシ","town":"唐桑町西舞根","town_kana":"カラクワチョウニシモウネ","prefecture_code":4},"0527":{"zip_code":"9880527","prefecture":"宮城県","prefecture_kana":"ミヤギケン","city":"気仙沼市","city_kana":"ケセンヌマシ","town":"唐桑町西舞根","town_kana":"カラクワチョウニシモウネ","prefecture_code":4},"0513":{"zip_code":"9880513","prefecture":"宮城県","prefecture_kana":"ミヤギケン","city":"気仙沼市","city_kana":"ケセンヌマシ","town":"唐桑町載鈎","town_kana":"カラクワチョウノセカギ","prefecture_code":4},"0535":{"zip_code":"9880535","prefecture":"宮城県","prefecture_kana":"ミヤギケン","city":"気仙沼市","city_kana":"ケセンヌマシ","town":"唐桑町馬場","town_kana":"カラクワチョウババ","prefecture_code":4},"0582":{"zip_code":"9880582","prefecture":"宮城県","prefecture_kana":"ミヤギケン","city":"気仙沼市","city_kana":"ケセンヌマシ","town":"唐桑町東舞根","town_kana":"カラクワチョウヒガシモウネ","prefecture_code":4},"0551":{"zip_code":"9880551","prefecture":"宮城県","prefecture_kana":"ミヤギケン","city":"気仙沼市","city_kana":"ケセンヌマシ","town":"唐桑町松圃","town_kana":"カラクワチョウマツバタケ","prefecture_code":4},"0505":{"zip_code":"9880505","prefecture":"宮城県","prefecture_kana":"ミヤギケン","city":"気仙沼市","city_kana":"ケセンヌマシ","town":"唐桑町港","town_kana":"カラクワチョウミナト","prefecture_code":4},"0834":{"zip_code":"9880834","prefecture":"宮城県","prefecture_kana":"ミヤギケン","city":"気仙沼市","city_kana":"ケセンヌマシ","town":"川上","town_kana":"カワカミ","prefecture_code":4},"0033":{"zip_code":"9880033","prefecture":"宮城県","prefecture_kana":"ミヤギケン","city":"気仙沼市","city_kana":"ケセンヌマシ","town":"川口町","town_kana":"カワグチチョウ","prefecture_code":4},"0846":{"zip_code":"9880846","prefecture":"宮城県","prefecture_kana":"ミヤギケン","city":"気仙沼市","city_kana":"ケセンヌマシ","town":"川崎尻","town_kana":"カワサキジリ","prefecture_code":4},"0041":{"zip_code":"9880041","prefecture":"宮城県","prefecture_kana":"ミヤギケン","city":"気仙沼市","city_kana":"ケセンヌマシ","town":"川畑","town_kana":"カワバタ","prefecture_code":4},"0824":{"zip_code":"9880824","prefecture":"宮城県","prefecture_kana":"ミヤギケン","city":"気仙沼市","city_kana":"ケセンヌマシ","town":"川原崎","town_kana":"カワラザキ","prefecture_code":4},"0022":{"zip_code":"9880022","prefecture":"宮城県","prefecture_kana":"ミヤギケン","city":"気仙沼市","city_kana":"ケセンヌマシ","town":"河原田","town_kana":"カワラダ","prefecture_code":4},"0831":{"zip_code":"9880831","prefecture":"宮城県","prefecture_kana":"ミヤギケン","city":"気仙沼市","city_kana":"ケセンヌマシ","town":"金成沢","town_kana":"カンナリサワ","prefecture_code":4},"0822":{"zip_code":"9880822","prefecture":"宮城県","prefecture_kana":"ミヤギケン","city":"気仙沼市","city_kana":"ケセンヌマシ","town":"切通","town_kana":"キリドオシ","prefecture_code":4},"0064":{"zip_code":"9880064","prefecture":"宮城県","prefecture_kana":"ミヤギケン","city":"気仙沼市","city_kana":"ケセンヌマシ","town":"九条","town_kana":"クジョウ","prefecture_code":4},"0842":{"zip_code":"9880842","prefecture":"宮城県","prefecture_kana":"ミヤギケン","city":"気仙沼市","city_kana":"ケセンヌマシ","town":"久保","town_kana":"クボ","prefecture_code":4},"0081":{"zip_code":"9880081","prefecture":"宮城県","prefecture_kana":"ミヤギケン","city":"気仙沼市","city_kana":"ケセンヌマシ","town":"蔵底","town_kana":"クラソコ","prefecture_code":4},"0868":[{"zip_code":"9880868","prefecture":"宮城県","prefecture_kana":"ミヤギケン","city":"気仙沼市","city_kana":"ケセンヌマシ","town":"黒石山","town_kana":"クロイシヤマ","prefecture_code":4},{"zip_code":"9880868","prefecture":"宮城県","prefecture_kana":"ミヤギケン","city":"気仙沼市","city_kana":"ケセンヌマシ","town":"新関根","town_kana":"シンセキネ","prefecture_code":4},{"zip_code":"9880868","prefecture":"宮城県","prefecture_kana":"ミヤギケン","city":"気仙沼市","city_kana":"ケセンヌマシ","town":"関根","town_kana":"セキネ","prefecture_code":4}],"0863":[{"zip_code":"9880863","prefecture":"宮城県","prefecture_kana":"ミヤギケン","city":"気仙沼市","city_kana":"ケセンヌマシ","town":"黒沢","town_kana":"クロサワ","prefecture_code":4},{"zip_code":"9880863","prefecture":"宮城県","prefecture_kana":"ミヤギケン","city":"気仙沼市","city_kana":"ケセンヌマシ","town":"芳ノ口","town_kana":"ヨシノクチ","prefecture_code":4}],"0072":{"zip_code":"9880072","prefecture":"宮城県","prefecture_kana":"ミヤギケン","city":"気仙沼市","city_kana":"ケセンヌマシ","town":"化粧坂","town_kana":"ケショウザカ","prefecture_code":4},"0836":{"zip_code":"9880836","prefecture":"宮城県","prefecture_kana":"ミヤギケン","city":"気仙沼市","city_kana":"ケセンヌマシ","town":"小芦","town_kana":"コアシ","prefecture_code":4},"0815":{"zip_code":"9880815","prefecture":"宮城県","prefecture_kana":"ミヤギケン","city":"気仙沼市","city_kana":"ケセンヌマシ","town":"小々汐","town_kana":"コゴシオ","prefecture_code":4},"0832":{"zip_code":"9880832","prefecture":"宮城県","prefecture_kana":"ミヤギケン","city":"気仙沼市","city_kana":"ケセンヌマシ","town":"瘻槻","town_kana":"コブツキ","prefecture_code":4},"0633":{"zip_code":"9880633","prefecture":"宮城県","prefecture_kana":"ミヤギケン","city":"気仙沼市","city_kana":"ケセンヌマシ","town":"駒形","town_kana":"コマガタ","prefecture_code":4},"0054":{"zip_code":"9880054","prefecture":"宮城県","prefecture_kana":"ミヤギケン","city":"気仙沼市","city_kana":"ケセンヌマシ","town":"駒場","town_kana":"コマバ","prefecture_code":4},"0214":{"zip_code":"9880214","prefecture":"宮城県","prefecture_kana":"ミヤギケン","city":"気仙沼市","city_kana":"ケセンヌマシ","town":"最知荒沢","town_kana":"サイチアラサワ","prefecture_code":4},"0211":{"zip_code":"9880211","prefecture":"宮城県","prefecture_kana":"ミヤギケン","city":"気仙沼市","city_kana":"ケセンヌマシ","town":"最知川原","town_kana":"サイチカワラ","prefecture_code":4},"0215":{"zip_code":"9880215","prefecture":"宮城県","prefecture_kana":"ミヤギケン","city":"気仙沼市","city_kana":"ケセンヌマシ","town":"最知北最知","town_kana":"サイチキタサイチ","prefecture_code":4},"0213":{"zip_code":"9880213","prefecture":"宮城県","prefecture_kana":"ミヤギケン","city":"気仙沼市","city_kana":"ケセンヌマシ","town":"最知南最知","town_kana":"サイチミナミサイチ","prefecture_code":4},"0212":{"zip_code":"9880212","prefecture":"宮城県","prefecture_kana":"ミヤギケン","city":"気仙沼市","city_kana":"ケセンヌマシ","town":"最知森合","town_kana":"サイチモリアイ","prefecture_code":4},"0026":{"zip_code":"9880026","prefecture":"宮城県","prefecture_kana":"ミヤギケン","city":"気仙沼市","city_kana":"ケセンヌマシ","town":"幸町","town_kana":"サイワイチョウ","prefecture_code":4},"0012":{"zip_code":"9880012","prefecture":"宮城県","prefecture_kana":"ミヤギケン","city":"気仙沼市","city_kana":"ケセンヌマシ","town":"栄町","town_kana":"サカエチョウ","prefecture_code":4},"0013":{"zip_code":"9880013","prefecture":"宮城県","prefecture_kana":"ミヤギケン","city":"気仙沼市","city_kana":"ケセンヌマシ","town":"魚町","town_kana":"サカナマチ","prefecture_code":4},"0073":{"zip_code":"9880073","prefecture":"宮城県","prefecture_kana":"ミヤギケン","city":"気仙沼市","city_kana":"ケセンヌマシ","town":"笹が陣","town_kana":"ササガジン","prefecture_code":4},"0016":{"zip_code":"9880016","prefecture":"宮城県","prefecture_kana":"ミヤギケン","city":"気仙沼市","city_kana":"ケセンヌマシ","town":"沢田","town_kana":"サワダ","prefecture_code":4},"0818":{"zip_code":"9880818","prefecture":"宮城県","prefecture_kana":"ミヤギケン","city":"気仙沼市","city_kana":"ケセンヌマシ","town":"三ノ浜","town_kana":"サンノハマ","prefecture_code":4},"0031":{"zip_code":"9880031","prefecture":"宮城県","prefecture_kana":"ミヤギケン","city":"気仙沼市","city_kana":"ケセンヌマシ","town":"潮見町","town_kana":"シオミチョウ","prefecture_code":4},"0063":{"zip_code":"9880063","prefecture":"宮城県","prefecture_kana":"ミヤギケン","city":"気仙沼市","city_kana":"ケセンヌマシ","town":"四反田","town_kana":"シタンダ","prefecture_code":4},"0828":{"zip_code":"9880828","prefecture":"宮城県","prefecture_kana":"ミヤギケン","city":"気仙沼市","city_kana":"ケセンヌマシ","town":"下新田","town_kana":"シモシンデン","prefecture_code":4},"0851":{"zip_code":"9880851","prefecture":"宮城県","prefecture_kana":"ミヤギケン","city":"気仙沼市","city_kana":"ケセンヌマシ","town":"下八瀬","town_kana":"シモヤツセ","prefecture_code":4},"0051":{"zip_code":"9880051","prefecture":"宮城県","prefecture_kana":"ミヤギケン","city":"気仙沼市","city_kana":"ケセンヌマシ","town":"常楽","town_kana":"ジョウラク","prefecture_code":4},"0807":{"zip_code":"9880807","prefecture":"宮城県","prefecture_kana":"ミヤギケン","city":"気仙沼市","city_kana":"ケセンヌマシ","town":"白石","town_kana":"シライシ","prefecture_code":4},"0867":[{"zip_code":"9880867","prefecture":"宮城県","prefecture_kana":"ミヤギケン","city":"気仙沼市","city_kana":"ケセンヌマシ","town":"新台","town_kana":"シンダイ","prefecture_code":4},{"zip_code":"9880867","prefecture":"宮城県","prefecture_kana":"ミヤギケン","city":"気仙沼市","city_kana":"ケセンヌマシ","town":"台","town_kana":"ダイ","prefecture_code":4}],"0829":{"zip_code":"9880829","prefecture":"宮城県","prefecture_kana":"ミヤギケン","city":"気仙沼市","city_kana":"ケセンヌマシ","town":"新田","town_kana":"シンデン","prefecture_code":4},"0005":{"zip_code":"9880005","prefecture":"宮城県","prefecture_kana":"ミヤギケン","city":"気仙沼市","city_kana":"ケセンヌマシ","town":"新浜町","town_kana":"シンハマチョウ","prefecture_code":4},"0011":{"zip_code":"9880011","prefecture":"宮城県","prefecture_kana":"ミヤギケン","city":"気仙沼市","city_kana":"ケセンヌマシ","town":"陣山","town_kana":"ジンヤマ","prefecture_code":4},"0865":[{"zip_code":"9880865","prefecture":"宮城県","prefecture_kana":"ミヤギケン","city":"気仙沼市","city_kana":"ケセンヌマシ","town":"新早稲谷","town_kana":"シンワセヤ","prefecture_code":4},{"zip_code":"9880865","prefecture":"宮城県","prefecture_kana":"ミヤギケン","city":"気仙沼市","city_kana":"ケセンヌマシ","town":"早稲谷","town_kana":"ワセヤ","prefecture_code":4}],"0844":{"zip_code":"9880844","prefecture":"宮城県","prefecture_kana":"ミヤギケン","city":"気仙沼市","city_kana":"ケセンヌマシ","town":"象ケ鼻","town_kana":"ゾウガハナ","prefecture_code":4},"0603":{"zip_code":"9880603","prefecture":"宮城県","prefecture_kana":"ミヤギケン","city":"気仙沼市","city_kana":"ケセンヌマシ","town":"外畑","town_kana":"ソトバタケ","prefecture_code":4},"0601":{"zip_code":"9880601","prefecture":"宮城県","prefecture_kana":"ミヤギケン","city":"気仙沼市","city_kana":"ケセンヌマシ","town":"外浜","town_kana":"ソトハマ","prefecture_code":4},"0055":{"zip_code":"9880055","prefecture":"宮城県","prefecture_kana":"ミヤギケン","city":"気仙沼市","city_kana":"ケセンヌマシ","town":"反松","town_kana":"ソリマツ","prefecture_code":4},"0613":{"zip_code":"9880613","prefecture":"宮城県","prefecture_kana":"ミヤギケン","city":"気仙沼市","city_kana":"ケセンヌマシ","town":"高井","town_kana":"タカイ","prefecture_code":4},"0802":[{"zip_code":"9880802","prefecture":"宮城県","prefecture_kana":"ミヤギケン","city":"気仙沼市","city_kana":"ケセンヌマシ","town":"高判形山","town_kana":"タカハンギョウヤマ","prefecture_code":4},{"zip_code":"9880802","prefecture":"宮城県","prefecture_kana":"ミヤギケン","city":"気仙沼市","city_kana":"ケセンヌマシ","town":"日ノ口","town_kana":"ヒノクチ","prefecture_code":4}],"0087":{"zip_code":"9880087","prefecture":"宮城県","prefecture_kana":"ミヤギケン","city":"気仙沼市","city_kana":"ケセンヌマシ","town":"滝の入","town_kana":"タキノイリ","prefecture_code":4},"0611":{"zip_code":"9880611","prefecture":"宮城県","prefecture_kana":"ミヤギケン","city":"気仙沼市","city_kana":"ケセンヌマシ","town":"田尻","town_kana":"タジリ","prefecture_code":4},"0825":{"zip_code":"9880825","prefecture":"宮城県","prefecture_kana":"ミヤギケン","city":"気仙沼市","city_kana":"ケセンヌマシ","town":"田尻沢","town_kana":"タジリザワ","prefecture_code":4},"0076":{"zip_code":"9880076","prefecture":"宮城県","prefecture_kana":"ミヤギケン","city":"気仙沼市","city_kana":"ケセンヌマシ","town":"舘山","town_kana":"タテヤマ","prefecture_code":4},"0052":{"zip_code":"9880052","prefecture":"宮城県","prefecture_kana":"ミヤギケン","city":"気仙沼市","city_kana":"ケセンヌマシ","town":"田中","town_kana":"タナカ","prefecture_code":4},"0058":{"zip_code":"9880058","prefecture":"宮城県","prefecture_kana":"ミヤギケン","city":"気仙沼市","city_kana":"ケセンヌマシ","town":"田中沖","town_kana":"タナカオキ","prefecture_code":4},"0053":{"zip_code":"9880053","prefecture":"宮城県","prefecture_kana":"ミヤギケン","city":"気仙沼市","city_kana":"ケセンヌマシ","town":"田中前","town_kana":"タナカマエ","prefecture_code":4},"0045":{"zip_code":"9880045","prefecture":"宮城県","prefecture_kana":"ミヤギケン","city":"気仙沼市","city_kana":"ケセンヌマシ","town":"田谷","town_kana":"タヤ","prefecture_code":4},"0046":{"zip_code":"9880046","prefecture":"宮城県","prefecture_kana":"ミヤギケン","city":"気仙沼市","city_kana":"ケセンヌマシ","town":"田谷前","town_kana":"タヤマエ","prefecture_code":4},"0864":{"zip_code":"9880864","prefecture":"宮城県","prefecture_kana":"ミヤギケン","city":"気仙沼市","city_kana":"ケセンヌマシ","town":"塚沢","town_kana":"ツカザワ","prefecture_code":4},"0826":{"zip_code":"9880826","prefecture":"宮城県","prefecture_kana":"ミヤギケン","city":"気仙沼市","city_kana":"ケセンヌマシ","town":"百目木","town_kana":"ドウメキ","prefecture_code":4},"0057":{"zip_code":"9880057","prefecture":"宮城県","prefecture_kana":"ミヤギケン","city":"気仙沼市","city_kana":"ケセンヌマシ","town":"所沢","town_kana":"トコロザワ","prefecture_code":4},"0025":{"zip_code":"9880025","prefecture":"宮城県","prefecture_kana":"ミヤギケン","city":"気仙沼市","city_kana":"ケセンヌマシ","town":"内ノ脇","town_kana":"ナイノワキ","prefecture_code":4},"0237":{"zip_code":"9880237","prefecture":"宮城県","prefecture_kana":"ミヤギケン","city":"気仙沼市","city_kana":"ケセンヌマシ","town":"長磯赤貝","town_kana":"ナガイソアカガイ","prefecture_code":4},"0226":{"zip_code":"9880226","prefecture":"宮城県","prefecture_kana":"ミヤギケン","city":"気仙沼市","city_kana":"ケセンヌマシ","town":"長磯後沢","town_kana":"ナガイソウシロザワ","prefecture_code":4},"0225":{"zip_code":"9880225","prefecture":"宮城県","prefecture_kana":"ミヤギケン","city":"気仙沼市","city_kana":"ケセンヌマシ","town":"長磯大窪","town_kana":"ナガイソオオクボ","prefecture_code":4},"0221":{"zip_code":"9880221","prefecture":"宮城県","prefecture_kana":"ミヤギケン","city":"気仙沼市","city_kana":"ケセンヌマシ","town":"長磯七半沢","town_kana":"ナガイソシチハンザワ","prefecture_code":4},"0232":{"zip_code":"9880232","prefecture":"宮城県","prefecture_kana":"ミヤギケン","city":"気仙沼市","city_kana":"ケセンヌマシ","town":"長磯下原","town_kana":"ナガイソシモバラ","prefecture_code":4},"0223":{"zip_code":"9880223","prefecture":"宮城県","prefecture_kana":"ミヤギケン","city":"気仙沼市","city_kana":"ケセンヌマシ","town":"長磯鳥子沢","town_kana":"ナガイソトリコザワ","prefecture_code":4},"0238":{"zip_code":"9880238","prefecture":"宮城県","prefecture_kana":"ミヤギケン","city":"気仙沼市","city_kana":"ケセンヌマシ","town":"長磯中原","town_kana":"ナガイソナカハラ","prefecture_code":4},"0236":{"zip_code":"9880236","prefecture":"宮城県","prefecture_kana":"ミヤギケン","city":"気仙沼市","city_kana":"ケセンヌマシ","town":"長磯二本松","town_kana":"ナガイソニホンマツ","prefecture_code":4},"0231":{"zip_code":"9880231","prefecture":"宮城県","prefecture_kana":"ミヤギケン","city":"気仙沼市","city_kana":"ケセンヌマシ","town":"長磯浜","town_kana":"ナガイソハマ","prefecture_code":4},"0233":{"zip_code":"9880233","prefecture":"宮城県","prefecture_kana":"ミヤギケン","city":"気仙沼市","city_kana":"ケセンヌマシ","town":"長磯原","town_kana":"ナガイソハラ","prefecture_code":4},"0234":{"zip_code":"9880234","prefecture":"宮城県","prefecture_kana":"ミヤギケン","city":"気仙沼市","city_kana":"ケセンヌマシ","town":"長磯原ノ沢","town_kana":"ナガイソハラノサワ","prefecture_code":4},"0222":{"zip_code":"9880222","prefecture":"宮城県","prefecture_kana":"ミヤギケン","city":"気仙沼市","city_kana":"ケセンヌマシ","town":"長磯船原","town_kana":"ナガイソフナハラ","prefecture_code":4},"0224":{"zip_code":"9880224","prefecture":"宮城県","prefecture_kana":"ミヤギケン","city":"気仙沼市","city_kana":"ケセンヌマシ","town":"長磯前林","town_kana":"ナガイソマエバヤシ","prefecture_code":4},"0235":{"zip_code":"9880235","prefecture":"宮城県","prefecture_kana":"ミヤギケン","city":"気仙沼市","city_kana":"ケセンヌマシ","town":"長磯牧通","town_kana":"ナガイソマギドオリ","prefecture_code":4},"0227":{"zip_code":"9880227","prefecture":"宮城県","prefecture_kana":"ミヤギケン","city":"気仙沼市","city_kana":"ケセンヌマシ","town":"長磯森","town_kana":"ナガイソモリ","prefecture_code":4},"0835":{"zip_code":"9880835","prefecture":"宮城県","prefecture_kana":"ミヤギケン","city":"気仙沼市","city_kana":"ケセンヌマシ","town":"長岩間","town_kana":"ナガイワマ","prefecture_code":4},"0621":{"zip_code":"9880621","prefecture":"宮城県","prefecture_kana":"ミヤギケン","city":"気仙沼市","city_kana":"ケセンヌマシ","town":"長崎","town_kana":"ナガサキ","prefecture_code":4},"0024":{"zip_code":"9880024","prefecture":"宮城県","prefecture_kana":"ミヤギケン","city":"気仙沼市","city_kana":"ケセンヌマシ","town":"仲町","town_kana":"ナカマチ","prefecture_code":4},"0007":{"zip_code":"9880007","prefecture":"宮城県","prefecture_kana":"ミヤギケン","city":"気仙沼市","city_kana":"ケセンヌマシ","town":"中みなと町","town_kana":"ナカミナトチョウ","prefecture_code":4},"0622":{"zip_code":"9880622","prefecture":"宮城県","prefecture_kana":"ミヤギケン","city":"気仙沼市","city_kana":"ケセンヌマシ","town":"中山","town_kana":"ナカヤマ","prefecture_code":4},"0855":{"zip_code":"9880855","prefecture":"宮城県","prefecture_kana":"ミヤギケン","city":"気仙沼市","city_kana":"ケセンヌマシ","town":"名木沢","town_kana":"ナギサワ","prefecture_code":4},"0813":{"zip_code":"9880813","prefecture":"宮城県","prefecture_kana":"ミヤギケン","city":"気仙沼市","city_kana":"ケセンヌマシ","town":"浪板","town_kana":"ナミイタ","prefecture_code":4},"0043":{"zip_code":"9880043","prefecture":"宮城県","prefecture_kana":"ミヤギケン","city":"気仙沼市","city_kana":"ケセンヌマシ","town":"南郷","town_kana":"ナンゴウ","prefecture_code":4},"0002":{"zip_code":"9880002","prefecture":"宮城県","prefecture_kana":"ミヤギケン","city":"気仙沼市","city_kana":"ケセンヌマシ","town":"錦町","town_kana":"ニシキチョウ","prefecture_code":4},"0805":{"zip_code":"9880805","prefecture":"宮城県","prefecture_kana":"ミヤギケン","city":"気仙沼市","city_kana":"ケセンヌマシ","town":"西中才","town_kana":"ニシナカサイ","prefecture_code":4},"0817":[{"zip_code":"9880817","prefecture":"宮城県","prefecture_kana":"ミヤギケン","city":"気仙沼市","city_kana":"ケセンヌマシ","town":"西八幡町","town_kana":"ニシハチマンチョウ","prefecture_code":4},{"zip_code":"9880817","prefecture":"宮城県","prefecture_kana":"ミヤギケン","city":"気仙沼市","city_kana":"ケセンヌマシ","town":"西八幡前","town_kana":"ニシハチマンマエ","prefecture_code":4}],"0006":{"zip_code":"9880006","prefecture":"宮城県","prefecture_kana":"ミヤギケン","city":"気仙沼市","city_kana":"ケセンヌマシ","town":"西みなと町","town_kana":"ニシミナトチョウ","prefecture_code":4},"0816":{"zip_code":"9880816","prefecture":"宮城県","prefecture_kana":"ミヤギケン","city":"気仙沼市","city_kana":"ケセンヌマシ","town":"二ノ浜","town_kana":"ニノハマ","prefecture_code":4},"0241":{"zip_code":"9880241","prefecture":"宮城県","prefecture_kana":"ミヤギケン","city":"気仙沼市","city_kana":"ケセンヌマシ","town":"波路上岩井崎","town_kana":"ハジカミイワイサキ","prefecture_code":4},"0252":{"zip_code":"9880252","prefecture":"宮城県","prefecture_kana":"ミヤギケン","city":"気仙沼市","city_kana":"ケセンヌマシ","town":"波路上後原","town_kana":"ハジカミウシロバラ","prefecture_code":4},"0251":{"zip_code":"9880251","prefecture":"宮城県","prefecture_kana":"ミヤギケン","city":"気仙沼市","city_kana":"ケセンヌマシ","town":"波路上内田","town_kana":"ハジカミウチダ","prefecture_code":4},"0247":{"zip_code":"9880247","prefecture":"宮城県","prefecture_kana":"ミヤギケン","city":"気仙沼市","city_kana":"ケセンヌマシ","town":"波路上内沼","town_kana":"ハジカミウチヌマ","prefecture_code":4},"0242":{"zip_code":"9880242","prefecture":"宮城県","prefecture_kana":"ミヤギケン","city":"気仙沼市","city_kana":"ケセンヌマシ","town":"波路上崎野","town_kana":"ハジカミサキノ","prefecture_code":4},"0245":{"zip_code":"9880245","prefecture":"宮城県","prefecture_kana":"ミヤギケン","city":"気仙沼市","city_kana":"ケセンヌマシ","town":"波路上杉ノ下","town_kana":"ハジカミスギノシタ","prefecture_code":4},"0246":{"zip_code":"9880246","prefecture":"宮城県","prefecture_kana":"ミヤギケン","city":"気仙沼市","city_kana":"ケセンヌマシ","town":"波路上瀬向","town_kana":"ハジカミセムカイ","prefecture_code":4},"0254":{"zip_code":"9880254","prefecture":"宮城県","prefecture_kana":"ミヤギケン","city":"気仙沼市","city_kana":"ケセンヌマシ","town":"波路上野田","town_kana":"ハジカミノダ","prefecture_code":4},"0253":{"zip_code":"9880253","prefecture":"宮城県","prefecture_kana":"ミヤギケン","city":"気仙沼市","city_kana":"ケセンヌマシ","town":"波路上原","town_kana":"ハジカミハラ","prefecture_code":4},"0243":{"zip_code":"9880243","prefecture":"宮城県","prefecture_kana":"ミヤギケン","city":"気仙沼市","city_kana":"ケセンヌマシ","town":"波路上牧","town_kana":"ハジカミマギ","prefecture_code":4},"0255":{"zip_code":"9880255","prefecture":"宮城県","prefecture_kana":"ミヤギケン","city":"気仙沼市","city_kana":"ケセンヌマシ","town":"波路上向田","town_kana":"ハジカミムカイダ","prefecture_code":4},"0256":{"zip_code":"9880256","prefecture":"宮城県","prefecture_kana":"ミヤギケン","city":"気仙沼市","city_kana":"ケセンヌマシ","town":"波路上向原","town_kana":"ハジカミムカイバラ","prefecture_code":4},"0244":{"zip_code":"9880244","prefecture":"宮城県","prefecture_kana":"ミヤギケン","city":"気仙沼市","city_kana":"ケセンヌマシ","town":"波路上明戸","town_kana":"ハジカミアケド","prefecture_code":4},"0004":{"zip_code":"9880004","prefecture":"宮城県","prefecture_kana":"ミヤギケン","city":"気仙沼市","city_kana":"ケセンヌマシ","town":"浜町","town_kana":"ハマチョウ","prefecture_code":4},"0015":{"zip_code":"9880015","prefecture":"宮城県","prefecture_kana":"ミヤギケン","city":"気仙沼市","city_kana":"ケセンヌマシ","town":"浜見山","town_kana":"ハマミヤマ","prefecture_code":4},"0066":{"zip_code":"9880066","prefecture":"宮城県","prefecture_kana":"ミヤギケン","city":"気仙沼市","city_kana":"ケセンヌマシ","town":"東新城","town_kana":"ヒガシシンジョウ","prefecture_code":4},"0804":{"zip_code":"9880804","prefecture":"宮城県","prefecture_kana":"ミヤギケン","city":"気仙沼市","city_kana":"ケセンヌマシ","town":"東中才","town_kana":"ヒガシナカサイ","prefecture_code":4},"0811":{"zip_code":"9880811","prefecture":"宮城県","prefecture_kana":"ミヤギケン","city":"気仙沼市","city_kana":"ケセンヌマシ","town":"東八幡前","town_kana":"ヒガシハチマンマエ","prefecture_code":4},"0001":{"zip_code":"9880001","prefecture":"宮城県","prefecture_kana":"ミヤギケン","city":"気仙沼市","city_kana":"ケセンヌマシ","town":"東みなと町","town_kana":"ヒガシミナトチョウ","prefecture_code":4},"0086":{"zip_code":"9880086","prefecture":"宮城県","prefecture_kana":"ミヤギケン","city":"気仙沼市","city_kana":"ケセンヌマシ","town":"福美町","town_kana":"フクミチョウ","prefecture_code":4},"0077":{"zip_code":"9880077","prefecture":"宮城県","prefecture_kana":"ミヤギケン","city":"気仙沼市","city_kana":"ケセンヌマシ","town":"古町","town_kana":"フルマチ","prefecture_code":4},"0036":{"zip_code":"9880036","prefecture":"宮城県","prefecture_kana":"ミヤギケン","city":"気仙沼市","city_kana":"ケセンヌマシ","town":"弁天町","town_kana":"ベンテンチョウ","prefecture_code":4},"0861":{"zip_code":"9880861","prefecture":"宮城県","prefecture_kana":"ミヤギケン","city":"気仙沼市","city_kana":"ケセンヌマシ","town":"細尾","town_kana":"ホソオ","prefecture_code":4},"0042":{"zip_code":"9880042","prefecture":"宮城県","prefecture_kana":"ミヤギケン","city":"気仙沼市","city_kana":"ケセンヌマシ","town":"本郷","town_kana":"ホンゴウ","prefecture_code":4},"0845":{"zip_code":"9880845","prefecture":"宮城県","prefecture_kana":"ミヤギケン","city":"気仙沼市","city_kana":"ケセンヌマシ","town":"前木","town_kana":"マエギ","prefecture_code":4},"0852":{"zip_code":"9880852","prefecture":"宮城県","prefecture_kana":"ミヤギケン","city":"気仙沼市","city_kana":"ケセンヌマシ","town":"松川","town_kana":"マツカワ","prefecture_code":4},"0853":{"zip_code":"9880853","prefecture":"宮城県","prefecture_kana":"ミヤギケン","city":"気仙沼市","city_kana":"ケセンヌマシ","town":"松川前","town_kana":"マツカワマエ","prefecture_code":4},"0114":{"zip_code":"9880114","prefecture":"宮城県","prefecture_kana":"ミヤギケン","city":"気仙沼市","city_kana":"ケセンヌマシ","town":"松崎浦田","town_kana":"マツザキウラダ","prefecture_code":4},"0155":{"zip_code":"9880155","prefecture":"宮城県","prefecture_kana":"ミヤギケン","city":"気仙沼市","city_kana":"ケセンヌマシ","town":"松崎大萱","town_kana":"マツザキオオカヤ","prefecture_code":4},"0131":{"zip_code":"9880131","prefecture":"宮城県","prefecture_kana":"ミヤギケン","city":"気仙沼市","city_kana":"ケセンヌマシ","town":"松崎尾崎","town_kana":"マツザキオサキ","prefecture_code":4},"0153":{"zip_code":"9880153","prefecture":"宮城県","prefecture_kana":"ミヤギケン","city":"気仙沼市","city_kana":"ケセンヌマシ","town":"松崎面瀬","town_kana":"マツザキオモセ","prefecture_code":4},"0113":{"zip_code":"9880113","prefecture":"宮城県","prefecture_kana":"ミヤギケン","city":"気仙沼市","city_kana":"ケセンヌマシ","town":"松崎片浜","town_kana":"マツザキカタハマ","prefecture_code":4},"0134":{"zip_code":"9880134","prefecture":"宮城県","prefecture_kana":"ミヤギケン","city":"気仙沼市","city_kana":"ケセンヌマシ","town":"松崎上赤田","town_kana":"マツザキカミアカダ","prefecture_code":4},"0157":{"zip_code":"9880157","prefecture":"宮城県","prefecture_kana":"ミヤギケン","city":"気仙沼市","city_kana":"ケセンヌマシ","town":"松崎上金取","town_kana":"マツザキカミカネトリ","prefecture_code":4},"0121":{"zip_code":"9880121","prefecture":"宮城県","prefecture_kana":"ミヤギケン","city":"気仙沼市","city_kana":"ケセンヌマシ","town":"松崎萱","town_kana":"マツザキカヤ","prefecture_code":4},"0111":{"zip_code":"9880111","prefecture":"宮城県","prefecture_kana":"ミヤギケン","city":"気仙沼市","city_kana":"ケセンヌマシ","town":"松崎北沢","town_kana":"マツザキキタサワ","prefecture_code":4},"0122":{"zip_code":"9880122","prefecture":"宮城県","prefecture_kana":"ミヤギケン","city":"気仙沼市","city_kana":"ケセンヌマシ","town":"松崎五駄鱈","town_kana":"マツザキゴダンタラ","prefecture_code":4},"0143":{"zip_code":"9880143","prefecture":"宮城県","prefecture_kana":"ミヤギケン","city":"気仙沼市","city_kana":"ケセンヌマシ","town":"松崎地生","town_kana":"マツザキジショウ","prefecture_code":4},"0133":{"zip_code":"9880133","prefecture":"宮城県","prefecture_kana":"ミヤギケン","city":"気仙沼市","city_kana":"ケセンヌマシ","town":"松崎下赤田","town_kana":"マツザキシモアカダ","prefecture_code":4},"0156":{"zip_code":"9880156","prefecture":"宮城県","prefecture_kana":"ミヤギケン","city":"気仙沼市","city_kana":"ケセンヌマシ","town":"松崎下金取","town_kana":"マツザキシモカネトリ","prefecture_code":4},"0152":{"zip_code":"9880152","prefecture":"宮城県","prefecture_kana":"ミヤギケン","city":"気仙沼市","city_kana":"ケセンヌマシ","town":"松崎外ケ沢","town_kana":"マツザキソトガサワ","prefecture_code":4},"0124":{"zip_code":"9880124","prefecture":"宮城県","prefecture_kana":"ミヤギケン","city":"気仙沼市","city_kana":"ケセンヌマシ","town":"松崎高谷","town_kana":"マツザキタカヤ","prefecture_code":4},"0151":{"zip_code":"9880151","prefecture":"宮城県","prefecture_kana":"ミヤギケン","city":"気仙沼市","city_kana":"ケセンヌマシ","town":"松崎立石","town_kana":"マツザキタテイシ","prefecture_code":4},"0144":{"zip_code":"9880144","prefecture":"宮城県","prefecture_kana":"ミヤギケン","city":"気仙沼市","city_kana":"ケセンヌマシ","town":"松崎鶴巻","town_kana":"マツザキツルマキ","prefecture_code":4},"0123":{"zip_code":"9880123","prefecture":"宮城県","prefecture_kana":"ミヤギケン","city":"気仙沼市","city_kana":"ケセンヌマシ","town":"松崎中瀬","town_kana":"マツザキナカゼ","prefecture_code":4},"0154":{"zip_code":"9880154","prefecture":"宮城県","prefecture_kana":"ミヤギケン","city":"気仙沼市","city_kana":"ケセンヌマシ","town":"松崎猫渕","town_kana":"マツザキネコブチ","prefecture_code":4},"0132":{"zip_code":"9880132","prefecture":"宮城県","prefecture_kana":"ミヤギケン","city":"気仙沼市","city_kana":"ケセンヌマシ","town":"松崎馬場","town_kana":"マツザキババ","prefecture_code":4},"0112":{"zip_code":"9880112","prefecture":"宮城県","prefecture_kana":"ミヤギケン","city":"気仙沼市","city_kana":"ケセンヌマシ","town":"松崎前浜","town_kana":"マツザキマエハマ","prefecture_code":4},"0142":{"zip_code":"9880142","prefecture":"宮城県","prefecture_kana":"ミヤギケン","city":"気仙沼市","city_kana":"ケセンヌマシ","town":"松崎丸森","town_kana":"マツザキマルモリ","prefecture_code":4},"0141":{"zip_code":"9880141","prefecture":"宮城県","prefecture_kana":"ミヤギケン","city":"気仙沼市","city_kana":"ケセンヌマシ","town":"松崎柳沢","town_kana":"マツザキヤナギサワ","prefecture_code":4},"0604":{"zip_code":"9880604","prefecture":"宮城県","prefecture_kana":"ミヤギケン","city":"気仙沼市","city_kana":"ケセンヌマシ","town":"廻舘","town_kana":"マワリダテ","prefecture_code":4},"0631":{"zip_code":"9880631","prefecture":"宮城県","prefecture_kana":"ミヤギケン","city":"気仙沼市","city_kana":"ケセンヌマシ","town":"三作浜","town_kana":"ミサクハマ","prefecture_code":4},"0085":{"zip_code":"9880085","prefecture":"宮城県","prefecture_kana":"ミヤギケン","city":"気仙沼市","city_kana":"ケセンヌマシ","town":"三日町","town_kana":"ミッカマチ","prefecture_code":4},"0021":{"zip_code":"9880021","prefecture":"宮城県","prefecture_kana":"ミヤギケン","city":"気仙沼市","city_kana":"ケセンヌマシ","town":"港町","town_kana":"ミナトマチ","prefecture_code":4},"0023":{"zip_code":"9880023","prefecture":"宮城県","prefecture_kana":"ミヤギケン","city":"気仙沼市","city_kana":"ケセンヌマシ","town":"南が丘","town_kana":"ミナミガオカ","prefecture_code":4},"0017":{"zip_code":"9880017","prefecture":"宮城県","prefecture_kana":"ミヤギケン","city":"気仙沼市","city_kana":"ケセンヌマシ","town":"南町","town_kana":"ミナミマチ","prefecture_code":4},"0018":{"zip_code":"9880018","prefecture":"宮城県","prefecture_kana":"ミヤギケン","city":"気仙沼市","city_kana":"ケセンヌマシ","town":"南町海岸","town_kana":"ミナミマチカイガン","prefecture_code":4},"0823":{"zip_code":"9880823","prefecture":"宮城県","prefecture_kana":"ミヤギケン","city":"気仙沼市","city_kana":"ケセンヌマシ","town":"茗荷沢","town_kana":"ミョウガサワ","prefecture_code":4},"0003":{"zip_code":"9880003","prefecture":"宮城県","prefecture_kana":"ミヤギケン","city":"気仙沼市","city_kana":"ケセンヌマシ","town":"本浜町","town_kana":"モトハマチョウ","prefecture_code":4},"0074":{"zip_code":"9880074","prefecture":"宮城県","prefecture_kana":"ミヤギケン","city":"気仙沼市","city_kana":"ケセンヌマシ","town":"本町","town_kana":"モトマチ","prefecture_code":4},"0284":{"zip_code":"9880284","prefecture":"宮城県","prefecture_kana":"ミヤギケン","city":"気仙沼市","city_kana":"ケセンヌマシ","town":"本吉町赤牛","town_kana":"モトヨシチョウアカウシ","prefecture_code":4},"0277":[{"zip_code":"9880277","prefecture":"宮城県","prefecture_kana":"ミヤギケン","city":"気仙沼市","city_kana":"ケセンヌマシ","town":"本吉町天ヶ沢","town_kana":"モトヨシチョウアマガサワ","prefecture_code":4},{"zip_code":"9880277","prefecture":"宮城県","prefecture_kana":"ミヤギケン","city":"気仙沼市","city_kana":"ケセンヌマシ","town":"本吉町田の沢","town_kana":"モトヨシチョウタノサワ","prefecture_code":4}],"0268":{"zip_code":"9880268","prefecture":"宮城県","prefecture_kana":"ミヤギケン","city":"気仙沼市","city_kana":"ケセンヌマシ","town":"本吉町石川原","town_kana":"モトヨシチョウイシカワラ","prefecture_code":4},"0339":{"zip_code":"9880339","prefecture":"宮城県","prefecture_kana":"ミヤギケン","city":"気仙沼市","city_kana":"ケセンヌマシ","town":"本吉町泉","town_kana":"モトヨシチョウイズミ","prefecture_code":4},"0336":{"zip_code":"9880336","prefecture":"宮城県","prefecture_kana":"ミヤギケン","city":"気仙沼市","city_kana":"ケセンヌマシ","town":"本吉町泉沢","town_kana":"モトヨシチョウイズミサワ","prefecture_code":4},"0347":{"zip_code":"9880347","prefecture":"宮城県","prefecture_kana":"ミヤギケン","city":"気仙沼市","city_kana":"ケセンヌマシ","town":"本吉町猪の鼻","town_kana":"モトヨシチョウイノハナ","prefecture_code":4},"0261":[{"zip_code":"9880261","prefecture":"宮城県","prefecture_kana":"ミヤギケン","city":"気仙沼市","city_kana":"ケセンヌマシ","town":"本吉町後田","town_kana":"モトヨシチョウウシロダ","prefecture_code":4},{"zip_code":"9880261","prefecture":"宮城県","prefecture_kana":"ミヤギケン","city":"気仙沼市","city_kana":"ケセンヌマシ","town":"本吉町直伝","town_kana":"モトヨシチョウジキデン","prefecture_code":4},{"zip_code":"9880261","prefecture":"宮城県","prefecture_kana":"ミヤギケン","city":"気仙沼市","city_kana":"ケセンヌマシ","town":"本吉町土樋下","town_kana":"モトヨシチョウツチドイシタ","prefecture_code":4}],"0324":{"zip_code":"9880324","prefecture":"宮城県","prefecture_kana":"ミヤギケン","city":"気仙沼市","city_kana":"ケセンヌマシ","town":"本吉町歌生","town_kana":"モトヨシチョウウトウ","prefecture_code":4},"0313":{"zip_code":"9880313","prefecture":"宮城県","prefecture_kana":"ミヤギケン","city":"気仙沼市","city_kana":"ケセンヌマシ","town":"本吉町卯名沢","town_kana":"モトヨシチョウウナザワ","prefecture_code":4},"0371":{"zip_code":"9880371","prefecture":"宮城県","prefecture_kana":"ミヤギケン","city":"気仙沼市","city_kana":"ケセンヌマシ","town":"本吉町漆原","town_kana":"モトヨシチョウウルシバラ","prefecture_code":4},"0301":{"zip_code":"9880301","prefecture":"宮城県","prefecture_kana":"ミヤギケン","city":"気仙沼市","city_kana":"ケセンヌマシ","town":"本吉町狼の巣","town_kana":"モトヨシチョウオイノス","prefecture_code":4},"0306":{"zip_code":"9880306","prefecture":"宮城県","prefecture_kana":"ミヤギケン","city":"気仙沼市","city_kana":"ケセンヌマシ","town":"本吉町大椚","town_kana":"モトヨシチョウオオクヌギ","prefecture_code":4},"0304":{"zip_code":"9880304","prefecture":"宮城県","prefecture_kana":"ミヤギケン","city":"気仙沼市","city_kana":"ケセンヌマシ","town":"本吉町大沢","town_kana":"モトヨシチョウオオサワ","prefecture_code":4},"0356":{"zip_code":"9880356","prefecture":"宮城県","prefecture_kana":"ミヤギケン","city":"気仙沼市","city_kana":"ケセンヌマシ","town":"本吉町大柴","town_kana":"モトヨシチョウオオシバ","prefecture_code":4},"0358":{"zip_code":"9880358","prefecture":"宮城県","prefecture_kana":"ミヤギケン","city":"気仙沼市","city_kana":"ケセンヌマシ","town":"本吉町大東","town_kana":"モトヨシチョウオオヒガシ","prefecture_code":4},"0287":{"zip_code":"9880287","prefecture":"宮城県","prefecture_kana":"ミヤギケン","city":"気仙沼市","city_kana":"ケセンヌマシ","town":"本吉町大朴木","town_kana":"モトヨシチョウオオボウキ","prefecture_code":4},"0283":[{"zip_code":"9880283","prefecture":"宮城県","prefecture_kana":"ミヤギケン","city":"気仙沼市","city_kana":"ケセンヌマシ","town":"本吉町大森","town_kana":"モトヨシチョウオオモリ","prefecture_code":4},{"zip_code":"9880283","prefecture":"宮城県","prefecture_kana":"ミヤギケン","city":"気仙沼市","city_kana":"ケセンヌマシ","town":"本吉町谷地","town_kana":"モトヨシチョウヤチ","prefecture_code":4}],"0272":{"zip_code":"9880272","prefecture":"宮城県","prefecture_kana":"ミヤギケン","city":"気仙沼市","city_kana":"ケセンヌマシ","town":"本吉町大谷","town_kana":"モトヨシチョウオオヤ","prefecture_code":4},"0262":{"zip_code":"9880262","prefecture":"宮城県","prefecture_kana":"ミヤギケン","city":"気仙沼市","city_kana":"ケセンヌマシ","town":"本吉町沖の田","town_kana":"モトヨシチョウオキノダ","prefecture_code":4},"0372":{"zip_code":"9880372","prefecture":"宮城県","prefecture_kana":"ミヤギケン","city":"気仙沼市","city_kana":"ケセンヌマシ","town":"本吉町尾田","town_kana":"モトヨシチョウオデン","prefecture_code":4},"0311":{"zip_code":"9880311","prefecture":"宮城県","prefecture_kana":"ミヤギケン","city":"気仙沼市","city_kana":"ケセンヌマシ","town":"本吉町風越","town_kana":"モトヨシチョウカザコシ","prefecture_code":4},"0354":{"zip_code":"9880354","prefecture":"宮城県","prefecture_kana":"ミヤギケン","city":"気仙沼市","city_kana":"ケセンヌマシ","town":"本吉町鹿の子","town_kana":"モトヨシチョウカノコ","prefecture_code":4},"0388":{"zip_code":"9880388","prefecture":"宮城県","prefecture_kana":"ミヤギケン","city":"気仙沼市","city_kana":"ケセンヌマシ","town":"本吉町上川内","town_kana":"モトヨシチョウカミカワウチ","prefecture_code":4},"0373":{"zip_code":"9880373","prefecture":"宮城県","prefecture_kana":"ミヤギケン","city":"気仙沼市","city_kana":"ケセンヌマシ","town":"本吉町狩猟","town_kana":"モトヨシチョウカリョウ","prefecture_code":4},"0317":{"zip_code":"9880317","prefecture":"宮城県","prefecture_kana":"ミヤギケン","city":"気仙沼市","city_kana":"ケセンヌマシ","town":"本吉町北明戸","town_kana":"モトヨシチョウキタアケド","prefecture_code":4},"0275":{"zip_code":"9880275","prefecture":"宮城県","prefecture_kana":"ミヤギケン","city":"気仙沼市","city_kana":"ケセンヌマシ","town":"本吉町九多丸","town_kana":"モトヨシチョウクダマル","prefecture_code":4},"0265":{"zip_code":"9880265","prefecture":"宮城県","prefecture_kana":"ミヤギケン","city":"気仙沼市","city_kana":"ケセンヌマシ","town":"本吉町窪","town_kana":"モトヨシチョウクボ","prefecture_code":4},"0325":{"zip_code":"9880325","prefecture":"宮城県","prefecture_kana":"ミヤギケン","city":"気仙沼市","city_kana":"ケセンヌマシ","town":"本吉町蔵内","town_kana":"モトヨシチョウクラウチ","prefecture_code":4},"0323":{"zip_code":"9880323","prefecture":"宮城県","prefecture_kana":"ミヤギケン","city":"気仙沼市","city_kana":"ケセンヌマシ","town":"本吉町今朝磯","town_kana":"モトヨシチョウケサイソ","prefecture_code":4},"0303":{"zip_code":"9880303","prefecture":"宮城県","prefecture_kana":"ミヤギケン","city":"気仙沼市","city_kana":"ケセンヌマシ","town":"本吉町幸土","town_kana":"モトヨシチョウコウド","prefecture_code":4},"0351":{"zip_code":"9880351","prefecture":"宮城県","prefecture_kana":"ミヤギケン","city":"気仙沼市","city_kana":"ケセンヌマシ","town":"本吉町午王野沢","town_kana":"モトヨシチョウゴオウノサワ","prefecture_code":4},"0285":{"zip_code":"9880285","prefecture":"宮城県","prefecture_kana":"ミヤギケン","city":"気仙沼市","city_kana":"ケセンヌマシ","town":"本吉町小金沢","town_kana":"モトヨシチョウコガネサワ","prefecture_code":4},"0364":{"zip_code":"9880364","prefecture":"宮城県","prefecture_kana":"ミヤギケン","city":"気仙沼市","city_kana":"ケセンヌマシ","town":"本吉町小金山","town_kana":"モトヨシチョウコガネヤマ","prefecture_code":4},"0321":{"zip_code":"9880321","prefecture":"宮城県","prefecture_kana":"ミヤギケン","city":"気仙沼市","city_kana":"ケセンヌマシ","town":"本吉町小浜","town_kana":"モトヨシチョウコバマ","prefecture_code":4},"0348":{"zip_code":"9880348","prefecture":"宮城県","prefecture_kana":"ミヤギケン","city":"気仙沼市","city_kana":"ケセンヌマシ","town":"本吉町小峰崎","town_kana":"モトヨシチョウコミネザキ","prefecture_code":4},"0279":{"zip_code":"9880279","prefecture":"宮城県","prefecture_kana":"ミヤギケン","city":"気仙沼市","city_kana":"ケセンヌマシ","town":"本吉町猿内","town_kana":"モトヨシチョウサルウチ","prefecture_code":4},"0353":{"zip_code":"9880353","prefecture":"宮城県","prefecture_kana":"ミヤギケン","city":"気仙沼市","city_kana":"ケセンヌマシ","town":"本吉町信夫","town_kana":"モトヨシチョウシノブ","prefecture_code":4},"0385":{"zip_code":"9880385","prefecture":"宮城県","prefecture_kana":"ミヤギケン","city":"気仙沼市","city_kana":"ケセンヌマシ","town":"本吉町下川内","town_kana":"モトヨシチョウシモカワウチ","prefecture_code":4},"0332":{"zip_code":"9880332","prefecture":"宮城県","prefecture_kana":"ミヤギケン","city":"気仙沼市","city_kana":"ケセンヌマシ","town":"本吉町下宿","town_kana":"モトヨシチョウシモジュク","prefecture_code":4},"0361":{"zip_code":"9880361","prefecture":"宮城県","prefecture_kana":"ミヤギケン","city":"気仙沼市","city_kana":"ケセンヌマシ","town":"本吉町下要害","town_kana":"モトヨシチョウシモヨウガイ","prefecture_code":4},"0269":[{"zip_code":"9880269","prefecture":"宮城県","prefecture_kana":"ミヤギケン","city":"気仙沼市","city_kana":"ケセンヌマシ","town":"本吉町菖蒲沢","town_kana":"モトヨシチョウショウブザワ","prefecture_code":4},{"zip_code":"9880269","prefecture":"宮城県","prefecture_kana":"ミヤギケン","city":"気仙沼市","city_kana":"ケセンヌマシ","town":"本吉町道貫","town_kana":"モトヨシチョウドウメキ","prefecture_code":4}],"0316":{"zip_code":"9880316","prefecture":"宮城県","prefecture_kana":"ミヤギケン","city":"気仙沼市","city_kana":"ケセンヌマシ","town":"本吉町新北明戸","town_kana":"モトヨシチョウシンキタアケド","prefecture_code":4},"0315":{"zip_code":"9880315","prefecture":"宮城県","prefecture_kana":"ミヤギケン","city":"気仙沼市","city_kana":"ケセンヌマシ","town":"本吉町新圃の沢","town_kana":"モトヨシチョウシンハタノサワ","prefecture_code":4},"0337":{"zip_code":"9880337","prefecture":"宮城県","prefecture_kana":"ミヤギケン","city":"気仙沼市","city_kana":"ケセンヌマシ","town":"本吉町新南明戸","town_kana":"モトヨシチョウシンミナミアケド","prefecture_code":4},"0328":{"zip_code":"9880328","prefecture":"宮城県","prefecture_kana":"ミヤギケン","city":"気仙沼市","city_kana":"ケセンヌマシ","town":"本吉町菅の沢","town_kana":"モトヨシチョウスゲノサワ","prefecture_code":4},"0334":{"zip_code":"9880334","prefecture":"宮城県","prefecture_kana":"ミヤギケン","city":"気仙沼市","city_kana":"ケセンヌマシ","town":"本吉町外尾","town_kana":"モトヨシチョウソデオ","prefecture_code":4},"0352":{"zip_code":"9880352","prefecture":"宮城県","prefecture_kana":"ミヤギケン","city":"気仙沼市","city_kana":"ケセンヌマシ","town":"本吉町平椚","town_kana":"モトヨシチョウタイラクヌギ","prefecture_code":4},"0286":{"zip_code":"9880286","prefecture":"宮城県","prefecture_kana":"ミヤギケン","city":"気仙沼市","city_kana":"ケセンヌマシ","town":"本吉町高","town_kana":"モトヨシチョウタカ","prefecture_code":4},"0384":{"zip_code":"9880384","prefecture":"宮城県","prefecture_kana":"ミヤギケン","city":"気仙沼市","city_kana":"ケセンヌマシ","town":"本吉町高岡","town_kana":"モトヨシチョウタカオカ","prefecture_code":4},"0278":[{"zip_code":"9880278","prefecture":"宮城県","prefecture_kana":"ミヤギケン","city":"気仙沼市","city_kana":"ケセンヌマシ","town":"本吉町高瀬ヶ森","town_kana":"モトヨシチョウタカセガモリ","prefecture_code":4},{"zip_code":"9880278","prefecture":"宮城県","prefecture_kana":"ミヤギケン","city":"気仙沼市","city_kana":"ケセンヌマシ","town":"本吉町山谷","town_kana":"モトヨシチョウヤマヤ","prefecture_code":4}],"0355":{"zip_code":"9880355","prefecture":"宮城県","prefecture_kana":"ミヤギケン","city":"気仙沼市","city_kana":"ケセンヌマシ","town":"本吉町滝沢","town_kana":"モトヨシチョウタキサワ","prefecture_code":4},"0274":{"zip_code":"9880274","prefecture":"宮城県","prefecture_kana":"ミヤギケン","city":"気仙沼市","city_kana":"ケセンヌマシ","town":"本吉町滝根","town_kana":"モトヨシチョウタキネ","prefecture_code":4},"0346":{"zip_code":"9880346","prefecture":"宮城県","prefecture_kana":"ミヤギケン","city":"気仙沼市","city_kana":"ケセンヌマシ","town":"本吉町岳の下","town_kana":"モトヨシチョウタケノシタ","prefecture_code":4},"0345":{"zip_code":"9880345","prefecture":"宮城県","prefecture_kana":"ミヤギケン","city":"気仙沼市","city_kana":"ケセンヌマシ","town":"本吉町舘下","town_kana":"モトヨシチョウタテシタ","prefecture_code":4},"0374":{"zip_code":"9880374","prefecture":"宮城県","prefecture_kana":"ミヤギケン","city":"気仙沼市","city_kana":"ケセンヌマシ","town":"本吉町角柄","town_kana":"モトヨシチョウツノガラ","prefecture_code":4},"0382":{"zip_code":"9880382","prefecture":"宮城県","prefecture_kana":"ミヤギケン","city":"気仙沼市","city_kana":"ケセンヌマシ","town":"本吉町津谷明戸","town_kana":"モトヨシチョウツヤアケド","prefecture_code":4},"0341":{"zip_code":"9880341","prefecture":"宮城県","prefecture_kana":"ミヤギケン","city":"気仙沼市","city_kana":"ケセンヌマシ","town":"本吉町津谷桜子","town_kana":"モトヨシチョウツヤサクラゴ","prefecture_code":4},"0381":{"zip_code":"9880381","prefecture":"宮城県","prefecture_kana":"ミヤギケン","city":"気仙沼市","city_kana":"ケセンヌマシ","town":"本吉町津谷新明戸","town_kana":"モトヨシチョウツヤシンアケド","prefecture_code":4},"0307":{"zip_code":"9880307","prefecture":"宮城県","prefecture_kana":"ミヤギケン","city":"気仙沼市","city_kana":"ケセンヌマシ","town":"本吉町津谷舘岡","town_kana":"モトヨシチョウツヤタテオカ","prefecture_code":4},"0305":{"zip_code":"9880305","prefecture":"宮城県","prefecture_kana":"ミヤギケン","city":"気仙沼市","city_kana":"ケセンヌマシ","town":"本吉町津谷長根","town_kana":"モトヨシチョウツヤナガネ","prefecture_code":4},"0309":{"zip_code":"9880309","prefecture":"宮城県","prefecture_kana":"ミヤギケン","city":"気仙沼市","city_kana":"ケセンヌマシ","town":"本吉町津谷松尾","town_kana":"モトヨシチョウツヤマツオ","prefecture_code":4},"0308":{"zip_code":"9880308","prefecture":"宮城県","prefecture_kana":"ミヤギケン","city":"気仙沼市","city_kana":"ケセンヌマシ","town":"本吉町津谷松岡","town_kana":"モトヨシチョウツヤマツオカ","prefecture_code":4},"0266":{"zip_code":"9880266","prefecture":"宮城県","prefecture_kana":"ミヤギケン","city":"気仙沼市","city_kana":"ケセンヌマシ","town":"本吉町寺谷","town_kana":"モトヨシチョウテラガイ","prefecture_code":4},"0267":[{"zip_code":"9880267","prefecture":"宮城県","prefecture_kana":"ミヤギケン","city":"気仙沼市","city_kana":"ケセンヌマシ","town":"本吉町寺沢","town_kana":"モトヨシチョウテラサワ","prefecture_code":4},{"zip_code":"9880267","prefecture":"宮城県","prefecture_kana":"ミヤギケン","city":"気仙沼市","city_kana":"ケセンヌマシ","town":"本吉町長畑","town_kana":"モトヨシチョウナガハタケ","prefecture_code":4}],"0362":{"zip_code":"9880362","prefecture":"宮城県","prefecture_kana":"ミヤギケン","city":"気仙沼市","city_kana":"ケセンヌマシ","town":"本吉町寺要害","town_kana":"モトヨシチョウテラヨウガイ","prefecture_code":4},"0318":{"zip_code":"9880318","prefecture":"宮城県","prefecture_kana":"ミヤギケン","city":"気仙沼市","city_kana":"ケセンヌマシ","town":"本吉町登米沢","town_kana":"モトヨシチョウトヨマザワ","prefecture_code":4},"0387":{"zip_code":"9880387","prefecture":"宮城県","prefecture_kana":"ミヤギケン","city":"気仙沼市","city_kana":"ケセンヌマシ","town":"本吉町中川内","town_kana":"モトヨシチョウナカカワウチ","prefecture_code":4},"0327":{"zip_code":"9880327","prefecture":"宮城県","prefecture_kana":"ミヤギケン","city":"気仙沼市","city_kana":"ケセンヌマシ","town":"本吉町長窪","town_kana":"モトヨシチョウナガクボ","prefecture_code":4},"0375":{"zip_code":"9880375","prefecture":"宮城県","prefecture_kana":"ミヤギケン","city":"気仙沼市","city_kana":"ケセンヌマシ","town":"本吉町中沢","town_kana":"モトヨシチョウナカザワ","prefecture_code":4},"0331":{"zip_code":"9880331","prefecture":"宮城県","prefecture_kana":"ミヤギケン","city":"気仙沼市","city_kana":"ケセンヌマシ","town":"本吉町中島","town_kana":"モトヨシチョウナカジマ","prefecture_code":4},"0357":{"zip_code":"9880357","prefecture":"宮城県","prefecture_kana":"ミヤギケン","city":"気仙沼市","city_kana":"ケセンヌマシ","town":"本吉町中平","town_kana":"モトヨシチョウナカダイラ","prefecture_code":4},"0264":{"zip_code":"9880264","prefecture":"宮城県","prefecture_kana":"ミヤギケン","city":"気仙沼市","city_kana":"ケセンヌマシ","town":"本吉町長根","town_kana":"モトヨシチョウナガネ","prefecture_code":4},"0386":{"zip_code":"9880386","prefecture":"宮城県","prefecture_kana":"ミヤギケン","city":"気仙沼市","city_kana":"ケセンヌマシ","town":"本吉町西川内","town_kana":"モトヨシチョウニシカワウチ","prefecture_code":4},"0322":{"zip_code":"9880322","prefecture":"宮城県","prefecture_kana":"ミヤギケン","city":"気仙沼市","city_kana":"ケセンヌマシ","town":"本吉町二十一浜","town_kana":"モトヨシチョウニジュウイチハマ","prefecture_code":4},"0342":{"zip_code":"9880342","prefecture":"宮城県","prefecture_kana":"ミヤギケン","city":"気仙沼市","city_kana":"ケセンヌマシ","town":"本吉町幣掛","town_kana":"モトヨシチョウヌサカケ","prefecture_code":4},"0271":{"zip_code":"9880271","prefecture":"宮城県","prefecture_kana":"ミヤギケン","city":"気仙沼市","city_kana":"ケセンヌマシ","town":"本吉町野々下","town_kana":"モトヨシチョウノノシタ","prefecture_code":4},"0314":{"zip_code":"9880314","prefecture":"宮城県","prefecture_kana":"ミヤギケン","city":"気仙沼市","city_kana":"ケセンヌマシ","town":"本吉町圃の沢","town_kana":"モトヨシチョウハタノサワ","prefecture_code":4},"0302":{"zip_code":"9880302","prefecture":"宮城県","prefecture_kana":"ミヤギケン","city":"気仙沼市","city_kana":"ケセンヌマシ","town":"本吉町林の沢","town_kana":"モトヨシチョウハヤシノサワ","prefecture_code":4},"0389":{"zip_code":"9880389","prefecture":"宮城県","prefecture_kana":"ミヤギケン","city":"気仙沼市","city_kana":"ケセンヌマシ","town":"本吉町東川内","town_kana":"モトヨシチョウヒガシカワウチ","prefecture_code":4},"0276":{"zip_code":"9880276","prefecture":"宮城県","prefecture_kana":"ミヤギケン","city":"気仙沼市","city_kana":"ケセンヌマシ","town":"本吉町日門","town_kana":"モトヨシチョウヒカド","prefecture_code":4},"0333":{"zip_code":"9880333","prefecture":"宮城県","prefecture_kana":"ミヤギケン","city":"気仙沼市","city_kana":"ケセンヌマシ","town":"本吉町平貝","town_kana":"モトヨシチョウヒラガイ","prefecture_code":4},"0363":{"zip_code":"9880363","prefecture":"宮城県","prefecture_kana":"ミヤギケン","city":"気仙沼市","city_kana":"ケセンヌマシ","town":"本吉町深萩","town_kana":"モトヨシチョウフカハギ","prefecture_code":4},"0281":{"zip_code":"9880281","prefecture":"宮城県","prefecture_kana":"ミヤギケン","city":"気仙沼市","city_kana":"ケセンヌマシ","town":"本吉町府中","town_kana":"モトヨシチョウフチュウ","prefecture_code":4},"0383":{"zip_code":"9880383","prefecture":"宮城県","prefecture_kana":"ミヤギケン","city":"気仙沼市","city_kana":"ケセンヌマシ","town":"本吉町坊の倉","town_kana":"モトヨシチョウボウノクラ","prefecture_code":4},"0263":{"zip_code":"9880263","prefecture":"宮城県","prefecture_kana":"ミヤギケン","city":"気仙沼市","city_kana":"ケセンヌマシ","town":"本吉町洞沢","town_kana":"モトヨシチョウホラサワ","prefecture_code":4},"0282":{"zip_code":"9880282","prefecture":"宮城県","prefecture_kana":"ミヤギケン","city":"気仙沼市","city_kana":"ケセンヌマシ","town":"本吉町前浜","town_kana":"モトヨシチョウマエハマ","prefecture_code":4},"0365":{"zip_code":"9880365","prefecture":"宮城県","prefecture_kana":"ミヤギケン","city":"気仙沼市","city_kana":"ケセンヌマシ","town":"本吉町馬籠町","town_kana":"モトヨシチョウマゴメマチ","prefecture_code":4},"0366":{"zip_code":"9880366","prefecture":"宮城県","prefecture_kana":"ミヤギケン","city":"気仙沼市","city_kana":"ケセンヌマシ","town":"本吉町馬籠町頭","town_kana":"モトヨシチョウマゴメマチガシラ","prefecture_code":4},"0343":{"zip_code":"9880343","prefecture":"宮城県","prefecture_kana":"ミヤギケン","city":"気仙沼市","city_kana":"ケセンヌマシ","town":"本吉町松ヶ沢","town_kana":"モトヨシチョウマツガサワ","prefecture_code":4},"0273":{"zip_code":"9880273","prefecture":"宮城県","prefecture_kana":"ミヤギケン","city":"気仙沼市","city_kana":"ケセンヌマシ","town":"本吉町三島","town_kana":"モトヨシチョウミシマ","prefecture_code":4},"0312":{"zip_code":"9880312","prefecture":"宮城県","prefecture_kana":"ミヤギケン","city":"気仙沼市","city_kana":"ケセンヌマシ","town":"本吉町道外","town_kana":"モトヨシチョウミチソト","prefecture_code":4},"0338":{"zip_code":"9880338","prefecture":"宮城県","prefecture_kana":"ミヤギケン","city":"気仙沼市","city_kana":"ケセンヌマシ","town":"本吉町南明戸","town_kana":"モトヨシチョウミナミアケド","prefecture_code":4},"0344":{"zip_code":"9880344","prefecture":"宮城県","prefecture_kana":"ミヤギケン","city":"気仙沼市","city_kana":"ケセンヌマシ","town":"本吉町宮内","town_kana":"モトヨシチョウミヤウチ","prefecture_code":4},"0367":{"zip_code":"9880367","prefecture":"宮城県","prefecture_kana":"ミヤギケン","city":"気仙沼市","city_kana":"ケセンヌマシ","town":"本吉町向畑","town_kana":"モトヨシチョウムカイバタ","prefecture_code":4},"0326":{"zip_code":"9880326","prefecture":"宮城県","prefecture_kana":"ミヤギケン","city":"気仙沼市","city_kana":"ケセンヌマシ","town":"本吉町柳沢","town_kana":"モトヨシチョウヤナギサワ","prefecture_code":4},"0359":{"zip_code":"9880359","prefecture":"宮城県","prefecture_kana":"ミヤギケン","city":"気仙沼市","city_kana":"ケセンヌマシ","town":"本吉町上野","town_kana":"モトヨシチョウワノ","prefecture_code":4},"0335":{"zip_code":"9880335","prefecture":"宮城県","prefecture_kana":"ミヤギケン","city":"気仙沼市","city_kana":"ケセンヌマシ","town":"本吉町蕨野","town_kana":"モトヨシチョウワラビノ","prefecture_code":4},"0169":{"zip_code":"9880169","prefecture":"宮城県","prefecture_kana":"ミヤギケン","city":"気仙沼市","city_kana":"ケセンヌマシ","town":"物倉山","town_kana":"モノクラヤマ","prefecture_code":4},"0841":{"zip_code":"9880841","prefecture":"宮城県","prefecture_kana":"ミヤギケン","city":"気仙沼市","city_kana":"ケセンヌマシ","town":"柳沢","town_kana":"ヤナギザワ","prefecture_code":4},"0634":{"zip_code":"9880634","prefecture":"宮城県","prefecture_kana":"ミヤギケン","city":"気仙沼市","city_kana":"ケセンヌマシ","town":"要害","town_kana":"ヨウガイ","prefecture_code":4},"0084":{"zip_code":"9880084","prefecture":"宮城県","prefecture_kana":"ミヤギケン","city":"気仙沼市","city_kana":"ケセンヌマシ","town":"八日町","town_kana":"ヨウカマチ","prefecture_code":4},"0632":{"zip_code":"9880632","prefecture":"宮城県","prefecture_kana":"ミヤギケン","city":"気仙沼市","city_kana":"ケセンヌマシ","town":"横沼","town_kana":"ヨコヌマ","prefecture_code":4},"0833":{"zip_code":"9880833","prefecture":"宮城県","prefecture_kana":"ミヤギケン","city":"気仙沼市","city_kana":"ケセンヌマシ","town":"渡戸","town_kana":"ワタド","prefecture_code":4},"0827":{"zip_code":"9880827","prefecture":"宮城県","prefecture_kana":"ミヤギケン","city":"気仙沼市","city_kana":"ケセンヌマシ","town":"和野","town_kana":"ワノ","prefecture_code":4},"0453":{"zip_code":"9880453","prefecture":"宮城県","prefecture_kana":"ミヤギケン","city":"本吉郡南三陸町","city_kana":"モトヨシグンミナミサンリクチョウ","town":"歌津伊里前","town_kana":"ウタツイサトマエ","prefecture_code":4},"0471":{"zip_code":"9880471","prefecture":"宮城県","prefecture_kana":"ミヤギケン","city":"本吉郡南三陸町","city_kana":"モトヨシグンミナミサンリクチョウ","town":"歌津石泉","town_kana":"ウタツイシズミ","prefecture_code":4},"0426":{"zip_code":"9880426","prefecture":"宮城県","prefecture_kana":"ミヤギケン","city":"本吉郡南三陸町","city_kana":"モトヨシグンミナミサンリクチョウ","town":"歌津石浜","town_kana":"ウタツイシハマ","prefecture_code":4},"0446":{"zip_code":"9880446","prefecture":"宮城県","prefecture_kana":"ミヤギケン","city":"本吉郡南三陸町","city_kana":"モトヨシグンミナミサンリクチョウ","town":"歌津板橋","town_kana":"ウタツイタバシ","prefecture_code":4},"0434":{"zip_code":"9880434","prefecture":"宮城県","prefecture_kana":"ミヤギケン","city":"本吉郡南三陸町","city_kana":"モトヨシグンミナミサンリクチョウ","town":"歌津大磯","town_kana":"ウタツオオイソ","prefecture_code":4},"0448":{"zip_code":"9880448","prefecture":"宮城県","prefecture_kana":"ミヤギケン","city":"本吉郡南三陸町","city_kana":"モトヨシグンミナミサンリクチョウ","town":"歌津大沼","town_kana":"ウタツオオヌマ","prefecture_code":4},"0463":{"zip_code":"9880463","prefecture":"宮城県","prefecture_kana":"ミヤギケン","city":"本吉郡南三陸町","city_kana":"モトヨシグンミナミサンリクチョウ","town":"歌津大森","town_kana":"ウタツオオモリ","prefecture_code":4},"0443":{"zip_code":"9880443","prefecture":"宮城県","prefecture_kana":"ミヤギケン","city":"本吉郡南三陸町","city_kana":"モトヨシグンミナミサンリクチョウ","town":"歌津尾崎","town_kana":"ウタツオサキ","prefecture_code":4},"0476":{"zip_code":"9880476","prefecture":"宮城県","prefecture_kana":"ミヤギケン","city":"本吉郡南三陸町","city_kana":"モトヨシグンミナミサンリクチョウ","town":"歌津上沢","town_kana":"ウタツカミサワ","prefecture_code":4},"0413":{"zip_code":"9880413","prefecture":"宮城県","prefecture_kana":"ミヤギケン","city":"本吉郡南三陸町","city_kana":"モトヨシグンミナミサンリクチョウ","town":"歌津上の山","town_kana":"ウタツカミノヤマ","prefecture_code":4},"0425":{"zip_code":"9880425","prefecture":"宮城県","prefecture_kana":"ミヤギケン","city":"本吉郡南三陸町","city_kana":"モトヨシグンミナミサンリクチョウ","town":"歌津神山","town_kana":"ウタツカミヤマ","prefecture_code":4},"0456":{"zip_code":"9880456","prefecture":"宮城県","prefecture_kana":"ミヤギケン","city":"本吉郡南三陸町","city_kana":"モトヨシグンミナミサンリクチョウ","town":"歌津川内","town_kana":"ウタツカワウチ","prefecture_code":4},"0424":{"zip_code":"9880424","prefecture":"宮城県","prefecture_kana":"ミヤギケン","city":"本吉郡南三陸町","city_kana":"モトヨシグンミナミサンリクチョウ","town":"歌津北の沢","town_kana":"ウタツキタノサワ","prefecture_code":4},"0405":{"zip_code":"9880405","prefecture":"宮城県","prefecture_kana":"ミヤギケン","city":"本吉郡南三陸町","city_kana":"モトヨシグンミナミサンリクチョウ","town":"歌津草木沢","town_kana":"ウタツクサキザワ","prefecture_code":4},"0451":{"zip_code":"9880451","prefecture":"宮城県","prefecture_kana":"ミヤギケン","city":"本吉郡南三陸町","city_kana":"モトヨシグンミナミサンリクチョウ","town":"歌津管の浜","town_kana":"ウタツクダノハマ","prefecture_code":4},"0436":{"zip_code":"9880436","prefecture":"宮城県","prefecture_kana":"ミヤギケン","city":"本吉郡南三陸町","city_kana":"モトヨシグンミナミサンリクチョウ","town":"歌津小長柴","town_kana":"ウタツコナガシバ","prefecture_code":4},"0435":{"zip_code":"9880435","prefecture":"宮城県","prefecture_kana":"ミヤギケン","city":"本吉郡南三陸町","city_kana":"モトヨシグンミナミサンリクチョウ","town":"歌津小沼","town_kana":"ウタツコヌマ","prefecture_code":4},"0467":{"zip_code":"9880467","prefecture":"宮城県","prefecture_kana":"ミヤギケン","city":"本吉郡南三陸町","city_kana":"モトヨシグンミナミサンリクチョウ","town":"歌津皿貝","town_kana":"ウタツサラガイ","prefecture_code":4},"0475":{"zip_code":"9880475","prefecture":"宮城県","prefecture_kana":"ミヤギケン","city":"本吉郡南三陸町","city_kana":"モトヨシグンミナミサンリクチョウ","town":"歌津白山","town_kana":"ウタツシラヤマ","prefecture_code":4},"0462":{"zip_code":"9880462","prefecture":"宮城県","prefecture_kana":"ミヤギケン","city":"本吉郡南三陸町","city_kana":"モトヨシグンミナミサンリクチョウ","town":"歌津砂浜","town_kana":"ウタツスナハマ","prefecture_code":4},"0474":{"zip_code":"9880474","prefecture":"宮城県","prefecture_kana":"ミヤギケン","city":"本吉郡南三陸町","city_kana":"モトヨシグンミナミサンリクチョウ","town":"歌津田表","town_kana":"ウタツタオモテ","prefecture_code":4},"0445":{"zip_code":"9880445","prefecture":"宮城県","prefecture_kana":"ミヤギケン","city":"本吉郡南三陸町","city_kana":"モトヨシグンミナミサンリクチョウ","town":"歌津館浜","town_kana":"ウタツタテハマ","prefecture_code":4},"0415":{"zip_code":"9880415","prefecture":"宮城県","prefecture_kana":"ミヤギケン","city":"本吉郡南三陸町","city_kana":"モトヨシグンミナミサンリクチョウ","town":"歌津田の浦","town_kana":"ウタツタノウラ","prefecture_code":4},"0441":{"zip_code":"9880441","prefecture":"宮城県","prefecture_kana":"ミヤギケン","city":"本吉郡南三陸町","city_kana":"モトヨシグンミナミサンリクチョウ","town":"歌津田の頭","town_kana":"ウタツタノガシラ","prefecture_code":4},"0411":{"zip_code":"9880411","prefecture":"宮城県","prefecture_kana":"ミヤギケン","city":"本吉郡南三陸町","city_kana":"モトヨシグンミナミサンリクチョウ","town":"歌津田茂川","town_kana":"ウタツタモガワ","prefecture_code":4},"0444":{"zip_code":"9880444","prefecture":"宮城県","prefecture_kana":"ミヤギケン","city":"本吉郡南三陸町","city_kana":"モトヨシグンミナミサンリクチョウ","town":"歌津泊浜","town_kana":"ウタツトマリハマ","prefecture_code":4},"0473":{"zip_code":"9880473","prefecture":"宮城県","prefecture_kana":"ミヤギケン","city":"本吉郡南三陸町","city_kana":"モトヨシグンミナミサンリクチョウ","town":"歌津中在","town_kana":"ウタツナカザイ","prefecture_code":4},"0414":{"zip_code":"9880414","prefecture":"宮城県","prefecture_kana":"ミヤギケン","city":"本吉郡南三陸町","city_kana":"モトヨシグンミナミサンリクチョウ","town":"歌津長沢","town_kana":"ウタツナガサワ","prefecture_code":4},"0447":{"zip_code":"9880447","prefecture":"宮城県","prefecture_kana":"ミヤギケン","city":"本吉郡南三陸町","city_kana":"モトヨシグンミナミサンリクチョウ","town":"歌津長柴","town_kana":"ウタツナガシバ","prefecture_code":4},"0406":{"zip_code":"9880406","prefecture":"宮城県","prefecture_kana":"ミヤギケン","city":"本吉郡南三陸町","city_kana":"モトヨシグンミナミサンリクチョウ","town":"歌津中野","town_kana":"ウタツナカノ","prefecture_code":4},"0403":{"zip_code":"9880403","prefecture":"宮城県","prefecture_kana":"ミヤギケン","city":"本吉郡南三陸町","city_kana":"モトヨシグンミナミサンリクチョウ","town":"歌津長羽","town_kana":"ウタツナガハ","prefecture_code":4},"0432":{"zip_code":"9880432","prefecture":"宮城県","prefecture_kana":"ミヤギケン","city":"本吉郡南三陸町","city_kana":"モトヨシグンミナミサンリクチョウ","town":"歌津中山","town_kana":"ウタツナカヤマ","prefecture_code":4},"0431":{"zip_code":"9880431","prefecture":"宮城県","prefecture_kana":"ミヤギケン","city":"本吉郡南三陸町","city_kana":"モトヨシグンミナミサンリクチョウ","town":"歌津名足","town_kana":"ウタツナタリ","prefecture_code":4},"0401":{"zip_code":"9880401","prefecture":"宮城県","prefecture_kana":"ミヤギケン","city":"本吉郡南三陸町","city_kana":"モトヨシグンミナミサンリクチョウ","town":"歌津浪板","town_kana":"ウタツナミイタ","prefecture_code":4},"0465":{"zip_code":"9880465","prefecture":"宮城県","prefecture_kana":"ミヤギケン","city":"本吉郡南三陸町","city_kana":"モトヨシグンミナミサンリクチョウ","town":"歌津韮の浜","town_kana":"ウタツニラノハマ","prefecture_code":4},"0433":{"zip_code":"9880433","prefecture":"宮城県","prefecture_kana":"ミヤギケン","city":"本吉郡南三陸町","city_kana":"モトヨシグンミナミサンリクチョウ","town":"歌津馬場","town_kana":"ウタツババ","prefecture_code":4},"0477":{"zip_code":"9880477","prefecture":"宮城県","prefecture_kana":"ミヤギケン","city":"本吉郡南三陸町","city_kana":"モトヨシグンミナミサンリクチョウ","town":"歌津払川","town_kana":"ウタツハライカワ","prefecture_code":4},"0442":{"zip_code":"9880442","prefecture":"宮城県","prefecture_kana":"ミヤギケン","city":"本吉郡南三陸町","city_kana":"モトヨシグンミナミサンリクチョウ","town":"歌津番所","town_kana":"ウタツバンドコロ","prefecture_code":4},"0478":{"zip_code":"9880478","prefecture":"宮城県","prefecture_kana":"ミヤギケン","city":"本吉郡南三陸町","city_kana":"モトヨシグンミナミサンリクチョウ","town":"歌津樋の口","town_kana":"ウタツヒノクチ","prefecture_code":4},"0421":{"zip_code":"9880421","prefecture":"宮城県","prefecture_kana":"ミヤギケン","city":"本吉郡南三陸町","city_kana":"モトヨシグンミナミサンリクチョウ","town":"歌津平棚","town_kana":"ウタツヒラダナ","prefecture_code":4},"0466":{"zip_code":"9880466","prefecture":"宮城県","prefecture_kana":"ミヤギケン","city":"本吉郡南三陸町","city_kana":"モトヨシグンミナミサンリクチョウ","town":"歌津平松","town_kana":"ウタツヒラマツ","prefecture_code":4},"0404":{"zip_code":"9880404","prefecture":"宮城県","prefecture_kana":"ミヤギケン","city":"本吉郡南三陸町","city_kana":"モトヨシグンミナミサンリクチョウ","town":"歌津牧田","town_kana":"ウタツマキタ","prefecture_code":4},"0423":{"zip_code":"9880423","prefecture":"宮城県","prefecture_kana":"ミヤギケン","city":"本吉郡南三陸町","city_kana":"モトヨシグンミナミサンリクチョウ","town":"歌津枡沢","town_kana":"ウタツマスザワ","prefecture_code":4},"0452":{"zip_code":"9880452","prefecture":"宮城県","prefecture_kana":"ミヤギケン","city":"本吉郡南三陸町","city_kana":"モトヨシグンミナミサンリクチョウ","town":"歌津町向","town_kana":"ウタツマチムカイ","prefecture_code":4},"0422":{"zip_code":"9880422","prefecture":"宮城県","prefecture_kana":"ミヤギケン","city":"本吉郡南三陸町","city_kana":"モトヨシグンミナミサンリクチョウ","town":"歌津松の崎","town_kana":"ウタツマツノサキ","prefecture_code":4},"0402":{"zip_code":"9880402","prefecture":"宮城県","prefecture_kana":"ミヤギケン","city":"本吉郡南三陸町","city_kana":"モトヨシグンミナミサンリクチョウ","town":"歌津港","town_kana":"ウタツミナト","prefecture_code":4},"0412":{"zip_code":"9880412","prefecture":"宮城県","prefecture_kana":"ミヤギケン","city":"本吉郡南三陸町","city_kana":"モトヨシグンミナミサンリクチョウ","town":"歌津南の沢","town_kana":"ウタツミナミノサワ","prefecture_code":4},"0454":{"zip_code":"9880454","prefecture":"宮城県","prefecture_kana":"ミヤギケン","city":"本吉郡南三陸町","city_kana":"モトヨシグンミナミサンリクチョウ","town":"歌津峰畑","town_kana":"ウタツミネハタ","prefecture_code":4},"0472":{"zip_code":"9880472","prefecture":"宮城県","prefecture_kana":"ミヤギケン","city":"本吉郡南三陸町","city_kana":"モトヨシグンミナミサンリクチョウ","town":"歌津宮方","town_kana":"ウタツミヤカタ","prefecture_code":4},"0464":{"zip_code":"9880464","prefecture":"宮城県","prefecture_kana":"ミヤギケン","city":"本吉郡南三陸町","city_kana":"モトヨシグンミナミサンリクチョウ","town":"歌津森畑","town_kana":"ウタツモリハタ","prefecture_code":4},"0455":{"zip_code":"9880455","prefecture":"宮城県","prefecture_kana":"ミヤギケン","city":"本吉郡南三陸町","city_kana":"モトヨシグンミナミサンリクチョウ","town":"歌津吉野沢","town_kana":"ウタツヨシノサワ","prefecture_code":4},"0461":{"zip_code":"9880461","prefecture":"宮城県","prefecture_kana":"ミヤギケン","city":"本吉郡南三陸町","city_kana":"モトヨシグンミナミサンリクチョウ","town":"歌津寄木","town_kana":"ウタツヨリキ","prefecture_code":4}}