{"3211":{"zip_code":"9893211","prefecture":"宮城県","prefecture_kana":"ミヤギケン","city":"仙台市青葉区","city_kana":"センダイシアオバク","town":"赤坂","town_kana":"アカサカ","prefecture_code":4},"3128":{"zip_code":"9893128","prefecture":"宮城県","prefecture_kana":"ミヤギケン","city":"仙台市青葉区","city_kana":"センダイシアオバク","town":"愛子中央","town_kana":"アヤシチュウオウ","prefecture_code":4},"3127":{"zip_code":"9893127","prefecture":"宮城県","prefecture_kana":"ミヤギケン","city":"仙台市青葉区","city_kana":"センダイシアオバク","town":"愛子東","town_kana":"アヤシヒガシ","prefecture_code":4},"3212":{"zip_code":"9893212","prefecture":"宮城県","prefecture_kana":"ミヤギケン","city":"仙台市青葉区","city_kana":"センダイシアオバク","town":"芋沢","town_kana":"イモザワ","prefecture_code":4},"3213":{"zip_code":"9893213","prefecture":"宮城県","prefecture_kana":"ミヤギケン","city":"仙台市青葉区","city_kana":"センダイシアオバク","town":"大倉","town_kana":"オオクラ","prefecture_code":4},"3126":{"zip_code":"9893126","prefecture":"宮城県","prefecture_kana":"ミヤギケン","city":"仙台市青葉区","city_kana":"センダイシアオバク","town":"落合","town_kana":"オチアイ","prefecture_code":4},"3124":{"zip_code":"9893124","prefecture":"宮城県","prefecture_kana":"ミヤギケン","city":"仙台市青葉区","city_kana":"センダイシアオバク","town":"上愛子","town_kana":"カミアヤシ","prefecture_code":4},"3201":{"zip_code":"9893201","prefecture":"宮城県","prefecture_kana":"ミヤギケン","city":"仙台市青葉区","city_kana":"センダイシアオバク","town":"国見ケ丘","town_kana":"クニミガオカ","prefecture_code":4},"3432":{"zip_code":"9893432","prefecture":"宮城県","prefecture_kana":"ミヤギケン","city":"仙台市青葉区","city_kana":"センダイシアオバク","town":"熊ケ根","town_kana":"クマガネ","prefecture_code":4},"3122":{"zip_code":"9893122","prefecture":"宮城県","prefecture_kana":"ミヤギケン","city":"仙台市青葉区","city_kana":"センダイシアオバク","town":"栗生","town_kana":"クリュウ","prefecture_code":4},"3121":{"zip_code":"9893121","prefecture":"宮城県","prefecture_kana":"ミヤギケン","city":"仙台市青葉区","city_kana":"センダイシアオバク","town":"郷六","town_kana":"ゴウロク","prefecture_code":4},"3431":{"zip_code":"9893431","prefecture":"宮城県","prefecture_kana":"ミヤギケン","city":"仙台市青葉区","city_kana":"センダイシアオバク","town":"作並","town_kana":"サクナミ","prefecture_code":4},"3125":{"zip_code":"9893125","prefecture":"宮城県","prefecture_kana":"ミヤギケン","city":"仙台市青葉区","city_kana":"センダイシアオバク","town":"下愛子","town_kana":"シモアヤシ","prefecture_code":4},"3216":{"zip_code":"9893216","prefecture":"宮城県","prefecture_kana":"ミヤギケン","city":"仙台市青葉区","city_kana":"センダイシアオバク","town":"高野原","town_kana":"タカノハラ","prefecture_code":4},"3202":{"zip_code":"9893202","prefecture":"宮城県","prefecture_kana":"ミヤギケン","city":"仙台市青葉区","city_kana":"センダイシアオバク","town":"中山台","town_kana":"ナカヤマダイ","prefecture_code":4},"3207":{"zip_code":"9893207","prefecture":"宮城県","prefecture_kana":"ミヤギケン","city":"仙台市青葉区","city_kana":"センダイシアオバク","town":"中山台西","town_kana":"ナカヤマダイニシ","prefecture_code":4},"3203":{"zip_code":"9893203","prefecture":"宮城県","prefecture_kana":"ミヤギケン","city":"仙台市青葉区","city_kana":"センダイシアオバク","town":"中山吉成","town_kana":"ナカヤマヨシナリ","prefecture_code":4},"3123":{"zip_code":"9893123","prefecture":"宮城県","prefecture_kana":"ミヤギケン","city":"仙台市青葉区","city_kana":"センダイシアオバク","town":"錦ケ丘","town_kana":"ニシキガオカ","prefecture_code":4},"3433":{"zip_code":"9893433","prefecture":"宮城県","prefecture_kana":"ミヤギケン","city":"仙台市青葉区","city_kana":"センダイシアオバク","town":"ニツカ","town_kana":"ニッカ","prefecture_code":4},"3434":{"zip_code":"9893434","prefecture":"宮城県","prefecture_kana":"ミヤギケン","city":"仙台市青葉区","city_kana":"センダイシアオバク","town":"新川","town_kana":"ニッカワ","prefecture_code":4},"3204":{"zip_code":"9893204","prefecture":"宮城県","prefecture_kana":"ミヤギケン","city":"仙台市青葉区","city_kana":"センダイシアオバク","town":"南吉成","town_kana":"ミナミヨシナリ","prefecture_code":4},"3214":{"zip_code":"9893214","prefecture":"宮城県","prefecture_kana":"ミヤギケン","city":"仙台市青葉区","city_kana":"センダイシアオバク","town":"みやぎ台","town_kana":"ミヤギダイ","prefecture_code":4},"3215":{"zip_code":"9893215","prefecture":"宮城県","prefecture_kana":"ミヤギケン","city":"仙台市青葉区","city_kana":"センダイシアオバク","town":"向田","town_kana":"ムカイダ","prefecture_code":4},"3205":{"zip_code":"9893205","prefecture":"宮城県","prefecture_kana":"ミヤギケン","city":"仙台市青葉区","city_kana":"センダイシアオバク","town":"吉成","town_kana":"ヨシナリ","prefecture_code":4},"3206":{"zip_code":"9893206","prefecture":"宮城県","prefecture_kana":"ミヤギケン","city":"仙台市青葉区","city_kana":"センダイシアオバク","town":"吉成台","town_kana":"ヨシナリダイ","prefecture_code":4},"0200":{"zip_code":"9890200","prefecture":"宮城県","prefecture_kana":"ミヤギケン","city":"白石市","city_kana":"シロイシシ","town":"","town_kana":"","prefecture_code":4},"0223":{"zip_code":"9890223","prefecture":"宮城県","prefecture_kana":"ミヤギケン","city":"白石市","city_kana":"シロイシシ","town":"旭町","town_kana":"アサヒチョウ","prefecture_code":4},"0228":{"zip_code":"9890228","prefecture":"宮城県","prefecture_kana":"ミヤギケン","city":"白石市","city_kana":"シロイシシ","town":"兎作","town_kana":"ウサギサク","prefecture_code":4},"0267":{"zip_code":"9890267","prefecture":"宮城県","prefecture_kana":"ミヤギケン","city":"白石市","city_kana":"シロイシシ","town":"延命寺北","town_kana":"エンメイジキタ","prefecture_code":4},"0254":{"zip_code":"9890254","prefecture":"宮城県","prefecture_kana":"ミヤギケン","city":"白石市","city_kana":"シロイシシ","town":"大川町","town_kana":"オオカワチョウ","prefecture_code":4},"0212":{"zip_code":"9890212","prefecture":"宮城県","prefecture_kana":"ミヤギケン","city":"白石市","city_kana":"シロイシシ","town":"大鷹沢大町","town_kana":"オオタカサワオオマチ","prefecture_code":4},"0211":{"zip_code":"9890211","prefecture":"宮城県","prefecture_kana":"ミヤギケン","city":"白石市","city_kana":"シロイシシ","town":"大鷹沢鷹巣","town_kana":"オオタカサワタカノス","prefecture_code":4},"0213":{"zip_code":"9890213","prefecture":"宮城県","prefecture_kana":"ミヤギケン","city":"白石市","city_kana":"シロイシシ","town":"大鷹沢三沢","town_kana":"オオタカサワミサワ","prefecture_code":4},"0214":{"zip_code":"9890214","prefecture":"宮城県","prefecture_kana":"ミヤギケン","city":"白石市","city_kana":"シロイシシ","town":"大平坂谷","town_kana":"オオダイラサカヤ","prefecture_code":4},"0216":{"zip_code":"9890216","prefecture":"宮城県","prefecture_kana":"ミヤギケン","city":"白石市","city_kana":"シロイシシ","town":"大平中目","town_kana":"オオダイラナカノメ","prefecture_code":4},"0217":{"zip_code":"9890217","prefecture":"宮城県","prefecture_kana":"ミヤギケン","city":"白石市","city_kana":"シロイシシ","town":"大平森合","town_kana":"オオダイラモリアイ","prefecture_code":4},"0276":{"zip_code":"9890276","prefecture":"宮城県","prefecture_kana":"ミヤギケン","city":"白石市","city_kana":"シロイシシ","town":"大手町","town_kana":"オオテマチ","prefecture_code":4},"0208":{"zip_code":"9890208","prefecture":"宮城県","prefecture_kana":"ミヤギケン","city":"白石市","city_kana":"シロイシシ","town":"大畑","town_kana":"オオハタ","prefecture_code":4},"0233":{"zip_code":"9890233","prefecture":"宮城県","prefecture_kana":"ミヤギケン","city":"白石市","city_kana":"シロイシシ","town":"小原","town_kana":"オバラ","prefecture_code":4},"0244":{"zip_code":"9890244","prefecture":"宮城県","prefecture_kana":"ミヤギケン","city":"白石市","city_kana":"シロイシシ","town":"上久保","town_kana":"カミクボ","prefecture_code":4},"0202":{"zip_code":"9890202","prefecture":"宮城県","prefecture_kana":"ミヤギケン","city":"白石市","city_kana":"シロイシシ","town":"上堰","town_kana":"カミゼキ","prefecture_code":4},"0262":{"zip_code":"9890262","prefecture":"宮城県","prefecture_kana":"ミヤギケン","city":"白石市","city_kana":"シロイシシ","town":"北川原","town_kana":"キタガワラ","prefecture_code":4},"0224":{"zip_code":"9890224","prefecture":"宮城県","prefecture_kana":"ミヤギケン","city":"白石市","city_kana":"シロイシシ","town":"北無双作","town_kana":"キタムソウサク","prefecture_code":4},"0203":{"zip_code":"9890203","prefecture":"宮城県","prefecture_kana":"ミヤギケン","city":"白石市","city_kana":"シロイシシ","town":"郡山","town_kana":"コオリヤマ","prefecture_code":4},"0201":{"zip_code":"9890201","prefecture":"宮城県","prefecture_kana":"ミヤギケン","city":"白石市","city_kana":"シロイシシ","town":"小下倉","town_kana":"コシタグラ","prefecture_code":4},"0113":{"zip_code":"9890113","prefecture":"宮城県","prefecture_kana":"ミヤギケン","city":"白石市","city_kana":"シロイシシ","town":"越河","town_kana":"コスゴウ","prefecture_code":4},"0111":{"zip_code":"9890111","prefecture":"宮城県","prefecture_kana":"ミヤギケン","city":"白石市","city_kana":"シロイシシ","town":"越河五賀","town_kana":"コスゴウゴカ","prefecture_code":4},"0112":{"zip_code":"9890112","prefecture":"宮城県","prefecture_kana":"ミヤギケン","city":"白石市","city_kana":"シロイシシ","town":"越河平","town_kana":"コスゴウタイラ","prefecture_code":4},"0241":{"zip_code":"9890241","prefecture":"宮城県","prefecture_kana":"ミヤギケン","city":"白石市","city_kana":"シロイシシ","town":"寿山","town_kana":"コトブキヤマ","prefecture_code":4},"0215":{"zip_code":"9890215","prefecture":"宮城県","prefecture_kana":"ミヤギケン","city":"白石市","city_kana":"シロイシシ","town":"斎川","town_kana":"サイカワ","prefecture_code":4},"0264":{"zip_code":"9890264","prefecture":"宮城県","prefecture_kana":"ミヤギケン","city":"白石市","city_kana":"シロイシシ","town":"幸","town_kana":"サイワイ","prefecture_code":4},"0278":{"zip_code":"9890278","prefecture":"宮城県","prefecture_kana":"ミヤギケン","city":"白石市","city_kana":"シロイシシ","town":"沢端","town_kana":"サワバタ","prefecture_code":4},"0277":{"zip_code":"9890277","prefecture":"宮城県","prefecture_kana":"ミヤギケン","city":"白石市","city_kana":"シロイシシ","town":"沢端町","town_kana":"サワバタチョウ","prefecture_code":4},"0243":{"zip_code":"9890243","prefecture":"宮城県","prefecture_kana":"ミヤギケン","city":"白石市","city_kana":"シロイシシ","town":"沢目","town_kana":"サワメ","prefecture_code":4},"0272":{"zip_code":"9890272","prefecture":"宮城県","prefecture_kana":"ミヤギケン","city":"白石市","city_kana":"シロイシシ","town":"清水小路","town_kana":"シミズコウジ","prefecture_code":4},"0266":{"zip_code":"9890266","prefecture":"宮城県","prefecture_kana":"ミヤギケン","city":"白石市","city_kana":"シロイシシ","town":"十王堂前","town_kana":"ジュウオウドウマエ","prefecture_code":4},"0265":{"zip_code":"9890265","prefecture":"宮城県","prefecture_kana":"ミヤギケン","city":"白石市","city_kana":"シロイシシ","town":"十王堂北","town_kana":"ジュウオウドウキタ","prefecture_code":4},"0245":{"zip_code":"9890245","prefecture":"宮城県","prefecture_kana":"ミヤギケン","city":"白石市","city_kana":"シロイシシ","town":"城南","town_kana":"ジョウナン","prefecture_code":4},"0255":{"zip_code":"9890255","prefecture":"宮城県","prefecture_kana":"ミヤギケン","city":"白石市","city_kana":"シロイシシ","town":"城北町","town_kana":"ジョウホクチョウ","prefecture_code":4},"1103":{"zip_code":"9891103","prefecture":"宮城県","prefecture_kana":"ミヤギケン","city":"白石市","city_kana":"シロイシシ","town":"白川犬卒都婆","town_kana":"シラカワイヌソトバ","prefecture_code":4},"1104":{"zip_code":"9891104","prefecture":"宮城県","prefecture_kana":"ミヤギケン","city":"白石市","city_kana":"シロイシシ","town":"白川内親","town_kana":"シラカワウチオヤ","prefecture_code":4},"1101":{"zip_code":"9891101","prefecture":"宮城県","prefecture_kana":"ミヤギケン","city":"白石市","city_kana":"シロイシシ","town":"白川小奥","town_kana":"シラカワコオク","prefecture_code":4},"1102":{"zip_code":"9891102","prefecture":"宮城県","prefecture_kana":"ミヤギケン","city":"白石市","city_kana":"シロイシシ","town":"白川津田","town_kana":"シラカワツダ","prefecture_code":4},"0734":{"zip_code":"9890734","prefecture":"宮城県","prefecture_kana":"ミヤギケン","city":"白石市","city_kana":"シロイシシ","town":"白鳥","town_kana":"シラトリ","prefecture_code":4},"0226":{"zip_code":"9890226","prefecture":"宮城県","prefecture_kana":"ミヤギケン","city":"白石市","city_kana":"シロイシシ","town":"白石沖","town_kana":"シロイシオキ","prefecture_code":4},"0246":{"zip_code":"9890246","prefecture":"宮城県","prefecture_kana":"ミヤギケン","city":"白石市","city_kana":"シロイシシ","town":"新館町","town_kana":"シンダテチョウ","prefecture_code":4},"0271":{"zip_code":"9890271","prefecture":"宮城県","prefecture_kana":"ミヤギケン","city":"白石市","city_kana":"シロイシシ","town":"不澄ケ池","town_kana":"スマズガイケ","prefecture_code":4},"0261":{"zip_code":"9890261","prefecture":"宮城県","prefecture_kana":"ミヤギケン","city":"白石市","city_kana":"シロイシシ","town":"外川原","town_kana":"ソトガワラ","prefecture_code":4},"0222":{"zip_code":"9890222","prefecture":"宮城県","prefecture_kana":"ミヤギケン","city":"白石市","city_kana":"シロイシシ","town":"鷹巣","town_kana":"タカノス","prefecture_code":4},"0218":{"zip_code":"9890218","prefecture":"宮城県","prefecture_kana":"ミヤギケン","city":"白石市","city_kana":"シロイシシ","town":"鷹巣東","town_kana":"タカノスヒガシ","prefecture_code":4},"0220":{"zip_code":"9890220","prefecture":"宮城県","prefecture_kana":"ミヤギケン","city":"白石市","city_kana":"シロイシシ","town":"鷹巣西","town_kana":"タカノスニシ","prefecture_code":4},"0227":{"zip_code":"9890227","prefecture":"宮城県","prefecture_kana":"ミヤギケン","city":"白石市","city_kana":"シロイシシ","town":"田町","town_kana":"タマチ","prefecture_code":4},"0229":{"zip_code":"9890229","prefecture":"宮城県","prefecture_kana":"ミヤギケン","city":"白石市","city_kana":"シロイシシ","town":"銚子ケ森","town_kana":"チョウシガモリ","prefecture_code":4},"0206":{"zip_code":"9890206","prefecture":"宮城県","prefecture_kana":"ミヤギケン","city":"白石市","city_kana":"シロイシシ","town":"寺屋敷前","town_kana":"テラヤシキマエ","prefecture_code":4},"0207":{"zip_code":"9890207","prefecture":"宮城県","prefecture_kana":"ミヤギケン","city":"白石市","city_kana":"シロイシシ","town":"堂場前","town_kana":"ドウバマエ","prefecture_code":4},"0273":{"zip_code":"9890273","prefecture":"宮城県","prefecture_kana":"ミヤギケン","city":"白石市","city_kana":"シロイシシ","town":"中町","town_kana":"ナカマチ","prefecture_code":4},"0274":{"zip_code":"9890274","prefecture":"宮城県","prefecture_kana":"ミヤギケン","city":"白石市","city_kana":"シロイシシ","town":"長町","town_kana":"ナガマチ","prefecture_code":4},"0252":{"zip_code":"9890252","prefecture":"宮城県","prefecture_kana":"ミヤギケン","city":"白石市","city_kana":"シロイシシ","town":"西益岡町","town_kana":"ニシマスオカチョウ","prefecture_code":4},"0268":{"zip_code":"9890268","prefecture":"宮城県","prefecture_kana":"ミヤギケン","city":"白石市","city_kana":"シロイシシ","town":"祢宜内","town_kana":"ネギウチ","prefecture_code":4},"0247":{"zip_code":"9890247","prefecture":"宮城県","prefecture_kana":"ミヤギケン","city":"白石市","city_kana":"シロイシシ","town":"八幡町","town_kana":"ハチマンチョウ","prefecture_code":4},"0259":{"zip_code":"9890259","prefecture":"宮城県","prefecture_kana":"ミヤギケン","city":"白石市","city_kana":"シロイシシ","town":"半沢屋敷前","town_kana":"ハンザワヤシキマエ","prefecture_code":4},"0258":{"zip_code":"9890258","prefecture":"宮城県","prefecture_kana":"ミヤギケン","city":"白石市","city_kana":"シロイシシ","town":"半沢屋敷西","town_kana":"ハンザワヤシキニシ","prefecture_code":4},"0205":{"zip_code":"9890205","prefecture":"宮城県","prefecture_kana":"ミヤギケン","city":"白石市","city_kana":"シロイシシ","town":"東大畑","town_kana":"ヒガシオオハタ","prefecture_code":4},"0253":{"zip_code":"9890253","prefecture":"宮城県","prefecture_kana":"ミヤギケン","city":"白石市","city_kana":"シロイシシ","town":"東小路","town_kana":"ヒガシコウジ","prefecture_code":4},"0225":{"zip_code":"9890225","prefecture":"宮城県","prefecture_kana":"ミヤギケン","city":"白石市","city_kana":"シロイシシ","town":"東町","town_kana":"ヒガシチョウ","prefecture_code":4},"0231":{"zip_code":"9890231","prefecture":"宮城県","prefecture_kana":"ミヤギケン","city":"白石市","city_kana":"シロイシシ","town":"福岡蔵本","town_kana":"フクオカクラモト","prefecture_code":4},"0731":{"zip_code":"9890731","prefecture":"宮城県","prefecture_kana":"ミヤギケン","city":"白石市","city_kana":"シロイシシ","town":"福岡深谷","town_kana":"フクオカフカヤ","prefecture_code":4},"0733":{"zip_code":"9890733","prefecture":"宮城県","prefecture_kana":"ミヤギケン","city":"白石市","city_kana":"シロイシシ","town":"福岡八宮","town_kana":"フクオカヤツミヤ","prefecture_code":4},"0732":[{"zip_code":"9890732","prefecture":"宮城県","prefecture_kana":"ミヤギケン","city":"白石市","city_kana":"シロイシシ","town":"福岡長袋川寺山","town_kana":"フクオカナガフクロカワテラヤマ","prefecture_code":4},{"zip_code":"9890732","prefecture":"宮城県","prefecture_kana":"ミヤギケン","city":"白石市","city_kana":"シロイシシ","town":"福岡長袋芹沢","town_kana":"フクオカナガフクロセリザワ","prefecture_code":4}],"0232":{"zip_code":"9890232","prefecture":"宮城県","prefecture_kana":"ミヤギケン","city":"白石市","city_kana":"シロイシシ","town":"福岡長袋","town_kana":"フクオカナガフクロ","prefecture_code":4},"0251":{"zip_code":"9890251","prefecture":"宮城県","prefecture_kana":"ミヤギケン","city":"白石市","city_kana":"シロイシシ","town":"益岡町","town_kana":"マスオカチョウ","prefecture_code":4},"0204":{"zip_code":"9890204","prefecture":"宮城県","prefecture_kana":"ミヤギケン","city":"白石市","city_kana":"シロイシシ","town":"松ケ丘","town_kana":"マツガオカ","prefecture_code":4},"0221":{"zip_code":"9890221","prefecture":"宮城県","prefecture_kana":"ミヤギケン","city":"白石市","city_kana":"シロイシシ","town":"緑が丘","town_kana":"ミドリガオカ","prefecture_code":4},"0248":{"zip_code":"9890248","prefecture":"宮城県","prefecture_kana":"ミヤギケン","city":"白石市","city_kana":"シロイシシ","town":"南町","town_kana":"ミナミマチ","prefecture_code":4},"0256":{"zip_code":"9890256","prefecture":"宮城県","prefecture_kana":"ミヤギケン","city":"白石市","city_kana":"シロイシシ","town":"本鍛冶小路","town_kana":"モトカジコウジ","prefecture_code":4},"0275":{"zip_code":"9890275","prefecture":"宮城県","prefecture_kana":"ミヤギケン","city":"白石市","city_kana":"シロイシシ","town":"本町","town_kana":"モトマチ","prefecture_code":4},"0263":{"zip_code":"9890263","prefecture":"宮城県","prefecture_kana":"ミヤギケン","city":"白石市","city_kana":"シロイシシ","town":"柳川原","town_kana":"ヤナギガワラ","prefecture_code":4},"0242":{"zip_code":"9890242","prefecture":"宮城県","prefecture_kana":"ミヤギケン","city":"白石市","city_kana":"シロイシシ","town":"柳町","town_kana":"ヤナギマチ","prefecture_code":4},"0257":{"zip_code":"9890257","prefecture":"宮城県","prefecture_kana":"ミヤギケン","city":"白石市","city_kana":"シロイシシ","town":"亘理町","town_kana":"ワタリマチ","prefecture_code":4},"2401":[{"zip_code":"9892401","prefecture":"宮城県","prefecture_kana":"ミヤギケン","city":"名取市","city_kana":"ナトリシ","town":"下増田","town_kana":"シモマスダ","prefecture_code":4},{"zip_code":"9892401","prefecture":"宮城県","prefecture_kana":"ミヤギケン","city":"名取市","city_kana":"ナトリシ","town":"下増田仙台空港関係施設","town_kana":"シモマスダセンダイクウコウカンケイシセツ","prefecture_code":4}],"2412":{"zip_code":"9892412","prefecture":"宮城県","prefecture_kana":"ミヤギケン","city":"名取市","city_kana":"ナトリシ","town":"堀内","town_kana":"ホリウチ","prefecture_code":4},"2411":{"zip_code":"9892411","prefecture":"宮城県","prefecture_kana":"ミヤギケン","city":"名取市","city_kana":"ナトリシ","town":"本郷","town_kana":"ホンゴウ","prefecture_code":4},"2400":{"zip_code":"9892400","prefecture":"宮城県","prefecture_kana":"ミヤギケン","city":"岩沼市","city_kana":"イワヌマシ","town":"","town_kana":"","prefecture_code":4},"2431":{"zip_code":"9892431","prefecture":"宮城県","prefecture_kana":"ミヤギケン","city":"岩沼市","city_kana":"イワヌマシ","town":"相の原","town_kana":"アイノハラ","prefecture_code":4},"2474":{"zip_code":"9892474","prefecture":"宮城県","prefecture_kana":"ミヤギケン","city":"岩沼市","city_kana":"イワヌマシ","town":"朝日","town_kana":"アサヒ","prefecture_code":4},"2435":{"zip_code":"9892435","prefecture":"宮城県","prefecture_kana":"ミヤギケン","city":"岩沼市","city_kana":"イワヌマシ","town":"阿武隈","town_kana":"アブクマ","prefecture_code":4},"2463":{"zip_code":"9892463","prefecture":"宮城県","prefecture_kana":"ミヤギケン","city":"岩沼市","city_kana":"イワヌマシ","town":"荒井","town_kana":"アライ","prefecture_code":4},"2443":{"zip_code":"9892443","prefecture":"宮城県","prefecture_kana":"ミヤギケン","city":"岩沼市","city_kana":"イワヌマシ","town":"稲荷町","town_kana":"イナリチョウ","prefecture_code":4},"2442":{"zip_code":"9892442","prefecture":"宮城県","prefecture_kana":"ミヤギケン","city":"岩沼市","city_kana":"イワヌマシ","town":"大手町","town_kana":"オオテチョウ","prefecture_code":4},"2471":{"zip_code":"9892471","prefecture":"宮城県","prefecture_kana":"ミヤギケン","city":"岩沼市","city_kana":"イワヌマシ","town":"小川","town_kana":"オガワ","prefecture_code":4},"2423":{"zip_code":"9892423","prefecture":"宮城県","prefecture_kana":"ミヤギケン","city":"岩沼市","city_kana":"イワヌマシ","town":"押分","town_kana":"オシワケ","prefecture_code":4},"2472":{"zip_code":"9892472","prefecture":"宮城県","prefecture_kana":"ミヤギケン","city":"岩沼市","city_kana":"イワヌマシ","town":"梶橋","town_kana":"カジバシ","prefecture_code":4},"2455":{"zip_code":"9892455","prefecture":"宮城県","prefecture_kana":"ミヤギケン","city":"岩沼市","city_kana":"イワヌマシ","town":"北長谷","town_kana":"キタハセ","prefecture_code":4},"2422":{"zip_code":"9892422","prefecture":"宮城県","prefecture_kana":"ミヤギケン","city":"岩沼市","city_kana":"イワヌマシ","town":"空港南","town_kana":"クウコウミナミ","prefecture_code":4},"2445":{"zip_code":"9892445","prefecture":"宮城県","prefecture_kana":"ミヤギケン","city":"岩沼市","city_kana":"イワヌマシ","town":"桑原","town_kana":"クワバラ","prefecture_code":4},"2447":{"zip_code":"9892447","prefecture":"宮城県","prefecture_kana":"ミヤギケン","city":"岩沼市","city_kana":"イワヌマシ","town":"桑原西","town_kana":"クワバラニシ","prefecture_code":4},"2473":{"zip_code":"9892473","prefecture":"宮城県","prefecture_kana":"ミヤギケン","city":"岩沼市","city_kana":"イワヌマシ","town":"栄町","town_kana":"サカエチョウ","prefecture_code":4},"2433":{"zip_code":"9892433","prefecture":"宮城県","prefecture_kana":"ミヤギケン","city":"岩沼市","city_kana":"イワヌマシ","town":"桜","town_kana":"サクラ","prefecture_code":4},"2427":{"zip_code":"9892427","prefecture":"宮城県","prefecture_kana":"ミヤギケン","city":"岩沼市","city_kana":"イワヌマシ","town":"里の杜","town_kana":"サトノモリ","prefecture_code":4},"2465":{"zip_code":"9892465","prefecture":"宮城県","prefecture_kana":"ミヤギケン","city":"岩沼市","city_kana":"イワヌマシ","town":"志賀","town_kana":"シガ","prefecture_code":4},"2476":{"zip_code":"9892476","prefecture":"宮城県","prefecture_kana":"ミヤギケン","city":"岩沼市","city_kana":"イワヌマシ","town":"敷島","town_kana":"シキシマ","prefecture_code":4},"2421":{"zip_code":"9892421","prefecture":"宮城県","prefecture_kana":"ミヤギケン","city":"岩沼市","city_kana":"イワヌマシ","town":"下野郷","town_kana":"シモノゴウ","prefecture_code":4},"2426":{"zip_code":"9892426","prefecture":"宮城県","prefecture_kana":"ミヤギケン","city":"岩沼市","city_kana":"イワヌマシ","town":"末広","town_kana":"スエヒロ","prefecture_code":4},"2453":{"zip_code":"9892453","prefecture":"宮城県","prefecture_kana":"ミヤギケン","city":"岩沼市","city_kana":"イワヌマシ","town":"大昭和","town_kana":"ダイショウワ","prefecture_code":4},"2452":{"zip_code":"9892452","prefecture":"宮城県","prefecture_kana":"ミヤギケン","city":"岩沼市","city_kana":"イワヌマシ","town":"武隈","town_kana":"タケクマ","prefecture_code":4},"2459":{"zip_code":"9892459","prefecture":"宮城県","prefecture_kana":"ミヤギケン","city":"岩沼市","city_kana":"イワヌマシ","town":"たけくま","town_kana":"タケクマ","prefecture_code":4},"2458":{"zip_code":"9892458","prefecture":"宮城県","prefecture_kana":"ミヤギケン","city":"岩沼市","city_kana":"イワヌマシ","town":"竹の里","town_kana":"タケノサト","prefecture_code":4},"2441":{"zip_code":"9892441","prefecture":"宮城県","prefecture_kana":"ミヤギケン","city":"岩沼市","city_kana":"イワヌマシ","town":"館下","town_kana":"タテシタ","prefecture_code":4},"2428":{"zip_code":"9892428","prefecture":"宮城県","prefecture_kana":"ミヤギケン","city":"岩沼市","city_kana":"イワヌマシ","town":"玉浦西","town_kana":"タマウラニシ","prefecture_code":4},"2432":{"zip_code":"9892432","prefecture":"宮城県","prefecture_kana":"ミヤギケン","city":"岩沼市","city_kana":"イワヌマシ","town":"中央","town_kana":"チュウオウ","prefecture_code":4},"2425":{"zip_code":"9892425","prefecture":"宮城県","prefecture_kana":"ミヤギケン","city":"岩沼市","city_kana":"イワヌマシ","town":"寺島","town_kana":"テラシマ","prefecture_code":4},"2451":{"zip_code":"9892451","prefecture":"宮城県","prefecture_kana":"ミヤギケン","city":"岩沼市","city_kana":"イワヌマシ","town":"土ケ崎","town_kana":"ドガサキ","prefecture_code":4},"2461":{"zip_code":"9892461","prefecture":"宮城県","prefecture_kana":"ミヤギケン","city":"岩沼市","city_kana":"イワヌマシ","town":"長岡","town_kana":"ナガオカ","prefecture_code":4},"2446":{"zip_code":"9892446","prefecture":"宮城県","prefecture_kana":"ミヤギケン","city":"岩沼市","city_kana":"イワヌマシ","town":"西六角","town_kana":"ニシロッカク","prefecture_code":4},"2424":{"zip_code":"9892424","prefecture":"宮城県","prefecture_kana":"ミヤギケン","city":"岩沼市","city_kana":"イワヌマシ","town":"早股","town_kana":"ハヤマタ","prefecture_code":4},"2477":{"zip_code":"9892477","prefecture":"宮城県","prefecture_kana":"ミヤギケン","city":"岩沼市","city_kana":"イワヌマシ","town":"東谷地","town_kana":"ヒガシヤチ","prefecture_code":4},"2457":{"zip_code":"9892457","prefecture":"宮城県","prefecture_kana":"ミヤギケン","city":"岩沼市","city_kana":"イワヌマシ","town":"平等","town_kana":"ビョウドウ","prefecture_code":4},"2436":{"zip_code":"9892436","prefecture":"宮城県","prefecture_kana":"ミヤギケン","city":"岩沼市","city_kana":"イワヌマシ","town":"吹上","town_kana":"フキアゲ","prefecture_code":4},"2437":{"zip_code":"9892437","prefecture":"宮城県","prefecture_kana":"ミヤギケン","city":"岩沼市","city_kana":"イワヌマシ","town":"吹上西","town_kana":"フキアゲニシ","prefecture_code":4},"2434":{"zip_code":"9892434","prefecture":"宮城県","prefecture_kana":"ミヤギケン","city":"岩沼市","city_kana":"イワヌマシ","town":"藤浪","town_kana":"フジナミ","prefecture_code":4},"2448":{"zip_code":"9892448","prefecture":"宮城県","prefecture_kana":"ミヤギケン","city":"岩沼市","city_kana":"イワヌマシ","town":"二木","town_kana":"フタキ","prefecture_code":4},"2444":{"zip_code":"9892444","prefecture":"宮城県","prefecture_kana":"ミヤギケン","city":"岩沼市","city_kana":"イワヌマシ","town":"本町","town_kana":"ホンチョウ","prefecture_code":4},"2456":{"zip_code":"9892456","prefecture":"宮城県","prefecture_kana":"ミヤギケン","city":"岩沼市","city_kana":"イワヌマシ","town":"松ケ丘","town_kana":"マツガオカ","prefecture_code":4},"2464":{"zip_code":"9892464","prefecture":"宮城県","prefecture_kana":"ミヤギケン","city":"岩沼市","city_kana":"イワヌマシ","town":"三色吉","town_kana":"ミイロヨシ","prefecture_code":4},"2454":{"zip_code":"9892454","prefecture":"宮城県","prefecture_kana":"ミヤギケン","city":"岩沼市","city_kana":"イワヌマシ","town":"南長谷","town_kana":"ミナミハセ","prefecture_code":4},"2462":{"zip_code":"9892462","prefecture":"宮城県","prefecture_kana":"ミヤギケン","city":"岩沼市","city_kana":"イワヌマシ","town":"山桜","town_kana":"ヤマザクラ","prefecture_code":4},"2475":{"zip_code":"9892475","prefecture":"宮城県","prefecture_kana":"ミヤギケン","city":"岩沼市","city_kana":"イワヌマシ","town":"大和","town_kana":"ヤマト","prefecture_code":4},"4701":{"zip_code":"9894701","prefecture":"宮城県","prefecture_kana":"ミヤギケン","city":"登米市","city_kana":"トメシ","town":"石越町北郷","town_kana":"イシコシマチキタゴウ","prefecture_code":4},"4702":{"zip_code":"9894702","prefecture":"宮城県","prefecture_kana":"ミヤギケン","city":"登米市","city_kana":"トメシ","town":"石越町東郷","town_kana":"イシコシマチヒガシゴウ","prefecture_code":4},"4703":{"zip_code":"9894703","prefecture":"宮城県","prefecture_kana":"ミヤギケン","city":"登米市","city_kana":"トメシ","town":"石越町南郷","town_kana":"イシコシマチミナミゴウ","prefecture_code":4},"4601":{"zip_code":"9894601","prefecture":"宮城県","prefecture_kana":"ミヤギケン","city":"登米市","city_kana":"トメシ","town":"迫町新田","town_kana":"ハサマチョウニッタ","prefecture_code":4},"5403":{"zip_code":"9895403","prefecture":"宮城県","prefecture_kana":"ミヤギケン","city":"栗原市","city_kana":"クリハラシ","town":"鶯沢北郷","town_kana":"ウグイスザワキタゴウ","prefecture_code":4},"5402":{"zip_code":"9895402","prefecture":"宮城県","prefecture_kana":"ミヤギケン","city":"栗原市","city_kana":"クリハラシ","town":"鶯沢南郷","town_kana":"ウグイスザワナンゴウ","prefecture_code":4},"5401":{"zip_code":"9895401","prefecture":"宮城県","prefecture_kana":"ミヤギケン","city":"栗原市","city_kana":"クリハラシ","town":"鶯沢袋","town_kana":"ウグイスザワフクロ","prefecture_code":4},"4807":{"zip_code":"9894807","prefecture":"宮城県","prefecture_kana":"ミヤギケン","city":"栗原市","city_kana":"クリハラシ","town":"金成赤児","town_kana":"カンナリアカチゴ","prefecture_code":4},"5172":{"zip_code":"9895172","prefecture":"宮城県","prefecture_kana":"ミヤギケン","city":"栗原市","city_kana":"クリハラシ","town":"金成姉歯","town_kana":"カンナリアネハ","prefecture_code":4},"4806":{"zip_code":"9894806","prefecture":"宮城県","prefecture_kana":"ミヤギケン","city":"栗原市","city_kana":"クリハラシ","town":"金成有壁","town_kana":"カンナリアリカベ","prefecture_code":4},"5127":{"zip_code":"9895127","prefecture":"宮城県","prefecture_kana":"ミヤギケン","city":"栗原市","city_kana":"クリハラシ","town":"金成稲荷前","town_kana":"カンナリイナリマエ","prefecture_code":4},"5142":{"zip_code":"9895142","prefecture":"宮城県","prefecture_kana":"ミヤギケン","city":"栗原市","city_kana":"クリハラシ","town":"金成入生田","town_kana":"カンナリイリウダ","prefecture_code":4},"5118":{"zip_code":"9895118","prefecture":"宮城県","prefecture_kana":"ミヤギケン","city":"栗原市","city_kana":"クリハラシ","town":"金成入ノ沢","town_kana":"カンナリイリノサワ","prefecture_code":4},"5146":{"zip_code":"9895146","prefecture":"宮城県","prefecture_kana":"ミヤギケン","city":"栗原市","city_kana":"クリハラシ","town":"金成祝","town_kana":"カンナリイワイ","prefecture_code":4},"5112":{"zip_code":"9895112","prefecture":"宮城県","prefecture_kana":"ミヤギケン","city":"栗原市","city_kana":"クリハラシ","town":"金成宇南崎","town_kana":"カンナリウナンザキ","prefecture_code":4},"5119":{"zip_code":"9895119","prefecture":"宮城県","prefecture_kana":"ミヤギケン","city":"栗原市","city_kana":"クリハラシ","town":"金成狼ノ沢","town_kana":"カンナリオイノザワ","prefecture_code":4},"5163":{"zip_code":"9895163","prefecture":"宮城県","prefecture_kana":"ミヤギケン","city":"栗原市","city_kana":"クリハラシ","town":"金成大久保沢","town_kana":"カンナリオオクボサワ","prefecture_code":4},"5116":{"zip_code":"9895116","prefecture":"宮城県","prefecture_kana":"ミヤギケン","city":"栗原市","city_kana":"クリハラシ","town":"金成大梨","town_kana":"カンナリオオナシ","prefecture_code":4},"5185":{"zip_code":"9895185","prefecture":"宮城県","prefecture_kana":"ミヤギケン","city":"栗原市","city_kana":"クリハラシ","town":"金成大原木","town_kana":"カンナリオオハラギ","prefecture_code":4},"5121":{"zip_code":"9895121","prefecture":"宮城県","prefecture_kana":"ミヤギケン","city":"栗原市","city_kana":"クリハラシ","town":"金成大平","town_kana":"カンナリオオヒラ","prefecture_code":4},"5138":{"zip_code":"9895138","prefecture":"宮城県","prefecture_kana":"ミヤギケン","city":"栗原市","city_kana":"クリハラシ","town":"金成翁沢","town_kana":"カンナリオキナザワ","prefecture_code":4},"5141":{"zip_code":"9895141","prefecture":"宮城県","prefecture_kana":"ミヤギケン","city":"栗原市","city_kana":"クリハラシ","town":"金成翁留","town_kana":"カンナリオキナドメ","prefecture_code":4},"5183":{"zip_code":"9895183","prefecture":"宮城県","prefecture_kana":"ミヤギケン","city":"栗原市","city_kana":"クリハラシ","town":"金成小堤","town_kana":"カンナリオツツミ","prefecture_code":4},"5184":{"zip_code":"9895184","prefecture":"宮城県","prefecture_kana":"ミヤギケン","city":"栗原市","city_kana":"クリハラシ","town":"金成小迫","town_kana":"カンナリオバサマ","prefecture_code":4},"4805":{"zip_code":"9894805","prefecture":"宮城県","prefecture_kana":"ミヤギケン","city":"栗原市","city_kana":"クリハラシ","town":"金成片馬合","town_kana":"カンナリカタマセ","prefecture_code":4},"5128":{"zip_code":"9895128","prefecture":"宮城県","prefecture_kana":"ミヤギケン","city":"栗原市","city_kana":"クリハラシ","town":"金成金山沢","town_kana":"カンナリカナヤマザワ","prefecture_code":4},"5115":{"zip_code":"9895115","prefecture":"宮城県","prefecture_kana":"ミヤギケン","city":"栗原市","city_kana":"クリハラシ","town":"金成上富田","town_kana":"カンナリカミトミダ","prefecture_code":4},"5137":{"zip_code":"9895137","prefecture":"宮城県","prefecture_kana":"ミヤギケン","city":"栗原市","city_kana":"クリハラシ","town":"金成髪長","town_kana":"カンナリカミナガ","prefecture_code":4},"5154":{"zip_code":"9895154","prefecture":"宮城県","prefecture_kana":"ミヤギケン","city":"栗原市","city_kana":"クリハラシ","town":"金成上町","town_kana":"カンナリカミマチ","prefecture_code":4},"5155":{"zip_code":"9895155","prefecture":"宮城県","prefecture_kana":"ミヤギケン","city":"栗原市","city_kana":"クリハラシ","town":"金成上町西裏","town_kana":"カンナリカミマチニシウラ","prefecture_code":4},"5153":{"zip_code":"9895153","prefecture":"宮城県","prefecture_kana":"ミヤギケン","city":"栗原市","city_kana":"クリハラシ","town":"金成上町東裏","town_kana":"カンナリカミマチヒガシウラ","prefecture_code":4},"5164":{"zip_code":"9895164","prefecture":"宮城県","prefecture_kana":"ミヤギケン","city":"栗原市","city_kana":"クリハラシ","town":"金成金生","town_kana":"カンナリキンセイ","prefecture_code":4},"5136":{"zip_code":"9895136","prefecture":"宮城県","prefecture_kana":"ミヤギケン","city":"栗原市","city_kana":"クリハラシ","town":"金成熊ノ下","town_kana":"カンナリクマノシタ","prefecture_code":4},"5139":{"zip_code":"9895139","prefecture":"宮城県","prefecture_kana":"ミヤギケン","city":"栗原市","city_kana":"クリハラシ","town":"金成黄金田","town_kana":"カンナリコガネダ","prefecture_code":4},"5151":{"zip_code":"9895151","prefecture":"宮城県","prefecture_kana":"ミヤギケン","city":"栗原市","city_kana":"クリハラシ","town":"金成桜町","town_kana":"カンナリサクラマチ","prefecture_code":4},"5171":{"zip_code":"9895171","prefecture":"宮城県","prefecture_kana":"ミヤギケン","city":"栗原市","city_kana":"クリハラシ","town":"金成沢辺","town_kana":"カンナリサワベ","prefecture_code":4},"5130":{"zip_code":"9895130","prefecture":"宮城県","prefecture_kana":"ミヤギケン","city":"栗原市","city_kana":"クリハラシ","town":"金成清水田","town_kana":"カンナリシミズタ","prefecture_code":4},"5114":{"zip_code":"9895114","prefecture":"宮城県","prefecture_kana":"ミヤギケン","city":"栗原市","city_kana":"クリハラシ","town":"金成下富田","town_kana":"カンナリシモトミダ","prefecture_code":4},"5133":{"zip_code":"9895133","prefecture":"宮城県","prefecture_kana":"ミヤギケン","city":"栗原市","city_kana":"クリハラシ","town":"金成新町","town_kana":"カンナリシンマチ","prefecture_code":4},"5134":{"zip_code":"9895134","prefecture":"宮城県","prefecture_kana":"ミヤギケン","city":"栗原市","city_kana":"クリハラシ","town":"金成新町裏","town_kana":"カンナリシンマチウラ","prefecture_code":4},"4802":{"zip_code":"9894802","prefecture":"宮城県","prefecture_kana":"ミヤギケン","city":"栗原市","city_kana":"クリハラシ","town":"金成末野","town_kana":"カンナリスエノ","prefecture_code":4},"5135":{"zip_code":"9895135","prefecture":"宮城県","prefecture_kana":"ミヤギケン","city":"栗原市","city_kana":"クリハラシ","town":"金成台畑","town_kana":"カンナリダイハタ","prefecture_code":4},"5125":{"zip_code":"9895125","prefecture":"宮城県","prefecture_kana":"ミヤギケン","city":"栗原市","city_kana":"クリハラシ","town":"金成大林寺沢","town_kana":"カンナリダイリンジザワ","prefecture_code":4},"5161":{"zip_code":"9895161","prefecture":"宮城県","prefecture_kana":"ミヤギケン","city":"栗原市","city_kana":"クリハラシ","town":"金成館下","town_kana":"カンナリタテシタ","prefecture_code":4},"5181":{"zip_code":"9895181","prefecture":"宮城県","prefecture_kana":"ミヤギケン","city":"栗原市","city_kana":"クリハラシ","town":"金成津久毛","town_kana":"カンナリツクモ","prefecture_code":4},"5126":{"zip_code":"9895126","prefecture":"宮城県","prefecture_kana":"ミヤギケン","city":"栗原市","city_kana":"クリハラシ","town":"金成鍔ノ瓦","town_kana":"カンナリツバノカワラ","prefecture_code":4},"5165":{"zip_code":"9895165","prefecture":"宮城県","prefecture_kana":"ミヤギケン","city":"栗原市","city_kana":"クリハラシ","town":"金成長館","town_kana":"カンナリナガタテ","prefecture_code":4},"5162":{"zip_code":"9895162","prefecture":"宮城県","prefecture_kana":"ミヤギケン","city":"栗原市","city_kana":"クリハラシ","town":"金成長根沢","town_kana":"カンナリナガネザワ","prefecture_code":4},"5166":{"zip_code":"9895166","prefecture":"宮城県","prefecture_kana":"ミヤギケン","city":"栗原市","city_kana":"クリハラシ","town":"金成長根前","town_kana":"カンナリナガネマエ","prefecture_code":4},"5144":{"zip_code":"9895144","prefecture":"宮城県","prefecture_kana":"ミヤギケン","city":"栗原市","city_kana":"クリハラシ","town":"金成中町","town_kana":"カンナリナカマチ","prefecture_code":4},"5145":{"zip_code":"9895145","prefecture":"宮城県","prefecture_kana":"ミヤギケン","city":"栗原市","city_kana":"クリハラシ","town":"金成中町西裏","town_kana":"カンナリナカマチニシウラ","prefecture_code":4},"5173":{"zip_code":"9895173","prefecture":"宮城県","prefecture_kana":"ミヤギケン","city":"栗原市","city_kana":"クリハラシ","town":"金成梨崎","town_kana":"カンナリナシザキ","prefecture_code":4},"5117":{"zip_code":"9895117","prefecture":"宮城県","prefecture_kana":"ミヤギケン","city":"栗原市","city_kana":"クリハラシ","town":"金成柧木沢","town_kana":"カンナリハヌキザワ","prefecture_code":4},"5111":{"zip_code":"9895111","prefecture":"宮城県","prefecture_kana":"ミヤギケン","city":"栗原市","city_kana":"クリハラシ","town":"金成日向","town_kana":"カンナリヒムカイ","prefecture_code":4},"5131":{"zip_code":"9895131","prefecture":"宮城県","prefecture_kana":"ミヤギケン","city":"栗原市","city_kana":"クリハラシ","town":"金成日向田","town_kana":"カンナリヒムカイダ","prefecture_code":4},"4808":{"zip_code":"9894808","prefecture":"宮城県","prefecture_kana":"ミヤギケン","city":"栗原市","city_kana":"クリハラシ","town":"金成普賢堂","town_kana":"カンナリフゲンドウ","prefecture_code":4},"4803":{"zip_code":"9894803","prefecture":"宮城県","prefecture_kana":"ミヤギケン","city":"栗原市","city_kana":"クリハラシ","town":"金成藤渡戸","town_kana":"カンナリフジワタト","prefecture_code":4},"5123":{"zip_code":"9895123","prefecture":"宮城県","prefecture_kana":"ミヤギケン","city":"栗原市","city_kana":"クリハラシ","town":"金成平治屋敷","town_kana":"カンナリヘイジヤシキ","prefecture_code":4},"5143":{"zip_code":"9895143","prefecture":"宮城県","prefecture_kana":"ミヤギケン","city":"栗原市","city_kana":"クリハラシ","town":"金成奉公田","town_kana":"カンナリホウコウダ","prefecture_code":4},"5132":{"zip_code":"9895132","prefecture":"宮城県","prefecture_kana":"ミヤギケン","city":"栗原市","city_kana":"クリハラシ","town":"金成干谷沢","town_kana":"カンナリホシヤザワ","prefecture_code":4},"5122":{"zip_code":"9895122","prefecture":"宮城県","prefecture_kana":"ミヤギケン","city":"栗原市","city_kana":"クリハラシ","town":"金成三沢","town_kana":"カンナリミサワ","prefecture_code":4},"5113":{"zip_code":"9895113","prefecture":"宮城県","prefecture_kana":"ミヤギケン","city":"栗原市","city_kana":"クリハラシ","town":"金成宮前","town_kana":"カンナリミヤマエ","prefecture_code":4},"5124":{"zip_code":"9895124","prefecture":"宮城県","prefecture_kana":"ミヤギケン","city":"栗原市","city_kana":"クリハラシ","town":"金成山中堤下","town_kana":"カンナリヤマナカツツミシタ","prefecture_code":4},"5152":{"zip_code":"9895152","prefecture":"宮城県","prefecture_kana":"ミヤギケン","city":"栗原市","city_kana":"クリハラシ","town":"金成四ツ屋敷","town_kana":"カンナリヨツヤシキ","prefecture_code":4},"5331":{"zip_code":"9895331","prefecture":"宮城県","prefecture_kana":"ミヤギケン","city":"栗原市","city_kana":"クリハラシ","town":"栗駒泉沢","town_kana":"クリコマイズミザワ","prefecture_code":4},"5341":{"zip_code":"9895341","prefecture":"宮城県","prefecture_kana":"ミヤギケン","city":"栗原市","city_kana":"クリハラシ","town":"栗駒稲屋敷","town_kana":"クリコマイナヤシキ","prefecture_code":4},"5332":{"zip_code":"9895332","prefecture":"宮城県","prefecture_kana":"ミヤギケン","city":"栗原市","city_kana":"クリハラシ","town":"栗駒芋埣","town_kana":"クリコマイモゾネ","prefecture_code":4},"5301":{"zip_code":"9895301","prefecture":"宮城県","prefecture_kana":"ミヤギケン","city":"栗原市","city_kana":"クリハラシ","town":"栗駒岩ケ崎","town_kana":"クリコマイワガサキ","prefecture_code":4},"5333":{"zip_code":"9895333","prefecture":"宮城県","prefecture_kana":"ミヤギケン","city":"栗原市","city_kana":"クリハラシ","town":"栗駒片子沢","town_kana":"クリコマカタゴザワ","prefecture_code":4},"5321":{"zip_code":"9895321","prefecture":"宮城県","prefecture_kana":"ミヤギケン","city":"栗原市","city_kana":"クリハラシ","town":"栗駒栗原","town_kana":"クリコマクリバラ","prefecture_code":4},"5322":{"zip_code":"9895322","prefecture":"宮城県","prefecture_kana":"ミヤギケン","city":"栗原市","city_kana":"クリハラシ","town":"栗駒桜田","town_kana":"クリコマサクラダ","prefecture_code":4},"5312":{"zip_code":"9895312","prefecture":"宮城県","prefecture_kana":"ミヤギケン","city":"栗原市","city_kana":"クリハラシ","town":"栗駒猿飛来","town_kana":"クリコマサッピライ","prefecture_code":4},"5311":{"zip_code":"9895311","prefecture":"宮城県","prefecture_kana":"ミヤギケン","city":"栗原市","city_kana":"クリハラシ","town":"栗駒里谷","town_kana":"クリコマサトヤ","prefecture_code":4},"5381":{"zip_code":"9895381","prefecture":"宮城県","prefecture_kana":"ミヤギケン","city":"栗原市","city_kana":"クリハラシ","town":"栗駒鳥沢","town_kana":"クリコマトリサワ","prefecture_code":4},"5351":{"zip_code":"9895351","prefecture":"宮城県","prefecture_kana":"ミヤギケン","city":"栗原市","city_kana":"クリハラシ","town":"栗駒中野","town_kana":"クリコマナカノ","prefecture_code":4},"5371":{"zip_code":"9895371","prefecture":"宮城県","prefecture_kana":"ミヤギケン","city":"栗原市","city_kana":"クリハラシ","town":"栗駒沼倉","town_kana":"クリコマヌマクラ","prefecture_code":4},"5323":{"zip_code":"9895323","prefecture":"宮城県","prefecture_kana":"ミヤギケン","city":"栗原市","city_kana":"クリハラシ","town":"栗駒菱沼","town_kana":"クリコマヒシヌマ","prefecture_code":4},"5382":{"zip_code":"9895382","prefecture":"宮城県","prefecture_kana":"ミヤギケン","city":"栗原市","city_kana":"クリハラシ","town":"栗駒深谷","town_kana":"クリコマフカヤ","prefecture_code":4},"5372":{"zip_code":"9895372","prefecture":"宮城県","prefecture_kana":"ミヤギケン","city":"栗原市","city_kana":"クリハラシ","town":"栗駒松倉","town_kana":"クリコママツクラ","prefecture_code":4},"5334":{"zip_code":"9895334","prefecture":"宮城県","prefecture_kana":"ミヤギケン","city":"栗原市","city_kana":"クリハラシ","town":"栗駒嶺崎","town_kana":"クリコマミネザキ","prefecture_code":4},"5361":{"zip_code":"9895361","prefecture":"宮城県","prefecture_kana":"ミヤギケン","city":"栗原市","city_kana":"クリハラシ","town":"栗駒文字","town_kana":"クリコマモンジ","prefecture_code":4},"5324":{"zip_code":"9895324","prefecture":"宮城県","prefecture_kana":"ミヤギケン","city":"栗原市","city_kana":"クリハラシ","town":"栗駒八幡","town_kana":"クリコマヤハタ","prefecture_code":4},"5335":{"zip_code":"9895335","prefecture":"宮城県","prefecture_kana":"ミヤギケン","city":"栗原市","city_kana":"クリハラシ","town":"栗駒渡丸","town_kana":"クリコマワタマル","prefecture_code":4},"5608":{"zip_code":"9895608","prefecture":"宮城県","prefecture_kana":"ミヤギケン","city":"栗原市","city_kana":"クリハラシ","town":"志波姫荒町北","town_kana":"シワヒメアラマチキタ","prefecture_code":4},"5606":{"zip_code":"9895606","prefecture":"宮城県","prefecture_kana":"ミヤギケン","city":"栗原市","city_kana":"クリハラシ","town":"志波姫荒町南","town_kana":"シワヒメアラマチミナミ","prefecture_code":4},"5603":{"zip_code":"9895603","prefecture":"宮城県","prefecture_kana":"ミヤギケン","city":"栗原市","city_kana":"クリハラシ","town":"志波姫伊豆野","town_kana":"シワヒメイズノ","prefecture_code":4},"5601":{"zip_code":"9895601","prefecture":"宮城県","prefecture_kana":"ミヤギケン","city":"栗原市","city_kana":"クリハラシ","town":"志波姫刈敷","town_kana":"シワヒメカリシキ","prefecture_code":4},"5605":{"zip_code":"9895605","prefecture":"宮城県","prefecture_kana":"ミヤギケン","city":"栗原市","city_kana":"クリハラシ","town":"志波姫北郷","town_kana":"シワヒメキタゴウ","prefecture_code":4},"5627":{"zip_code":"9895627","prefecture":"宮城県","prefecture_kana":"ミヤギケン","city":"栗原市","city_kana":"クリハラシ","town":"志波姫北堀口","town_kana":"シワヒメキタホリグチ","prefecture_code":4},"5607":{"zip_code":"9895607","prefecture":"宮城県","prefecture_kana":"ミヤギケン","city":"栗原市","city_kana":"クリハラシ","town":"志波姫蔵場南","town_kana":"シワヒメクラバミナミ","prefecture_code":4},"5621":{"zip_code":"9895621","prefecture":"宮城県","prefecture_kana":"ミヤギケン","city":"栗原市","city_kana":"クリハラシ","town":"志波姫下里","town_kana":"シワヒメシモサト","prefecture_code":4},"5602":{"zip_code":"9895602","prefecture":"宮城県","prefecture_kana":"ミヤギケン","city":"栗原市","city_kana":"クリハラシ","town":"志波姫城内南","town_kana":"シワヒメジョウナイミナミ","prefecture_code":4},"5616":{"zip_code":"9895616","prefecture":"宮城県","prefecture_kana":"ミヤギケン","city":"栗原市","city_kana":"クリハラシ","town":"志波姫新上戸","town_kana":"シワヒメシンアガト","prefecture_code":4},"5612":{"zip_code":"9895612","prefecture":"宮城県","prefecture_kana":"ミヤギケン","city":"栗原市","city_kana":"クリハラシ","town":"志波姫新熊谷","town_kana":"シワヒメシンクマヤ","prefecture_code":4},"5613":{"zip_code":"9895613","prefecture":"宮城県","prefecture_kana":"ミヤギケン","city":"栗原市","city_kana":"クリハラシ","town":"志波姫新沼崎","town_kana":"シワヒメシンヌマザキ","prefecture_code":4},"5617":{"zip_code":"9895617","prefecture":"宮城県","prefecture_kana":"ミヤギケン","city":"栗原市","city_kana":"クリハラシ","town":"志波姫新橋本","town_kana":"シワヒメシンハシモト","prefecture_code":4},"5614":{"zip_code":"9895614","prefecture":"宮城県","prefecture_kana":"ミヤギケン","city":"栗原市","city_kana":"クリハラシ","town":"志波姫新原","town_kana":"シワヒメシンハラ","prefecture_code":4},"5618":{"zip_code":"9895618","prefecture":"宮城県","prefecture_kana":"ミヤギケン","city":"栗原市","city_kana":"クリハラシ","town":"志波姫新八樟","town_kana":"シワヒメシンヤツクヌギ","prefecture_code":4},"5604":{"zip_code":"9895604","prefecture":"宮城県","prefecture_kana":"ミヤギケン","city":"栗原市","city_kana":"クリハラシ","town":"志波姫大門南","town_kana":"シワヒメダイモンミナミ","prefecture_code":4},"5626":{"zip_code":"9895626","prefecture":"宮城県","prefecture_kana":"ミヤギケン","city":"栗原市","city_kana":"クリハラシ","town":"志波姫中沖","town_kana":"シワヒメナカオキ","prefecture_code":4},"5615":{"zip_code":"9895615","prefecture":"宮城県","prefecture_kana":"ミヤギケン","city":"栗原市","city_kana":"クリハラシ","town":"志波姫沼崎","town_kana":"シワヒメヌマザキ","prefecture_code":4},"5609":{"zip_code":"9895609","prefecture":"宮城県","prefecture_kana":"ミヤギケン","city":"栗原市","city_kana":"クリハラシ","town":"志波姫花崎西","town_kana":"シワヒメハナサキニシ","prefecture_code":4},"5625":{"zip_code":"9895625","prefecture":"宮城県","prefecture_kana":"ミヤギケン","city":"栗原市","city_kana":"クリハラシ","town":"志波姫堀口","town_kana":"シワヒメホリグチ","prefecture_code":4},"5611":{"zip_code":"9895611","prefecture":"宮城県","prefecture_kana":"ミヤギケン","city":"栗原市","city_kana":"クリハラシ","town":"志波姫南郷","town_kana":"シワヒメミナミゴウ","prefecture_code":4},"5624":{"zip_code":"9895624","prefecture":"宮城県","prefecture_kana":"ミヤギケン","city":"栗原市","city_kana":"クリハラシ","town":"志波姫南堀口","town_kana":"シワヒメミナミホリグチ","prefecture_code":4},"5623":{"zip_code":"9895623","prefecture":"宮城県","prefecture_kana":"ミヤギケン","city":"栗原市","city_kana":"クリハラシ","town":"志波姫南八樟","town_kana":"シワヒメミナミヤツクヌギ","prefecture_code":4},"5622":{"zip_code":"9895622","prefecture":"宮城県","prefecture_kana":"ミヤギケン","city":"栗原市","city_kana":"クリハラシ","town":"志波姫八樟","town_kana":"シワヒメヤツクヌギ","prefecture_code":4},"5610":{"zip_code":"9895610","prefecture":"宮城県","prefecture_kana":"ミヤギケン","city":"栗原市","city_kana":"クリハラシ","town":"志波姫要害東","town_kana":"シワヒメヨウガイヒガシ","prefecture_code":4},"5619":{"zip_code":"9895619","prefecture":"宮城県","prefecture_kana":"ミヤギケン","city":"栗原市","city_kana":"クリハラシ","town":"志波姫横峰浦","town_kana":"シワヒメヨコミネウラ","prefecture_code":4},"4533":{"zip_code":"9894533","prefecture":"宮城県","prefecture_kana":"ミヤギケン","city":"栗原市","city_kana":"クリハラシ","town":"瀬峰愛宕","town_kana":"セミネアタゴ","prefecture_code":4},"4549":{"zip_code":"9894549","prefecture":"宮城県","prefecture_kana":"ミヤギケン","city":"栗原市","city_kana":"クリハラシ","town":"瀬峰荒町","town_kana":"セミネアラマチ","prefecture_code":4},"4534":{"zip_code":"9894534","prefecture":"宮城県","prefecture_kana":"ミヤギケン","city":"栗原市","city_kana":"クリハラシ","town":"瀬峰泉谷","town_kana":"セミネイズミヤ","prefecture_code":4},"4535":{"zip_code":"9894535","prefecture":"宮城県","prefecture_kana":"ミヤギケン","city":"栗原市","city_kana":"クリハラシ","town":"瀬峰泉谷南","town_kana":"セミネイズミヤミナミ","prefecture_code":4},"4545":{"zip_code":"9894545","prefecture":"宮城県","prefecture_kana":"ミヤギケン","city":"栗原市","city_kana":"クリハラシ","town":"瀬峰伊勢堂","town_kana":"セミネイセドウ","prefecture_code":4},"4541":{"zip_code":"9894541","prefecture":"宮城県","prefecture_kana":"ミヤギケン","city":"栗原市","city_kana":"クリハラシ","town":"瀬峰牛渕","town_kana":"セミネウシブチ","prefecture_code":4},"4540":{"zip_code":"9894540","prefecture":"宮城県","prefecture_kana":"ミヤギケン","city":"栗原市","city_kana":"クリハラシ","town":"瀬峰牛渕前","town_kana":"セミネウシブチマエ","prefecture_code":4},"4580":{"zip_code":"9894580","prefecture":"宮城県","prefecture_kana":"ミヤギケン","city":"栗原市","city_kana":"クリハラシ","town":"瀬峰大境前","town_kana":"セミネオオサカイマエ","prefecture_code":4},"4583":{"zip_code":"9894583","prefecture":"宮城県","prefecture_kana":"ミヤギケン","city":"栗原市","city_kana":"クリハラシ","town":"瀬峰大境山","town_kana":"セミネオオザカイヤマ","prefecture_code":4},"4568":{"zip_code":"9894568","prefecture":"宮城県","prefecture_kana":"ミヤギケン","city":"栗原市","city_kana":"クリハラシ","town":"瀬峰大屋敷","town_kana":"セミネオオヤシキ","prefecture_code":4},"4509":{"zip_code":"9894509","prefecture":"宮城県","prefecture_kana":"ミヤギケン","city":"栗原市","city_kana":"クリハラシ","town":"瀬峰大鰐谷","town_kana":"セミネオオワニヤ","prefecture_code":4},"4588":{"zip_code":"9894588","prefecture":"宮城県","prefecture_kana":"ミヤギケン","city":"栗原市","city_kana":"クリハラシ","town":"瀬峰蒲盛","town_kana":"セミネカバモリ","prefecture_code":4},"4557":{"zip_code":"9894557","prefecture":"宮城県","prefecture_kana":"ミヤギケン","city":"栗原市","city_kana":"クリハラシ","town":"瀬峰上沢田","town_kana":"セミネカミサワダ","prefecture_code":4},"4547":{"zip_code":"9894547","prefecture":"宮城県","prefecture_kana":"ミヤギケン","city":"栗原市","city_kana":"クリハラシ","town":"瀬峰神田","town_kana":"セミネカミタ","prefecture_code":4},"4563":{"zip_code":"9894563","prefecture":"宮城県","prefecture_kana":"ミヤギケン","city":"栗原市","city_kana":"クリハラシ","town":"瀬峰上富前","town_kana":"セミネカミトミマエ","prefecture_code":4},"4566":{"zip_code":"9894566","prefecture":"宮城県","prefecture_kana":"ミヤギケン","city":"栗原市","city_kana":"クリハラシ","town":"瀬峰上屋敷","town_kana":"セミネカミヤシキ","prefecture_code":4},"4505":{"zip_code":"9894505","prefecture":"宮城県","prefecture_kana":"ミヤギケン","city":"栗原市","city_kana":"クリハラシ","town":"瀬峰刈安沢","town_kana":"セミネカリヤスザワ","prefecture_code":4},"4562":{"zip_code":"9894562","prefecture":"宮城県","prefecture_kana":"ミヤギケン","city":"栗原市","city_kana":"クリハラシ","town":"瀬峰川ノ畑","town_kana":"セミネカワノハタ","prefecture_code":4},"4574":{"zip_code":"9894574","prefecture":"宮城県","prefecture_kana":"ミヤギケン","city":"栗原市","city_kana":"クリハラシ","town":"瀬峰北ノ沢","town_kana":"セミネキタノサワ","prefecture_code":4},"4523":{"zip_code":"9894523","prefecture":"宮城県","prefecture_kana":"ミヤギケン","city":"栗原市","city_kana":"クリハラシ","town":"瀬峰北谷地","town_kana":"セミネキタヤチ","prefecture_code":4},"4577":{"zip_code":"9894577","prefecture":"宮城県","prefecture_kana":"ミヤギケン","city":"栗原市","city_kana":"クリハラシ","town":"瀬峰薬沢西","town_kana":"セミネクスリザワニシ","prefecture_code":4},"4578":{"zip_code":"9894578","prefecture":"宮城県","prefecture_kana":"ミヤギケン","city":"栗原市","city_kana":"クリハラシ","town":"瀬峰薬沢東","town_kana":"セミネクスリザワヒガシ","prefecture_code":4},"4518":{"zip_code":"9894518","prefecture":"宮城県","prefecture_kana":"ミヤギケン","city":"栗原市","city_kana":"クリハラシ","town":"瀬峰荒神堂","town_kana":"セミネコウジンドウ","prefecture_code":4},"4576":{"zip_code":"9894576","prefecture":"宮城県","prefecture_kana":"ミヤギケン","city":"栗原市","city_kana":"クリハラシ","town":"瀬峰高土山","town_kana":"セミネコウドサン","prefecture_code":4},"4504":{"zip_code":"9894504","prefecture":"宮城県","prefecture_kana":"ミヤギケン","city":"栗原市","city_kana":"クリハラシ","town":"瀬峰小深沢","town_kana":"セミネコブカサワ","prefecture_code":4},"4582":{"zip_code":"9894582","prefecture":"宮城県","prefecture_kana":"ミヤギケン","city":"栗原市","city_kana":"クリハラシ","town":"瀬峰坂ノ下浦","town_kana":"セミネサカノシタウラ","prefecture_code":4},"4585":{"zip_code":"9894585","prefecture":"宮城県","prefecture_kana":"ミヤギケン","city":"栗原市","city_kana":"クリハラシ","town":"瀬峰坂ノ下前北","town_kana":"セミネサカノシタマエキタ","prefecture_code":4},"4551":{"zip_code":"9894551","prefecture":"宮城県","prefecture_kana":"ミヤギケン","city":"栗原市","city_kana":"クリハラシ","town":"瀬峰三代","town_kana":"セミネサンダイ","prefecture_code":4},"4508":{"zip_code":"9894508","prefecture":"宮城県","prefecture_kana":"ミヤギケン","city":"栗原市","city_kana":"クリハラシ","town":"瀬峰柴ノ脇","town_kana":"セミネシバノワキ","prefecture_code":4},"4506":{"zip_code":"9894506","prefecture":"宮城県","prefecture_kana":"ミヤギケン","city":"栗原市","city_kana":"クリハラシ","town":"瀬峰清水沢","town_kana":"セミネシミズサワ","prefecture_code":4},"4584":{"zip_code":"9894584","prefecture":"宮城県","prefecture_kana":"ミヤギケン","city":"栗原市","city_kana":"クリハラシ","town":"瀬峰清水山","town_kana":"セミネシミズヤマ","prefecture_code":4},"4521":{"zip_code":"9894521","prefecture":"宮城県","prefecture_kana":"ミヤギケン","city":"栗原市","city_kana":"クリハラシ","town":"瀬峰下田","town_kana":"セミネシモダ","prefecture_code":4},"4522":{"zip_code":"9894522","prefecture":"宮城県","prefecture_kana":"ミヤギケン","city":"栗原市","city_kana":"クリハラシ","town":"瀬峰下の前","town_kana":"セミネシモノマエ","prefecture_code":4},"4512":{"zip_code":"9894512","prefecture":"宮城県","prefecture_kana":"ミヤギケン","city":"栗原市","city_kana":"クリハラシ","town":"瀬峰下藤沢","town_kana":"セミネシモフジサワ","prefecture_code":4},"4525":{"zip_code":"9894525","prefecture":"宮城県","prefecture_kana":"ミヤギケン","city":"栗原市","city_kana":"クリハラシ","town":"瀬峰下谷地","town_kana":"セミネシモヤチ","prefecture_code":4},"4573":{"zip_code":"9894573","prefecture":"宮城県","prefecture_kana":"ミヤギケン","city":"栗原市","city_kana":"クリハラシ","town":"瀬峰十王堂前","town_kana":"セミネジュウオウドウマエ","prefecture_code":4},"4510":{"zip_code":"9894510","prefecture":"宮城県","prefecture_kana":"ミヤギケン","city":"栗原市","city_kana":"クリハラシ","town":"瀬峰新下藤沢","town_kana":"セミネシンシタフジサワ","prefecture_code":4},"4529":{"zip_code":"9894529","prefecture":"宮城県","prefecture_kana":"ミヤギケン","city":"栗原市","city_kana":"クリハラシ","town":"瀬峰新下田","town_kana":"セミネシンシモダ","prefecture_code":4},"4560":{"zip_code":"9894560","prefecture":"宮城県","prefecture_kana":"ミヤギケン","city":"栗原市","city_kana":"クリハラシ","town":"瀬峰新道東","town_kana":"セミネシンドウヒガシ","prefecture_code":4},"4538":{"zip_code":"9894538","prefecture":"宮城県","prefecture_kana":"ミヤギケン","city":"栗原市","city_kana":"クリハラシ","town":"瀬峰諏訪原","town_kana":"セミネスワハラ","prefecture_code":4},"4586":{"zip_code":"9894586","prefecture":"宮城県","prefecture_kana":"ミヤギケン","city":"栗原市","city_kana":"クリハラシ","town":"瀬峰蔵王","town_kana":"セミネゾウオウ","prefecture_code":4},"4536":{"zip_code":"9894536","prefecture":"宮城県","prefecture_kana":"ミヤギケン","city":"栗原市","city_kana":"クリハラシ","town":"瀬峰壇ノ越","town_kana":"セミネダンノコシ","prefecture_code":4},"4503":{"zip_code":"9894503","prefecture":"宮城県","prefecture_kana":"ミヤギケン","city":"栗原市","city_kana":"クリハラシ","town":"瀬峰力石","town_kana":"セミネチカライシ","prefecture_code":4},"4516":{"zip_code":"9894516","prefecture":"宮城県","prefecture_kana":"ミヤギケン","city":"栗原市","city_kana":"クリハラシ","town":"瀬峰長者原","town_kana":"セミネチョウジャハラ","prefecture_code":4},"4572":{"zip_code":"9894572","prefecture":"宮城県","prefecture_kana":"ミヤギケン","city":"栗原市","city_kana":"クリハラシ","town":"瀬峰寺浦","town_kana":"セミネテラウラ","prefecture_code":4},"4571":{"zip_code":"9894571","prefecture":"宮城県","prefecture_kana":"ミヤギケン","city":"栗原市","city_kana":"クリハラシ","town":"瀬峰寺沢","town_kana":"セミネテラサワ","prefecture_code":4},"4565":{"zip_code":"9894565","prefecture":"宮城県","prefecture_kana":"ミヤギケン","city":"栗原市","city_kana":"クリハラシ","town":"瀬峰天神下","town_kana":"セミネテンジンシタ","prefecture_code":4},"4531":{"zip_code":"9894531","prefecture":"宮城県","prefecture_kana":"ミヤギケン","city":"栗原市","city_kana":"クリハラシ","town":"瀬峰筒ケ崎","town_kana":"セミネドガサキ","prefecture_code":4},"4569":{"zip_code":"9894569","prefecture":"宮城県","prefecture_kana":"ミヤギケン","city":"栗原市","city_kana":"クリハラシ","town":"瀬峰筒場","town_kana":"セミネドバ","prefecture_code":4},"4589":{"zip_code":"9894589","prefecture":"宮城県","prefecture_kana":"ミヤギケン","city":"栗原市","city_kana":"クリハラシ","town":"瀬峰富要害","town_kana":"セミネトミヨウガイ","prefecture_code":4},"4548":{"zip_code":"9894548","prefecture":"宮城県","prefecture_kana":"ミヤギケン","city":"栗原市","city_kana":"クリハラシ","town":"瀬峰長根","town_kana":"セミネナガネ","prefecture_code":4},"4542":{"zip_code":"9894542","prefecture":"宮城県","prefecture_kana":"ミヤギケン","city":"栗原市","city_kana":"クリハラシ","town":"瀬峰新井堀","town_kana":"セミネニイボリ","prefecture_code":4},"4543":{"zip_code":"9894543","prefecture":"宮城県","prefecture_kana":"ミヤギケン","city":"栗原市","city_kana":"クリハラシ","town":"瀬峰新井屋敷","town_kana":"セミネニイヤシキ","prefecture_code":4},"4507":{"zip_code":"9894507","prefecture":"宮城県","prefecture_kana":"ミヤギケン","city":"栗原市","city_kana":"クリハラシ","town":"瀬峰西原","town_kana":"セミネニシハラ","prefecture_code":4},"4567":{"zip_code":"9894567","prefecture":"宮城県","prefecture_kana":"ミヤギケン","city":"栗原市","city_kana":"クリハラシ","town":"瀬峰西原前","town_kana":"セミネニシハラマエ","prefecture_code":4},"4511":{"zip_code":"9894511","prefecture":"宮城県","prefecture_kana":"ミヤギケン","city":"栗原市","city_kana":"クリハラシ","town":"瀬峰新田沢","town_kana":"セミネニッタザワ","prefecture_code":4},"4513":{"zip_code":"9894513","prefecture":"宮城県","prefecture_kana":"ミヤギケン","city":"栗原市","city_kana":"クリハラシ","town":"瀬峰根岸","town_kana":"セミネネギシ","prefecture_code":4},"4555":{"zip_code":"9894555","prefecture":"宮城県","prefecture_kana":"ミヤギケン","city":"栗原市","city_kana":"クリハラシ","town":"瀬峰野沢","town_kana":"セミネノザワ","prefecture_code":4},"4544":{"zip_code":"9894544","prefecture":"宮城県","prefecture_kana":"ミヤギケン","city":"栗原市","city_kana":"クリハラシ","town":"瀬峰除","town_kana":"セミネノゾキ","prefecture_code":4},"4579":{"zip_code":"9894579","prefecture":"宮城県","prefecture_kana":"ミヤギケン","city":"栗原市","city_kana":"クリハラシ","town":"瀬峰橋本浦","town_kana":"セミネハシモトウラ","prefecture_code":4},"4554":{"zip_code":"9894554","prefecture":"宮城県","prefecture_kana":"ミヤギケン","city":"栗原市","city_kana":"クリハラシ","town":"瀬峰原田","town_kana":"セミネハラタ","prefecture_code":4},"4532":{"zip_code":"9894532","prefecture":"宮城県","prefecture_kana":"ミヤギケン","city":"栗原市","city_kana":"クリハラシ","town":"瀬峰樋口山","town_kana":"セミネヒグチヤマ","prefecture_code":4},"4561":{"zip_code":"9894561","prefecture":"宮城県","prefecture_kana":"ミヤギケン","city":"栗原市","city_kana":"クリハラシ","town":"瀬峰樋渡","town_kana":"セミネヒワタシ","prefecture_code":4},"4556":{"zip_code":"9894556","prefecture":"宮城県","prefecture_kana":"ミヤギケン","city":"栗原市","city_kana":"クリハラシ","town":"瀬峰袋沢","town_kana":"セミネフクロサワ","prefecture_code":4},"4517":{"zip_code":"9894517","prefecture":"宮城県","prefecture_kana":"ミヤギケン","city":"栗原市","city_kana":"クリハラシ","town":"瀬峰藤沢瀬嶺","town_kana":"セミネフジサワセミネ","prefecture_code":4},"4581":{"zip_code":"9894581","prefecture":"宮城県","prefecture_kana":"ミヤギケン","city":"栗原市","city_kana":"クリハラシ","town":"瀬峰藤沢要害","town_kana":"セミネフジサワヨウガイ","prefecture_code":4},"4524":{"zip_code":"9894524","prefecture":"宮城県","prefecture_kana":"ミヤギケン","city":"栗原市","city_kana":"クリハラシ","town":"瀬峰藤田","town_kana":"セミネフジタ","prefecture_code":4},"4539":{"zip_code":"9894539","prefecture":"宮城県","prefecture_kana":"ミヤギケン","city":"栗原市","city_kana":"クリハラシ","town":"瀬峰二ツ谷","town_kana":"セミネフタツヤ","prefecture_code":4},"4553":{"zip_code":"9894553","prefecture":"宮城県","prefecture_kana":"ミヤギケン","city":"栗原市","city_kana":"クリハラシ","town":"瀬峰二又","town_kana":"セミネフタマタ","prefecture_code":4},"4537":{"zip_code":"9894537","prefecture":"宮城県","prefecture_kana":"ミヤギケン","city":"栗原市","city_kana":"クリハラシ","town":"瀬峰船橋","town_kana":"セミネフナバシ","prefecture_code":4},"4575":{"zip_code":"9894575","prefecture":"宮城県","prefecture_kana":"ミヤギケン","city":"栗原市","city_kana":"クリハラシ","town":"瀬峰町田","town_kana":"セミネマチダ","prefecture_code":4},"4570":{"zip_code":"9894570","prefecture":"宮城県","prefecture_kana":"ミヤギケン","city":"栗原市","city_kana":"クリハラシ","town":"瀬峰町田前","town_kana":"セミネマチダマエ","prefecture_code":4},"4526":{"zip_code":"9894526","prefecture":"宮城県","prefecture_kana":"ミヤギケン","city":"栗原市","city_kana":"クリハラシ","town":"瀬峰宮小路原西","town_kana":"セミネミヤコウジハラニシ","prefecture_code":4},"4527":{"zip_code":"9894527","prefecture":"宮城県","prefecture_kana":"ミヤギケン","city":"栗原市","city_kana":"クリハラシ","town":"瀬峰宮小路原東","town_kana":"セミネミヤコウジハラヒガシ","prefecture_code":4},"4552":{"zip_code":"9894552","prefecture":"宮城県","prefecture_kana":"ミヤギケン","city":"栗原市","city_kana":"クリハラシ","town":"瀬峰宮田","town_kana":"セミネミヤタ","prefecture_code":4},"4515":{"zip_code":"9894515","prefecture":"宮城県","prefecture_kana":"ミヤギケン","city":"栗原市","city_kana":"クリハラシ","town":"瀬峰桃生田","town_kana":"セミネモノウタ","prefecture_code":4},"4514":{"zip_code":"9894514","prefecture":"宮城県","prefecture_kana":"ミヤギケン","city":"栗原市","city_kana":"クリハラシ","town":"瀬峰桃生田前","town_kana":"セミネモノウタマエ","prefecture_code":4},"4587":{"zip_code":"9894587","prefecture":"宮城県","prefecture_kana":"ミヤギケン","city":"栗原市","city_kana":"クリハラシ","town":"瀬峰薬師堂前","town_kana":"セミネヤクシドウマエ","prefecture_code":4},"4564":{"zip_code":"9894564","prefecture":"宮城県","prefecture_kana":"ミヤギケン","city":"栗原市","city_kana":"クリハラシ","town":"瀬峰谷地田","town_kana":"セミネヤチタ","prefecture_code":4},"4528":{"zip_code":"9894528","prefecture":"宮城県","prefecture_kana":"ミヤギケン","city":"栗原市","city_kana":"クリハラシ","town":"瀬峰山崎前","town_kana":"セミネヤマザキマエ","prefecture_code":4},"4519":{"zip_code":"9894519","prefecture":"宮城県","prefecture_kana":"ミヤギケン","city":"栗原市","city_kana":"クリハラシ","town":"瀬峰横森前","town_kana":"セミネヨコモリマエ","prefecture_code":4},"4546":{"zip_code":"9894546","prefecture":"宮城県","prefecture_kana":"ミヤギケン","city":"栗原市","city_kana":"クリハラシ","town":"瀬峰四ツ壇","town_kana":"セミネヨツダン","prefecture_code":4},"6701":{"zip_code":"9896701","prefecture":"宮城県","prefecture_kana":"ミヤギケン","city":"栗原市","city_kana":"クリハラシ","town":"花山草木沢上原","town_kana":"ハナヤマクサキサワウワハラ","prefecture_code":4},"5507":{"zip_code":"9895507","prefecture":"宮城県","prefecture_kana":"ミヤギケン","city":"栗原市","city_kana":"クリハラシ","town":"若柳有賀","town_kana":"ワカヤナギアリガ","prefecture_code":4},"5506":{"zip_code":"9895506","prefecture":"宮城県","prefecture_kana":"ミヤギケン","city":"栗原市","city_kana":"クリハラシ","town":"若柳大林","town_kana":"ワカヤナギオオハヤシ","prefecture_code":4},"5504":{"zip_code":"9895504","prefecture":"宮城県","prefecture_kana":"ミヤギケン","city":"栗原市","city_kana":"クリハラシ","town":"若柳上畑岡","town_kana":"ワカヤナギカミハタオカ","prefecture_code":4},"5501":{"zip_code":"9895501","prefecture":"宮城県","prefecture_kana":"ミヤギケン","city":"栗原市","city_kana":"クリハラシ","town":"若柳川北","town_kana":"ワカヤナギカワキタ","prefecture_code":4},"5502":{"zip_code":"9895502","prefecture":"宮城県","prefecture_kana":"ミヤギケン","city":"栗原市","city_kana":"クリハラシ","town":"若柳川南","town_kana":"ワカヤナギカワミナミ","prefecture_code":4},"5503":{"zip_code":"9895503","prefecture":"宮城県","prefecture_kana":"ミヤギケン","city":"栗原市","city_kana":"クリハラシ","town":"若柳下畑岡","town_kana":"ワカヤナギシモハタオカ","prefecture_code":4},"5505":{"zip_code":"9895505","prefecture":"宮城県","prefecture_kana":"ミヤギケン","city":"栗原市","city_kana":"クリハラシ","town":"若柳福岡","town_kana":"ワカヤナギフクオカ","prefecture_code":4},"5508":{"zip_code":"9895508","prefecture":"宮城県","prefecture_kana":"ミヤギケン","city":"栗原市","city_kana":"クリハラシ","town":"若柳武鎗","town_kana":"ワカヤナギムヤリ","prefecture_code":4},"6100":{"zip_code":"9896100","prefecture":"宮城県","prefecture_kana":"ミヤギケン","city":"大崎市","city_kana":"オオサキシ","town":"","town_kana":"","prefecture_code":4},"6463":{"zip_code":"9896463","prefecture":"宮城県","prefecture_kana":"ミヤギケン","city":"大崎市","city_kana":"オオサキシ","town":"岩出山木通沢","town_kana":"イワデヤマアケビザワ","prefecture_code":4},"6405":{"zip_code":"9896405","prefecture":"宮城県","prefecture_kana":"ミヤギケン","city":"大崎市","city_kana":"オオサキシ","town":"岩出山池月","town_kana":"イワデヤマイケツキ","prefecture_code":4},"6435":{"zip_code":"9896435","prefecture":"宮城県","prefecture_kana":"ミヤギケン","city":"大崎市","city_kana":"オオサキシ","town":"岩出山浦小路","town_kana":"イワデヤマウラコウジ","prefecture_code":4},"6447":{"zip_code":"9896447","prefecture":"宮城県","prefecture_kana":"ミヤギケン","city":"大崎市","city_kana":"オオサキシ","town":"岩出山上金沢","town_kana":"イワデヤマカミカネザワ","prefecture_code":4},"6432":{"zip_code":"9896432","prefecture":"宮城県","prefecture_kana":"ミヤギケン","city":"大崎市","city_kana":"オオサキシ","town":"岩出山上川原北","town_kana":"イワデヤマカミカワラキタ","prefecture_code":4},"6433":{"zip_code":"9896433","prefecture":"宮城県","prefecture_kana":"ミヤギケン","city":"大崎市","city_kana":"オオサキシ","town":"岩出山上川原町","town_kana":"イワデヤマカミカワラマチ","prefecture_code":4},"6431":{"zip_code":"9896431","prefecture":"宮城県","prefecture_kana":"ミヤギケン","city":"大崎市","city_kana":"オオサキシ","town":"岩出山上川原南","town_kana":"イワデヤマカミカワラミナミ","prefecture_code":4},"6465":{"zip_code":"9896465","prefecture":"宮城県","prefecture_kana":"ミヤギケン","city":"大崎市","city_kana":"オオサキシ","town":"岩出山上東昌寺沢","town_kana":"イワデヤマカミトウショウジザワ","prefecture_code":4},"6421":{"zip_code":"9896421","prefecture":"宮城県","prefecture_kana":"ミヤギケン","city":"大崎市","city_kana":"オオサキシ","town":"岩出山上中江","town_kana":"イワデヤマカミナカエ","prefecture_code":4},"6403":{"zip_code":"9896403","prefecture":"宮城県","prefecture_kana":"ミヤギケン","city":"大崎市","city_kana":"オオサキシ","town":"岩出山上野目","town_kana":"イワデヤマカミノメ","prefecture_code":4},"6404":{"zip_code":"9896404","prefecture":"宮城県","prefecture_kana":"ミヤギケン","city":"大崎市","city_kana":"オオサキシ","town":"岩出山下一栗","town_kana":"イワデヤマシモイチクリ","prefecture_code":4},"6442":{"zip_code":"9896442","prefecture":"宮城県","prefecture_kana":"ミヤギケン","city":"大崎市","city_kana":"オオサキシ","town":"岩出山下金沢","town_kana":"イワデヤマシモカネザワ","prefecture_code":4},"6414":{"zip_code":"9896414","prefecture":"宮城県","prefecture_kana":"ミヤギケン","city":"大崎市","city_kana":"オオサキシ","town":"岩出山下川原","town_kana":"イワデヤマシモカワラ","prefecture_code":4},"6434":{"zip_code":"9896434","prefecture":"宮城県","prefecture_kana":"ミヤギケン","city":"大崎市","city_kana":"オオサキシ","town":"岩出山下川原町","town_kana":"イワデヤマシモカワラマチ","prefecture_code":4},"6464":{"zip_code":"9896464","prefecture":"宮城県","prefecture_kana":"ミヤギケン","city":"大崎市","city_kana":"オオサキシ","town":"岩出山下東昌寺沢","town_kana":"イワデヤマシモトウショウジサワ","prefecture_code":4},"6412":{"zip_code":"9896412","prefecture":"宮城県","prefecture_kana":"ミヤギケン","city":"大崎市","city_kana":"オオサキシ","town":"岩出山下野目","town_kana":"イワデヤマシモノメ","prefecture_code":4},"6422":{"zip_code":"9896422","prefecture":"宮城県","prefecture_kana":"ミヤギケン","city":"大崎市","city_kana":"オオサキシ","town":"岩出山重蔵","town_kana":"イワデヤマジュウゾウ","prefecture_code":4},"6437":{"zip_code":"9896437","prefecture":"宮城県","prefecture_kana":"ミヤギケン","city":"大崎市","city_kana":"オオサキシ","town":"岩出山城山","town_kana":"イワデヤマシロヤマ","prefecture_code":4},"6446":{"zip_code":"9896446","prefecture":"宮城県","prefecture_kana":"ミヤギケン","city":"大崎市","city_kana":"オオサキシ","town":"岩出山大学町","town_kana":"イワデヤマダイガクマチ","prefecture_code":4},"6441":{"zip_code":"9896441","prefecture":"宮城県","prefecture_kana":"ミヤギケン","city":"大崎市","city_kana":"オオサキシ","town":"岩出山通丁","town_kana":"イワデヤマトオリチョウ","prefecture_code":4},"6443":{"zip_code":"9896443","prefecture":"宮城県","prefecture_kana":"ミヤギケン","city":"大崎市","city_kana":"オオサキシ","town":"岩出山轟","town_kana":"イワデヤマトドロキ","prefecture_code":4},"6425":{"zip_code":"9896425","prefecture":"宮城県","prefecture_kana":"ミヤギケン","city":"大崎市","city_kana":"オオサキシ","town":"岩出山西御名掛","town_kana":"イワデヤマニシオナカケ","prefecture_code":4},"6436":{"zip_code":"9896436","prefecture":"宮城県","prefecture_kana":"ミヤギケン","city":"大崎市","city_kana":"オオサキシ","town":"岩出山二ノ構","town_kana":"イワデヤマニノカマエ","prefecture_code":4},"6426":{"zip_code":"9896426","prefecture":"宮城県","prefecture_kana":"ミヤギケン","city":"大崎市","city_kana":"オオサキシ","town":"岩出山東御名掛","town_kana":"イワデヤマヒガシオナカケ","prefecture_code":4},"6415":{"zip_code":"9896415","prefecture":"宮城県","prefecture_kana":"ミヤギケン","city":"大崎市","city_kana":"オオサキシ","town":"岩出山東川原","town_kana":"イワデヤマヒガシカワラ","prefecture_code":4},"6413":{"zip_code":"9896413","prefecture":"宮城県","prefecture_kana":"ミヤギケン","city":"大崎市","city_kana":"オオサキシ","town":"岩出山東川原町","town_kana":"イワデヤマヒガシカワラマチ","prefecture_code":4},"6462":{"zip_code":"9896462","prefecture":"宮城県","prefecture_kana":"ミヤギケン","city":"大崎市","city_kana":"オオサキシ","town":"岩出山蛭沢","town_kana":"イワデヤマヒルサワ","prefecture_code":4},"6411":{"zip_code":"9896411","prefecture":"宮城県","prefecture_kana":"ミヤギケン","city":"大崎市","city_kana":"オオサキシ","town":"岩出山船場","town_kana":"イワデヤマフナバ","prefecture_code":4},"6444":{"zip_code":"9896444","prefecture":"宮城県","prefecture_kana":"ミヤギケン","city":"大崎市","city_kana":"オオサキシ","town":"岩出山細峰","town_kana":"イワデヤマホソミネ","prefecture_code":4},"6466":{"zip_code":"9896466","prefecture":"宮城県","prefecture_kana":"ミヤギケン","city":"大崎市","city_kana":"オオサキシ","town":"岩出山保土沢","town_kana":"イワデヤマホドサワ","prefecture_code":4},"6423":{"zip_code":"9896423","prefecture":"宮城県","prefecture_kana":"ミヤギケン","city":"大崎市","city_kana":"オオサキシ","town":"岩出山前毘沙門","town_kana":"イワデヤママエビシャモン","prefecture_code":4},"6461":{"zip_code":"9896461","prefecture":"宮城県","prefecture_kana":"ミヤギケン","city":"大崎市","city_kana":"オオサキシ","town":"岩出山松沢","town_kana":"イワデヤママツサワ","prefecture_code":4},"6424":{"zip_code":"9896424","prefecture":"宮城県","prefecture_kana":"ミヤギケン","city":"大崎市","city_kana":"オオサキシ","town":"岩出山丸山","town_kana":"イワデヤママルヤマ","prefecture_code":4},"6445":{"zip_code":"9896445","prefecture":"宮城県","prefecture_kana":"ミヤギケン","city":"大崎市","city_kana":"オオサキシ","town":"岩出山南沢","town_kana":"イワデヤマミナミザワ","prefecture_code":4},"6402":[{"zip_code":"9896402","prefecture":"宮城県","prefecture_kana":"ミヤギケン","city":"大崎市","city_kana":"オオサキシ","town":"岩出山磯田","town_kana":"イワデヤマイソダ","prefecture_code":4},{"zip_code":"9896402","prefecture":"宮城県","prefecture_kana":"ミヤギケン","city":"大崎市","city_kana":"オオサキシ","town":"岩出山下真山","town_kana":"イワデヤマシモマヤマ","prefecture_code":4}],"6401":[{"zip_code":"9896401","prefecture":"宮城県","prefecture_kana":"ミヤギケン","city":"大崎市","city_kana":"オオサキシ","town":"岩出山上真山","town_kana":"イワデヤマカミマヤマ","prefecture_code":4},{"zip_code":"9896401","prefecture":"宮城県","prefecture_kana":"ミヤギケン","city":"大崎市","city_kana":"オオサキシ","town":"岩出山葛岡","town_kana":"イワデヤマクズオカ","prefecture_code":4}],"6471":{"zip_code":"9896471","prefecture":"宮城県","prefecture_kana":"ミヤギケン","city":"大崎市","city_kana":"オオサキシ","town":"岩出山","town_kana":"イワデヤマ","prefecture_code":4},"4106":{"zip_code":"9894106","prefecture":"宮城県","prefecture_kana":"ミヤギケン","city":"大崎市","city_kana":"オオサキシ","town":"鹿島台大迫","town_kana":"カシマダイオオバサマ","prefecture_code":4},"4102":{"zip_code":"9894102","prefecture":"宮城県","prefecture_kana":"ミヤギケン","city":"大崎市","city_kana":"オオサキシ","town":"鹿島台木間塚","town_kana":"カシマダイキマヅカ","prefecture_code":4},"4103":{"zip_code":"9894103","prefecture":"宮城県","prefecture_kana":"ミヤギケン","city":"大崎市","city_kana":"オオサキシ","town":"鹿島台平渡","town_kana":"カシマダイヒラワタ","prefecture_code":4},"4104":{"zip_code":"9894104","prefecture":"宮城県","prefecture_kana":"ミヤギケン","city":"大崎市","city_kana":"オオサキシ","town":"鹿島台広長","town_kana":"カシマダイヒロナガ","prefecture_code":4},"4105":{"zip_code":"9894105","prefecture":"宮城県","prefecture_kana":"ミヤギケン","city":"大崎市","city_kana":"オオサキシ","town":"鹿島台深谷","town_kana":"カシマダイフカヤ","prefecture_code":4},"4101":{"zip_code":"9894101","prefecture":"宮城県","prefecture_kana":"ミヤギケン","city":"大崎市","city_kana":"オオサキシ","town":"鹿島台船越","town_kana":"カシマダイフナコシ","prefecture_code":4},"6321":{"zip_code":"9896321","prefecture":"宮城県","prefecture_kana":"ミヤギケン","city":"大崎市","city_kana":"オオサキシ","town":"三本木","town_kana":"サンボンギ","prefecture_code":4},"6304":{"zip_code":"9896304","prefecture":"宮城県","prefecture_kana":"ミヤギケン","city":"大崎市","city_kana":"オオサキシ","town":"三本木秋田","town_kana":"サンボンギアキタ","prefecture_code":4},"6312":{"zip_code":"9896312","prefecture":"宮城県","prefecture_kana":"ミヤギケン","city":"大崎市","city_kana":"オオサキシ","town":"三本木蟻ケ袋","town_kana":"サンボンギアリガフクロ","prefecture_code":4},"6305":{"zip_code":"9896305","prefecture":"宮城県","prefecture_kana":"ミヤギケン","city":"大崎市","city_kana":"オオサキシ","town":"三本木伊賀","town_kana":"サンボンギイガ","prefecture_code":4},"6303":{"zip_code":"9896303","prefecture":"宮城県","prefecture_kana":"ミヤギケン","city":"大崎市","city_kana":"オオサキシ","town":"三本木伊場野","town_kana":"サンボンギイバノ","prefecture_code":4},"6313":{"zip_code":"9896313","prefecture":"宮城県","prefecture_kana":"ミヤギケン","city":"大崎市","city_kana":"オオサキシ","town":"三本木音無","town_kana":"サンボンギオトナシ","prefecture_code":4},"6302":{"zip_code":"9896302","prefecture":"宮城県","prefecture_kana":"ミヤギケン","city":"大崎市","city_kana":"オオサキシ","town":"三本木上伊場野","town_kana":"サンボンギカミイバノ","prefecture_code":4},"6301":{"zip_code":"9896301","prefecture":"宮城県","prefecture_kana":"ミヤギケン","city":"大崎市","city_kana":"オオサキシ","town":"三本木桑折","town_kana":"サンボンギコオリ","prefecture_code":4},"6314":{"zip_code":"9896314","prefecture":"宮城県","prefecture_kana":"ミヤギケン","city":"大崎市","city_kana":"オオサキシ","town":"三本木斉田","town_kana":"サンボンギサイダ","prefecture_code":4},"6311":{"zip_code":"9896311","prefecture":"宮城県","prefecture_kana":"ミヤギケン","city":"大崎市","city_kana":"オオサキシ","town":"三本木坂本","town_kana":"サンボンギサカモト","prefecture_code":4},"6306":{"zip_code":"9896306","prefecture":"宮城県","prefecture_kana":"ミヤギケン","city":"大崎市","city_kana":"オオサキシ","town":"三本木新町","town_kana":"サンボンギシンマチ","prefecture_code":4},"6316":{"zip_code":"9896316","prefecture":"宮城県","prefecture_kana":"ミヤギケン","city":"大崎市","city_kana":"オオサキシ","town":"三本木高柳","town_kana":"サンボンギタカヤナギ","prefecture_code":4},"6315":{"zip_code":"9896315","prefecture":"宮城県","prefecture_kana":"ミヤギケン","city":"大崎市","city_kana":"オオサキシ","town":"三本木新沼","town_kana":"サンボンギニイヌマ","prefecture_code":4},"6317":{"zip_code":"9896317","prefecture":"宮城県","prefecture_kana":"ミヤギケン","city":"大崎市","city_kana":"オオサキシ","town":"三本木蒜袋","town_kana":"サンボンギヒルブクロ","prefecture_code":4},"6322":{"zip_code":"9896322","prefecture":"宮城県","prefecture_kana":"ミヤギケン","city":"大崎市","city_kana":"オオサキシ","town":"三本木南谷地","town_kana":"サンボンギミナミヤチ","prefecture_code":4},"4415":{"zip_code":"9894415","prefecture":"宮城県","prefecture_kana":"ミヤギケン","city":"大崎市","city_kana":"オオサキシ","town":"田尻","town_kana":"タジリ","prefecture_code":4},"4303":{"zip_code":"9894303","prefecture":"宮城県","prefecture_kana":"ミヤギケン","city":"大崎市","city_kana":"オオサキシ","town":"田尻大沢","town_kana":"タジリオオサワ","prefecture_code":4},"4302":{"zip_code":"9894302","prefecture":"宮城県","prefecture_kana":"ミヤギケン","city":"大崎市","city_kana":"オオサキシ","town":"田尻大貫","town_kana":"タジリオオヌキ","prefecture_code":4},"4412":{"zip_code":"9894412","prefecture":"宮城県","prefecture_kana":"ミヤギケン","city":"大崎市","city_kana":"オオサキシ","town":"田尻大嶺","town_kana":"タジリオオミネ","prefecture_code":4},"4305":{"zip_code":"9894305","prefecture":"宮城県","prefecture_kana":"ミヤギケン","city":"大崎市","city_kana":"オオサキシ","town":"田尻小塩","town_kana":"タジリオシオ","prefecture_code":4},"4301":{"zip_code":"9894301","prefecture":"宮城県","prefecture_kana":"ミヤギケン","city":"大崎市","city_kana":"オオサキシ","town":"田尻蕪栗","town_kana":"タジリカブクリ","prefecture_code":4},"4304":{"zip_code":"9894304","prefecture":"宮城県","prefecture_kana":"ミヤギケン","city":"大崎市","city_kana":"オオサキシ","town":"田尻北小牛田","town_kana":"タジリキタコゴタ","prefecture_code":4},"4307":{"zip_code":"9894307","prefecture":"宮城県","prefecture_kana":"ミヤギケン","city":"大崎市","city_kana":"オオサキシ","town":"田尻北高城","town_kana":"タジリキタタカギ","prefecture_code":4},"4414":{"zip_code":"9894414","prefecture":"宮城県","prefecture_kana":"ミヤギケン","city":"大崎市","city_kana":"オオサキシ","town":"田尻北牧目","town_kana":"タジリキタマギノメ","prefecture_code":4},"4419":{"zip_code":"9894419","prefecture":"宮城県","prefecture_kana":"ミヤギケン","city":"大崎市","city_kana":"オオサキシ","town":"田尻小松","town_kana":"タジリコマツ","prefecture_code":4},"4306":{"zip_code":"9894306","prefecture":"宮城県","prefecture_kana":"ミヤギケン","city":"大崎市","city_kana":"オオサキシ","town":"田尻桜田高野","town_kana":"タジリサクラダコウヤ","prefecture_code":4},"4418":{"zip_code":"9894418","prefecture":"宮城県","prefecture_kana":"ミヤギケン","city":"大崎市","city_kana":"オオサキシ","town":"田尻諏訪峠","town_kana":"タジリスワトウゲ","prefecture_code":4},"4413":{"zip_code":"9894413","prefecture":"宮城県","prefecture_kana":"ミヤギケン","city":"大崎市","city_kana":"オオサキシ","town":"田尻通木","town_kana":"タジリトオリキ","prefecture_code":4},"4416":{"zip_code":"9894416","prefecture":"宮城県","prefecture_kana":"ミヤギケン","city":"大崎市","city_kana":"オオサキシ","town":"田尻中目","town_kana":"タジリナカノメ","prefecture_code":4},"4417":{"zip_code":"9894417","prefecture":"宮城県","prefecture_kana":"ミヤギケン","city":"大崎市","city_kana":"オオサキシ","town":"田尻沼木","town_kana":"タジリヌマギ","prefecture_code":4},"4308":{"zip_code":"9894308","prefecture":"宮城県","prefecture_kana":"ミヤギケン","city":"大崎市","city_kana":"オオサキシ","town":"田尻沼部","town_kana":"タジリヌマベ","prefecture_code":4},"4411":{"zip_code":"9894411","prefecture":"宮城県","prefecture_kana":"ミヤギケン","city":"大崎市","city_kana":"オオサキシ","town":"田尻八幡","town_kana":"タジリヤワタ","prefecture_code":4},"6711":[{"zip_code":"9896711","prefecture":"宮城県","prefecture_kana":"ミヤギケン","city":"大崎市","city_kana":"オオサキシ","town":"鳴子温泉赤這","town_kana":"ナルコオンセンアカバイ","prefecture_code":4},{"zip_code":"9896711","prefecture":"宮城県","prefecture_kana":"ミヤギケン","city":"大崎市","city_kana":"オオサキシ","town":"鳴子温泉石ノ梅","town_kana":"ナルコオンセンイシノウメ","prefecture_code":4},{"zip_code":"9896711","prefecture":"宮城県","prefecture_kana":"ミヤギケン","city":"大崎市","city_kana":"オオサキシ","town":"鳴子温泉入沢","town_kana":"ナルコオンセンイリサワ","prefecture_code":4},{"zip_code":"9896711","prefecture":"宮城県","prefecture_kana":"ミヤギケン","city":"大崎市","city_kana":"オオサキシ","town":"鳴子温泉上ノ原","town_kana":"ナルコオンセンウエノハラ","prefecture_code":4},{"zip_code":"9896711","prefecture":"宮城県","prefecture_kana":"ミヤギケン","city":"大崎市","city_kana":"オオサキシ","town":"鳴子温泉上川原","town_kana":"ナルコオンセンカミガワラ","prefecture_code":4},{"zip_code":"9896711","prefecture":"宮城県","prefecture_kana":"ミヤギケン","city":"大崎市","city_kana":"オオサキシ","town":"鳴子温泉通原","town_kana":"ナルコオンセンカヨバラ","prefecture_code":4},{"zip_code":"9896711","prefecture":"宮城県","prefecture_kana":"ミヤギケン","city":"大崎市","city_kana":"オオサキシ","town":"鳴子温泉川渡","town_kana":"ナルコオンセンカワタビ","prefecture_code":4},{"zip_code":"9896711","prefecture":"宮城県","prefecture_kana":"ミヤギケン","city":"大崎市","city_kana":"オオサキシ","town":"鳴子温泉築沢","town_kana":"ナルコオンセンキザワ","prefecture_code":4},{"zip_code":"9896711","prefecture":"宮城県","prefecture_kana":"ミヤギケン","city":"大崎市","city_kana":"オオサキシ","town":"鳴子温泉久田","town_kana":"ナルコオンセンキュウデン","prefecture_code":4},{"zip_code":"9896711","prefecture":"宮城県","prefecture_kana":"ミヤギケン","city":"大崎市","city_kana":"オオサキシ","town":"鳴子温泉沢","town_kana":"ナルコオンセンサワ","prefecture_code":4},{"zip_code":"9896711","prefecture":"宮城県","prefecture_kana":"ミヤギケン","city":"大崎市","city_kana":"オオサキシ","town":"鳴子温泉新田","town_kana":"ナルコオンセンシンデン","prefecture_code":4},{"zip_code":"9896711","prefecture":"宮城県","prefecture_kana":"ミヤギケン","city":"大崎市","city_kana":"オオサキシ","town":"鳴子温泉新町下","town_kana":"ナルコオンセンシンマチシタ","prefecture_code":4},{"zip_code":"9896711","prefecture":"宮城県","prefecture_kana":"ミヤギケン","city":"大崎市","city_kana":"オオサキシ","town":"鳴子温泉玉ノ木","town_kana":"ナルコオンセンタマノキ","prefecture_code":4},{"zip_code":"9896711","prefecture":"宮城県","prefecture_kana":"ミヤギケン","city":"大崎市","city_kana":"オオサキシ","town":"鳴子温泉中野","town_kana":"ナルコオンセンナカノ","prefecture_code":4},{"zip_code":"9896711","prefecture":"宮城県","prefecture_kana":"ミヤギケン","city":"大崎市","city_kana":"オオサキシ","town":"鳴子温泉沼井","town_kana":"ナルコオンセンヌマイ","prefecture_code":4},{"zip_code":"9896711","prefecture":"宮城県","prefecture_kana":"ミヤギケン","city":"大崎市","city_kana":"オオサキシ","town":"鳴子温泉馬場","town_kana":"ナルコオンセンババ","prefecture_code":4},{"zip_code":"9896711","prefecture":"宮城県","prefecture_kana":"ミヤギケン","city":"大崎市","city_kana":"オオサキシ","town":"鳴子温泉原","town_kana":"ナルコオンセンハラ","prefecture_code":4},{"zip_code":"9896711","prefecture":"宮城県","prefecture_kana":"ミヤギケン","city":"大崎市","city_kana":"オオサキシ","town":"鳴子温泉町","town_kana":"ナルコオンセンマチ","prefecture_code":4},{"zip_code":"9896711","prefecture":"宮城県","prefecture_kana":"ミヤギケン","city":"大崎市","city_kana":"オオサキシ","town":"鳴子温泉町下","town_kana":"ナルコオンセンマチシタ","prefecture_code":4},{"zip_code":"9896711","prefecture":"宮城県","prefecture_kana":"ミヤギケン","city":"大崎市","city_kana":"オオサキシ","town":"鳴子温泉町西","town_kana":"ナルコオンセンマチニシ","prefecture_code":4},{"zip_code":"9896711","prefecture":"宮城県","prefecture_kana":"ミヤギケン","city":"大崎市","city_kana":"オオサキシ","town":"鳴子温泉要害","town_kana":"ナルコオンセンヨウガイ","prefecture_code":4},{"zip_code":"9896711","prefecture":"宮城県","prefecture_kana":"ミヤギケン","city":"大崎市","city_kana":"オオサキシ","town":"鳴子温泉横山","town_kana":"ナルコオンセンヨコヤマ","prefecture_code":4},{"zip_code":"9896711","prefecture":"宮城県","prefecture_kana":"ミヤギケン","city":"大崎市","city_kana":"オオサキシ","town":"鳴子温泉蓬田","town_kana":"ナルコオンセンヨモギダ","prefecture_code":4}],"6811":[{"zip_code":"9896811","prefecture":"宮城県","prefecture_kana":"ミヤギケン","city":"大崎市","city_kana":"オオサキシ","town":"鳴子温泉赤湯","town_kana":"ナルコオンセンアカユ","prefecture_code":4},{"zip_code":"9896811","prefecture":"宮城県","prefecture_kana":"ミヤギケン","city":"大崎市","city_kana":"オオサキシ","town":"鳴子温泉鷲ノ巣","town_kana":"ナルコオンセンワシノス","prefecture_code":4}],"6806":{"zip_code":"9896806","prefecture":"宮城県","prefecture_kana":"ミヤギケン","city":"大崎市","city_kana":"オオサキシ","town":"鳴子温泉岩渕","town_kana":"ナルコオンセンイワブチ","prefecture_code":4},"6805":{"zip_code":"9896805","prefecture":"宮城県","prefecture_kana":"ミヤギケン","city":"大崎市","city_kana":"オオサキシ","town":"鳴子温泉岩渕前","town_kana":"ナルコオンセンイワブチマエ","prefecture_code":4},"6838":{"zip_code":"9896838","prefecture":"宮城県","prefecture_kana":"ミヤギケン","city":"大崎市","city_kana":"オオサキシ","town":"鳴子温泉奥羽岳","town_kana":"ナルコオンセンオオウダケ","prefecture_code":4},"6803":{"zip_code":"9896803","prefecture":"宮城県","prefecture_kana":"ミヤギケン","city":"大崎市","city_kana":"オオサキシ","town":"鳴子温泉大畑","town_kana":"ナルコオンセンオオバタケ","prefecture_code":4},"6941":{"zip_code":"9896941","prefecture":"宮城県","prefecture_kana":"ミヤギケン","city":"大崎市","city_kana":"オオサキシ","town":"鳴子温泉鬼首","town_kana":"ナルコオンセンオニコウベ","prefecture_code":4},"6712":[{"zip_code":"9896712","prefecture":"宮城県","prefecture_kana":"ミヤギケン","city":"大崎市","city_kana":"オオサキシ","town":"鳴子温泉小身川原","town_kana":"ナルコオンセンオミガワラ","prefecture_code":4},{"zip_code":"9896712","prefecture":"宮城県","prefecture_kana":"ミヤギケン","city":"大崎市","city_kana":"オオサキシ","town":"鳴子温泉川袋","town_kana":"ナルコオンセンカワブクロ","prefecture_code":4},{"zip_code":"9896712","prefecture":"宮城県","prefecture_kana":"ミヤギケン","city":"大崎市","city_kana":"オオサキシ","town":"鳴子温泉木戸脇","town_kana":"ナルコオンセンキドワキ","prefecture_code":4},{"zip_code":"9896712","prefecture":"宮城県","prefecture_kana":"ミヤギケン","city":"大崎市","city_kana":"オオサキシ","town":"鳴子温泉黒崎","town_kana":"ナルコオンセンクロサキ","prefecture_code":4},{"zip_code":"9896712","prefecture":"宮城県","prefecture_kana":"ミヤギケン","city":"大崎市","city_kana":"オオサキシ","town":"鳴子温泉小室","town_kana":"ナルコオンセンコムロ","prefecture_code":4},{"zip_code":"9896712","prefecture":"宮城県","prefecture_kana":"ミヤギケン","city":"大崎市","city_kana":"オオサキシ","town":"鳴子温泉小室山","town_kana":"ナルコオンセンコムロヤマ","prefecture_code":4},{"zip_code":"9896712","prefecture":"宮城県","prefecture_kana":"ミヤギケン","city":"大崎市","city_kana":"オオサキシ","town":"鳴子温泉境松","town_kana":"ナルコオンセンサカイマツ","prefecture_code":4},{"zip_code":"9896712","prefecture":"宮城県","prefecture_kana":"ミヤギケン","city":"大崎市","city_kana":"オオサキシ","town":"鳴子温泉坂ノ上","town_kana":"ナルコオンセンサカノウエ","prefecture_code":4},{"zip_code":"9896712","prefecture":"宮城県","prefecture_kana":"ミヤギケン","city":"大崎市","city_kana":"オオサキシ","town":"鳴子温泉沢目木","town_kana":"ナルコオンセンサワメキ","prefecture_code":4},{"zip_code":"9896712","prefecture":"宮城県","prefecture_kana":"ミヤギケン","city":"大崎市","city_kana":"オオサキシ","town":"鳴子温泉新小身川原","town_kana":"ナルコオンセンシンオミガワラ","prefecture_code":4},{"zip_code":"9896712","prefecture":"宮城県","prefecture_kana":"ミヤギケン","city":"大崎市","city_kana":"オオサキシ","town":"鳴子温泉関口","town_kana":"ナルコオンセンセキグチ","prefecture_code":4},{"zip_code":"9896712","prefecture":"宮城県","prefecture_kana":"ミヤギケン","city":"大崎市","city_kana":"オオサキシ","town":"鳴子温泉大尺","town_kana":"ナルコオンセンダイシャク","prefecture_code":4},{"zip_code":"9896712","prefecture":"宮城県","prefecture_kana":"ミヤギケン","city":"大崎市","city_kana":"オオサキシ","town":"鳴子温泉滝岸","town_kana":"ナルコオンセンタキギシ","prefecture_code":4},{"zip_code":"9896712","prefecture":"宮城県","prefecture_kana":"ミヤギケン","city":"大崎市","city_kana":"オオサキシ","town":"鳴子温泉竹原","town_kana":"ナルコオンセンタケハラ","prefecture_code":4},{"zip_code":"9896712","prefecture":"宮城県","prefecture_kana":"ミヤギケン","city":"大崎市","city_kana":"オオサキシ","town":"鳴子温泉田中","town_kana":"ナルコオンセンタナカ","prefecture_code":4},{"zip_code":"9896712","prefecture":"宮城県","prefecture_kana":"ミヤギケン","city":"大崎市","city_kana":"オオサキシ","town":"鳴子温泉月山","town_kana":"ナルコオンセンツキヤマ","prefecture_code":4},{"zip_code":"9896712","prefecture":"宮城県","prefecture_kana":"ミヤギケン","city":"大崎市","city_kana":"オオサキシ","town":"鳴子温泉堤下","town_kana":"ナルコオンセンツツミシタ","prefecture_code":4},{"zip_code":"9896712","prefecture":"宮城県","prefecture_kana":"ミヤギケン","city":"大崎市","city_kana":"オオサキシ","town":"鳴子温泉鶴田","town_kana":"ナルコオンセンツルタ","prefecture_code":4},{"zip_code":"9896712","prefecture":"宮城県","prefecture_kana":"ミヤギケン","city":"大崎市","city_kana":"オオサキシ","town":"鳴子温泉天神","town_kana":"ナルコオンセンテンジン","prefecture_code":4},{"zip_code":"9896712","prefecture":"宮城県","prefecture_kana":"ミヤギケン","city":"大崎市","city_kana":"オオサキシ","town":"鳴子温泉中道","town_kana":"ナルコオンセンナカミチ","prefecture_code":4},{"zip_code":"9896712","prefecture":"宮城県","prefecture_kana":"ミヤギケン","city":"大崎市","city_kana":"オオサキシ","town":"鳴子温泉野際","town_kana":"ナルコオンセンノギワ","prefecture_code":4},{"zip_code":"9896712","prefecture":"宮城県","prefecture_kana":"ミヤギケン","city":"大崎市","city_kana":"オオサキシ","town":"鳴子温泉畑山","town_kana":"ナルコオンセンハタヤマ","prefecture_code":4},{"zip_code":"9896712","prefecture":"宮城県","prefecture_kana":"ミヤギケン","city":"大崎市","city_kana":"オオサキシ","town":"鳴子温泉原崎","town_kana":"ナルコオンセンハラサキ","prefecture_code":4},{"zip_code":"9896712","prefecture":"宮城県","prefecture_kana":"ミヤギケン","city":"大崎市","city_kana":"オオサキシ","town":"鳴子温泉日向山","town_kana":"ナルコオンセンヒナタヤマ","prefecture_code":4},{"zip_code":"9896712","prefecture":"宮城県","prefecture_kana":"ミヤギケン","city":"大崎市","city_kana":"オオサキシ","town":"鳴子温泉不動山","town_kana":"ナルコオンセンフドウヤマ","prefecture_code":4},{"zip_code":"9896712","prefecture":"宮城県","prefecture_kana":"ミヤギケン","city":"大崎市","city_kana":"オオサキシ","town":"鳴子温泉前森","town_kana":"ナルコオンセンマエモリ","prefecture_code":4},{"zip_code":"9896712","prefecture":"宮城県","prefecture_kana":"ミヤギケン","city":"大崎市","city_kana":"オオサキシ","town":"鳴子温泉前山","town_kana":"ナルコオンセンマエヤマ","prefecture_code":4},{"zip_code":"9896712","prefecture":"宮城県","prefecture_kana":"ミヤギケン","city":"大崎市","city_kana":"オオサキシ","town":"鳴子温泉水沼","town_kana":"ナルコオンセンミズヌマ","prefecture_code":4},{"zip_code":"9896712","prefecture":"宮城県","prefecture_kana":"ミヤギケン","city":"大崎市","city_kana":"オオサキシ","town":"鳴子温泉南山","town_kana":"ナルコオンセンミナミヤマ","prefecture_code":4},{"zip_code":"9896712","prefecture":"宮城県","prefecture_kana":"ミヤギケン","city":"大崎市","city_kana":"オオサキシ","town":"鳴子温泉山際","town_kana":"ナルコオンセンヤマギワ","prefecture_code":4},{"zip_code":"9896712","prefecture":"宮城県","prefecture_kana":"ミヤギケン","city":"大崎市","city_kana":"オオサキシ","town":"鳴子温泉和田","town_kana":"ナルコオンセンワダ","prefecture_code":4}],"6825":{"zip_code":"9896825","prefecture":"宮城県","prefecture_kana":"ミヤギケン","city":"大崎市","city_kana":"オオサキシ","town":"鳴子温泉上鳴子","town_kana":"ナルコオンセンカミナルコ","prefecture_code":4},"6833":{"zip_code":"9896833","prefecture":"宮城県","prefecture_kana":"ミヤギケン","city":"大崎市","city_kana":"オオサキシ","town":"鳴子温泉川端","town_kana":"ナルコオンセンカワハタ","prefecture_code":4},"6824":{"zip_code":"9896824","prefecture":"宮城県","prefecture_kana":"ミヤギケン","city":"大崎市","city_kana":"オオサキシ","town":"鳴子温泉河原湯","town_kana":"ナルコオンセンカワラユ","prefecture_code":4},"6821":{"zip_code":"9896821","prefecture":"宮城県","prefecture_kana":"ミヤギケン","city":"大崎市","city_kana":"オオサキシ","town":"鳴子温泉車湯","town_kana":"ナルコオンセンクルマユ","prefecture_code":4},"6827":{"zip_code":"9896827","prefecture":"宮城県","prefecture_kana":"ミヤギケン","city":"大崎市","city_kana":"オオサキシ","town":"鳴子温泉尿前","town_kana":"ナルコオンセンシトマエ","prefecture_code":4},"6822":{"zip_code":"9896822","prefecture":"宮城県","prefecture_kana":"ミヤギケン","city":"大崎市","city_kana":"オオサキシ","town":"鳴子温泉新屋敷","town_kana":"ナルコオンセンシンヤシキ","prefecture_code":4},"6801":{"zip_code":"9896801","prefecture":"宮城県","prefecture_kana":"ミヤギケン","city":"大崎市","city_kana":"オオサキシ","town":"鳴子温泉末沢","town_kana":"ナルコオンセンスエザワ","prefecture_code":4},"6802":{"zip_code":"9896802","prefecture":"宮城県","prefecture_kana":"ミヤギケン","city":"大崎市","city_kana":"オオサキシ","town":"鳴子温泉末沢西","town_kana":"ナルコオンセンスエザワニシ","prefecture_code":4},"6804":{"zip_code":"9896804","prefecture":"宮城県","prefecture_kana":"ミヤギケン","city":"大崎市","city_kana":"オオサキシ","town":"鳴子温泉中屋敷","town_kana":"ナルコオンセンナカヤシキ","prefecture_code":4},"6834":{"zip_code":"9896834","prefecture":"宮城県","prefecture_kana":"ミヤギケン","city":"大崎市","city_kana":"オオサキシ","town":"鳴子温泉西原","town_kana":"ナルコオンセンニシハラ","prefecture_code":4},"6826":{"zip_code":"9896826","prefecture":"宮城県","prefecture_kana":"ミヤギケン","city":"大崎市","city_kana":"オオサキシ","town":"鳴子温泉古戸前","town_kana":"ナルコオンセンフルトマエ","prefecture_code":4},"6832":{"zip_code":"9896832","prefecture":"宮城県","prefecture_kana":"ミヤギケン","city":"大崎市","city_kana":"オオサキシ","town":"鳴子温泉星沼","town_kana":"ナルコオンセンホシヌマ","prefecture_code":4},"6807":{"zip_code":"9896807","prefecture":"宮城県","prefecture_kana":"ミヤギケン","city":"大崎市","city_kana":"オオサキシ","town":"鳴子温泉見手野原","town_kana":"ナルコオンセンミテノハラ","prefecture_code":4},"6835":{"zip_code":"9896835","prefecture":"宮城県","prefecture_kana":"ミヤギケン","city":"大崎市","city_kana":"オオサキシ","town":"鳴子温泉南原","town_kana":"ナルコオンセンミナミハラ","prefecture_code":4},"6837":{"zip_code":"9896837","prefecture":"宮城県","prefecture_kana":"ミヤギケン","city":"大崎市","city_kana":"オオサキシ","town":"鳴子温泉南星沼","town_kana":"ナルコオンセンミナミホシヌマ","prefecture_code":4},"6831":{"zip_code":"9896831","prefecture":"宮城県","prefecture_kana":"ミヤギケン","city":"大崎市","city_kana":"オオサキシ","town":"鳴子温泉柳木","town_kana":"ナルコオンセンヤギ","prefecture_code":4},"6836":{"zip_code":"9896836","prefecture":"宮城県","prefecture_kana":"ミヤギケン","city":"大崎市","city_kana":"オオサキシ","town":"鳴子温泉焼石亦","town_kana":"ナルコオンセンヤキイシマタ","prefecture_code":4},"6823":{"zip_code":"9896823","prefecture":"宮城県","prefecture_kana":"ミヤギケン","city":"大崎市","city_kana":"オオサキシ","town":"鳴子温泉湯元","town_kana":"ナルコオンセンユモト","prefecture_code":4},"6223":{"zip_code":"9896223","prefecture":"宮城県","prefecture_kana":"ミヤギケン","city":"大崎市","city_kana":"オオサキシ","town":"古川","town_kana":"フルカワ","prefecture_code":4},"6117":{"zip_code":"9896117","prefecture":"宮城県","prefecture_kana":"ミヤギケン","city":"大崎市","city_kana":"オオサキシ","town":"古川旭","town_kana":"フルカワアサヒ","prefecture_code":4},"6243":{"zip_code":"9896243","prefecture":"宮城県","prefecture_kana":"ミヤギケン","city":"大崎市","city_kana":"オオサキシ","town":"古川雨生沢","town_kana":"フルカワアメオザワ","prefecture_code":4},"6164":{"zip_code":"9896164","prefecture":"宮城県","prefecture_kana":"ミヤギケン","city":"大崎市","city_kana":"オオサキシ","town":"古川荒川小金町","town_kana":"フルカワアラカワコガネチョウ","prefecture_code":4},"6212":{"zip_code":"9896212","prefecture":"宮城県","prefecture_kana":"ミヤギケン","city":"大崎市","city_kana":"オオサキシ","town":"古川荒田目","town_kana":"フルカワアラタノメ","prefecture_code":4},"6252":{"zip_code":"9896252","prefecture":"宮城県","prefecture_kana":"ミヤギケン","city":"大崎市","city_kana":"オオサキシ","town":"古川荒谷","town_kana":"フルカワアラヤ","prefecture_code":4},"6203":{"zip_code":"9896203","prefecture":"宮城県","prefecture_kana":"ミヤギケン","city":"大崎市","city_kana":"オオサキシ","town":"古川飯川","town_kana":"フルカワイイガワ","prefecture_code":4},"6124":{"zip_code":"9896124","prefecture":"宮城県","prefecture_kana":"ミヤギケン","city":"大崎市","city_kana":"オオサキシ","town":"古川石森","town_kana":"フルカワイシモリ","prefecture_code":4},"6135":{"zip_code":"9896135","prefecture":"宮城県","prefecture_kana":"ミヤギケン","city":"大崎市","city_kana":"オオサキシ","town":"古川稲葉","town_kana":"フルカワイナバ","prefecture_code":4},"6173":{"zip_code":"9896173","prefecture":"宮城県","prefecture_kana":"ミヤギケン","city":"大崎市","city_kana":"オオサキシ","town":"古川浦町","town_kana":"フルカワウラマチ","prefecture_code":4},"6103":{"zip_code":"9896103","prefecture":"宮城県","prefecture_kana":"ミヤギケン","city":"大崎市","city_kana":"オオサキシ","town":"古川江合寿町","town_kana":"フルカワエアイコトブキチョウ","prefecture_code":4},"6104":{"zip_code":"9896104","prefecture":"宮城県","prefecture_kana":"ミヤギケン","city":"大崎市","city_kana":"オオサキシ","town":"古川江合錦町","town_kana":"フルカワエアイニシキチョウ","prefecture_code":4},"6102":{"zip_code":"9896102","prefecture":"宮城県","prefecture_kana":"ミヤギケン","city":"大崎市","city_kana":"オオサキシ","town":"古川江合本町","town_kana":"フルカワエアイホンチョウ","prefecture_code":4},"6115":{"zip_code":"9896115","prefecture":"宮城県","prefecture_kana":"ミヤギケン","city":"大崎市","city_kana":"オオサキシ","town":"古川駅東","town_kana":"フルカワエキヒガシ","prefecture_code":4},"6162":{"zip_code":"9896162","prefecture":"宮城県","prefecture_kana":"ミヤギケン","city":"大崎市","city_kana":"オオサキシ","town":"古川駅前大通","town_kana":"フルカワエキマエオオドオリ","prefecture_code":4},"6161":{"zip_code":"9896161","prefecture":"宮城県","prefecture_kana":"ミヤギケン","city":"大崎市","city_kana":"オオサキシ","town":"古川駅南","town_kana":"フルカワエキミナミ","prefecture_code":4},"6227":{"zip_code":"9896227","prefecture":"宮城県","prefecture_kana":"ミヤギケン","city":"大崎市","city_kana":"オオサキシ","town":"古川大崎","town_kana":"フルカワオオサキ","prefecture_code":4},"6114":{"zip_code":"9896114","prefecture":"宮城県","prefecture_kana":"ミヤギケン","city":"大崎市","city_kana":"オオサキシ","town":"古川大幡","town_kana":"フルカワオオハタ","prefecture_code":4},"6221":{"zip_code":"9896221","prefecture":"宮城県","prefecture_kana":"ミヤギケン","city":"大崎市","city_kana":"オオサキシ","town":"古川大宮","town_kana":"フルカワオオミヤ","prefecture_code":4},"6234":{"zip_code":"9896234","prefecture":"宮城県","prefecture_kana":"ミヤギケン","city":"大崎市","city_kana":"オオサキシ","town":"古川小林","town_kana":"フルカワオバヤシ","prefecture_code":4},"6216":{"zip_code":"9896216","prefecture":"宮城県","prefecture_kana":"ミヤギケン","city":"大崎市","city_kana":"オオサキシ","town":"古川柏崎","town_kana":"フルカワカシワザキ","prefecture_code":4},"6131":{"zip_code":"9896131","prefecture":"宮城県","prefecture_kana":"ミヤギケン","city":"大崎市","city_kana":"オオサキシ","town":"古川金五輪","town_kana":"フルカワカナゴリン","prefecture_code":4},"6264":{"zip_code":"9896264","prefecture":"宮城県","prefecture_kana":"ミヤギケン","city":"大崎市","city_kana":"オオサキシ","town":"古川上埣","town_kana":"フルカワカミゾネ","prefecture_code":4},"6202":{"zip_code":"9896202","prefecture":"宮城県","prefecture_kana":"ミヤギケン","city":"大崎市","city_kana":"オオサキシ","town":"古川上中目","town_kana":"フルカワカミナカノメ","prefecture_code":4},"6236":{"zip_code":"9896236","prefecture":"宮城県","prefecture_kana":"ミヤギケン","city":"大崎市","city_kana":"オオサキシ","town":"古川川熊","town_kana":"フルカワカワクマ","prefecture_code":4},"6167":{"zip_code":"9896167","prefecture":"宮城県","prefecture_kana":"ミヤギケン","city":"大崎市","city_kana":"オオサキシ","town":"古川川端","town_kana":"フルカワカワハタ","prefecture_code":4},"6145":{"zip_code":"9896145","prefecture":"宮城県","prefecture_kana":"ミヤギケン","city":"大崎市","city_kana":"オオサキシ","town":"古川北稲葉","town_kana":"フルカワキタイナバ","prefecture_code":4},"6171":{"zip_code":"9896171","prefecture":"宮城県","prefecture_kana":"ミヤギケン","city":"大崎市","city_kana":"オオサキシ","town":"古川北町","town_kana":"フルカワキタマチ","prefecture_code":4},"6242":{"zip_code":"9896242","prefecture":"宮城県","prefecture_kana":"ミヤギケン","city":"大崎市","city_kana":"オオサキシ","town":"古川北宮沢","town_kana":"フルカワキタミヤザワ","prefecture_code":4},"6254":{"zip_code":"9896254","prefecture":"宮城県","prefecture_kana":"ミヤギケン","city":"大崎市","city_kana":"オオサキシ","town":"古川狐塚","town_kana":"フルカワキツネヅカ","prefecture_code":4},"6244":{"zip_code":"9896244","prefecture":"宮城県","prefecture_kana":"ミヤギケン","city":"大崎市","city_kana":"オオサキシ","town":"古川清滝","town_kana":"フルカワキヨタキ","prefecture_code":4},"6122":{"zip_code":"9896122","prefecture":"宮城県","prefecture_kana":"ミヤギケン","city":"大崎市","city_kana":"オオサキシ","town":"古川桑針","town_kana":"フルカワクワバリ","prefecture_code":4},"6224":{"zip_code":"9896224","prefecture":"宮城県","prefecture_kana":"ミヤギケン","city":"大崎市","city_kana":"オオサキシ","town":"古川小泉","town_kana":"フルカワコイズミ","prefecture_code":4},"6144":{"zip_code":"9896144","prefecture":"宮城県","prefecture_kana":"ミヤギケン","city":"大崎市","city_kana":"オオサキシ","town":"古川小稲葉町","town_kana":"フルカワコイナバチョウ","prefecture_code":4},"6251":{"zip_code":"9896251","prefecture":"宮城県","prefecture_kana":"ミヤギケン","city":"大崎市","city_kana":"オオサキシ","town":"古川小野","town_kana":"フルカワコノ","prefecture_code":4},"6211":{"zip_code":"9896211","prefecture":"宮城県","prefecture_kana":"ミヤギケン","city":"大崎市","city_kana":"オオサキシ","town":"古川斎下","town_kana":"フルカワサイゲ","prefecture_code":4},"6106":{"zip_code":"9896106","prefecture":"宮城県","prefecture_kana":"ミヤギケン","city":"大崎市","city_kana":"オオサキシ","town":"古川幸町","town_kana":"フルカワサイワイチョウ","prefecture_code":4},"6128":{"zip_code":"9896128","prefecture":"宮城県","prefecture_kana":"ミヤギケン","city":"大崎市","city_kana":"オオサキシ","town":"古川境野宮","town_kana":"フルカワサカイノミヤ","prefecture_code":4},"6157":{"zip_code":"9896157","prefecture":"宮城県","prefecture_kana":"ミヤギケン","city":"大崎市","city_kana":"オオサキシ","town":"古川栄町","town_kana":"フルカワサカエチョウ","prefecture_code":4},"6233":{"zip_code":"9896233","prefecture":"宮城県","prefecture_kana":"ミヤギケン","city":"大崎市","city_kana":"オオサキシ","town":"古川桜ノ目","town_kana":"フルカワサクラノメ","prefecture_code":4},"6232":{"zip_code":"9896232","prefecture":"宮城県","prefecture_kana":"ミヤギケン","city":"大崎市","city_kana":"オオサキシ","town":"古川沢田","town_kana":"フルカワサワダ","prefecture_code":4},"6201":{"zip_code":"9896201","prefecture":"宮城県","prefecture_kana":"ミヤギケン","city":"大崎市","city_kana":"オオサキシ","town":"古川渋井","town_kana":"フルカワシブイ","prefecture_code":4},"6228":{"zip_code":"9896228","prefecture":"宮城県","prefecture_kana":"ミヤギケン","city":"大崎市","city_kana":"オオサキシ","town":"古川清水","town_kana":"フルカワシミズ","prefecture_code":4},"6241":{"zip_code":"9896241","prefecture":"宮城県","prefecture_kana":"ミヤギケン","city":"大崎市","city_kana":"オオサキシ","town":"古川清水沢","town_kana":"フルカワシミズサワ","prefecture_code":4},"6123":{"zip_code":"9896123","prefecture":"宮城県","prefecture_kana":"ミヤギケン","city":"大崎市","city_kana":"オオサキシ","town":"古川下中目","town_kana":"フルカワシモナカノメ","prefecture_code":4},"6263":{"zip_code":"9896263","prefecture":"宮城県","prefecture_kana":"ミヤギケン","city":"大崎市","city_kana":"オオサキシ","town":"古川下谷地","town_kana":"フルカワシモヤチ","prefecture_code":4},"6151":{"zip_code":"9896151","prefecture":"宮城県","prefecture_kana":"ミヤギケン","city":"大崎市","city_kana":"オオサキシ","town":"古川城西","town_kana":"フルカワシロニシ","prefecture_code":4},"6116":{"zip_code":"9896116","prefecture":"宮城県","prefecture_kana":"ミヤギケン","city":"大崎市","city_kana":"オオサキシ","town":"古川李埣","town_kana":"フルカワスモゾネ","prefecture_code":4},"6175":{"zip_code":"9896175","prefecture":"宮城県","prefecture_kana":"ミヤギケン","city":"大崎市","city_kana":"オオサキシ","town":"古川諏訪","town_kana":"フルカワスワ","prefecture_code":4},"6174":{"zip_code":"9896174","prefecture":"宮城県","prefecture_kana":"ミヤギケン","city":"大崎市","city_kana":"オオサキシ","town":"古川千手寺町","town_kana":"フルカワセンジュウジチョウ","prefecture_code":4},"6163":{"zip_code":"9896163","prefecture":"宮城県","prefecture_kana":"ミヤギケン","city":"大崎市","city_kana":"オオサキシ","town":"古川台町","town_kana":"フルカワダイマチ","prefecture_code":4},"6126":{"zip_code":"9896126","prefecture":"宮城県","prefecture_kana":"ミヤギケン","city":"大崎市","city_kana":"オオサキシ","town":"古川楡木","town_kana":"フルカワタマノキ","prefecture_code":4},"6225":{"zip_code":"9896225","prefecture":"宮城県","prefecture_kana":"ミヤギケン","city":"大崎市","city_kana":"オオサキシ","town":"古川塚目","town_kana":"フルカワツカノメ","prefecture_code":4},"6207":{"zip_code":"9896207","prefecture":"宮城県","prefecture_kana":"ミヤギケン","city":"大崎市","city_kana":"オオサキシ","town":"古川堤根","town_kana":"フルカワツツミネ","prefecture_code":4},"6111":{"zip_code":"9896111","prefecture":"宮城県","prefecture_kana":"ミヤギケン","city":"大崎市","city_kana":"オオサキシ","town":"古川鶴ケ埣","town_kana":"フルカワツルガソネ","prefecture_code":4},"6165":{"zip_code":"9896165","prefecture":"宮城県","prefecture_kana":"ミヤギケン","city":"大崎市","city_kana":"オオサキシ","town":"古川十日町","town_kana":"フルカワトオカマチ","prefecture_code":4},"6266":{"zip_code":"9896266","prefecture":"宮城県","prefecture_kana":"ミヤギケン","city":"大崎市","city_kana":"オオサキシ","town":"古川富長","town_kana":"フルカワトミナガ","prefecture_code":4},"6231":{"zip_code":"9896231","prefecture":"宮城県","prefecture_kana":"ミヤギケン","city":"大崎市","city_kana":"オオサキシ","town":"古川長岡","town_kana":"フルカワナガオカ","prefecture_code":4},"6261":{"zip_code":"9896261","prefecture":"宮城県","prefecture_kana":"ミヤギケン","city":"大崎市","city_kana":"オオサキシ","town":"古川長岡針","town_kana":"フルカワナガオカハリ","prefecture_code":4},"6143":{"zip_code":"9896143","prefecture":"宮城県","prefecture_kana":"ミヤギケン","city":"大崎市","city_kana":"オオサキシ","town":"古川中里","town_kana":"フルカワナカザト","prefecture_code":4},"6206":{"zip_code":"9896206","prefecture":"宮城県","prefecture_kana":"ミヤギケン","city":"大崎市","city_kana":"オオサキシ","town":"古川中沢","town_kana":"フルカワナカザワ","prefecture_code":4},"6142":{"zip_code":"9896142","prefecture":"宮城県","prefecture_kana":"ミヤギケン","city":"大崎市","city_kana":"オオサキシ","town":"古川中島町","town_kana":"フルカワナカジマチョウ","prefecture_code":4},"6153":{"zip_code":"9896153","prefecture":"宮城県","prefecture_kana":"ミヤギケン","city":"大崎市","city_kana":"オオサキシ","town":"古川七日町","town_kana":"フルカワナノカマチ","prefecture_code":4},"6226":{"zip_code":"9896226","prefecture":"宮城県","prefecture_kana":"ミヤギケン","city":"大崎市","city_kana":"オオサキシ","town":"古川新田","town_kana":"フルカワニイダ","prefecture_code":4},"6205":{"zip_code":"9896205","prefecture":"宮城県","prefecture_kana":"ミヤギケン","city":"大崎市","city_kana":"オオサキシ","town":"古川新沼","town_kana":"フルカワニイヌマ","prefecture_code":4},"6214":{"zip_code":"9896214","prefecture":"宮城県","prefecture_kana":"ミヤギケン","city":"大崎市","city_kana":"オオサキシ","town":"古川新堀","town_kana":"フルカワニイボリ","prefecture_code":4},"6133":{"zip_code":"9896133","prefecture":"宮城県","prefecture_kana":"ミヤギケン","city":"大崎市","city_kana":"オオサキシ","town":"古川西荒井","town_kana":"フルカワニシアライ","prefecture_code":4},"6156":{"zip_code":"9896156","prefecture":"宮城県","prefecture_kana":"ミヤギケン","city":"大崎市","city_kana":"オオサキシ","town":"古川西館","town_kana":"フルカワニシダテ","prefecture_code":4},"6152":{"zip_code":"9896152","prefecture":"宮城県","prefecture_kana":"ミヤギケン","city":"大崎市","city_kana":"オオサキシ","town":"古川二ノ構","town_kana":"フルカワニノカマエ","prefecture_code":4},"6166":{"zip_code":"9896166","prefecture":"宮城県","prefecture_kana":"ミヤギケン","city":"大崎市","city_kana":"オオサキシ","town":"古川東町","town_kana":"フルカワヒガシマチ","prefecture_code":4},"6208":{"zip_code":"9896208","prefecture":"宮城県","prefecture_kana":"ミヤギケン","city":"大崎市","city_kana":"オオサキシ","town":"古川引田","town_kana":"フルカワヒキタ","prefecture_code":4},"6121":{"zip_code":"9896121","prefecture":"宮城県","prefecture_kana":"ミヤギケン","city":"大崎市","city_kana":"オオサキシ","town":"古川深沼","town_kana":"フルカワフカヌマ","prefecture_code":4},"6101":{"zip_code":"9896101","prefecture":"宮城県","prefecture_kana":"ミヤギケン","city":"大崎市","city_kana":"オオサキシ","town":"古川福浦","town_kana":"フルカワフクウラ","prefecture_code":4},"6105":{"zip_code":"9896105","prefecture":"宮城県","prefecture_kana":"ミヤギケン","city":"大崎市","city_kana":"オオサキシ","town":"古川福沼","town_kana":"フルカワフクヌマ","prefecture_code":4},"6265":{"zip_code":"9896265","prefecture":"宮城県","prefecture_kana":"ミヤギケン","city":"大崎市","city_kana":"オオサキシ","town":"古川渕尻","town_kana":"フルカワフチジリ","prefecture_code":4},"6136":{"zip_code":"9896136","prefecture":"宮城県","prefecture_kana":"ミヤギケン","city":"大崎市","city_kana":"オオサキシ","town":"古川穂波","town_kana":"フルカワホナミ","prefecture_code":4},"6213":{"zip_code":"9896213","prefecture":"宮城県","prefecture_kana":"ミヤギケン","city":"大崎市","city_kana":"オオサキシ","town":"古川保柳","town_kana":"フルカワホヤナギ","prefecture_code":4},"6172":{"zip_code":"9896172","prefecture":"宮城県","prefecture_kana":"ミヤギケン","city":"大崎市","city_kana":"オオサキシ","town":"古川前田町","town_kana":"フルカワマエダチョウ","prefecture_code":4},"6262":{"zip_code":"9896262","prefecture":"宮城県","prefecture_kana":"ミヤギケン","city":"大崎市","city_kana":"オオサキシ","town":"古川馬櫛","town_kana":"フルカワマグシ","prefecture_code":4},"6253":{"zip_code":"9896253","prefecture":"宮城県","prefecture_kana":"ミヤギケン","city":"大崎市","city_kana":"オオサキシ","town":"古川馬放","town_kana":"フルカワマハナシ","prefecture_code":4},"6112":{"zip_code":"9896112","prefecture":"宮城県","prefecture_kana":"ミヤギケン","city":"大崎市","city_kana":"オオサキシ","town":"古川馬寄","town_kana":"フルカワマヨセ","prefecture_code":4},"6154":{"zip_code":"9896154","prefecture":"宮城県","prefecture_kana":"ミヤギケン","city":"大崎市","city_kana":"オオサキシ","town":"古川三日町","town_kana":"フルカワミッカマチ","prefecture_code":4},"6217":{"zip_code":"9896217","prefecture":"宮城県","prefecture_kana":"ミヤギケン","city":"大崎市","city_kana":"オオサキシ","town":"古川南沢","town_kana":"フルカワミナミザワ","prefecture_code":4},"6141":{"zip_code":"9896141","prefecture":"宮城県","prefecture_kana":"ミヤギケン","city":"大崎市","city_kana":"オオサキシ","town":"古川南新町","town_kana":"フルカワミナミシンマチ","prefecture_code":4},"6155":{"zip_code":"9896155","prefecture":"宮城県","prefecture_kana":"ミヤギケン","city":"大崎市","city_kana":"オオサキシ","town":"古川南町","town_kana":"フルカワミナミマチ","prefecture_code":4},"6113":{"zip_code":"9896113","prefecture":"宮城県","prefecture_kana":"ミヤギケン","city":"大崎市","city_kana":"オオサキシ","town":"古川蓑口沼","town_kana":"フルカワミノクチヌマ","prefecture_code":4},"6215":{"zip_code":"9896215","prefecture":"宮城県","prefecture_kana":"ミヤギケン","city":"大崎市","city_kana":"オオサキシ","town":"古川耳取","town_kana":"フルカワミミトリ","prefecture_code":4},"6127":{"zip_code":"9896127","prefecture":"宮城県","prefecture_kana":"ミヤギケン","city":"大崎市","city_kana":"オオサキシ","town":"古川宮内","town_kana":"フルカワミヤウチ","prefecture_code":4},"6235":{"zip_code":"9896235","prefecture":"宮城県","prefecture_kana":"ミヤギケン","city":"大崎市","city_kana":"オオサキシ","town":"古川宮沢","town_kana":"フルカワミヤザワ","prefecture_code":4},"6125":{"zip_code":"9896125","prefecture":"宮城県","prefecture_kana":"ミヤギケン","city":"大崎市","city_kana":"オオサキシ","town":"古川師山","town_kana":"フルカワモロヤマ","prefecture_code":4},"6255":{"zip_code":"9896255","prefecture":"宮城県","prefecture_kana":"ミヤギケン","city":"大崎市","city_kana":"オオサキシ","town":"古川休塚","town_kana":"フルカワヤスミヅカ","prefecture_code":4},"6204":{"zip_code":"9896204","prefecture":"宮城県","prefecture_kana":"ミヤギケン","city":"大崎市","city_kana":"オオサキシ","town":"古川矢目","town_kana":"フルカワヤノメ","prefecture_code":4},"6134":{"zip_code":"9896134","prefecture":"宮城県","prefecture_kana":"ミヤギケン","city":"大崎市","city_kana":"オオサキシ","town":"古川米倉","town_kana":"フルカワヨネクラ","prefecture_code":4},"6132":{"zip_code":"9896132","prefecture":"宮城県","prefecture_kana":"ミヤギケン","city":"大崎市","city_kana":"オオサキシ","town":"古川米袋","town_kana":"フルカワヨネブクロ","prefecture_code":4},"6222":{"zip_code":"9896222","prefecture":"宮城県","prefecture_kana":"ミヤギケン","city":"大崎市","city_kana":"オオサキシ","town":"古川若葉町","town_kana":"フルカワワカバチョウ","prefecture_code":4},"0800":{"zip_code":"9890800","prefecture":"宮城県","prefecture_kana":"ミヤギケン","city":"刈田郡蔵王町","city_kana":"カッタグンザオウマチ","town":"","town_kana":"","prefecture_code":4},"0921":[{"zip_code":"9890921","prefecture":"宮城県","prefecture_kana":"ミヤギケン","city":"刈田郡蔵王町","city_kana":"カッタグンザオウマチ","town":"円田釜沢","town_kana":"エンダカマザワ","prefecture_code":4},{"zip_code":"9890921","prefecture":"宮城県","prefecture_kana":"ミヤギケン","city":"刈田郡蔵王町","city_kana":"カッタグンザオウマチ","town":"円田善舞森","town_kana":"エンダゼンブモリ","prefecture_code":4},{"zip_code":"9890921","prefecture":"宮城県","prefecture_kana":"ミヤギケン","city":"刈田郡蔵王町","city_kana":"カッタグンザオウマチ","town":"円田土浮谷地","town_kana":"エンダドブヤチ","prefecture_code":4},{"zip_code":"9890921","prefecture":"宮城県","prefecture_kana":"ミヤギケン","city":"刈田郡蔵王町","city_kana":"カッタグンザオウマチ","town":"円田","town_kana":"エンダ","prefecture_code":4}],"0821":{"zip_code":"9890821","prefecture":"宮城県","prefecture_kana":"ミヤギケン","city":"刈田郡蔵王町","city_kana":"カッタグンザオウマチ","town":"円田","town_kana":"エンダ","prefecture_code":4},"0841":{"zip_code":"9890841","prefecture":"宮城県","prefecture_kana":"ミヤギケン","city":"刈田郡蔵王町","city_kana":"カッタグンザオウマチ","town":"小村崎","town_kana":"コムラサキ","prefecture_code":4},"0842":{"zip_code":"9890842","prefecture":"宮城県","prefecture_kana":"ミヤギケン","city":"刈田郡蔵王町","city_kana":"カッタグンザオウマチ","town":"塩沢","town_kana":"シオザワ","prefecture_code":4},"0916":{"zip_code":"9890916","prefecture":"宮城県","prefecture_kana":"ミヤギケン","city":"刈田郡蔵王町","city_kana":"カッタグンザオウマチ","town":"遠刈田温泉","town_kana":"トオガッタオンセン","prefecture_code":4},"0914":{"zip_code":"9890914","prefecture":"宮城県","prefecture_kana":"ミヤギケン","city":"刈田郡蔵王町","city_kana":"カッタグンザオウマチ","town":"遠刈田温泉旭町","town_kana":"トオガッタオンセンアサヒチョウ","prefecture_code":4},"0915":{"zip_code":"9890915","prefecture":"宮城県","prefecture_kana":"ミヤギケン","city":"刈田郡蔵王町","city_kana":"カッタグンザオウマチ","town":"遠刈田温泉寿町","town_kana":"トオガッタオンセンコトブキチョウ","prefecture_code":4},"0911":{"zip_code":"9890911","prefecture":"宮城県","prefecture_kana":"ミヤギケン","city":"刈田郡蔵王町","city_kana":"カッタグンザオウマチ","town":"遠刈田温泉栄町","town_kana":"トオガッタオンセンサカエチョウ","prefecture_code":4},"0912":{"zip_code":"9890912","prefecture":"宮城県","prefecture_kana":"ミヤギケン","city":"刈田郡蔵王町","city_kana":"カッタグンザオウマチ","town":"遠刈田温泉仲町","town_kana":"トオガッタオンセンナカマチ","prefecture_code":4},"0913":{"zip_code":"9890913","prefecture":"宮城県","prefecture_kana":"ミヤギケン","city":"刈田郡蔵王町","city_kana":"カッタグンザオウマチ","town":"遠刈田温泉本町","town_kana":"トオガッタオンセンモトマチ","prefecture_code":4},"0831":{"zip_code":"9890831","prefecture":"宮城県","prefecture_kana":"ミヤギケン","city":"刈田郡蔵王町","city_kana":"カッタグンザオウマチ","town":"平沢","town_kana":"ヒラサワ","prefecture_code":4},"0851":{"zip_code":"9890851","prefecture":"宮城県","prefecture_kana":"ミヤギケン","city":"刈田郡蔵王町","city_kana":"カッタグンザオウマチ","town":"曲竹","town_kana":"マガタケ","prefecture_code":4},"0701":{"zip_code":"9890701","prefecture":"宮城県","prefecture_kana":"ミヤギケン","city":"刈田郡蔵王町","city_kana":"カッタグンザオウマチ","town":"宮","town_kana":"ミヤ","prefecture_code":4},"0843":{"zip_code":"9890843","prefecture":"宮城県","prefecture_kana":"ミヤギケン","city":"刈田郡蔵王町","city_kana":"カッタグンザオウマチ","town":"矢附","town_kana":"ヤヅキ","prefecture_code":4},"0500":{"zip_code":"9890500","prefecture":"宮城県","prefecture_kana":"ミヤギケン","city":"刈田郡七ヶ宿町","city_kana":"カッタグンシチカシュクマチ","town":"","town_kana":"","prefecture_code":4},"0662":{"zip_code":"9890662","prefecture":"宮城県","prefecture_kana":"ミヤギケン","city":"刈田郡七ヶ宿町","city_kana":"カッタグンシチカシュクマチ","town":"赤地","town_kana":"アカチ","prefecture_code":4},"0556":{"zip_code":"9890556","prefecture":"宮城県","prefecture_kana":"ミヤギケン","city":"刈田郡七ヶ宿町","city_kana":"カッタグンシチカシュクマチ","town":"愛宕下","town_kana":"アタゴシタ","prefecture_code":4},"0506":{"zip_code":"9890506","prefecture":"宮城県","prefecture_kana":"ミヤギケン","city":"刈田郡七ヶ宿町","city_kana":"カッタグンシチカシュクマチ","town":"油畑","town_kana":"アブラハタ","prefecture_code":4},"0635":{"zip_code":"9890635","prefecture":"宮城県","prefecture_kana":"ミヤギケン","city":"刈田郡七ヶ宿町","city_kana":"カッタグンシチカシュクマチ","town":"板木","town_kana":"イタギ","prefecture_code":4},"0522":{"zip_code":"9890522","prefecture":"宮城県","prefecture_kana":"ミヤギケン","city":"刈田郡七ヶ宿町","city_kana":"カッタグンシチカシュクマチ","town":"一枚田","town_kana":"イチマイダ","prefecture_code":4},"0643":{"zip_code":"9890643","prefecture":"宮城県","prefecture_kana":"ミヤギケン","city":"刈田郡七ヶ宿町","city_kana":"カッタグンシチカシュクマチ","town":"稲子","town_kana":"イナゴ","prefecture_code":4},"0644":{"zip_code":"9890644","prefecture":"宮城県","prefecture_kana":"ミヤギケン","city":"刈田郡七ヶ宿町","city_kana":"カッタグンシチカシュクマチ","town":"稲子山","town_kana":"イナゴヤマ","prefecture_code":4},"0537":[{"zip_code":"9890537","prefecture":"宮城県","prefecture_kana":"ミヤギケン","city":"刈田郡七ヶ宿町","city_kana":"カッタグンシチカシュクマチ","town":"上野","town_kana":"ウワノ","prefecture_code":4},{"zip_code":"9890537","prefecture":"宮城県","prefecture_kana":"ミヤギケン","city":"刈田郡七ヶ宿町","city_kana":"カッタグンシチカシュクマチ","town":"萩崎","town_kana":"ハギザキ","prefecture_code":4}],"0631":{"zip_code":"9890631","prefecture":"宮城県","prefecture_kana":"ミヤギケン","city":"刈田郡七ヶ宿町","city_kana":"カッタグンシチカシュクマチ","town":"大石川原","town_kana":"オオイシカワラ","prefecture_code":4},"0507":[{"zip_code":"9890507","prefecture":"宮城県","prefecture_kana":"ミヤギケン","city":"刈田郡七ヶ宿町","city_kana":"カッタグンシチカシュクマチ","town":"大萱","town_kana":"オオガヤ","prefecture_code":4},{"zip_code":"9890507","prefecture":"宮城県","prefecture_kana":"ミヤギケン","city":"刈田郡七ヶ宿町","city_kana":"カッタグンシチカシュクマチ","town":"町下","town_kana":"マチシタ","prefecture_code":4}],"0529":[{"zip_code":"9890529","prefecture":"宮城県","prefecture_kana":"ミヤギケン","city":"刈田郡七ヶ宿町","city_kana":"カッタグンシチカシュクマチ","town":"大杉","town_kana":"オオスギ","prefecture_code":4},{"zip_code":"9890529","prefecture":"宮城県","prefecture_kana":"ミヤギケン","city":"刈田郡七ヶ宿町","city_kana":"カッタグンシチカシュクマチ","town":"瀬見原","town_kana":"セミハラ","prefecture_code":4}],"0516":[{"zip_code":"9890516","prefecture":"宮城県","prefecture_kana":"ミヤギケン","city":"刈田郡七ヶ宿町","city_kana":"カッタグンシチカシュクマチ","town":"大貫平","town_kana":"オオヌキダイラ","prefecture_code":4},{"zip_code":"9890516","prefecture":"宮城県","prefecture_kana":"ミヤギケン","city":"刈田郡七ヶ宿町","city_kana":"カッタグンシチカシュクマチ","town":"上島田原","town_kana":"カミシマダハラ","prefecture_code":4},{"zip_code":"9890516","prefecture":"宮城県","prefecture_kana":"ミヤギケン","city":"刈田郡七ヶ宿町","city_kana":"カッタグンシチカシュクマチ","town":"下島田原","town_kana":"シモシマダハラ","prefecture_code":4},{"zip_code":"9890516","prefecture":"宮城県","prefecture_kana":"ミヤギケン","city":"刈田郡七ヶ宿町","city_kana":"カッタグンシチカシュクマチ","town":"西島田原","town_kana":"ニシシマダハラ","prefecture_code":4},{"zip_code":"9890516","prefecture":"宮城県","prefecture_kana":"ミヤギケン","city":"刈田郡七ヶ宿町","city_kana":"カッタグンシチカシュクマチ","town":"東島田原","town_kana":"ヒガシシマダハラ","prefecture_code":4}],"0553":{"zip_code":"9890553","prefecture":"宮城県","prefecture_kana":"ミヤギケン","city":"刈田郡七ヶ宿町","city_kana":"カッタグンシチカシュクマチ","town":"大迎","town_kana":"オオムカエ","prefecture_code":4},"0501":{"zip_code":"9890501","prefecture":"宮城県","prefecture_kana":"ミヤギケン","city":"刈田郡七ヶ宿町","city_kana":"カッタグンシチカシュクマチ","town":"柏木山","town_kana":"カシワギヤマ","prefecture_code":4},"0543":{"zip_code":"9890543","prefecture":"宮城県","prefecture_kana":"ミヤギケン","city":"刈田郡七ヶ宿町","city_kana":"カッタグンシチカシュクマチ","town":"蒲木","town_kana":"カバノキ","prefecture_code":4},"0524":[{"zip_code":"9890524","prefecture":"宮城県","prefecture_kana":"ミヤギケン","city":"刈田郡七ヶ宿町","city_kana":"カッタグンシチカシュクマチ","town":"上烏川","town_kana":"カミカラスガワ","prefecture_code":4},{"zip_code":"9890524","prefecture":"宮城県","prefecture_kana":"ミヤギケン","city":"刈田郡七ヶ宿町","city_kana":"カッタグンシチカシュクマチ","town":"廻館","town_kana":"マワリタテ","prefecture_code":4}],"0613":{"zip_code":"9890613","prefecture":"宮城県","prefecture_kana":"ミヤギケン","city":"刈田郡七ヶ宿町","city_kana":"カッタグンシチカシュクマチ","town":"上川原","town_kana":"カミカワラ","prefecture_code":4},"0504":{"zip_code":"9890504","prefecture":"宮城県","prefecture_kana":"ミヤギケン","city":"刈田郡七ヶ宿町","city_kana":"カッタグンシチカシュクマチ","town":"上ノ平","town_kana":"カミノタイラ","prefecture_code":4},"0505":{"zip_code":"9890505","prefecture":"宮城県","prefecture_kana":"ミヤギケン","city":"刈田郡七ヶ宿町","city_kana":"カッタグンシチカシュクマチ","town":"上ノ平山","town_kana":"カミノタイラヤマ","prefecture_code":4},"0623":{"zip_code":"9890623","prefecture":"宮城県","prefecture_kana":"ミヤギケン","city":"刈田郡七ヶ宿町","city_kana":"カッタグンシチカシュクマチ","town":"上ノ台","town_kana":"カミノダイ","prefecture_code":4},"0517":{"zip_code":"9890517","prefecture":"宮城県","prefecture_kana":"ミヤギケン","city":"刈田郡七ヶ宿町","city_kana":"カッタグンシチカシュクマチ","town":"上八合","town_kana":"カミハチゴウ","prefecture_code":4},"0519":[{"zip_code":"9890519","prefecture":"宮城県","prefecture_kana":"ミヤギケン","city":"刈田郡七ヶ宿町","city_kana":"カッタグンシチカシュクマチ","town":"神林山","town_kana":"カミバヤシヤマ","prefecture_code":4},{"zip_code":"9890519","prefecture":"宮城県","prefecture_kana":"ミヤギケン","city":"刈田郡七ヶ宿町","city_kana":"カッタグンシチカシュクマチ","town":"諏訪原","town_kana":"スワバラ","prefecture_code":4}],"0513":{"zip_code":"9890513","prefecture":"宮城県","prefecture_kana":"ミヤギケン","city":"刈田郡七ヶ宿町","city_kana":"カッタグンシチカシュクマチ","town":"上町尻","town_kana":"カミマチジリ","prefecture_code":4},"0527":{"zip_code":"9890527","prefecture":"宮城県","prefecture_kana":"ミヤギケン","city":"刈田郡七ヶ宿町","city_kana":"カッタグンシチカシュクマチ","town":"烏川岳","town_kana":"カラスガワダケ","prefecture_code":4},"0664":{"zip_code":"9890664","prefecture":"宮城県","prefecture_kana":"ミヤギケン","city":"刈田郡七ヶ宿町","city_kana":"カッタグンシチカシュクマチ","town":"行人原道上","town_kana":"ギョウニンハラミチウエ","prefecture_code":4},"0536":{"zip_code":"9890536","prefecture":"宮城県","prefecture_kana":"ミヤギケン","city":"刈田郡七ヶ宿町","city_kana":"カッタグンシチカシュクマチ","town":"切通","town_kana":"キリトオシ","prefecture_code":4},"0561":{"zip_code":"9890561","prefecture":"宮城県","prefecture_kana":"ミヤギケン","city":"刈田郡七ヶ宿町","city_kana":"カッタグンシチカシュクマチ","town":"栗原","town_kana":"クリハラ","prefecture_code":4},"0634":{"zip_code":"9890634","prefecture":"宮城県","prefecture_kana":"ミヤギケン","city":"刈田郡七ヶ宿町","city_kana":"カッタグンシチカシュクマチ","town":"小駕籠沢","town_kana":"コカゴサワ","prefecture_code":4},"0628":{"zip_code":"9890628","prefecture":"宮城県","prefecture_kana":"ミヤギケン","city":"刈田郡七ヶ宿町","city_kana":"カッタグンシチカシュクマチ","town":"境ノ沢","town_kana":"サカイノサワ","prefecture_code":4},"0661":{"zip_code":"9890661","prefecture":"宮城県","prefecture_kana":"ミヤギケン","city":"刈田郡七ヶ宿町","city_kana":"カッタグンシチカシュクマチ","town":"坂ノ上","town_kana":"サカノウエ","prefecture_code":4},"0627":{"zip_code":"9890627","prefecture":"宮城県","prefecture_kana":"ミヤギケン","city":"刈田郡七ヶ宿町","city_kana":"カッタグンシチカシュクマチ","town":"坂ノ下","town_kana":"サカノシタ","prefecture_code":4},"0528":{"zip_code":"9890528","prefecture":"宮城県","prefecture_kana":"ミヤギケン","city":"刈田郡七ヶ宿町","city_kana":"カッタグンシチカシュクマチ","town":"沢上山","town_kana":"サワガミヤマ","prefecture_code":4},"0541":{"zip_code":"9890541","prefecture":"宮城県","prefecture_kana":"ミヤギケン","city":"刈田郡七ヶ宿町","city_kana":"カッタグンシチカシュクマチ","town":"仕切目","town_kana":"シキリメ","prefecture_code":4},"0542":{"zip_code":"9890542","prefecture":"宮城県","prefecture_kana":"ミヤギケン","city":"刈田郡七ヶ宿町","city_kana":"カッタグンシチカシュクマチ","town":"島木野","town_kana":"シマギノ","prefecture_code":4},"0518":{"zip_code":"9890518","prefecture":"宮城県","prefecture_kana":"ミヤギケン","city":"刈田郡七ヶ宿町","city_kana":"カッタグンシチカシュクマチ","town":"下八合","town_kana":"シモハチゴウ","prefecture_code":4},"0514":{"zip_code":"9890514","prefecture":"宮城県","prefecture_kana":"ミヤギケン","city":"刈田郡七ヶ宿町","city_kana":"カッタグンシチカシュクマチ","town":"下町尻","town_kana":"シモマチジリ","prefecture_code":4},"0554":{"zip_code":"9890554","prefecture":"宮城県","prefecture_kana":"ミヤギケン","city":"刈田郡七ヶ宿町","city_kana":"カッタグンシチカシュクマチ","town":"陳ノ窪","town_kana":"ジンノクボ","prefecture_code":4},"0521":{"zip_code":"9890521","prefecture":"宮城県","prefecture_kana":"ミヤギケン","city":"刈田郡七ヶ宿町","city_kana":"カッタグンシチカシュクマチ","town":"新雷神","town_kana":"シンライジン","prefecture_code":4},"0616":{"zip_code":"9890616","prefecture":"宮城県","prefecture_kana":"ミヤギケン","city":"刈田郡七ヶ宿町","city_kana":"カッタグンシチカシュクマチ","town":"薄沢口","town_kana":"ススキザワグチ","prefecture_code":4},"0512":{"zip_code":"9890512","prefecture":"宮城県","prefecture_kana":"ミヤギケン","city":"刈田郡七ヶ宿町","city_kana":"カッタグンシチカシュクマチ","town":"関","town_kana":"セキ","prefecture_code":4},"0617":{"zip_code":"9890617","prefecture":"宮城県","prefecture_kana":"ミヤギケン","city":"刈田郡七ヶ宿町","city_kana":"カッタグンシチカシュクマチ","town":"滝下","town_kana":"タキシタ","prefecture_code":4},"0555":[{"zip_code":"9890555","prefecture":"宮城県","prefecture_kana":"ミヤギケン","city":"刈田郡七ヶ宿町","city_kana":"カッタグンシチカシュクマチ","town":"滝ノ上","town_kana":"タキノウエ","prefecture_code":4},{"zip_code":"9890555","prefecture":"宮城県","prefecture_kana":"ミヤギケン","city":"刈田郡七ヶ宿町","city_kana":"カッタグンシチカシュクマチ","town":"水上口","town_kana":"ミズカミグチ","prefecture_code":4}],"0523":{"zip_code":"9890523","prefecture":"宮城県","prefecture_kana":"ミヤギケン","city":"刈田郡七ヶ宿町","city_kana":"カッタグンシチカシュクマチ","town":"館下","town_kana":"タテシタ","prefecture_code":4},"0633":{"zip_code":"9890633","prefecture":"宮城県","prefecture_kana":"ミヤギケン","city":"刈田郡七ヶ宿町","city_kana":"カッタグンシチカシュクマチ","town":"田中道上","town_kana":"タナカミチウエ","prefecture_code":4},"0632":{"zip_code":"9890632","prefecture":"宮城県","prefecture_kana":"ミヤギケン","city":"刈田郡七ヶ宿町","city_kana":"カッタグンシチカシュクマチ","town":"田中道下","town_kana":"タナカミチシタ","prefecture_code":4},"0655":{"zip_code":"9890655","prefecture":"宮城県","prefecture_kana":"ミヤギケン","city":"刈田郡七ヶ宿町","city_kana":"カッタグンシチカシュクマチ","town":"壇前","town_kana":"ダンノマエ","prefecture_code":4},"0508":{"zip_code":"9890508","prefecture":"宮城県","prefecture_kana":"ミヤギケン","city":"刈田郡七ヶ宿町","city_kana":"カッタグンシチカシュクマチ","town":"長老","town_kana":"チョウロウ","prefecture_code":4},"0602":{"zip_code":"9890602","prefecture":"宮城県","prefecture_kana":"ミヤギケン","city":"刈田郡七ヶ宿町","city_kana":"カッタグンシチカシュクマチ","town":"寺跡","town_kana":"テラアト","prefecture_code":4},"0654":{"zip_code":"9890654","prefecture":"宮城県","prefecture_kana":"ミヤギケン","city":"刈田郡七ヶ宿町","city_kana":"カッタグンシチカシュクマチ","town":"寺前","town_kana":"テラマエ","prefecture_code":4},"0621":{"zip_code":"9890621","prefecture":"宮城県","prefecture_kana":"ミヤギケン","city":"刈田郡七ヶ宿町","city_kana":"カッタグンシチカシュクマチ","town":"峠田","town_kana":"トウゲタ","prefecture_code":4},"0625":{"zip_code":"9890625","prefecture":"宮城県","prefecture_kana":"ミヤギケン","city":"刈田郡七ヶ宿町","city_kana":"カッタグンシチカシュクマチ","town":"峠田愛宕下","town_kana":"トウゲタアタゴシタ","prefecture_code":4},"0622":{"zip_code":"9890622","prefecture":"宮城県","prefecture_kana":"ミヤギケン","city":"刈田郡七ヶ宿町","city_kana":"カッタグンシチカシュクマチ","town":"峠田町頭","town_kana":"トウゲタマチカシラ","prefecture_code":4},"0614":{"zip_code":"9890614","prefecture":"宮城県","prefecture_kana":"ミヤギケン","city":"刈田郡七ヶ宿町","city_kana":"カッタグンシチカシュクマチ","town":"中川原","town_kana":"ナカガワハラ","prefecture_code":4},"0547":{"zip_code":"9890547","prefecture":"宮城県","prefecture_kana":"ミヤギケン","city":"刈田郡七ヶ宿町","city_kana":"カッタグンシチカシュクマチ","town":"中之沢","town_kana":"ナカノサワ","prefecture_code":4},"0544":[{"zip_code":"9890544","prefecture":"宮城県","prefecture_kana":"ミヤギケン","city":"刈田郡七ヶ宿町","city_kana":"カッタグンシチカシュクマチ","town":"中ノ沢原道下","town_kana":"ナカノサワハラミチシタ","prefecture_code":4},{"zip_code":"9890544","prefecture":"宮城県","prefecture_kana":"ミヤギケン","city":"刈田郡七ヶ宿町","city_kana":"カッタグンシチカシュクマチ","town":"原谷地際","town_kana":"ハラヤチギワ","prefecture_code":4}],"0535":[{"zip_code":"9890535","prefecture":"宮城県","prefecture_kana":"ミヤギケン","city":"刈田郡七ヶ宿町","city_kana":"カッタグンシチカシュクマチ","town":"夏梨平","town_kana":"ナツナシダイラ","prefecture_code":4},{"zip_code":"9890535","prefecture":"宮城県","prefecture_kana":"ミヤギケン","city":"刈田郡七ヶ宿町","city_kana":"カッタグンシチカシュクマチ","town":"野沢倉山","town_kana":"ノザワクラヤマ","prefecture_code":4}],"0549":{"zip_code":"9890549","prefecture":"宮城県","prefecture_kana":"ミヤギケン","city":"刈田郡七ヶ宿町","city_kana":"カッタグンシチカシュクマチ","town":"滑津","town_kana":"ナメツ","prefecture_code":4},"0552":{"zip_code":"9890552","prefecture":"宮城県","prefecture_kana":"ミヤギケン","city":"刈田郡七ヶ宿町","city_kana":"カッタグンシチカシュクマチ","town":"苗代端","town_kana":"ナワシロバタ","prefecture_code":4},"0502":[{"zip_code":"9890502","prefecture":"宮城県","prefecture_kana":"ミヤギケン","city":"刈田郡七ヶ宿町","city_kana":"カッタグンシチカシュクマチ","town":"西町裏","town_kana":"ニシマチウラ","prefecture_code":4},{"zip_code":"9890502","prefecture":"宮城県","prefecture_kana":"ミヤギケン","city":"刈田郡七ヶ宿町","city_kana":"カッタグンシチカシュクマチ","town":"横川原","town_kana":"ヨコカワハラ","prefecture_code":4}],"0557":{"zip_code":"9890557","prefecture":"宮城県","prefecture_kana":"ミヤギケン","city":"刈田郡七ヶ宿町","city_kana":"カッタグンシチカシュクマチ","town":"西森下","town_kana":"ニシモリシタ","prefecture_code":4},"0615":{"zip_code":"9890615","prefecture":"宮城県","prefecture_kana":"ミヤギケン","city":"刈田郡七ヶ宿町","city_kana":"カッタグンシチカシュクマチ","town":"沼田","town_kana":"ヌマタ","prefecture_code":4},"0532":{"zip_code":"9890532","prefecture":"宮城県","prefecture_kana":"ミヤギケン","city":"刈田郡七ヶ宿町","city_kana":"カッタグンシチカシュクマチ","town":"根添","town_kana":"ネゾエ","prefecture_code":4},"0545":{"zip_code":"9890545","prefecture":"宮城県","prefecture_kana":"ミヤギケン","city":"刈田郡七ヶ宿町","city_kana":"カッタグンシチカシュクマチ","town":"原道上","town_kana":"ハラミチウエ","prefecture_code":4},"0546":{"zip_code":"9890546","prefecture":"宮城県","prefecture_kana":"ミヤギケン","city":"刈田郡七ヶ宿町","city_kana":"カッタグンシチカシュクマチ","town":"原道下","town_kana":"ハラミチシタ","prefecture_code":4},"0666":{"zip_code":"9890666","prefecture":"宮城県","prefecture_kana":"ミヤギケン","city":"刈田郡七ヶ宿町","city_kana":"カッタグンシチカシュクマチ","town":"干蒲","town_kana":"ヒカバ","prefecture_code":4},"0651":{"zip_code":"9890651","prefecture":"宮城県","prefecture_kana":"ミヤギケン","city":"刈田郡七ヶ宿町","city_kana":"カッタグンシチカシュクマチ","town":"東口道上","town_kana":"ヒガシグチミチウエ","prefecture_code":4},"0652":{"zip_code":"9890652","prefecture":"宮城県","prefecture_kana":"ミヤギケン","city":"刈田郡七ヶ宿町","city_kana":"カッタグンシチカシュクマチ","town":"東口道下","town_kana":"ヒガシグチミチシタ","prefecture_code":4},"0663":{"zip_code":"9890663","prefecture":"宮城県","prefecture_kana":"ミヤギケン","city":"刈田郡七ヶ宿町","city_kana":"カッタグンシチカシュクマチ","town":"東沢","town_kana":"ヒガシサワ","prefecture_code":4},"0641":{"zip_code":"9890641","prefecture":"宮城県","prefecture_kana":"ミヤギケン","city":"刈田郡七ヶ宿町","city_kana":"カッタグンシチカシュクマチ","town":"程ヶ沢","town_kana":"ホドガサワ","prefecture_code":4},"0657":{"zip_code":"9890657","prefecture":"宮城県","prefecture_kana":"ミヤギケン","city":"刈田郡七ヶ宿町","city_kana":"カッタグンシチカシュクマチ","town":"町裏","town_kana":"マチウラ","prefecture_code":4},"0515":[{"zip_code":"9890515","prefecture":"宮城県","prefecture_kana":"ミヤギケン","city":"刈田郡七ヶ宿町","city_kana":"カッタグンシチカシュクマチ","town":"町尻","town_kana":"マチジリ","prefecture_code":4},{"zip_code":"9890515","prefecture":"宮城県","prefecture_kana":"ミヤギケン","city":"刈田郡七ヶ宿町","city_kana":"カッタグンシチカシュクマチ","town":"宮前","town_kana":"ミヤマエ","prefecture_code":4}],"0511":{"zip_code":"9890511","prefecture":"宮城県","prefecture_kana":"ミヤギケン","city":"刈田郡七ヶ宿町","city_kana":"カッタグンシチカシュクマチ","town":"松原","town_kana":"マツバラ","prefecture_code":4},"0612":{"zip_code":"9890612","prefecture":"宮城県","prefecture_kana":"ミヤギケン","city":"刈田郡七ヶ宿町","city_kana":"カッタグンシチカシュクマチ","town":"侭ノ上","town_kana":"ママノウエ","prefecture_code":4},"0665":{"zip_code":"9890665","prefecture":"宮城県","prefecture_kana":"ミヤギケン","city":"刈田郡七ヶ宿町","city_kana":"カッタグンシチカシュクマチ","town":"侭ノ上地蔵前","town_kana":"ママノウエジゾウマエ","prefecture_code":4},"0667":{"zip_code":"9890667","prefecture":"宮城県","prefecture_kana":"ミヤギケン","city":"刈田郡七ヶ宿町","city_kana":"カッタグンシチカシュクマチ","town":"水下道上","town_kana":"ミズシタミチウエ","prefecture_code":4},"0658":{"zip_code":"9890658","prefecture":"宮城県","prefecture_kana":"ミヤギケン","city":"刈田郡七ヶ宿町","city_kana":"カッタグンシチカシュクマチ","town":"南浦畑","town_kana":"ミナミウラハタ","prefecture_code":4},"0624":{"zip_code":"9890624","prefecture":"宮城県","prefecture_kana":"ミヤギケン","city":"刈田郡七ヶ宿町","city_kana":"カッタグンシチカシュクマチ","town":"明神下","town_kana":"ミョウジンシタ","prefecture_code":4},"0526":{"zip_code":"9890526","prefecture":"宮城県","prefecture_kana":"ミヤギケン","city":"刈田郡七ヶ宿町","city_kana":"カッタグンシチカシュクマチ","town":"明神前","town_kana":"ミョウジンマエ","prefecture_code":4},"0601":{"zip_code":"9890601","prefecture":"宮城県","prefecture_kana":"ミヤギケン","city":"刈田郡七ヶ宿町","city_kana":"カッタグンシチカシュクマチ","town":"茂ヶ沢","town_kana":"モガザワ","prefecture_code":4},"0626":{"zip_code":"9890626","prefecture":"宮城県","prefecture_kana":"ミヤギケン","city":"刈田郡七ヶ宿町","city_kana":"カッタグンシチカシュクマチ","town":"茂庭道","town_kana":"モニワミチ","prefecture_code":4},"0531":{"zip_code":"9890531","prefecture":"宮城県","prefecture_kana":"ミヤギケン","city":"刈田郡七ヶ宿町","city_kana":"カッタグンシチカシュクマチ","town":"矢立","town_kana":"ヤタテ","prefecture_code":4},"0533":{"zip_code":"9890533","prefecture":"宮城県","prefecture_kana":"ミヤギケン","city":"刈田郡七ヶ宿町","city_kana":"カッタグンシチカシュクマチ","town":"矢立平","town_kana":"ヤタテダイラ","prefecture_code":4},"0551":{"zip_code":"9890551","prefecture":"宮城県","prefecture_kana":"ミヤギケン","city":"刈田郡七ヶ宿町","city_kana":"カッタグンシチカシュクマチ","town":"八ツ森","town_kana":"ヤツモリ","prefecture_code":4},"0548":{"zip_code":"9890548","prefecture":"宮城県","prefecture_kana":"ミヤギケン","city":"刈田郡七ヶ宿町","city_kana":"カッタグンシチカシュクマチ","town":"八ツ分","town_kana":"ヤツワケ","prefecture_code":4},"0656":{"zip_code":"9890656","prefecture":"宮城県","prefecture_kana":"ミヤギケン","city":"刈田郡七ヶ宿町","city_kana":"カッタグンシチカシュクマチ","town":"柳沢山国有林","town_kana":"ヤナギサワヤマコクユウリン","prefecture_code":4},"0611":{"zip_code":"9890611","prefecture":"宮城県","prefecture_kana":"ミヤギケン","city":"刈田郡七ヶ宿町","city_kana":"カッタグンシチカシュクマチ","town":"山伏坂","town_kana":"ヤマブシサカ","prefecture_code":4},"0653":{"zip_code":"9890653","prefecture":"宮城県","prefecture_kana":"ミヤギケン","city":"刈田郡七ヶ宿町","city_kana":"カッタグンシチカシュクマチ","town":"湯原","town_kana":"ユノハラ","prefecture_code":4},"0503":{"zip_code":"9890503","prefecture":"宮城県","prefecture_kana":"ミヤギケン","city":"刈田郡七ヶ宿町","city_kana":"カッタグンシチカシュクマチ","town":"横川","town_kana":"ヨコカワ","prefecture_code":4},"0525":{"zip_code":"9890525","prefecture":"宮城県","prefecture_kana":"ミヤギケン","city":"刈田郡七ヶ宿町","city_kana":"カッタグンシチカシュクマチ","town":"利津保","town_kana":"リツホ","prefecture_code":4},"0636":{"zip_code":"9890636","prefecture":"宮城県","prefecture_kana":"ミヤギケン","city":"刈田郡七ヶ宿町","city_kana":"カッタグンシチカシュクマチ","town":"六本杉","town_kana":"ロッポンスギ","prefecture_code":4},"0534":{"zip_code":"9890534","prefecture":"宮城県","prefecture_kana":"ミヤギケン","city":"刈田郡七ヶ宿町","city_kana":"カッタグンシチカシュクマチ","town":"若林山","town_kana":"ワカバヤシヤマ","prefecture_code":4},"0642":{"zip_code":"9890642","prefecture":"宮城県","prefecture_kana":"ミヤギケン","city":"刈田郡七ヶ宿町","city_kana":"カッタグンシチカシュクマチ","town":"割付","town_kana":"ワリツケ","prefecture_code":4},"1200":{"zip_code":"9891200","prefecture":"宮城県","prefecture_kana":"ミヤギケン","city":"柴田郡大河原町","city_kana":"シバタグンオオガワラマチ","town":"","town_kana":"","prefecture_code":4},"1203":{"zip_code":"9891203","prefecture":"宮城県","prefecture_kana":"ミヤギケン","city":"柴田郡大河原町","city_kana":"シバタグンオオガワラマチ","town":"旭町","town_kana":"アサヒチョウ","prefecture_code":4},"1237":{"zip_code":"9891237","prefecture":"宮城県","prefecture_kana":"ミヤギケン","city":"柴田郡大河原町","city_kana":"シバタグンオオガワラマチ","town":"荒町","town_kana":"アラマチ","prefecture_code":4},"1205":{"zip_code":"9891205","prefecture":"宮城県","prefecture_kana":"ミヤギケン","city":"柴田郡大河原町","city_kana":"シバタグンオオガワラマチ","town":"大芝","town_kana":"オオシバ","prefecture_code":4},"1204":{"zip_code":"9891204","prefecture":"宮城県","prefecture_kana":"ミヤギケン","city":"柴田郡大河原町","city_kana":"シバタグンオオガワラマチ","town":"大竜","town_kana":"オオタツ","prefecture_code":4},"1261":{"zip_code":"9891261","prefecture":"宮城県","prefecture_kana":"ミヤギケン","city":"柴田郡大河原町","city_kana":"シバタグンオオガワラマチ","town":"大巻","town_kana":"オオマキ","prefecture_code":4},"1201":{"zip_code":"9891201","prefecture":"宮城県","prefecture_kana":"ミヤギケン","city":"柴田郡大河原町","city_kana":"シバタグンオオガワラマチ","town":"大谷","town_kana":"オオヤ","prefecture_code":4},"1263":{"zip_code":"9891263","prefecture":"宮城県","prefecture_kana":"ミヤギケン","city":"柴田郡大河原町","city_kana":"シバタグンオオガワラマチ","town":"大谷地","town_kana":"オオヤチ","prefecture_code":4},"1267":{"zip_code":"9891267","prefecture":"宮城県","prefecture_kana":"ミヤギケン","city":"柴田郡大河原町","city_kana":"シバタグンオオガワラマチ","town":"小島","town_kana":"オシマ","prefecture_code":4},"1258":{"zip_code":"9891258","prefecture":"宮城県","prefecture_kana":"ミヤギケン","city":"柴田郡大河原町","city_kana":"シバタグンオオガワラマチ","town":"小山田","town_kana":"オヤマダ","prefecture_code":4},"1249":{"zip_code":"9891249","prefecture":"宮城県","prefecture_kana":"ミヤギケン","city":"柴田郡大河原町","city_kana":"シバタグンオオガワラマチ","town":"海道東","town_kana":"カイドウヒガシ","prefecture_code":4},"1224":{"zip_code":"9891224","prefecture":"宮城県","prefecture_kana":"ミヤギケン","city":"柴田郡大河原町","city_kana":"シバタグンオオガワラマチ","town":"金ケ瀬","town_kana":"カナガセ","prefecture_code":4},"1233":{"zip_code":"9891233","prefecture":"宮城県","prefecture_kana":"ミヤギケン","city":"柴田郡大河原町","city_kana":"シバタグンオオガワラマチ","town":"上川原","town_kana":"カミカワラ","prefecture_code":4},"1207":{"zip_code":"9891207","prefecture":"宮城県","prefecture_kana":"ミヤギケン","city":"柴田郡大河原町","city_kana":"シバタグンオオガワラマチ","town":"川瀬町","town_kana":"カワセチョウ","prefecture_code":4},"1214":{"zip_code":"9891214","prefecture":"宮城県","prefecture_kana":"ミヤギケン","city":"柴田郡大河原町","city_kana":"シバタグンオオガワラマチ","town":"甲子町","town_kana":"キノイネチョウ","prefecture_code":4},"1216":{"zip_code":"9891216","prefecture":"宮城県","prefecture_kana":"ミヤギケン","city":"柴田郡大河原町","city_kana":"シバタグンオオガワラマチ","town":"幸町","town_kana":"サイワイチョウ","prefecture_code":4},"1264":{"zip_code":"9891264","prefecture":"宮城県","prefecture_kana":"ミヤギケン","city":"柴田郡大河原町","city_kana":"シバタグンオオガワラマチ","town":"新青川","town_kana":"シンアオカワ","prefecture_code":4},"1274":{"zip_code":"9891274","prefecture":"宮城県","prefecture_kana":"ミヤギケン","city":"柴田郡大河原町","city_kana":"シバタグンオオガワラマチ","town":"新桜町","town_kana":"シンサクラチョウ","prefecture_code":4},"1234":{"zip_code":"9891234","prefecture":"宮城県","prefecture_kana":"ミヤギケン","city":"柴田郡大河原町","city_kana":"シバタグンオオガワラマチ","town":"新古川","town_kana":"シンフルカワ","prefecture_code":4},"1246":{"zip_code":"9891246","prefecture":"宮城県","prefecture_kana":"ミヤギケン","city":"柴田郡大河原町","city_kana":"シバタグンオオガワラマチ","town":"新東","town_kana":"シンヒガシ","prefecture_code":4},"1245":{"zip_code":"9891245","prefecture":"宮城県","prefecture_kana":"ミヤギケン","city":"柴田郡大河原町","city_kana":"シバタグンオオガワラマチ","town":"新南","town_kana":"シンミナミ","prefecture_code":4},"1213":{"zip_code":"9891213","prefecture":"宮城県","prefecture_kana":"ミヤギケン","city":"柴田郡大河原町","city_kana":"シバタグンオオガワラマチ","town":"住吉町","town_kana":"スミヨシチョウ","prefecture_code":4},"1266":{"zip_code":"9891266","prefecture":"宮城県","prefecture_kana":"ミヤギケン","city":"柴田郡大河原町","city_kana":"シバタグンオオガワラマチ","town":"千塚前","town_kana":"センツカマエ","prefecture_code":4},"1255":{"zip_code":"9891255","prefecture":"宮城県","prefecture_kana":"ミヤギケン","city":"柴田郡大河原町","city_kana":"シバタグンオオガワラマチ","town":"袖谷地","town_kana":"ソデヤチ","prefecture_code":4},"1202":{"zip_code":"9891202","prefecture":"宮城県","prefecture_kana":"ミヤギケン","city":"柴田郡大河原町","city_kana":"シバタグンオオガワラマチ","town":"高砂町","town_kana":"タカサゴチョウ","prefecture_code":4},"1256":{"zip_code":"9891256","prefecture":"宮城県","prefecture_kana":"ミヤギケン","city":"柴田郡大河原町","city_kana":"シバタグンオオガワラマチ","town":"堤","town_kana":"ツツミ","prefecture_code":4},"1248":{"zip_code":"9891248","prefecture":"宮城県","prefecture_kana":"ミヤギケン","city":"柴田郡大河原町","city_kana":"シバタグンオオガワラマチ","town":"土手崎","town_kana":"ドテザキ","prefecture_code":4},"1231":{"zip_code":"9891231","prefecture":"宮城県","prefecture_kana":"ミヤギケン","city":"柴田郡大河原町","city_kana":"シバタグンオオガワラマチ","town":"中川原","town_kana":"ナカガワラ","prefecture_code":4},"1215":{"zip_code":"9891215","prefecture":"宮城県","prefecture_kana":"ミヤギケン","city":"柴田郡大河原町","city_kana":"シバタグンオオガワラマチ","town":"中島町","town_kana":"ナカジマチョウ","prefecture_code":4},"1206":{"zip_code":"9891206","prefecture":"宮城県","prefecture_kana":"ミヤギケン","city":"柴田郡大河原町","city_kana":"シバタグンオオガワラマチ","town":"中の倉","town_kana":"ナカノクラ","prefecture_code":4},"1222":{"zip_code":"9891222","prefecture":"宮城県","prefecture_kana":"ミヤギケン","city":"柴田郡大河原町","city_kana":"シバタグンオオガワラマチ","town":"南平","town_kana":"ナンペイ","prefecture_code":4},"1253":{"zip_code":"9891253","prefecture":"宮城県","prefecture_kana":"ミヤギケン","city":"柴田郡大河原町","city_kana":"シバタグンオオガワラマチ","town":"西","town_kana":"ニシ","prefecture_code":4},"1242":{"zip_code":"9891242","prefecture":"宮城県","prefecture_kana":"ミヤギケン","city":"柴田郡大河原町","city_kana":"シバタグンオオガワラマチ","town":"西浦","town_kana":"ニシウラ","prefecture_code":4},"1217":{"zip_code":"9891217","prefecture":"宮城県","prefecture_kana":"ミヤギケン","city":"柴田郡大河原町","city_kana":"シバタグンオオガワラマチ","town":"錦町","town_kana":"ニシキチョウ","prefecture_code":4},"1273":{"zip_code":"9891273","prefecture":"宮城県","prefecture_kana":"ミヤギケン","city":"柴田郡大河原町","city_kana":"シバタグンオオガワラマチ","town":"西桜町","town_kana":"ニシサクラチョウ","prefecture_code":4},"1244":{"zip_code":"9891244","prefecture":"宮城県","prefecture_kana":"ミヤギケン","city":"柴田郡大河原町","city_kana":"シバタグンオオガワラマチ","town":"西町","town_kana":"ニシマチ","prefecture_code":4},"1257":{"zip_code":"9891257","prefecture":"宮城県","prefecture_kana":"ミヤギケン","city":"柴田郡大河原町","city_kana":"シバタグンオオガワラマチ","town":"新寺","town_kana":"ニッテラ","prefecture_code":4},"1254":{"zip_code":"9891254","prefecture":"宮城県","prefecture_kana":"ミヤギケン","city":"柴田郡大河原町","city_kana":"シバタグンオオガワラマチ","town":"沼","town_kana":"ヌマ","prefecture_code":4},"1251":{"zip_code":"9891251","prefecture":"宮城県","prefecture_kana":"ミヤギケン","city":"柴田郡大河原町","city_kana":"シバタグンオオガワラマチ","town":"橋本","town_kana":"ハシモト","prefecture_code":4},"1247":{"zip_code":"9891247","prefecture":"宮城県","prefecture_kana":"ミヤギケン","city":"柴田郡大河原町","city_kana":"シバタグンオオガワラマチ","town":"東","town_kana":"ヒガシ","prefecture_code":4},"1271":{"zip_code":"9891271","prefecture":"宮城県","prefecture_kana":"ミヤギケン","city":"柴田郡大河原町","city_kana":"シバタグンオオガワラマチ","town":"東桜町","town_kana":"ヒガシサクラチョウ","prefecture_code":4},"1223":{"zip_code":"9891223","prefecture":"宮城県","prefecture_kana":"ミヤギケン","city":"柴田郡大河原町","city_kana":"シバタグンオオガワラマチ","town":"東新町","town_kana":"ヒガシシンチョウ","prefecture_code":4},"1236":{"zip_code":"9891236","prefecture":"宮城県","prefecture_kana":"ミヤギケン","city":"柴田郡大河原町","city_kana":"シバタグンオオガワラマチ","town":"東原町","town_kana":"ヒガシハラマチ","prefecture_code":4},"1225":{"zip_code":"9891225","prefecture":"宮城県","prefecture_kana":"ミヤギケン","city":"柴田郡大河原町","city_kana":"シバタグンオオガワラマチ","town":"広表","town_kana":"ヒロオモテ","prefecture_code":4},"1211":{"zip_code":"9891211","prefecture":"宮城県","prefecture_kana":"ミヤギケン","city":"柴田郡大河原町","city_kana":"シバタグンオオガワラマチ","town":"広瀬町","town_kana":"ヒロセチョウ","prefecture_code":4},"1259":{"zip_code":"9891259","prefecture":"宮城県","prefecture_kana":"ミヤギケン","city":"柴田郡大河原町","city_kana":"シバタグンオオガワラマチ","town":"福田","town_kana":"フクダ","prefecture_code":4},"1241":{"zip_code":"9891241","prefecture":"宮城県","prefecture_kana":"ミヤギケン","city":"柴田郡大河原町","city_kana":"シバタグンオオガワラマチ","town":"町","town_kana":"マチ","prefecture_code":4},"1221":{"zip_code":"9891221","prefecture":"宮城県","prefecture_kana":"ミヤギケン","city":"柴田郡大河原町","city_kana":"シバタグンオオガワラマチ","town":"緑町","town_kana":"ミドリチョウ","prefecture_code":4},"1243":{"zip_code":"9891243","prefecture":"宮城県","prefecture_kana":"ミヤギケン","city":"柴田郡大河原町","city_kana":"シバタグンオオガワラマチ","town":"南","town_kana":"ミナミ","prefecture_code":4},"1232":{"zip_code":"9891232","prefecture":"宮城県","prefecture_kana":"ミヤギケン","city":"柴田郡大河原町","city_kana":"シバタグンオオガワラマチ","town":"南海道下","town_kana":"ミナミカイドウシタ","prefecture_code":4},"1272":{"zip_code":"9891272","prefecture":"宮城県","prefecture_kana":"ミヤギケン","city":"柴田郡大河原町","city_kana":"シバタグンオオガワラマチ","town":"南桜町","town_kana":"ミナミサクラチョウ","prefecture_code":4},"1235":{"zip_code":"9891235","prefecture":"宮城県","prefecture_kana":"ミヤギケン","city":"柴田郡大河原町","city_kana":"シバタグンオオガワラマチ","town":"南原町","town_kana":"ミナミハラマチ","prefecture_code":4},"1252":{"zip_code":"9891252","prefecture":"宮城県","prefecture_kana":"ミヤギケン","city":"柴田郡大河原町","city_kana":"シバタグンオオガワラマチ","town":"八乙女","town_kana":"ヤオトメ","prefecture_code":4},"1212":{"zip_code":"9891212","prefecture":"宮城県","prefecture_kana":"ミヤギケン","city":"柴田郡大河原町","city_kana":"シバタグンオオガワラマチ","town":"山崎町","town_kana":"ヤマザキチョウ","prefecture_code":4},"1300":{"zip_code":"9891300","prefecture":"宮城県","prefecture_kana":"ミヤギケン","city":"柴田郡村田町","city_kana":"シバタグンムラタマチ","town":"","town_kana":"","prefecture_code":4},"1511":{"zip_code":"9891511","prefecture":"宮城県","prefecture_kana":"ミヤギケン","city":"柴田郡村田町","city_kana":"シバタグンムラタマチ","town":"足立北向","town_kana":"アシタテキタムキ","prefecture_code":4},"1311":{"zip_code":"9891311","prefecture":"宮城県","prefecture_kana":"ミヤギケン","city":"柴田郡村田町","city_kana":"シバタグンムラタマチ","town":"足立","town_kana":"アシタテ","prefecture_code":4},"1303":{"zip_code":"9891303","prefecture":"宮城県","prefecture_kana":"ミヤギケン","city":"柴田郡村田町","city_kana":"シバタグンムラタマチ","town":"薄木","town_kana":"ウスギ","prefecture_code":4},"1302":{"zip_code":"9891302","prefecture":"宮城県","prefecture_kana":"ミヤギケン","city":"柴田郡村田町","city_kana":"シバタグンムラタマチ","town":"小泉","town_kana":"コイズミ","prefecture_code":4},"1301":{"zip_code":"9891301","prefecture":"宮城県","prefecture_kana":"ミヤギケン","city":"柴田郡村田町","city_kana":"シバタグンムラタマチ","town":"菅生","town_kana":"スゴウ","prefecture_code":4},"1322":{"zip_code":"9891322","prefecture":"宮城県","prefecture_kana":"ミヤギケン","city":"柴田郡村田町","city_kana":"シバタグンムラタマチ","town":"関場","town_kana":"セキバ","prefecture_code":4},"1304":{"zip_code":"9891304","prefecture":"宮城県","prefecture_kana":"ミヤギケン","city":"柴田郡村田町","city_kana":"シバタグンムラタマチ","town":"西ケ丘","town_kana":"ニシガオカ","prefecture_code":4},"1323":{"zip_code":"9891323","prefecture":"宮城県","prefecture_kana":"ミヤギケン","city":"柴田郡村田町","city_kana":"シバタグンムラタマチ","town":"沼田","town_kana":"ヌマタ","prefecture_code":4},"1321":{"zip_code":"9891321","prefecture":"宮城県","prefecture_kana":"ミヤギケン","city":"柴田郡村田町","city_kana":"シバタグンムラタマチ","town":"沼辺","town_kana":"ヌマベ","prefecture_code":4},"1305":{"zip_code":"9891305","prefecture":"宮城県","prefecture_kana":"ミヤギケン","city":"柴田郡村田町","city_kana":"シバタグンムラタマチ","town":"村田","town_kana":"ムラタ","prefecture_code":4},"1600":{"zip_code":"9891600","prefecture":"宮城県","prefecture_kana":"ミヤギケン","city":"柴田郡柴田町","city_kana":"シバタグンシバタマチ","town":"","town_kana":"","prefecture_code":4},"1745":{"zip_code":"9891745","prefecture":"宮城県","prefecture_kana":"ミヤギケン","city":"柴田郡柴田町","city_kana":"シバタグンシバタマチ","town":"入間田","town_kana":"イリマダ","prefecture_code":4},"1762":{"zip_code":"9891762","prefecture":"宮城県","prefecture_kana":"ミヤギケン","city":"柴田郡柴田町","city_kana":"シバタグンシバタマチ","town":"海老穴","town_kana":"エビアナ","prefecture_code":4},"1742":{"zip_code":"9891742","prefecture":"宮城県","prefecture_kana":"ミヤギケン","city":"柴田郡柴田町","city_kana":"シバタグンシバタマチ","town":"上川名","town_kana":"カミカワナ","prefecture_code":4},"1611":{"zip_code":"9891611","prefecture":"宮城県","prefecture_kana":"ミヤギケン","city":"柴田郡柴田町","city_kana":"シバタグンシバタマチ","town":"上名生","town_kana":"カミノミョウ","prefecture_code":4},"1623":{"zip_code":"9891623","prefecture":"宮城県","prefecture_kana":"ミヤギケン","city":"柴田郡柴田町","city_kana":"シバタグンシバタマチ","town":"北船岡","town_kana":"キタフナオカ","prefecture_code":4},"1608":{"zip_code":"9891608","prefecture":"宮城県","prefecture_kana":"ミヤギケン","city":"柴田郡柴田町","city_kana":"シバタグンシバタマチ","town":"剣崎","town_kana":"ケンザキ","prefecture_code":4},"1764":{"zip_code":"9891764","prefecture":"宮城県","prefecture_kana":"ミヤギケン","city":"柴田郡柴田町","city_kana":"シバタグンシバタマチ","town":"小成田","town_kana":"コナリタ","prefecture_code":4},"1613":{"zip_code":"9891613","prefecture":"宮城県","prefecture_kana":"ミヤギケン","city":"柴田郡柴田町","city_kana":"シバタグンシバタマチ","town":"下名生","town_kana":"シモノミョウ","prefecture_code":4},"1756":{"zip_code":"9891756","prefecture":"宮城県","prefecture_kana":"ミヤギケン","city":"柴田郡柴田町","city_kana":"シバタグンシバタマチ","town":"槻木","town_kana":"ツキノキ","prefecture_code":4},"1758":{"zip_code":"9891758","prefecture":"宮城県","prefecture_kana":"ミヤギケン","city":"柴田郡柴田町","city_kana":"シバタグンシバタマチ","town":"槻木駅西","town_kana":"ツキノキエキニシ","prefecture_code":4},"1753":{"zip_code":"9891753","prefecture":"宮城県","prefecture_kana":"ミヤギケン","city":"柴田郡柴田町","city_kana":"シバタグンシバタマチ","town":"槻木上町","town_kana":"ツキノキカミマチ","prefecture_code":4},"1752":{"zip_code":"9891752","prefecture":"宮城県","prefecture_kana":"ミヤギケン","city":"柴田郡柴田町","city_kana":"シバタグンシバタマチ","town":"槻木下町","town_kana":"ツキノキシモマチ","prefecture_code":4},"1754":{"zip_code":"9891754","prefecture":"宮城県","prefecture_kana":"ミヤギケン","city":"柴田郡柴田町","city_kana":"シバタグンシバタマチ","town":"槻木白幡","town_kana":"ツキノキシラハタ","prefecture_code":4},"1751":{"zip_code":"9891751","prefecture":"宮城県","prefecture_kana":"ミヤギケン","city":"柴田郡柴田町","city_kana":"シバタグンシバタマチ","town":"槻木新町","town_kana":"ツキノキシンマチ","prefecture_code":4},"1755":{"zip_code":"9891755","prefecture":"宮城県","prefecture_kana":"ミヤギケン","city":"柴田郡柴田町","city_kana":"シバタグンシバタマチ","town":"槻木西","town_kana":"ツキノキニシ","prefecture_code":4},"1757":{"zip_code":"9891757","prefecture":"宮城県","prefecture_kana":"ミヤギケン","city":"柴田郡柴田町","city_kana":"シバタグンシバタマチ","town":"槻木東","town_kana":"ツキノキヒガシ","prefecture_code":4},"1741":{"zip_code":"9891741","prefecture":"宮城県","prefecture_kana":"ミヤギケン","city":"柴田郡柴田町","city_kana":"シバタグンシバタマチ","town":"富沢","town_kana":"トミザワ","prefecture_code":4},"1612":{"zip_code":"9891612","prefecture":"宮城県","prefecture_kana":"ミヤギケン","city":"柴田郡柴田町","city_kana":"シバタグンシバタマチ","town":"中名生","town_kana":"ナカノミョウ","prefecture_code":4},"1765":{"zip_code":"9891765","prefecture":"宮城県","prefecture_kana":"ミヤギケン","city":"柴田郡柴田町","city_kana":"シバタグンシバタマチ","town":"成田","town_kana":"ナリタ","prefecture_code":4},"1622":{"zip_code":"9891622","prefecture":"宮城県","prefecture_kana":"ミヤギケン","city":"柴田郡柴田町","city_kana":"シバタグンシバタマチ","town":"西船迫","town_kana":"ニシフナバサマ","prefecture_code":4},"1761":{"zip_code":"9891761","prefecture":"宮城県","prefecture_kana":"ミヤギケン","city":"柴田郡柴田町","city_kana":"シバタグンシバタマチ","town":"葉坂","town_kana":"ハザカ","prefecture_code":4},"1731":{"zip_code":"9891731","prefecture":"宮城県","prefecture_kana":"ミヤギケン","city":"柴田郡柴田町","city_kana":"シバタグンシバタマチ","town":"東船迫","town_kana":"ヒガシフナバサマ","prefecture_code":4},"1631":{"zip_code":"9891631","prefecture":"宮城県","prefecture_kana":"ミヤギケン","city":"柴田郡柴田町","city_kana":"シバタグンシバタマチ","town":"東船迫","town_kana":"ヒガシフナバサマ","prefecture_code":4},"1606":{"zip_code":"9891606","prefecture":"宮城県","prefecture_kana":"ミヤギケン","city":"柴田郡柴田町","city_kana":"シバタグンシバタマチ","town":"船岡","town_kana":"フナオカ","prefecture_code":4},"1607":{"zip_code":"9891607","prefecture":"宮城県","prefecture_kana":"ミヤギケン","city":"柴田郡柴田町","city_kana":"シバタグンシバタマチ","town":"船岡新栄","town_kana":"フナオカシンエイ","prefecture_code":4},"1601":{"zip_code":"9891601","prefecture":"宮城県","prefecture_kana":"ミヤギケン","city":"柴田郡柴田町","city_kana":"シバタグンシバタマチ","town":"船岡中央","town_kana":"フナオカチュウオウ","prefecture_code":4},"1602":{"zip_code":"9891602","prefecture":"宮城県","prefecture_kana":"ミヤギケン","city":"柴田郡柴田町","city_kana":"シバタグンシバタマチ","town":"船岡土手内","town_kana":"フナオカドテウチ","prefecture_code":4},"1604":{"zip_code":"9891604","prefecture":"宮城県","prefecture_kana":"ミヤギケン","city":"柴田郡柴田町","city_kana":"シバタグンシバタマチ","town":"船岡東","town_kana":"フナオカヒガシ","prefecture_code":4},"1603":{"zip_code":"9891603","prefecture":"宮城県","prefecture_kana":"ミヤギケン","city":"柴田郡柴田町","city_kana":"シバタグンシバタマチ","town":"船岡西","town_kana":"フナオカニシ","prefecture_code":4},"1605":{"zip_code":"9891605","prefecture":"宮城県","prefecture_kana":"ミヤギケン","city":"柴田郡柴田町","city_kana":"シバタグンシバタマチ","town":"船岡南","town_kana":"フナオカミナミ","prefecture_code":4},"1763":{"zip_code":"9891763","prefecture":"宮城県","prefecture_kana":"ミヤギケン","city":"柴田郡柴田町","city_kana":"シバタグンシバタマチ","town":"船迫","town_kana":"フナバサマ","prefecture_code":4},"1621":{"zip_code":"9891621","prefecture":"宮城県","prefecture_kana":"ミヤギケン","city":"柴田郡柴田町","city_kana":"シバタグンシバタマチ","town":"本船迫","town_kana":"ホンフナバサマ","prefecture_code":4},"1744":{"zip_code":"9891744","prefecture":"宮城県","prefecture_kana":"ミヤギケン","city":"柴田郡柴田町","city_kana":"シバタグンシバタマチ","town":"松ケ越","town_kana":"マツガゴシ","prefecture_code":4},"1746":{"zip_code":"9891746","prefecture":"宮城県","prefecture_kana":"ミヤギケン","city":"柴田郡柴田町","city_kana":"シバタグンシバタマチ","town":"ゆずが丘","town_kana":"ユズガオカ","prefecture_code":4},"1743":{"zip_code":"9891743","prefecture":"宮城県","prefecture_kana":"ミヤギケン","city":"柴田郡柴田町","city_kana":"シバタグンシバタマチ","town":"四日市場","town_kana":"ヨッカイチバ","prefecture_code":4},"1500":{"zip_code":"9891500","prefecture":"宮城県","prefecture_kana":"ミヤギケン","city":"柴田郡川崎町","city_kana":"シバタグンカワサキマチ","town":"","town_kana":"","prefecture_code":4},"0908":{"zip_code":"9890908","prefecture":"宮城県","prefecture_kana":"ミヤギケン","city":"柴田郡川崎町","city_kana":"シバタグンカワサキマチ","town":"青根温泉","town_kana":"アオネオンセン","prefecture_code":4},"1502":{"zip_code":"9891502","prefecture":"宮城県","prefecture_kana":"ミヤギケン","city":"柴田郡川崎町","city_kana":"シバタグンカワサキマチ","town":"今宿","town_kana":"イマシュク","prefecture_code":4},"1505":{"zip_code":"9891505","prefecture":"宮城県","prefecture_kana":"ミヤギケン","city":"柴田郡川崎町","city_kana":"シバタグンカワサキマチ","town":"小野","town_kana":"オノ","prefecture_code":4},"1503":{"zip_code":"9891503","prefecture":"宮城県","prefecture_kana":"ミヤギケン","city":"柴田郡川崎町","city_kana":"シバタグンカワサキマチ","town":"川内","town_kana":"カワウチ","prefecture_code":4},"1507":{"zip_code":"9891507","prefecture":"宮城県","prefecture_kana":"ミヤギケン","city":"柴田郡川崎町","city_kana":"シバタグンカワサキマチ","town":"支倉","town_kana":"ハセクラ","prefecture_code":4},"1506":{"zip_code":"9891506","prefecture":"宮城県","prefecture_kana":"ミヤギケン","city":"柴田郡川崎町","city_kana":"シバタグンカワサキマチ","town":"支倉台","town_kana":"ハセクラダイ","prefecture_code":4},"0901":[{"zip_code":"9890901","prefecture":"宮城県","prefecture_kana":"ミヤギケン","city":"柴田郡川崎町","city_kana":"シバタグンカワサキマチ","town":"前川青根","town_kana":"マエカワアオネ","prefecture_code":4},{"zip_code":"9890901","prefecture":"宮城県","prefecture_kana":"ミヤギケン","city":"柴田郡川崎町","city_kana":"シバタグンカワサキマチ","town":"前川手代塚山","town_kana":"マエカワテシロツカヤマ","prefecture_code":4},{"zip_code":"9890901","prefecture":"宮城県","prefecture_kana":"ミヤギケン","city":"柴田郡川崎町","city_kana":"シバタグンカワサキマチ","town":"前川沼ノ平山","town_kana":"マエカワヌマノタイヤマ","prefecture_code":4},{"zip_code":"9890901","prefecture":"宮城県","prefecture_kana":"ミヤギケン","city":"柴田郡川崎町","city_kana":"シバタグンカワサキマチ","town":"前川名号下山","town_kana":"マエカワミョウゴシタヤマ","prefecture_code":4},{"zip_code":"9890901","prefecture":"宮城県","prefecture_kana":"ミヤギケン","city":"柴田郡川崎町","city_kana":"シバタグンカワサキマチ","town":"前川権現塚","town_kana":"マエカワゴンゲンヅカ","prefecture_code":4},{"zip_code":"9890901","prefecture":"宮城県","prefecture_kana":"ミヤギケン","city":"柴田郡川崎町","city_kana":"シバタグンカワサキマチ","town":"前川火の塚山","town_kana":"マエカワヒノツカヤマ","prefecture_code":4},{"zip_code":"9890901","prefecture":"宮城県","prefecture_kana":"ミヤギケン","city":"柴田郡川崎町","city_kana":"シバタグンカワサキマチ","town":"前川峩々","town_kana":"マエカワガガ","prefecture_code":4}],"1501":{"zip_code":"9891501","prefecture":"宮城県","prefecture_kana":"ミヤギケン","city":"柴田郡川崎町","city_kana":"シバタグンカワサキマチ","town":"前川","town_kana":"マエカワ","prefecture_code":4},"1504":{"zip_code":"9891504","prefecture":"宮城県","prefecture_kana":"ミヤギケン","city":"柴田郡川崎町","city_kana":"シバタグンカワサキマチ","town":"本砂金","town_kana":"モトイサゴ","prefecture_code":4},"2300":{"zip_code":"9892300","prefecture":"宮城県","prefecture_kana":"ミヤギケン","city":"亘理郡亘理町","city_kana":"ワタリグンワタリチョウ","town":"","town_kana":"","prefecture_code":4},"2351":[{"zip_code":"9892351","prefecture":"宮城県","prefecture_kana":"ミヤギケン","city":"亘理郡亘理町","city_kana":"ワタリグンワタリチョウ","town":"旭","town_kana":"アサヒ","prefecture_code":4},{"zip_code":"9892351","prefecture":"宮城県","prefecture_kana":"ミヤギケン","city":"亘理郡亘理町","city_kana":"ワタリグンワタリチョウ","town":"旭山","town_kana":"アサヒヤマ","prefecture_code":4},{"zip_code":"9892351","prefecture":"宮城県","prefecture_kana":"ミヤギケン","city":"亘理郡亘理町","city_kana":"ワタリグンワタリチョウ","town":"油田","town_kana":"アブラデン","prefecture_code":4},{"zip_code":"9892351","prefecture":"宮城県","prefecture_kana":"ミヤギケン","city":"亘理郡亘理町","city_kana":"ワタリグンワタリチョウ","town":"五日町","town_kana":"イツカマチ","prefecture_code":4},{"zip_code":"9892351","prefecture":"宮城県","prefecture_kana":"ミヤギケン","city":"亘理郡亘理町","city_kana":"ワタリグンワタリチョウ","town":"祝田","town_kana":"イワイダ","prefecture_code":4},{"zip_code":"9892351","prefecture":"宮城県","prefecture_kana":"ミヤギケン","city":"亘理郡亘理町","city_kana":"ワタリグンワタリチョウ","town":"裏城戸","town_kana":"ウラキド","prefecture_code":4},{"zip_code":"9892351","prefecture":"宮城県","prefecture_kana":"ミヤギケン","city":"亘理郡亘理町","city_kana":"ワタリグンワタリチョウ","town":"江下","town_kana":"エシタ","prefecture_code":4},{"zip_code":"9892351","prefecture":"宮城県","prefecture_kana":"ミヤギケン","city":"亘理郡亘理町","city_kana":"ワタリグンワタリチョウ","town":"上中野地","town_kana":"カミナカヤチ","prefecture_code":4},{"zip_code":"9892351","prefecture":"宮城県","prefecture_kana":"ミヤギケン","city":"亘理郡亘理町","city_kana":"ワタリグンワタリチョウ","town":"上浜街道","town_kana":"カミハマカイドウ","prefecture_code":4},{"zip_code":"9892351","prefecture":"宮城県","prefecture_kana":"ミヤギケン","city":"亘理郡亘理町","city_kana":"ワタリグンワタリチョウ","town":"上茨田","town_kana":"カミバラダ","prefecture_code":4},{"zip_code":"9892351","prefecture":"宮城県","prefecture_kana":"ミヤギケン","city":"亘理郡亘理町","city_kana":"ワタリグンワタリチョウ","town":"亀井戸","town_kana":"カメイド","prefecture_code":4},{"zip_code":"9892351","prefecture":"宮城県","prefecture_kana":"ミヤギケン","city":"亘理郡亘理町","city_kana":"ワタリグンワタリチョウ","town":"上町","town_kana":"カンマチ","prefecture_code":4},{"zip_code":"9892351","prefecture":"宮城県","prefecture_kana":"ミヤギケン","city":"亘理郡亘理町","city_kana":"ワタリグンワタリチョウ","town":"北新田","town_kana":"キタシンデン","prefecture_code":4},{"zip_code":"9892351","prefecture":"宮城県","prefecture_kana":"ミヤギケン","city":"亘理郡亘理町","city_kana":"ワタリグンワタリチョウ","town":"北新町","town_kana":"キタシンマチ","prefecture_code":4},{"zip_code":"9892351","prefecture":"宮城県","prefecture_kana":"ミヤギケン","city":"亘理郡亘理町","city_kana":"ワタリグンワタリチョウ","town":"狐塚","town_kana":"キツネヅカ","prefecture_code":4},{"zip_code":"9892351","prefecture":"宮城県","prefecture_kana":"ミヤギケン","city":"亘理郡亘理町","city_kana":"ワタリグンワタリチョウ","town":"旧舘","town_kana":"キュウカン","prefecture_code":4},{"zip_code":"9892351","prefecture":"宮城県","prefecture_kana":"ミヤギケン","city":"亘理郡亘理町","city_kana":"ワタリグンワタリチョウ","town":"境堤","town_kana":"サカイツツミ","prefecture_code":4},{"zip_code":"9892351","prefecture":"宮城県","prefecture_kana":"ミヤギケン","city":"亘理郡亘理町","city_kana":"ワタリグンワタリチョウ","town":"桜小路","town_kana":"サクラコウジ","prefecture_code":4},{"zip_code":"9892351","prefecture":"宮城県","prefecture_kana":"ミヤギケン","city":"亘理郡亘理町","city_kana":"ワタリグンワタリチョウ","town":"芝西","town_kana":"シバニシ","prefecture_code":4},{"zip_code":"9892351","prefecture":"宮城県","prefecture_kana":"ミヤギケン","city":"亘理郡亘理町","city_kana":"ワタリグンワタリチョウ","town":"下小路","town_kana":"シモコウジ","prefecture_code":4},{"zip_code":"9892351","prefecture":"宮城県","prefecture_kana":"ミヤギケン","city":"亘理郡亘理町","city_kana":"ワタリグンワタリチョウ","town":"下浜街道","town_kana":"シモハマカイドウ","prefecture_code":4},{"zip_code":"9892351","prefecture":"宮城県","prefecture_kana":"ミヤギケン","city":"亘理郡亘理町","city_kana":"ワタリグンワタリチョウ","town":"下茨田","town_kana":"シモバラダ","prefecture_code":4},{"zip_code":"9892351","prefecture":"宮城県","prefecture_kana":"ミヤギケン","city":"亘理郡亘理町","city_kana":"ワタリグンワタリチョウ","town":"新町","town_kana":"シンマチ","prefecture_code":4},{"zip_code":"9892351","prefecture":"宮城県","prefecture_kana":"ミヤギケン","city":"亘理郡亘理町","city_kana":"ワタリグンワタリチョウ","town":"台田","town_kana":"ダイダ","prefecture_code":4},{"zip_code":"9892351","prefecture":"宮城県","prefecture_kana":"ミヤギケン","city":"亘理郡亘理町","city_kana":"ワタリグンワタリチョウ","town":"道田中","town_kana":"ドウダナカ","prefecture_code":4},{"zip_code":"9892351","prefecture":"宮城県","prefecture_kana":"ミヤギケン","city":"亘理郡亘理町","city_kana":"ワタリグンワタリチョウ","town":"道田東","town_kana":"ドウダヒガシ","prefecture_code":4},{"zip_code":"9892351","prefecture":"宮城県","prefecture_kana":"ミヤギケン","city":"亘理郡亘理町","city_kana":"ワタリグンワタリチョウ","town":"道田西","town_kana":"ドウダニシ","prefecture_code":4},{"zip_code":"9892351","prefecture":"宮城県","prefecture_kana":"ミヤギケン","city":"亘理郡亘理町","city_kana":"ワタリグンワタリチョウ","town":"中町","town_kana":"ナカマチ","prefecture_code":4},{"zip_code":"9892351","prefecture":"宮城県","prefecture_kana":"ミヤギケン","city":"亘理郡亘理町","city_kana":"ワタリグンワタリチョウ","town":"中町東","town_kana":"ナカマチヒガシ","prefecture_code":4},{"zip_code":"9892351","prefecture":"宮城県","prefecture_kana":"ミヤギケン","city":"亘理郡亘理町","city_kana":"ワタリグンワタリチョウ","town":"新井町","town_kana":"ニイマチ","prefecture_code":4},{"zip_code":"9892351","prefecture":"宮城県","prefecture_kana":"ミヤギケン","city":"亘理郡亘理町","city_kana":"ワタリグンワタリチョウ","town":"西郷","town_kana":"ニシゴウ","prefecture_code":4},{"zip_code":"9892351","prefecture":"宮城県","prefecture_kana":"ミヤギケン","city":"亘理郡亘理町","city_kana":"ワタリグンワタリチョウ","town":"茨田後","town_kana":"バラダウシロ","prefecture_code":4},{"zip_code":"9892351","prefecture":"宮城県","prefecture_kana":"ミヤギケン","city":"亘理郡亘理町","city_kana":"ワタリグンワタリチョウ","town":"東郷","town_kana":"ヒガシゴウ","prefecture_code":4},{"zip_code":"9892351","prefecture":"宮城県","prefecture_kana":"ミヤギケン","city":"亘理郡亘理町","city_kana":"ワタリグンワタリチョウ","town":"見田内","town_kana":"ミダウチ","prefecture_code":4},{"zip_code":"9892351","prefecture":"宮城県","prefecture_kana":"ミヤギケン","city":"亘理郡亘理町","city_kana":"ワタリグンワタリチョウ","town":"南町","town_kana":"ミナミマチ","prefecture_code":4},{"zip_code":"9892351","prefecture":"宮城県","prefecture_kana":"ミヤギケン","city":"亘理郡亘理町","city_kana":"ワタリグンワタリチョウ","town":"南町東","town_kana":"ミナミマチヒガシ","prefecture_code":4}],"2361":[{"zip_code":"9892361","prefecture":"宮城県","prefecture_kana":"ミヤギケン","city":"亘理郡亘理町","city_kana":"ワタリグンワタリチョウ","town":"愛宕前","town_kana":"アタゴマエ","prefecture_code":4},{"zip_code":"9892361","prefecture":"宮城県","prefecture_kana":"ミヤギケン","city":"亘理郡亘理町","city_kana":"ワタリグンワタリチョウ","town":"泉ケ入","town_kana":"イズミガイリ","prefecture_code":4},{"zip_code":"9892361","prefecture":"宮城県","prefecture_kana":"ミヤギケン","city":"亘理郡亘理町","city_kana":"ワタリグンワタリチョウ","town":"北猿田","town_kana":"キタサルタ","prefecture_code":4},{"zip_code":"9892361","prefecture":"宮城県","prefecture_kana":"ミヤギケン","city":"亘理郡亘理町","city_kana":"ワタリグンワタリチョウ","town":"倉庭","town_kana":"クラニワ","prefecture_code":4},{"zip_code":"9892361","prefecture":"宮城県","prefecture_kana":"ミヤギケン","city":"亘理郡亘理町","city_kana":"ワタリグンワタリチョウ","town":"先達前","town_kana":"センダツマエ","prefecture_code":4},{"zip_code":"9892361","prefecture":"宮城県","prefecture_kana":"ミヤギケン","city":"亘理郡亘理町","city_kana":"ワタリグンワタリチョウ","town":"舘南","town_kana":"タテミナミ","prefecture_code":4},{"zip_code":"9892361","prefecture":"宮城県","prefecture_kana":"ミヤギケン","city":"亘理郡亘理町","city_kana":"ワタリグンワタリチョウ","town":"鳥居前","town_kana":"トリイマエ","prefecture_code":4},{"zip_code":"9892361","prefecture":"宮城県","prefecture_kana":"ミヤギケン","city":"亘理郡亘理町","city_kana":"ワタリグンワタリチョウ","town":"沼頭","town_kana":"ヌマガシラ","prefecture_code":4},{"zip_code":"9892361","prefecture":"宮城県","prefecture_kana":"ミヤギケン","city":"亘理郡亘理町","city_kana":"ワタリグンワタリチョウ","town":"卑下入","town_kana":"ヒガイリ","prefecture_code":4},{"zip_code":"9892361","prefecture":"宮城県","prefecture_kana":"ミヤギケン","city":"亘理郡亘理町","city_kana":"ワタリグンワタリチョウ","town":"堀の内","town_kana":"ホリノウチ","prefecture_code":4},{"zip_code":"9892361","prefecture":"宮城県","prefecture_kana":"ミヤギケン","city":"亘理郡亘理町","city_kana":"ワタリグンワタリチョウ","town":"雪穴","town_kana":"ユキアナ","prefecture_code":4},{"zip_code":"9892361","prefecture":"宮城県","prefecture_kana":"ミヤギケン","city":"亘理郡亘理町","city_kana":"ワタリグンワタリチョウ","town":"龍円寺前","town_kana":"リュウエンジマエ","prefecture_code":4}],"2311":{"zip_code":"9892311","prefecture":"宮城県","prefecture_kana":"ミヤギケン","city":"亘理郡亘理町","city_kana":"ワタリグンワタリチョウ","town":"荒浜","town_kana":"アラハマ","prefecture_code":4},"2385":{"zip_code":"9892385","prefecture":"宮城県","prefecture_kana":"ミヤギケン","city":"亘理郡亘理町","city_kana":"ワタリグンワタリチョウ","town":"逢隈郡","town_kana":"オオクマコオリ","prefecture_code":4},"2302":{"zip_code":"9892302","prefecture":"宮城県","prefecture_kana":"ミヤギケン","city":"亘理郡亘理町","city_kana":"ワタリグンワタリチョウ","town":"逢隈牛袋","town_kana":"オオクマウシブクロ","prefecture_code":4},"2321":{"zip_code":"9892321","prefecture":"宮城県","prefecture_kana":"ミヤギケン","city":"亘理郡亘理町","city_kana":"ワタリグンワタリチョウ","town":"逢隈榎袋","town_kana":"オオクマエノキブクロ","prefecture_code":4},"2371":{"zip_code":"9892371","prefecture":"宮城県","prefecture_kana":"ミヤギケン","city":"亘理郡亘理町","city_kana":"ワタリグンワタリチョウ","town":"逢隈鹿島","town_kana":"オオクマカシマ","prefecture_code":4},"2381":{"zip_code":"9892381","prefecture":"宮城県","prefecture_kana":"ミヤギケン","city":"亘理郡亘理町","city_kana":"ワタリグンワタリチョウ","town":"逢隈上郡","town_kana":"オオクマカミゴオリ","prefecture_code":4},"2324":{"zip_code":"9892324","prefecture":"宮城県","prefecture_kana":"ミヤギケン","city":"亘理郡亘理町","city_kana":"ワタリグンワタリチョウ","town":"逢隈高屋","town_kana":"オオクマコウヤ","prefecture_code":4},"2384":{"zip_code":"9892384","prefecture":"宮城県","prefecture_kana":"ミヤギケン","city":"亘理郡亘理町","city_kana":"ワタリグンワタリチョウ","town":"逢隈小山","town_kana":"オオクマコヤマ","prefecture_code":4},"2323":{"zip_code":"9892323","prefecture":"宮城県","prefecture_kana":"ミヤギケン","city":"亘理郡亘理町","city_kana":"ワタリグンワタリチョウ","town":"逢隈鷺屋","town_kana":"オオクマサギヤ","prefecture_code":4},"2382":{"zip_code":"9892382","prefecture":"宮城県","prefecture_kana":"ミヤギケン","city":"亘理郡亘理町","city_kana":"ワタリグンワタリチョウ","town":"逢隈下郡","town_kana":"オオクマシモゴオリ","prefecture_code":4},"2303":{"zip_code":"9892303","prefecture":"宮城県","prefecture_kana":"ミヤギケン","city":"亘理郡亘理町","city_kana":"ワタリグンワタリチョウ","town":"逢隈十文字","town_kana":"オオクマジュウモンジ","prefecture_code":4},"2372":{"zip_code":"9892372","prefecture":"宮城県","prefecture_kana":"ミヤギケン","city":"亘理郡亘理町","city_kana":"ワタリグンワタリチョウ","town":"逢隈神宮寺","town_kana":"オオクマジングウジ","prefecture_code":4},"2383":{"zip_code":"9892383","prefecture":"宮城県","prefecture_kana":"ミヤギケン","city":"亘理郡亘理町","city_kana":"ワタリグンワタリチョウ","town":"逢隈田沢","town_kana":"オオクマタザワ","prefecture_code":4},"2301":{"zip_code":"9892301","prefecture":"宮城県","prefecture_kana":"ミヤギケン","city":"亘理郡亘理町","city_kana":"ワタリグンワタリチョウ","town":"逢隈中泉","town_kana":"オオクマナカイズミ","prefecture_code":4},"2322":{"zip_code":"9892322","prefecture":"宮城県","prefecture_kana":"ミヤギケン","city":"亘理郡亘理町","city_kana":"ワタリグンワタリチョウ","town":"逢隈蕨","town_kana":"オオクマワラビ","prefecture_code":4},"2341":{"zip_code":"9892341","prefecture":"宮城県","prefecture_kana":"ミヤギケン","city":"亘理郡亘理町","city_kana":"ワタリグンワタリチョウ","town":"長瀞","town_kana":"ナガトロ","prefecture_code":4},"2352":{"zip_code":"9892352","prefecture":"宮城県","prefecture_kana":"ミヤギケン","city":"亘理郡亘理町","city_kana":"ワタリグンワタリチョウ","town":"悠里","town_kana":"ユウリ","prefecture_code":4},"2331":{"zip_code":"9892331","prefecture":"宮城県","prefecture_kana":"ミヤギケン","city":"亘理郡亘理町","city_kana":"ワタリグンワタリチョウ","town":"吉田","town_kana":"ヨシダ","prefecture_code":4},"2200":{"zip_code":"9892200","prefecture":"宮城県","prefecture_kana":"ミヤギケン","city":"亘理郡山元町","city_kana":"ワタリグンヤマモトチョウ","town":"","town_kana":"","prefecture_code":4},"2203":{"zip_code":"9892203","prefecture":"宮城県","prefecture_kana":"ミヤギケン","city":"亘理郡山元町","city_kana":"ワタリグンヤマモトチョウ","town":"浅生原","town_kana":"アソウハラ","prefecture_code":4},"2206":{"zip_code":"9892206","prefecture":"宮城県","prefecture_kana":"ミヤギケン","city":"亘理郡山元町","city_kana":"ワタリグンヤマモトチョウ","town":"大平","town_kana":"オオダイラ","prefecture_code":4},"2205":{"zip_code":"9892205","prefecture":"宮城県","prefecture_kana":"ミヤギケン","city":"亘理郡山元町","city_kana":"ワタリグンヤマモトチョウ","town":"小平","town_kana":"コダイラ","prefecture_code":4},"2111":{"zip_code":"9892111","prefecture":"宮城県","prefecture_kana":"ミヤギケン","city":"亘理郡山元町","city_kana":"ワタリグンヤマモトチョウ","town":"坂元","town_kana":"サカモト","prefecture_code":4},"2202":{"zip_code":"9892202","prefecture":"宮城県","prefecture_kana":"ミヤギケン","city":"亘理郡山元町","city_kana":"ワタリグンヤマモトチョウ","town":"高瀬","town_kana":"タカセ","prefecture_code":4},"2207":{"zip_code":"9892207","prefecture":"宮城県","prefecture_kana":"ミヤギケン","city":"亘理郡山元町","city_kana":"ワタリグンヤマモトチョウ","town":"八手庭","town_kana":"ハデニワ","prefecture_code":4},"2112":{"zip_code":"9892112","prefecture":"宮城県","prefecture_kana":"ミヤギケン","city":"亘理郡山元町","city_kana":"ワタリグンヤマモトチョウ","town":"真庭","town_kana":"マニワ","prefecture_code":4},"2201":{"zip_code":"9892201","prefecture":"宮城県","prefecture_kana":"ミヤギケン","city":"亘理郡山元町","city_kana":"ワタリグンヤマモトチョウ","town":"山寺","town_kana":"ヤマデラ","prefecture_code":4},"2204":{"zip_code":"9892204","prefecture":"宮城県","prefecture_kana":"ミヤギケン","city":"亘理郡山元町","city_kana":"ワタリグンヤマモトチョウ","town":"鷲足","town_kana":"ワシアシ","prefecture_code":4},"4204":{"zip_code":"9894204","prefecture":"宮城県","prefecture_kana":"ミヤギケン","city":"遠田郡美里町","city_kana":"トオダグンミサトマチ","town":"大柳","town_kana":"オオヤナギ","prefecture_code":4},"4205":{"zip_code":"9894205","prefecture":"宮城県","prefecture_kana":"ミヤギケン","city":"遠田郡美里町","city_kana":"トオダグンミサトマチ","town":"木間塚","town_kana":"キマツカ","prefecture_code":4},"4209":{"zip_code":"9894209","prefecture":"宮城県","prefecture_kana":"ミヤギケン","city":"遠田郡美里町","city_kana":"トオダグンミサトマチ","town":"新鳥谷坂","town_kana":"シントヤザカ","prefecture_code":4},"4207":{"zip_code":"9894207","prefecture":"宮城県","prefecture_kana":"ミヤギケン","city":"遠田郡美里町","city_kana":"トオダグンミサトマチ","town":"鳥谷坂一","town_kana":"トヤザカイチ","prefecture_code":4},"4208":{"zip_code":"9894208","prefecture":"宮城県","prefecture_kana":"ミヤギケン","city":"遠田郡美里町","city_kana":"トオダグンミサトマチ","town":"鳥谷坂二","town_kana":"トヤザカニ","prefecture_code":4},"4206":{"zip_code":"9894206","prefecture":"宮城県","prefecture_kana":"ミヤギケン","city":"遠田郡美里町","city_kana":"トオダグンミサトマチ","town":"二郷","town_kana":"ニゴウ","prefecture_code":4},"4203":{"zip_code":"9894203","prefecture":"宮城県","prefecture_kana":"ミヤギケン","city":"遠田郡美里町","city_kana":"トオダグンミサトマチ","town":"練牛","town_kana":"ネリウシ","prefecture_code":4},"4202":{"zip_code":"9894202","prefecture":"宮城県","prefecture_kana":"ミヤギケン","city":"遠田郡美里町","city_kana":"トオダグンミサトマチ","town":"福ケ袋","town_kana":"フクガフクロ","prefecture_code":4},"4201":{"zip_code":"9894201","prefecture":"宮城県","prefecture_kana":"ミヤギケン","city":"遠田郡美里町","city_kana":"トオダグンミサトマチ","town":"和多田沼","town_kana":"ワダタヌマ","prefecture_code":4}}