{"0000":{"zip_code":"9900000","prefecture":"山形県","prefecture_kana":"ヤマガタケン","city":"山形市","city_kana":"ヤマガタシ","town":"","town_kana":"","prefecture_code":6},"0055":{"zip_code":"9900055","prefecture":"山形県","prefecture_kana":"ヤマガタケン","city":"山形市","city_kana":"ヤマガタシ","town":"相生町","town_kana":"アイオイチョウ","prefecture_code":6},"2435":{"zip_code":"9902435","prefecture":"山形県","prefecture_kana":"ヤマガタケン","city":"山形市","city_kana":"ヤマガタシ","town":"青田","town_kana":"アオタ","prefecture_code":6},"2324":{"zip_code":"9902324","prefecture":"山形県","prefecture_kana":"ヤマガタケン","city":"山形市","city_kana":"ヤマガタシ","town":"青田南","town_kana":"アオタミナミ","prefecture_code":6},"2222":{"zip_code":"9902222","prefecture":"山形県","prefecture_kana":"ヤマガタケン","city":"山形市","city_kana":"ヤマガタシ","town":"青野","town_kana":"アオノ","prefecture_code":6},"2214":{"zip_code":"9902214","prefecture":"山形県","prefecture_kana":"ヤマガタケン","city":"山形市","city_kana":"ヤマガタシ","town":"青柳","town_kana":"アオヤギ","prefecture_code":6},"2353":{"zip_code":"9902353","prefecture":"山形県","prefecture_kana":"ヤマガタケン","city":"山形市","city_kana":"ヤマガタシ","town":"明石堂","town_kana":"アカシドウ","prefecture_code":6},"2481":{"zip_code":"9902481","prefecture":"山形県","prefecture_kana":"ヤマガタケン","city":"山形市","city_kana":"ヤマガタシ","town":"あかねケ丘","town_kana":"アカネガオカ","prefecture_code":6},"2162":{"zip_code":"9902162","prefecture":"山形県","prefecture_kana":"ヤマガタケン","city":"山形市","city_kana":"ヤマガタシ","town":"あけぼの","town_kana":"アケボノ","prefecture_code":6},"0025":{"zip_code":"9900025","prefecture":"山形県","prefecture_kana":"ヤマガタケン","city":"山形市","city_kana":"ヤマガタシ","town":"あこや町","town_kana":"アコヤチョウ","prefecture_code":6},"2434":{"zip_code":"9902434","prefecture":"山形県","prefecture_kana":"ヤマガタケン","city":"山形市","city_kana":"ヤマガタシ","town":"旭が丘","town_kana":"アサヒガオカ","prefecture_code":6},"0024":{"zip_code":"9900024","prefecture":"山形県","prefecture_kana":"ヤマガタケン","city":"山形市","city_kana":"ヤマガタシ","town":"あさひ町","town_kana":"アサヒマチ","prefecture_code":6},"2491":{"zip_code":"9902491","prefecture":"山形県","prefecture_kana":"ヤマガタケン","city":"山形市","city_kana":"ヤマガタシ","town":"あずま町","town_kana":"アズマチョウ","prefecture_code":6},"2432":{"zip_code":"9902432","prefecture":"山形県","prefecture_kana":"ヤマガタケン","city":"山形市","city_kana":"ヤマガタシ","town":"荒楯町","town_kana":"アラタテチョウ","prefecture_code":6},"2476":{"zip_code":"9902476","prefecture":"山形県","prefecture_kana":"ヤマガタケン","city":"山形市","city_kana":"ヤマガタシ","town":"飯沢","town_kana":"イイザワ","prefecture_code":6},"2332":{"zip_code":"9902332","prefecture":"山形県","prefecture_kana":"ヤマガタケン","city":"山形市","city_kana":"ヤマガタシ","town":"飯田","town_kana":"イイダ","prefecture_code":6},"2331":{"zip_code":"9902331","prefecture":"山形県","prefecture_kana":"ヤマガタケン","city":"山形市","city_kana":"ヤマガタシ","town":"飯田西","town_kana":"イイダニシ","prefecture_code":6},"0841":{"zip_code":"9900841","prefecture":"山形県","prefecture_kana":"ヤマガタケン","city":"山形市","city_kana":"ヤマガタシ","town":"飯塚口","town_kana":"イイヅカグチ","prefecture_code":6},"0845":{"zip_code":"9900845","prefecture":"山形県","prefecture_kana":"ヤマガタケン","city":"山形市","city_kana":"ヤマガタシ","town":"飯塚町","town_kana":"イイヅカマチ","prefecture_code":6},"0842":{"zip_code":"9900842","prefecture":"山形県","prefecture_kana":"ヤマガタケン","city":"山形市","city_kana":"ヤマガタシ","town":"石関","town_kana":"イシゼキ","prefecture_code":6},"0061":{"zip_code":"9900061","prefecture":"山形県","prefecture_kana":"ヤマガタケン","city":"山形市","city_kana":"ヤマガタシ","town":"五十鈴","town_kana":"イスズ","prefecture_code":6},"0068":{"zip_code":"9900068","prefecture":"山形県","prefecture_kana":"ヤマガタケン","city":"山形市","city_kana":"ヤマガタシ","town":"泉町","town_kana":"イズミチョウ","prefecture_code":6},"0829":{"zip_code":"9900829","prefecture":"山形県","prefecture_kana":"ヤマガタケン","city":"山形市","city_kana":"ヤマガタシ","town":"五日町","town_kana":"イツカマチ","prefecture_code":6},"0817":{"zip_code":"9900817","prefecture":"山形県","prefecture_kana":"ヤマガタケン","city":"山形市","city_kana":"ヤマガタシ","town":"今塚","town_kana":"イマヅカ","prefecture_code":6},"2351":{"zip_code":"9902351","prefecture":"山形県","prefecture_kana":"ヤマガタケン","city":"山形市","city_kana":"ヤマガタシ","town":"鋳物町","town_kana":"イモノマチ","prefecture_code":6},"2403":{"zip_code":"9902403","prefecture":"山形県","prefecture_kana":"ヤマガタケン","city":"山形市","city_kana":"ヤマガタシ","town":"岩波","town_kana":"イワナミ","prefecture_code":6},"0066":{"zip_code":"9900066","prefecture":"山形県","prefecture_kana":"ヤマガタケン","city":"山形市","city_kana":"ヤマガタシ","town":"印役町","town_kana":"インヤクマチ","prefecture_code":6},"0877":{"zip_code":"9900877","prefecture":"山形県","prefecture_kana":"ヤマガタケン","city":"山形市","city_kana":"ヤマガタシ","town":"内表","town_kana":"ウチオモテ","prefecture_code":6},"0878":{"zip_code":"9900878","prefecture":"山形県","prefecture_kana":"ヤマガタケン","city":"山形市","city_kana":"ヤマガタシ","town":"内表東","town_kana":"ウチオモテヒガシ","prefecture_code":6},"0874":{"zip_code":"9900874","prefecture":"山形県","prefecture_kana":"ヤマガタケン","city":"山形市","city_kana":"ヤマガタシ","town":"梅野木前","town_kana":"ウメノキマエ","prefecture_code":6},"2161":{"zip_code":"9902161","prefecture":"山形県","prefecture_kana":"ヤマガタケン","city":"山形市","city_kana":"ヤマガタシ","town":"漆山","town_kana":"ウルシヤマ","prefecture_code":6},"2483":{"zip_code":"9902483","prefecture":"山形県","prefecture_kana":"ヤマガタケン","city":"山形市","city_kana":"ヤマガタシ","town":"上町","town_kana":"ウワマチ","prefecture_code":6},"0861":{"zip_code":"9900861","prefecture":"山形県","prefecture_kana":"ヤマガタケン","city":"山形市","city_kana":"ヤマガタシ","town":"江俣","town_kana":"エマタ","prefecture_code":6},"0052":{"zip_code":"9900052","prefecture":"山形県","prefecture_kana":"ヤマガタケン","city":"山形市","city_kana":"ヤマガタシ","town":"円応寺町","town_kana":"エンノウジマチ","prefecture_code":6},"0046":{"zip_code":"9900046","prefecture":"山形県","prefecture_kana":"ヤマガタケン","city":"山形市","city_kana":"ヤマガタシ","town":"大手町","town_kana":"オオテマチ","prefecture_code":6},"2344":{"zip_code":"9902344","prefecture":"山形県","prefecture_kana":"ヤマガタケン","city":"山形市","city_kana":"ヤマガタシ","town":"大道端","town_kana":"オオミチバタ","prefecture_code":6},"2231":{"zip_code":"9902231","prefecture":"山形県","prefecture_kana":"ヤマガタケン","city":"山形市","city_kana":"ヤマガタシ","town":"大森","town_kana":"オオモリ","prefecture_code":6},"0818":{"zip_code":"9900818","prefecture":"山形県","prefecture_kana":"ヤマガタケン","city":"山形市","city_kana":"ヤマガタシ","town":"沖町","town_kana":"オキマチ","prefecture_code":6},"2402":{"zip_code":"9902402","prefecture":"山形県","prefecture_kana":"ヤマガタケン","city":"山形市","city_kana":"ヤマガタシ","town":"小立","town_kana":"オダチ","prefecture_code":6},"0075":{"zip_code":"9900075","prefecture":"山形県","prefecture_kana":"ヤマガタケン","city":"山形市","city_kana":"ヤマガタシ","town":"落合町","town_kana":"オチアイマチ","prefecture_code":6},"2365":{"zip_code":"9902365","prefecture":"山形県","prefecture_kana":"ヤマガタケン","city":"山形市","city_kana":"ヤマガタシ","town":"御手作","town_kana":"オテサク","prefecture_code":6},"2307":{"zip_code":"9902307","prefecture":"山形県","prefecture_kana":"ヤマガタケン","city":"山形市","city_kana":"ヤマガタシ","town":"表蔵王","town_kana":"オモテザオウ","prefecture_code":6},"2484":{"zip_code":"9902484","prefecture":"山形県","prefecture_kana":"ヤマガタケン","city":"山形市","city_kana":"ヤマガタシ","town":"篭田","town_kana":"カゴタ","prefecture_code":6},"2221":{"zip_code":"9902221","prefecture":"山形県","prefecture_kana":"ヤマガタケン","city":"山形市","city_kana":"ヤマガタシ","town":"風間","town_kana":"カザマ","prefecture_code":6},"2341":{"zip_code":"9902341","prefecture":"山形県","prefecture_kana":"ヤマガタケン","city":"山形市","city_kana":"ヤマガタシ","town":"柏倉","town_kana":"カシワグラ","prefecture_code":6},"0826":{"zip_code":"9900826","prefecture":"山形県","prefecture_kana":"ヤマガタケン","city":"山形市","city_kana":"ヤマガタシ","town":"霞城町","town_kana":"カジョウマチ","prefecture_code":6},"0833":{"zip_code":"9900833","prefecture":"山形県","prefecture_kana":"ヤマガタケン","city":"山形市","city_kana":"ヤマガタシ","town":"春日町","town_kana":"カスガチョウ","prefecture_code":6},"0039":{"zip_code":"9900039","prefecture":"山形県","prefecture_kana":"ヤマガタケン","city":"山形市","city_kana":"ヤマガタシ","town":"香澄町","town_kana":"カスミチョウ","prefecture_code":6},"2316":{"zip_code":"9902316","prefecture":"山形県","prefecture_kana":"ヤマガタケン","city":"山形市","city_kana":"ヤマガタシ","town":"片谷地","town_kana":"カタヤチ","prefecture_code":6},"0856":{"zip_code":"9900856","prefecture":"山形県","prefecture_kana":"ヤマガタケン","city":"山形市","city_kana":"ヤマガタシ","town":"金石田","town_kana":"カナイシダ","prefecture_code":6},"0851":{"zip_code":"9900851","prefecture":"山形県","prefecture_kana":"ヤマガタケン","city":"山形市","city_kana":"ヤマガタシ","town":"上椹沢","town_kana":"カミクヌギザワ","prefecture_code":6},"2421":{"zip_code":"9902421","prefecture":"山形県","prefecture_kana":"ヤマガタケン","city":"山形市","city_kana":"ヤマガタシ","town":"上桜田","town_kana":"カミサクラダ","prefecture_code":6},"2384":{"zip_code":"9902384","prefecture":"山形県","prefecture_kana":"ヤマガタケン","city":"山形市","city_kana":"ヤマガタシ","town":"上反田","town_kana":"カミソリダ","prefecture_code":6},"2241":{"zip_code":"9902241","prefecture":"山形県","prefecture_kana":"ヤマガタケン","city":"山形市","city_kana":"ヤマガタシ","town":"上東山","town_kana":"カミヒガシヤマ","prefecture_code":6},"0017":{"zip_code":"9900017","prefecture":"山形県","prefecture_kana":"ヤマガタケン","city":"山形市","city_kana":"ヤマガタシ","town":"上宝沢","town_kana":"カミホウザワ","prefecture_code":6},"2212":{"zip_code":"9902212","prefecture":"山形県","prefecture_kana":"ヤマガタケン","city":"山形市","city_kana":"ヤマガタシ","town":"上柳","town_kana":"カミヤナギ","prefecture_code":6},"0004":{"zip_code":"9900004","prefecture":"山形県","prefecture_kana":"ヤマガタケン","city":"山形市","city_kana":"ヤマガタシ","town":"上山家町","town_kana":"カミヤンベマチ","prefecture_code":6},"2406":{"zip_code":"9902406","prefecture":"山形県","prefecture_kana":"ヤマガタケン","city":"山形市","city_kana":"ヤマガタシ","town":"神尾","town_kana":"カンノウ","prefecture_code":6},"0875":{"zip_code":"9900875","prefecture":"山形県","prefecture_kana":"ヤマガタケン","city":"山形市","city_kana":"ヤマガタシ","town":"北江俣","town_kana":"キタエマタ","prefecture_code":6},"0896":{"zip_code":"9900896","prefecture":"山形県","prefecture_kana":"ヤマガタケン","city":"山形市","city_kana":"ヤマガタシ","town":"北田","town_kana":"キタダ","prefecture_code":6},"0821":{"zip_code":"9900821","prefecture":"山形県","prefecture_kana":"ヤマガタケン","city":"山形市","city_kana":"ヤマガタシ","town":"北町","town_kana":"キタマチ","prefecture_code":6},"0822":{"zip_code":"9900822","prefecture":"山形県","prefecture_kana":"ヤマガタケン","city":"山形市","city_kana":"ヤマガタシ","town":"北山形","town_kana":"キタヤマガタ","prefecture_code":6},"0044":{"zip_code":"9900044","prefecture":"山形県","prefecture_kana":"ヤマガタケン","city":"山形市","city_kana":"ヤマガタシ","town":"木の実町","town_kana":"キノミチョウ","prefecture_code":6},"2475":{"zip_code":"9902475","prefecture":"山形県","prefecture_kana":"ヤマガタケン","city":"山形市","city_kana":"ヤマガタシ","town":"木ノ目田","town_kana":"キノメダ","prefecture_code":6},"0876":{"zip_code":"9900876","prefecture":"山形県","prefecture_kana":"ヤマガタケン","city":"山形市","city_kana":"ヤマガタシ","town":"行才","town_kana":"ギョウサイ","prefecture_code":6},"0834":{"zip_code":"9900834","prefecture":"山形県","prefecture_kana":"ヤマガタケン","city":"山形市","city_kana":"ヤマガタシ","town":"清住町","town_kana":"キヨズミマチ","prefecture_code":6},"2233":{"zip_code":"9902233","prefecture":"山形県","prefecture_kana":"ヤマガタケン","city":"山形市","city_kana":"ヤマガタシ","town":"切畑","town_kana":"キリハタ","prefecture_code":6},"2482":{"zip_code":"9902482","prefecture":"山形県","prefecture_kana":"ヤマガタケン","city":"山形市","city_kana":"ヤマガタシ","town":"久保田","town_kana":"クボタ","prefecture_code":6},"2311":{"zip_code":"9902311","prefecture":"山形県","prefecture_kana":"ヤマガタケン","city":"山形市","city_kana":"ヤマガタシ","town":"黒沢","town_kana":"クロサワ","prefecture_code":6},"0863":{"zip_code":"9900863","prefecture":"山形県","prefecture_kana":"ヤマガタケン","city":"山形市","city_kana":"ヤマガタシ","town":"江南","town_kana":"コウナン","prefecture_code":6},"0852":{"zip_code":"9900852","prefecture":"山形県","prefecture_kana":"ヤマガタケン","city":"山形市","city_kana":"ヤマガタシ","town":"黄金","town_kana":"コガネ","prefecture_code":6},"0032":{"zip_code":"9900032","prefecture":"山形県","prefecture_kana":"ヤマガタケン","city":"山形市","city_kana":"ヤマガタシ","town":"小姓町","town_kana":"コショウマチ","prefecture_code":6},"0021":{"zip_code":"9900021","prefecture":"山形県","prefecture_kana":"ヤマガタケン","city":"山形市","city_kana":"ヤマガタシ","town":"小白川町","town_kana":"コジラカワマチ","prefecture_code":6},"2414":{"zip_code":"9902414","prefecture":"山形県","prefecture_kana":"ヤマガタケン","city":"山形市","city_kana":"ヤマガタシ","town":"寿町","town_kana":"コトブキチョウ","prefecture_code":6},"0035":{"zip_code":"9900035","prefecture":"山形県","prefecture_kana":"ヤマガタケン","city":"山形市","city_kana":"ヤマガタシ","town":"小荷駄町","town_kana":"コニダマチ","prefecture_code":6},"2234":{"zip_code":"9902234","prefecture":"山形県","prefecture_kana":"ヤマガタケン","city":"山形市","city_kana":"ヤマガタシ","town":"こも石","town_kana":"コモイシ","prefecture_code":6},"0038":{"zip_code":"9900038","prefecture":"山形県","prefecture_kana":"ヤマガタケン","city":"山形市","city_kana":"ヤマガタシ","town":"幸町","town_kana":"サイワイチョウ","prefecture_code":6},"2333":{"zip_code":"9902333","prefecture":"山形県","prefecture_kana":"ヤマガタケン","city":"山形市","city_kana":"ヤマガタシ","town":"蔵王飯田","town_kana":"ザオウイイダ","prefecture_code":6},"2303":{"zip_code":"9902303","prefecture":"山形県","prefecture_kana":"ヤマガタケン","city":"山形市","city_kana":"ヤマガタシ","town":"蔵王上野","town_kana":"ザオウウワノ","prefecture_code":6},"2301":{"zip_code":"9902301","prefecture":"山形県","prefecture_kana":"ヤマガタケン","city":"山形市","city_kana":"ヤマガタシ","town":"蔵王温泉","town_kana":"ザオウオンセン","prefecture_code":6},"2334":{"zip_code":"9902334","prefecture":"山形県","prefecture_kana":"ヤマガタケン","city":"山形市","city_kana":"ヤマガタシ","town":"蔵王成沢","town_kana":"ザオウナリサワ","prefecture_code":6},"2305":{"zip_code":"9902305","prefecture":"山形県","prefecture_kana":"ヤマガタケン","city":"山形市","city_kana":"ヤマガタシ","town":"蔵王半郷","town_kana":"ザオウハンゴウ","prefecture_code":6},"2302":{"zip_code":"9902302","prefecture":"山形県","prefecture_kana":"ヤマガタケン","city":"山形市","city_kana":"ヤマガタシ","town":"蔵王堀田","town_kana":"ザオウホッタ","prefecture_code":6},"2338":{"zip_code":"9902338","prefecture":"山形県","prefecture_kana":"ヤマガタケン","city":"山形市","city_kana":"ヤマガタシ","town":"蔵王松ケ丘","town_kana":"ザオウマツガオカ","prefecture_code":6},"2337":{"zip_code":"9902337","prefecture":"山形県","prefecture_kana":"ヤマガタケン","city":"山形市","city_kana":"ヤマガタシ","town":"蔵王西成沢","town_kana":"ザオウニシナリサワ","prefecture_code":6},"2335":{"zip_code":"9902335","prefecture":"山形県","prefecture_kana":"ヤマガタケン","city":"山形市","city_kana":"ヤマガタシ","town":"蔵王南成沢","town_kana":"ザオウミナミナリサワ","prefecture_code":6},"2304":{"zip_code":"9902304","prefecture":"山形県","prefecture_kana":"ヤマガタケン","city":"山形市","city_kana":"ヤマガタシ","town":"蔵王山田","town_kana":"ザオウヤマダ","prefecture_code":6},"0003":{"zip_code":"9900003","prefecture":"山形県","prefecture_kana":"ヤマガタケン","city":"山形市","city_kana":"ヤマガタシ","town":"早乙女","town_kana":"サオトメ","prefecture_code":6},"0819":{"zip_code":"9900819","prefecture":"山形県","prefecture_kana":"ヤマガタケン","city":"山形市","city_kana":"ヤマガタシ","town":"境田町","town_kana":"サカイダマチ","prefecture_code":6},"0077":{"zip_code":"9900077","prefecture":"山形県","prefecture_kana":"ヤマガタケン","city":"山形市","city_kana":"ヤマガタシ","town":"栄原","town_kana":"サカエバラ","prefecture_code":6},"0824":{"zip_code":"9900824","prefecture":"山形県","prefecture_kana":"ヤマガタケン","city":"山形市","city_kana":"ヤマガタシ","town":"肴町","town_kana":"サカナマチ","prefecture_code":6},"2376":{"zip_code":"9902376","prefecture":"山形県","prefecture_kana":"ヤマガタケン","city":"山形市","city_kana":"ヤマガタシ","town":"桜ケ丘","town_kana":"サクラガオカ","prefecture_code":6},"2323":{"zip_code":"9902323","prefecture":"山形県","prefecture_kana":"ヤマガタケン","city":"山形市","city_kana":"ヤマガタシ","town":"桜田東","town_kana":"サクラダヒガシ","prefecture_code":6},"2321":{"zip_code":"9902321","prefecture":"山形県","prefecture_kana":"ヤマガタケン","city":"山形市","city_kana":"ヤマガタシ","town":"桜田西","town_kana":"サクラダニシ","prefecture_code":6},"2322":{"zip_code":"9902322","prefecture":"山形県","prefecture_kana":"ヤマガタケン","city":"山形市","city_kana":"ヤマガタシ","town":"桜田南","town_kana":"サクラダミナミ","prefecture_code":6},"0045":{"zip_code":"9900045","prefecture":"山形県","prefecture_kana":"ヤマガタケン","city":"山形市","city_kana":"ヤマガタシ","town":"桜町","town_kana":"サクラチョウ","prefecture_code":6},"0898":{"zip_code":"9900898","prefecture":"山形県","prefecture_kana":"ヤマガタケン","city":"山形市","city_kana":"ヤマガタシ","town":"三社","town_kana":"サンシャ","prefecture_code":6},"0846":{"zip_code":"9900846","prefecture":"山形県","prefecture_kana":"ヤマガタケン","city":"山形市","city_kana":"ヤマガタシ","town":"志鎌","town_kana":"シカマ","prefecture_code":6},"0868":{"zip_code":"9900868","prefecture":"山形県","prefecture_kana":"ヤマガタケン","city":"山形市","city_kana":"ヤマガタシ","town":"志戸田","town_kana":"シトダ","prefecture_code":6},"2173":{"zip_code":"9902173","prefecture":"山形県","prefecture_kana":"ヤマガタケン","city":"山形市","city_kana":"ヤマガタシ","town":"渋江","town_kana":"シブエ","prefecture_code":6},"0870":{"zip_code":"9900870","prefecture":"山形県","prefecture_kana":"ヤマガタケン","city":"山形市","city_kana":"ヤマガタシ","town":"島","town_kana":"シマ","prefecture_code":6},"0885":{"zip_code":"9900885","prefecture":"山形県","prefecture_kana":"ヤマガタケン","city":"山形市","city_kana":"ヤマガタシ","town":"嶋北","town_kana":"シマキタ","prefecture_code":6},"0886":{"zip_code":"9900886","prefecture":"山形県","prefecture_kana":"ヤマガタケン","city":"山形市","city_kana":"ヤマガタシ","town":"嶋南","town_kana":"シマミナミ","prefecture_code":6},"0858":{"zip_code":"9900858","prefecture":"山形県","prefecture_kana":"ヤマガタケン","city":"山形市","city_kana":"ヤマガタシ","town":"下椹沢","town_kana":"シモクヌギザワ","prefecture_code":6},"0823":{"zip_code":"9900823","prefecture":"山形県","prefecture_kana":"ヤマガタケン","city":"山形市","city_kana":"ヤマガタシ","town":"下条町","town_kana":"シモジョウマチ","prefecture_code":6},"2385":{"zip_code":"9902385","prefecture":"山形県","prefecture_kana":"ヤマガタケン","city":"山形市","city_kana":"ヤマガタシ","town":"下反田","town_kana":"シモソリダ","prefecture_code":6},"0809":{"zip_code":"9900809","prefecture":"山形県","prefecture_kana":"ヤマガタケン","city":"山形市","city_kana":"ヤマガタシ","town":"下田","town_kana":"シモダ","prefecture_code":6},"2232":{"zip_code":"9902232","prefecture":"山形県","prefecture_kana":"ヤマガタケン","city":"山形市","city_kana":"ヤマガタシ","town":"下東山","town_kana":"シモヒガシヤマ","prefecture_code":6},"0018":{"zip_code":"9900018","prefecture":"山形県","prefecture_kana":"ヤマガタケン","city":"山形市","city_kana":"ヤマガタシ","town":"下宝沢","town_kana":"シモホウザワ","prefecture_code":6},"2215":{"zip_code":"9902215","prefecture":"山形県","prefecture_kana":"ヤマガタケン","city":"山形市","city_kana":"ヤマガタシ","town":"下柳","town_kana":"シモヤナギ","prefecture_code":6},"0005":{"zip_code":"9900005","prefecture":"山形県","prefecture_kana":"ヤマガタケン","city":"山形市","city_kana":"ヤマガタシ","town":"下山家町","town_kana":"シモヤンベマチ","prefecture_code":6},"0012":{"zip_code":"9900012","prefecture":"山形県","prefecture_kana":"ヤマガタケン","city":"山形市","city_kana":"ヤマガタシ","town":"釈迦堂","town_kana":"シャカドウ","prefecture_code":6},"2211":{"zip_code":"9902211","prefecture":"山形県","prefecture_kana":"ヤマガタケン","city":"山形市","city_kana":"ヤマガタシ","town":"十文字","town_kana":"ジュウモンジ","prefecture_code":6},"0827":{"zip_code":"9900827","prefecture":"山形県","prefecture_kana":"ヤマガタケン","city":"山形市","city_kana":"ヤマガタシ","town":"城南町","town_kana":"ジョウナンマチ","prefecture_code":6},"0825":{"zip_code":"9900825","prefecture":"山形県","prefecture_kana":"ヤマガタケン","city":"山形市","city_kana":"ヤマガタシ","town":"城北町","town_kana":"ジョウホクマチ","prefecture_code":6},"2381":{"zip_code":"9902381","prefecture":"山形県","prefecture_kana":"ヤマガタケン","city":"山形市","city_kana":"ヤマガタシ","town":"常明寺","town_kana":"ジョウミョウジ","prefecture_code":6},"0807":{"zip_code":"9900807","prefecture":"山形県","prefecture_kana":"ヤマガタケン","city":"山形市","city_kana":"ヤマガタシ","town":"白川","town_kana":"シラカワ","prefecture_code":6},"0832":{"zip_code":"9900832","prefecture":"山形県","prefecture_kana":"ヤマガタケン","city":"山形市","city_kana":"ヤマガタシ","town":"城西町","town_kana":"シロニシマチ","prefecture_code":6},"2343":{"zip_code":"9902343","prefecture":"山形県","prefecture_kana":"ヤマガタケン","city":"山形市","city_kana":"ヤマガタシ","town":"城森","town_kana":"シロモリ","prefecture_code":6},"2164":{"zip_code":"9902164","prefecture":"山形県","prefecture_kana":"ヤマガタケン","city":"山形市","city_kana":"ヤマガタシ","town":"新開","town_kana":"シンカイ","prefecture_code":6},"0864":{"zip_code":"9900864","prefecture":"山形県","prefecture_kana":"ヤマガタケン","city":"山形市","city_kana":"ヤマガタシ","town":"陣場","town_kana":"ジンバ","prefecture_code":6},"0882":{"zip_code":"9900882","prefecture":"山形県","prefecture_kana":"ヤマガタケン","city":"山形市","city_kana":"ヤマガタシ","town":"陣場新田","town_kana":"ジンバシンデン","prefecture_code":6},"0860":{"zip_code":"9900860","prefecture":"山形県","prefecture_kana":"ヤマガタケン","city":"山形市","city_kana":"ヤマガタシ","town":"陣場南","town_kana":"ジンバミナミ","prefecture_code":6},"2494":{"zip_code":"9902494","prefecture":"山形県","prefecture_kana":"ヤマガタケン","city":"山形市","city_kana":"ヤマガタシ","town":"末広町","town_kana":"スエヒロチョウ","prefecture_code":6},"2362":{"zip_code":"9902362","prefecture":"山形県","prefecture_kana":"ヤマガタケン","city":"山形市","city_kana":"ヤマガタシ","town":"菅沢","town_kana":"スゲサワ","prefecture_code":6},"2367":{"zip_code":"9902367","prefecture":"山形県","prefecture_kana":"ヤマガタケン","city":"山形市","city_kana":"ヤマガタシ","town":"すげさわの丘","town_kana":"スゲサワノオカ","prefecture_code":6},"0884":{"zip_code":"9900884","prefecture":"山形県","prefecture_kana":"ヤマガタケン","city":"山形市","city_kana":"ヤマガタシ","town":"鮨洗","town_kana":"スシアライ","prefecture_code":6},"0062":{"zip_code":"9900062","prefecture":"山形県","prefecture_kana":"ヤマガタケン","city":"山形市","city_kana":"ヤマガタシ","town":"鈴川町","town_kana":"スズカワマチ","prefecture_code":6},"0847":{"zip_code":"9900847","prefecture":"山形県","prefecture_kana":"ヤマガタケン","city":"山形市","city_kana":"ヤマガタシ","town":"砂田","town_kana":"スナダ","prefecture_code":6},"0854":{"zip_code":"9900854","prefecture":"山形県","prefecture_kana":"ヤマガタケン","city":"山形市","city_kana":"ヤマガタシ","town":"砂塚","town_kana":"スナヅカ","prefecture_code":6},"0033":{"zip_code":"9900033","prefecture":"山形県","prefecture_kana":"ヤマガタケン","city":"山形市","city_kana":"ヤマガタシ","town":"諏訪町","town_kana":"スワマチ","prefecture_code":6},"0016":{"zip_code":"9900016","prefecture":"山形県","prefecture_kana":"ヤマガタケン","city":"山形市","city_kana":"ヤマガタシ","town":"関沢","town_kana":"セキザワ","prefecture_code":6},"0881":{"zip_code":"9900881","prefecture":"山形県","prefecture_kana":"ヤマガタケン","city":"山形市","city_kana":"ヤマガタシ","town":"瀬波","town_kana":"セナミ","prefecture_code":6},"2216":{"zip_code":"9902216","prefecture":"山形県","prefecture_kana":"ヤマガタケン","city":"山形市","city_kana":"ヤマガタシ","town":"千刈","town_kana":"センガリ","prefecture_code":6},"2227":{"zip_code":"9902227","prefecture":"山形県","prefecture_kana":"ヤマガタケン","city":"山形市","city_kana":"ヤマガタシ","town":"千石","town_kana":"センゴク","prefecture_code":6},"2172":{"zip_code":"9902172","prefecture":"山形県","prefecture_kana":"ヤマガタケン","city":"山形市","city_kana":"ヤマガタシ","town":"千手堂","town_kana":"センジュドウ","prefecture_code":6},"0008":{"zip_code":"9900008","prefecture":"山形県","prefecture_kana":"ヤマガタケン","city":"山形市","city_kana":"ヤマガタシ","town":"双月新町","town_kana":"ソウツキシンチョウ","prefecture_code":6},"0065":{"zip_code":"9900065","prefecture":"山形県","prefecture_kana":"ヤマガタケン","city":"山形市","city_kana":"ヤマガタシ","town":"双月町","town_kana":"ソウツキマチ","prefecture_code":6},"2378":{"zip_code":"9902378","prefecture":"山形県","prefecture_kana":"ヤマガタケン","city":"山形市","city_kana":"ヤマガタシ","town":"反町","town_kana":"ソリマチ","prefecture_code":6},"2364":{"zip_code":"9902364","prefecture":"山形県","prefecture_kana":"ヤマガタケン","city":"山形市","city_kana":"ヤマガタシ","town":"大師堂","town_kana":"ダイシドウ","prefecture_code":6},"0073":{"zip_code":"9900073","prefecture":"山形県","prefecture_kana":"ヤマガタケン","city":"山形市","city_kana":"ヤマガタシ","town":"大野目","town_kana":"ダイノメ","prefecture_code":6},"2346":{"zip_code":"9902346","prefecture":"山形県","prefecture_kana":"ヤマガタケン","city":"山形市","city_kana":"ヤマガタシ","town":"高木","town_kana":"タカギ","prefecture_code":6},"2242":{"zip_code":"9902242","prefecture":"山形県","prefecture_kana":"ヤマガタケン","city":"山形市","city_kana":"ヤマガタシ","town":"高沢","town_kana":"タカサワ","prefecture_code":6},"0808":{"zip_code":"9900808","prefecture":"山形県","prefecture_kana":"ヤマガタケン","city":"山形市","city_kana":"ヤマガタシ","town":"高田","town_kana":"タカダ","prefecture_code":6},"2464":{"zip_code":"9902464","prefecture":"山形県","prefecture_kana":"ヤマガタケン","city":"山形市","city_kana":"ヤマガタシ","town":"高堂","town_kana":"タカドウ","prefecture_code":6},"0002":{"zip_code":"9900002","prefecture":"山形県","prefecture_kana":"ヤマガタケン","city":"山形市","city_kana":"ヤマガタシ","town":"高原町","town_kana":"タカハラマチ","prefecture_code":6},"2382":{"zip_code":"9902382","prefecture":"山形県","prefecture_kana":"ヤマガタケン","city":"山形市","city_kana":"ヤマガタシ","town":"滝平","town_kana":"タキノヒラ","prefecture_code":6},"2251":{"zip_code":"9902251","prefecture":"山形県","prefecture_kana":"ヤマガタケン","city":"山形市","city_kana":"ヤマガタシ","town":"立谷川","town_kana":"タチヤガワ","prefecture_code":6},"2163":{"zip_code":"9902163","prefecture":"山形県","prefecture_kana":"ヤマガタケン","city":"山形市","city_kana":"ヤマガタシ","town":"伊達城","town_kana":"ダテジョウ","prefecture_code":6},"0805":{"zip_code":"9900805","prefecture":"山形県","prefecture_kana":"ヤマガタケン","city":"山形市","city_kana":"ヤマガタシ","town":"壇野前","town_kana":"ダンノマエ","prefecture_code":6},"2224":{"zip_code":"9902224","prefecture":"山形県","prefecture_kana":"ヤマガタケン","city":"山形市","city_kana":"ヤマガタシ","town":"近田","town_kana":"チカダ","prefecture_code":6},"0812":{"zip_code":"9900812","prefecture":"山形県","prefecture_kana":"ヤマガタケン","city":"山形市","city_kana":"ヤマガタシ","town":"千歳","town_kana":"チトセ","prefecture_code":6},"0855":{"zip_code":"9900855","prefecture":"山形県","prefecture_kana":"ヤマガタケン","city":"山形市","city_kana":"ヤマガタシ","town":"千代田","town_kana":"チヨダ","prefecture_code":6},"2315":{"zip_code":"9902315","prefecture":"山形県","prefecture_kana":"ヤマガタケン","city":"山形市","city_kana":"ヤマガタシ","town":"津金沢","town_kana":"ツガネザワ","prefecture_code":6},"2405":{"zip_code":"9902405","prefecture":"山形県","prefecture_kana":"ヤマガタケン","city":"山形市","city_kana":"ヤマガタシ","town":"土坂","town_kana":"ツチザカ","prefecture_code":6},"0814":{"zip_code":"9900814","prefecture":"山形県","prefecture_kana":"ヤマガタケン","city":"山形市","city_kana":"ヤマガタシ","town":"土樋","town_kana":"ツチドイ","prefecture_code":6},"2492":{"zip_code":"9902492","prefecture":"山形県","prefecture_kana":"ヤマガタケン","city":"山形市","city_kana":"ヤマガタシ","town":"鉄砲町","town_kana":"テッポウマチ","prefecture_code":6},"2213":{"zip_code":"9902213","prefecture":"山形県","prefecture_kana":"ヤマガタケン","city":"山形市","city_kana":"ヤマガタシ","town":"寺西","town_kana":"テラニシ","prefecture_code":6},"0867":{"zip_code":"9900867","prefecture":"山形県","prefecture_kana":"ヤマガタケン","city":"山形市","city_kana":"ヤマガタシ","town":"天神台","town_kana":"テンジンダイ","prefecture_code":6},"0801":{"zip_code":"9900801","prefecture":"山形県","prefecture_kana":"ヤマガタケン","city":"山形市","city_kana":"ヤマガタシ","town":"天神町","town_kana":"テンジンチョウ","prefecture_code":6},"0031":{"zip_code":"9900031","prefecture":"山形県","prefecture_kana":"ヤマガタケン","city":"山形市","city_kana":"ヤマガタシ","town":"十日町","town_kana":"トウカマチ","prefecture_code":6},"0806":{"zip_code":"9900806","prefecture":"山形県","prefecture_kana":"ヤマガタケン","city":"山形市","city_kana":"ヤマガタシ","town":"藤治屋敷","town_kana":"トウジヤシキ","prefecture_code":6},"2223":{"zip_code":"9902223","prefecture":"山形県","prefecture_kana":"ヤマガタケン","city":"山形市","city_kana":"ヤマガタシ","town":"塔の前","town_kana":"トウノマエ","prefecture_code":6},"0051":{"zip_code":"9900051","prefecture":"山形県","prefecture_kana":"ヤマガタケン","city":"山形市","city_kana":"ヤマガタシ","town":"銅町","town_kana":"ドウマチ","prefecture_code":6},"0871":{"zip_code":"9900871","prefecture":"山形県","prefecture_kana":"ヤマガタケン","city":"山形市","city_kana":"ヤマガタシ","town":"銅谷口","town_kana":"ドウヤグチ","prefecture_code":6},"2345":{"zip_code":"9902345","prefecture":"山形県","prefecture_kana":"ヤマガタケン","city":"山形市","city_kana":"ヤマガタシ","town":"富神台","town_kana":"トガミダイ","prefecture_code":6},"2342":[{"zip_code":"9902342","prefecture":"山形県","prefecture_kana":"ヤマガタケン","city":"山形市","city_kana":"ヤマガタシ","town":"富神前","town_kana":"トガミマエ","prefecture_code":6},{"zip_code":"9902342","prefecture":"山形県","prefecture_kana":"ヤマガタケン","city":"山形市","city_kana":"ヤマガタシ","town":"門伝","town_kana":"モンデン","prefecture_code":6}],"2361":{"zip_code":"9902361","prefecture":"山形県","prefecture_kana":"ヤマガタケン","city":"山形市","city_kana":"ヤマガタシ","town":"百目鬼","town_kana":"ドメキ","prefecture_code":6},"2463":{"zip_code":"9902463","prefecture":"山形県","prefecture_kana":"ヤマガタケン","city":"山形市","city_kana":"ヤマガタシ","town":"富の中","town_kana":"トミノジュウ","prefecture_code":6},"0815":{"zip_code":"9900815","prefecture":"山形県","prefecture_kana":"ヤマガタケン","city":"山形市","city_kana":"ヤマガタシ","town":"樋越","town_kana":"トヨゴシ","prefecture_code":6},"2433":{"zip_code":"9902433","prefecture":"山形県","prefecture_kana":"ヤマガタケン","city":"山形市","city_kana":"ヤマガタシ","town":"鳥居ケ丘","town_kana":"トリイガオカ","prefecture_code":6},"2422":{"zip_code":"9902422","prefecture":"山形県","prefecture_kana":"ヤマガタケン","city":"山形市","city_kana":"ヤマガタシ","town":"中桜田","town_kana":"ナカサクラダ","prefecture_code":6},"2235":{"zip_code":"9902235","prefecture":"山形県","prefecture_kana":"ヤマガタケン","city":"山形市","city_kana":"ヤマガタシ","town":"中里","town_kana":"ナカザト","prefecture_code":6},"0849":{"zip_code":"9900849","prefecture":"山形県","prefecture_kana":"ヤマガタケン","city":"山形市","city_kana":"ヤマガタシ","town":"中沼","town_kana":"ナカヌマ","prefecture_code":6},"0892":{"zip_code":"9900892","prefecture":"山形県","prefecture_kana":"ヤマガタケン","city":"山形市","city_kana":"ヤマガタシ","town":"中野","town_kana":"ナカノ","prefecture_code":6},"2175":{"zip_code":"9902175","prefecture":"山形県","prefecture_kana":"ヤマガタケン","city":"山形市","city_kana":"ヤマガタシ","town":"中野目","town_kana":"ナカノメ","prefecture_code":6},"2477":{"zip_code":"9902477","prefecture":"山形県","prefecture_kana":"ヤマガタケン","city":"山形市","city_kana":"ヤマガタシ","town":"長苗代","town_kana":"ナガナワシロ","prefecture_code":6},"0811":{"zip_code":"9900811","prefecture":"山形県","prefecture_kana":"ヤマガタケン","city":"山形市","city_kana":"ヤマガタシ","town":"長町","town_kana":"ナガマチ","prefecture_code":6},"2171":{"zip_code":"9902171","prefecture":"山形県","prefecture_kana":"ヤマガタケン","city":"山形市","city_kana":"ヤマガタシ","town":"七浦","town_kana":"ナナウラ","prefecture_code":6},"0804":{"zip_code":"9900804","prefecture":"山形県","prefecture_kana":"ヤマガタケン","city":"山形市","city_kana":"ヤマガタシ","town":"七十刈","town_kana":"ナナジュウガリ","prefecture_code":6},"0042":{"zip_code":"9900042","prefecture":"山形県","prefecture_kana":"ヤマガタケン","city":"山形市","city_kana":"ヤマガタシ","town":"七日町","town_kana":"ナヌカマチ","prefecture_code":6},"2386":{"zip_code":"9902386","prefecture":"山形県","prefecture_kana":"ヤマガタケン","city":"山形市","city_kana":"ヤマガタシ","town":"並柳","town_kana":"ナミヤナギ","prefecture_code":6},"0014":{"zip_code":"9900014","prefecture":"山形県","prefecture_kana":"ヤマガタケン","city":"山形市","city_kana":"ヤマガタシ","town":"滑川","town_kana":"ナメカワ","prefecture_code":6},"2339":{"zip_code":"9902339","prefecture":"山形県","prefecture_kana":"ヤマガタケン","city":"山形市","city_kana":"ヤマガタシ","town":"成沢西","town_kana":"ナリサワニシ","prefecture_code":6},"0891":{"zip_code":"9900891","prefecture":"山形県","prefecture_kana":"ヤマガタケン","city":"山形市","city_kana":"ヤマガタシ","town":"成安","town_kana":"ナリヤス","prefecture_code":6},"2445":{"zip_code":"9902445","prefecture":"山形県","prefecture_kana":"ヤマガタケン","city":"山形市","city_kana":"ヤマガタシ","town":"南栄町","town_kana":"ナンエイチョウ","prefecture_code":6},"2355":{"zip_code":"9902355","prefecture":"山形県","prefecture_kana":"ヤマガタケン","city":"山形市","city_kana":"ヤマガタシ","town":"二位田","town_kana":"ニイダ","prefecture_code":6},"0015":{"zip_code":"9900015","prefecture":"山形県","prefecture_kana":"ヤマガタケン","city":"山形市","city_kana":"ヤマガタシ","town":"新山","town_kana":"ニイヤマ","prefecture_code":6},"0862":{"zip_code":"9900862","prefecture":"山形県","prefecture_kana":"ヤマガタケン","city":"山形市","city_kana":"ヤマガタシ","town":"西江俣","town_kana":"ニシエマタ","prefecture_code":6},"0056":{"zip_code":"9900056","prefecture":"山形県","prefecture_kana":"ヤマガタケン","city":"山形市","city_kana":"ヤマガタシ","town":"錦町","town_kana":"ニシキチョウ","prefecture_code":6},"2226":{"zip_code":"9902226","prefecture":"山形県","prefecture_kana":"ヤマガタケン","city":"山形市","city_kana":"ヤマガタシ","town":"西越","town_kana":"ニシゴシ","prefecture_code":6},"0853":{"zip_code":"9900853","prefecture":"山形県","prefecture_kana":"ヤマガタケン","city":"山形市","city_kana":"ヤマガタシ","town":"西崎","town_kana":"ニシザキ","prefecture_code":6},"0831":{"zip_code":"9900831","prefecture":"山形県","prefecture_kana":"ヤマガタケン","city":"山形市","city_kana":"ヤマガタシ","town":"西田","town_kana":"ニシタ","prefecture_code":6},"0893":{"zip_code":"9900893","prefecture":"山形県","prefecture_kana":"ヤマガタケン","city":"山形市","city_kana":"ヤマガタシ","town":"西中野","town_kana":"ニシナカノ","prefecture_code":6},"0859":{"zip_code":"9900859","prefecture":"山形県","prefecture_kana":"ヤマガタケン","city":"山形市","city_kana":"ヤマガタシ","town":"西原","town_kana":"ニシハラ","prefecture_code":6},"0844":{"zip_code":"9900844","prefecture":"山形県","prefecture_kana":"ヤマガタケン","city":"山形市","city_kana":"ヤマガタシ","town":"西見田","town_kana":"ニシミダ","prefecture_code":6},"2474":{"zip_code":"9902474","prefecture":"山形県","prefecture_kana":"ヤマガタケン","city":"山形市","city_kana":"ヤマガタシ","town":"沼木","town_kana":"ヌマギ","prefecture_code":6},"0007":{"zip_code":"9900007","prefecture":"山形県","prefecture_kana":"ヤマガタケン","city":"山形市","city_kana":"ヤマガタシ","town":"沼の辺町","town_kana":"ヌマノベマチ","prefecture_code":6},"2174":{"zip_code":"9902174","prefecture":"山形県","prefecture_kana":"ヤマガタケン","city":"山形市","city_kana":"ヤマガタシ","town":"灰塚","town_kana":"ハイヅカ","prefecture_code":6},"2446":{"zip_code":"9902446","prefecture":"山形県","prefecture_kana":"ヤマガタケン","city":"山形市","city_kana":"ヤマガタシ","town":"白山","town_kana":"ハクサン","prefecture_code":6},"2471":{"zip_code":"9902471","prefecture":"山形県","prefecture_kana":"ヤマガタケン","city":"山形市","city_kana":"ヤマガタシ","town":"羽黒堂","town_kana":"ハグロドウ","prefecture_code":6},"0865":{"zip_code":"9900865","prefecture":"山形県","prefecture_kana":"ヤマガタケン","city":"山形市","city_kana":"ヤマガタシ","town":"馬上台","town_kana":"バジョウダイ","prefecture_code":6},"2363":{"zip_code":"9902363","prefecture":"山形県","prefecture_kana":"ヤマガタケン","city":"山形市","city_kana":"ヤマガタシ","town":"長谷堂","town_kana":"ハセドウ","prefecture_code":6},"0047":{"zip_code":"9900047","prefecture":"山形県","prefecture_kana":"ヤマガタケン","city":"山形市","city_kana":"ヤマガタシ","town":"旅篭町","town_kana":"ハタゴマチ","prefecture_code":6},"0872":{"zip_code":"9900872","prefecture":"山形県","prefecture_kana":"ヤマガタケン","city":"山形市","city_kana":"ヤマガタシ","town":"八幡前","town_kana":"ハチマンマエ","prefecture_code":6},"2404":{"zip_code":"9902404","prefecture":"山形県","prefecture_kana":"ヤマガタケン","city":"山形市","city_kana":"ヤマガタシ","town":"八森","town_kana":"ハチモリ","prefecture_code":6},"2225":{"zip_code":"9902225","prefecture":"山形県","prefecture_kana":"ヤマガタケン","city":"山形市","city_kana":"ヤマガタシ","town":"花岡","town_kana":"ハナオカ","prefecture_code":6},"0067":{"zip_code":"9900067","prefecture":"山形県","prefecture_kana":"ヤマガタケン","city":"山形市","city_kana":"ヤマガタシ","town":"花楯","town_kana":"ハナタテ","prefecture_code":6},"0072":{"zip_code":"9900072","prefecture":"山形県","prefecture_kana":"ヤマガタケン","city":"山形市","city_kana":"ヤマガタシ","town":"浜崎","town_kana":"ハマザキ","prefecture_code":6},"2423":{"zip_code":"9902423","prefecture":"山形県","prefecture_kana":"ヤマガタケン","city":"山形市","city_kana":"ヤマガタシ","town":"東青田","town_kana":"ヒガシアオタ","prefecture_code":6},"0899":{"zip_code":"9900899","prefecture":"山形県","prefecture_kana":"ヤマガタケン","city":"山形市","city_kana":"ヤマガタシ","town":"東篭野町","town_kana":"ヒガシカゴノマチ","prefecture_code":6},"0869":{"zip_code":"9900869","prefecture":"山形県","prefecture_kana":"ヤマガタケン","city":"山形市","city_kana":"ヤマガタシ","town":"東志戸田","town_kana":"ヒガシシトダ","prefecture_code":6},"0897":{"zip_code":"9900897","prefecture":"山形県","prefecture_kana":"ヤマガタケン","city":"山形市","city_kana":"ヤマガタシ","town":"東田","town_kana":"ヒガシダ","prefecture_code":6},"2354":{"zip_code":"9902354","prefecture":"山形県","prefecture_kana":"ヤマガタケン","city":"山形市","city_kana":"ヤマガタシ","town":"東二位田","town_kana":"ヒガシニイダ","prefecture_code":6},"0034":{"zip_code":"9900034","prefecture":"山形県","prefecture_kana":"ヤマガタケン","city":"山形市","city_kana":"ヤマガタシ","town":"東原町","town_kana":"ヒガシハラマチ","prefecture_code":6},"2308":{"zip_code":"9902308","prefecture":"山形県","prefecture_kana":"ヤマガタケン","city":"山形市","city_kana":"ヤマガタシ","town":"東半郷","town_kana":"ヒガシハンゴウ","prefecture_code":6},"2375":{"zip_code":"9902375","prefecture":"山形県","prefecture_kana":"ヤマガタケン","city":"山形市","city_kana":"ヤマガタシ","town":"東古館","town_kana":"ヒガシフルダテ","prefecture_code":6},"0022":{"zip_code":"9900022","prefecture":"山形県","prefecture_kana":"ヤマガタケン","city":"山形市","city_kana":"ヤマガタシ","town":"東山形","town_kana":"ヒガシヤマガタ","prefecture_code":6},"0813":{"zip_code":"9900813","prefecture":"山形県","prefecture_kana":"ヤマガタケン","city":"山形市","city_kana":"ヤマガタシ","town":"桧町","town_kana":"ヒノキチョウ","prefecture_code":6},"0076":{"zip_code":"9900076","prefecture":"山形県","prefecture_kana":"ヤマガタケン","city":"山形市","city_kana":"ヤマガタシ","town":"平久保","town_kana":"ヒラクボ","prefecture_code":6},"2401":{"zip_code":"9902401","prefecture":"山形県","prefecture_kana":"ヤマガタケン","city":"山形市","city_kana":"ヤマガタシ","town":"平清水","town_kana":"ヒラシミズ","prefecture_code":6},"2462":{"zip_code":"9902462","prefecture":"山形県","prefecture_kana":"ヤマガタケン","city":"山形市","city_kana":"ヤマガタシ","town":"深町","town_kana":"フカマチ","prefecture_code":6},"2377":{"zip_code":"9902377","prefecture":"山形県","prefecture_kana":"ヤマガタケン","city":"山形市","city_kana":"ヤマガタシ","town":"藤沢川","town_kana":"フジサワガワ","prefecture_code":6},"0828":{"zip_code":"9900828","prefecture":"山形県","prefecture_kana":"ヤマガタケン","city":"山形市","city_kana":"ヤマガタシ","town":"双葉町","town_kana":"フタバチョウ","prefecture_code":6},"0894":{"zip_code":"9900894","prefecture":"山形県","prefecture_kana":"ヤマガタケン","city":"山形市","city_kana":"ヤマガタシ","town":"船町","town_kana":"フナマチ","prefecture_code":6},"2374":{"zip_code":"9902374","prefecture":"山形県","prefecture_kana":"ヤマガタケン","city":"山形市","city_kana":"ヤマガタシ","town":"古館","town_kana":"フルダテ","prefecture_code":6},"0857":{"zip_code":"9900857","prefecture":"山形県","prefecture_kana":"ヤマガタケン","city":"山形市","city_kana":"ヤマガタシ","town":"平田","town_kana":"ヘイダ","prefecture_code":6},"0013":{"zip_code":"9900013","prefecture":"山形県","prefecture_kana":"ヤマガタケン","city":"山形市","city_kana":"ヤマガタシ","town":"防原町","town_kana":"ボウバラマチ","prefecture_code":6},"0001":{"zip_code":"9900001","prefecture":"山形県","prefecture_kana":"ヤマガタケン","city":"山形市","city_kana":"ヤマガタシ","town":"穂積","town_kana":"ホヅミ","prefecture_code":6},"0043":{"zip_code":"9900043","prefecture":"山形県","prefecture_kana":"ヤマガタケン","city":"山形市","city_kana":"ヤマガタシ","town":"本町","town_kana":"ホンチョウ","prefecture_code":6},"2352":{"zip_code":"9902352","prefecture":"山形県","prefecture_kana":"ヤマガタケン","city":"山形市","city_kana":"ヤマガタシ","town":"前明石","town_kana":"マエアカシ","prefecture_code":6},"2411":{"zip_code":"9902411","prefecture":"山形県","prefecture_kana":"ヤマガタケン","city":"山形市","city_kana":"ヤマガタシ","town":"前田町","town_kana":"マエタマチ","prefecture_code":6},"2473":{"zip_code":"9902473","prefecture":"山形県","prefecture_kana":"ヤマガタケン","city":"山形市","city_kana":"ヤマガタシ","town":"松栄","town_kana":"マツエイ","prefecture_code":6},"0023":{"zip_code":"9900023","prefecture":"山形県","prefecture_kana":"ヤマガタケン","city":"山形市","city_kana":"ヤマガタシ","town":"松波","town_kana":"マツナミ","prefecture_code":6},"2313":{"zip_code":"9902313","prefecture":"山形県","prefecture_kana":"ヤマガタケン","city":"山形市","city_kana":"ヤマガタシ","town":"松原","town_kana":"マツバラ","prefecture_code":6},"2431":{"zip_code":"9902431","prefecture":"山形県","prefecture_kana":"ヤマガタケン","city":"山形市","city_kana":"ヤマガタシ","town":"松見町","town_kana":"マツミチョウ","prefecture_code":6},"2412":{"zip_code":"9902412","prefecture":"山形県","prefecture_kana":"ヤマガタケン","city":"山形市","city_kana":"ヤマガタシ","town":"松山","town_kana":"マツヤマ","prefecture_code":6},"0810":{"zip_code":"9900810","prefecture":"山形県","prefecture_kana":"ヤマガタケン","city":"山形市","city_kana":"ヤマガタシ","town":"馬見ケ崎","town_kana":"マミガサキ","prefecture_code":6},"0803":{"zip_code":"9900803","prefecture":"山形県","prefecture_kana":"ヤマガタケン","city":"山形市","city_kana":"ヤマガタシ","town":"見崎","town_kana":"ミサキ","prefecture_code":6},"0802":{"zip_code":"9900802","prefecture":"山形県","prefecture_kana":"ヤマガタケン","city":"山形市","city_kana":"ヤマガタシ","town":"見崎川原","town_kana":"ミサキカワラ","prefecture_code":6},"0036":{"zip_code":"9900036","prefecture":"山形県","prefecture_kana":"ヤマガタケン","city":"山形市","city_kana":"ヤマガタシ","town":"三日町","town_kana":"ミッカマチ","prefecture_code":6},"0041":{"zip_code":"9900041","prefecture":"山形県","prefecture_kana":"ヤマガタケン","city":"山形市","city_kana":"ヤマガタシ","town":"緑町","town_kana":"ミドリチョウ","prefecture_code":6},"2441":{"zip_code":"9902441","prefecture":"山形県","prefecture_kana":"ヤマガタケン","city":"山形市","city_kana":"ヤマガタシ","town":"南一番町","town_kana":"ミナミ1バンチョウ","prefecture_code":6},"2442":{"zip_code":"9902442","prefecture":"山形県","prefecture_kana":"ヤマガタケン","city":"山形市","city_kana":"ヤマガタシ","town":"南二番町","town_kana":"ミナミ2バンチョウ","prefecture_code":6},"2443":{"zip_code":"9902443","prefecture":"山形県","prefecture_kana":"ヤマガタケン","city":"山形市","city_kana":"ヤマガタシ","town":"南三番町","town_kana":"ミナミ3バンチョウ","prefecture_code":6},"2444":{"zip_code":"9902444","prefecture":"山形県","prefecture_kana":"ヤマガタケン","city":"山形市","city_kana":"ヤマガタシ","town":"南四番町","town_kana":"ミナミ4バンチョウ","prefecture_code":6},"0836":{"zip_code":"9900836","prefecture":"山形県","prefecture_kana":"ヤマガタケン","city":"山形市","city_kana":"ヤマガタシ","town":"南石関","town_kana":"ミナミイシゼキ","prefecture_code":6},"0879":{"zip_code":"9900879","prefecture":"山形県","prefecture_kana":"ヤマガタケン","city":"山形市","city_kana":"ヤマガタシ","town":"南志戸田","town_kana":"ミナミシトダ","prefecture_code":6},"2461":{"zip_code":"9902461","prefecture":"山形県","prefecture_kana":"ヤマガタケン","city":"山形市","city_kana":"ヤマガタシ","town":"南館","town_kana":"ミナミダテ","prefecture_code":6},"2465":{"zip_code":"9902465","prefecture":"山形県","prefecture_kana":"ヤマガタケン","city":"山形市","city_kana":"ヤマガタシ","town":"南館西","town_kana":"ミナミダテニシ","prefecture_code":6},"2413":{"zip_code":"9902413","prefecture":"山形県","prefecture_kana":"ヤマガタケン","city":"山形市","city_kana":"ヤマガタシ","town":"南原町","town_kana":"ミナミハラマチ","prefecture_code":6},"2306":{"zip_code":"9902306","prefecture":"山形県","prefecture_kana":"ヤマガタケン","city":"山形市","city_kana":"ヤマガタシ","town":"南半郷","town_kana":"ミナミハンゴウ","prefecture_code":6},"2312":{"zip_code":"9902312","prefecture":"山形県","prefecture_kana":"ヤマガタケン","city":"山形市","city_kana":"ヤマガタシ","town":"南松原","town_kana":"ミナミマツバラ","prefecture_code":6},"2372":{"zip_code":"9902372","prefecture":"山形県","prefecture_kana":"ヤマガタケン","city":"山形市","city_kana":"ヤマガタシ","town":"みのりが丘","town_kana":"ミノリガオカ","prefecture_code":6},"2493":{"zip_code":"9902493","prefecture":"山形県","prefecture_kana":"ヤマガタケン","city":"山形市","city_kana":"ヤマガタシ","town":"美畑町","town_kana":"ミハタチョウ","prefecture_code":6},"2317":{"zip_code":"9902317","prefecture":"山形県","prefecture_kana":"ヤマガタケン","city":"山形市","city_kana":"ヤマガタシ","town":"みはらしの丘","town_kana":"ミハラシノオカ","prefecture_code":6},"0848":{"zip_code":"9900848","prefecture":"山形県","prefecture_kana":"ヤマガタケン","city":"山形市","city_kana":"ヤマガタシ","town":"宮浦","town_kana":"ミヤウラ","prefecture_code":6},"0057":{"zip_code":"9900057","prefecture":"山形県","prefecture_kana":"ヤマガタケン","city":"山形市","city_kana":"ヤマガタシ","town":"宮町","town_kana":"ミヤマチ","prefecture_code":6},"0011":{"zip_code":"9900011","prefecture":"山形県","prefecture_kana":"ヤマガタケン","city":"山形市","city_kana":"ヤマガタシ","town":"妙見寺","town_kana":"ミョウケンジ","prefecture_code":6},"2472":{"zip_code":"9902472","prefecture":"山形県","prefecture_kana":"ヤマガタケン","city":"山形市","city_kana":"ヤマガタシ","town":"明神前","town_kana":"ミョウジンマエ","prefecture_code":6},"0054":{"zip_code":"9900054","prefecture":"山形県","prefecture_kana":"ヤマガタケン","city":"山形市","city_kana":"ヤマガタシ","town":"六日町","town_kana":"ムイカマチ","prefecture_code":6},"0895":{"zip_code":"9900895","prefecture":"山形県","prefecture_kana":"ヤマガタケン","city":"山形市","city_kana":"ヤマガタシ","town":"向新田","town_kana":"ムカイシンデン","prefecture_code":6},"2371":{"zip_code":"9902371","prefecture":"山形県","prefecture_kana":"ヤマガタケン","city":"山形市","city_kana":"ヤマガタシ","town":"村木沢","town_kana":"ムラキザワ","prefecture_code":6},"2447":{"zip_code":"9902447","prefecture":"山形県","prefecture_kana":"ヤマガタケン","city":"山形市","city_kana":"ヤマガタシ","town":"元木","town_kana":"モトキ","prefecture_code":6},"2314":{"zip_code":"9902314","prefecture":"山形県","prefecture_kana":"ヤマガタケン","city":"山形市","city_kana":"ヤマガタシ","town":"谷柏","town_kana":"ヤガシワ","prefecture_code":6},"0053":{"zip_code":"9900053","prefecture":"山形県","prefecture_kana":"ヤマガタケン","city":"山形市","city_kana":"ヤマガタシ","town":"薬師町","town_kana":"ヤクシマチ","prefecture_code":6},"2366":{"zip_code":"9902366","prefecture":"山形県","prefecture_kana":"ヤマガタケン","city":"山形市","city_kana":"ヤマガタシ","town":"谷地前","town_kana":"ヤチマエ","prefecture_code":6},"0835":{"zip_code":"9900835","prefecture":"山形県","prefecture_kana":"ヤマガタケン","city":"山形市","city_kana":"ヤマガタシ","town":"やよい","town_kana":"ヤヨイ","prefecture_code":6},"0006":{"zip_code":"9900006","prefecture":"山形県","prefecture_kana":"ヤマガタケン","city":"山形市","city_kana":"ヤマガタシ","town":"山家本町","town_kana":"ヤンベホンチョウ","prefecture_code":6},"0063":{"zip_code":"9900063","prefecture":"山形県","prefecture_kana":"ヤマガタケン","city":"山形市","city_kana":"ヤマガタシ","town":"山家町","town_kana":"ヤンベマチ","prefecture_code":6},"0037":{"zip_code":"9900037","prefecture":"山形県","prefecture_kana":"ヤマガタケン","city":"山形市","city_kana":"ヤマガタシ","town":"八日町","town_kana":"ヨウカマチ","prefecture_code":6},"0866":{"zip_code":"9900866","prefecture":"山形県","prefecture_kana":"ヤマガタケン","city":"山形市","city_kana":"ヤマガタシ","town":"横井","town_kana":"ヨコイ","prefecture_code":6},"0843":{"zip_code":"9900843","prefecture":"山形県","prefecture_kana":"ヤマガタケン","city":"山形市","city_kana":"ヤマガタシ","town":"横道","town_kana":"ヨコミチ","prefecture_code":6},"2383":{"zip_code":"9902383","prefecture":"山形県","prefecture_kana":"ヤマガタケン","city":"山形市","city_kana":"ヤマガタシ","town":"芳沢","town_kana":"ヨシザワ","prefecture_code":6},"0074":{"zip_code":"9900074","prefecture":"山形県","prefecture_kana":"ヤマガタケン","city":"山形市","city_kana":"ヤマガタシ","town":"芳野","town_kana":"ヨシノ","prefecture_code":6},"0883":{"zip_code":"9900883","prefecture":"山形県","prefecture_kana":"ヤマガタケン","city":"山形市","city_kana":"ヤマガタシ","town":"吉野宿","town_kana":"ヨシノジュク","prefecture_code":6},"2451":{"zip_code":"9902451","prefecture":"山形県","prefecture_kana":"ヤマガタケン","city":"山形市","city_kana":"ヤマガタシ","town":"吉原","town_kana":"ヨシハラ","prefecture_code":6},"2455":{"zip_code":"9902455","prefecture":"山形県","prefecture_kana":"ヤマガタケン","city":"山形市","city_kana":"ヤマガタシ","town":"吉原南","town_kana":"ヨシハラミナミ","prefecture_code":6},"0071":{"zip_code":"9900071","prefecture":"山形県","prefecture_kana":"ヤマガタケン","city":"山形市","city_kana":"ヤマガタシ","town":"流通センター","town_kana":"リュウツウセンター","prefecture_code":6},"2373":{"zip_code":"9902373","prefecture":"山形県","prefecture_kana":"ヤマガタケン","city":"山形市","city_kana":"ヤマガタシ","town":"若木","town_kana":"ワカギ","prefecture_code":6},"2495":{"zip_code":"9902495","prefecture":"山形県","prefecture_kana":"ヤマガタケン","city":"山形市","city_kana":"ヤマガタシ","town":"若葉町","town_kana":"ワカバチョウ","prefecture_code":6},"2453":{"zip_code":"9902453","prefecture":"山形県","prefecture_kana":"ヤマガタケン","city":"山形市","city_kana":"ヤマガタシ","town":"若宮","town_kana":"ワカミヤ","prefecture_code":6},"0064":{"zip_code":"9900064","prefecture":"山形県","prefecture_kana":"ヤマガタケン","city":"山形市","city_kana":"ヤマガタシ","town":"和合町","town_kana":"ワゴウマチ","prefecture_code":6},"0502":{"zip_code":"9900502","prefecture":"山形県","prefecture_kana":"ヤマガタケン","city":"寒河江市","city_kana":"サガエシ","town":"幸生","town_kana":"サチウ","prefecture_code":6},"0511":{"zip_code":"9900511","prefecture":"山形県","prefecture_kana":"ヤマガタケン","city":"寒河江市","city_kana":"サガエシ","town":"慈恩寺","town_kana":"ジオンジ","prefecture_code":6},"0505":{"zip_code":"9900505","prefecture":"山形県","prefecture_kana":"ヤマガタケン","city":"寒河江市","city_kana":"サガエシ","town":"白岩","town_kana":"シライワ","prefecture_code":6},"0522":{"zip_code":"9900522","prefecture":"山形県","prefecture_kana":"ヤマガタケン","city":"寒河江市","city_kana":"サガエシ","town":"清助新田","town_kana":"セイスケシンデン","prefecture_code":6},"0524":{"zip_code":"9900524","prefecture":"山形県","prefecture_kana":"ヤマガタケン","city":"寒河江市","city_kana":"サガエシ","town":"高松","town_kana":"タカマツ","prefecture_code":6},"0503":{"zip_code":"9900503","prefecture":"山形県","prefecture_kana":"ヤマガタケン","city":"寒河江市","city_kana":"サガエシ","town":"田代","town_kana":"タシロ","prefecture_code":6},"0561":{"zip_code":"9900561","prefecture":"山形県","prefecture_kana":"ヤマガタケン","city":"寒河江市","city_kana":"サガエシ","town":"中央工業団地","town_kana":"チュウオウコウギョウダンチ","prefecture_code":6},"0504":{"zip_code":"9900504","prefecture":"山形県","prefecture_kana":"ヤマガタケン","city":"寒河江市","city_kana":"サガエシ","town":"留場","town_kana":"トメバ","prefecture_code":6},"0513":{"zip_code":"9900513","prefecture":"山形県","prefecture_kana":"ヤマガタケン","city":"寒河江市","city_kana":"サガエシ","town":"日和田","town_kana":"ヒワダ","prefecture_code":6},"0512":{"zip_code":"9900512","prefecture":"山形県","prefecture_kana":"ヤマガタケン","city":"寒河江市","city_kana":"サガエシ","town":"箕輪","town_kana":"ミノワ","prefecture_code":6},"0501":{"zip_code":"9900501","prefecture":"山形県","prefecture_kana":"ヤマガタケン","city":"寒河江市","city_kana":"サガエシ","town":"宮内","town_kana":"ミヤウチ","prefecture_code":6},"0523":{"zip_code":"9900523","prefecture":"山形県","prefecture_kana":"ヤマガタケン","city":"寒河江市","city_kana":"サガエシ","town":"八鍬","town_kana":"ヤクワ","prefecture_code":6},"0521":{"zip_code":"9900521","prefecture":"山形県","prefecture_kana":"ヤマガタケン","city":"寒河江市","city_kana":"サガエシ","town":"谷沢","town_kana":"ヤサワ","prefecture_code":6},"0525":{"zip_code":"9900525","prefecture":"山形県","prefecture_kana":"ヤマガタケン","city":"寒河江市","city_kana":"サガエシ","town":"米沢","town_kana":"ヨナザ","prefecture_code":6},"0300":{"zip_code":"9900300","prefecture":"山形県","prefecture_kana":"ヤマガタケン","city":"東村山郡山辺町","city_kana":"ヒガシムラヤマグンヤマノベマチ","town":"","town_kana":"","prefecture_code":6},"0311":{"zip_code":"9900311","prefecture":"山形県","prefecture_kana":"ヤマガタケン","city":"東村山郡山辺町","city_kana":"ヒガシムラヤマグンヤマノベマチ","town":"近江","town_kana":"オウミ","prefecture_code":6},"0323":{"zip_code":"9900323","prefecture":"山形県","prefecture_kana":"ヤマガタケン","city":"東村山郡山辺町","city_kana":"ヒガシムラヤマグンヤマノベマチ","town":"大塚","town_kana":"オオツカ","prefecture_code":6},"0331":{"zip_code":"9900331","prefecture":"山形県","prefecture_kana":"ヤマガタケン","city":"東村山郡山辺町","city_kana":"ヒガシムラヤマグンヤマノベマチ","town":"大寺","town_kana":"オオテラ","prefecture_code":6},"0341":{"zip_code":"9900341","prefecture":"山形県","prefecture_kana":"ヤマガタケン","city":"東村山郡山辺町","city_kana":"ヒガシムラヤマグンヤマノベマチ","town":"大蕨","town_kana":"オオワラビ","prefecture_code":6},"0332":{"zip_code":"9900332","prefecture":"山形県","prefecture_kana":"ヤマガタケン","city":"東村山郡山辺町","city_kana":"ヒガシムラヤマグンヤマノベマチ","town":"北垣","town_kana":"キタガキ","prefecture_code":6},"0352":{"zip_code":"9900352","prefecture":"山形県","prefecture_kana":"ヤマガタケン","city":"東村山郡山辺町","city_kana":"ヒガシムラヤマグンヤマノベマチ","town":"北作","town_kana":"キタサク","prefecture_code":6},"0342":{"zip_code":"9900342","prefecture":"山形県","prefecture_kana":"ヤマガタケン","city":"東村山郡山辺町","city_kana":"ヒガシムラヤマグンヤマノベマチ","town":"北山","town_kana":"キタヤマ","prefecture_code":6},"0303":{"zip_code":"9900303","prefecture":"山形県","prefecture_kana":"ヤマガタケン","city":"東村山郡山辺町","city_kana":"ヒガシムラヤマグンヤマノベマチ","town":"清水","town_kana":"シミズ","prefecture_code":6},"0333":{"zip_code":"9900333","prefecture":"山形県","prefecture_kana":"ヤマガタケン","city":"東村山郡山辺町","city_kana":"ヒガシムラヤマグンヤマノベマチ","town":"杉下","town_kana":"スギシタ","prefecture_code":6},"0321":{"zip_code":"9900321","prefecture":"山形県","prefecture_kana":"ヤマガタケン","city":"東村山郡山辺町","city_kana":"ヒガシムラヤマグンヤマノベマチ","town":"根際","town_kana":"ネギワ","prefecture_code":6},"0361":{"zip_code":"9900361","prefecture":"山形県","prefecture_kana":"ヤマガタケン","city":"東村山郡山辺町","city_kana":"ヒガシムラヤマグンヤマノベマチ","town":"畑谷","town_kana":"ハタヤ","prefecture_code":6},"0312":{"zip_code":"9900312","prefecture":"山形県","prefecture_kana":"ヤマガタケン","city":"東村山郡山辺町","city_kana":"ヒガシムラヤマグンヤマノベマチ","town":"三河尻","town_kana":"ミカワジリ","prefecture_code":6},"0302":{"zip_code":"9900302","prefecture":"山形県","prefecture_kana":"ヤマガタケン","city":"東村山郡山辺町","city_kana":"ヒガシムラヤマグンヤマノベマチ","town":"緑ケ丘","town_kana":"ミドリガオカ","prefecture_code":6},"0351":{"zip_code":"9900351","prefecture":"山形県","prefecture_kana":"ヤマガタケン","city":"東村山郡山辺町","city_kana":"ヒガシムラヤマグンヤマノベマチ","town":"簗沢","town_kana":"ヤナザワ","prefecture_code":6},"0301":{"zip_code":"9900301","prefecture":"山形県","prefecture_kana":"ヤマガタケン","city":"東村山郡山辺町","city_kana":"ヒガシムラヤマグンヤマノベマチ","town":"山辺","town_kana":"ヤマノベ","prefecture_code":6},"0322":{"zip_code":"9900322","prefecture":"山形県","prefecture_kana":"ヤマガタケン","city":"東村山郡山辺町","city_kana":"ヒガシムラヤマグンヤマノベマチ","town":"要害","town_kana":"ヨウガイ","prefecture_code":6},"0400":{"zip_code":"9900400","prefecture":"山形県","prefecture_kana":"ヤマガタケン","city":"東村山郡中山町","city_kana":"ヒガシムラヤマグンナカヤママチ","town":"","town_kana":"","prefecture_code":6},"0411":{"zip_code":"9900411","prefecture":"山形県","prefecture_kana":"ヤマガタケン","city":"東村山郡中山町","city_kana":"ヒガシムラヤマグンナカヤママチ","town":"あおば","town_kana":"アオバ","prefecture_code":6},"0402":{"zip_code":"9900402","prefecture":"山形県","prefecture_kana":"ヤマガタケン","city":"東村山郡中山町","city_kana":"ヒガシムラヤマグンナカヤママチ","town":"いずみ","town_kana":"イズミ","prefecture_code":6},"0408":{"zip_code":"9900408","prefecture":"山形県","prefecture_kana":"ヤマガタケン","city":"東村山郡中山町","city_kana":"ヒガシムラヤマグンナカヤママチ","town":"岡","town_kana":"オカ","prefecture_code":6},"0405":{"zip_code":"9900405","prefecture":"山形県","prefecture_kana":"ヤマガタケン","city":"東村山郡中山町","city_kana":"ヒガシムラヤマグンナカヤママチ","town":"金沢","town_kana":"カネザワ","prefecture_code":6},"0409":{"zip_code":"9900409","prefecture":"山形県","prefecture_kana":"ヤマガタケン","city":"東村山郡中山町","city_kana":"ヒガシムラヤマグンナカヤママチ","town":"小塩","town_kana":"コシオ","prefecture_code":6},"0403":{"zip_code":"9900403","prefecture":"山形県","prefecture_kana":"ヤマガタケン","city":"東村山郡中山町","city_kana":"ヒガシムラヤマグンナカヤママチ","town":"達磨寺","town_kana":"ダルマジ","prefecture_code":6},"0407":{"zip_code":"9900407","prefecture":"山形県","prefecture_kana":"ヤマガタケン","city":"東村山郡中山町","city_kana":"ヒガシムラヤマグンナカヤママチ","town":"土橋","town_kana":"ツチハシ","prefecture_code":6},"0401":{"zip_code":"9900401","prefecture":"山形県","prefecture_kana":"ヤマガタケン","city":"東村山郡中山町","city_kana":"ヒガシムラヤマグンナカヤママチ","town":"長崎","town_kana":"ナガサキ","prefecture_code":6},"0404":{"zip_code":"9900404","prefecture":"山形県","prefecture_kana":"ヤマガタケン","city":"東村山郡中山町","city_kana":"ヒガシムラヤマグンナカヤママチ","town":"向新田","town_kana":"ムコウシンデン","prefecture_code":6},"0406":{"zip_code":"9900406","prefecture":"山形県","prefecture_kana":"ヤマガタケン","city":"東村山郡中山町","city_kana":"ヒガシムラヤマグンナカヤママチ","town":"柳沢","town_kana":"ヤナギサワ","prefecture_code":6},"0700":{"zip_code":"9900700","prefecture":"山形県","prefecture_kana":"ヤマガタケン","city":"西村山郡西川町","city_kana":"ニシムラヤマグンニシカワマチ","town":"","town_kana":"","prefecture_code":6},"0714":{"zip_code":"9900714","prefecture":"山形県","prefecture_kana":"ヤマガタケン","city":"西村山郡西川町","city_kana":"ニシムラヤマグンニシカワマチ","town":"入間","town_kana":"イリマ","prefecture_code":6},"0743":{"zip_code":"9900743","prefecture":"山形県","prefecture_kana":"ヤマガタケン","city":"西村山郡西川町","city_kana":"ニシムラヤマグンニシカワマチ","town":"岩根沢","town_kana":"イワネザワ","prefecture_code":6},"0721":{"zip_code":"9900721","prefecture":"山形県","prefecture_kana":"ヤマガタケン","city":"西村山郡西川町","city_kana":"ニシムラヤマグンニシカワマチ","town":"大井沢","town_kana":"オオイサワ","prefecture_code":6},"0702":{"zip_code":"9900702","prefecture":"山形県","prefecture_kana":"ヤマガタケン","city":"西村山郡西川町","city_kana":"ニシムラヤマグンニシカワマチ","town":"海味","town_kana":"カイシュウ","prefecture_code":6},"0734":{"zip_code":"9900734","prefecture":"山形県","prefecture_kana":"ヤマガタケン","city":"西村山郡西川町","city_kana":"ニシムラヤマグンニシカワマチ","town":"志津","town_kana":"シヅ","prefecture_code":6},"0732":{"zip_code":"9900732","prefecture":"山形県","prefecture_kana":"ヤマガタケン","city":"西村山郡西川町","city_kana":"ニシムラヤマグンニシカワマチ","town":"砂子関","town_kana":"スナゴセキ","prefecture_code":6},"0731":{"zip_code":"9900731","prefecture":"山形県","prefecture_kana":"ヤマガタケン","city":"西村山郡西川町","city_kana":"ニシムラヤマグンニシカワマチ","town":"月岡","town_kana":"ツキオカ","prefecture_code":6},"0733":{"zip_code":"9900733","prefecture":"山形県","prefecture_kana":"ヤマガタケン","city":"西村山郡西川町","city_kana":"ニシムラヤマグンニシカワマチ","town":"月山沢","town_kana":"ツキヤマザワ","prefecture_code":6},"0741":{"zip_code":"9900741","prefecture":"山形県","prefecture_kana":"ヤマガタケン","city":"西村山郡西川町","city_kana":"ニシムラヤマグンニシカワマチ","town":"綱取","town_kana":"ツナトリ","prefecture_code":6},"0713":{"zip_code":"9900713","prefecture":"山形県","prefecture_kana":"ヤマガタケン","city":"西村山郡西川町","city_kana":"ニシムラヤマグンニシカワマチ","town":"沼山","town_kana":"ヌマヤマ","prefecture_code":6},"0712":{"zip_code":"9900712","prefecture":"山形県","prefecture_kana":"ヤマガタケン","city":"西村山郡西川町","city_kana":"ニシムラヤマグンニシカワマチ","town":"原","town_kana":"ハラ","prefecture_code":6},"0735":{"zip_code":"9900735","prefecture":"山形県","prefecture_kana":"ヤマガタケン","city":"西村山郡西川町","city_kana":"ニシムラヤマグンニシカワマチ","town":"本道寺","town_kana":"ホンドウジ","prefecture_code":6},"0703":{"zip_code":"9900703","prefecture":"山形県","prefecture_kana":"ヤマガタケン","city":"西村山郡西川町","city_kana":"ニシムラヤマグンニシカワマチ","town":"間沢","town_kana":"マザワ","prefecture_code":6},"0742":{"zip_code":"9900742","prefecture":"山形県","prefecture_kana":"ヤマガタケン","city":"西村山郡西川町","city_kana":"ニシムラヤマグンニシカワマチ","town":"水沢","town_kana":"ミズサワ","prefecture_code":6},"0701":{"zip_code":"9900701","prefecture":"山形県","prefecture_kana":"ヤマガタケン","city":"西村山郡西川町","city_kana":"ニシムラヤマグンニシカワマチ","town":"睦合","town_kana":"ムツアイ","prefecture_code":6},"0711":{"zip_code":"9900711","prefecture":"山形県","prefecture_kana":"ヤマガタケン","city":"西村山郡西川町","city_kana":"ニシムラヤマグンニシカワマチ","town":"吉川","town_kana":"ヨシカワ","prefecture_code":6},"1400":{"zip_code":"9901400","prefecture":"山形県","prefecture_kana":"ヤマガタケン","city":"西村山郡朝日町","city_kana":"ニシムラヤマグンアサヒマチ","town":"","town_kana":"","prefecture_code":6},"1441":{"zip_code":"9901441","prefecture":"山形県","prefecture_kana":"ヤマガタケン","city":"西村山郡朝日町","city_kana":"ニシムラヤマグンアサヒマチ","town":"新宿","town_kana":"アラジュク","prefecture_code":6},"1303":{"zip_code":"9901303","prefecture":"山形県","prefecture_kana":"ヤマガタケン","city":"西村山郡朝日町","city_kana":"ニシムラヤマグンアサヒマチ","town":"馬神","town_kana":"ウマガミ","prefecture_code":6},"1306":{"zip_code":"9901306","prefecture":"山形県","prefecture_kana":"ヤマガタケン","city":"西村山郡朝日町","city_kana":"ニシムラヤマグンアサヒマチ","town":"大暮山","town_kana":"オオグレヤマ","prefecture_code":6},"1431":{"zip_code":"9901431","prefecture":"山形県","prefecture_kana":"ヤマガタケン","city":"西村山郡朝日町","city_kana":"ニシムラヤマグンアサヒマチ","town":"大滝","town_kana":"オオタキ","prefecture_code":6},"1305":{"zip_code":"9901305","prefecture":"山形県","prefecture_kana":"ヤマガタケン","city":"西村山郡朝日町","city_kana":"ニシムラヤマグンアサヒマチ","town":"大沼","town_kana":"オオヌマ","prefecture_code":6},"1562":{"zip_code":"9901562","prefecture":"山形県","prefecture_kana":"ヤマガタケン","city":"西村山郡朝日町","city_kana":"ニシムラヤマグンアサヒマチ","town":"大船木","town_kana":"オオフナギ","prefecture_code":6},"1304":{"zip_code":"9901304","prefecture":"山形県","prefecture_kana":"ヤマガタケン","city":"西村山郡朝日町","city_kana":"ニシムラヤマグンアサヒマチ","town":"大谷","town_kana":"オオヤ","prefecture_code":6},"1422":{"zip_code":"9901422","prefecture":"山形県","prefecture_kana":"ヤマガタケン","city":"西村山郡朝日町","city_kana":"ニシムラヤマグンアサヒマチ","town":"送橋","town_kana":"オクリハシ","prefecture_code":6},"1432":{"zip_code":"9901432","prefecture":"山形県","prefecture_kana":"ヤマガタケン","city":"西村山郡朝日町","city_kana":"ニシムラヤマグンアサヒマチ","town":"上郷","town_kana":"カミゴウ","prefecture_code":6},"1571":{"zip_code":"9901571","prefecture":"山形県","prefecture_kana":"ヤマガタケン","city":"西村山郡朝日町","city_kana":"ニシムラヤマグンアサヒマチ","town":"石須部","town_kana":"コクスベ","prefecture_code":6},"1563":{"zip_code":"9901563","prefecture":"山形県","prefecture_kana":"ヤマガタケン","city":"西村山郡朝日町","city_kana":"ニシムラヤマグンアサヒマチ","town":"今平","town_kana":"コンペイ","prefecture_code":6},"1444":{"zip_code":"9901444","prefecture":"山形県","prefecture_kana":"ヤマガタケン","city":"西村山郡朝日町","city_kana":"ニシムラヤマグンアサヒマチ","town":"四ノ沢","town_kana":"シノサワ","prefecture_code":6},"1423":{"zip_code":"9901423","prefecture":"山形県","prefecture_kana":"ヤマガタケン","city":"西村山郡朝日町","city_kana":"ニシムラヤマグンアサヒマチ","town":"下芦沢","town_kana":"シモアシザワ","prefecture_code":6},"1574":{"zip_code":"9901574","prefecture":"山形県","prefecture_kana":"ヤマガタケン","city":"西村山郡朝日町","city_kana":"ニシムラヤマグンアサヒマチ","town":"白倉","town_kana":"シラクラ","prefecture_code":6},"1433":{"zip_code":"9901433","prefecture":"山形県","prefecture_kana":"ヤマガタケン","city":"西村山郡朝日町","city_kana":"ニシムラヤマグンアサヒマチ","town":"杉山","town_kana":"スギヤマ","prefecture_code":6},"1573":{"zip_code":"9901573","prefecture":"山形県","prefecture_kana":"ヤマガタケン","city":"西村山郡朝日町","city_kana":"ニシムラヤマグンアサヒマチ","town":"立木","town_kana":"タテキ","prefecture_code":6},"1302":{"zip_code":"9901302","prefecture":"山形県","prefecture_kana":"ヤマガタケン","city":"西村山郡朝日町","city_kana":"ニシムラヤマグンアサヒマチ","town":"玉ノ井","town_kana":"タマノイ","prefecture_code":6},"1572":{"zip_code":"9901572","prefecture":"山形県","prefecture_kana":"ヤマガタケン","city":"西村山郡朝日町","city_kana":"ニシムラヤマグンアサヒマチ","town":"太郎","town_kana":"タロウ","prefecture_code":6},"1552":{"zip_code":"9901552","prefecture":"山形県","prefecture_kana":"ヤマガタケン","city":"西村山郡朝日町","city_kana":"ニシムラヤマグンアサヒマチ","town":"常盤","town_kana":"トキワ","prefecture_code":6},"1301":{"zip_code":"9901301","prefecture":"山形県","prefecture_kana":"ヤマガタケン","city":"西村山郡朝日町","city_kana":"ニシムラヤマグンアサヒマチ","town":"中沢","town_kana":"ナカザワ","prefecture_code":6},"1553":{"zip_code":"9901553","prefecture":"山形県","prefecture_kana":"ヤマガタケン","city":"西村山郡朝日町","city_kana":"ニシムラヤマグンアサヒマチ","town":"長沼","town_kana":"ナガヌマ","prefecture_code":6},"1421":{"zip_code":"9901421","prefecture":"山形県","prefecture_kana":"ヤマガタケン","city":"西村山郡朝日町","city_kana":"ニシムラヤマグンアサヒマチ","town":"古槇","town_kana":"フルマギ","prefecture_code":6},"1561":{"zip_code":"9901561","prefecture":"山形県","prefecture_kana":"ヤマガタケン","city":"西村山郡朝日町","city_kana":"ニシムラヤマグンアサヒマチ","town":"松程","town_kana":"マツホド","prefecture_code":6},"1424":{"zip_code":"9901424","prefecture":"山形県","prefecture_kana":"ヤマガタケン","city":"西村山郡朝日町","city_kana":"ニシムラヤマグンアサヒマチ","town":"水本","town_kana":"ミズモト","prefecture_code":6},"1551":{"zip_code":"9901551","prefecture":"山形県","prefecture_kana":"ヤマガタケン","city":"西村山郡朝日町","city_kana":"ニシムラヤマグンアサヒマチ","town":"三中","town_kana":"ミナカ","prefecture_code":6},"1442":{"zip_code":"9901442","prefecture":"山形県","prefecture_kana":"ヤマガタケン","city":"西村山郡朝日町","city_kana":"ニシムラヤマグンアサヒマチ","town":"宮宿","town_kana":"ミヤジュク","prefecture_code":6},"1443":{"zip_code":"9901443","prefecture":"山形県","prefecture_kana":"ヤマガタケン","city":"西村山郡朝日町","city_kana":"ニシムラヤマグンアサヒマチ","town":"雪谷","town_kana":"ユキタニ","prefecture_code":6},"1411":{"zip_code":"9901411","prefecture":"山形県","prefecture_kana":"ヤマガタケン","city":"西村山郡朝日町","city_kana":"ニシムラヤマグンアサヒマチ","town":"和合","town_kana":"ワゴウ","prefecture_code":6},"1412":{"zip_code":"9901412","prefecture":"山形県","prefecture_kana":"ヤマガタケン","city":"西村山郡朝日町","city_kana":"ニシムラヤマグンアサヒマチ","town":"和合平","town_kana":"ワゴウタイラ","prefecture_code":6},"1100":{"zip_code":"9901100","prefecture":"山形県","prefecture_kana":"ヤマガタケン","city":"西村山郡大江町","city_kana":"ニシムラヤマグンオオエマチ","town":"","town_kana":"","prefecture_code":6},"1101":{"zip_code":"9901101","prefecture":"山形県","prefecture_kana":"ヤマガタケン","city":"西村山郡大江町","city_kana":"ニシムラヤマグンオオエマチ","town":"左沢","town_kana":"アテラザワ","prefecture_code":6},"1122":{"zip_code":"9901122","prefecture":"山形県","prefecture_kana":"ヤマガタケン","city":"西村山郡大江町","city_kana":"ニシムラヤマグンオオエマチ","town":"小見","town_kana":"オオミ","prefecture_code":6},"1131":{"zip_code":"9901131","prefecture":"山形県","prefecture_kana":"ヤマガタケン","city":"西村山郡大江町","city_kana":"ニシムラヤマグンオオエマチ","town":"荻野","town_kana":"オギノ","prefecture_code":6},"1152":{"zip_code":"9901152","prefecture":"山形県","prefecture_kana":"ヤマガタケン","city":"西村山郡大江町","city_kana":"ニシムラヤマグンオオエマチ","town":"顔好甲","town_kana":"カオヨシコウ","prefecture_code":6},"1153":{"zip_code":"9901153","prefecture":"山形県","prefecture_kana":"ヤマガタケン","city":"西村山郡大江町","city_kana":"ニシムラヤマグンオオエマチ","town":"顔好乙","town_kana":"カオヨシオツ","prefecture_code":6},"1276":{"zip_code":"9901276","prefecture":"山形県","prefecture_kana":"ヤマガタケン","city":"西村山郡大江町","city_kana":"ニシムラヤマグンオオエマチ","town":"黒森","town_kana":"クロモリ","prefecture_code":6},"1141":{"zip_code":"9901141","prefecture":"山形県","prefecture_kana":"ヤマガタケン","city":"西村山郡大江町","city_kana":"ニシムラヤマグンオオエマチ","town":"小釿","town_kana":"コジュウナ","prefecture_code":6},"1273":{"zip_code":"9901273","prefecture":"山形県","prefecture_kana":"ヤマガタケン","city":"西村山郡大江町","city_kana":"ニシムラヤマグンオオエマチ","town":"小清","town_kana":"コセイ","prefecture_code":6},"1142":{"zip_code":"9901142","prefecture":"山形県","prefecture_kana":"ヤマガタケン","city":"西村山郡大江町","city_kana":"ニシムラヤマグンオオエマチ","town":"材木","town_kana":"ザイモク","prefecture_code":6},"1275":{"zip_code":"9901275","prefecture":"山形県","prefecture_kana":"ヤマガタケン","city":"西村山郡大江町","city_kana":"ニシムラヤマグンオオエマチ","town":"沢口","town_kana":"サワグチ","prefecture_code":6},"1113":{"zip_code":"9901113","prefecture":"山形県","prefecture_kana":"ヤマガタケン","city":"西村山郡大江町","city_kana":"ニシムラヤマグンオオエマチ","town":"三郷甲","town_kana":"サンゴウコウ","prefecture_code":6},"1112":{"zip_code":"9901112","prefecture":"山形県","prefecture_kana":"ヤマガタケン","city":"西村山郡大江町","city_kana":"ニシムラヤマグンオオエマチ","town":"三郷乙","town_kana":"サンゴウオツ","prefecture_code":6},"1111":{"zip_code":"9901111","prefecture":"山形県","prefecture_kana":"ヤマガタケン","city":"西村山郡大江町","city_kana":"ニシムラヤマグンオオエマチ","town":"三郷丙","town_kana":"サンゴウヘイ","prefecture_code":6},"1133":{"zip_code":"9901133","prefecture":"山形県","prefecture_kana":"ヤマガタケン","city":"西村山郡大江町","city_kana":"ニシムラヤマグンオオエマチ","town":"塩ノ平","town_kana":"シオノタイラ","prefecture_code":6},"1144":{"zip_code":"9901144","prefecture":"山形県","prefecture_kana":"ヤマガタケン","city":"西村山郡大江町","city_kana":"ニシムラヤマグンオオエマチ","town":"十八才甲","town_kana":"ジュウハツサイコウ","prefecture_code":6},"1145":{"zip_code":"9901145","prefecture":"山形県","prefecture_kana":"ヤマガタケン","city":"西村山郡大江町","city_kana":"ニシムラヤマグンオオエマチ","town":"十八才乙","town_kana":"ジュウハツサイオツ","prefecture_code":6},"1271":{"zip_code":"9901271","prefecture":"山形県","prefecture_kana":"ヤマガタケン","city":"西村山郡大江町","city_kana":"ニシムラヤマグンオオエマチ","town":"月布","town_kana":"ツキヌノ","prefecture_code":6},"1132":{"zip_code":"9901132","prefecture":"山形県","prefecture_kana":"ヤマガタケン","city":"西村山郡大江町","city_kana":"ニシムラヤマグンオオエマチ","town":"堂屋敷","town_kana":"ドウヤシキ","prefecture_code":6},"1134":{"zip_code":"9901134","prefecture":"山形県","prefecture_kana":"ヤマガタケン","city":"西村山郡大江町","city_kana":"ニシムラヤマグンオオエマチ","town":"所部","town_kana":"トコロブ","prefecture_code":6},"1114":{"zip_code":"9901114","prefecture":"山形県","prefecture_kana":"ヤマガタケン","city":"西村山郡大江町","city_kana":"ニシムラヤマグンオオエマチ","town":"富沢","town_kana":"トミザワ","prefecture_code":6},"1146":{"zip_code":"9901146","prefecture":"山形県","prefecture_kana":"ヤマガタケン","city":"西村山郡大江町","city_kana":"ニシムラヤマグンオオエマチ","town":"楢山","town_kana":"ナラヤマ","prefecture_code":6},"1272":{"zip_code":"9901272","prefecture":"山形県","prefecture_kana":"ヤマガタケン","city":"西村山郡大江町","city_kana":"ニシムラヤマグンオオエマチ","town":"貫見","town_kana":"ヌクミ","prefecture_code":6},"1143":{"zip_code":"9901143","prefecture":"山形県","prefecture_kana":"ヤマガタケン","city":"西村山郡大江町","city_kana":"ニシムラヤマグンオオエマチ","town":"橋上","town_kana":"ハシカミ","prefecture_code":6},"1161":{"zip_code":"9901161","prefecture":"山形県","prefecture_kana":"ヤマガタケン","city":"西村山郡大江町","city_kana":"ニシムラヤマグンオオエマチ","town":"原田","town_kana":"ハラダ","prefecture_code":6},"1121":{"zip_code":"9901121","prefecture":"山形県","prefecture_kana":"ヤマガタケン","city":"西村山郡大江町","city_kana":"ニシムラヤマグンオオエマチ","town":"藤田","town_kana":"フジタ","prefecture_code":6},"1154":{"zip_code":"9901154","prefecture":"山形県","prefecture_kana":"ヤマガタケン","city":"西村山郡大江町","city_kana":"ニシムラヤマグンオオエマチ","town":"本郷甲","town_kana":"ホンゴウコウ","prefecture_code":6},"1151":{"zip_code":"9901151","prefecture":"山形県","prefecture_kana":"ヤマガタケン","city":"西村山郡大江町","city_kana":"ニシムラヤマグンオオエマチ","town":"本郷乙","town_kana":"ホンゴウオツ","prefecture_code":6},"1164":{"zip_code":"9901164","prefecture":"山形県","prefecture_kana":"ヤマガタケン","city":"西村山郡大江町","city_kana":"ニシムラヤマグンオオエマチ","town":"本郷丙","town_kana":"ホンゴウヘイ","prefecture_code":6},"1163":{"zip_code":"9901163","prefecture":"山形県","prefecture_kana":"ヤマガタケン","city":"西村山郡大江町","city_kana":"ニシムラヤマグンオオエマチ","town":"本郷丁","town_kana":"ホンゴウテイ","prefecture_code":6},"1165":{"zip_code":"9901165","prefecture":"山形県","prefecture_kana":"ヤマガタケン","city":"西村山郡大江町","city_kana":"ニシムラヤマグンオオエマチ","town":"本郷戊","town_kana":"ホンゴウボ","prefecture_code":6},"1162":{"zip_code":"9901162","prefecture":"山形県","prefecture_kana":"ヤマガタケン","city":"西村山郡大江町","city_kana":"ニシムラヤマグンオオエマチ","town":"本郷己","town_kana":"ホンゴウキ","prefecture_code":6},"1274":{"zip_code":"9901274","prefecture":"山形県","prefecture_kana":"ヤマガタケン","city":"西村山郡大江町","city_kana":"ニシムラヤマグンオオエマチ","town":"柳川","town_kana":"ヤナガワ","prefecture_code":6}}