{"0000":{"zip_code":"9910000","prefecture":"山形県","prefecture_kana":"ヤマガタケン","city":"寒河江市","city_kana":"サガエシ","town":"","town_kana":"","prefecture_code":6},"0027":{"zip_code":"9910027","prefecture":"山形県","prefecture_kana":"ヤマガタケン","city":"寒河江市","city_kana":"サガエシ","town":"石持町","town_kana":"イシモチマチ","prefecture_code":6},"0057":{"zip_code":"9910057","prefecture":"山形県","prefecture_kana":"ヤマガタケン","city":"寒河江市","city_kana":"サガエシ","town":"内ノ袋","town_kana":"ウチノフクロ","prefecture_code":6},"0056":{"zip_code":"9910056","prefecture":"山形県","prefecture_kana":"ヤマガタケン","city":"寒河江市","city_kana":"サガエシ","town":"落衣前","town_kana":"オトモマエ","prefecture_code":6},"0006":{"zip_code":"9910006","prefecture":"山形県","prefecture_kana":"ヤマガタケン","city":"寒河江市","city_kana":"サガエシ","town":"夕カヘ","town_kana":"ユウガエ","prefecture_code":6},"0008":{"zip_code":"9910008","prefecture":"山形県","prefecture_kana":"ヤマガタケン","city":"寒河江市","city_kana":"サガエシ","town":"雲河原","town_kana":"クモガワラ","prefecture_code":6},"0044":{"zip_code":"9910044","prefecture":"山形県","prefecture_kana":"ヤマガタケン","city":"寒河江市","city_kana":"サガエシ","town":"越井坂町","town_kana":"コシイザカチョウ","prefecture_code":6},"0045":{"zip_code":"9910045","prefecture":"山形県","prefecture_kana":"ヤマガタケン","city":"寒河江市","city_kana":"サガエシ","town":"小沼町","town_kana":"コヌマチョウ","prefecture_code":6},"0035":{"zip_code":"9910035","prefecture":"山形県","prefecture_kana":"ヤマガタケン","city":"寒河江市","city_kana":"サガエシ","town":"幸町","town_kana":"サイワイチョウ","prefecture_code":6},"0034":{"zip_code":"9910034","prefecture":"山形県","prefecture_kana":"ヤマガタケン","city":"寒河江市","city_kana":"サガエシ","town":"栄町","town_kana":"サカエチョウ","prefecture_code":6},"0041":{"zip_code":"9910041","prefecture":"山形県","prefecture_kana":"ヤマガタケン","city":"寒河江市","city_kana":"サガエシ","town":"寒河江","town_kana":"サガエ","prefecture_code":6},"0052":{"zip_code":"9910052","prefecture":"山形県","prefecture_kana":"ヤマガタケン","city":"寒河江市","city_kana":"サガエシ","town":"幸田町","town_kana":"サチタマチ","prefecture_code":6},"0063":{"zip_code":"9910063","prefecture":"山形県","prefecture_kana":"ヤマガタケン","city":"寒河江市","city_kana":"サガエシ","town":"柴橋","town_kana":"シバハシ","prefecture_code":6},"0043":{"zip_code":"9910043","prefecture":"山形県","prefecture_kana":"ヤマガタケン","city":"寒河江市","city_kana":"サガエシ","town":"島","town_kana":"シマ","prefecture_code":6},"0002":{"zip_code":"9910002","prefecture":"山形県","prefecture_kana":"ヤマガタケン","city":"寒河江市","city_kana":"サガエシ","town":"下河原","town_kana":"シモガワラ","prefecture_code":6},"0047":{"zip_code":"9910047","prefecture":"山形県","prefecture_kana":"ヤマガタケン","city":"寒河江市","city_kana":"サガエシ","town":"新山","town_kana":"シンザン","prefecture_code":6},"0012":{"zip_code":"9910012","prefecture":"山形県","prefecture_kana":"ヤマガタケン","city":"寒河江市","city_kana":"サガエシ","town":"新山町","town_kana":"シンザンマチ","prefecture_code":6},"0033":{"zip_code":"9910033","prefecture":"山形県","prefecture_kana":"ヤマガタケン","city":"寒河江市","city_kana":"サガエシ","town":"末広町","town_kana":"スエヒロチョウ","prefecture_code":6},"0013":{"zip_code":"9910013","prefecture":"山形県","prefecture_kana":"ヤマガタケン","city":"寒河江市","city_kana":"サガエシ","town":"高田","town_kana":"タカダ","prefecture_code":6},"0042":{"zip_code":"9910042","prefecture":"山形県","prefecture_kana":"ヤマガタケン","city":"寒河江市","city_kana":"サガエシ","town":"高屋","town_kana":"タカヤ","prefecture_code":6},"0021":{"zip_code":"9910021","prefecture":"山形県","prefecture_kana":"ヤマガタケン","city":"寒河江市","city_kana":"サガエシ","town":"中央","town_kana":"チュウオウ","prefecture_code":6},"0061":{"zip_code":"9910061","prefecture":"山形県","prefecture_kana":"ヤマガタケン","city":"寒河江市","city_kana":"サガエシ","town":"中央工業団地","town_kana":"チュウオウコウギョウダンチ","prefecture_code":6},"0007":{"zip_code":"9910007","prefecture":"山形県","prefecture_kana":"ヤマガタケン","city":"寒河江市","city_kana":"サガエシ","town":"道生","town_kana":"ドウショウ","prefecture_code":6},"0005":{"zip_code":"9910005","prefecture":"山形県","prefecture_kana":"ヤマガタケン","city":"寒河江市","city_kana":"サガエシ","town":"中河原","town_kana":"ナカガワラ","prefecture_code":6},"0065":{"zip_code":"9910065","prefecture":"山形県","prefecture_kana":"ヤマガタケン","city":"寒河江市","city_kana":"サガエシ","town":"中郷","town_kana":"ナカゴウ","prefecture_code":6},"0054":{"zip_code":"9910054","prefecture":"山形県","prefecture_kana":"ヤマガタケン","city":"寒河江市","city_kana":"サガエシ","town":"仲谷地","town_kana":"ナカヤチ","prefecture_code":6},"0022":{"zip_code":"9910022","prefecture":"山形県","prefecture_kana":"ヤマガタケン","city":"寒河江市","city_kana":"サガエシ","town":"七日町","town_kana":"ナノカマチ","prefecture_code":6},"0003":{"zip_code":"9910003","prefecture":"山形県","prefecture_kana":"ヤマガタケン","city":"寒河江市","city_kana":"サガエシ","town":"西根","town_kana":"ニシネ","prefecture_code":6},"0004":{"zip_code":"9910004","prefecture":"山形県","prefecture_kana":"ヤマガタケン","city":"寒河江市","city_kana":"サガエシ","town":"西根北町","town_kana":"ニシネキタマチ","prefecture_code":6},"0011":{"zip_code":"9910011","prefecture":"山形県","prefecture_kana":"ヤマガタケン","city":"寒河江市","city_kana":"サガエシ","town":"日田","town_kana":"ニッタ","prefecture_code":6},"0001":{"zip_code":"9910001","prefecture":"山形県","prefecture_kana":"ヤマガタケン","city":"寒河江市","city_kana":"サガエシ","town":"入倉","town_kana":"ニュウグラ","prefecture_code":6},"0046":{"zip_code":"9910046","prefecture":"山形県","prefecture_kana":"ヤマガタケン","city":"寒河江市","city_kana":"サガエシ","town":"東新山町","town_kana":"ヒガシシンザンマチ","prefecture_code":6},"0064":{"zip_code":"9910064","prefecture":"山形県","prefecture_kana":"ヤマガタケン","city":"寒河江市","city_kana":"サガエシ","town":"平塩","town_kana":"ヒラシオ","prefecture_code":6},"0055":{"zip_code":"9910055","prefecture":"山形県","prefecture_kana":"ヤマガタケン","city":"寒河江市","city_kana":"サガエシ","town":"船橋町","town_kana":"フナバシマチ","prefecture_code":6},"0028":{"zip_code":"9910028","prefecture":"山形県","prefecture_kana":"ヤマガタケン","city":"寒河江市","city_kana":"サガエシ","town":"ほなみ","town_kana":"ホナミ","prefecture_code":6},"0031":{"zip_code":"9910031","prefecture":"山形県","prefecture_kana":"ヤマガタケン","city":"寒河江市","city_kana":"サガエシ","town":"本町","town_kana":"ホンチョウ","prefecture_code":6},"0066":{"zip_code":"9910066","prefecture":"山形県","prefecture_kana":"ヤマガタケン","city":"寒河江市","city_kana":"サガエシ","town":"松川","town_kana":"マツカワ","prefecture_code":6},"0023":{"zip_code":"9910023","prefecture":"山形県","prefecture_kana":"ヤマガタケン","city":"寒河江市","city_kana":"サガエシ","town":"丸内","town_kana":"マルノウチ","prefecture_code":6},"0048":{"zip_code":"9910048","prefecture":"山形県","prefecture_kana":"ヤマガタケン","city":"寒河江市","city_kana":"サガエシ","town":"みずき","town_kana":"ミズキ","prefecture_code":6},"0062":{"zip_code":"9910062","prefecture":"山形県","prefecture_kana":"ヤマガタケン","city":"寒河江市","city_kana":"サガエシ","town":"緑町","town_kana":"ミドリチョウ","prefecture_code":6},"0032":{"zip_code":"9910032","prefecture":"山形県","prefecture_kana":"ヤマガタケン","city":"寒河江市","city_kana":"サガエシ","town":"南町","town_kana":"ミナミマチ","prefecture_code":6},"0049":{"zip_code":"9910049","prefecture":"山形県","prefecture_kana":"ヤマガタケン","city":"寒河江市","city_kana":"サガエシ","town":"本楯","town_kana":"モトダテ","prefecture_code":6},"0053":{"zip_code":"9910053","prefecture":"山形県","prefecture_kana":"ヤマガタケン","city":"寒河江市","city_kana":"サガエシ","town":"元町","town_kana":"モトマチ","prefecture_code":6},"0026":{"zip_code":"9910026","prefecture":"山形県","prefecture_kana":"ヤマガタケン","city":"寒河江市","city_kana":"サガエシ","town":"山岸町","town_kana":"ヤマギシチョウ","prefecture_code":6},"0025":{"zip_code":"9910025","prefecture":"山形県","prefecture_kana":"ヤマガタケン","city":"寒河江市","city_kana":"サガエシ","town":"八幡町","town_kana":"ヤワタマチ","prefecture_code":6},"0024":{"zip_code":"9910024","prefecture":"山形県","prefecture_kana":"ヤマガタケン","city":"寒河江市","city_kana":"サガエシ","town":"六供町","town_kana":"ロックマチ","prefecture_code":6},"0051":{"zip_code":"9910051","prefecture":"山形県","prefecture_kana":"ヤマガタケン","city":"寒河江市","city_kana":"サガエシ","town":"若葉町","town_kana":"ワカバチョウ","prefecture_code":6},"0801":{"zip_code":"9910801","prefecture":"山形県","prefecture_kana":"ヤマガタケン","city":"西村山郡大江町","city_kana":"ニシムラヤマグンオオエマチ","town":"２２５７−２８、２３１６〜２３１８、２４３０−１〜２４３１−７５）","town_kana":"2257-28、2316-2318、2430-1-2431-75)","prefecture_code":6}}