{"0000":{"zip_code":"9920000","prefecture":"山形県","prefecture_kana":"ヤマガタケン","city":"米沢市","city_kana":"ヨネザワシ","town":"","town_kana":"","prefecture_code":6},"0032":{"zip_code":"9920032","prefecture":"山形県","prefecture_kana":"ヤマガタケン","city":"米沢市","city_kana":"ヨネザワシ","town":"相生町","town_kana":"アイオイチョウ","prefecture_code":6},"1406":{"zip_code":"9921406","prefecture":"山形県","prefecture_kana":"ヤマガタケン","city":"米沢市","city_kana":"ヨネザワシ","town":"赤崩","town_kana":"アカクズレ","prefecture_code":6},"1206":{"zip_code":"9921206","prefecture":"山形県","prefecture_kana":"ヤマガタケン","city":"米沢市","city_kana":"ヨネザワシ","town":"赤崩","town_kana":"アカクズレ","prefecture_code":6},"0075":{"zip_code":"9920075","prefecture":"山形県","prefecture_kana":"ヤマガタケン","city":"米沢市","city_kana":"ヨネザワシ","town":"赤芝町","town_kana":"アカシバマチ","prefecture_code":6},"0112":{"zip_code":"9920112","prefecture":"山形県","prefecture_kana":"ヤマガタケン","city":"米沢市","city_kana":"ヨネザワシ","town":"浅川","town_kana":"アサガワ","prefecture_code":6},"0115":{"zip_code":"9920115","prefecture":"山形県","prefecture_kana":"ヤマガタケン","city":"米沢市","city_kana":"ヨネザワシ","town":"梓川","town_kana":"アズサガワ","prefecture_code":6},"0034":{"zip_code":"9920034","prefecture":"山形県","prefecture_kana":"ヤマガタケン","city":"米沢市","city_kana":"ヨネザワシ","town":"吾妻町","town_kana":"アヅマチョウ","prefecture_code":6},"0119":{"zip_code":"9920119","prefecture":"山形県","prefecture_kana":"ヤマガタケン","city":"米沢市","city_kana":"ヨネザワシ","town":"アルカディア","town_kana":"アルカディア","prefecture_code":6},"0063":{"zip_code":"9920063","prefecture":"山形県","prefecture_kana":"ヤマガタケン","city":"米沢市","city_kana":"ヨネザワシ","town":"泉町","town_kana":"イズミマチ","prefecture_code":6},"1331":{"zip_code":"9921331","prefecture":"山形県","prefecture_kana":"ヤマガタケン","city":"米沢市","city_kana":"ヨネザワシ","town":"板谷","town_kana":"イタヤ","prefecture_code":6},"1583":{"zip_code":"9921583","prefecture":"山形県","prefecture_kana":"ヤマガタケン","city":"米沢市","city_kana":"ヨネザワシ","town":"入田沢","town_kana":"イリタザワ","prefecture_code":6},"0027":{"zip_code":"9920027","prefecture":"山形県","prefecture_kana":"ヤマガタケン","city":"米沢市","city_kana":"ヨネザワシ","town":"駅前","town_kana":"エキマエ","prefecture_code":6},"1204":{"zip_code":"9921204","prefecture":"山形県","prefecture_kana":"ヤマガタケン","city":"米沢市","city_kana":"ヨネザワシ","town":"大小屋","town_kana":"オオゴヤ","prefecture_code":6},"1203":{"zip_code":"9921203","prefecture":"山形県","prefecture_kana":"ヤマガタケン","city":"米沢市","city_kana":"ヨネザワシ","town":"大沢","town_kana":"オオサワ","prefecture_code":6},"1303":{"zip_code":"9921303","prefecture":"山形県","prefecture_kana":"ヤマガタケン","city":"米沢市","city_kana":"ヨネザワシ","town":"大沢","town_kana":"オオサワ","prefecture_code":6},"0035":{"zip_code":"9920035","prefecture":"山形県","prefecture_kana":"ヤマガタケン","city":"米沢市","city_kana":"ヨネザワシ","town":"太田町","town_kana":"オオタマチ","prefecture_code":6},"1462":{"zip_code":"9921462","prefecture":"山形県","prefecture_kana":"ヤマガタケン","city":"米沢市","city_kana":"ヨネザワシ","town":"大平","town_kana":"オオダイラ","prefecture_code":6},"0031":{"zip_code":"9920031","prefecture":"山形県","prefecture_kana":"ヤマガタケン","city":"米沢市","city_kana":"ヨネザワシ","town":"大町","town_kana":"オオマチ","prefecture_code":6},"0076":{"zip_code":"9920076","prefecture":"山形県","prefecture_kana":"ヤマガタケン","city":"米沢市","city_kana":"ヨネザワシ","town":"小野川町","town_kana":"オノガワマチ","prefecture_code":6},"0014":{"zip_code":"9920014","prefecture":"山形県","prefecture_kana":"ヤマガタケン","city":"米沢市","city_kana":"ヨネザワシ","town":"鍛冶町","town_kana":"カジマチ","prefecture_code":6},"0044":{"zip_code":"9920044","prefecture":"山形県","prefecture_kana":"ヤマガタケン","city":"米沢市","city_kana":"ヨネザワシ","town":"春日","town_kana":"カスガ","prefecture_code":6},"0012":{"zip_code":"9920012","prefecture":"山形県","prefecture_kana":"ヤマガタケン","city":"米沢市","city_kana":"ヨネザワシ","town":"金池","town_kana":"カナイケ","prefecture_code":6},"0118":{"zip_code":"9920118","prefecture":"山形県","prefecture_kana":"ヤマガタケン","city":"米沢市","city_kana":"ヨネザワシ","town":"上新田","town_kana":"カミニイダ","prefecture_code":6},"0117":{"zip_code":"9920117","prefecture":"山形県","prefecture_kana":"ヤマガタケン","city":"米沢市","city_kana":"ヨネザワシ","town":"川井","town_kana":"カワイ","prefecture_code":6},"0016":{"zip_code":"9920016","prefecture":"山形県","prefecture_kana":"ヤマガタケン","city":"米沢市","city_kana":"ヨネザワシ","town":"川井小路","town_kana":"カワイコウジ","prefecture_code":6},"1582":{"zip_code":"9921582","prefecture":"山形県","prefecture_kana":"ヤマガタケン","city":"米沢市","city_kana":"ヨネザワシ","town":"神原","town_kana":"カンバラ","prefecture_code":6},"0058":{"zip_code":"9920058","prefecture":"山形県","prefecture_kana":"ヤマガタケン","city":"米沢市","city_kana":"ヨネザワシ","town":"木場町","town_kana":"キバマチ","prefecture_code":6},"0114":{"zip_code":"9920114","prefecture":"山形県","prefecture_kana":"ヤマガタケン","city":"米沢市","city_kana":"ヨネザワシ","town":"木和田","town_kana":"キワダ","prefecture_code":6},"1581":{"zip_code":"9921581","prefecture":"山形県","prefecture_kana":"ヤマガタケン","city":"米沢市","city_kana":"ヨネザワシ","town":"口田沢","town_kana":"クチタザワ","prefecture_code":6},"0003":{"zip_code":"9920003","prefecture":"山形県","prefecture_kana":"ヤマガタケン","city":"米沢市","city_kana":"ヨネザワシ","town":"窪田町窪田","town_kana":"クボタマチクボタ","prefecture_code":6},"0004":{"zip_code":"9920004","prefecture":"山形県","prefecture_kana":"ヤマガタケン","city":"米沢市","city_kana":"ヨネザワシ","town":"窪田町小瀬","town_kana":"クボタマチコゼ","prefecture_code":6},"0001":{"zip_code":"9920001","prefecture":"山形県","prefecture_kana":"ヤマガタケン","city":"米沢市","city_kana":"ヨネザワシ","town":"窪田町東江股","town_kana":"クボタマチヒガシエマタ","prefecture_code":6},"0005":{"zip_code":"9920005","prefecture":"山形県","prefecture_kana":"ヤマガタケン","city":"米沢市","city_kana":"ヨネザワシ","town":"窪田町藤泉","town_kana":"クボタマチフジイズミ","prefecture_code":6},"0002":{"zip_code":"9920002","prefecture":"山形県","prefecture_kana":"ヤマガタケン","city":"米沢市","city_kana":"ヨネザワシ","town":"窪田町矢野目","town_kana":"クボタマチヤノメ","prefecture_code":6},"0055":{"zip_code":"9920055","prefecture":"山形県","prefecture_kana":"ヤマガタケン","city":"米沢市","city_kana":"ヨネザワシ","town":"御廟","town_kana":"ゴビョウ","prefecture_code":6},"0013":{"zip_code":"9920013","prefecture":"山形県","prefecture_kana":"ヤマガタケン","city":"米沢市","city_kana":"ヨネザワシ","town":"栄町","town_kana":"サカエマチ","prefecture_code":6},"0017":{"zip_code":"9920017","prefecture":"山形県","prefecture_kana":"ヤマガタケン","city":"米沢市","city_kana":"ヨネザワシ","town":"桜木町","town_kana":"サクラギチョウ","prefecture_code":6},"1443":{"zip_code":"9921443","prefecture":"山形県","prefecture_kana":"ヤマガタケン","city":"米沢市","city_kana":"ヨネザワシ","town":"笹野","town_kana":"ササノ","prefecture_code":6},"1445":{"zip_code":"9921445","prefecture":"山形県","prefecture_kana":"ヤマガタケン","city":"米沢市","city_kana":"ヨネザワシ","town":"笹野本町","town_kana":"ササノホンチョウ","prefecture_code":6},"1441":{"zip_code":"9921441","prefecture":"山形県","prefecture_kana":"ヤマガタケン","city":"米沢市","city_kana":"ヨネザワシ","town":"笹野町","town_kana":"ササノマチ","prefecture_code":6},"0042":{"zip_code":"9920042","prefecture":"山形県","prefecture_kana":"ヤマガタケン","city":"米沢市","city_kana":"ヨネザワシ","town":"塩井町塩野","town_kana":"シオイマチシオノ","prefecture_code":6},"0041":{"zip_code":"9920041","prefecture":"山形県","prefecture_kana":"ヤマガタケン","city":"米沢市","city_kana":"ヨネザワシ","town":"塩井町宮井","town_kana":"シオイマチミヤイ","prefecture_code":6},"0043":{"zip_code":"9920043","prefecture":"山形県","prefecture_kana":"ヤマガタケン","city":"米沢市","city_kana":"ヨネザワシ","town":"塩野","town_kana":"シオノ","prefecture_code":6},"0046":{"zip_code":"9920046","prefecture":"山形県","prefecture_kana":"ヤマガタケン","city":"米沢市","city_kana":"ヨネザワシ","town":"信夫町","town_kana":"シノブマチ","prefecture_code":6},"0081":{"zip_code":"9920081","prefecture":"山形県","prefecture_kana":"ヤマガタケン","city":"米沢市","city_kana":"ヨネザワシ","town":"下小菅","town_kana":"シモコスゲ","prefecture_code":6},"0111":{"zip_code":"9920111","prefecture":"山形県","prefecture_kana":"ヤマガタケン","city":"米沢市","city_kana":"ヨネザワシ","town":"下新田","town_kana":"シモニイダ","prefecture_code":6},"0023":{"zip_code":"9920023","prefecture":"山形県","prefecture_kana":"ヤマガタケン","city":"米沢市","city_kana":"ヨネザワシ","town":"下花沢","town_kana":"シモハナザワ","prefecture_code":6},"0054":{"zip_code":"9920054","prefecture":"山形県","prefecture_kana":"ヤマガタケン","city":"米沢市","city_kana":"ヨネザワシ","town":"城西","town_kana":"ジョウセイ","prefecture_code":6},"0038":{"zip_code":"9920038","prefecture":"山形県","prefecture_kana":"ヤマガタケン","city":"米沢市","city_kana":"ヨネザワシ","town":"城南","town_kana":"ジョウナン","prefecture_code":6},"0051":{"zip_code":"9920051","prefecture":"山形県","prefecture_kana":"ヤマガタケン","city":"米沢市","city_kana":"ヨネザワシ","town":"城北","town_kana":"ジョウホク","prefecture_code":6},"1444":{"zip_code":"9921444","prefecture":"山形県","prefecture_kana":"ヤマガタケン","city":"米沢市","city_kana":"ヨネザワシ","town":"諸仏町","town_kana":"ショブツマチ","prefecture_code":6},"0064":{"zip_code":"9920064","prefecture":"山形県","prefecture_kana":"ヤマガタケン","city":"米沢市","city_kana":"ヨネザワシ","town":"杉の目町","town_kana":"スギノメマチ","prefecture_code":6},"1461":{"zip_code":"9921461","prefecture":"山形県","prefecture_kana":"ヤマガタケン","city":"米沢市","city_kana":"ヨネザワシ","town":"李山","town_kana":"スモモヤマ","prefecture_code":6},"1472":{"zip_code":"9921472","prefecture":"山形県","prefecture_kana":"ヤマガタケン","city":"米沢市","city_kana":"ヨネザワシ","town":"関","town_kana":"セキ","prefecture_code":6},"1205":{"zip_code":"9921205","prefecture":"山形県","prefecture_kana":"ヤマガタケン","city":"米沢市","city_kana":"ヨネザワシ","town":"関根","town_kana":"セキネ","prefecture_code":6},"1473":{"zip_code":"9921473","prefecture":"山形県","prefecture_kana":"ヤマガタケン","city":"米沢市","city_kana":"ヨネザワシ","town":"関町","town_kana":"セキマチ","prefecture_code":6},"0116":{"zip_code":"9920116","prefecture":"山形県","prefecture_kana":"ヤマガタケン","city":"米沢市","city_kana":"ヨネザワシ","town":"竹井","town_kana":"タケイ","prefecture_code":6},"0015":{"zip_code":"9920015","prefecture":"山形県","prefecture_kana":"ヤマガタケン","city":"米沢市","city_kana":"ヨネザワシ","town":"立町","town_kana":"タツマチ","prefecture_code":6},"1471":{"zip_code":"9921471","prefecture":"山形県","prefecture_kana":"ヤマガタケン","city":"米沢市","city_kana":"ヨネザワシ","town":"立石","town_kana":"タテイシ","prefecture_code":6},"0072":{"zip_code":"9920072","prefecture":"山形県","prefecture_kana":"ヤマガタケン","city":"米沢市","city_kana":"ヨネザワシ","town":"舘山","town_kana":"タテヤマ","prefecture_code":6},"0071":{"zip_code":"9920071","prefecture":"山形県","prefecture_kana":"ヤマガタケン","city":"米沢市","city_kana":"ヨネザワシ","town":"舘山矢子町","town_kana":"タテヤマヤゴマチ","prefecture_code":6},"0045":{"zip_code":"9920045","prefecture":"山形県","prefecture_kana":"ヤマガタケン","city":"米沢市","city_kana":"ヨネザワシ","town":"中央","town_kana":"チュウオウ","prefecture_code":6},"1474":{"zip_code":"9921474","prefecture":"山形県","prefecture_kana":"ヤマガタケン","city":"米沢市","city_kana":"ヨネザワシ","town":"綱木","town_kana":"ツナギ","prefecture_code":6},"0066":{"zip_code":"9920066","prefecture":"山形県","prefecture_kana":"ヤマガタケン","city":"米沢市","city_kana":"ヨネザワシ","town":"遠山町","town_kana":"トオヤママチ","prefecture_code":6},"0025":{"zip_code":"9920025","prefecture":"山形県","prefecture_kana":"ヤマガタケン","city":"米沢市","city_kana":"ヨネザワシ","town":"通町","town_kana":"トオリマチ","prefecture_code":6},"0047":{"zip_code":"9920047","prefecture":"山形県","prefecture_kana":"ヤマガタケン","city":"米沢市","city_kana":"ヨネザワシ","town":"徳町","town_kana":"トクマチ","prefecture_code":6},"1446":{"zip_code":"9921446","prefecture":"山形県","prefecture_kana":"ヤマガタケン","city":"米沢市","city_kana":"ヨネザワシ","town":"直江石堤","town_kana":"ナオエセキテイ","prefecture_code":6},"0056":{"zip_code":"9920056","prefecture":"山形県","prefecture_kana":"ヤマガタケン","city":"米沢市","city_kana":"ヨネザワシ","town":"直江町","town_kana":"ナオエチョウ","prefecture_code":6},"0011":{"zip_code":"9920011","prefecture":"山形県","prefecture_kana":"ヤマガタケン","city":"米沢市","city_kana":"ヨネザワシ","town":"中田町","town_kana":"ナカダマチ","prefecture_code":6},"0113":{"zip_code":"9920113","prefecture":"山形県","prefecture_kana":"ヤマガタケン","city":"米沢市","city_kana":"ヨネザワシ","town":"長手","town_kana":"ナガテ","prefecture_code":6},"0057":{"zip_code":"9920057","prefecture":"山形県","prefecture_kana":"ヤマガタケン","city":"米沢市","city_kana":"ヨネザワシ","town":"成島町","town_kana":"ナルシママチ","prefecture_code":6},"0059":{"zip_code":"9920059","prefecture":"山形県","prefecture_kana":"ヤマガタケン","city":"米沢市","city_kana":"ヨネザワシ","town":"西大通","town_kana":"ニシオオドオリ","prefecture_code":6},"1128":{"zip_code":"9921128","prefecture":"山形県","prefecture_kana":"ヤマガタケン","city":"米沢市","city_kana":"ヨネザワシ","town":"八幡原","town_kana":"ハチマンパラ","prefecture_code":6},"0021":{"zip_code":"9920021","prefecture":"山形県","prefecture_kana":"ヤマガタケン","city":"米沢市","city_kana":"ヨネザワシ","town":"花沢","town_kana":"ハナザワ","prefecture_code":6},"0022":{"zip_code":"9920022","prefecture":"山形県","prefecture_kana":"ヤマガタケン","city":"米沢市","city_kana":"ヨネザワシ","town":"花沢町","town_kana":"ハナザワチョウ","prefecture_code":6},"1127":{"zip_code":"9921127","prefecture":"山形県","prefecture_kana":"ヤマガタケン","city":"米沢市","city_kana":"ヨネザワシ","town":"万世町牛森","town_kana":"バンセイチョウウシモリ","prefecture_code":6},"1125":{"zip_code":"9921125","prefecture":"山形県","prefecture_kana":"ヤマガタケン","city":"米沢市","city_kana":"ヨネザワシ","town":"万世町片子","town_kana":"バンセイチョウカタコ","prefecture_code":6},"1124":{"zip_code":"9921124","prefecture":"山形県","prefecture_kana":"ヤマガタケン","city":"米沢市","city_kana":"ヨネザワシ","town":"万世町金谷","town_kana":"バンセイチョウカナヤ","prefecture_code":6},"1121":{"zip_code":"9921121","prefecture":"山形県","prefecture_kana":"ヤマガタケン","city":"米沢市","city_kana":"ヨネザワシ","town":"万世町刈安","town_kana":"バンセイチョウカリヤス","prefecture_code":6},"1123":{"zip_code":"9921123","prefecture":"山形県","prefecture_kana":"ヤマガタケン","city":"米沢市","city_kana":"ヨネザワシ","town":"万世町桑山","town_kana":"バンセイチョウクワヤマ","prefecture_code":6},"1122":{"zip_code":"9921122","prefecture":"山形県","prefecture_kana":"ヤマガタケン","city":"米沢市","city_kana":"ヨネザワシ","town":"万世町梓山","town_kana":"バンセイチョウズサヤマ","prefecture_code":6},"1201":{"zip_code":"9921201","prefecture":"山形県","prefecture_kana":"ヤマガタケン","city":"米沢市","city_kana":"ヨネザワシ","town":"万世町立沢","town_kana":"バンセイチョウタツザワ","prefecture_code":6},"1126":{"zip_code":"9921126","prefecture":"山形県","prefecture_kana":"ヤマガタケン","city":"米沢市","city_kana":"ヨネザワシ","town":"万世町堂森","town_kana":"バンセイチョウドウモリ","prefecture_code":6},"0026":{"zip_code":"9920026","prefecture":"山形県","prefecture_kana":"ヤマガタケン","city":"米沢市","city_kana":"ヨネザワシ","town":"東","town_kana":"ヒガシ","prefecture_code":6},"0024":{"zip_code":"9920024","prefecture":"山形県","prefecture_kana":"ヤマガタケン","city":"米沢市","city_kana":"ヨネザワシ","town":"東大通","town_kana":"ヒガシオオドオリ","prefecture_code":6},"0087":{"zip_code":"9920087","prefecture":"山形県","prefecture_kana":"ヤマガタケン","city":"米沢市","city_kana":"ヨネザワシ","town":"広幡町大沢","town_kana":"ヒロハタマチオオサワ","prefecture_code":6},"0085":{"zip_code":"9920085","prefecture":"山形県","prefecture_kana":"ヤマガタケン","city":"米沢市","city_kana":"ヨネザワシ","town":"広幡町沖仲","town_kana":"ヒロハタマチオキナカ","prefecture_code":6},"0082":{"zip_code":"9920082","prefecture":"山形県","prefecture_kana":"ヤマガタケン","city":"米沢市","city_kana":"ヨネザワシ","town":"広幡町小山田","town_kana":"ヒロハタマチオヤマダ","prefecture_code":6},"0084":{"zip_code":"9920084","prefecture":"山形県","prefecture_kana":"ヤマガタケン","city":"米沢市","city_kana":"ヨネザワシ","town":"広幡町上小菅","town_kana":"ヒロハタマチカミコスゲ","prefecture_code":6},"0086":{"zip_code":"9920086","prefecture":"山形県","prefecture_kana":"ヤマガタケン","city":"米沢市","city_kana":"ヨネザワシ","town":"広幡町京塚","town_kana":"ヒロハタマチキョウヅカ","prefecture_code":6},"0083":{"zip_code":"9920083","prefecture":"山形県","prefecture_kana":"ヤマガタケン","city":"米沢市","city_kana":"ヨネザワシ","town":"広幡町成島","town_kana":"ヒロハタマチナルシマ","prefecture_code":6},"0073":{"zip_code":"9920073","prefecture":"山形県","prefecture_kana":"ヤマガタケン","city":"米沢市","city_kana":"ヨネザワシ","town":"吹屋敷町","town_kana":"ブキヤシキマチ","prefecture_code":6},"0036":{"zip_code":"9920036","prefecture":"山形県","prefecture_kana":"ヤマガタケン","city":"米沢市","city_kana":"ヨネザワシ","town":"福田","town_kana":"フクダ","prefecture_code":6},"0033":{"zip_code":"9920033","prefecture":"山形県","prefecture_kana":"ヤマガタケン","city":"米沢市","city_kana":"ヨネザワシ","town":"福田町","town_kana":"フクダマチ","prefecture_code":6},"0065":{"zip_code":"9920065","prefecture":"山形県","prefecture_kana":"ヤマガタケン","city":"米沢市","city_kana":"ヨネザワシ","town":"古志田町","town_kana":"フルシダマチ","prefecture_code":6},"1442":{"zip_code":"9921442","prefecture":"山形県","prefecture_kana":"ヤマガタケン","city":"米沢市","city_kana":"ヨネザワシ","town":"芳泉町","town_kana":"ホウセンマチ","prefecture_code":6},"0061":{"zip_code":"9920061","prefecture":"山形県","prefecture_kana":"ヤマガタケン","city":"米沢市","city_kana":"ヨネザワシ","town":"堀川町","town_kana":"ホリカワチョウ","prefecture_code":6},"0037":{"zip_code":"9920037","prefecture":"山形県","prefecture_kana":"ヤマガタケン","city":"米沢市","city_kana":"ヨネザワシ","town":"本町","town_kana":"ホンチョウ","prefecture_code":6},"0053":{"zip_code":"9920053","prefecture":"山形県","prefecture_kana":"ヤマガタケン","city":"米沢市","city_kana":"ヨネザワシ","town":"松が岬","town_kana":"マツガサキ","prefecture_code":6},"0052":{"zip_code":"9920052","prefecture":"山形県","prefecture_kana":"ヤマガタケン","city":"米沢市","city_kana":"ヨネザワシ","town":"丸の内","town_kana":"マルノウチ","prefecture_code":6},"1202":{"zip_code":"9921202","prefecture":"山形県","prefecture_kana":"ヤマガタケン","city":"米沢市","city_kana":"ヨネザワシ","town":"三沢","town_kana":"ミサワ","prefecture_code":6},"1453":{"zip_code":"9921453","prefecture":"山形県","prefecture_kana":"ヤマガタケン","city":"米沢市","city_kana":"ヨネザワシ","town":"南原石垣町","town_kana":"ミナミハライシガキマチ","prefecture_code":6},"1455":{"zip_code":"9921455","prefecture":"山形県","prefecture_kana":"ヤマガタケン","city":"米沢市","city_kana":"ヨネザワシ","town":"南原猪苗代町","town_kana":"ミナミハライナワシロマチ","prefecture_code":6},"1451":{"zip_code":"9921451","prefecture":"山形県","prefecture_kana":"ヤマガタケン","city":"米沢市","city_kana":"ヨネザワシ","town":"南原笹野町","town_kana":"ミナミハラササノマチ","prefecture_code":6},"1454":{"zip_code":"9921454","prefecture":"山形県","prefecture_kana":"ヤマガタケン","city":"米沢市","city_kana":"ヨネザワシ","town":"南原新町","town_kana":"ミナミハラシンマチ","prefecture_code":6},"1452":{"zip_code":"9921452","prefecture":"山形県","prefecture_kana":"ヤマガタケン","city":"米沢市","city_kana":"ヨネザワシ","town":"南原横堀町","town_kana":"ミナミハラヨコボリマチ","prefecture_code":6},"0039":{"zip_code":"9920039","prefecture":"山形県","prefecture_kana":"ヤマガタケン","city":"米沢市","city_kana":"ヨネザワシ","town":"門東町","town_kana":"モントウマチ","prefecture_code":6},"0077":{"zip_code":"9920077","prefecture":"山形県","prefecture_kana":"ヤマガタケン","city":"米沢市","city_kana":"ヨネザワシ","town":"簗沢","town_kana":"ヤナザワ","prefecture_code":6},"0074":{"zip_code":"9920074","prefecture":"山形県","prefecture_kana":"ヤマガタケン","city":"米沢市","city_kana":"ヨネザワシ","town":"矢来","town_kana":"ヤライ","prefecture_code":6},"0062":{"zip_code":"9920062","prefecture":"山形県","prefecture_kana":"ヤマガタケン","city":"米沢市","city_kana":"ヨネザワシ","town":"林泉寺","town_kana":"リンセンジ","prefecture_code":6},"0091":{"zip_code":"9920091","prefecture":"山形県","prefecture_kana":"ヤマガタケン","city":"米沢市","city_kana":"ヨネザワシ","town":"六郷町桐原","town_kana":"ロクゴウマチキリバラ","prefecture_code":6},"0094":{"zip_code":"9920094","prefecture":"山形県","prefecture_kana":"ヤマガタケン","city":"米沢市","city_kana":"ヨネザワシ","town":"六郷町轟","town_kana":"ロクゴウマチトドロキ","prefecture_code":6},"0096":{"zip_code":"9920096","prefecture":"山形県","prefecture_kana":"ヤマガタケン","city":"米沢市","city_kana":"ヨネザワシ","town":"六郷町長橋","town_kana":"ロクゴウマチナガハシ","prefecture_code":6},"0092":{"zip_code":"9920092","prefecture":"山形県","prefecture_kana":"ヤマガタケン","city":"米沢市","city_kana":"ヨネザワシ","town":"六郷町西江股","town_kana":"ロクゴウマチニシエマタ","prefecture_code":6},"0093":{"zip_code":"9920093","prefecture":"山形県","prefecture_kana":"ヤマガタケン","city":"米沢市","city_kana":"ヨネザワシ","town":"六郷町西藤泉","town_kana":"ロクゴウマチニシフジイズミ","prefecture_code":6},"0095":{"zip_code":"9920095","prefecture":"山形県","prefecture_kana":"ヤマガタケン","city":"米沢市","city_kana":"ヨネザワシ","town":"六郷町一漆","town_kana":"ロクゴウマチヒトツウルシ","prefecture_code":6},"0473":{"zip_code":"9920473","prefecture":"山形県","prefecture_kana":"ヤマガタケン","city":"南陽市","city_kana":"ナンヨウシ","town":"池黒","town_kana":"イケグロ","prefecture_code":6},"0474":{"zip_code":"9920474","prefecture":"山形県","prefecture_kana":"ヤマガタケン","city":"南陽市","city_kana":"ナンヨウシ","town":"漆山","town_kana":"ウルシヤマ","prefecture_code":6},"0582":{"zip_code":"9920582","prefecture":"山形県","prefecture_kana":"ヤマガタケン","city":"南陽市","city_kana":"ナンヨウシ","town":"荻","town_kana":"オギ","prefecture_code":6},"0471":{"zip_code":"9920471","prefecture":"山形県","prefecture_kana":"ヤマガタケン","city":"南陽市","city_kana":"ナンヨウシ","town":"金山","town_kana":"カネヤマ","prefecture_code":6},"0581":{"zip_code":"9920581","prefecture":"山形県","prefecture_kana":"ヤマガタケン","city":"南陽市","city_kana":"ナンヨウシ","town":"小滝","town_kana":"コタキ","prefecture_code":6},"0583":{"zip_code":"9920583","prefecture":"山形県","prefecture_kana":"ヤマガタケン","city":"南陽市","city_kana":"ナンヨウシ","town":"下荻","town_kana":"シモオギ","prefecture_code":6},"0476":{"zip_code":"9920476","prefecture":"山形県","prefecture_kana":"ヤマガタケン","city":"南陽市","city_kana":"ナンヨウシ","town":"砂塚","town_kana":"スナヅカ","prefecture_code":6},"0478":{"zip_code":"9920478","prefecture":"山形県","prefecture_kana":"ヤマガタケン","city":"南陽市","city_kana":"ナンヨウシ","town":"竹原","town_kana":"タケハラ","prefecture_code":6},"0584":{"zip_code":"9920584","prefecture":"山形県","prefecture_kana":"ヤマガタケン","city":"南陽市","city_kana":"ナンヨウシ","town":"太郎","town_kana":"タロウ","prefecture_code":6},"0475":{"zip_code":"9920475","prefecture":"山形県","prefecture_kana":"ヤマガタケン","city":"南陽市","city_kana":"ナンヨウシ","town":"羽付","town_kana":"ハネツキ","prefecture_code":6},"0472":{"zip_code":"9920472","prefecture":"山形県","prefecture_kana":"ヤマガタケン","city":"南陽市","city_kana":"ナンヨウシ","town":"宮内","town_kana":"ミヤウチ","prefecture_code":6},"0477":{"zip_code":"9920477","prefecture":"山形県","prefecture_kana":"ヤマガタケン","city":"南陽市","city_kana":"ナンヨウシ","town":"梨郷","town_kana":"リンゴウ","prefecture_code":6},"0479":{"zip_code":"9920479","prefecture":"山形県","prefecture_kana":"ヤマガタケン","city":"南陽市","city_kana":"ナンヨウシ","town":"和田","town_kana":"ワダ","prefecture_code":6},"0300":{"zip_code":"9920300","prefecture":"山形県","prefecture_kana":"ヤマガタケン","city":"東置賜郡高畠町","city_kana":"ヒガシオキタマグンタカハタマチ","town":"","town_kana":"","prefecture_code":6},"0332":{"zip_code":"9920332","prefecture":"山形県","prefecture_kana":"ヤマガタケン","city":"東置賜郡高畠町","city_kana":"ヒガシオキタマグンタカハタマチ","town":"相森","town_kana":"アイノモリ","prefecture_code":6},"0302":{"zip_code":"9920302","prefecture":"山形県","prefecture_kana":"ヤマガタケン","city":"東置賜郡高畠町","city_kana":"ヒガシオキタマグンタカハタマチ","town":"安久津","town_kana":"アクツ","prefecture_code":6},"0315":{"zip_code":"9920315","prefecture":"山形県","prefecture_kana":"ヤマガタケン","city":"東置賜郡高畠町","city_kana":"ヒガシオキタマグンタカハタマチ","town":"泉岡","town_kana":"イズミオカ","prefecture_code":6},"0334":{"zip_code":"9920334","prefecture":"山形県","prefecture_kana":"ヤマガタケン","city":"東置賜郡高畠町","city_kana":"ヒガシオキタマグンタカハタマチ","town":"一本柳","town_kana":"イッポンヤナギ","prefecture_code":6},"0324":{"zip_code":"9920324","prefecture":"山形県","prefecture_kana":"ヤマガタケン","city":"東置賜郡高畠町","city_kana":"ヒガシオキタマグンタカハタマチ","town":"入生田","town_kana":"イリュウダ","prefecture_code":6},"0333":{"zip_code":"9920333","prefecture":"山形県","prefecture_kana":"ヤマガタケン","city":"東置賜郡高畠町","city_kana":"ヒガシオキタマグンタカハタマチ","town":"柏木目","town_kana":"カシワギメ","prefecture_code":6},"0311":{"zip_code":"9920311","prefecture":"山形県","prefecture_kana":"ヤマガタケン","city":"東置賜郡高畠町","city_kana":"ヒガシオキタマグンタカハタマチ","town":"金原","town_kana":"カナバラ","prefecture_code":6},"0261":{"zip_code":"9920261","prefecture":"山形県","prefecture_kana":"ヤマガタケン","city":"東置賜郡高畠町","city_kana":"ヒガシオキタマグンタカハタマチ","town":"上和田","town_kana":"カミワダ","prefecture_code":6},"0321":{"zip_code":"9920321","prefecture":"山形県","prefecture_kana":"ヤマガタケン","city":"東置賜郡高畠町","city_kana":"ヒガシオキタマグンタカハタマチ","town":"亀岡","town_kana":"カメオカ","prefecture_code":6},"0335":{"zip_code":"9920335","prefecture":"山形県","prefecture_kana":"ヤマガタケン","city":"東置賜郡高畠町","city_kana":"ヒガシオキタマグンタカハタマチ","town":"川沼","town_kana":"カワヌマ","prefecture_code":6},"0313":{"zip_code":"9920313","prefecture":"山形県","prefecture_kana":"ヤマガタケン","city":"東置賜郡高畠町","city_kana":"ヒガシオキタマグンタカハタマチ","town":"高安","town_kana":"コウヤス","prefecture_code":6},"0312":{"zip_code":"9920312","prefecture":"山形県","prefecture_kana":"ヤマガタケン","city":"東置賜郡高畠町","city_kana":"ヒガシオキタマグンタカハタマチ","town":"小郡山","town_kana":"コゴオリヤマ","prefecture_code":6},"0265":{"zip_code":"9920265","prefecture":"山形県","prefecture_kana":"ヤマガタケン","city":"東置賜郡高畠町","city_kana":"ヒガシオキタマグンタカハタマチ","town":"佐沢","town_kana":"サザワ","prefecture_code":6},"0331":{"zip_code":"9920331","prefecture":"山形県","prefecture_kana":"ヤマガタケン","city":"東置賜郡高畠町","city_kana":"ヒガシオキタマグンタカハタマチ","town":"三条目","town_kana":"サンジョノメ","prefecture_code":6},"0314":{"zip_code":"9920314","prefecture":"山形県","prefecture_kana":"ヤマガタケン","city":"東置賜郡高畠町","city_kana":"ヒガシオキタマグンタカハタマチ","town":"塩森","town_kana":"シオノモリ","prefecture_code":6},"0263":{"zip_code":"9920263","prefecture":"山形県","prefecture_kana":"ヤマガタケン","city":"東置賜郡高畠町","city_kana":"ヒガシオキタマグンタカハタマチ","town":"下和田","town_kana":"シモワダ","prefecture_code":6},"0351":{"zip_code":"9920351","prefecture":"山形県","prefecture_kana":"ヤマガタケン","city":"東置賜郡高畠町","city_kana":"ヒガシオキタマグンタカハタマチ","town":"高畠","town_kana":"タカハタ","prefecture_code":6},"0342":{"zip_code":"9920342","prefecture":"山形県","prefecture_kana":"ヤマガタケン","city":"東置賜郡高畠町","city_kana":"ヒガシオキタマグンタカハタマチ","town":"竹森","town_kana":"タケノモリ","prefecture_code":6},"0323":{"zip_code":"9920323","prefecture":"山形県","prefecture_kana":"ヤマガタケン","city":"東置賜郡高畠町","city_kana":"ヒガシオキタマグンタカハタマチ","town":"露藤","town_kana":"ツユフジ","prefecture_code":6},"0341":{"zip_code":"9920341","prefecture":"山形県","prefecture_kana":"ヤマガタケン","city":"東置賜郡高畠町","city_kana":"ヒガシオキタマグンタカハタマチ","town":"時沢","town_kana":"トキザワ","prefecture_code":6},"0352":{"zip_code":"9920352","prefecture":"山形県","prefecture_kana":"ヤマガタケン","city":"東置賜郡高畠町","city_kana":"ヒガシオキタマグンタカハタマチ","town":"中里","town_kana":"ナカザト","prefecture_code":6},"0322":{"zip_code":"9920322","prefecture":"山形県","prefecture_kana":"ヤマガタケン","city":"東置賜郡高畠町","city_kana":"ヒガシオキタマグンタカハタマチ","town":"中島","town_kana":"ナカジマ","prefecture_code":6},"0301":{"zip_code":"9920301","prefecture":"山形県","prefecture_kana":"ヤマガタケン","city":"東置賜郡高畠町","city_kana":"ヒガシオキタマグンタカハタマチ","town":"二井宿","town_kana":"ニイジュク","prefecture_code":6},"0343":{"zip_code":"9920343","prefecture":"山形県","prefecture_kana":"ヤマガタケン","city":"東置賜郡高畠町","city_kana":"ヒガシオキタマグンタカハタマチ","town":"根岸","town_kana":"ネギシ","prefecture_code":6},"0264":{"zip_code":"9920264","prefecture":"山形県","prefecture_kana":"ヤマガタケン","city":"東置賜郡高畠町","city_kana":"ヒガシオキタマグンタカハタマチ","town":"馬頭","town_kana":"バトウ","prefecture_code":6},"0344":{"zip_code":"9920344","prefecture":"山形県","prefecture_kana":"ヤマガタケン","city":"東置賜郡高畠町","city_kana":"ヒガシオキタマグンタカハタマチ","town":"深沼","town_kana":"フカヌマ","prefecture_code":6},"0325":{"zip_code":"9920325","prefecture":"山形県","prefecture_kana":"ヤマガタケン","city":"東置賜郡高畠町","city_kana":"ヒガシオキタマグンタカハタマチ","town":"船橋","town_kana":"フナバシ","prefecture_code":6},"0262":{"zip_code":"9920262","prefecture":"山形県","prefecture_kana":"ヤマガタケン","city":"東置賜郡高畠町","city_kana":"ヒガシオキタマグンタカハタマチ","town":"元和田","town_kana":"モトワダ","prefecture_code":6},"0602":{"zip_code":"9920602","prefecture":"山形県","prefecture_kana":"ヤマガタケン","city":"東置賜郡川西町","city_kana":"ヒガシオキタマグンカワニシマチ","town":"大塚","town_kana":"オオツカ","prefecture_code":6},"0601":{"zip_code":"9920601","prefecture":"山形県","prefecture_kana":"ヤマガタケン","city":"東置賜郡川西町","city_kana":"ヒガシオキタマグンカワニシマチ","town":"西大塚","town_kana":"ニシオオツカ","prefecture_code":6},"0603":{"zip_code":"9920603","prefecture":"山形県","prefecture_kana":"ヤマガタケン","city":"東置賜郡川西町","city_kana":"ヒガシオキタマグンカワニシマチ","town":"東大塚","town_kana":"ヒガシオオツカ","prefecture_code":6},"0800":{"zip_code":"9920800","prefecture":"山形県","prefecture_kana":"ヤマガタケン","city":"西置賜郡白鷹町","city_kana":"ニシオキタマグンシラタカマチ","town":"","town_kana":"","prefecture_code":6},"0852":{"zip_code":"9920852","prefecture":"山形県","prefecture_kana":"ヤマガタケン","city":"西置賜郡白鷹町","city_kana":"ニシオキタマグンシラタカマチ","town":"浅立","town_kana":"アサダチ","prefecture_code":6},"0771":{"zip_code":"9920771","prefecture":"山形県","prefecture_kana":"ヤマガタケン","city":"西置賜郡白鷹町","city_kana":"ニシオキタマグンシラタカマチ","town":"鮎貝","town_kana":"アユカイ","prefecture_code":6},"0831":{"zip_code":"9920831","prefecture":"山形県","prefecture_kana":"ヤマガタケン","city":"西置賜郡白鷹町","city_kana":"ニシオキタマグンシラタカマチ","town":"荒砥甲","town_kana":"アラトコウ","prefecture_code":6},"0832":{"zip_code":"9920832","prefecture":"山形県","prefecture_kana":"ヤマガタケン","city":"西置賜郡白鷹町","city_kana":"ニシオキタマグンシラタカマチ","town":"荒砥乙","town_kana":"アラトオツ","prefecture_code":6},"0861":{"zip_code":"9920861","prefecture":"山形県","prefecture_kana":"ヤマガタケン","city":"西置賜郡白鷹町","city_kana":"ニシオキタマグンシラタカマチ","town":"大瀬","town_kana":"オオセ","prefecture_code":6},"0775":{"zip_code":"9920775","prefecture":"山形県","prefecture_kana":"ヤマガタケン","city":"西置賜郡白鷹町","city_kana":"ニシオキタマグンシラタカマチ","town":"黒鴨","town_kana":"クロガモ","prefecture_code":6},"0841":{"zip_code":"9920841","prefecture":"山形県","prefecture_kana":"ヤマガタケン","city":"西置賜郡白鷹町","city_kana":"ニシオキタマグンシラタカマチ","town":"畔藤","town_kana":"クロフジ","prefecture_code":6},"0864":{"zip_code":"9920864","prefecture":"山形県","prefecture_kana":"ヤマガタケン","city":"西置賜郡白鷹町","city_kana":"ニシオキタマグンシラタカマチ","town":"佐野原","town_kana":"サノハラ","prefecture_code":6},"0862":{"zip_code":"9920862","prefecture":"山形県","prefecture_kana":"ヤマガタケン","city":"西置賜郡白鷹町","city_kana":"ニシオキタマグンシラタカマチ","town":"下山","town_kana":"シモヤマ","prefecture_code":6},"0821":{"zip_code":"9920821","prefecture":"山形県","prefecture_kana":"ヤマガタケン","city":"西置賜郡白鷹町","city_kana":"ニシオキタマグンシラタカマチ","town":"十王","town_kana":"ジュウオウ","prefecture_code":6},"0863":{"zip_code":"9920863","prefecture":"山形県","prefecture_kana":"ヤマガタケン","city":"西置賜郡白鷹町","city_kana":"ニシオキタマグンシラタカマチ","town":"菖蒲","town_kana":"ショウブ","prefecture_code":6},"0778":{"zip_code":"9920778","prefecture":"山形県","prefecture_kana":"ヤマガタケン","city":"西置賜郡白鷹町","city_kana":"ニシオキタマグンシラタカマチ","town":"高岡","town_kana":"タカオカ","prefecture_code":6},"0773":{"zip_code":"9920773","prefecture":"山形県","prefecture_kana":"ヤマガタケン","city":"西置賜郡白鷹町","city_kana":"ニシオキタマグンシラタカマチ","town":"高玉","town_kana":"タカダマ","prefecture_code":6},"0812":{"zip_code":"9920812","prefecture":"山形県","prefecture_kana":"ヤマガタケン","city":"西置賜郡白鷹町","city_kana":"ニシオキタマグンシラタカマチ","town":"滝野","town_kana":"タキノ","prefecture_code":6},"0777":{"zip_code":"9920777","prefecture":"山形県","prefecture_kana":"ヤマガタケン","city":"西置賜郡白鷹町","city_kana":"ニシオキタマグンシラタカマチ","town":"栃窪","town_kana":"トチクボ","prefecture_code":6},"0802":{"zip_code":"9920802","prefecture":"山形県","prefecture_kana":"ヤマガタケン","city":"西置賜郡白鷹町","city_kana":"ニシオキタマグンシラタカマチ","town":"中山","town_kana":"ナカヤマ","prefecture_code":6},"0811":{"zip_code":"9920811","prefecture":"山形県","prefecture_kana":"ヤマガタケン","city":"西置賜郡白鷹町","city_kana":"ニシオキタマグンシラタカマチ","town":"萩野","town_kana":"ハギノ","prefecture_code":6},"0801":{"zip_code":"9920801","prefecture":"山形県","prefecture_kana":"ヤマガタケン","city":"西置賜郡白鷹町","city_kana":"ニシオキタマグンシラタカマチ","town":"針生","town_kana":"ハリュウ","prefecture_code":6},"0851":{"zip_code":"9920851","prefecture":"山形県","prefecture_kana":"ヤマガタケン","city":"西置賜郡白鷹町","city_kana":"ニシオキタマグンシラタカマチ","town":"広野","town_kana":"ヒロノ","prefecture_code":6},"0779":{"zip_code":"9920779","prefecture":"山形県","prefecture_kana":"ヤマガタケン","city":"西置賜郡白鷹町","city_kana":"ニシオキタマグンシラタカマチ","town":"箕和田","town_kana":"ミノワダ","prefecture_code":6},"0776":{"zip_code":"9920776","prefecture":"山形県","prefecture_kana":"ヤマガタケン","city":"西置賜郡白鷹町","city_kana":"ニシオキタマグンシラタカマチ","town":"深山","town_kana":"ミヤマ","prefecture_code":6},"0774":{"zip_code":"9920774","prefecture":"山形県","prefecture_kana":"ヤマガタケン","city":"西置賜郡白鷹町","city_kana":"ニシオキタマグンシラタカマチ","town":"山口","town_kana":"ヤマグチ","prefecture_code":6},"0772":{"zip_code":"9920772","prefecture":"山形県","prefecture_kana":"ヤマガタケン","city":"西置賜郡白鷹町","city_kana":"ニシオキタマグンシラタカマチ","town":"横田尻","town_kana":"ヨコタジリ","prefecture_code":6}}