{"0000":{"zip_code":"9930000","prefecture":"山形県","prefecture_kana":"ヤマガタケン","city":"長井市","city_kana":"ナガイシ","town":"","town_kana":"","prefecture_code":6},"0022":{"zip_code":"9930022","prefecture":"山形県","prefecture_kana":"ヤマガタケン","city":"長井市","city_kana":"ナガイシ","town":"芦沢","town_kana":"アシザワ","prefecture_code":6},"0006":{"zip_code":"9930006","prefecture":"山形県","prefecture_kana":"ヤマガタケン","city":"長井市","city_kana":"ナガイシ","town":"あら町","town_kana":"アラマチ","prefecture_code":6},"0072":{"zip_code":"9930072","prefecture":"山形県","prefecture_kana":"ヤマガタケン","city":"長井市","city_kana":"ナガイシ","town":"五十川","town_kana":"イカガワ","prefecture_code":6},"0031":{"zip_code":"9930031","prefecture":"山形県","prefecture_kana":"ヤマガタケン","city":"長井市","city_kana":"ナガイシ","town":"泉","town_kana":"イズミ","prefecture_code":6},"0033":{"zip_code":"9930033","prefecture":"山形県","prefecture_kana":"ヤマガタケン","city":"長井市","city_kana":"ナガイシ","town":"今泉","town_kana":"イマイズミ","prefecture_code":6},"0034":{"zip_code":"9930034","prefecture":"山形県","prefecture_kana":"ヤマガタケン","city":"長井市","city_kana":"ナガイシ","town":"歌丸","town_kana":"ウタマル","prefecture_code":6},"0083":{"zip_code":"9930083","prefecture":"山形県","prefecture_kana":"ヤマガタケン","city":"長井市","city_kana":"ナガイシ","town":"大町","town_kana":"オオマチ","prefecture_code":6},"0005":{"zip_code":"9930005","prefecture":"山形県","prefecture_kana":"ヤマガタケン","city":"長井市","city_kana":"ナガイシ","town":"片田町","town_kana":"カタタマチ","prefecture_code":6},"0021":{"zip_code":"9930021","prefecture":"山形県","prefecture_kana":"ヤマガタケン","city":"長井市","city_kana":"ナガイシ","town":"上伊佐沢","town_kana":"カミイサザワ","prefecture_code":6},"0032":{"zip_code":"9930032","prefecture":"山形県","prefecture_kana":"ヤマガタケン","city":"長井市","city_kana":"ナガイシ","town":"河井","town_kana":"カワイ","prefecture_code":6},"0062":{"zip_code":"9930062","prefecture":"山形県","prefecture_kana":"ヤマガタケン","city":"長井市","city_kana":"ナガイシ","town":"川原沢","town_kana":"カワラザワ","prefecture_code":6},"0064":{"zip_code":"9930064","prefecture":"山形県","prefecture_kana":"ヤマガタケン","city":"長井市","city_kana":"ナガイシ","town":"勧進代","town_kana":"カンジンダイ","prefecture_code":6},"0063":{"zip_code":"9930063","prefecture":"山形県","prefecture_kana":"ヤマガタケン","city":"長井市","city_kana":"ナガイシ","town":"草岡","town_kana":"クサオカ","prefecture_code":6},"0041":{"zip_code":"9930041","prefecture":"山形県","prefecture_kana":"ヤマガタケン","city":"長井市","city_kana":"ナガイシ","town":"九野本","town_kana":"クノモト","prefecture_code":6},"0014":{"zip_code":"9930014","prefecture":"山形県","prefecture_kana":"ヤマガタケン","city":"長井市","city_kana":"ナガイシ","town":"小出","town_kana":"コイデ","prefecture_code":6},"0085":{"zip_code":"9930085","prefecture":"山形県","prefecture_kana":"ヤマガタケン","city":"長井市","city_kana":"ナガイシ","town":"高野町","town_kana":"コウヤチョウ","prefecture_code":6},"0051":{"zip_code":"9930051","prefecture":"山形県","prefecture_kana":"ヤマガタケン","city":"長井市","city_kana":"ナガイシ","town":"幸町","town_kana":"サイワイチョウ","prefecture_code":6},"0084":{"zip_code":"9930084","prefecture":"山形県","prefecture_kana":"ヤマガタケン","city":"長井市","city_kana":"ナガイシ","town":"栄町","town_kana":"サカエマチ","prefecture_code":6},"0054":{"zip_code":"9930054","prefecture":"山形県","prefecture_kana":"ヤマガタケン","city":"長井市","city_kana":"ナガイシ","town":"清水町","town_kana":"シミズチョウ","prefecture_code":6},"0023":{"zip_code":"9930023","prefecture":"山形県","prefecture_kana":"ヤマガタケン","city":"長井市","city_kana":"ナガイシ","town":"下伊佐沢","town_kana":"シモイサザワ","prefecture_code":6},"0071":{"zip_code":"9930071","prefecture":"山形県","prefecture_kana":"ヤマガタケン","city":"長井市","city_kana":"ナガイシ","town":"白兎","town_kana":"シロウサギ","prefecture_code":6},"0052":{"zip_code":"9930052","prefecture":"山形県","prefecture_kana":"ヤマガタケン","city":"長井市","city_kana":"ナガイシ","town":"新町","town_kana":"シンマチ","prefecture_code":6},"0004":{"zip_code":"9930004","prefecture":"山形県","prefecture_kana":"ヤマガタケン","city":"長井市","city_kana":"ナガイシ","town":"神明町","town_kana":"シンメイチョウ","prefecture_code":6},"0016":{"zip_code":"9930016","prefecture":"山形県","prefecture_kana":"ヤマガタケン","city":"長井市","city_kana":"ナガイシ","town":"台町","town_kana":"ダイマチ","prefecture_code":6},"0013":{"zip_code":"9930013","prefecture":"山形県","prefecture_kana":"ヤマガタケン","city":"長井市","city_kana":"ナガイシ","town":"館町南","town_kana":"タテマチミナミ","prefecture_code":6},"0011":{"zip_code":"9930011","prefecture":"山形県","prefecture_kana":"ヤマガタケン","city":"長井市","city_kana":"ナガイシ","town":"館町北","town_kana":"タテマチキタ","prefecture_code":6},"0061":{"zip_code":"9930061","prefecture":"山形県","prefecture_kana":"ヤマガタケン","city":"長井市","city_kana":"ナガイシ","town":"寺泉","town_kana":"テライズミ","prefecture_code":6},"0086":{"zip_code":"9930086","prefecture":"山形県","prefecture_kana":"ヤマガタケン","city":"長井市","city_kana":"ナガイシ","town":"十日町","town_kana":"トオカマチ","prefecture_code":6},"0035":{"zip_code":"9930035","prefecture":"山形県","prefecture_kana":"ヤマガタケン","city":"長井市","city_kana":"ナガイシ","town":"時庭","town_kana":"トキニワ","prefecture_code":6},"0024":{"zip_code":"9930024","prefecture":"山形県","prefecture_kana":"ヤマガタケン","city":"長井市","city_kana":"ナガイシ","town":"中伊佐沢","town_kana":"ナカイサザワ","prefecture_code":6},"0053":{"zip_code":"9930053","prefecture":"山形県","prefecture_kana":"ヤマガタケン","city":"長井市","city_kana":"ナガイシ","town":"中道","town_kana":"ナカミチ","prefecture_code":6},"0075":{"zip_code":"9930075","prefecture":"山形県","prefecture_kana":"ヤマガタケン","city":"長井市","city_kana":"ナガイシ","town":"成田","town_kana":"ナリタ","prefecture_code":6},"0017":{"zip_code":"9930017","prefecture":"山形県","prefecture_kana":"ヤマガタケン","city":"長井市","city_kana":"ナガイシ","town":"花作町","town_kana":"ハナヅクリマチ","prefecture_code":6},"0003":{"zip_code":"9930003","prefecture":"山形県","prefecture_kana":"ヤマガタケン","city":"長井市","city_kana":"ナガイシ","town":"東町","town_kana":"ヒガシマチ","prefecture_code":6},"0012":{"zip_code":"9930012","prefecture":"山形県","prefecture_kana":"ヤマガタケン","city":"長井市","city_kana":"ナガイシ","town":"日の出町","town_kana":"ヒノデチョウ","prefecture_code":6},"0042":{"zip_code":"9930042","prefecture":"山形県","prefecture_kana":"ヤマガタケン","city":"長井市","city_kana":"ナガイシ","town":"平山","town_kana":"ヒラヤマ","prefecture_code":6},"0082":{"zip_code":"9930082","prefecture":"山形県","prefecture_kana":"ヤマガタケン","city":"長井市","city_kana":"ナガイシ","town":"舟場","town_kana":"フナバ","prefecture_code":6},"0001":{"zip_code":"9930001","prefecture":"山形県","prefecture_kana":"ヤマガタケン","city":"長井市","city_kana":"ナガイシ","town":"ままの上","town_kana":"ママノウエ","prefecture_code":6},"0081":{"zip_code":"9930081","prefecture":"山形県","prefecture_kana":"ヤマガタケン","city":"長井市","city_kana":"ナガイシ","town":"緑町","town_kana":"ミドリチョウ","prefecture_code":6},"0074":{"zip_code":"9930074","prefecture":"山形県","prefecture_kana":"ヤマガタケン","city":"長井市","city_kana":"ナガイシ","town":"宮","town_kana":"ミヤ","prefecture_code":6},"0007":{"zip_code":"9930007","prefecture":"山形県","prefecture_kana":"ヤマガタケン","city":"長井市","city_kana":"ナガイシ","town":"本町","town_kana":"モトマチ","prefecture_code":6},"0073":{"zip_code":"9930073","prefecture":"山形県","prefecture_kana":"ヤマガタケン","city":"長井市","city_kana":"ナガイシ","town":"森","town_kana":"モリ","prefecture_code":6},"0002":{"zip_code":"9930002","prefecture":"山形県","prefecture_kana":"ヤマガタケン","city":"長井市","city_kana":"ナガイシ","town":"屋城町","town_kana":"ヤシロマチ","prefecture_code":6},"0087":{"zip_code":"9930087","prefecture":"山形県","prefecture_kana":"ヤマガタケン","city":"長井市","city_kana":"ナガイシ","town":"横町","town_kana":"ヨコマチ","prefecture_code":6},"0015":{"zip_code":"9930015","prefecture":"山形県","prefecture_kana":"ヤマガタケン","city":"長井市","city_kana":"ナガイシ","town":"四ツ谷","town_kana":"ヨツヤ","prefecture_code":6}}