{"0000":{"zip_code":"9950000","prefecture":"山形県","prefecture_kana":"ヤマガタケン","city":"村山市","city_kana":"ムラヤマシ","town":"以下に掲載がない場合","town_kana":"イカニケイサイガナイバアイ","prefecture_code":6},"0002":{"zip_code":"9950002","prefecture":"山形県","prefecture_kana":"ヤマガタケン","city":"村山市","city_kana":"ムラヤマシ","town":"五十沢","town_kana":"イサザワ","prefecture_code":6},"0204":{"zip_code":"9950204","prefecture":"山形県","prefecture_kana":"ヤマガタケン","city":"村山市","city_kana":"ムラヤマシ","town":"稲下","town_kana":"イナクダシ","prefecture_code":6},"0113":{"zip_code":"9950113","prefecture":"山形県","prefecture_kana":"ヤマガタケン","city":"村山市","city_kana":"ムラヤマシ","town":"岩野","town_kana":"イワノ","prefecture_code":6},"0038":{"zip_code":"9950038","prefecture":"山形県","prefecture_kana":"ヤマガタケン","city":"村山市","city_kana":"ムラヤマシ","town":"駅西","town_kana":"エキニシ","prefecture_code":6},"0111":{"zip_code":"9950111","prefecture":"山形県","prefecture_kana":"ヤマガタケン","city":"村山市","city_kana":"ムラヤマシ","town":"大久保","town_kana":"オオクボ","prefecture_code":6},"0203":{"zip_code":"9950203","prefecture":"山形県","prefecture_kana":"ヤマガタケン","city":"村山市","city_kana":"ムラヤマシ","town":"大槇","town_kana":"オオマキ","prefecture_code":6},"0054":{"zip_code":"9950054","prefecture":"山形県","prefecture_kana":"ヤマガタケン","city":"村山市","city_kana":"ムラヤマシ","town":"大淀","town_kana":"オオヨド","prefecture_code":6},"0004":{"zip_code":"9950004","prefecture":"山形県","prefecture_kana":"ヤマガタケン","city":"村山市","city_kana":"ムラヤマシ","town":"金谷","town_kana":"カナヤ","prefecture_code":6},"0041":{"zip_code":"9950041","prefecture":"山形県","prefecture_kana":"ヤマガタケン","city":"村山市","city_kana":"ムラヤマシ","town":"河島","town_kana":"カワシマ","prefecture_code":6},"0056":{"zip_code":"9950056","prefecture":"山形県","prefecture_kana":"ヤマガタケン","city":"村山市","city_kana":"ムラヤマシ","town":"河島山","town_kana":"カワシマヤマ","prefecture_code":6},"0209":{"zip_code":"9950209","prefecture":"山形県","prefecture_kana":"ヤマガタケン","city":"村山市","city_kana":"ムラヤマシ","town":"碁点","town_kana":"ゴテン","prefecture_code":6},"0202":{"zip_code":"9950202","prefecture":"山形県","prefecture_kana":"ヤマガタケン","city":"村山市","city_kana":"ムラヤマシ","town":"白鳥","town_kana":"シロトリ","prefecture_code":6},"0042":{"zip_code":"9950042","prefecture":"山形県","prefecture_kana":"ヤマガタケン","city":"村山市","city_kana":"ムラヤマシ","town":"杉島","town_kana":"スギシマ","prefecture_code":6},"0051":{"zip_code":"9950051","prefecture":"山形県","prefecture_kana":"ヤマガタケン","city":"村山市","city_kana":"ムラヤマシ","town":"田沢","town_kana":"タザワ","prefecture_code":6},"0025":{"zip_code":"9950025","prefecture":"山形県","prefecture_kana":"ヤマガタケン","city":"村山市","city_kana":"ムラヤマシ","town":"楯岡","town_kana":"タテオカ","prefecture_code":6},"0032":{"zip_code":"9950032","prefecture":"山形県","prefecture_kana":"ヤマガタケン","city":"村山市","city_kana":"ムラヤマシ","town":"楯岡荒町","town_kana":"タテオカアラマチ","prefecture_code":6},"0034":{"zip_code":"9950034","prefecture":"山形県","prefecture_kana":"ヤマガタケン","city":"村山市","city_kana":"ムラヤマシ","town":"楯岡五日町","town_kana":"タテオカイツカマチ","prefecture_code":6},"0031":{"zip_code":"9950031","prefecture":"山形県","prefecture_kana":"ヤマガタケン","city":"村山市","city_kana":"ムラヤマシ","town":"楯岡大沢川","town_kana":"タテオカオオサワガワ","prefecture_code":6},"0011":{"zip_code":"9950011","prefecture":"山形県","prefecture_kana":"ヤマガタケン","city":"村山市","city_kana":"ムラヤマシ","town":"楯岡北町","town_kana":"タテオカキタマチ","prefecture_code":6},"0018":{"zip_code":"9950018","prefecture":"山形県","prefecture_kana":"ヤマガタケン","city":"村山市","city_kana":"ムラヤマシ","town":"楯岡新高田","town_kana":"タテオカシンタカダ","prefecture_code":6},"0033":{"zip_code":"9950033","prefecture":"山形県","prefecture_kana":"ヤマガタケン","city":"村山市","city_kana":"ムラヤマシ","town":"楯岡新町","town_kana":"タテオカシンマチ","prefecture_code":6},"0021":{"zip_code":"9950021","prefecture":"山形県","prefecture_kana":"ヤマガタケン","city":"村山市","city_kana":"ムラヤマシ","town":"楯岡楯","town_kana":"タテオカタテ","prefecture_code":6},"0037":{"zip_code":"9950037","prefecture":"山形県","prefecture_kana":"ヤマガタケン","city":"村山市","city_kana":"ムラヤマシ","town":"楯岡俵町","town_kana":"タテオカタワラマチ","prefecture_code":6},"0014":{"zip_code":"9950014","prefecture":"山形県","prefecture_kana":"ヤマガタケン","city":"村山市","city_kana":"ムラヤマシ","town":"楯岡鶴ケ町","town_kana":"タテオカツルガチョウ","prefecture_code":6},"0017":{"zip_code":"9950017","prefecture":"山形県","prefecture_kana":"ヤマガタケン","city":"村山市","city_kana":"ムラヤマシ","town":"楯岡十日町","town_kana":"タテオカトオカマチ","prefecture_code":6},"0036":{"zip_code":"9950036","prefecture":"山形県","prefecture_kana":"ヤマガタケン","city":"村山市","city_kana":"ムラヤマシ","town":"楯岡中町","town_kana":"タテオカナカマチ","prefecture_code":6},"0022":{"zip_code":"9950022","prefecture":"山形県","prefecture_kana":"ヤマガタケン","city":"村山市","city_kana":"ムラヤマシ","town":"楯岡馬場","town_kana":"タテオカババ","prefecture_code":6},"0023":{"zip_code":"9950023","prefecture":"山形県","prefecture_kana":"ヤマガタケン","city":"村山市","city_kana":"ムラヤマシ","town":"楯岡東沢","town_kana":"タテオカヒガシザワ","prefecture_code":6},"0024":{"zip_code":"9950024","prefecture":"山形県","prefecture_kana":"ヤマガタケン","city":"村山市","city_kana":"ムラヤマシ","town":"楯岡笛田","town_kana":"タテオカフエダ","prefecture_code":6},"0015":{"zip_code":"9950015","prefecture":"山形県","prefecture_kana":"ヤマガタケン","city":"村山市","city_kana":"ムラヤマシ","town":"楯岡二日町","town_kana":"タテオカフツカマチ","prefecture_code":6},"0016":{"zip_code":"9950016","prefecture":"山形県","prefecture_kana":"ヤマガタケン","city":"村山市","city_kana":"ムラヤマシ","town":"楯岡晦日町","town_kana":"タテオカミソカマチ","prefecture_code":6},"0013":{"zip_code":"9950013","prefecture":"山形県","prefecture_kana":"ヤマガタケン","city":"村山市","city_kana":"ムラヤマシ","town":"楯岡湯沢","town_kana":"タテオカユザワ","prefecture_code":6},"0005":{"zip_code":"9950005","prefecture":"山形県","prefecture_kana":"ヤマガタケン","city":"村山市","city_kana":"ムラヤマシ","town":"たも山","town_kana":"タモヤマ","prefecture_code":6},"0205":{"zip_code":"9950205","prefecture":"山形県","prefecture_kana":"ヤマガタケン","city":"村山市","city_kana":"ムラヤマシ","town":"樽石","town_kana":"タルイシ","prefecture_code":6},"0035":{"zip_code":"9950035","prefecture":"山形県","prefecture_kana":"ヤマガタケン","city":"村山市","city_kana":"ムラヤマシ","town":"中央","town_kana":"チュウオウ","prefecture_code":6},"0201":{"zip_code":"9950201","prefecture":"山形県","prefecture_kana":"ヤマガタケン","city":"村山市","city_kana":"ムラヤマシ","town":"長善寺","town_kana":"チョウゼンジ","prefecture_code":6},"0001":{"zip_code":"9950001","prefecture":"山形県","prefecture_kana":"ヤマガタケン","city":"村山市","city_kana":"ムラヤマシ","town":"土生田","town_kana":"トチウダ","prefecture_code":6},"0208":{"zip_code":"9950208","prefecture":"山形県","prefecture_kana":"ヤマガタケン","city":"村山市","city_kana":"ムラヤマシ","town":"富並","town_kana":"トミナミ","prefecture_code":6},"0055":{"zip_code":"9950055","prefecture":"山形県","prefecture_kana":"ヤマガタケン","city":"村山市","city_kana":"ムラヤマシ","town":"長島","town_kana":"ナガシマ","prefecture_code":6},"0052":{"zip_code":"9950052","prefecture":"山形県","prefecture_kana":"ヤマガタケン","city":"村山市","city_kana":"ムラヤマシ","town":"名取","town_kana":"ナトリ","prefecture_code":6},"0053":{"zip_code":"9950053","prefecture":"山形県","prefecture_kana":"ヤマガタケン","city":"村山市","city_kana":"ムラヤマシ","town":"西郷","town_kana":"ニシゴウ","prefecture_code":6},"0006":{"zip_code":"9950006","prefecture":"山形県","prefecture_kana":"ヤマガタケン","city":"村山市","city_kana":"ムラヤマシ","town":"林崎","town_kana":"ハヤシザキ","prefecture_code":6},"0003":{"zip_code":"9950003","prefecture":"山形県","prefecture_kana":"ヤマガタケン","city":"村山市","city_kana":"ムラヤマシ","town":"本飯田","town_kana":"モトイイダ","prefecture_code":6},"0206":{"zip_code":"9950206","prefecture":"山形県","prefecture_kana":"ヤマガタケン","city":"村山市","city_kana":"ムラヤマシ","town":"山の内","town_kana":"ヤマノウチ","prefecture_code":6},"0207":{"zip_code":"9950207","prefecture":"山形県","prefecture_kana":"ヤマガタケン","city":"村山市","city_kana":"ムラヤマシ","town":"雪の観音郷","town_kana":"ユキノカンノンゴウ","prefecture_code":6},"0012":{"zip_code":"9950012","prefecture":"山形県","prefecture_kana":"ヤマガタケン","city":"村山市","city_kana":"ムラヤマシ","town":"湯沢","town_kana":"ユザワ","prefecture_code":6},"0112":{"zip_code":"9950112","prefecture":"山形県","prefecture_kana":"ヤマガタケン","city":"村山市","city_kana":"ムラヤマシ","town":"湯野沢","town_kana":"ユノサワ","prefecture_code":6}}