{"0000":{"zip_code":"9960000","prefecture":"山形県","prefecture_kana":"ヤマガタケン","city":"新庄市","city_kana":"シンジョウシ","town":"","town_kana":"","prefecture_code":6},"0078":{"zip_code":"9960078","prefecture":"山形県","prefecture_kana":"ヤマガタケン","city":"新庄市","city_kana":"シンジョウシ","town":"新町","town_kana":"アラマチ","prefecture_code":6},"0086":{"zip_code":"9960086","prefecture":"山形県","prefecture_kana":"ヤマガタケン","city":"新庄市","city_kana":"シンジョウシ","town":"石川町","town_kana":"イシカワマチ","prefecture_code":6},"0001":{"zip_code":"9960001","prefecture":"山形県","prefecture_kana":"ヤマガタケン","city":"新庄市","city_kana":"シンジョウシ","town":"五日町","town_kana":"イツカマチ","prefecture_code":6},"0084":{"zip_code":"9960084","prefecture":"山形県","prefecture_kana":"ヤマガタケン","city":"新庄市","city_kana":"シンジョウシ","town":"大手町","town_kana":"オオテマチ","prefecture_code":6},"0026":{"zip_code":"9960026","prefecture":"山形県","prefecture_kana":"ヤマガタケン","city":"新庄市","city_kana":"シンジョウシ","town":"大町","town_kana":"オオマチ","prefecture_code":6},"0023":{"zip_code":"9960023","prefecture":"山形県","prefecture_kana":"ヤマガタケン","city":"新庄市","city_kana":"シンジョウシ","town":"沖の町","town_kana":"オキノマチ","prefecture_code":6},"0074":{"zip_code":"9960074","prefecture":"山形県","prefecture_kana":"ヤマガタケン","city":"新庄市","city_kana":"シンジョウシ","town":"小田島","town_kana":"オダシマ","prefecture_code":6},"0071":{"zip_code":"9960071","prefecture":"山形県","prefecture_kana":"ヤマガタケン","city":"新庄市","city_kana":"シンジョウシ","town":"小田島町","town_kana":"オダシママチ","prefecture_code":6},"0002":{"zip_code":"9960002","prefecture":"山形県","prefecture_kana":"ヤマガタケン","city":"新庄市","city_kana":"シンジョウシ","town":"金沢","town_kana":"カナザワ","prefecture_code":6},"0032":{"zip_code":"9960032","prefecture":"山形県","prefecture_kana":"ヤマガタケン","city":"新庄市","city_kana":"シンジョウシ","town":"上金沢町","town_kana":"カミカネザワマチ","prefecture_code":6},"0082":{"zip_code":"9960082","prefecture":"山形県","prefecture_kana":"ヤマガタケン","city":"新庄市","city_kana":"シンジョウシ","town":"北町","town_kana":"キタマチ","prefecture_code":6},"0073":{"zip_code":"9960073","prefecture":"山形県","prefecture_kana":"ヤマガタケン","city":"新庄市","city_kana":"シンジョウシ","town":"栄町","town_kana":"サカエマチ","prefecture_code":6},"0033":{"zip_code":"9960033","prefecture":"山形県","prefecture_kana":"ヤマガタケン","city":"新庄市","city_kana":"シンジョウシ","town":"下金沢町","town_kana":"シモカネザワマチ","prefecture_code":6},"0034":{"zip_code":"9960034","prefecture":"山形県","prefecture_kana":"ヤマガタケン","city":"新庄市","city_kana":"シンジョウシ","town":"下田町","town_kana":"シモダマチ","prefecture_code":6},"0077":{"zip_code":"9960077","prefecture":"山形県","prefecture_kana":"ヤマガタケン","city":"新庄市","city_kana":"シンジョウシ","town":"城南町","town_kana":"ジョウナンマチ","prefecture_code":6},"0076":{"zip_code":"9960076","prefecture":"山形県","prefecture_kana":"ヤマガタケン","city":"新庄市","city_kana":"シンジョウシ","town":"城西町","town_kana":"シロニシマチ","prefecture_code":6},"0031":{"zip_code":"9960031","prefecture":"山形県","prefecture_kana":"ヤマガタケン","city":"新庄市","city_kana":"シンジョウシ","town":"末広町","town_kana":"スエヒロマチ","prefecture_code":6},"0022":{"zip_code":"9960022","prefecture":"山形県","prefecture_kana":"ヤマガタケン","city":"新庄市","city_kana":"シンジョウシ","town":"住吉町","town_kana":"スミヨシマチ","prefecture_code":6},"0079":{"zip_code":"9960079","prefecture":"山形県","prefecture_kana":"ヤマガタケン","city":"新庄市","city_kana":"シンジョウシ","town":"千門町","town_kana":"センモンチョウ","prefecture_code":6},"0024":{"zip_code":"9960024","prefecture":"山形県","prefecture_kana":"ヤマガタケン","city":"新庄市","city_kana":"シンジョウシ","town":"多門町","town_kana":"タモンマチ","prefecture_code":6},"0052":{"zip_code":"9960052","prefecture":"山形県","prefecture_kana":"ヤマガタケン","city":"新庄市","city_kana":"シンジョウシ","town":"角沢","town_kana":"ツノザワ","prefecture_code":6},"0035":{"zip_code":"9960035","prefecture":"山形県","prefecture_kana":"ヤマガタケン","city":"新庄市","city_kana":"シンジョウシ","town":"鉄砲町","town_kana":"テッポウマチ","prefecture_code":6},"0091":{"zip_code":"9960091","prefecture":"山形県","prefecture_kana":"ヤマガタケン","city":"新庄市","city_kana":"シンジョウシ","town":"十日町","town_kana":"トオカマチ","prefecture_code":6},"0021":{"zip_code":"9960021","prefecture":"山形県","prefecture_kana":"ヤマガタケン","city":"新庄市","city_kana":"シンジョウシ","town":"常葉町","town_kana":"トキハマチ","prefecture_code":6},"0061":{"zip_code":"9960061","prefecture":"山形県","prefecture_kana":"ヤマガタケン","city":"新庄市","city_kana":"シンジョウシ","town":"飛田","town_kana":"トビタ","prefecture_code":6},"0041":{"zip_code":"9960041","prefecture":"山形県","prefecture_kana":"ヤマガタケン","city":"新庄市","city_kana":"シンジョウシ","town":"鳥越","town_kana":"トリゴエ","prefecture_code":6},"0081":{"zip_code":"9960081","prefecture":"山形県","prefecture_kana":"ヤマガタケン","city":"新庄市","city_kana":"シンジョウシ","town":"中道町","town_kana":"ナカミチマチ","prefecture_code":6},"0054":{"zip_code":"9960054","prefecture":"山形県","prefecture_kana":"ヤマガタケン","city":"新庄市","city_kana":"シンジョウシ","town":"仁間","town_kana":"ニケン","prefecture_code":6},"0087":{"zip_code":"9960087","prefecture":"山形県","prefecture_kana":"ヤマガタケン","city":"新庄市","city_kana":"シンジョウシ","town":"沼田","town_kana":"ヌマタ","prefecture_code":6},"0083":{"zip_code":"9960083","prefecture":"山形県","prefecture_kana":"ヤマガタケン","city":"新庄市","city_kana":"シンジョウシ","town":"沼田町","town_kana":"ヌマタマチ","prefecture_code":6},"0028":{"zip_code":"9960028","prefecture":"山形県","prefecture_kana":"ヤマガタケン","city":"新庄市","city_kana":"シンジョウシ","town":"万場町","town_kana":"バンバチョウ","prefecture_code":6},"0011":{"zip_code":"9960011","prefecture":"山形県","prefecture_kana":"ヤマガタケン","city":"新庄市","city_kana":"シンジョウシ","town":"東谷地田町","town_kana":"ヒガシヤチタマチ","prefecture_code":6},"0088":{"zip_code":"9960088","prefecture":"山形県","prefecture_kana":"ヤマガタケン","city":"新庄市","city_kana":"シンジョウシ","town":"桧町","town_kana":"ヒノキチョウ","prefecture_code":6},"0053":{"zip_code":"9960053","prefecture":"山形県","prefecture_kana":"ヤマガタケン","city":"新庄市","city_kana":"シンジョウシ","town":"福田","town_kana":"フクダ","prefecture_code":6},"0085":{"zip_code":"9960085","prefecture":"山形県","prefecture_kana":"ヤマガタケン","city":"新庄市","city_kana":"シンジョウシ","town":"堀端町","town_kana":"ホリバタマチ","prefecture_code":6},"0027":{"zip_code":"9960027","prefecture":"山形県","prefecture_kana":"ヤマガタケン","city":"新庄市","city_kana":"シンジョウシ","town":"本町","town_kana":"ホンマチ","prefecture_code":6},"0111":{"zip_code":"9960111","prefecture":"山形県","prefecture_kana":"ヤマガタケン","city":"新庄市","city_kana":"シンジョウシ","town":"升形","town_kana":"マスガタ","prefecture_code":6},"0051":{"zip_code":"9960051","prefecture":"山形県","prefecture_kana":"ヤマガタケン","city":"新庄市","city_kana":"シンジョウシ","town":"松本","town_kana":"マツモト","prefecture_code":6},"0072":{"zip_code":"9960072","prefecture":"山形県","prefecture_kana":"ヤマガタケン","city":"新庄市","city_kana":"シンジョウシ","town":"宮内町","town_kana":"ミヤウチマチ","prefecture_code":6},"0112":{"zip_code":"9960112","prefecture":"山形県","prefecture_kana":"ヤマガタケン","city":"新庄市","city_kana":"シンジョウシ","town":"本合海","town_kana":"モトアイカイ","prefecture_code":6},"0075":{"zip_code":"9960075","prefecture":"山形県","prefecture_kana":"ヤマガタケン","city":"新庄市","city_kana":"シンジョウシ","town":"横打町","town_kana":"ヨコウチマチ","prefecture_code":6},"0025":{"zip_code":"9960025","prefecture":"山形県","prefecture_kana":"ヤマガタケン","city":"新庄市","city_kana":"シンジョウシ","town":"若葉町","town_kana":"ワカバマチ","prefecture_code":6},"0200":{"zip_code":"9960200","prefecture":"山形県","prefecture_kana":"ヤマガタケン","city":"最上郡大蔵村","city_kana":"モガミグンオオクラムラ","town":"","town_kana":"","prefecture_code":6},"0211":{"zip_code":"9960211","prefecture":"山形県","prefecture_kana":"ヤマガタケン","city":"最上郡大蔵村","city_kana":"モガミグンオオクラムラ","town":"合海","town_kana":"アイカイ","prefecture_code":6},"0213":{"zip_code":"9960213","prefecture":"山形県","prefecture_kana":"ヤマガタケン","city":"最上郡大蔵村","city_kana":"モガミグンオオクラムラ","town":"赤松","town_kana":"アカマツ","prefecture_code":6},"0212":{"zip_code":"9960212","prefecture":"山形県","prefecture_kana":"ヤマガタケン","city":"最上郡大蔵村","city_kana":"モガミグンオオクラムラ","town":"清水","town_kana":"シミズ","prefecture_code":6},"0301":[{"zip_code":"9960301","prefecture":"山形県","prefecture_kana":"ヤマガタケン","city":"最上郡大蔵村","city_kana":"モガミグンオオクラムラ","town":"南山","town_kana":"ミナミヤマ","prefecture_code":6},{"zip_code":"9960301","prefecture":"山形県","prefecture_kana":"ヤマガタケン","city":"最上郡大蔵村","city_kana":"モガミグンオオクラムラ","town":"南山大谷地","town_kana":"ミナミヤマオオヤチ","prefecture_code":6},{"zip_code":"9960301","prefecture":"山形県","prefecture_kana":"ヤマガタケン","city":"最上郡大蔵村","city_kana":"モガミグンオオクラムラ","town":"南山折渡","town_kana":"ミナミヤマオリワタリ","prefecture_code":6},{"zip_code":"9960301","prefecture":"山形県","prefecture_kana":"ヤマガタケン","city":"最上郡大蔵村","city_kana":"モガミグンオオクラムラ","town":"南山鍵金野","town_kana":"ミナミヤマカンカネノ","prefecture_code":6},{"zip_code":"9960301","prefecture":"山形県","prefecture_kana":"ヤマガタケン","city":"最上郡大蔵村","city_kana":"モガミグンオオクラムラ","town":"南山金山","town_kana":"ミナミヤマキンザン","prefecture_code":6},{"zip_code":"9960301","prefecture":"山形県","prefecture_kana":"ヤマガタケン","city":"最上郡大蔵村","city_kana":"モガミグンオオクラムラ","town":"南山滝ノ沢","town_kana":"ミナミヤマタキノサワ","prefecture_code":6},{"zip_code":"9960301","prefecture":"山形県","prefecture_kana":"ヤマガタケン","city":"最上郡大蔵村","city_kana":"モガミグンオオクラムラ","town":"南山豊牧","town_kana":"ミナミヤマトヨマキ","prefecture_code":6},{"zip_code":"9960301","prefecture":"山形県","prefecture_kana":"ヤマガタケン","city":"最上郡大蔵村","city_kana":"モガミグンオオクラムラ","town":"南山沼の台","town_kana":"ミナミヤマヌマノダイ","prefecture_code":6},{"zip_code":"9960301","prefecture":"山形県","prefecture_kana":"ヤマガタケン","city":"最上郡大蔵村","city_kana":"モガミグンオオクラムラ","town":"南山肘折","town_kana":"ミナミヤマヒジオリ","prefecture_code":6},{"zip_code":"9960301","prefecture":"山形県","prefecture_kana":"ヤマガタケン","city":"最上郡大蔵村","city_kana":"モガミグンオオクラムラ","town":"南山平林","town_kana":"ミナミヤマヒラバヤシ","prefecture_code":6}],"0201":{"zip_code":"9960201","prefecture":"山形県","prefecture_kana":"ヤマガタケン","city":"最上郡大蔵村","city_kana":"モガミグンオオクラムラ","town":"南山","town_kana":"ミナミヤマ","prefecture_code":6}}