{"0000":{"zip_code":"9970000","prefecture":"山形県","prefecture_kana":"ヤマガタケン","city":"鶴岡市","city_kana":"ツルオカシ","town":"","town_kana":"","prefecture_code":6},"0832":{"zip_code":"9970832","prefecture":"山形県","prefecture_kana":"ヤマガタケン","city":"鶴岡市","city_kana":"ツルオカシ","town":"青柳町","town_kana":"アオヤギチョウ","prefecture_code":6},"1205":{"zip_code":"9971205","prefecture":"山形県","prefecture_kana":"ヤマガタケン","city":"鶴岡市","city_kana":"ツルオカシ","town":"油戸","town_kana":"アブラト","prefecture_code":6},"0051":{"zip_code":"9970051","prefecture":"山形県","prefecture_kana":"ヤマガタケン","city":"鶴岡市","city_kana":"ツルオカシ","town":"荒井京田","town_kana":"アライキョウデン","prefecture_code":6},"0621":{"zip_code":"9970621","prefecture":"山形県","prefecture_kana":"ヤマガタケン","city":"鶴岡市","city_kana":"ツルオカシ","town":"荒沢","town_kana":"アラサワ","prefecture_code":6},"0057":{"zip_code":"9970057","prefecture":"山形県","prefecture_kana":"ヤマガタケン","city":"鶴岡市","city_kana":"ツルオカシ","town":"安丹","town_kana":"アンタン","prefecture_code":6},"0755":{"zip_code":"9970755","prefecture":"山形県","prefecture_kana":"ヤマガタケン","city":"鶴岡市","city_kana":"ツルオカシ","town":"砂谷","town_kana":"イサゴダニ","prefecture_code":6},"0033":{"zip_code":"9970033","prefecture":"山形県","prefecture_kana":"ヤマガタケン","city":"鶴岡市","city_kana":"ツルオカシ","town":"泉町","town_kana":"イズミマチ","prefecture_code":6},"0802":{"zip_code":"9970802","prefecture":"山形県","prefecture_kana":"ヤマガタケン","city":"鶴岡市","city_kana":"ツルオカシ","town":"伊勢原町","town_kana":"イセハラマチ","prefecture_code":6},"0803":{"zip_code":"9970803","prefecture":"山形県","prefecture_kana":"ヤマガタケン","city":"鶴岡市","city_kana":"ツルオカシ","town":"伊勢横内","town_kana":"イセヨコウチ","prefecture_code":6},"0331":{"zip_code":"9970331","prefecture":"山形県","prefecture_kana":"ヤマガタケン","city":"鶴岡市","city_kana":"ツルオカシ","town":"板井川","town_kana":"イタイガワ","prefecture_code":6},"0834":{"zip_code":"9970834","prefecture":"山形県","prefecture_kana":"ヤマガタケン","city":"鶴岡市","city_kana":"ツルオカシ","town":"稲生","town_kana":"イナオイ","prefecture_code":6},"0842":{"zip_code":"9970842","prefecture":"山形県","prefecture_kana":"ヤマガタケン","city":"鶴岡市","city_kana":"ツルオカシ","town":"井岡","town_kana":"イノオカ","prefecture_code":6},"1206":{"zip_code":"9971206","prefecture":"山形県","prefecture_kana":"ヤマガタケン","city":"鶴岡市","city_kana":"ツルオカシ","town":"今泉","town_kana":"イマイズミ","prefecture_code":6},"1125":{"zip_code":"9971125","prefecture":"山形県","prefecture_kana":"ヤマガタケン","city":"鶴岡市","city_kana":"ツルオカシ","town":"馬町","town_kana":"ウママチ","prefecture_code":6},"0403":{"zip_code":"9970403","prefecture":"山形県","prefecture_kana":"ヤマガタケン","city":"鶴岡市","city_kana":"ツルオカシ","town":"越中山","town_kana":"エッチュウヤマ","prefecture_code":6},"0823":{"zip_code":"9970823","prefecture":"山形県","prefecture_kana":"ヤマガタケン","city":"鶴岡市","city_kana":"ツルオカシ","town":"海老島町","town_kana":"エビジママチ","prefecture_code":6},"0531":{"zip_code":"9970531","prefecture":"山形県","prefecture_kana":"ヤマガタケン","city":"鶴岡市","city_kana":"ツルオカシ","town":"大網","town_kana":"オオアミ","prefecture_code":6},"0047":{"zip_code":"9970047","prefecture":"山形県","prefecture_kana":"ヤマガタケン","city":"鶴岡市","city_kana":"ツルオカシ","town":"大塚町","town_kana":"オオツカマチ","prefecture_code":6},"0622":{"zip_code":"9970622","prefecture":"山形県","prefecture_kana":"ヤマガタケン","city":"鶴岡市","city_kana":"ツルオカシ","town":"大鳥","town_kana":"オオトリ","prefecture_code":6},"0831":{"zip_code":"9970831","prefecture":"山形県","prefecture_kana":"ヤマガタケン","city":"鶴岡市","city_kana":"ツルオカシ","town":"大西町","town_kana":"オオニシマチ","prefecture_code":6},"0414":{"zip_code":"9970414","prefecture":"山形県","prefecture_kana":"ヤマガタケン","city":"鶴岡市","city_kana":"ツルオカシ","town":"大針","town_kana":"オオバリ","prefecture_code":6},"1124":{"zip_code":"9971124","prefecture":"山形県","prefecture_kana":"ヤマガタケン","city":"鶴岡市","city_kana":"ツルオカシ","town":"大山","town_kana":"オオヤマ","prefecture_code":6},"1121":{"zip_code":"9971121","prefecture":"山形県","prefecture_kana":"ヤマガタケン","city":"鶴岡市","city_kana":"ツルオカシ","town":"大山","town_kana":"オオヤマ","prefecture_code":6},"0854":{"zip_code":"9970854","prefecture":"山形県","prefecture_kana":"ヤマガタケン","city":"鶴岡市","city_kana":"ツルオカシ","town":"大淀川","town_kana":"オオヨドカワ","prefecture_code":6},"0843":{"zip_code":"9970843","prefecture":"山形県","prefecture_kana":"ヤマガタケン","city":"鶴岡市","city_kana":"ツルオカシ","town":"岡山","town_kana":"オカヤマ","prefecture_code":6},"0806":{"zip_code":"9970806","prefecture":"山形県","prefecture_kana":"ヤマガタケン","city":"鶴岡市","city_kana":"ツルオカシ","town":"遠賀原","town_kana":"オガワラ","prefecture_code":6},"1116":{"zip_code":"9971116","prefecture":"山形県","prefecture_kana":"ヤマガタケン","city":"鶴岡市","city_kana":"ツルオカシ","town":"面野山","town_kana":"オモノヤマ","prefecture_code":6},"0052":{"zip_code":"9970052","prefecture":"山形県","prefecture_kana":"ヤマガタケン","city":"鶴岡市","city_kana":"ツルオカシ","town":"覚岸寺","town_kana":"カクガンジ","prefecture_code":6},"0036":{"zip_code":"9970036","prefecture":"山形県","prefecture_kana":"ヤマガタケン","city":"鶴岡市","city_kana":"ツルオカシ","town":"家中新町","town_kana":"カチュウシンマチ","prefecture_code":6},"0343":{"zip_code":"9970343","prefecture":"山形県","prefecture_kana":"ヤマガタケン","city":"鶴岡市","city_kana":"ツルオカシ","town":"桂荒俣","town_kana":"カツラアラマタ","prefecture_code":6},"0365":{"zip_code":"9970365","prefecture":"山形県","prefecture_kana":"ヤマガタケン","city":"鶴岡市","city_kana":"ツルオカシ","town":"金谷","town_kana":"カナヤ","prefecture_code":6},"1203":{"zip_code":"9971203","prefecture":"山形県","prefecture_kana":"ヤマガタケン","city":"鶴岡市","city_kana":"ツルオカシ","town":"金沢","town_kana":"カネザワ","prefecture_code":6},"0847":{"zip_code":"9970847","prefecture":"山形県","prefecture_kana":"ヤマガタケン","city":"鶴岡市","city_kana":"ツルオカシ","town":"上清水","town_kana":"カミシミズ","prefecture_code":6},"0623":{"zip_code":"9970623","prefecture":"山形県","prefecture_kana":"ヤマガタケン","city":"鶴岡市","city_kana":"ツルオカシ","town":"上田沢","town_kana":"カミタザワ","prefecture_code":6},"0405":{"zip_code":"9970405","prefecture":"山形県","prefecture_kana":"ヤマガタケン","city":"鶴岡市","city_kana":"ツルオカシ","town":"上名川","town_kana":"カミナガワ","prefecture_code":6},"0032":{"zip_code":"9970032","prefecture":"山形県","prefecture_kana":"ヤマガタケン","city":"鶴岡市","city_kana":"ツルオカシ","town":"上畑町","town_kana":"カミハタマチ","prefecture_code":6},"0346":{"zip_code":"9970346","prefecture":"山形県","prefecture_kana":"ヤマガタケン","city":"鶴岡市","city_kana":"ツルオカシ","town":"上山添","town_kana":"カミヤマゾエ","prefecture_code":6},"0367":{"zip_code":"9970367","prefecture":"山形県","prefecture_kana":"ヤマガタケン","city":"鶴岡市","city_kana":"ツルオカシ","town":"上山谷","town_kana":"カミヤマヤ","prefecture_code":6},"1204":{"zip_code":"9971204","prefecture":"山形県","prefecture_kana":"ヤマガタケン","city":"鶴岡市","city_kana":"ツルオカシ","town":"加茂","town_kana":"カモ","prefecture_code":6},"0805":{"zip_code":"9970805","prefecture":"山形県","prefecture_kana":"ヤマガタケン","city":"鶴岡市","city_kana":"ツルオカシ","town":"我老林","town_kana":"ガロウバヤシ","prefecture_code":6},"0053":{"zip_code":"9970053","prefecture":"山形県","prefecture_kana":"ヤマガタケン","city":"鶴岡市","city_kana":"ツルオカシ","town":"北京田","town_kana":"キタキョウデン","prefecture_code":6},"0022":{"zip_code":"9970022","prefecture":"山形県","prefecture_kana":"ヤマガタケン","city":"鶴岡市","city_kana":"ツルオカシ","town":"切添町","town_kana":"キリゾエマチ","prefecture_code":6},"0411":{"zip_code":"9970411","prefecture":"山形県","prefecture_kana":"ヤマガタケン","city":"鶴岡市","city_kana":"ツルオカシ","town":"熊出","town_kana":"クマイデ","prefecture_code":6},"0624":{"zip_code":"9970624","prefecture":"山形県","prefecture_kana":"ヤマガタケン","city":"鶴岡市","city_kana":"ツルオカシ","town":"倉沢","town_kana":"クラサワ","prefecture_code":6},"0311":{"zip_code":"9970311","prefecture":"山形県","prefecture_kana":"ヤマガタケン","city":"鶴岡市","city_kana":"ツルオカシ","town":"黒川","town_kana":"クロカワ","prefecture_code":6},"0005":{"zip_code":"9970005","prefecture":"山形県","prefecture_kana":"ヤマガタケン","city":"鶴岡市","city_kana":"ツルオカシ","town":"小京田","town_kana":"コキョウデン","prefecture_code":6},"0363":{"zip_code":"9970363","prefecture":"山形県","prefecture_kana":"ヤマガタケン","city":"鶴岡市","city_kana":"ツルオカシ","town":"寿","town_kana":"コトブキ","prefecture_code":6},"0825":{"zip_code":"9970825","prefecture":"山形県","prefecture_kana":"ヤマガタケン","city":"鶴岡市","city_kana":"ツルオカシ","town":"小真木原町","town_kana":"コマギハラマチ","prefecture_code":6},"0853":{"zip_code":"9970853","prefecture":"山形県","prefecture_kana":"ヤマガタケン","city":"鶴岡市","city_kana":"ツルオカシ","town":"小淀川","town_kana":"コヨドカワ","prefecture_code":6},"0804":{"zip_code":"9970804","prefecture":"山形県","prefecture_kana":"ヤマガタケン","city":"鶴岡市","city_kana":"ツルオカシ","town":"斎藤川原","town_kana":"サイトウガワラ","prefecture_code":6},"0757":{"zip_code":"9970757","prefecture":"山形県","prefecture_kana":"ヤマガタケン","city":"鶴岡市","city_kana":"ツルオカシ","town":"坂野下","town_kana":"サカノシタ","prefecture_code":6},"0861":{"zip_code":"9970861","prefecture":"山形県","prefecture_kana":"ヤマガタケン","city":"鶴岡市","city_kana":"ツルオカシ","town":"桜新町","town_kana":"サクラシンマチ","prefecture_code":6},"0821":{"zip_code":"9970821","prefecture":"山形県","prefecture_kana":"ヤマガタケン","city":"鶴岡市","city_kana":"ツルオカシ","town":"三光町","town_kana":"サンコウチョウ","prefecture_code":6},"0342":{"zip_code":"9970342","prefecture":"山形県","prefecture_kana":"ヤマガタケン","city":"鶴岡市","city_kana":"ツルオカシ","town":"三千刈","town_kana":"サンゼンガリ","prefecture_code":6},"0028":{"zip_code":"9970028","prefecture":"山形県","prefecture_kana":"ヤマガタケン","city":"鶴岡市","city_kana":"ツルオカシ","town":"山王町","town_kana":"サンノウマチ","prefecture_code":6},"0848":{"zip_code":"9970848","prefecture":"山形県","prefecture_kana":"ヤマガタケン","city":"鶴岡市","city_kana":"ツルオカシ","town":"清水新田","town_kana":"シミズシンデン","prefecture_code":6},"1117":{"zip_code":"9971117","prefecture":"山形県","prefecture_kana":"ヤマガタケン","city":"鶴岡市","city_kana":"ツルオカシ","town":"下川","town_kana":"シモガワ","prefecture_code":6},"1133":{"zip_code":"9971133","prefecture":"山形県","prefecture_kana":"ヤマガタケン","city":"鶴岡市","city_kana":"ツルオカシ","town":"下興屋","town_kana":"シモコウヤ","prefecture_code":6},"1134":{"zip_code":"9971134","prefecture":"山形県","prefecture_kana":"ヤマガタケン","city":"鶴岡市","city_kana":"ツルオカシ","town":"下小中","town_kana":"シモコナカ","prefecture_code":6},"0845":{"zip_code":"9970845","prefecture":"山形県","prefecture_kana":"ヤマガタケン","city":"鶴岡市","city_kana":"ツルオカシ","town":"下清水","town_kana":"シモシミズ","prefecture_code":6},"0625":{"zip_code":"9970625","prefecture":"山形県","prefecture_kana":"ヤマガタケン","city":"鶴岡市","city_kana":"ツルオカシ","town":"下田沢","town_kana":"シモタザワ","prefecture_code":6},"0404":{"zip_code":"9970404","prefecture":"山形県","prefecture_kana":"ヤマガタケン","city":"鶴岡市","city_kana":"ツルオカシ","town":"下名川","town_kana":"シモナガワ","prefecture_code":6},"0341":{"zip_code":"9970341","prefecture":"山形県","prefecture_kana":"ヤマガタケン","city":"鶴岡市","city_kana":"ツルオカシ","town":"下山添","town_kana":"シモヤマゾエ","prefecture_code":6},"0351":{"zip_code":"9970351","prefecture":"山形県","prefecture_kana":"ヤマガタケン","city":"鶴岡市","city_kana":"ツルオカシ","town":"勝福寺","town_kana":"ショウフクジ","prefecture_code":6},"0814":{"zip_code":"9970814","prefecture":"山形県","prefecture_kana":"ヤマガタケン","city":"鶴岡市","city_kana":"ツルオカシ","town":"城南町","town_kana":"ジョウナンマチ","prefecture_code":6},"0041":{"zip_code":"9970041","prefecture":"山形県","prefecture_kana":"ヤマガタケン","city":"鶴岡市","city_kana":"ツルオカシ","town":"城北町","town_kana":"ジョウホクマチ","prefecture_code":6},"0368":{"zip_code":"9970368","prefecture":"山形県","prefecture_kana":"ヤマガタケン","city":"鶴岡市","city_kana":"ツルオカシ","town":"青龍寺","town_kana":"ショウリュウジ","prefecture_code":6},"0754":{"zip_code":"9970754","prefecture":"山形県","prefecture_kana":"ヤマガタケン","city":"鶴岡市","city_kana":"ツルオカシ","town":"少連寺","town_kana":"ショウレンジ","prefecture_code":6},"0027":{"zip_code":"9970027","prefecture":"山形県","prefecture_kana":"ヤマガタケン","city":"鶴岡市","city_kana":"ツルオカシ","town":"昭和町","town_kana":"ショウワマチ","prefecture_code":6},"0841":{"zip_code":"9970841","prefecture":"山形県","prefecture_kana":"ヤマガタケン","city":"鶴岡市","city_kana":"ツルオカシ","town":"白山","town_kana":"シラヤマ","prefecture_code":6},"0044":{"zip_code":"9970044","prefecture":"山形県","prefecture_kana":"ヤマガタケン","city":"鶴岡市","city_kana":"ツルオカシ","town":"新海町","town_kana":"シンカイマチ","prefecture_code":6},"0852":{"zip_code":"9970852","prefecture":"山形県","prefecture_kana":"ヤマガタケン","city":"鶴岡市","city_kana":"ツルオカシ","town":"新斎部","town_kana":"シンサイブ","prefecture_code":6},"0811":{"zip_code":"9970811","prefecture":"山形県","prefecture_kana":"ヤマガタケン","city":"鶴岡市","city_kana":"ツルオカシ","town":"神明町","town_kana":"シンメイチョウ","prefecture_code":6},"0015":{"zip_code":"9970015","prefecture":"山形県","prefecture_kana":"ヤマガタケン","city":"鶴岡市","city_kana":"ツルオカシ","town":"末広町","town_kana":"スエヒロマチ","prefecture_code":6},"0415":{"zip_code":"9970415","prefecture":"山形県","prefecture_kana":"ヤマガタケン","city":"鶴岡市","city_kana":"ツルオカシ","town":"砂川","town_kana":"スナガワ","prefecture_code":6},"0839":{"zip_code":"9970839","prefecture":"山形県","prefecture_kana":"ヤマガタケン","city":"鶴岡市","city_kana":"ツルオカシ","town":"砂田町","town_kana":"スナダマチ","prefecture_code":6},"0758":{"zip_code":"9970758","prefecture":"山形県","prefecture_kana":"ヤマガタケン","city":"鶴岡市","city_kana":"ツルオカシ","town":"関根","town_kana":"セキネ","prefecture_code":6},"0813":{"zip_code":"9970813","prefecture":"山形県","prefecture_kana":"ヤマガタケン","city":"鶴岡市","city_kana":"ツルオカシ","town":"千石町","town_kana":"センゴクマチ","prefecture_code":6},"0026":{"zip_code":"9970026","prefecture":"山形県","prefecture_kana":"ヤマガタケン","city":"鶴岡市","city_kana":"ツルオカシ","town":"大東町","town_kana":"ダイトウマチ","prefecture_code":6},"0049":{"zip_code":"9970049","prefecture":"山形県","prefecture_kana":"ヤマガタケン","city":"鶴岡市","city_kana":"ツルオカシ","town":"大部町","town_kana":"ダイブマチ","prefecture_code":6},"0117":{"zip_code":"9970117","prefecture":"山形県","prefecture_kana":"ヤマガタケン","city":"鶴岡市","city_kana":"ツルオカシ","town":"大宝寺中野","town_kana":"ダイホウジナカノ","prefecture_code":6},"0017":{"zip_code":"9970017","prefecture":"山形県","prefecture_kana":"ヤマガタケン","city":"鶴岡市","city_kana":"ツルオカシ","town":"大宝寺","town_kana":"ダイホウジ","prefecture_code":6},"0369":{"zip_code":"9970369","prefecture":"山形県","prefecture_kana":"ヤマガタケン","city":"鶴岡市","city_kana":"ツルオカシ","town":"高坂","town_kana":"タカサカ","prefecture_code":6},"0054":{"zip_code":"9970054","prefecture":"山形県","prefecture_kana":"ヤマガタケン","city":"鶴岡市","city_kana":"ツルオカシ","town":"高田","town_kana":"タカダ","prefecture_code":6},"0011":{"zip_code":"9970011","prefecture":"山形県","prefecture_kana":"ヤマガタケン","city":"鶴岡市","city_kana":"ツルオカシ","town":"宝田","town_kana":"タカラダ","prefecture_code":6},"0021":{"zip_code":"9970021","prefecture":"山形県","prefecture_kana":"ヤマガタケン","city":"鶴岡市","city_kana":"ツルオカシ","town":"宝町","town_kana":"タカラマチ","prefecture_code":6},"0753":{"zip_code":"9970753","prefecture":"山形県","prefecture_kana":"ヤマガタケン","city":"鶴岡市","city_kana":"ツルオカシ","town":"田川","town_kana":"タガワ","prefecture_code":6},"0364":{"zip_code":"9970364","prefecture":"山形県","prefecture_kana":"ヤマガタケン","city":"鶴岡市","city_kana":"ツルオカシ","town":"滝沢","town_kana":"タキザワ","prefecture_code":6},"0302":{"zip_code":"9970302","prefecture":"山形県","prefecture_kana":"ヤマガタケン","city":"鶴岡市","city_kana":"ツルオカシ","town":"田代","town_kana":"タシロ","prefecture_code":6},"0366":{"zip_code":"9970366","prefecture":"山形県","prefecture_kana":"ヤマガタケン","city":"鶴岡市","city_kana":"ツルオカシ","town":"谷定","town_kana":"タニサダ","prefecture_code":6},"0532":{"zip_code":"9970532","prefecture":"山形県","prefecture_kana":"ヤマガタケン","city":"鶴岡市","city_kana":"ツルオカシ","town":"田麦俣","town_kana":"タムギマタ","prefecture_code":6},"0303":{"zip_code":"9970303","prefecture":"山形県","prefecture_kana":"ヤマガタケン","city":"鶴岡市","city_kana":"ツルオカシ","town":"たらのき代","town_kana":"タラノキダイ","prefecture_code":6},"0014":{"zip_code":"9970014","prefecture":"山形県","prefecture_kana":"ヤマガタケン","city":"鶴岡市","city_kana":"ツルオカシ","town":"大宝寺町","town_kana":"ダイホウジマチ","prefecture_code":6},"1114":{"zip_code":"9971114","prefecture":"山形県","prefecture_kana":"ヤマガタケン","city":"鶴岡市","city_kana":"ツルオカシ","town":"千安京田","town_kana":"チヤスキョウデン","prefecture_code":6},"0812":{"zip_code":"9970812","prefecture":"山形県","prefecture_kana":"ヤマガタケン","city":"鶴岡市","city_kana":"ツルオカシ","town":"長者町","town_kana":"チョウジャマチ","prefecture_code":6},"0024":{"zip_code":"9970024","prefecture":"山形県","prefecture_kana":"ヤマガタケン","city":"鶴岡市","city_kana":"ツルオカシ","town":"朝暘町","town_kana":"チョウヨウマチ","prefecture_code":6},"0019":{"zip_code":"9970019","prefecture":"山形県","prefecture_kana":"ヤマガタケン","city":"鶴岡市","city_kana":"ツルオカシ","town":"茅原","town_kana":"チワラ","prefecture_code":6},"0018":{"zip_code":"9970018","prefecture":"山形県","prefecture_kana":"ヤマガタケン","city":"鶴岡市","city_kana":"ツルオカシ","town":"茅原町","town_kana":"チワラマチ","prefecture_code":6},"1115":{"zip_code":"9971115","prefecture":"山形県","prefecture_kana":"ヤマガタケン","city":"鶴岡市","city_kana":"ツルオカシ","town":"辻興屋","town_kana":"ツジコウヤ","prefecture_code":6},"0836":{"zip_code":"9970836","prefecture":"山形県","prefecture_kana":"ヤマガタケン","city":"鶴岡市","city_kana":"ツルオカシ","town":"寺田","town_kana":"テラダ","prefecture_code":6},"0012":{"zip_code":"9970012","prefecture":"山形県","prefecture_kana":"ヤマガタケン","city":"鶴岡市","city_kana":"ツルオカシ","town":"道形","town_kana":"ドウガタ","prefecture_code":6},"0013":{"zip_code":"9970013","prefecture":"山形県","prefecture_kana":"ヤマガタケン","city":"鶴岡市","city_kana":"ツルオカシ","town":"道形町","town_kana":"ドウガタマチ","prefecture_code":6},"0333":{"zip_code":"9970333","prefecture":"山形県","prefecture_kana":"ヤマガタケン","city":"鶴岡市","city_kana":"ツルオカシ","town":"常盤木","town_kana":"トキワギ","prefecture_code":6},"1132":{"zip_code":"9971132","prefecture":"山形県","prefecture_kana":"ヤマガタケン","city":"鶴岡市","city_kana":"ツルオカシ","town":"栃屋","town_kana":"トチヤ","prefecture_code":6},"0815":{"zip_code":"9970815","prefecture":"山形県","prefecture_kana":"ヤマガタケン","city":"鶴岡市","city_kana":"ツルオカシ","town":"外内島","town_kana":"トノジマ","prefecture_code":6},"1122":{"zip_code":"9971122","prefecture":"山形県","prefecture_kana":"ヤマガタケン","city":"鶴岡市","city_kana":"ツルオカシ","town":"友江","town_kana":"トモエ","prefecture_code":6},"1123":{"zip_code":"9971123","prefecture":"山形県","prefecture_kana":"ヤマガタケン","city":"鶴岡市","city_kana":"ツルオカシ","town":"友江町","town_kana":"トモエマチ","prefecture_code":6},"0007":{"zip_code":"9970007","prefecture":"山形県","prefecture_kana":"ヤマガタケン","city":"鶴岡市","city_kana":"ツルオカシ","town":"豊田","town_kana":"トヨダ","prefecture_code":6},"0023":{"zip_code":"9970023","prefecture":"山形県","prefecture_kana":"ヤマガタケン","city":"鶴岡市","city_kana":"ツルオカシ","town":"鳥居町","town_kana":"トリイマチ","prefecture_code":6},"0808":{"zip_code":"9970808","prefecture":"山形県","prefecture_kana":"ヤマガタケン","city":"鶴岡市","city_kana":"ツルオカシ","town":"苗津","town_kana":"ナエヅ","prefecture_code":6},"0809":{"zip_code":"9970809","prefecture":"山形県","prefecture_kana":"ヤマガタケン","city":"鶴岡市","city_kana":"ツルオカシ","town":"苗津町","town_kana":"ナエヅマチ","prefecture_code":6},"0009":{"zip_code":"9970009","prefecture":"山形県","prefecture_kana":"ヤマガタケン","city":"鶴岡市","city_kana":"ツルオカシ","town":"中京田","town_kana":"ナカキョウデン","prefecture_code":6},"0846":{"zip_code":"9970846","prefecture":"山形県","prefecture_kana":"ヤマガタケン","city":"鶴岡市","city_kana":"ツルオカシ","town":"中清水","town_kana":"ナカシミズ","prefecture_code":6},"0345":{"zip_code":"9970345","prefecture":"山形県","prefecture_kana":"ヤマガタケン","city":"鶴岡市","city_kana":"ツルオカシ","town":"中田","town_kana":"ナカダ","prefecture_code":6},"1135":{"zip_code":"9971135","prefecture":"山形県","prefecture_kana":"ヤマガタケン","city":"鶴岡市","city_kana":"ツルオカシ","town":"中楯","town_kana":"ナカダテ","prefecture_code":6},"0056":{"zip_code":"9970056","prefecture":"山形県","prefecture_kana":"ヤマガタケン","city":"鶴岡市","city_kana":"ツルオカシ","town":"中野京田","town_kana":"ナカノキョウデン","prefecture_code":6},"0401":{"zip_code":"9970401","prefecture":"山形県","prefecture_kana":"ヤマガタケン","city":"鶴岡市","city_kana":"ツルオカシ","town":"中野新田","town_kana":"ナカノシンデン","prefecture_code":6},"0362":{"zip_code":"9970362","prefecture":"山形県","prefecture_kana":"ヤマガタケン","city":"鶴岡市","city_kana":"ツルオカシ","town":"中橋","town_kana":"ナカハシ","prefecture_code":6},"0413":{"zip_code":"9970413","prefecture":"山形県","prefecture_kana":"ヤマガタケン","city":"鶴岡市","city_kana":"ツルオカシ","town":"行沢","town_kana":"ナメザワ","prefecture_code":6},"1113":{"zip_code":"9971113","prefecture":"山形県","prefecture_kana":"ヤマガタケン","city":"鶴岡市","city_kana":"ツルオカシ","town":"長崎","town_kana":"ナガサキ","prefecture_code":6},"0042":{"zip_code":"9970042","prefecture":"山形県","prefecture_kana":"ヤマガタケン","city":"鶴岡市","city_kana":"ツルオカシ","town":"新形町","town_kana":"ニイガタマチ","prefecture_code":6},"0332":{"zip_code":"9970332","prefecture":"山形県","prefecture_kana":"ヤマガタケン","city":"鶴岡市","city_kana":"ツルオカシ","town":"西荒屋","town_kana":"ニシアラヤ","prefecture_code":6},"0323":{"zip_code":"9970323","prefecture":"山形県","prefecture_kana":"ヤマガタケン","city":"鶴岡市","city_kana":"ツルオカシ","town":"西片屋","town_kana":"ニシカタヤ","prefecture_code":6},"0031":{"zip_code":"9970031","prefecture":"山形県","prefecture_kana":"ヤマガタケン","city":"鶴岡市","city_kana":"ツルオカシ","town":"錦町","town_kana":"ニシキマチ","prefecture_code":6},"0055":{"zip_code":"9970055","prefecture":"山形県","prefecture_kana":"ヤマガタケン","city":"鶴岡市","city_kana":"ツルオカシ","town":"西京田","town_kana":"ニシキョウデン","prefecture_code":6},"0045":{"zip_code":"9970045","prefecture":"山形県","prefecture_kana":"ヤマガタケン","city":"鶴岡市","city_kana":"ツルオカシ","town":"西新斎町","town_kana":"ニシシンサイマチ","prefecture_code":6},"1112":{"zip_code":"9971112","prefecture":"山形県","prefecture_kana":"ヤマガタケン","city":"鶴岡市","city_kana":"ツルオカシ","town":"西沼","town_kana":"ニシヌマ","prefecture_code":6},"0851":{"zip_code":"9970851","prefecture":"山形県","prefecture_kana":"ヤマガタケン","city":"鶴岡市","city_kana":"ツルオカシ","town":"布目","town_kana":"ヌノメ","prefecture_code":6},"0819":{"zip_code":"9970819","prefecture":"山形県","prefecture_kana":"ヤマガタケン","city":"鶴岡市","city_kana":"ツルオカシ","town":"のぞみ町","town_kana":"ノゾミマチ","prefecture_code":6},"0167":{"zip_code":"9970167","prefecture":"山形県","prefecture_kana":"ヤマガタケン","city":"鶴岡市","city_kana":"ツルオカシ","town":"羽黒町赤川","town_kana":"ハグロマチアカガワ","prefecture_code":6},"0141":{"zip_code":"9970141","prefecture":"山形県","prefecture_kana":"ヤマガタケン","city":"鶴岡市","city_kana":"ツルオカシ","town":"羽黒町荒川","town_kana":"ハグロマチアラカワ","prefecture_code":6},"0155":{"zip_code":"9970155","prefecture":"山形県","prefecture_kana":"ヤマガタケン","city":"鶴岡市","city_kana":"ツルオカシ","town":"羽黒町石野新田","town_kana":"ハグロマチイシノシンデン","prefecture_code":6},"0123":{"zip_code":"9970123","prefecture":"山形県","prefecture_kana":"ヤマガタケン","city":"鶴岡市","city_kana":"ツルオカシ","town":"羽黒町市野山","town_kana":"ハグロマチイチノヤマ","prefecture_code":6},"0152":{"zip_code":"9970152","prefecture":"山形県","prefecture_kana":"ヤマガタケン","city":"鶴岡市","city_kana":"ツルオカシ","town":"羽黒町猪俣新田","town_kana":"ハグロマチイノマタシンデン","prefecture_code":6},"0157":{"zip_code":"9970157","prefecture":"山形県","prefecture_kana":"ヤマガタケン","city":"鶴岡市","city_kana":"ツルオカシ","town":"羽黒町後田","town_kana":"ハグロマチウシロダ","prefecture_code":6},"0142":{"zip_code":"9970142","prefecture":"山形県","prefecture_kana":"ヤマガタケン","city":"鶴岡市","city_kana":"ツルオカシ","town":"羽黒町上野新田","town_kana":"ハグロマチウワノシンデン","prefecture_code":6},"0122":{"zip_code":"9970122","prefecture":"山形県","prefecture_kana":"ヤマガタケン","city":"鶴岡市","city_kana":"ツルオカシ","town":"羽黒町大口","town_kana":"ハグロマチオオグチ","prefecture_code":6},"0161":{"zip_code":"9970161","prefecture":"山形県","prefecture_kana":"ヤマガタケン","city":"鶴岡市","city_kana":"ツルオカシ","town":"羽黒町押口","town_kana":"ハグロマチオサエグチ","prefecture_code":6},"0108":{"zip_code":"9970108","prefecture":"山形県","prefecture_kana":"ヤマガタケン","city":"鶴岡市","city_kana":"ツルオカシ","town":"羽黒町金森目","town_kana":"ハグロマチカナモリメ","prefecture_code":6},"0163":{"zip_code":"9970163","prefecture":"山形県","prefecture_kana":"ヤマガタケン","city":"鶴岡市","city_kana":"ツルオカシ","town":"羽黒町狩谷野目","town_kana":"ハグロマチカリヤノメ","prefecture_code":6},"0131":{"zip_code":"9970131","prefecture":"山形県","prefecture_kana":"ヤマガタケン","city":"鶴岡市","city_kana":"ツルオカシ","town":"羽黒町川代","town_kana":"ハグロマチカワダイ","prefecture_code":6},"0105":{"zip_code":"9970105","prefecture":"山形県","prefecture_kana":"ヤマガタケン","city":"鶴岡市","city_kana":"ツルオカシ","town":"羽黒町川行","town_kana":"ハグロマチカワツラ","prefecture_code":6},"0151":{"zip_code":"9970151","prefecture":"山形県","prefecture_kana":"ヤマガタケン","city":"鶴岡市","city_kana":"ツルオカシ","town":"羽黒町黒瀬","town_kana":"ハグロマチクロセ","prefecture_code":6},"0107":{"zip_code":"9970107","prefecture":"山形県","prefecture_kana":"ヤマガタケン","city":"鶴岡市","city_kana":"ツルオカシ","town":"羽黒町小増川","town_kana":"ハグロマチコマスガワ","prefecture_code":6},"0104":{"zip_code":"9970104","prefecture":"山形県","prefecture_kana":"ヤマガタケン","city":"鶴岡市","city_kana":"ツルオカシ","town":"羽黒町坂ノ下","town_kana":"ハグロマチサカノシタ","prefecture_code":6},"0127":{"zip_code":"9970127","prefecture":"山形県","prefecture_kana":"ヤマガタケン","city":"鶴岡市","city_kana":"ツルオカシ","town":"羽黒町十文字","town_kana":"ハグロマチジュウモンジ","prefecture_code":6},"0125":{"zip_code":"9970125","prefecture":"山形県","prefecture_kana":"ヤマガタケン","city":"鶴岡市","city_kana":"ツルオカシ","town":"羽黒町仙道","town_kana":"ハグロマチセンドウ","prefecture_code":6},"0106":{"zip_code":"9970106","prefecture":"山形県","prefecture_kana":"ヤマガタケン","city":"鶴岡市","city_kana":"ツルオカシ","town":"羽黒町染興屋","town_kana":"ハグロマチソメコウヤ","prefecture_code":6},"0153":{"zip_code":"9970153","prefecture":"山形県","prefecture_kana":"ヤマガタケン","city":"鶴岡市","city_kana":"ツルオカシ","town":"羽黒町高寺","town_kana":"ハグロマチタカデラ","prefecture_code":6},"0121":{"zip_code":"9970121","prefecture":"山形県","prefecture_kana":"ヤマガタケン","city":"鶴岡市","city_kana":"ツルオカシ","town":"羽黒町玉川","town_kana":"ハグロマチタマガワ","prefecture_code":6},"0211":{"zip_code":"9970211","prefecture":"山形県","prefecture_kana":"ヤマガタケン","city":"鶴岡市","city_kana":"ツルオカシ","town":"羽黒町手向","town_kana":"ハグロマチトウゲ","prefecture_code":6},"0103":{"zip_code":"9970103","prefecture":"山形県","prefecture_kana":"ヤマガタケン","city":"鶴岡市","city_kana":"ツルオカシ","town":"羽黒町戸野","town_kana":"ハグロマチトノ","prefecture_code":6},"0165":{"zip_code":"9970165","prefecture":"山形県","prefecture_kana":"ヤマガタケン","city":"鶴岡市","city_kana":"ツルオカシ","town":"羽黒町富沢","town_kana":"ハグロマチトミザワ","prefecture_code":6},"0102":{"zip_code":"9970102","prefecture":"山形県","prefecture_kana":"ヤマガタケン","city":"鶴岡市","city_kana":"ツルオカシ","town":"羽黒町中里","town_kana":"ハグロマチナカザト","prefecture_code":6},"0126":{"zip_code":"9970126","prefecture":"山形県","prefecture_kana":"ヤマガタケン","city":"鶴岡市","city_kana":"ツルオカシ","town":"羽黒町野荒町","town_kana":"ハグロマチノアラマチ","prefecture_code":6},"0143":{"zip_code":"9970143","prefecture":"山形県","prefecture_kana":"ヤマガタケン","city":"鶴岡市","city_kana":"ツルオカシ","town":"羽黒町野田","town_kana":"ハグロマチノダ","prefecture_code":6},"0164":{"zip_code":"9970164","prefecture":"山形県","prefecture_kana":"ヤマガタケン","city":"鶴岡市","city_kana":"ツルオカシ","town":"羽黒町昼田","town_kana":"ハグロマチヒルダ","prefecture_code":6},"0162":{"zip_code":"9970162","prefecture":"山形県","prefecture_kana":"ヤマガタケン","city":"鶴岡市","city_kana":"ツルオカシ","town":"羽黒町細谷","town_kana":"ハグロマチホソヤ","prefecture_code":6},"0124":{"zip_code":"9970124","prefecture":"山形県","prefecture_kana":"ヤマガタケン","city":"鶴岡市","city_kana":"ツルオカシ","town":"羽黒町増川新田","town_kana":"ハグロマチマスカワシンデン","prefecture_code":6},"0101":{"zip_code":"9970101","prefecture":"山形県","prefecture_kana":"ヤマガタケン","city":"鶴岡市","city_kana":"ツルオカシ","town":"羽黒町町屋","town_kana":"ハグロマチマチヤ","prefecture_code":6},"0156":{"zip_code":"9970156","prefecture":"山形県","prefecture_kana":"ヤマガタケン","city":"鶴岡市","city_kana":"ツルオカシ","town":"羽黒町松尾","town_kana":"ハグロマチマツオ","prefecture_code":6},"0158":{"zip_code":"9970158","prefecture":"山形県","prefecture_kana":"ヤマガタケン","city":"鶴岡市","city_kana":"ツルオカシ","town":"羽黒町松ケ岡","town_kana":"ハグロマチマツガオカ","prefecture_code":6},"0154":{"zip_code":"9970154","prefecture":"山形県","prefecture_kana":"ヤマガタケン","city":"鶴岡市","city_kana":"ツルオカシ","town":"羽黒町馬渡ノ内下","town_kana":"ハグロマチマワタリノウチシモ","prefecture_code":6},"0166":{"zip_code":"9970166","prefecture":"山形県","prefecture_kana":"ヤマガタケン","city":"鶴岡市","city_kana":"ツルオカシ","town":"羽黒町三ツ橋","town_kana":"ハグロマチミツハシ","prefecture_code":6},"0035":{"zip_code":"9970035","prefecture":"山形県","prefecture_kana":"ヤマガタケン","city":"鶴岡市","city_kana":"ツルオカシ","town":"馬場町","town_kana":"ババチョウ","prefecture_code":6},"0058":{"zip_code":"9970058","prefecture":"山形県","prefecture_kana":"ヤマガタケン","city":"鶴岡市","city_kana":"ツルオカシ","town":"林崎","town_kana":"ハヤシザキ","prefecture_code":6},"1111":{"zip_code":"9971111","prefecture":"山形県","prefecture_kana":"ヤマガタケン","city":"鶴岡市","city_kana":"ツルオカシ","town":"茨新田","town_kana":"バラシンデン","prefecture_code":6},"0002":{"zip_code":"9970002","prefecture":"山形県","prefecture_kana":"ヤマガタケン","city":"鶴岡市","city_kana":"ツルオカシ","town":"播磨","town_kana":"ハリマ","prefecture_code":6},"0835":{"zip_code":"9970835","prefecture":"山形県","prefecture_kana":"ヤマガタケン","city":"鶴岡市","city_kana":"ツルオカシ","town":"番田","town_kana":"バンデン","prefecture_code":6},"0824":{"zip_code":"9970824","prefecture":"山形県","prefecture_kana":"ヤマガタケン","city":"鶴岡市","city_kana":"ツルオカシ","town":"日枝","town_kana":"ヒエ","prefecture_code":6},"0344":{"zip_code":"9970344","prefecture":"山形県","prefecture_kana":"ヤマガタケン","city":"鶴岡市","city_kana":"ツルオカシ","town":"東荒屋","town_kana":"ヒガシアラヤ","prefecture_code":6},"0402":{"zip_code":"9970402","prefecture":"山形県","prefecture_kana":"ヤマガタケン","city":"鶴岡市","city_kana":"ツルオカシ","town":"東岩本","town_kana":"ヒガシイワモト","prefecture_code":6},"0043":{"zip_code":"9970043","prefecture":"山形県","prefecture_kana":"ヤマガタケン","city":"鶴岡市","city_kana":"ツルオカシ","town":"東新斎町","town_kana":"ヒガシシンサイマチ","prefecture_code":6},"0801":{"zip_code":"9970801","prefecture":"山形県","prefecture_kana":"ヤマガタケン","city":"鶴岡市","city_kana":"ツルオカシ","town":"東原町","town_kana":"ヒガシハラマチ","prefecture_code":6},"0756":{"zip_code":"9970756","prefecture":"山形県","prefecture_kana":"ヤマガタケン","city":"鶴岡市","city_kana":"ツルオカシ","town":"東目","town_kana":"ヒガシメ","prefecture_code":6},"1131":{"zip_code":"9971131","prefecture":"山形県","prefecture_kana":"ヤマガタケン","city":"鶴岡市","city_kana":"ツルオカシ","town":"菱津","town_kana":"ヒシヅ","prefecture_code":6},"0025":{"zip_code":"9970025","prefecture":"山形県","prefecture_kana":"ヤマガタケン","city":"鶴岡市","city_kana":"ツルオカシ","town":"日出","town_kana":"ヒノデ","prefecture_code":6},"0029":{"zip_code":"9970029","prefecture":"山形県","prefecture_kana":"ヤマガタケン","city":"鶴岡市","city_kana":"ツルオカシ","town":"日吉町","town_kana":"ヒヨシマチ","prefecture_code":6},"0016":{"zip_code":"9970016","prefecture":"山形県","prefecture_kana":"ヤマガタケン","city":"鶴岡市","city_kana":"ツルオカシ","town":"日和田町","town_kana":"ヒヨリダマチ","prefecture_code":6},"0008":{"zip_code":"9970008","prefecture":"山形県","prefecture_kana":"ヤマガタケン","city":"鶴岡市","city_kana":"ツルオカシ","town":"平田","town_kana":"ヒラタ","prefecture_code":6},"0006":{"zip_code":"9970006","prefecture":"山形県","prefecture_kana":"ヤマガタケン","city":"鶴岡市","city_kana":"ツルオカシ","town":"福田","town_kana":"フクダ","prefecture_code":6},"0751":{"zip_code":"9970751","prefecture":"山形県","prefecture_kana":"ヤマガタケン","city":"鶴岡市","city_kana":"ツルオカシ","town":"藤沢","town_kana":"フジサワ","prefecture_code":6},"0822":{"zip_code":"9970822","prefecture":"山形県","prefecture_kana":"ヤマガタケン","city":"鶴岡市","city_kana":"ツルオカシ","town":"双葉町","town_kana":"フタバチョウ","prefecture_code":6},"0816":{"zip_code":"9970816","prefecture":"山形県","prefecture_kana":"ヤマガタケン","city":"鶴岡市","city_kana":"ツルオカシ","town":"文園町","town_kana":"フミゾノマチ","prefecture_code":6},"0048":{"zip_code":"9970048","prefecture":"山形県","prefecture_kana":"ヤマガタケン","city":"鶴岡市","city_kana":"ツルオカシ","town":"平京田","town_kana":"ヘイキョウデン","prefecture_code":6},"1156":{"zip_code":"9971156","prefecture":"山形県","prefecture_kana":"ヤマガタケン","city":"鶴岡市","city_kana":"ツルオカシ","town":"平成町","town_kana":"ヘイセイマチ","prefecture_code":6},"0003":{"zip_code":"9970003","prefecture":"山形県","prefecture_kana":"ヤマガタケン","city":"鶴岡市","city_kana":"ツルオカシ","town":"文下","town_kana":"ホウダシ","prefecture_code":6},"0321":{"zip_code":"9970321","prefecture":"山形県","prefecture_kana":"ヤマガタケン","city":"鶴岡市","city_kana":"ツルオカシ","town":"宝谷","town_kana":"ホウヤ","prefecture_code":6},"0862":{"zip_code":"9970862","prefecture":"山形県","prefecture_kana":"ヤマガタケン","city":"鶴岡市","city_kana":"ツルオカシ","town":"ほなみ町","town_kana":"ホナミマチ","prefecture_code":6},"0412":{"zip_code":"9970412","prefecture":"山形県","prefecture_kana":"ヤマガタケン","city":"鶴岡市","city_kana":"ツルオカシ","town":"本郷","town_kana":"ホンゴウ","prefecture_code":6},"0034":{"zip_code":"9970034","prefecture":"山形県","prefecture_kana":"ヤマガタケン","city":"鶴岡市","city_kana":"ツルオカシ","town":"本町","town_kana":"ホンチョウ","prefecture_code":6},"0004":{"zip_code":"9970004","prefecture":"山形県","prefecture_kana":"ヤマガタケン","city":"鶴岡市","city_kana":"ツルオカシ","town":"本田","town_kana":"ホンデン","prefecture_code":6},"0626":{"zip_code":"9970626","prefecture":"山形県","prefecture_kana":"ヤマガタケン","city":"鶴岡市","city_kana":"ツルオカシ","town":"松沢","town_kana":"マツザワ","prefecture_code":6},"0322":{"zip_code":"9970322","prefecture":"山形県","prefecture_kana":"ヤマガタケン","city":"鶴岡市","city_kana":"ツルオカシ","town":"松根","town_kana":"マツネ","prefecture_code":6},"0334":{"zip_code":"9970334","prefecture":"山形県","prefecture_kana":"ヤマガタケン","city":"鶴岡市","city_kana":"ツルオカシ","town":"丸岡","town_kana":"マルオカ","prefecture_code":6},"0301":{"zip_code":"9970301","prefecture":"山形県","prefecture_kana":"ヤマガタケン","city":"鶴岡市","city_kana":"ツルオカシ","town":"馬渡","town_kana":"マワタリ","prefecture_code":6},"0857":{"zip_code":"9970857","prefecture":"山形県","prefecture_kana":"ヤマガタケン","city":"鶴岡市","city_kana":"ツルオカシ","town":"美咲町","town_kana":"ミサキマチ","prefecture_code":6},"0837":{"zip_code":"9970837","prefecture":"山形県","prefecture_kana":"ヤマガタケン","city":"鶴岡市","city_kana":"ツルオカシ","town":"道田町","town_kana":"ミチダマチ","prefecture_code":6},"0046":{"zip_code":"9970046","prefecture":"山形県","prefecture_kana":"ヤマガタケン","city":"鶴岡市","city_kana":"ツルオカシ","town":"みどり町","town_kana":"ミドリマチ","prefecture_code":6},"0826":{"zip_code":"9970826","prefecture":"山形県","prefecture_kana":"ヤマガタケン","city":"鶴岡市","city_kana":"ツルオカシ","town":"美原町","town_kana":"ミハラマチ","prefecture_code":6},"1202":{"zip_code":"9971202","prefecture":"山形県","prefecture_kana":"ヤマガタケン","city":"鶴岡市","city_kana":"ツルオカシ","town":"宮沢","town_kana":"ミヤザワ","prefecture_code":6},"0818":{"zip_code":"9970818","prefecture":"山形県","prefecture_kana":"ヤマガタケン","city":"鶴岡市","city_kana":"ツルオカシ","town":"三和町","town_kana":"ミワマチ","prefecture_code":6},"0361":{"zip_code":"9970361","prefecture":"山形県","prefecture_kana":"ヤマガタケン","city":"鶴岡市","city_kana":"ツルオカシ","town":"民田","town_kana":"ミンデン","prefecture_code":6},"0817":{"zip_code":"9970817","prefecture":"山形県","prefecture_kana":"ヤマガタケン","city":"鶴岡市","city_kana":"ツルオカシ","town":"睦町","town_kana":"ムツミマチ","prefecture_code":6},"0844":{"zip_code":"9970844","prefecture":"山形県","prefecture_kana":"ヤマガタケン","city":"鶴岡市","city_kana":"ツルオカシ","town":"森片","town_kana":"モリカタ","prefecture_code":6},"0807":{"zip_code":"9970807","prefecture":"山形県","prefecture_kana":"ヤマガタケン","city":"鶴岡市","city_kana":"ツルオカシ","town":"八ツ興屋","town_kana":"ヤツゴウヤ","prefecture_code":6},"0833":{"zip_code":"9970833","prefecture":"山形県","prefecture_kana":"ヤマガタケン","city":"鶴岡市","city_kana":"ツルオカシ","town":"柳田","town_kana":"ヤナギダ","prefecture_code":6},"0855":{"zip_code":"9970855","prefecture":"山形県","prefecture_kana":"ヤマガタケン","city":"鶴岡市","city_kana":"ツルオカシ","town":"矢馳","town_kana":"ヤバセ","prefecture_code":6},"0856":{"zip_code":"9970856","prefecture":"山形県","prefecture_kana":"ヤマガタケン","city":"鶴岡市","city_kana":"ツルオカシ","town":"山田","town_kana":"ヤマダ","prefecture_code":6},"0752":{"zip_code":"9970752","prefecture":"山形県","prefecture_kana":"ヤマガタケン","city":"鶴岡市","city_kana":"ツルオカシ","town":"湯田川","town_kana":"ユタガワ","prefecture_code":6},"0001":{"zip_code":"9970001","prefecture":"山形県","prefecture_kana":"ヤマガタケン","city":"鶴岡市","city_kana":"ツルオカシ","town":"湯野沢","town_kana":"ユノサワ","prefecture_code":6},"1201":{"zip_code":"9971201","prefecture":"山形県","prefecture_kana":"ヤマガタケン","city":"鶴岡市","city_kana":"ツルオカシ","town":"湯野浜","town_kana":"ユノハマ","prefecture_code":6},"0827":{"zip_code":"9970827","prefecture":"山形県","prefecture_kana":"ヤマガタケン","city":"鶴岡市","city_kana":"ツルオカシ","town":"陽光町","town_kana":"ヨウコウマチ","prefecture_code":6},"0010":{"zip_code":"9970010","prefecture":"山形県","prefecture_kana":"ヤマガタケン","city":"鶴岡市","city_kana":"ツルオカシ","town":"余慶町","town_kana":"ヨケイマチ","prefecture_code":6},"0838":{"zip_code":"9970838","prefecture":"山形県","prefecture_kana":"ヤマガタケン","city":"鶴岡市","city_kana":"ツルオカシ","town":"淀川町","town_kana":"ヨドカワマチ","prefecture_code":6},"0037":{"zip_code":"9970037","prefecture":"山形県","prefecture_kana":"ヤマガタケン","city":"鶴岡市","city_kana":"ツルオカシ","town":"若葉町","town_kana":"ワカバマチ","prefecture_code":6},"1300":{"zip_code":"9971300","prefecture":"山形県","prefecture_kana":"ヤマガタケン","city":"東田川郡三川町","city_kana":"ヒガシタガワグンミカワマチ","town":"","town_kana":"","prefecture_code":6},"1311":{"zip_code":"9971311","prefecture":"山形県","prefecture_kana":"ヤマガタケン","city":"東田川郡三川町","city_kana":"ヒガシタガワグンミカワマチ","town":"青山","town_kana":"アオヤマ","prefecture_code":6},"1316":{"zip_code":"9971316","prefecture":"山形県","prefecture_kana":"ヤマガタケン","city":"東田川郡三川町","city_kana":"ヒガシタガワグンミカワマチ","town":"猪子","town_kana":"イノコ","prefecture_code":6},"1321":{"zip_code":"9971321","prefecture":"山形県","prefecture_kana":"ヤマガタケン","city":"東田川郡三川町","city_kana":"ヒガシタガワグンミカワマチ","town":"押切新田","town_kana":"オシキリシンデン","prefecture_code":6},"1313":{"zip_code":"9971313","prefecture":"山形県","prefecture_kana":"ヤマガタケン","city":"東田川郡三川町","city_kana":"ヒガシタガワグンミカワマチ","town":"角田二口","town_kana":"カクタフタクチ","prefecture_code":6},"1336":{"zip_code":"9971336","prefecture":"山形県","prefecture_kana":"ヤマガタケン","city":"東田川郡三川町","city_kana":"ヒガシタガワグンミカワマチ","town":"加藤","town_kana":"カトウ","prefecture_code":6},"1315":{"zip_code":"9971315","prefecture":"山形県","prefecture_kana":"ヤマガタケン","city":"東田川郡三川町","city_kana":"ヒガシタガワグンミカワマチ","town":"神花","town_kana":"カンバナ","prefecture_code":6},"1337":{"zip_code":"9971337","prefecture":"山形県","prefecture_kana":"ヤマガタケン","city":"東田川郡三川町","city_kana":"ヒガシタガワグンミカワマチ","town":"小尺","town_kana":"ショウシャク","prefecture_code":6},"1331":{"zip_code":"9971331","prefecture":"山形県","prefecture_kana":"ヤマガタケン","city":"東田川郡三川町","city_kana":"ヒガシタガワグンミカワマチ","town":"助川","town_kana":"スケガワ","prefecture_code":6},"1312":{"zip_code":"9971312","prefecture":"山形県","prefecture_kana":"ヤマガタケン","city":"東田川郡三川町","city_kana":"ヒガシタガワグンミカワマチ","town":"善阿弥","town_kana":"ゼンナミ","prefecture_code":6},"1334":{"zip_code":"9971334","prefecture":"山形県","prefecture_kana":"ヤマガタケン","city":"東田川郡三川町","city_kana":"ヒガシタガワグンミカワマチ","town":"竹原田","town_kana":"タケハラダ","prefecture_code":6},"1332":{"zip_code":"9971332","prefecture":"山形県","prefecture_kana":"ヤマガタケン","city":"東田川郡三川町","city_kana":"ヒガシタガワグンミカワマチ","town":"堤野","town_kana":"ツツミノ","prefecture_code":6},"1322":{"zip_code":"9971322","prefecture":"山形県","prefecture_kana":"ヤマガタケン","city":"東田川郡三川町","city_kana":"ヒガシタガワグンミカワマチ","town":"土口","town_kana":"ドグチ","prefecture_code":6},"1317":{"zip_code":"9971317","prefecture":"山形県","prefecture_kana":"ヤマガタケン","city":"東田川郡三川町","city_kana":"ヒガシタガワグンミカワマチ","town":"成田新田","town_kana":"ナリタシンデン","prefecture_code":6},"1314":{"zip_code":"9971314","prefecture":"山形県","prefecture_kana":"ヤマガタケン","city":"東田川郡三川町","city_kana":"ヒガシタガワグンミカワマチ","town":"東沼","town_kana":"ヒガシヌマ","prefecture_code":6},"1335":{"zip_code":"9971335","prefecture":"山形県","prefecture_kana":"ヤマガタケン","city":"東田川郡三川町","city_kana":"ヒガシタガワグンミカワマチ","town":"菱沼","town_kana":"ヒシヌマ","prefecture_code":6},"1333":{"zip_code":"9971333","prefecture":"山形県","prefecture_kana":"ヤマガタケン","city":"東田川郡三川町","city_kana":"ヒガシタガワグンミカワマチ","town":"横内","town_kana":"ヨコウチ","prefecture_code":6},"1338":{"zip_code":"9971338","prefecture":"山形県","prefecture_kana":"ヤマガタケン","city":"東田川郡三川町","city_kana":"ヒガシタガワグンミカワマチ","town":"横川","town_kana":"ヨコカワ","prefecture_code":6},"1339":{"zip_code":"9971339","prefecture":"山形県","prefecture_kana":"ヤマガタケン","city":"東田川郡三川町","city_kana":"ヒガシタガワグンミカワマチ","town":"横川新田","town_kana":"ヨコカワシンデン","prefecture_code":6},"1301":{"zip_code":"9971301","prefecture":"山形県","prefecture_kana":"ヤマガタケン","city":"東田川郡三川町","city_kana":"ヒガシタガワグンミカワマチ","town":"横山","town_kana":"ヨコヤマ","prefecture_code":6}}