{"3301":{"zip_code":"9993301","prefecture":"山形県","prefecture_kana":"ヤマガタケン","city":"山形市","city_kana":"ヤマガタシ","town":"山寺","town_kana":"ヤマデラ","prefecture_code":6},"7205":{"zip_code":"9997205","prefecture":"山形県","prefecture_kana":"ヤマガタケン","city":"鶴岡市","city_kana":"ツルオカシ","town":"温海","town_kana":"アツミ","prefecture_code":6},"7312":{"zip_code":"9997312","prefecture":"山形県","prefecture_kana":"ヤマガタケン","city":"鶴岡市","city_kana":"ツルオカシ","town":"温海川","town_kana":"アツミガワ","prefecture_code":6},"7673":{"zip_code":"9997673","prefecture":"山形県","prefecture_kana":"ヤマガタケン","city":"鶴岡市","city_kana":"ツルオカシ","town":"荒俣","town_kana":"アラマタ","prefecture_code":6},"7682":{"zip_code":"9997682","prefecture":"山形県","prefecture_kana":"ヤマガタケン","city":"鶴岡市","city_kana":"ツルオカシ","town":"新屋敷","town_kana":"アラヤシキ","prefecture_code":6},"7207":{"zip_code":"9997207","prefecture":"山形県","prefecture_kana":"ヤマガタケン","city":"鶴岡市","city_kana":"ツルオカシ","town":"五十川","town_kana":"イラガワ","prefecture_code":6},"7635":{"zip_code":"9997635","prefecture":"山形県","prefecture_kana":"ヤマガタケン","city":"鶴岡市","city_kana":"ツルオカシ","town":"越後京田","town_kana":"エチゴキョウデン","prefecture_code":6},"7547":{"zip_code":"9997547","prefecture":"山形県","prefecture_kana":"ヤマガタケン","city":"鶴岡市","city_kana":"ツルオカシ","town":"大荒","town_kana":"オオアラ","prefecture_code":6},"7123":{"zip_code":"9997123","prefecture":"山形県","prefecture_kana":"ヤマガタケン","city":"鶴岡市","city_kana":"ツルオカシ","town":"大岩川","town_kana":"オオイワガワ","prefecture_code":6},"7661":{"zip_code":"9997661","prefecture":"山形県","prefecture_kana":"ヤマガタケン","city":"鶴岡市","city_kana":"ツルオカシ","town":"大川渡","town_kana":"オオカワド","prefecture_code":6},"7543":{"zip_code":"9997543","prefecture":"山形県","prefecture_kana":"ヤマガタケン","city":"鶴岡市","city_kana":"ツルオカシ","town":"大広","town_kana":"オオヒロ","prefecture_code":6},"7316":{"zip_code":"9997316","prefecture":"山形県","prefecture_kana":"ヤマガタケン","city":"鶴岡市","city_kana":"ツルオカシ","town":"小国","town_kana":"オグニ","prefecture_code":6},"7125":{"zip_code":"9997125","prefecture":"山形県","prefecture_kana":"ヤマガタケン","city":"鶴岡市","city_kana":"ツルオカシ","town":"小名部","town_kana":"オナベ","prefecture_code":6},"7461":{"zip_code":"9997461","prefecture":"山形県","prefecture_kana":"ヤマガタケン","city":"鶴岡市","city_kana":"ツルオカシ","town":"堅苔沢","town_kana":"カタノリザワ","prefecture_code":6},"7664":{"zip_code":"9997664","prefecture":"山形県","prefecture_kana":"ヤマガタケン","city":"鶴岡市","city_kana":"ツルオカシ","town":"上中野目","town_kana":"カミナカノメ","prefecture_code":6},"7611":{"zip_code":"9997611","prefecture":"山形県","prefecture_kana":"ヤマガタケン","city":"鶴岡市","city_kana":"ツルオカシ","town":"上藤島","town_kana":"カミフジシマ","prefecture_code":6},"7644":{"zip_code":"9997644","prefecture":"山形県","prefecture_kana":"ヤマガタケン","city":"鶴岡市","city_kana":"ツルオカシ","town":"川尻","town_kana":"カワシリ","prefecture_code":6},"7313":{"zip_code":"9997313","prefecture":"山形県","prefecture_kana":"ヤマガタケン","city":"鶴岡市","city_kana":"ツルオカシ","town":"木野俣","town_kana":"キノマタ","prefecture_code":6},"7646":{"zip_code":"9997646","prefecture":"山形県","prefecture_kana":"ヤマガタケン","city":"鶴岡市","city_kana":"ツルオカシ","town":"工藤","town_kana":"クドウ","prefecture_code":6},"7122":{"zip_code":"9997122","prefecture":"山形県","prefecture_kana":"ヤマガタケン","city":"鶴岡市","city_kana":"ツルオカシ","town":"小岩川","town_kana":"コイワガワ","prefecture_code":6},"7314":{"zip_code":"9997314","prefecture":"山形県","prefecture_kana":"ヤマガタケン","city":"鶴岡市","city_kana":"ツルオカシ","town":"越沢","town_kana":"コエサワ","prefecture_code":6},"7206":{"zip_code":"9997206","prefecture":"山形県","prefecture_kana":"ヤマガタケン","city":"鶴岡市","city_kana":"ツルオカシ","town":"小菅野代","town_kana":"コスガノダイ","prefecture_code":6},"7632":{"zip_code":"9997632","prefecture":"山形県","prefecture_kana":"ヤマガタケン","city":"鶴岡市","city_kana":"ツルオカシ","town":"小中島","town_kana":"コナカジマ","prefecture_code":6},"7462":{"zip_code":"9997462","prefecture":"山形県","prefecture_kana":"ヤマガタケン","city":"鶴岡市","city_kana":"ツルオカシ","town":"小波渡","town_kana":"コバト","prefecture_code":6},"7651":{"zip_code":"9997651","prefecture":"山形県","prefecture_kana":"ヤマガタケン","city":"鶴岡市","city_kana":"ツルオカシ","town":"鷺畑","town_kana":"サギハタ","prefecture_code":6},"7463":{"zip_code":"9997463","prefecture":"山形県","prefecture_kana":"ヤマガタケン","city":"鶴岡市","city_kana":"ツルオカシ","town":"三瀬","town_kana":"サンゼ","prefecture_code":6},"7637":{"zip_code":"9997637","prefecture":"山形県","prefecture_kana":"ヤマガタケン","city":"鶴岡市","city_kana":"ツルオカシ","town":"下中野目","town_kana":"シモナカノメ","prefecture_code":6},"7311":{"zip_code":"9997311","prefecture":"山形県","prefecture_kana":"ヤマガタケン","city":"鶴岡市","city_kana":"ツルオカシ","town":"菅野代","town_kana":"スガノダイ","prefecture_code":6},"7685":{"zip_code":"9997685","prefecture":"山形県","prefecture_kana":"ヤマガタケン","city":"鶴岡市","city_kana":"ツルオカシ","town":"砂塚","town_kana":"スナヅカ","prefecture_code":6},"7633":{"zip_code":"9997633","prefecture":"山形県","prefecture_kana":"ヤマガタケン","city":"鶴岡市","city_kana":"ツルオカシ","town":"須走","town_kana":"スバシリ","prefecture_code":6},"7315":{"zip_code":"9997315","prefecture":"山形県","prefecture_kana":"ヤマガタケン","city":"鶴岡市","city_kana":"ツルオカシ","town":"関川","town_kana":"セキガワ","prefecture_code":6},"6652":{"zip_code":"9996652","prefecture":"山形県","prefecture_kana":"ヤマガタケン","city":"鶴岡市","city_kana":"ツルオカシ","town":"添川渡戸沢「筍沢温泉」","town_kana":"ソエガワワタトザワ<タケノコザワオンセン>","prefecture_code":6},"7652":{"zip_code":"9997652","prefecture":"山形県","prefecture_kana":"ヤマガタケン","city":"鶴岡市","city_kana":"ツルオカシ","town":"添川","town_kana":"ソエガワ","prefecture_code":6},"7677":{"zip_code":"9997677","prefecture":"山形県","prefecture_kana":"ヤマガタケン","city":"鶴岡市","city_kana":"ツルオカシ","town":"大半田","town_kana":"ダイハンダ","prefecture_code":6},"7663":{"zip_code":"9997663","prefecture":"山形県","prefecture_kana":"ヤマガタケン","city":"鶴岡市","city_kana":"ツルオカシ","town":"蛸井興屋","town_kana":"タコイコウヤ","prefecture_code":6},"7202":{"zip_code":"9997202","prefecture":"山形県","prefecture_kana":"ヤマガタケン","city":"鶴岡市","city_kana":"ツルオカシ","town":"戸沢","town_kana":"トザワ","prefecture_code":6},"7546":{"zip_code":"9997546","prefecture":"山形県","prefecture_kana":"ヤマガタケン","city":"鶴岡市","city_kana":"ツルオカシ","town":"中沢","town_kana":"ナカザワ","prefecture_code":6},"7621":{"zip_code":"9997621","prefecture":"山形県","prefecture_kana":"ヤマガタケン","city":"鶴岡市","city_kana":"ツルオカシ","town":"長沼","town_kana":"ナガヌマ","prefecture_code":6},"7544":{"zip_code":"9997544","prefecture":"山形県","prefecture_kana":"ヤマガタケン","city":"鶴岡市","city_kana":"ツルオカシ","town":"中山","town_kana":"ナカヤマ","prefecture_code":6},"7541":{"zip_code":"9997541","prefecture":"山形県","prefecture_kana":"ヤマガタケン","city":"鶴岡市","city_kana":"ツルオカシ","town":"西目","town_kana":"ニシメ","prefecture_code":6},"7126":{"zip_code":"9997126","prefecture":"山形県","prefecture_kana":"ヤマガタケン","city":"鶴岡市","city_kana":"ツルオカシ","town":"鼠ケ関","town_kana":"ネズガセキ","prefecture_code":6},"7636":{"zip_code":"9997636","prefecture":"山形県","prefecture_kana":"ヤマガタケン","city":"鶴岡市","city_kana":"ツルオカシ","town":"野田目","town_kana":"ノダノメ","prefecture_code":6},"7653":{"zip_code":"9997653","prefecture":"山形県","prefecture_kana":"ヤマガタケン","city":"鶴岡市","city_kana":"ツルオカシ","town":"東堀越","town_kana":"ヒガシホリコシ","prefecture_code":6},"7203":{"zip_code":"9997203","prefecture":"山形県","prefecture_kana":"ヤマガタケン","city":"鶴岡市","city_kana":"ツルオカシ","town":"一霞","town_kana":"ヒトカスミ","prefecture_code":6},"7681":{"zip_code":"9997681","prefecture":"山形県","prefecture_kana":"ヤマガタケン","city":"鶴岡市","city_kana":"ツルオカシ","town":"平形","town_kana":"ヒラカタ","prefecture_code":6},"7638":{"zip_code":"9997638","prefecture":"山形県","prefecture_kana":"ヤマガタケン","city":"鶴岡市","city_kana":"ツルオカシ","town":"藤岡","town_kana":"フジオカ","prefecture_code":6},"7601":{"zip_code":"9997601","prefecture":"山形県","prefecture_kana":"ヤマガタケン","city":"鶴岡市","city_kana":"ツルオカシ","town":"藤島","town_kana":"フジシマ","prefecture_code":6},"7642":{"zip_code":"9997642","prefecture":"山形県","prefecture_kana":"ヤマガタケン","city":"鶴岡市","city_kana":"ツルオカシ","town":"藤島関根","town_kana":"フジシマセキネ","prefecture_code":6},"7604":{"zip_code":"9997604","prefecture":"山形県","prefecture_kana":"ヤマガタケン","city":"鶴岡市","city_kana":"ツルオカシ","town":"藤浪","town_kana":"フジナミ","prefecture_code":6},"7602":{"zip_code":"9997602","prefecture":"山形県","prefecture_kana":"ヤマガタケン","city":"鶴岡市","city_kana":"ツルオカシ","town":"藤の花","town_kana":"フジノハナ","prefecture_code":6},"7671":{"zip_code":"9997671","prefecture":"山形県","prefecture_kana":"ヤマガタケン","city":"鶴岡市","city_kana":"ツルオカシ","town":"古郡","town_kana":"フルコオリ","prefecture_code":6},"7645":{"zip_code":"9997645","prefecture":"山形県","prefecture_kana":"ヤマガタケン","city":"鶴岡市","city_kana":"ツルオカシ","town":"平足","town_kana":"ヘイソク","prefecture_code":6},"7622":{"zip_code":"9997622","prefecture":"山形県","prefecture_kana":"ヤマガタケン","city":"鶴岡市","city_kana":"ツルオカシ","town":"豊栄","town_kana":"ホウエイ","prefecture_code":6},"7675":{"zip_code":"9997675","prefecture":"山形県","prefecture_kana":"ヤマガタケン","city":"鶴岡市","city_kana":"ツルオカシ","town":"宝徳","town_kana":"ホウトク","prefecture_code":6},"7124":{"zip_code":"9997124","prefecture":"山形県","prefecture_kana":"ヤマガタケン","city":"鶴岡市","city_kana":"ツルオカシ","town":"槇代","town_kana":"マキダイ","prefecture_code":6},"7676":{"zip_code":"9997676","prefecture":"山形県","prefecture_kana":"ヤマガタケン","city":"鶴岡市","city_kana":"ツルオカシ","town":"幕野内","town_kana":"マクノウチ","prefecture_code":6},"7542":{"zip_code":"9997542","prefecture":"山形県","prefecture_kana":"ヤマガタケン","city":"鶴岡市","city_kana":"ツルオカシ","town":"水沢","town_kana":"ミズサワ","prefecture_code":6},"7548":{"zip_code":"9997548","prefecture":"山形県","prefecture_kana":"ヤマガタケン","city":"鶴岡市","city_kana":"ツルオカシ","town":"みずほ","town_kana":"ミズホ","prefecture_code":6},"7674":{"zip_code":"9997674","prefecture":"山形県","prefecture_kana":"ヤマガタケン","city":"鶴岡市","city_kana":"ツルオカシ","town":"箕升新田","town_kana":"ミマスシンデン","prefecture_code":6},"7634":{"zip_code":"9997634","prefecture":"山形県","prefecture_kana":"ヤマガタケン","city":"鶴岡市","city_kana":"ツルオカシ","town":"三和","town_kana":"ミワ","prefecture_code":6},"7631":{"zip_code":"9997631","prefecture":"山形県","prefecture_kana":"ヤマガタケン","city":"鶴岡市","city_kana":"ツルオカシ","town":"八色木","town_kana":"ヤイロギ","prefecture_code":6},"7662":{"zip_code":"9997662","prefecture":"山形県","prefecture_kana":"ヤマガタケン","city":"鶴岡市","city_kana":"ツルオカシ","town":"谷地興屋","town_kana":"ヤチコウヤ","prefecture_code":6},"7672":{"zip_code":"9997672","prefecture":"山形県","prefecture_kana":"ヤマガタケン","city":"鶴岡市","city_kana":"ツルオカシ","town":"柳久瀬","town_kana":"ヤナクセ","prefecture_code":6},"7545":{"zip_code":"9997545","prefecture":"山形県","prefecture_kana":"ヤマガタケン","city":"鶴岡市","city_kana":"ツルオカシ","town":"矢引","town_kana":"ヤビキ","prefecture_code":6},"7201":{"zip_code":"9997201","prefecture":"山形県","prefecture_kana":"ヤマガタケン","city":"鶴岡市","city_kana":"ツルオカシ","town":"山五十川","town_kana":"ヤマイラガワ","prefecture_code":6},"7204":{"zip_code":"9997204","prefecture":"山形県","prefecture_kana":"ヤマガタケン","city":"鶴岡市","city_kana":"ツルオカシ","town":"湯温海","town_kana":"ユアツミ","prefecture_code":6},"7641":{"zip_code":"9997641","prefecture":"山形県","prefecture_kana":"ヤマガタケン","city":"鶴岡市","city_kana":"ツルオカシ","town":"楪","town_kana":"ユズリハ","prefecture_code":6},"7464":{"zip_code":"9997464","prefecture":"山形県","prefecture_kana":"ヤマガタケン","city":"鶴岡市","city_kana":"ツルオカシ","town":"由良","town_kana":"ユラ","prefecture_code":6},"7643":{"zip_code":"9997643","prefecture":"山形県","prefecture_kana":"ヤマガタケン","city":"鶴岡市","city_kana":"ツルオカシ","town":"無音","town_kana":"ヨバラズ","prefecture_code":6},"7121":{"zip_code":"9997121","prefecture":"山形県","prefecture_kana":"ヤマガタケン","city":"鶴岡市","city_kana":"ツルオカシ","town":"早田","town_kana":"ワサダ","prefecture_code":6},"7683":{"zip_code":"9997683","prefecture":"山形県","prefecture_kana":"ヤマガタケン","city":"鶴岡市","city_kana":"ツルオカシ","town":"渡前","town_kana":"ワタマエ","prefecture_code":6},"7684":{"zip_code":"9997684","prefecture":"山形県","prefecture_kana":"ヤマガタケン","city":"鶴岡市","city_kana":"ツルオカシ","town":"和名川","town_kana":"ワナガワ","prefecture_code":6},"6852":{"zip_code":"9996852","prefecture":"山形県","prefecture_kana":"ヤマガタケン","city":"酒田市","city_kana":"サカタシ","town":"相沢","town_kana":"アイサワ","prefecture_code":6},"8203":{"zip_code":"9998203","prefecture":"山形県","prefecture_kana":"ヤマガタケン","city":"酒田市","city_kana":"サカタシ","town":"赤剥","town_kana":"アカハゲ","prefecture_code":6},"6711":{"zip_code":"9996711","prefecture":"山形県","prefecture_kana":"ヤマガタケン","city":"酒田市","city_kana":"サカタシ","town":"飛鳥","town_kana":"アスカ","prefecture_code":6},"6834":{"zip_code":"9996834","prefecture":"山形県","prefecture_kana":"ヤマガタケン","city":"酒田市","city_kana":"サカタシ","town":"荒町","town_kana":"アラマチ","prefecture_code":6},"6853":{"zip_code":"9996853","prefecture":"山形県","prefecture_kana":"ヤマガタケン","city":"酒田市","city_kana":"サカタシ","town":"石名坂","town_kana":"イシナザカ","prefecture_code":6},"6704":{"zip_code":"9996704","prefecture":"山形県","prefecture_kana":"ヤマガタケン","city":"酒田市","city_kana":"サカタシ","town":"石橋","town_kana":"イシバシ","prefecture_code":6},"6708":{"zip_code":"9996708","prefecture":"山形県","prefecture_kana":"ヤマガタケン","city":"酒田市","city_kana":"サカタシ","town":"泉興野","town_kana":"イズミコウヤ","prefecture_code":6},"7774":{"zip_code":"9997774","prefecture":"山形県","prefecture_kana":"ヤマガタケン","city":"酒田市","city_kana":"サカタシ","town":"板戸","town_kana":"イタド","prefecture_code":6},"8232":{"zip_code":"9998232","prefecture":"山形県","prefecture_kana":"ヤマガタケン","city":"酒田市","city_kana":"サカタシ","town":"市条","town_kana":"イチジョウ","prefecture_code":6},"6826":{"zip_code":"9996826","prefecture":"山形県","prefecture_kana":"ヤマガタケン","city":"酒田市","city_kana":"サカタシ","town":"稲荷沢","town_kana":"イナリザワ","prefecture_code":6},"6815":{"zip_code":"9996815","prefecture":"山形県","prefecture_kana":"ヤマガタケン","city":"酒田市","city_kana":"サカタシ","town":"臼ケ沢","town_kana":"ウスガサワ","prefecture_code":6},"6831":[{"zip_code":"9996831","prefecture":"山形県","prefecture_kana":"ヤマガタケン","city":"酒田市","city_kana":"サカタシ","town":"内町","town_kana":"ウチマチ","prefecture_code":6},{"zip_code":"9996831","prefecture":"山形県","prefecture_kana":"ヤマガタケン","city":"酒田市","city_kana":"サカタシ","town":"総光寺沢","town_kana":"ソウコウジサワ","prefecture_code":6}],"8164":{"zip_code":"9998164","prefecture":"山形県","prefecture_kana":"ヤマガタケン","city":"酒田市","city_kana":"サカタシ","town":"漆曽根","town_kana":"ウルシゾネ","prefecture_code":6},"8153":{"zip_code":"9998153","prefecture":"山形県","prefecture_kana":"ヤマガタケン","city":"酒田市","city_kana":"サカタシ","town":"円能寺","town_kana":"エンノウジ","prefecture_code":6},"6813":{"zip_code":"9996813","prefecture":"山形県","prefecture_kana":"ヤマガタケン","city":"酒田市","city_kana":"サカタシ","town":"大川渡","town_kana":"オオカワド","prefecture_code":6},"8244":{"zip_code":"9998244","prefecture":"山形県","prefecture_kana":"ヤマガタケン","city":"酒田市","city_kana":"サカタシ","town":"大久保","town_kana":"オオクボ","prefecture_code":6},"8225":{"zip_code":"9998225","prefecture":"山形県","prefecture_kana":"ヤマガタケン","city":"酒田市","city_kana":"サカタシ","town":"大島田","town_kana":"オオシマダ","prefecture_code":6},"8133":{"zip_code":"9998133","prefecture":"山形県","prefecture_kana":"ヤマガタケン","city":"酒田市","city_kana":"サカタシ","town":"大豊田","town_kana":"オオトヨダ","prefecture_code":6},"6816":{"zip_code":"9996816","prefecture":"山形県","prefecture_kana":"ヤマガタケン","city":"酒田市","city_kana":"サカタシ","town":"大沼新田","town_kana":"オオヌマシンデン","prefecture_code":6},"8215":{"zip_code":"9998215","prefecture":"山形県","prefecture_kana":"ヤマガタケン","city":"酒田市","city_kana":"サカタシ","town":"大蕨","town_kana":"オオワラビ","prefecture_code":6},"8227":{"zip_code":"9998227","prefecture":"山形県","prefecture_kana":"ヤマガタケン","city":"酒田市","city_kana":"サカタシ","town":"岡島田","town_kana":"オカシマダ","prefecture_code":6},"7775":{"zip_code":"9997775","prefecture":"山形県","prefecture_kana":"ヤマガタケン","city":"酒田市","city_kana":"サカタシ","town":"落野目","town_kana":"オチノメ","prefecture_code":6},"6845":{"zip_code":"9996845","prefecture":"山形県","prefecture_kana":"ヤマガタケン","city":"酒田市","city_kana":"サカタシ","town":"小見","town_kana":"オミ","prefecture_code":6},"6811":{"zip_code":"9996811","prefecture":"山形県","prefecture_kana":"ヤマガタケン","city":"酒田市","city_kana":"サカタシ","town":"柏谷沢","town_kana":"カシヤザワ","prefecture_code":6},"6838":{"zip_code":"9996838","prefecture":"山形県","prefecture_kana":"ヤマガタケン","city":"酒田市","city_kana":"サカタシ","town":"片町","town_kana":"カタマチ","prefecture_code":6},"7772":{"zip_code":"9997772","prefecture":"山形県","prefecture_kana":"ヤマガタケン","city":"酒田市","city_kana":"サカタシ","town":"門田","town_kana":"カドタ","prefecture_code":6},"6837":[{"zip_code":"9996837","prefecture":"山形県","prefecture_kana":"ヤマガタケン","city":"酒田市","city_kana":"サカタシ","town":"金谷","town_kana":"カナヤ","prefecture_code":6},{"zip_code":"9996837","prefecture":"山形県","prefecture_kana":"ヤマガタケン","city":"酒田市","city_kana":"サカタシ","town":"新町","town_kana":"シンマチ","prefecture_code":6}],"8212":{"zip_code":"9998212","prefecture":"山形県","prefecture_kana":"ヤマガタケン","city":"酒田市","city_kana":"サカタシ","town":"上青沢","town_kana":"カミアオサワ","prefecture_code":6},"6843":{"zip_code":"9996843","prefecture":"山形県","prefecture_kana":"ヤマガタケン","city":"酒田市","city_kana":"サカタシ","town":"上北目","town_kana":"カミキタメ","prefecture_code":6},"8206":{"zip_code":"9998206","prefecture":"山形県","prefecture_kana":"ヤマガタケン","city":"酒田市","city_kana":"サカタシ","town":"上黒川","town_kana":"カミクロカワ","prefecture_code":6},"8163":{"zip_code":"9998163","prefecture":"山形県","prefecture_kana":"ヤマガタケン","city":"酒田市","city_kana":"サカタシ","town":"上興野","town_kana":"カミコウヤ","prefecture_code":6},"8162":{"zip_code":"9998162","prefecture":"山形県","prefecture_kana":"ヤマガタケン","city":"酒田市","city_kana":"サカタシ","town":"上野曽根","town_kana":"カミノソネ","prefecture_code":6},"6842":{"zip_code":"9996842","prefecture":"山形県","prefecture_kana":"ヤマガタケン","city":"酒田市","city_kana":"サカタシ","town":"上餅山","town_kana":"カミモチヤマ","prefecture_code":6},"8152":{"zip_code":"9998152","prefecture":"山形県","prefecture_kana":"ヤマガタケン","city":"酒田市","city_kana":"サカタシ","town":"上安田","town_kana":"カミヤスダ","prefecture_code":6},"8143":{"zip_code":"9998143","prefecture":"山形県","prefecture_kana":"ヤマガタケン","city":"酒田市","city_kana":"サカタシ","town":"刈穂","town_kana":"カリホ","prefecture_code":6},"8132":{"zip_code":"9998132","prefecture":"山形県","prefecture_kana":"ヤマガタケン","city":"酒田市","city_kana":"サカタシ","town":"刈屋","town_kana":"カリヤ","prefecture_code":6},"8235":{"zip_code":"9998235","prefecture":"山形県","prefecture_kana":"ヤマガタケン","city":"酒田市","city_kana":"サカタシ","town":"観音寺","town_kana":"カンノンジ","prefecture_code":6},"7773":{"zip_code":"9997773","prefecture":"山形県","prefecture_kana":"ヤマガタケン","city":"酒田市","city_kana":"サカタシ","town":"木川","town_kana":"キガワ","prefecture_code":6},"8211":{"zip_code":"9998211","prefecture":"山形県","prefecture_kana":"ヤマガタケン","city":"酒田市","city_kana":"サカタシ","town":"北青沢","town_kana":"キタアオサワ","prefecture_code":6},"8243":{"zip_code":"9998243","prefecture":"山形県","prefecture_kana":"ヤマガタケン","city":"酒田市","city_kana":"サカタシ","town":"北仁田","town_kana":"キタジンデン","prefecture_code":6},"8222":{"zip_code":"9998222","prefecture":"山形県","prefecture_kana":"ヤマガタケン","city":"酒田市","city_kana":"サカタシ","town":"北平沢","town_kana":"キタヘイザワ","prefecture_code":6},"6741":{"zip_code":"9996741","prefecture":"山形県","prefecture_kana":"ヤマガタケン","city":"酒田市","city_kana":"サカタシ","town":"北俣","town_kana":"キタマタ","prefecture_code":6},"6833":{"zip_code":"9996833","prefecture":"山形県","prefecture_kana":"ヤマガタケン","city":"酒田市","city_kana":"サカタシ","town":"北町","town_kana":"キタマチ","prefecture_code":6},"8142":{"zip_code":"9998142","prefecture":"山形県","prefecture_kana":"ヤマガタケン","city":"酒田市","city_kana":"サカタシ","town":"城輪","town_kana":"キノワ","prefecture_code":6},"8207":{"zip_code":"9998207","prefecture":"山形県","prefecture_kana":"ヤマガタケン","city":"酒田市","city_kana":"サカタシ","town":"草津","town_kana":"クサツ","prefecture_code":6},"8156":{"zip_code":"9998156","prefecture":"山形県","prefecture_kana":"ヤマガタケン","city":"酒田市","city_kana":"サカタシ","town":"久保田","town_kana":"クボタ","prefecture_code":6},"6835":[{"zip_code":"9996835","prefecture":"山形県","prefecture_kana":"ヤマガタケン","city":"酒田市","city_kana":"サカタシ","town":"蔵小路","town_kana":"クラコウジ","prefecture_code":6},{"zip_code":"9996835","prefecture":"山形県","prefecture_kana":"ヤマガタケン","city":"酒田市","city_kana":"サカタシ","town":"本町","town_kana":"ホンマチ","prefecture_code":6}],"8234":{"zip_code":"9998234","prefecture":"山形県","prefecture_kana":"ヤマガタケン","city":"酒田市","city_kana":"サカタシ","town":"小泉","town_kana":"コイズミ","prefecture_code":6},"6707":{"zip_code":"9996707","prefecture":"山形県","prefecture_kana":"ヤマガタケン","city":"酒田市","city_kana":"サカタシ","town":"郡山","town_kana":"コオリヤマ","prefecture_code":6},"6735":{"zip_code":"9996735","prefecture":"山形県","prefecture_kana":"ヤマガタケン","city":"酒田市","city_kana":"サカタシ","town":"小林","town_kana":"コバヤシ","prefecture_code":6},"6836":{"zip_code":"9996836","prefecture":"山形県","prefecture_kana":"ヤマガタケン","city":"酒田市","city_kana":"サカタシ","town":"肴町","town_kana":"サカナマチ","prefecture_code":6},"6705":{"zip_code":"9996705","prefecture":"山形県","prefecture_kana":"ヤマガタケン","city":"酒田市","city_kana":"サカタシ","town":"桜林","town_kana":"サクラバヤシ","prefecture_code":6},"6706":{"zip_code":"9996706","prefecture":"山形県","prefecture_kana":"ヤマガタケン","city":"酒田市","city_kana":"サカタシ","town":"桜林興野","town_kana":"サクラバヤシコウヤ","prefecture_code":6},"6701":{"zip_code":"9996701","prefecture":"山形県","prefecture_kana":"ヤマガタケン","city":"酒田市","city_kana":"サカタシ","town":"砂越","town_kana":"サゴシ","prefecture_code":6},"6702":{"zip_code":"9996702","prefecture":"山形県","prefecture_kana":"ヤマガタケン","city":"酒田市","city_kana":"サカタシ","town":"砂越緑町","town_kana":"サゴシミドリチョウ","prefecture_code":6},"6723":{"zip_code":"9996723","prefecture":"山形県","prefecture_kana":"ヤマガタケン","city":"酒田市","city_kana":"サカタシ","town":"三之宮","town_kana":"サンノミヤ","prefecture_code":6},"6814":{"zip_code":"9996814","prefecture":"山形県","prefecture_kana":"ヤマガタケン","city":"酒田市","city_kana":"サカタシ","town":"地見興屋","town_kana":"ジミコウヤ","prefecture_code":6},"8213":{"zip_code":"9998213","prefecture":"山形県","prefecture_kana":"ヤマガタケン","city":"酒田市","city_kana":"サカタシ","town":"下青沢","town_kana":"シモアオサワ","prefecture_code":6},"8205":{"zip_code":"9998205","prefecture":"山形県","prefecture_kana":"ヤマガタケン","city":"酒田市","city_kana":"サカタシ","town":"下黒川","town_kana":"シモクロカワ","prefecture_code":6},"6846":{"zip_code":"9996846","prefecture":"山形県","prefecture_kana":"ヤマガタケン","city":"酒田市","city_kana":"サカタシ","town":"下餅山","town_kana":"シモモチヤマ","prefecture_code":6},"8214":{"zip_code":"9998214","prefecture":"山形県","prefecture_kana":"ヤマガタケン","city":"酒田市","city_kana":"サカタシ","town":"常禅寺","town_kana":"ジョウゼンジ","prefecture_code":6},"6823":{"zip_code":"9996823","prefecture":"山形県","prefecture_kana":"ヤマガタケン","city":"酒田市","city_kana":"サカタシ","town":"真学寺沢","town_kana":"シンガクジサワ","prefecture_code":6},"8204":{"zip_code":"9998204","prefecture":"山形県","prefecture_kana":"ヤマガタケン","city":"酒田市","city_kana":"サカタシ","town":"新出","town_kana":"シンデ","prefecture_code":6},"6832":{"zip_code":"9996832","prefecture":"山形県","prefecture_kana":"ヤマガタケン","city":"酒田市","city_kana":"サカタシ","town":"新屋敷","town_kana":"シンヤシキ","prefecture_code":6},"8246":{"zip_code":"9998246","prefecture":"山形県","prefecture_kana":"ヤマガタケン","city":"酒田市","city_kana":"サカタシ","town":"芹田","town_kana":"セツダ","prefecture_code":6},"8155":{"zip_code":"9998155","prefecture":"山形県","prefecture_kana":"ヤマガタケン","city":"酒田市","city_kana":"サカタシ","town":"曽根田","town_kana":"ソネダ","prefecture_code":6},"6848":{"zip_code":"9996848","prefecture":"山形県","prefecture_kana":"ヤマガタケン","city":"酒田市","city_kana":"サカタシ","town":"竹田","town_kana":"タケダ","prefecture_code":6},"6731":{"zip_code":"9996731","prefecture":"山形県","prefecture_kana":"ヤマガタケン","city":"酒田市","city_kana":"サカタシ","town":"田沢","town_kana":"タザワ","prefecture_code":6},"6732":{"zip_code":"9996732","prefecture":"山形県","prefecture_kana":"ヤマガタケン","city":"酒田市","city_kana":"サカタシ","town":"楯山","town_kana":"タテヤマ","prefecture_code":6},"8422":{"zip_code":"9998422","prefecture":"山形県","prefecture_kana":"ヤマガタケン","city":"酒田市","city_kana":"サカタシ","town":"千代田","town_kana":"チヨダ","prefecture_code":6},"8245":{"zip_code":"9998245","prefecture":"山形県","prefecture_kana":"ヤマガタケン","city":"酒田市","city_kana":"サカタシ","town":"塚淵","town_kana":"ツカブチ","prefecture_code":6},"6839":{"zip_code":"9996839","prefecture":"山形県","prefecture_kana":"ヤマガタケン","city":"酒田市","city_kana":"サカタシ","town":"土渕","town_kana":"ツチブチ","prefecture_code":6},"7771":{"zip_code":"9997771","prefecture":"山形県","prefecture_kana":"ヤマガタケン","city":"酒田市","city_kana":"サカタシ","town":"局","town_kana":"ツボネ","prefecture_code":6},"8168":{"zip_code":"9998168","prefecture":"山形県","prefecture_kana":"ヤマガタケン","city":"酒田市","city_kana":"サカタシ","town":"鶴田","town_kana":"ツルタ","prefecture_code":6},"8221":{"zip_code":"9998221","prefecture":"山形県","prefecture_kana":"ヤマガタケン","city":"酒田市","city_kana":"サカタシ","town":"寺田","town_kana":"テラダ","prefecture_code":6},"6703":{"zip_code":"9996703","prefecture":"山形県","prefecture_kana":"ヤマガタケン","city":"酒田市","city_kana":"サカタシ","town":"天神堂","town_kana":"テンジンドウ","prefecture_code":6},"8141":{"zip_code":"9998141","prefecture":"山形県","prefecture_kana":"ヤマガタケン","city":"酒田市","city_kana":"サカタシ","town":"豊原","town_kana":"トヨハラ","prefecture_code":6},"8202":{"zip_code":"9998202","prefecture":"山形県","prefecture_kana":"ヤマガタケン","city":"酒田市","city_kana":"サカタシ","town":"泥沢","town_kana":"ドロザワ","prefecture_code":6},"6844":{"zip_code":"9996844","prefecture":"山形県","prefecture_kana":"ヤマガタケン","city":"酒田市","city_kana":"サカタシ","town":"中北目","town_kana":"ナカキタメ","prefecture_code":6},"8165":{"zip_code":"9998165","prefecture":"山形県","prefecture_kana":"ヤマガタケン","city":"酒田市","city_kana":"サカタシ","town":"中野曽根","town_kana":"ナカノソネ","prefecture_code":6},"6727":{"zip_code":"9996727","prefecture":"山形県","prefecture_kana":"ヤマガタケン","city":"酒田市","city_kana":"サカタシ","town":"中野俣","town_kana":"ナカノマタ","prefecture_code":6},"6722":{"zip_code":"9996722","prefecture":"山形県","prefecture_kana":"ヤマガタケン","city":"酒田市","city_kana":"サカタシ","town":"中野目","town_kana":"ナカノメ","prefecture_code":6},"6851":{"zip_code":"9996851","prefecture":"山形県","prefecture_kana":"ヤマガタケン","city":"酒田市","city_kana":"サカタシ","town":"中牧田","town_kana":"ナカマキタ","prefecture_code":6},"6827":{"zip_code":"9996827","prefecture":"山形県","prefecture_kana":"ヤマガタケン","city":"酒田市","city_kana":"サカタシ","town":"仲町","town_kana":"ナカマチ","prefecture_code":6},"6712":{"zip_code":"9996712","prefecture":"山形県","prefecture_kana":"ヤマガタケン","city":"酒田市","city_kana":"サカタシ","town":"楢橋","town_kana":"ナラハシ","prefecture_code":6},"6812":{"zip_code":"9996812","prefecture":"山形県","prefecture_kana":"ヤマガタケン","city":"酒田市","city_kana":"サカタシ","town":"成興野","town_kana":"ナリコウヤ","prefecture_code":6},"8157":{"zip_code":"9998157","prefecture":"山形県","prefecture_kana":"ヤマガタケン","city":"酒田市","city_kana":"サカタシ","town":"新青渡","town_kana":"ニイアオド","prefecture_code":6},"7776":{"zip_code":"9997776","prefecture":"山形県","prefecture_kana":"ヤマガタケン","city":"酒田市","city_kana":"サカタシ","town":"新堀","town_kana":"ニイボリ","prefecture_code":6},"6733":{"zip_code":"9996733","prefecture":"山形県","prefecture_kana":"ヤマガタケン","city":"酒田市","city_kana":"サカタシ","town":"西坂本","town_kana":"ニシサカモト","prefecture_code":6},"6862":{"zip_code":"9996862","prefecture":"山形県","prefecture_kana":"ヤマガタケン","city":"酒田市","city_kana":"サカタシ","town":"西田","town_kana":"ニシダ","prefecture_code":6},"8144":{"zip_code":"9998144","prefecture":"山形県","prefecture_kana":"ヤマガタケン","city":"酒田市","city_kana":"サカタシ","town":"庭田","town_kana":"ニワタ","prefecture_code":6},"8158":{"zip_code":"9998158","prefecture":"山形県","prefecture_kana":"ヤマガタケン","city":"酒田市","city_kana":"サカタシ","town":"布目","town_kana":"ヌノメ","prefecture_code":6},"8242":{"zip_code":"9998242","prefecture":"山形県","prefecture_kana":"ヤマガタケン","city":"酒田市","city_kana":"サカタシ","town":"橋本","town_kana":"ハシモト","prefecture_code":6},"6847":{"zip_code":"9996847","prefecture":"山形県","prefecture_kana":"ヤマガタケン","city":"酒田市","city_kana":"サカタシ","town":"引地","town_kana":"ヒキジ","prefecture_code":6},"8241":{"zip_code":"9998241","prefecture":"山形県","prefecture_kana":"ヤマガタケン","city":"酒田市","city_kana":"サカタシ","town":"福山","town_kana":"フクヤマ","prefecture_code":6},"8231":{"zip_code":"9998231","prefecture":"山形県","prefecture_kana":"ヤマガタケン","city":"酒田市","city_kana":"サカタシ","town":"麓","town_kana":"フモト","prefecture_code":6},"8154":{"zip_code":"9998154","prefecture":"山形県","prefecture_kana":"ヤマガタケン","city":"酒田市","city_kana":"サカタシ","town":"古青渡","town_kana":"フルアオド","prefecture_code":6},"8233":{"zip_code":"9998233","prefecture":"山形県","prefecture_kana":"ヤマガタケン","city":"酒田市","city_kana":"サカタシ","town":"法連寺","town_kana":"ホウレンジ","prefecture_code":6},"8131":{"zip_code":"9998131","prefecture":"山形県","prefecture_kana":"ヤマガタケン","city":"酒田市","city_kana":"サカタシ","town":"穂積門田","town_kana":"ホヅミモンデン","prefecture_code":6},"6721":{"zip_code":"9996721","prefecture":"山形県","prefecture_kana":"ヤマガタケン","city":"酒田市","city_kana":"サカタシ","town":"堀野内","town_kana":"ホリノウチ","prefecture_code":6},"8224":{"zip_code":"9998224","prefecture":"山形県","prefecture_kana":"ヤマガタケン","city":"酒田市","city_kana":"サカタシ","town":"前川","town_kana":"マエカワ","prefecture_code":6},"8166":{"zip_code":"9998166","prefecture":"山形県","prefecture_kana":"ヤマガタケン","city":"酒田市","city_kana":"サカタシ","town":"牧曽根","town_kana":"マキソネ","prefecture_code":6},"8201":{"zip_code":"9998201","prefecture":"山形県","prefecture_kana":"ヤマガタケン","city":"酒田市","city_kana":"サカタシ","town":"升田","town_kana":"マスダ","prefecture_code":6},"7777":{"zip_code":"9997777","prefecture":"山形県","prefecture_kana":"ヤマガタケン","city":"酒田市","city_kana":"サカタシ","town":"丸沼","town_kana":"マルヌマ","prefecture_code":6},"8226":{"zip_code":"9998226","prefecture":"山形県","prefecture_kana":"ヤマガタケン","city":"酒田市","city_kana":"サカタシ","town":"政所","town_kana":"マンドコロ","prefecture_code":6},"6822":{"zip_code":"9996822","prefecture":"山形県","prefecture_kana":"ヤマガタケン","city":"酒田市","city_kana":"サカタシ","town":"南新屋敷","town_kana":"ミナミシンヤシキ","prefecture_code":6},"8223":{"zip_code":"9998223","prefecture":"山形県","prefecture_kana":"ヤマガタケン","city":"酒田市","city_kana":"サカタシ","town":"南平沢","town_kana":"ミナミヘイザワ","prefecture_code":6},"6825":{"zip_code":"9996825","prefecture":"山形県","prefecture_kana":"ヤマガタケン","city":"酒田市","city_kana":"サカタシ","town":"南町","town_kana":"ミナミマチ","prefecture_code":6},"8423":{"zip_code":"9998423","prefecture":"山形県","prefecture_kana":"ヤマガタケン","city":"酒田市","city_kana":"サカタシ","town":"宮内","town_kana":"ミヤウチ","prefecture_code":6},"6841":{"zip_code":"9996841","prefecture":"山形県","prefecture_kana":"ヤマガタケン","city":"酒田市","city_kana":"サカタシ","town":"茗ケ沢","town_kana":"ミョウガサワ","prefecture_code":6},"6824":{"zip_code":"9996824","prefecture":"山形県","prefecture_kana":"ヤマガタケン","city":"酒田市","city_kana":"サカタシ","town":"元新屋敷","town_kana":"モトシンヤシキ","prefecture_code":6},"8134":{"zip_code":"9998134","prefecture":"山形県","prefecture_kana":"ヤマガタケン","city":"酒田市","city_kana":"サカタシ","town":"本楯","town_kana":"モトタテ","prefecture_code":6},"8145":{"zip_code":"9998145","prefecture":"山形県","prefecture_kana":"ヤマガタケン","city":"酒田市","city_kana":"サカタシ","town":"保岡","town_kana":"ヤスオカ","prefecture_code":6},"8151":{"zip_code":"9998151","prefecture":"山形県","prefecture_kana":"ヤマガタケン","city":"酒田市","city_kana":"サカタシ","town":"安田","town_kana":"ヤスダ","prefecture_code":6},"6861":{"zip_code":"9996861","prefecture":"山形県","prefecture_kana":"ヤマガタケン","city":"酒田市","city_kana":"サカタシ","town":"山田","town_kana":"ヤマダ","prefecture_code":6},"6724":{"zip_code":"9996724","prefecture":"山形県","prefecture_kana":"ヤマガタケン","city":"酒田市","city_kana":"サカタシ","town":"山楯","town_kana":"ヤマダテ","prefecture_code":6},"6821":{"zip_code":"9996821","prefecture":"山形県","prefecture_kana":"ヤマガタケン","city":"酒田市","city_kana":"サカタシ","town":"山寺","town_kana":"ヤマデラ","prefecture_code":6},"6734":{"zip_code":"9996734","prefecture":"山形県","prefecture_kana":"ヤマガタケン","city":"酒田市","city_kana":"サカタシ","town":"山元","town_kana":"ヤマモト","prefecture_code":6},"6726":{"zip_code":"9996726","prefecture":"山形県","prefecture_kana":"ヤマガタケン","city":"酒田市","city_kana":"サカタシ","town":"山谷","town_kana":"ヤマヤ","prefecture_code":6},"6725":{"zip_code":"9996725","prefecture":"山形県","prefecture_kana":"ヤマガタケン","city":"酒田市","city_kana":"サカタシ","town":"山谷新田","town_kana":"ヤマヤシンデン","prefecture_code":6},"8161":{"zip_code":"9998161","prefecture":"山形県","prefecture_kana":"ヤマガタケン","city":"酒田市","city_kana":"サカタシ","town":"吉田","town_kana":"ヨシダ","prefecture_code":6},"8167":{"zip_code":"9998167","prefecture":"山形県","prefecture_kana":"ヤマガタケン","city":"酒田市","city_kana":"サカタシ","town":"吉田新田","town_kana":"ヨシダシンデン","prefecture_code":6},"8421":{"zip_code":"9998421","prefecture":"山形県","prefecture_kana":"ヤマガタケン","city":"酒田市","city_kana":"サカタシ","town":"米島","town_kana":"ヨネシマ","prefecture_code":6},"5103":{"zip_code":"9995103","prefecture":"山形県","prefecture_kana":"ヤマガタケン","city":"新庄市","city_kana":"シンジョウシ","town":"泉田","town_kana":"イズミタ","prefecture_code":6},"5101":{"zip_code":"9995101","prefecture":"山形県","prefecture_kana":"ヤマガタケン","city":"新庄市","city_kana":"シンジョウシ","town":"昭和","town_kana":"ショウワ","prefecture_code":6},"5191":{"zip_code":"9995191","prefecture":"山形県","prefecture_kana":"ヤマガタケン","city":"新庄市","city_kana":"シンジョウシ","town":"十日町","town_kana":"トオカマチ","prefecture_code":6},"5102":{"zip_code":"9995102","prefecture":"山形県","prefecture_kana":"ヤマガタケン","city":"新庄市","city_kana":"シンジョウシ","town":"萩野","town_kana":"ハギノ","prefecture_code":6},"3100":{"zip_code":"9993100","prefecture":"山形県","prefecture_kana":"ヤマガタケン","city":"上山市","city_kana":"カミノヤマシ","town":"","town_kana":"","prefecture_code":6},"3222":{"zip_code":"9993222","prefecture":"山形県","prefecture_kana":"ヤマガタケン","city":"上山市","city_kana":"カミノヤマシ","town":"相生","town_kana":"アイオイ","prefecture_code":6},"3164":{"zip_code":"9993164","prefecture":"山形県","prefecture_kana":"ヤマガタケン","city":"上山市","city_kana":"カミノヤマシ","town":"朝日台","town_kana":"アサヒダイ","prefecture_code":6},"3106":{"zip_code":"9993106","prefecture":"山形県","prefecture_kana":"ヤマガタケン","city":"上山市","city_kana":"カミノヤマシ","town":"旭町","town_kana":"アサヒマチ","prefecture_code":6},"3235":{"zip_code":"9993235","prefecture":"山形県","prefecture_kana":"ヤマガタケン","city":"上山市","city_kana":"カミノヤマシ","town":"阿弥陀地","town_kana":"アミダチ","prefecture_code":6},"3144":{"zip_code":"9993144","prefecture":"山形県","prefecture_kana":"ヤマガタケン","city":"上山市","city_kana":"カミノヤマシ","town":"石崎","town_kana":"イシザキ","prefecture_code":6},"3244":{"zip_code":"9993244","prefecture":"山形県","prefecture_kana":"ヤマガタケン","city":"上山市","city_kana":"カミノヤマシ","town":"石曽根","town_kana":"イシゾネ","prefecture_code":6},"3231":{"zip_code":"9993231","prefecture":"山形県","prefecture_kana":"ヤマガタケン","city":"上山市","city_kana":"カミノヤマシ","town":"石堂","town_kana":"イシドウ","prefecture_code":6},"3105":{"zip_code":"9993105","prefecture":"山形県","prefecture_kana":"ヤマガタケン","city":"上山市","city_kana":"カミノヤマシ","town":"泉川","town_kana":"イズミカワ","prefecture_code":6},"3165":{"zip_code":"9993165","prefecture":"山形県","prefecture_kana":"ヤマガタケン","city":"上山市","city_kana":"カミノヤマシ","town":"裏町","town_kana":"ウラマチ","prefecture_code":6},"3157":{"zip_code":"9993157","prefecture":"山形県","prefecture_kana":"ヤマガタケン","city":"上山市","city_kana":"カミノヤマシ","town":"御井戸丁","town_kana":"オイドチョウ","prefecture_code":6},"3167":{"zip_code":"9993167","prefecture":"山形県","prefecture_kana":"ヤマガタケン","city":"上山市","city_kana":"カミノヤマシ","town":"大石","town_kana":"オオイシ","prefecture_code":6},"3112":{"zip_code":"9993112","prefecture":"山形県","prefecture_kana":"ヤマガタケン","city":"上山市","city_kana":"カミノヤマシ","town":"小倉","town_kana":"オグラ","prefecture_code":6},"3214":{"zip_code":"9993214","prefecture":"山形県","prefecture_kana":"ヤマガタケン","city":"上山市","city_kana":"カミノヤマシ","town":"小笹","town_kana":"オザサ","prefecture_code":6},"3172":{"zip_code":"9993172","prefecture":"山形県","prefecture_kana":"ヤマガタケン","city":"上山市","city_kana":"カミノヤマシ","town":"小白府","town_kana":"オジラフ","prefecture_code":6},"3124":{"zip_code":"9993124","prefecture":"山形県","prefecture_kana":"ヤマガタケン","city":"上山市","city_kana":"カミノヤマシ","town":"金生","town_kana":"カナオイ","prefecture_code":6},"3126":{"zip_code":"9993126","prefecture":"山形県","prefecture_kana":"ヤマガタケン","city":"上山市","city_kana":"カミノヤマシ","town":"金生西","town_kana":"カナオイニシ","prefecture_code":6},"3125":{"zip_code":"9993125","prefecture":"山形県","prefecture_kana":"ヤマガタケン","city":"上山市","city_kana":"カミノヤマシ","town":"金生東","town_kana":"カナオイヒガシ","prefecture_code":6},"3101":{"zip_code":"9993101","prefecture":"山形県","prefecture_kana":"ヤマガタケン","city":"上山市","city_kana":"カミノヤマシ","town":"金瓶","town_kana":"カナカメ","prefecture_code":6},"3103":{"zip_code":"9993103","prefecture":"山形県","prefecture_kana":"ヤマガタケン","city":"上山市","city_kana":"カミノヤマシ","town":"金谷","town_kana":"カナヤ","prefecture_code":6},"3226":{"zip_code":"9993226","prefecture":"山形県","prefecture_kana":"ヤマガタケン","city":"上山市","city_kana":"カミノヤマシ","town":"金山","town_kana":"カネヤマ","prefecture_code":6},"3204":{"zip_code":"9993204","prefecture":"山形県","prefecture_kana":"ヤマガタケン","city":"上山市","city_kana":"カミノヤマシ","town":"上生居","town_kana":"カミナマイ","prefecture_code":6},"3163":{"zip_code":"9993163","prefecture":"山形県","prefecture_kana":"ヤマガタケン","city":"上山市","city_kana":"カミノヤマシ","town":"軽井沢","town_kana":"カルイザワ","prefecture_code":6},"3245":{"zip_code":"9993245","prefecture":"山形県","prefecture_kana":"ヤマガタケン","city":"上山市","city_kana":"カミノヤマシ","town":"川口","town_kana":"カワグチ","prefecture_code":6},"3145":{"zip_code":"9993145","prefecture":"山形県","prefecture_kana":"ヤマガタケン","city":"上山市","city_kana":"カミノヤマシ","town":"河崎","town_kana":"カワサキ","prefecture_code":6},"3131":{"zip_code":"9993131","prefecture":"山形県","prefecture_kana":"ヤマガタケン","city":"上山市","city_kana":"カミノヤマシ","town":"北町","town_kana":"キタマチ","prefecture_code":6},"3151":{"zip_code":"9993151","prefecture":"山形県","prefecture_kana":"ヤマガタケン","city":"上山市","city_kana":"カミノヤマシ","town":"北町本丁","town_kana":"キタマチホンチョウ","prefecture_code":6},"3215":{"zip_code":"9993215","prefecture":"山形県","prefecture_kana":"ヤマガタケン","city":"上山市","city_kana":"カミノヤマシ","town":"久保川","town_kana":"クボカワ","prefecture_code":6},"3166":{"zip_code":"9993166","prefecture":"山形県","prefecture_kana":"ヤマガタケン","city":"上山市","city_kana":"カミノヤマシ","town":"久保手","town_kana":"クボテ","prefecture_code":6},"3241":{"zip_code":"9993241","prefecture":"山形県","prefecture_kana":"ヤマガタケン","city":"上山市","city_kana":"カミノヤマシ","town":"けやきの森","town_kana":"ケヤキノモリ","prefecture_code":6},"3237":{"zip_code":"9993237","prefecture":"山形県","prefecture_kana":"ヤマガタケン","city":"上山市","city_kana":"カミノヤマシ","town":"小穴","town_kana":"コアナ","prefecture_code":6},"3115":{"zip_code":"9993115","prefecture":"山形県","prefecture_kana":"ヤマガタケン","city":"上山市","city_kana":"カミノヤマシ","town":"高野","town_kana":"コウヤ","prefecture_code":6},"3111":{"zip_code":"9993111","prefecture":"山形県","prefecture_kana":"ヤマガタケン","city":"上山市","city_kana":"カミノヤマシ","town":"権現堂","town_kana":"ゴンゲンドウ","prefecture_code":6},"3113":{"zip_code":"9993113","prefecture":"山形県","prefecture_kana":"ヤマガタケン","city":"上山市","city_kana":"カミノヤマシ","town":"蔵王","town_kana":"ザオウ","prefecture_code":6},"3104":{"zip_code":"9993104","prefecture":"山形県","prefecture_kana":"ヤマガタケン","city":"上山市","city_kana":"カミノヤマシ","town":"蔵王の森","town_kana":"ザオウノモリ","prefecture_code":6},"3132":{"zip_code":"9993132","prefecture":"山形県","prefecture_kana":"ヤマガタケン","city":"上山市","city_kana":"カミノヤマシ","town":"栄町","town_kana":"サカエマチ","prefecture_code":6},"3142":{"zip_code":"9993142","prefecture":"山形県","prefecture_kana":"ヤマガタケン","city":"上山市","city_kana":"カミノヤマシ","town":"沢丁","town_kana":"サワチョウ","prefecture_code":6},"3233":{"zip_code":"9993233","prefecture":"山形県","prefecture_kana":"ヤマガタケン","city":"上山市","city_kana":"カミノヤマシ","town":"三本松","town_kana":"サンボンマツ","prefecture_code":6},"3202":{"zip_code":"9993202","prefecture":"山形県","prefecture_kana":"ヤマガタケン","city":"上山市","city_kana":"カミノヤマシ","town":"下生居","town_kana":"シモナマイ","prefecture_code":6},"3217":{"zip_code":"9993217","prefecture":"山形県","prefecture_kana":"ヤマガタケン","city":"上山市","city_kana":"カミノヤマシ","town":"菖蒲","town_kana":"ショウブ","prefecture_code":6},"3102":{"zip_code":"9993102","prefecture":"山形県","prefecture_kana":"ヤマガタケン","city":"上山市","city_kana":"カミノヤマシ","town":"新金谷","town_kana":"シンカナヤ","prefecture_code":6},"3152":{"zip_code":"9993152","prefecture":"山形県","prefecture_kana":"ヤマガタケン","city":"上山市","city_kana":"カミノヤマシ","town":"新丁","town_kana":"シンチョウ","prefecture_code":6},"3158":{"zip_code":"9993158","prefecture":"山形県","prefecture_kana":"ヤマガタケン","city":"上山市","city_kana":"カミノヤマシ","town":"新町","town_kana":"シンマチ","prefecture_code":6},"3141":{"zip_code":"9993141","prefecture":"山形県","prefecture_kana":"ヤマガタケン","city":"上山市","city_kana":"カミノヤマシ","town":"新湯","town_kana":"シンユ","prefecture_code":6},"3213":{"zip_code":"9993213","prefecture":"山形県","prefecture_kana":"ヤマガタケン","city":"上山市","city_kana":"カミノヤマシ","town":"須田板","town_kana":"スダイタ","prefecture_code":6},"3221":{"zip_code":"9993221","prefecture":"山形県","prefecture_kana":"ヤマガタケン","city":"上山市","city_kana":"カミノヤマシ","town":"関根","town_kana":"セキネ","prefecture_code":6},"3122":{"zip_code":"9993122","prefecture":"山形県","prefecture_kana":"ヤマガタケン","city":"上山市","city_kana":"カミノヤマシ","town":"仙石","town_kana":"センゴク","prefecture_code":6},"3216":{"zip_code":"9993216","prefecture":"山形県","prefecture_kana":"ヤマガタケン","city":"上山市","city_kana":"カミノヤマシ","town":"大門","town_kana":"ダイモン","prefecture_code":6},"3243":{"zip_code":"9993243","prefecture":"山形県","prefecture_kana":"ヤマガタケン","city":"上山市","city_kana":"カミノヤマシ","town":"高松","town_kana":"タカマツ","prefecture_code":6},"3155":{"zip_code":"9993155","prefecture":"山形県","prefecture_kana":"ヤマガタケン","city":"上山市","city_kana":"カミノヤマシ","town":"鶴脛町","town_kana":"ツルハギチョウ","prefecture_code":6},"3234":{"zip_code":"9993234","prefecture":"山形県","prefecture_kana":"ヤマガタケン","city":"上山市","city_kana":"カミノヤマシ","town":"藤吾","town_kana":"トウゴ","prefecture_code":6},"3153":{"zip_code":"9993153","prefecture":"山形県","prefecture_kana":"ヤマガタケン","city":"上山市","city_kana":"カミノヤマシ","town":"十日町","town_kana":"トオカマチ","prefecture_code":6},"3203":{"zip_code":"9993203","prefecture":"山形県","prefecture_kana":"ヤマガタケン","city":"上山市","city_kana":"カミノヤマシ","town":"中生居","town_kana":"ナカナマイ","prefecture_code":6},"3246":{"zip_code":"9993246","prefecture":"山形県","prefecture_kana":"ヤマガタケン","city":"上山市","city_kana":"カミノヤマシ","town":"中山","town_kana":"ナカヤマ","prefecture_code":6},"3232":{"zip_code":"9993232","prefecture":"山形県","prefecture_kana":"ヤマガタケン","city":"上山市","city_kana":"カミノヤマシ","town":"長清水","town_kana":"ナガシミズ","prefecture_code":6},"3114":{"zip_code":"9993114","prefecture":"山形県","prefecture_kana":"ヤマガタケン","city":"上山市","city_kana":"カミノヤマシ","town":"永野","town_kana":"ナガノ","prefecture_code":6},"3225":{"zip_code":"9993225","prefecture":"山形県","prefecture_kana":"ヤマガタケン","city":"上山市","city_kana":"カミノヤマシ","town":"楢下","town_kana":"ナラゲ","prefecture_code":6},"3242":{"zip_code":"9993242","prefecture":"山形県","prefecture_kana":"ヤマガタケン","city":"上山市","city_kana":"カミノヤマシ","town":"葉山","town_kana":"ハヤマ","prefecture_code":6},"3212":{"zip_code":"9993212","prefecture":"山形県","prefecture_kana":"ヤマガタケン","city":"上山市","city_kana":"カミノヤマシ","town":"原口","town_kana":"ハラグチ","prefecture_code":6},"3121":{"zip_code":"9993121","prefecture":"山形県","prefecture_kana":"ヤマガタケン","city":"上山市","city_kana":"カミノヤマシ","town":"東町","town_kana":"ヒガシマチ","prefecture_code":6},"3143":{"zip_code":"9993143","prefecture":"山形県","prefecture_kana":"ヤマガタケン","city":"上山市","city_kana":"カミノヤマシ","town":"二日町","town_kana":"フツカマチ","prefecture_code":6},"3161":{"zip_code":"9993161","prefecture":"山形県","prefecture_kana":"ヤマガタケン","city":"上山市","city_kana":"カミノヤマシ","town":"弁天","town_kana":"ベンテン","prefecture_code":6},"3236":{"zip_code":"9993236","prefecture":"山形県","prefecture_kana":"ヤマガタケン","city":"上山市","city_kana":"カミノヤマシ","town":"細谷","town_kana":"ホソヤ","prefecture_code":6},"3211":{"zip_code":"9993211","prefecture":"山形県","prefecture_kana":"ヤマガタケン","city":"上山市","city_kana":"カミノヤマシ","town":"牧野","town_kana":"マギノ","prefecture_code":6},"3146":{"zip_code":"9993146","prefecture":"山形県","prefecture_kana":"ヤマガタケン","city":"上山市","city_kana":"カミノヤマシ","town":"松山","town_kana":"マツヤマ","prefecture_code":6},"3223":{"zip_code":"9993223","prefecture":"山形県","prefecture_kana":"ヤマガタケン","city":"上山市","city_kana":"カミノヤマシ","town":"三上","town_kana":"ミカミ","prefecture_code":6},"3123":{"zip_code":"9993123","prefecture":"山形県","prefecture_kana":"ヤマガタケン","city":"上山市","city_kana":"カミノヤマシ","town":"美咲町","town_kana":"ミサキチョウ","prefecture_code":6},"3224":{"zip_code":"9993224","prefecture":"山形県","prefecture_kana":"ヤマガタケン","city":"上山市","city_kana":"カミノヤマシ","town":"皆沢","town_kana":"ミナザワ","prefecture_code":6},"3135":{"zip_code":"9993135","prefecture":"山形県","prefecture_kana":"ヤマガタケン","city":"上山市","city_kana":"カミノヤマシ","town":"南町","town_kana":"ミナミマチ","prefecture_code":6},"3107":{"zip_code":"9993107","prefecture":"山形県","prefecture_kana":"ヤマガタケン","city":"上山市","city_kana":"カミノヤマシ","town":"みはらしの丘","town_kana":"ミハラシノオカ","prefecture_code":6},"3201":{"zip_code":"9993201","prefecture":"山形県","prefecture_kana":"ヤマガタケン","city":"上山市","city_kana":"カミノヤマシ","town":"宮脇","town_kana":"ミヤノワキ","prefecture_code":6},"3171":{"zip_code":"9993171","prefecture":"山形県","prefecture_kana":"ヤマガタケン","city":"上山市","city_kana":"カミノヤマシ","town":"狸森","town_kana":"ムジナモリ","prefecture_code":6},"3154":{"zip_code":"9993154","prefecture":"山形県","prefecture_kana":"ヤマガタケン","city":"上山市","city_kana":"カミノヤマシ","town":"元城内","town_kana":"モトジョウナイ","prefecture_code":6},"3134":{"zip_code":"9993134","prefecture":"山形県","prefecture_kana":"ヤマガタケン","city":"上山市","city_kana":"カミノヤマシ","town":"矢来","town_kana":"ヤライ","prefecture_code":6},"3156":{"zip_code":"9993156","prefecture":"山形県","prefecture_kana":"ヤマガタケン","city":"上山市","city_kana":"カミノヤマシ","town":"湯町","town_kana":"ユマチ","prefecture_code":6},"3133":{"zip_code":"9993133","prefecture":"山形県","prefecture_kana":"ヤマガタケン","city":"上山市","city_kana":"カミノヤマシ","town":"八日町","town_kana":"ヨウカマチ","prefecture_code":6},"3162":{"zip_code":"9993162","prefecture":"山形県","prefecture_kana":"ヤマガタケン","city":"上山市","city_kana":"カミノヤマシ","town":"四ツ谷","town_kana":"ヨツヤ","prefecture_code":6},"3700":{"zip_code":"9993700","prefecture":"山形県","prefecture_kana":"ヤマガタケン","city":"東根市","city_kana":"ヒガシネシ","town":"","town_kana":"","prefecture_code":6},"3722":{"zip_code":"9993722","prefecture":"山形県","prefecture_kana":"ヤマガタケン","city":"東根市","city_kana":"ヒガシネシ","town":"泉郷","town_kana":"イズミゴウ","prefecture_code":6},"3747":{"zip_code":"9993747","prefecture":"山形県","prefecture_kana":"ヤマガタケン","city":"東根市","city_kana":"ヒガシネシ","town":"板垣大通り","town_kana":"イタガキオオドオリ","prefecture_code":6},"3749":{"zip_code":"9993749","prefecture":"山形県","prefecture_kana":"ヤマガタケン","city":"東根市","city_kana":"ヒガシネシ","town":"板垣北小路","town_kana":"イタガキキタコウジ","prefecture_code":6},"3744":{"zip_code":"9993744","prefecture":"山形県","prefecture_kana":"ヤマガタケン","city":"東根市","city_kana":"ヒガシネシ","town":"板垣北通り","town_kana":"イタガキキタドオリ","prefecture_code":6},"3746":{"zip_code":"9993746","prefecture":"山形県","prefecture_kana":"ヤマガタケン","city":"東根市","city_kana":"ヒガシネシ","town":"板垣新田","town_kana":"イタガキシンデン","prefecture_code":6},"3745":{"zip_code":"9993745","prefecture":"山形県","prefecture_kana":"ヤマガタケン","city":"東根市","city_kana":"ヒガシネシ","town":"板垣中通り","town_kana":"イタガキナカドオリ","prefecture_code":6},"3748":{"zip_code":"9993748","prefecture":"山形県","prefecture_kana":"ヤマガタケン","city":"東根市","city_kana":"ヒガシネシ","town":"板垣西小路","town_kana":"イタガキニシコウジ","prefecture_code":6},"3717":{"zip_code":"9993717","prefecture":"山形県","prefecture_kana":"ヤマガタケン","city":"東根市","city_kana":"ヒガシネシ","town":"一本木","town_kana":"イッポンギ","prefecture_code":6},"3726":{"zip_code":"9993726","prefecture":"山形県","prefecture_kana":"ヤマガタケン","city":"東根市","city_kana":"ヒガシネシ","town":"猪野沢","town_kana":"イノサワ","prefecture_code":6},"3728":{"zip_code":"9993728","prefecture":"山形県","prefecture_kana":"ヤマガタケン","city":"東根市","city_kana":"ヒガシネシ","town":"太田新田","town_kana":"オオタシンデン","prefecture_code":6},"3714":{"zip_code":"9993714","prefecture":"山形県","prefecture_kana":"ヤマガタケン","city":"東根市","city_kana":"ヒガシネシ","town":"大林","town_kana":"オオバヤシ","prefecture_code":6},"3715":{"zip_code":"9993715","prefecture":"山形県","prefecture_kana":"ヤマガタケン","city":"東根市","city_kana":"ヒガシネシ","town":"大林新田","town_kana":"オオバヤシシンデン","prefecture_code":6},"3712":{"zip_code":"9993712","prefecture":"山形県","prefecture_kana":"ヤマガタケン","city":"東根市","city_kana":"ヒガシネシ","town":"大森","town_kana":"オオモリ","prefecture_code":6},"3737":{"zip_code":"9993737","prefecture":"山形県","prefecture_kana":"ヤマガタケン","city":"東根市","city_kana":"ヒガシネシ","town":"若木","town_kana":"オサナギ","prefecture_code":6},"3738":{"zip_code":"9993738","prefecture":"山形県","prefecture_kana":"ヤマガタケン","city":"東根市","city_kana":"ヒガシネシ","town":"若木大通り","town_kana":"オサナギオオドオリ","prefecture_code":6},"3757":{"zip_code":"9993757","prefecture":"山形県","prefecture_kana":"ヤマガタケン","city":"東根市","city_kana":"ヒガシネシ","town":"若木小路","town_kana":"オサナギコウジ","prefecture_code":6},"3756":{"zip_code":"9993756","prefecture":"山形県","prefecture_kana":"ヤマガタケン","city":"東根市","city_kana":"ヒガシネシ","town":"若木一条通り","town_kana":"オサナギ1ジョウドオリ","prefecture_code":6},"3755":{"zip_code":"9993755","prefecture":"山形県","prefecture_kana":"ヤマガタケン","city":"東根市","city_kana":"ヒガシネシ","town":"若木二条通り","town_kana":"オサナギ2ジョウドオリ","prefecture_code":6},"3754":{"zip_code":"9993754","prefecture":"山形県","prefecture_kana":"ヤマガタケン","city":"東根市","city_kana":"ヒガシネシ","town":"若木三条通り","town_kana":"オサナギ3ジョウドオリ","prefecture_code":6},"3753":{"zip_code":"9993753","prefecture":"山形県","prefecture_kana":"ヤマガタケン","city":"東根市","city_kana":"ヒガシネシ","town":"若木四条通り","town_kana":"オサナギ4ジョウドオリ","prefecture_code":6},"3752":{"zip_code":"9993752","prefecture":"山形県","prefecture_kana":"ヤマガタケン","city":"東根市","city_kana":"ヒガシネシ","town":"若木五条通り","town_kana":"オサナギ5ジョウドオリ","prefecture_code":6},"3751":{"zip_code":"9993751","prefecture":"山形県","prefecture_kana":"ヤマガタケン","city":"東根市","city_kana":"ヒガシネシ","town":"若木通り","town_kana":"オサナギドオリ","prefecture_code":6},"3702":{"zip_code":"9993702","prefecture":"山形県","prefecture_kana":"ヤマガタケン","city":"東根市","city_kana":"ヒガシネシ","town":"温泉町","town_kana":"オンセンマチ","prefecture_code":6},"3770":{"zip_code":"9993770","prefecture":"山形県","prefecture_kana":"ヤマガタケン","city":"東根市","city_kana":"ヒガシネシ","town":"柏原","town_kana":"カシワバラ","prefecture_code":6},"3716":{"zip_code":"9993716","prefecture":"山形県","prefecture_kana":"ヤマガタケン","city":"東根市","city_kana":"ヒガシネシ","town":"蟹沢","town_kana":"カニサワ","prefecture_code":6},"3723":{"zip_code":"9993723","prefecture":"山形県","prefecture_kana":"ヤマガタケン","city":"東根市","city_kana":"ヒガシネシ","town":"観音寺","town_kana":"カンノンジ","prefecture_code":6},"3774":{"zip_code":"9993774","prefecture":"山形県","prefecture_kana":"ヤマガタケン","city":"東根市","city_kana":"ヒガシネシ","town":"郡山","town_kana":"コオリヤマ","prefecture_code":6},"3710":{"zip_code":"9993710","prefecture":"山形県","prefecture_kana":"ヤマガタケン","city":"東根市","city_kana":"ヒガシネシ","town":"小林","town_kana":"コバヤシ","prefecture_code":6},"3786":{"zip_code":"9993786","prefecture":"山形県","prefecture_kana":"ヤマガタケン","city":"東根市","city_kana":"ヒガシネシ","town":"鷺の宿","town_kana":"サギノシュク","prefecture_code":6},"3703":{"zip_code":"9993703","prefecture":"山形県","prefecture_kana":"ヤマガタケン","city":"東根市","city_kana":"ヒガシネシ","town":"鷺ノ森","town_kana":"サギノモリ","prefecture_code":6},"3720":{"zip_code":"9993720","prefecture":"山形県","prefecture_kana":"ヤマガタケン","city":"東根市","city_kana":"ヒガシネシ","town":"さくらんぼ駅前","town_kana":"サクランボエキマエ","prefecture_code":6},"3773":{"zip_code":"9993773","prefecture":"山形県","prefecture_kana":"ヤマガタケン","city":"東根市","city_kana":"ヒガシネシ","town":"島大堀","town_kana":"シマオオホリ","prefecture_code":6},"3708":{"zip_code":"9993708","prefecture":"山形県","prefecture_kana":"ヤマガタケン","city":"東根市","city_kana":"ヒガシネシ","town":"下川原","town_kana":"シモガワラ","prefecture_code":6},"3707":{"zip_code":"9993707","prefecture":"山形県","prefecture_kana":"ヤマガタケン","city":"東根市","city_kana":"ヒガシネシ","town":"新田町","town_kana":"シンデンマチ","prefecture_code":6},"3761":{"zip_code":"9993761","prefecture":"山形県","prefecture_kana":"ヤマガタケン","city":"東根市","city_kana":"ヒガシネシ","town":"神町","town_kana":"ジンマチ","prefecture_code":6},"3763":{"zip_code":"9993763","prefecture":"山形県","prefecture_kana":"ヤマガタケン","city":"東根市","city_kana":"ヒガシネシ","town":"神町中央","town_kana":"ジンマチチュウオウ","prefecture_code":6},"3764":{"zip_code":"9993764","prefecture":"山形県","prefecture_kana":"ヤマガタケン","city":"東根市","city_kana":"ヒガシネシ","town":"神町東","town_kana":"ジンマチヒガシ","prefecture_code":6},"3766":{"zip_code":"9993766","prefecture":"山形県","prefecture_kana":"ヤマガタケン","city":"東根市","city_kana":"ヒガシネシ","town":"神町西","town_kana":"ジンマチニシ","prefecture_code":6},"3765":{"zip_code":"9993765","prefecture":"山形県","prefecture_kana":"ヤマガタケン","city":"東根市","city_kana":"ヒガシネシ","town":"神町南","town_kana":"ジンマチミナミ","prefecture_code":6},"3762":{"zip_code":"9993762","prefecture":"山形県","prefecture_kana":"ヤマガタケン","city":"東根市","city_kana":"ヒガシネシ","town":"神町北","town_kana":"ジンマチキタ","prefecture_code":6},"3731":{"zip_code":"9993731","prefecture":"山形県","prefecture_kana":"ヤマガタケン","city":"東根市","city_kana":"ヒガシネシ","town":"神町営団大通り","town_kana":"ジンマチエイダンオオドオリ","prefecture_code":6},"3732":{"zip_code":"9993732","prefecture":"山形県","prefecture_kana":"ヤマガタケン","city":"東根市","city_kana":"ヒガシネシ","town":"神町営団中通り","town_kana":"ジンマチエイダンナカドオリ","prefecture_code":6},"3736":{"zip_code":"9993736","prefecture":"山形県","prefecture_kana":"ヤマガタケン","city":"東根市","city_kana":"ヒガシネシ","town":"神町営団南通り","town_kana":"ジンマチエイダンミナミドオリ","prefecture_code":6},"3735":{"zip_code":"9993735","prefecture":"山形県","prefecture_kana":"ヤマガタケン","city":"東根市","city_kana":"ヒガシネシ","town":"神町営団一条通り","town_kana":"ジンマチエイダン1ジョウドオリ","prefecture_code":6},"3734":{"zip_code":"9993734","prefecture":"山形県","prefecture_kana":"ヤマガタケン","city":"東根市","city_kana":"ヒガシネシ","town":"神町営団二条通り","town_kana":"ジンマチエイダン2ジョウドオリ","prefecture_code":6},"3733":{"zip_code":"9993733","prefecture":"山形県","prefecture_kana":"ヤマガタケン","city":"東根市","city_kana":"ヒガシネシ","town":"神町営団三条通り","town_kana":"ジンマチエイダン3ジョウドオリ","prefecture_code":6},"3724":{"zip_code":"9993724","prefecture":"山形県","prefecture_kana":"ヤマガタケン","city":"東根市","city_kana":"ヒガシネシ","town":"関山","town_kana":"セキヤマ","prefecture_code":6},"3711":{"zip_code":"9993711","prefecture":"山形県","prefecture_kana":"ヤマガタケン","city":"東根市","city_kana":"ヒガシネシ","town":"中央","town_kana":"チュウオウ","prefecture_code":6},"3729":{"zip_code":"9993729","prefecture":"山形県","prefecture_kana":"ヤマガタケン","city":"東根市","city_kana":"ヒガシネシ","town":"中央東","town_kana":"チュウオウヒガシ","prefecture_code":6},"3719":{"zip_code":"9993719","prefecture":"山形県","prefecture_kana":"ヤマガタケン","city":"東根市","city_kana":"ヒガシネシ","town":"中央西","town_kana":"チュウオウニシ","prefecture_code":6},"3730":{"zip_code":"9993730","prefecture":"山形県","prefecture_kana":"ヤマガタケン","city":"東根市","city_kana":"ヒガシネシ","town":"中央南","town_kana":"チュウオウミナミ","prefecture_code":6},"3778":{"zip_code":"9993778","prefecture":"山形県","prefecture_kana":"ヤマガタケン","city":"東根市","city_kana":"ヒガシネシ","town":"藤助新田","town_kana":"トウスケシンデン","prefecture_code":6},"3743":{"zip_code":"9993743","prefecture":"山形県","prefecture_kana":"ヤマガタケン","city":"東根市","city_kana":"ヒガシネシ","town":"中島新田","town_kana":"ナカジマシンデン","prefecture_code":6},"3742":{"zip_code":"9993742","prefecture":"山形県","prefecture_kana":"ヤマガタケン","city":"東根市","city_kana":"ヒガシネシ","town":"中島通り","town_kana":"ナカジマドオリ","prefecture_code":6},"3741":{"zip_code":"9993741","prefecture":"山形県","prefecture_kana":"ヤマガタケン","city":"東根市","city_kana":"ヒガシネシ","town":"中島東通り","town_kana":"ナカジマヒガシドオリ","prefecture_code":6},"3771":{"zip_code":"9993771","prefecture":"山形県","prefecture_kana":"ヤマガタケン","city":"東根市","city_kana":"ヒガシネシ","town":"長瀞","town_kana":"ナガトロ","prefecture_code":6},"3777":{"zip_code":"9993777","prefecture":"山形県","prefecture_kana":"ヤマガタケン","city":"東根市","city_kana":"ヒガシネシ","town":"荷口","town_kana":"ニクチ","prefecture_code":6},"3725":{"zip_code":"9993725","prefecture":"山形県","prefecture_kana":"ヤマガタケン","city":"東根市","city_kana":"ヒガシネシ","town":"沼沢","town_kana":"ヌマザワ","prefecture_code":6},"3727":{"zip_code":"9993727","prefecture":"山形県","prefecture_kana":"ヤマガタケン","city":"東根市","city_kana":"ヒガシネシ","town":"野川","town_kana":"ノガワ","prefecture_code":6},"3775":{"zip_code":"9993775","prefecture":"山形県","prefecture_kana":"ヤマガタケン","city":"東根市","city_kana":"ヒガシネシ","town":"野田","town_kana":"ノダ","prefecture_code":6},"3776":{"zip_code":"9993776","prefecture":"山形県","prefecture_kana":"ヤマガタケン","city":"東根市","city_kana":"ヒガシネシ","town":"羽入","town_kana":"ハニュウ","prefecture_code":6},"3779":{"zip_code":"9993779","prefecture":"山形県","prefecture_kana":"ヤマガタケン","city":"東根市","city_kana":"ヒガシネシ","town":"羽入東","town_kana":"ハニュウヒガシ","prefecture_code":6},"3701":{"zip_code":"9993701","prefecture":"山形県","prefecture_kana":"ヤマガタケン","city":"東根市","city_kana":"ヒガシネシ","town":"東根甲","town_kana":"ヒガシネコウ","prefecture_code":6},"3721":{"zip_code":"9993721","prefecture":"山形県","prefecture_kana":"ヤマガタケン","city":"東根市","city_kana":"ヒガシネシ","town":"東根乙","town_kana":"ヒガシネオツ","prefecture_code":6},"3704":{"zip_code":"9993704","prefecture":"山形県","prefecture_kana":"ヤマガタケン","city":"東根市","city_kana":"ヒガシネシ","town":"東根丙","town_kana":"ヒガシネヘイ","prefecture_code":6},"3713":{"zip_code":"9993713","prefecture":"山形県","prefecture_kana":"ヤマガタケン","city":"東根市","city_kana":"ヒガシネシ","town":"東根丁","town_kana":"ヒガシネテイ","prefecture_code":6},"3784":{"zip_code":"9993784","prefecture":"山形県","prefecture_kana":"ヤマガタケン","city":"東根市","city_kana":"ヒガシネシ","town":"本町","town_kana":"ホンチョウ","prefecture_code":6},"3781":{"zip_code":"9993781","prefecture":"山形県","prefecture_kana":"ヤマガタケン","city":"東根市","city_kana":"ヒガシネシ","town":"本丸北","town_kana":"ホンマルキタ","prefecture_code":6},"3785":{"zip_code":"9993785","prefecture":"山形県","prefecture_kana":"ヤマガタケン","city":"東根市","city_kana":"ヒガシネシ","town":"本丸西","town_kana":"ホンマルニシ","prefecture_code":6},"3782":{"zip_code":"9993782","prefecture":"山形県","prefecture_kana":"ヤマガタケン","city":"東根市","city_kana":"ヒガシネシ","town":"本丸東","town_kana":"ホンマルヒガシ","prefecture_code":6},"3783":{"zip_code":"9993783","prefecture":"山形県","prefecture_kana":"ヤマガタケン","city":"東根市","city_kana":"ヒガシネシ","town":"本丸南","town_kana":"ホンマルミナミ","prefecture_code":6},"3772":{"zip_code":"9993772","prefecture":"山形県","prefecture_kana":"ヤマガタケン","city":"東根市","city_kana":"ヒガシネシ","town":"松沢","town_kana":"マツザワ","prefecture_code":6},"3706":{"zip_code":"9993706","prefecture":"山形県","prefecture_kana":"ヤマガタケン","city":"東根市","city_kana":"ヒガシネシ","town":"三日町","town_kana":"ミッカマチ","prefecture_code":6},"3705":{"zip_code":"9993705","prefecture":"山形県","prefecture_kana":"ヤマガタケン","city":"東根市","city_kana":"ヒガシネシ","town":"宮崎","town_kana":"ミヤザキ","prefecture_code":6},"3718":{"zip_code":"9993718","prefecture":"山形県","prefecture_kana":"ヤマガタケン","city":"東根市","city_kana":"ヒガシネシ","town":"四ツ家","town_kana":"ヨツヤ","prefecture_code":6},"3709":{"zip_code":"9993709","prefecture":"山形県","prefecture_kana":"ヤマガタケン","city":"東根市","city_kana":"ヒガシネシ","town":"六田","town_kana":"ロクタ","prefecture_code":6},"4200":{"zip_code":"9994200","prefecture":"山形県","prefecture_kana":"ヤマガタケン","city":"尾花沢市","city_kana":"オバナザワシ","town":"","town_kana":"","prefecture_code":6},"4554":[{"zip_code":"9994554","prefecture":"山形県","prefecture_kana":"ヤマガタケン","city":"尾花沢市","city_kana":"オバナザワシ","town":"芦沢","town_kana":"アシザワ","prefecture_code":6},{"zip_code":"9994554","prefecture":"山形県","prefecture_kana":"ヤマガタケン","city":"北村山郡大石田町","city_kana":"キタムラヤマグンオオイシダマチ","town":"鷹巣岡草山","town_kana":"タカノスオカクサヤマ","prefecture_code":6}],"4223":{"zip_code":"9994223","prefecture":"山形県","prefecture_kana":"ヤマガタケン","city":"尾花沢市","city_kana":"オバナザワシ","town":"五十沢","town_kana":"イサザワ","prefecture_code":6},"4208":{"zip_code":"9994208","prefecture":"山形県","prefecture_kana":"ヤマガタケン","city":"尾花沢市","city_kana":"オバナザワシ","town":"市野々","town_kana":"イチノノ","prefecture_code":6},"4207":{"zip_code":"9994207","prefecture":"山形県","prefecture_kana":"ヤマガタケン","city":"尾花沢市","city_kana":"オバナザワシ","town":"岩谷沢","town_kana":"イワヤサワ","prefecture_code":6},"4552":{"zip_code":"9994552","prefecture":"山形県","prefecture_kana":"ヤマガタケン","city":"尾花沢市","city_kana":"オバナザワシ","town":"荻袋","town_kana":"オギノフクロ","prefecture_code":6},"4205":{"zip_code":"9994205","prefecture":"山形県","prefecture_kana":"ヤマガタケン","city":"尾花沢市","city_kana":"オバナザワシ","town":"押切","town_kana":"オシキリ","prefecture_code":6},"4221":{"zip_code":"9994221","prefecture":"山形県","prefecture_kana":"ヤマガタケン","city":"尾花沢市","city_kana":"オバナザワシ","town":"尾花沢","town_kana":"オバナザワ","prefecture_code":6},"4222":{"zip_code":"9994222","prefecture":"山形県","prefecture_kana":"ヤマガタケン","city":"尾花沢市","city_kana":"オバナザワシ","town":"朧気","town_kana":"オボロケ","prefecture_code":6},"4204":{"zip_code":"9994204","prefecture":"山形県","prefecture_kana":"ヤマガタケン","city":"尾花沢市","city_kana":"オバナザワシ","town":"上ノ畑","town_kana":"カミノハタ","prefecture_code":6},"4304":{"zip_code":"9994304","prefecture":"山形県","prefecture_kana":"ヤマガタケン","city":"尾花沢市","city_kana":"オバナザワシ","town":"上ノ畑","town_kana":"カミノハタ","prefecture_code":6},"4332":{"zip_code":"9994332","prefecture":"山形県","prefecture_kana":"ヤマガタケン","city":"尾花沢市","city_kana":"オバナザワシ","town":"上柳渡戸","town_kana":"カミヤナギワタリド","prefecture_code":6},"4228":{"zip_code":"9994228","prefecture":"山形県","prefecture_kana":"ヤマガタケン","city":"尾花沢市","city_kana":"オバナザワシ","town":"上町","town_kana":"カンマチ","prefecture_code":6},"4336":{"zip_code":"9994336","prefecture":"山形県","prefecture_kana":"ヤマガタケン","city":"尾花沢市","city_kana":"オバナザワシ","town":"北郷","town_kana":"キタゴウ","prefecture_code":6},"4231":{"zip_code":"9994231","prefecture":"山形県","prefecture_kana":"ヤマガタケン","city":"尾花沢市","city_kana":"オバナザワシ","town":"北町","town_kana":"キタマチ","prefecture_code":6},"4333":{"zip_code":"9994333","prefecture":"山形県","prefecture_kana":"ヤマガタケン","city":"尾花沢市","city_kana":"オバナザワシ","town":"銀山新畑","town_kana":"ギンザンシンハタ","prefecture_code":6},"4214":{"zip_code":"9994214","prefecture":"山形県","prefecture_kana":"ヤマガタケン","city":"尾花沢市","city_kana":"オバナザワシ","town":"牛房野","town_kana":"ゴボウノ","prefecture_code":6},"4334":{"zip_code":"9994334","prefecture":"山形県","prefecture_kana":"ヤマガタケン","city":"尾花沢市","city_kana":"オバナザワシ","town":"下柳渡戸","town_kana":"シモヤナギワタリド","prefecture_code":6},"4211":{"zip_code":"9994211","prefecture":"山形県","prefecture_kana":"ヤマガタケン","city":"尾花沢市","city_kana":"オバナザワシ","town":"正厳","town_kana":"ショウゴン","prefecture_code":6},"4224":{"zip_code":"9994224","prefecture":"山形県","prefecture_kana":"ヤマガタケン","city":"尾花沢市","city_kana":"オバナザワシ","town":"新町","town_kana":"シンマチ","prefecture_code":6},"4226":{"zip_code":"9994226","prefecture":"山形県","prefecture_kana":"ヤマガタケン","city":"尾花沢市","city_kana":"オバナザワシ","town":"新町中央","town_kana":"シンマチチュウオウ","prefecture_code":6},"4201":{"zip_code":"9994201","prefecture":"山形県","prefecture_kana":"ヤマガタケン","city":"尾花沢市","city_kana":"オバナザワシ","town":"高橋","town_kana":"タカハシ","prefecture_code":6},"4443":{"zip_code":"9994443","prefecture":"山形県","prefecture_kana":"ヤマガタケン","city":"尾花沢市","city_kana":"オバナザワシ","town":"鶴子","town_kana":"ツルコ","prefecture_code":6},"4337":{"zip_code":"9994337","prefecture":"山形県","prefecture_kana":"ヤマガタケン","city":"尾花沢市","city_kana":"オバナザワシ","town":"鶴巻田","town_kana":"ツルマキタ","prefecture_code":6},"4551":{"zip_code":"9994551","prefecture":"山形県","prefecture_kana":"ヤマガタケン","city":"尾花沢市","city_kana":"オバナザワシ","town":"寺内","town_kana":"テラウチ","prefecture_code":6},"4555":{"zip_code":"9994555","prefecture":"山形県","prefecture_kana":"ヤマガタケン","city":"尾花沢市","city_kana":"オバナザワシ","town":"毒沢","town_kana":"ドクサワ","prefecture_code":6},"4206":{"zip_code":"9994206","prefecture":"山形県","prefecture_kana":"ヤマガタケン","city":"尾花沢市","city_kana":"オバナザワシ","town":"富山","town_kana":"トミヤマ","prefecture_code":6},"4203":{"zip_code":"9994203","prefecture":"山形県","prefecture_kana":"ヤマガタケン","city":"尾花沢市","city_kana":"オバナザワシ","town":"中島","town_kana":"ナカジマ","prefecture_code":6},"4227":{"zip_code":"9994227","prefecture":"山形県","prefecture_kana":"ヤマガタケン","city":"尾花沢市","city_kana":"オバナザワシ","town":"中町","town_kana":"ナカマチ","prefecture_code":6},"4556":{"zip_code":"9994556","prefecture":"山形県","prefecture_kana":"ヤマガタケン","city":"尾花沢市","city_kana":"オバナザワシ","town":"名木沢","town_kana":"ナキサワ","prefecture_code":6},"4202":{"zip_code":"9994202","prefecture":"山形県","prefecture_kana":"ヤマガタケン","city":"尾花沢市","city_kana":"オバナザワシ","town":"行沢","town_kana":"ナメサワ","prefecture_code":6},"4212":{"zip_code":"9994212","prefecture":"山形県","prefecture_kana":"ヤマガタケン","city":"尾花沢市","city_kana":"オバナザワシ","town":"二藤袋","town_kana":"ニトウブクロ","prefecture_code":6},"4213":{"zip_code":"9994213","prefecture":"山形県","prefecture_kana":"ヤマガタケン","city":"尾花沢市","city_kana":"オバナザワシ","town":"丹生","town_kana":"ニュウ","prefecture_code":6},"4553":{"zip_code":"9994553","prefecture":"山形県","prefecture_kana":"ヤマガタケン","city":"尾花沢市","city_kana":"オバナザワシ","town":"野黒沢","town_kana":"ノクロサワ","prefecture_code":6},"4441":{"zip_code":"9994441","prefecture":"山形県","prefecture_kana":"ヤマガタケン","city":"尾花沢市","city_kana":"オバナザワシ","town":"延沢","town_kana":"ノベサワ","prefecture_code":6},"4445":{"zip_code":"9994445","prefecture":"山形県","prefecture_kana":"ヤマガタケン","city":"尾花沢市","city_kana":"オバナザワシ","town":"畑沢","town_kana":"ハタサワ","prefecture_code":6},"4335":{"zip_code":"9994335","prefecture":"山形県","prefecture_kana":"ヤマガタケン","city":"尾花沢市","city_kana":"オバナザワシ","town":"原田","town_kana":"ハラダ","prefecture_code":6},"4232":{"zip_code":"9994232","prefecture":"山形県","prefecture_kana":"ヤマガタケン","city":"尾花沢市","city_kana":"オバナザワシ","town":"梺町","town_kana":"フモトマチ","prefecture_code":6},"4444":{"zip_code":"9994444","prefecture":"山形県","prefecture_kana":"ヤマガタケン","city":"尾花沢市","city_kana":"オバナザワシ","town":"細野","town_kana":"ホソノ","prefecture_code":6},"4557":{"zip_code":"9994557","prefecture":"山形県","prefecture_kana":"ヤマガタケン","city":"尾花沢市","city_kana":"オバナザワシ","town":"南沢","town_kana":"ミナミサワ","prefecture_code":6},"4331":{"zip_code":"9994331","prefecture":"山形県","prefecture_kana":"ヤマガタケン","city":"尾花沢市","city_kana":"オバナザワシ","town":"母袋","town_kana":"モタイ","prefecture_code":6},"4229":{"zip_code":"9994229","prefecture":"山形県","prefecture_kana":"ヤマガタケン","city":"尾花沢市","city_kana":"オバナザワシ","town":"横町","town_kana":"ヨコマチ","prefecture_code":6},"4442":{"zip_code":"9994442","prefecture":"山形県","prefecture_kana":"ヤマガタケン","city":"尾花沢市","city_kana":"オバナザワシ","town":"六沢","town_kana":"ロクサワ","prefecture_code":6},"4225":{"zip_code":"9994225","prefecture":"山形県","prefecture_kana":"ヤマガタケン","city":"尾花沢市","city_kana":"オバナザワシ","town":"若葉町","town_kana":"ワカバチョウ","prefecture_code":6},"2200":{"zip_code":"9992200","prefecture":"山形県","prefecture_kana":"ヤマガタケン","city":"南陽市","city_kana":"ナンヨウシ","town":"","town_kana":"","prefecture_code":6},"2211":{"zip_code":"9992211","prefecture":"山形県","prefecture_kana":"ヤマガタケン","city":"南陽市","city_kana":"ナンヨウシ","town":"赤湯","town_kana":"アカユ","prefecture_code":6},"2224":{"zip_code":"9992224","prefecture":"山形県","prefecture_kana":"ヤマガタケン","city":"南陽市","city_kana":"ナンヨウシ","town":"大橋","town_kana":"オオハシ","prefecture_code":6},"2252":{"zip_code":"9992252","prefecture":"山形県","prefecture_kana":"ヤマガタケン","city":"南陽市","city_kana":"ナンヨウシ","town":"沖田","town_kana":"オキタ","prefecture_code":6},"2212":{"zip_code":"9992212","prefecture":"山形県","prefecture_kana":"ヤマガタケン","city":"南陽市","city_kana":"ナンヨウシ","town":"金沢","town_kana":"カネザワ","prefecture_code":6},"2201":{"zip_code":"9992201","prefecture":"山形県","prefecture_kana":"ヤマガタケン","city":"南陽市","city_kana":"ナンヨウシ","town":"釜渡戸","town_kana":"カマノハタ","prefecture_code":6},"2261":{"zip_code":"9992261","prefecture":"山形県","prefecture_kana":"ヤマガタケン","city":"南陽市","city_kana":"ナンヨウシ","town":"蒲生田","town_kana":"カモウダ","prefecture_code":6},"2204":{"zip_code":"9992204","prefecture":"山形県","prefecture_kana":"ヤマガタケン","city":"南陽市","city_kana":"ナンヨウシ","town":"川樋","town_kana":"カワトイ","prefecture_code":6},"2221":{"zip_code":"9992221","prefecture":"山形県","prefecture_kana":"ヤマガタケン","city":"南陽市","city_kana":"ナンヨウシ","town":"椚塚","town_kana":"クヌギヅカ","prefecture_code":6},"2203":{"zip_code":"9992203","prefecture":"山形県","prefecture_kana":"ヤマガタケン","city":"南陽市","city_kana":"ナンヨウシ","town":"小岩沢","town_kana":"コイワサワ","prefecture_code":6},"2241":{"zip_code":"9992241","prefecture":"山形県","prefecture_kana":"ヤマガタケン","city":"南陽市","city_kana":"ナンヨウシ","town":"郡山","town_kana":"コオリヤマ","prefecture_code":6},"2256":{"zip_code":"9992256","prefecture":"山形県","prefecture_kana":"ヤマガタケン","city":"南陽市","city_kana":"ナンヨウシ","town":"坂井","town_kana":"サカイ","prefecture_code":6},"2244":{"zip_code":"9992244","prefecture":"山形県","prefecture_kana":"ヤマガタケン","city":"南陽市","city_kana":"ナンヨウシ","town":"島貫","town_kana":"シマヌキ","prefecture_code":6},"2205":{"zip_code":"9992205","prefecture":"山形県","prefecture_kana":"ヤマガタケン","city":"南陽市","city_kana":"ナンヨウシ","town":"新田","town_kana":"シンデン","prefecture_code":6},"2255":{"zip_code":"9992255","prefecture":"山形県","prefecture_kana":"ヤマガタケン","city":"南陽市","city_kana":"ナンヨウシ","town":"関根","town_kana":"セキネ","prefecture_code":6},"2251":{"zip_code":"9992251","prefecture":"山形県","prefecture_kana":"ヤマガタケン","city":"南陽市","city_kana":"ナンヨウシ","town":"高梨","town_kana":"タカナシ","prefecture_code":6},"2234":{"zip_code":"9992234","prefecture":"山形県","prefecture_kana":"ヤマガタケン","city":"南陽市","city_kana":"ナンヨウシ","town":"中央東","town_kana":"チュウオウヒガシ","prefecture_code":6},"2254":{"zip_code":"9992254","prefecture":"山形県","prefecture_kana":"ヤマガタケン","city":"南陽市","city_kana":"ナンヨウシ","town":"露橋","town_kana":"ツユハシ","prefecture_code":6},"2264":{"zip_code":"9992264","prefecture":"山形県","prefecture_kana":"ヤマガタケン","city":"南陽市","city_kana":"ナンヨウシ","town":"中落合","town_kana":"ナカオチアイ","prefecture_code":6},"2242":{"zip_code":"9992242","prefecture":"山形県","prefecture_kana":"ヤマガタケン","city":"南陽市","city_kana":"ナンヨウシ","town":"中ノ目","town_kana":"ナカノメ","prefecture_code":6},"2222":{"zip_code":"9992222","prefecture":"山形県","prefecture_kana":"ヤマガタケン","city":"南陽市","city_kana":"ナンヨウシ","town":"長岡","town_kana":"ナガオカ","prefecture_code":6},"2266":{"zip_code":"9992266","prefecture":"山形県","prefecture_kana":"ヤマガタケン","city":"南陽市","city_kana":"ナンヨウシ","town":"長瀞","town_kana":"ナガトロ","prefecture_code":6},"2243":{"zip_code":"9992243","prefecture":"山形県","prefecture_kana":"ヤマガタケン","city":"南陽市","city_kana":"ナンヨウシ","town":"鍋田","town_kana":"ナベタ","prefecture_code":6},"2231":{"zip_code":"9992231","prefecture":"山形県","prefecture_kana":"ヤマガタケン","city":"南陽市","city_kana":"ナンヨウシ","town":"二色根","town_kana":"ニイロネ","prefecture_code":6},"2265":{"zip_code":"9992265","prefecture":"山形県","prefecture_kana":"ヤマガタケン","city":"南陽市","city_kana":"ナンヨウシ","town":"西落合","town_kana":"ニシオチアイ","prefecture_code":6},"2263":{"zip_code":"9992263","prefecture":"山形県","prefecture_kana":"ヤマガタケン","city":"南陽市","city_kana":"ナンヨウシ","town":"萩生田","town_kana":"ハギュウダ","prefecture_code":6},"2267":{"zip_code":"9992267","prefecture":"山形県","prefecture_kana":"ヤマガタケン","city":"南陽市","city_kana":"ナンヨウシ","town":"法師柳","town_kana":"ホウシヤナギ","prefecture_code":6},"2213":{"zip_code":"9992213","prefecture":"山形県","prefecture_kana":"ヤマガタケン","city":"南陽市","city_kana":"ナンヨウシ","town":"松沢","town_kana":"マツザワ","prefecture_code":6},"2223":{"zip_code":"9992223","prefecture":"山形県","prefecture_kana":"ヤマガタケン","city":"南陽市","city_kana":"ナンヨウシ","town":"俎柳","town_kana":"マナイタヤナギ","prefecture_code":6},"2232":{"zip_code":"9992232","prefecture":"山形県","prefecture_kana":"ヤマガタケン","city":"南陽市","city_kana":"ナンヨウシ","town":"三間通","town_kana":"ミツマドオリ","prefecture_code":6},"2253":{"zip_code":"9992253","prefecture":"山形県","prefecture_kana":"ヤマガタケン","city":"南陽市","city_kana":"ナンヨウシ","town":"宮崎","town_kana":"ミヤザキ","prefecture_code":6},"2202":{"zip_code":"9992202","prefecture":"山形県","prefecture_kana":"ヤマガタケン","city":"南陽市","city_kana":"ナンヨウシ","town":"元中山","town_kana":"モトナカヤマ","prefecture_code":6},"2262":{"zip_code":"9992262","prefecture":"山形県","prefecture_kana":"ヤマガタケン","city":"南陽市","city_kana":"ナンヨウシ","town":"若狭郷屋","town_kana":"ワカサゴウヤ","prefecture_code":6},"2233":{"zip_code":"9992233","prefecture":"山形県","prefecture_kana":"ヤマガタケン","city":"南陽市","city_kana":"ナンヨウシ","town":"上野","town_kana":"ワノ","prefecture_code":6},"3500":{"zip_code":"9993500","prefecture":"山形県","prefecture_kana":"ヤマガタケン","city":"西村山郡河北町","city_kana":"ニシムラヤマグンカホクチョウ","town":"","town_kana":"","prefecture_code":6},"3503":{"zip_code":"9993503","prefecture":"山形県","prefecture_kana":"ヤマガタケン","city":"西村山郡河北町","city_kana":"ニシムラヤマグンカホクチョウ","town":"岩木","town_kana":"イワキ","prefecture_code":6},"3501":{"zip_code":"9993501","prefecture":"山形県","prefecture_kana":"ヤマガタケン","city":"西村山郡河北町","city_kana":"ニシムラヤマグンカホクチョウ","town":"新吉田","town_kana":"シンヨシダ","prefecture_code":6},"3521":{"zip_code":"9993521","prefecture":"山形県","prefecture_kana":"ヤマガタケン","city":"西村山郡河北町","city_kana":"ニシムラヤマグンカホクチョウ","town":"田井","town_kana":"ダイ","prefecture_code":6},"3532":{"zip_code":"9993532","prefecture":"山形県","prefecture_kana":"ヤマガタケン","city":"西村山郡河北町","city_kana":"ニシムラヤマグンカホクチョウ","town":"造山","town_kana":"ツクリヤマ","prefecture_code":6},"3533":{"zip_code":"9993533","prefecture":"山形県","prefecture_kana":"ヤマガタケン","city":"西村山郡河北町","city_kana":"ニシムラヤマグンカホクチョウ","town":"西里","town_kana":"ニシザト","prefecture_code":6},"3531":{"zip_code":"9993531","prefecture":"山形県","prefecture_kana":"ヤマガタケン","city":"西村山郡河北町","city_kana":"ニシムラヤマグンカホクチョウ","town":"畑中","town_kana":"ハタケナカ","prefecture_code":6},"3522":{"zip_code":"9993522","prefecture":"山形県","prefecture_kana":"ヤマガタケン","city":"西村山郡河北町","city_kana":"ニシムラヤマグンカホクチョウ","town":"溝延","town_kana":"ミゾノベ","prefecture_code":6},"3511":{"zip_code":"9993511","prefecture":"山形県","prefecture_kana":"ヤマガタケン","city":"西村山郡河北町","city_kana":"ニシムラヤマグンカホクチョウ","town":"谷地","town_kana":"ヤチ","prefecture_code":6},"3515":{"zip_code":"9993515","prefecture":"山形県","prefecture_kana":"ヤマガタケン","city":"西村山郡河北町","city_kana":"ニシムラヤマグンカホクチョウ","town":"谷地荒町東","town_kana":"ヤチアラマチヒガシ","prefecture_code":6},"3512":{"zip_code":"9993512","prefecture":"山形県","prefecture_kana":"ヤマガタケン","city":"西村山郡河北町","city_kana":"ニシムラヤマグンカホクチョウ","town":"谷地中央","town_kana":"ヤチチュウオウ","prefecture_code":6},"3513":{"zip_code":"9993513","prefecture":"山形県","prefecture_kana":"ヤマガタケン","city":"西村山郡河北町","city_kana":"ニシムラヤマグンカホクチョウ","town":"谷地所岡","town_kana":"ヤチトコロオカ","prefecture_code":6},"3514":{"zip_code":"9993514","prefecture":"山形県","prefecture_kana":"ヤマガタケン","city":"西村山郡河北町","city_kana":"ニシムラヤマグンカホクチョウ","town":"谷地ひな市","town_kana":"ヤチヒナイチ","prefecture_code":6},"3502":{"zip_code":"9993502","prefecture":"山形県","prefecture_kana":"ヤマガタケン","city":"西村山郡河北町","city_kana":"ニシムラヤマグンカホクチョウ","town":"吉田","town_kana":"ヨシダ","prefecture_code":6},"4100":{"zip_code":"9994100","prefecture":"山形県","prefecture_kana":"ヤマガタケン","city":"北村山郡大石田町","city_kana":"キタムラヤマグンオオイシダマチ","town":"","town_kana":"","prefecture_code":6},"4113":{"zip_code":"9994113","prefecture":"山形県","prefecture_kana":"ヤマガタケン","city":"北村山郡大石田町","city_kana":"キタムラヤマグンオオイシダマチ","town":"今宿","town_kana":"イマシュク","prefecture_code":6},"4103":{"zip_code":"9994103","prefecture":"山形県","prefecture_kana":"ヤマガタケン","city":"北村山郡大石田町","city_kana":"キタムラヤマグンオオイシダマチ","town":"岩ケ袋","town_kana":"イワガフクロ","prefecture_code":6},"4116":{"zip_code":"9994116","prefecture":"山形県","prefecture_kana":"ヤマガタケン","city":"北村山郡大石田町","city_kana":"キタムラヤマグンオオイシダマチ","town":"駅前通り","town_kana":"エキマエドオリ","prefecture_code":6},"4111":{"zip_code":"9994111","prefecture":"山形県","prefecture_kana":"ヤマガタケン","city":"北村山郡大石田町","city_kana":"キタムラヤマグンオオイシダマチ","town":"大石田","town_kana":"オオイシダ","prefecture_code":6},"4131":{"zip_code":"9994131","prefecture":"山形県","prefecture_kana":"ヤマガタケン","city":"北村山郡大石田町","city_kana":"キタムラヤマグンオオイシダマチ","town":"大浦","town_kana":"オオウラ","prefecture_code":6},"4102":{"zip_code":"9994102","prefecture":"山形県","prefecture_kana":"ヤマガタケン","city":"北村山郡大石田町","city_kana":"キタムラヤマグンオオイシダマチ","town":"海谷","town_kana":"カイヤ","prefecture_code":6},"4115":{"zip_code":"9994115","prefecture":"山形県","prefecture_kana":"ヤマガタケン","city":"北村山郡大石田町","city_kana":"キタムラヤマグンオオイシダマチ","town":"桂木町","town_kana":"カツラギチョウ","prefecture_code":6},"4133":{"zip_code":"9994133","prefecture":"山形県","prefecture_kana":"ヤマガタケン","city":"北村山郡大石田町","city_kana":"キタムラヤマグンオオイシダマチ","town":"川前","town_kana":"カワマエ","prefecture_code":6},"4132":{"zip_code":"9994132","prefecture":"山形県","prefecture_kana":"ヤマガタケン","city":"北村山郡大石田町","city_kana":"キタムラヤマグンオオイシダマチ","town":"駒籠","town_kana":"コマゴメ","prefecture_code":6},"4141":{"zip_code":"9994141","prefecture":"山形県","prefecture_kana":"ヤマガタケン","city":"北村山郡大石田町","city_kana":"キタムラヤマグンオオイシダマチ","town":"次年子","town_kana":"ジネンゴ","prefecture_code":6},"4101":{"zip_code":"9994101","prefecture":"山形県","prefecture_kana":"ヤマガタケン","city":"北村山郡大石田町","city_kana":"キタムラヤマグンオオイシダマチ","town":"鷹巣","town_kana":"タカノス","prefecture_code":6},"4122":{"zip_code":"9994122","prefecture":"山形県","prefecture_kana":"ヤマガタケン","city":"北村山郡大石田町","city_kana":"キタムラヤマグンオオイシダマチ","town":"田沢","town_kana":"タザワ","prefecture_code":6},"4134":{"zip_code":"9994134","prefecture":"山形県","prefecture_kana":"ヤマガタケン","city":"北村山郡大石田町","city_kana":"キタムラヤマグンオオイシダマチ","town":"豊田","town_kana":"トヨダ","prefecture_code":6},"4112":{"zip_code":"9994112","prefecture":"山形県","prefecture_kana":"ヤマガタケン","city":"北村山郡大石田町","city_kana":"キタムラヤマグンオオイシダマチ","town":"緑町","town_kana":"ミドリチョウ","prefecture_code":6},"4121":{"zip_code":"9994121","prefecture":"山形県","prefecture_kana":"ヤマガタケン","city":"北村山郡大石田町","city_kana":"キタムラヤマグンオオイシダマチ","town":"横山","town_kana":"ヨコヤマ","prefecture_code":6},"4114":{"zip_code":"9994114","prefecture":"山形県","prefecture_kana":"ヤマガタケン","city":"北村山郡大石田町","city_kana":"キタムラヤマグンオオイシダマチ","town":"四日町","town_kana":"ヨッカマチ","prefecture_code":6},"5400":{"zip_code":"9995400","prefecture":"山形県","prefecture_kana":"ヤマガタケン","city":"最上郡金山町","city_kana":"モガミグンカネヤママチ","town":"","town_kana":"","prefecture_code":6},"5401":{"zip_code":"9995401","prefecture":"山形県","prefecture_kana":"ヤマガタケン","city":"最上郡金山町","city_kana":"モガミグンカネヤママチ","town":"有屋","town_kana":"アリヤ","prefecture_code":6},"5414":{"zip_code":"9995414","prefecture":"山形県","prefecture_kana":"ヤマガタケン","city":"最上郡金山町","city_kana":"モガミグンカネヤママチ","town":"漆野","town_kana":"ウルシノ","prefecture_code":6},"5405":{"zip_code":"9995405","prefecture":"山形県","prefecture_kana":"ヤマガタケン","city":"最上郡金山町","city_kana":"モガミグンカネヤママチ","town":"上台","town_kana":"ウワダイ","prefecture_code":6},"5402":{"zip_code":"9995402","prefecture":"山形県","prefecture_kana":"ヤマガタケン","city":"最上郡金山町","city_kana":"モガミグンカネヤママチ","town":"金山","town_kana":"カネヤマ","prefecture_code":6},"5404":{"zip_code":"9995404","prefecture":"山形県","prefecture_kana":"ヤマガタケン","city":"最上郡金山町","city_kana":"モガミグンカネヤママチ","town":"下野明","town_kana":"シモノミョウ","prefecture_code":6},"5413":{"zip_code":"9995413","prefecture":"山形県","prefecture_kana":"ヤマガタケン","city":"最上郡金山町","city_kana":"モガミグンカネヤママチ","town":"谷口銀山","town_kana":"タニグチギンザン","prefecture_code":6},"5412":{"zip_code":"9995412","prefecture":"山形県","prefecture_kana":"ヤマガタケン","city":"最上郡金山町","city_kana":"モガミグンカネヤママチ","town":"飛森","town_kana":"トビノモリ","prefecture_code":6},"5411":{"zip_code":"9995411","prefecture":"山形県","prefecture_kana":"ヤマガタケン","city":"最上郡金山町","city_kana":"モガミグンカネヤママチ","town":"中田","town_kana":"ナカダ","prefecture_code":6},"5415":{"zip_code":"9995415","prefecture":"山形県","prefecture_kana":"ヤマガタケン","city":"最上郡金山町","city_kana":"モガミグンカネヤママチ","town":"朴山","town_kana":"ホオヤマ","prefecture_code":6},"5403":{"zip_code":"9995403","prefecture":"山形県","prefecture_kana":"ヤマガタケン","city":"最上郡金山町","city_kana":"モガミグンカネヤママチ","town":"安沢","town_kana":"ヤスザワ","prefecture_code":6},"5406":{"zip_code":"9995406","prefecture":"山形県","prefecture_kana":"ヤマガタケン","city":"最上郡金山町","city_kana":"モガミグンカネヤママチ","town":"山崎","town_kana":"ヤマザキ","prefecture_code":6},"6100":{"zip_code":"9996100","prefecture":"山形県","prefecture_kana":"ヤマガタケン","city":"最上郡最上町","city_kana":"モガミグンモガミマチ","town":"","town_kana":"","prefecture_code":6},"6211":[{"zip_code":"9996211","prefecture":"山形県","prefecture_kana":"ヤマガタケン","city":"最上郡最上町","city_kana":"モガミグンモガミマチ","town":"大堀","town_kana":"オオホリ","prefecture_code":6},{"zip_code":"9996211","prefecture":"山形県","prefecture_kana":"ヤマガタケン","city":"最上郡最上町","city_kana":"モガミグンモガミマチ","town":"瀬見","town_kana":"セミ","prefecture_code":6}],"6103":{"zip_code":"9996103","prefecture":"山形県","prefecture_kana":"ヤマガタケン","city":"最上郡最上町","city_kana":"モガミグンモガミマチ","town":"黒澤","town_kana":"クロサワ","prefecture_code":6},"6106":{"zip_code":"9996106","prefecture":"山形県","prefecture_kana":"ヤマガタケン","city":"最上郡最上町","city_kana":"モガミグンモガミマチ","town":"堺田","town_kana":"サカイダ","prefecture_code":6},"6212":{"zip_code":"9996212","prefecture":"山形県","prefecture_kana":"ヤマガタケン","city":"最上郡最上町","city_kana":"モガミグンモガミマチ","town":"志茂","town_kana":"シモ","prefecture_code":6},"6215":{"zip_code":"9996215","prefecture":"山形県","prefecture_kana":"ヤマガタケン","city":"最上郡最上町","city_kana":"モガミグンモガミマチ","town":"月楯","town_kana":"ツキダテ","prefecture_code":6},"6105":{"zip_code":"9996105","prefecture":"山形県","prefecture_kana":"ヤマガタケン","city":"最上郡最上町","city_kana":"モガミグンモガミマチ","town":"富澤","town_kana":"トミサワ","prefecture_code":6},"6102":{"zip_code":"9996102","prefecture":"山形県","prefecture_kana":"ヤマガタケン","city":"最上郡最上町","city_kana":"モガミグンモガミマチ","town":"東法田","town_kana":"ヒガシホウデン","prefecture_code":6},"6213":{"zip_code":"9996213","prefecture":"山形県","prefecture_kana":"ヤマガタケン","city":"最上郡最上町","city_kana":"モガミグンモガミマチ","town":"法田","town_kana":"ホウデン","prefecture_code":6},"6104":{"zip_code":"9996104","prefecture":"山形県","prefecture_kana":"ヤマガタケン","city":"最上郡最上町","city_kana":"モガミグンモガミマチ","town":"本城","town_kana":"ホンジョウ","prefecture_code":6},"6107":{"zip_code":"9996107","prefecture":"山形県","prefecture_kana":"ヤマガタケン","city":"最上郡最上町","city_kana":"モガミグンモガミマチ","town":"満澤","town_kana":"ミツザワ","prefecture_code":6},"6101":{"zip_code":"9996101","prefecture":"山形県","prefecture_kana":"ヤマガタケン","city":"最上郡最上町","city_kana":"モガミグンモガミマチ","town":"向町","town_kana":"ムカイマチ","prefecture_code":6},"6214":{"zip_code":"9996214","prefecture":"山形県","prefecture_kana":"ヤマガタケン","city":"最上郡最上町","city_kana":"モガミグンモガミマチ","town":"若宮","town_kana":"ワカミヤ","prefecture_code":6},"4600":{"zip_code":"9994600","prefecture":"山形県","prefecture_kana":"ヤマガタケン","city":"最上郡舟形町","city_kana":"モガミグンフナガタマチ","town":"","town_kana":"","prefecture_code":6},"4602":{"zip_code":"9994602","prefecture":"山形県","prefecture_kana":"ヤマガタケン","city":"最上郡舟形町","city_kana":"モガミグンフナガタマチ","town":"長者原","town_kana":"チョウジャハラ","prefecture_code":6},"4603":{"zip_code":"9994603","prefecture":"山形県","prefecture_kana":"ヤマガタケン","city":"最上郡舟形町","city_kana":"モガミグンフナガタマチ","town":"富田","town_kana":"トミタ","prefecture_code":6},"4605":{"zip_code":"9994605","prefecture":"山形県","prefecture_kana":"ヤマガタケン","city":"最上郡舟形町","city_kana":"モガミグンフナガタマチ","town":"長沢","town_kana":"ナガサワ","prefecture_code":6},"4601":{"zip_code":"9994601","prefecture":"山形県","prefecture_kana":"ヤマガタケン","city":"最上郡舟形町","city_kana":"モガミグンフナガタマチ","town":"舟形","town_kana":"フナガタ","prefecture_code":6},"4604":{"zip_code":"9994604","prefecture":"山形県","prefecture_kana":"ヤマガタケン","city":"最上郡舟形町","city_kana":"モガミグンフナガタマチ","town":"堀内","town_kana":"ホリウチ","prefecture_code":6},"5300":{"zip_code":"9995300","prefecture":"山形県","prefecture_kana":"ヤマガタケン","city":"最上郡真室川町","city_kana":"モガミグンマムロガワマチ","town":"","town_kana":"","prefecture_code":6},"5312":{"zip_code":"9995312","prefecture":"山形県","prefecture_kana":"ヤマガタケン","city":"最上郡真室川町","city_kana":"モガミグンマムロガワマチ","town":"新町","town_kana":"アラマチ","prefecture_code":6},"5313":{"zip_code":"9995313","prefecture":"山形県","prefecture_kana":"ヤマガタケン","city":"最上郡真室川町","city_kana":"モガミグンマムロガワマチ","town":"内町","town_kana":"ウチマチ","prefecture_code":6},"5521":{"zip_code":"9995521","prefecture":"山形県","prefecture_kana":"ヤマガタケン","city":"最上郡真室川町","city_kana":"モガミグンマムロガワマチ","town":"大沢","town_kana":"オオサワ","prefecture_code":6},"5603":{"zip_code":"9995603","prefecture":"山形県","prefecture_kana":"ヤマガタケン","city":"最上郡真室川町","city_kana":"モガミグンマムロガワマチ","town":"大滝","town_kana":"オオタキ","prefecture_code":6},"5604":{"zip_code":"9995604","prefecture":"山形県","prefecture_kana":"ヤマガタケン","city":"最上郡真室川町","city_kana":"モガミグンマムロガワマチ","town":"釜淵","town_kana":"カマブチ","prefecture_code":6},"5601":[{"zip_code":"9995601","prefecture":"山形県","prefecture_kana":"ヤマガタケン","city":"最上郡真室川町","city_kana":"モガミグンマムロガワマチ","town":"川ノ内","town_kana":"カワノウチ","prefecture_code":6},{"zip_code":"9995601","prefecture":"山形県","prefecture_kana":"ヤマガタケン","city":"最上郡真室川町","city_kana":"モガミグンマムロガワマチ","town":"川ノ内三滝","town_kana":"カワノウチサンタキ","prefecture_code":6},{"zip_code":"9995601","prefecture":"山形県","prefecture_kana":"ヤマガタケン","city":"最上郡真室川町","city_kana":"モガミグンマムロガワマチ","town":"川ノ内春木","town_kana":"カワノウチハルキ","prefecture_code":6}],"5301":{"zip_code":"9995301","prefecture":"山形県","prefecture_kana":"ヤマガタケン","city":"最上郡真室川町","city_kana":"モガミグンマムロガワマチ","town":"川ノ内","town_kana":"カワノウチ","prefecture_code":6},"5314":{"zip_code":"9995314","prefecture":"山形県","prefecture_kana":"ヤマガタケン","city":"最上郡真室川町","city_kana":"モガミグンマムロガワマチ","town":"木ノ下","town_kana":"キノシタ","prefecture_code":6},"5522":{"zip_code":"9995522","prefecture":"山形県","prefecture_kana":"ヤマガタケン","city":"最上郡真室川町","city_kana":"モガミグンマムロガワマチ","town":"差首鍋","town_kana":"サスナベ","prefecture_code":6},"5602":{"zip_code":"9995602","prefecture":"山形県","prefecture_kana":"ヤマガタケン","city":"最上郡真室川町","city_kana":"モガミグンマムロガワマチ","town":"及位","town_kana":"ノゾキ","prefecture_code":6},"5311":{"zip_code":"9995311","prefecture":"山形県","prefecture_kana":"ヤマガタケン","city":"最上郡真室川町","city_kana":"モガミグンマムロガワマチ","town":"平岡","town_kana":"ヒラオカ","prefecture_code":6},"5200":{"zip_code":"9995200","prefecture":"山形県","prefecture_kana":"ヤマガタケン","city":"最上郡鮭川村","city_kana":"モガミグンサケガワムラ","town":"","town_kana":"","prefecture_code":6},"5208":{"zip_code":"9995208","prefecture":"山形県","prefecture_kana":"ヤマガタケン","city":"最上郡鮭川村","city_kana":"モガミグンサケガワムラ","town":"石名坂","town_kana":"イシナザカ","prefecture_code":6},"5203":{"zip_code":"9995203","prefecture":"山形県","prefecture_kana":"ヤマガタケン","city":"最上郡鮭川村","city_kana":"モガミグンサケガワムラ","town":"川口","town_kana":"カワグチ","prefecture_code":6},"5201":{"zip_code":"9995201","prefecture":"山形県","prefecture_kana":"ヤマガタケン","city":"最上郡鮭川村","city_kana":"モガミグンサケガワムラ","town":"京塚","town_kana":"キョウヅカ","prefecture_code":6},"5202":{"zip_code":"9995202","prefecture":"山形県","prefecture_kana":"ヤマガタケン","city":"最上郡鮭川村","city_kana":"モガミグンサケガワムラ","town":"佐渡","town_kana":"サド","prefecture_code":6},"5205":{"zip_code":"9995205","prefecture":"山形県","prefecture_kana":"ヤマガタケン","city":"最上郡鮭川村","city_kana":"モガミグンサケガワムラ","town":"中渡","town_kana":"ナカワタリ","prefecture_code":6},"5207":{"zip_code":"9995207","prefecture":"山形県","prefecture_kana":"ヤマガタケン","city":"最上郡鮭川村","city_kana":"モガミグンサケガワムラ","town":"庭月","town_kana":"ニワヅキ","prefecture_code":6},"5206":{"zip_code":"9995206","prefecture":"山形県","prefecture_kana":"ヤマガタケン","city":"最上郡鮭川村","city_kana":"モガミグンサケガワムラ","town":"曲川","town_kana":"マガリガワ","prefecture_code":6},"5204":{"zip_code":"9995204","prefecture":"山形県","prefecture_kana":"ヤマガタケン","city":"最上郡鮭川村","city_kana":"モガミグンサケガワムラ","town":"向居","town_kana":"ムカイ","prefecture_code":6},"6400":{"zip_code":"9996400","prefecture":"山形県","prefecture_kana":"ヤマガタケン","city":"最上郡戸沢村","city_kana":"モガミグントザワムラ","town":"","town_kana":"","prefecture_code":6},"6312":{"zip_code":"9996312","prefecture":"山形県","prefecture_kana":"ヤマガタケン","city":"最上郡戸沢村","city_kana":"モガミグントザワムラ","town":"岩清水","town_kana":"イワシミズ","prefecture_code":6},"6402":{"zip_code":"9996402","prefecture":"山形県","prefecture_kana":"ヤマガタケン","city":"最上郡戸沢村","city_kana":"モガミグントザワムラ","town":"蔵岡","town_kana":"クラオカ","prefecture_code":6},"6315":{"zip_code":"9996315","prefecture":"山形県","prefecture_kana":"ヤマガタケン","city":"最上郡戸沢村","city_kana":"モガミグントザワムラ","town":"神田","town_kana":"ジンデン","prefecture_code":6},"6403":{"zip_code":"9996403","prefecture":"山形県","prefecture_kana":"ヤマガタケン","city":"最上郡戸沢村","city_kana":"モガミグントザワムラ","town":"角川","town_kana":"ツノカワ","prefecture_code":6},"6311":{"zip_code":"9996311","prefecture":"山形県","prefecture_kana":"ヤマガタケン","city":"最上郡戸沢村","city_kana":"モガミグントザワムラ","town":"津谷","town_kana":"ツヤ","prefecture_code":6},"6313":{"zip_code":"9996313","prefecture":"山形県","prefecture_kana":"ヤマガタケン","city":"最上郡戸沢村","city_kana":"モガミグントザワムラ","town":"名高","town_kana":"ナダカ","prefecture_code":6},"6801":{"zip_code":"9996801","prefecture":"山形県","prefecture_kana":"ヤマガタケン","city":"最上郡戸沢村","city_kana":"モガミグントザワムラ","town":"古口柏沢","town_kana":"フルクチカシザワ","prefecture_code":6},"6401":{"zip_code":"9996401","prefecture":"山形県","prefecture_kana":"ヤマガタケン","city":"最上郡戸沢村","city_kana":"モガミグントザワムラ","town":"古口","town_kana":"フルクチ","prefecture_code":6},"6314":{"zip_code":"9996314","prefecture":"山形県","prefecture_kana":"ヤマガタケン","city":"最上郡戸沢村","city_kana":"モガミグントザワムラ","town":"松坂","town_kana":"マツザカ","prefecture_code":6},"2171":{"zip_code":"9992171","prefecture":"山形県","prefecture_kana":"ヤマガタケン","city":"東置賜郡高畠町","city_kana":"ヒガシオキタマグンタカハタマチ","town":"石岡","town_kana":"イシオカ","prefecture_code":6},"2177":{"zip_code":"9992177","prefecture":"山形県","prefecture_kana":"ヤマガタケン","city":"東置賜郡高畠町","city_kana":"ヒガシオキタマグンタカハタマチ","town":"小其塚","town_kana":"オソノヅカ","prefecture_code":6},"2178":{"zip_code":"9992178","prefecture":"山形県","prefecture_kana":"ヤマガタケン","city":"東置賜郡高畠町","city_kana":"ヒガシオキタマグンタカハタマチ","town":"上平柳","town_kana":"カミヒラヤナギ","prefecture_code":6},"2179":{"zip_code":"9992179","prefecture":"山形県","prefecture_kana":"ヤマガタケン","city":"東置賜郡高畠町","city_kana":"ヒガシオキタマグンタカハタマチ","town":"蛇口","town_kana":"ジャグチ","prefecture_code":6},"2172":{"zip_code":"9992172","prefecture":"山形県","prefecture_kana":"ヤマガタケン","city":"東置賜郡高畠町","city_kana":"ヒガシオキタマグンタカハタマチ","town":"夏茂","town_kana":"ナツモ","prefecture_code":6},"2176":{"zip_code":"9992176","prefecture":"山形県","prefecture_kana":"ヤマガタケン","city":"東置賜郡高畠町","city_kana":"ヒガシオキタマグンタカハタマチ","town":"糠野目","town_kana":"ヌカノメ","prefecture_code":6},"2174":{"zip_code":"9992174","prefecture":"山形県","prefecture_kana":"ヤマガタケン","city":"東置賜郡高畠町","city_kana":"ヒガシオキタマグンタカハタマチ","town":"福沢","town_kana":"フクザワ","prefecture_code":6},"2175":{"zip_code":"9992175","prefecture":"山形県","prefecture_kana":"ヤマガタケン","city":"東置賜郡高畠町","city_kana":"ヒガシオキタマグンタカハタマチ","town":"福沢南","town_kana":"フクザワミナミ","prefecture_code":6},"2173":{"zip_code":"9992173","prefecture":"山形県","prefecture_kana":"ヤマガタケン","city":"東置賜郡高畠町","city_kana":"ヒガシオキタマグンタカハタマチ","town":"山崎","town_kana":"ヤマザキ","prefecture_code":6},"0100":{"zip_code":"9990100","prefecture":"山形県","prefecture_kana":"ヤマガタケン","city":"東置賜郡川西町","city_kana":"ヒガシオキタマグンカワニシマチ","town":"","town_kana":"","prefecture_code":6},"0151":{"zip_code":"9990151","prefecture":"山形県","prefecture_kana":"ヤマガタケン","city":"東置賜郡川西町","city_kana":"ヒガシオキタマグンカワニシマチ","town":"大舟","town_kana":"オオブネ","prefecture_code":6},"0213":{"zip_code":"9990213","prefecture":"山形県","prefecture_kana":"ヤマガタケン","city":"東置賜郡川西町","city_kana":"ヒガシオキタマグンカワニシマチ","town":"尾長島","town_kana":"オナガシマ","prefecture_code":6},"0152":{"zip_code":"9990152","prefecture":"山形県","prefecture_kana":"ヤマガタケン","city":"東置賜郡川西町","city_kana":"ヒガシオキタマグンカワニシマチ","town":"上奥田","town_kana":"カミオクダ","prefecture_code":6},"0121":{"zip_code":"9990121","prefecture":"山形県","prefecture_kana":"ヤマガタケン","city":"東置賜郡川西町","city_kana":"ヒガシオキタマグンカワニシマチ","town":"上小松","town_kana":"カミコマツ","prefecture_code":6},"0131":{"zip_code":"9990131","prefecture":"山形県","prefecture_kana":"ヤマガタケン","city":"東置賜郡川西町","city_kana":"ヒガシオキタマグンカワニシマチ","town":"黒川","town_kana":"クロカワ","prefecture_code":6},"0132":{"zip_code":"9990132","prefecture":"山形県","prefecture_kana":"ヤマガタケン","city":"東置賜郡川西町","city_kana":"ヒガシオキタマグンカワニシマチ","town":"高豆蒄","town_kana":"コウズク","prefecture_code":6},"0133":{"zip_code":"9990133","prefecture":"山形県","prefecture_kana":"ヤマガタケン","city":"東置賜郡川西町","city_kana":"ヒガシオキタマグンカワニシマチ","town":"小松","town_kana":"コマツ","prefecture_code":6},"0145":{"zip_code":"9990145","prefecture":"山形県","prefecture_kana":"ヤマガタケン","city":"東置賜郡川西町","city_kana":"ヒガシオキタマグンカワニシマチ","town":"下奥田","town_kana":"シモオクダ","prefecture_code":6},"0134":{"zip_code":"9990134","prefecture":"山形県","prefecture_kana":"ヤマガタケン","city":"東置賜郡川西町","city_kana":"ヒガシオキタマグンカワニシマチ","town":"下小松","town_kana":"シモコマツ","prefecture_code":6},"0212":{"zip_code":"9990212","prefecture":"山形県","prefecture_kana":"ヤマガタケン","city":"東置賜郡川西町","city_kana":"ヒガシオキタマグンカワニシマチ","town":"下平柳","town_kana":"シモヒラヤナギ","prefecture_code":6},"0211":{"zip_code":"9990211","prefecture":"山形県","prefecture_kana":"ヤマガタケン","city":"東置賜郡川西町","city_kana":"ヒガシオキタマグンカワニシマチ","town":"洲島","town_kana":"スノシマ","prefecture_code":6},"0141":{"zip_code":"9990141","prefecture":"山形県","prefecture_kana":"ヤマガタケン","city":"東置賜郡川西町","city_kana":"ヒガシオキタマグンカワニシマチ","town":"高山","town_kana":"タカヤマ","prefecture_code":6},"0361":{"zip_code":"9990361","prefecture":"山形県","prefecture_kana":"ヤマガタケン","city":"東置賜郡川西町","city_kana":"ヒガシオキタマグンカワニシマチ","town":"玉庭","town_kana":"タマニワ","prefecture_code":6},"0144":{"zip_code":"9990144","prefecture":"山形県","prefecture_kana":"ヤマガタケン","city":"東置賜郡川西町","city_kana":"ヒガシオキタマグンカワニシマチ","town":"時田","town_kana":"トキダ","prefecture_code":6},"0122":{"zip_code":"9990122","prefecture":"山形県","prefecture_kana":"ヤマガタケン","city":"東置賜郡川西町","city_kana":"ヒガシオキタマグンカワニシマチ","town":"中小松","town_kana":"ナカコマツ","prefecture_code":6},"0143":{"zip_code":"9990143","prefecture":"山形県","prefecture_kana":"ヤマガタケン","city":"東置賜郡川西町","city_kana":"ヒガシオキタマグンカワニシマチ","town":"莅","town_kana":"ノゾキ","prefecture_code":6},"0153":{"zip_code":"9990153","prefecture":"山形県","prefecture_kana":"ヤマガタケン","city":"東置賜郡川西町","city_kana":"ヒガシオキタマグンカワニシマチ","town":"朴沢","town_kana":"ホオノサワ","prefecture_code":6},"0142":{"zip_code":"9990142","prefecture":"山形県","prefecture_kana":"ヤマガタケン","city":"東置賜郡川西町","city_kana":"ヒガシオキタマグンカワニシマチ","town":"堀金","town_kana":"ホリガネ","prefecture_code":6},"0214":{"zip_code":"9990214","prefecture":"山形県","prefecture_kana":"ヤマガタケン","city":"東置賜郡川西町","city_kana":"ヒガシオキタマグンカワニシマチ","town":"吉田","town_kana":"ヨシタ","prefecture_code":6},"1300":{"zip_code":"9991300","prefecture":"山形県","prefecture_kana":"ヤマガタケン","city":"西置賜郡小国町","city_kana":"ニシオキタマグンオグニマチ","town":"","town_kana":"","prefecture_code":6},"1356":{"zip_code":"9991356","prefecture":"山形県","prefecture_kana":"ヤマガタケン","city":"西置賜郡小国町","city_kana":"ニシオキタマグンオグニマチ","town":"あけぼの","town_kana":"アケボノ","prefecture_code":6},"1323":{"zip_code":"9991323","prefecture":"山形県","prefecture_kana":"ヤマガタケン","city":"西置賜郡小国町","city_kana":"ニシオキタマグンオグニマチ","town":"朝篠","town_kana":"アザシノ","prefecture_code":6},"1507":{"zip_code":"9991507","prefecture":"山形県","prefecture_kana":"ヤマガタケン","city":"西置賜郡小国町","city_kana":"ニシオキタマグンオグニマチ","town":"足野水","town_kana":"アシノミズ","prefecture_code":6},"1504":{"zip_code":"9991504","prefecture":"山形県","prefecture_kana":"ヤマガタケン","city":"西置賜郡小国町","city_kana":"ニシオキタマグンオグニマチ","town":"足水中里","town_kana":"アシミズナカザト","prefecture_code":6},"1402":{"zip_code":"9991402","prefecture":"山形県","prefecture_kana":"ヤマガタケン","city":"西置賜郡小国町","city_kana":"ニシオキタマグンオグニマチ","town":"網代瀬","town_kana":"アジロセ","prefecture_code":6},"1434":{"zip_code":"9991434","prefecture":"山形県","prefecture_kana":"ヤマガタケン","city":"西置賜郡小国町","city_kana":"ニシオキタマグンオグニマチ","town":"荒沢","town_kana":"アラサワ","prefecture_code":6},"1213":{"zip_code":"9991213","prefecture":"山形県","prefecture_kana":"ヤマガタケン","city":"西置賜郡小国町","city_kana":"ニシオキタマグンオグニマチ","town":"新股","town_kana":"アラマタ","prefecture_code":6},"1322":{"zip_code":"9991322","prefecture":"山形県","prefecture_kana":"ヤマガタケン","city":"西置賜郡小国町","city_kana":"ニシオキタマグンオグニマチ","town":"伊佐領","town_kana":"イサリョウ","prefecture_code":6},"1451":{"zip_code":"9991451","prefecture":"山形県","prefecture_kana":"ヤマガタケン","city":"西置賜郡小国町","city_kana":"ニシオキタマグンオグニマチ","town":"石滝","town_kana":"イシダキ","prefecture_code":6},"1521":{"zip_code":"9991521","prefecture":"山形県","prefecture_kana":"ヤマガタケン","city":"西置賜郡小国町","city_kana":"ニシオキタマグンオグニマチ","town":"泉岡","town_kana":"イズミオカ","prefecture_code":6},"1506":{"zip_code":"9991506","prefecture":"山形県","prefecture_kana":"ヤマガタケン","city":"西置賜郡小国町","city_kana":"ニシオキタマグンオグニマチ","town":"市野沢","town_kana":"イチノサワ","prefecture_code":6},"1203":{"zip_code":"9991203","prefecture":"山形県","prefecture_kana":"ヤマガタケン","city":"西置賜郡小国町","city_kana":"ニシオキタマグンオグニマチ","town":"市野々","town_kana":"イチノノ","prefecture_code":6},"1413":{"zip_code":"9991413","prefecture":"山形県","prefecture_kana":"ヤマガタケン","city":"西置賜郡小国町","city_kana":"ニシオキタマグンオグニマチ","town":"今市","town_kana":"イマイチ","prefecture_code":6},"1435":{"zip_code":"9991435","prefecture":"山形県","prefecture_kana":"ヤマガタケン","city":"西置賜郡小国町","city_kana":"ニシオキタマグンオグニマチ","town":"入折戸","town_kana":"イリオリト","prefecture_code":6},"1352":{"zip_code":"9991352","prefecture":"山形県","prefecture_kana":"ヤマガタケン","city":"西置賜郡小国町","city_kana":"ニシオキタマグンオグニマチ","town":"岩井沢","town_kana":"イワイザワ","prefecture_code":6},"1421":{"zip_code":"9991421","prefecture":"山形県","prefecture_kana":"ヤマガタケン","city":"西置賜郡小国町","city_kana":"ニシオキタマグンオグニマチ","town":"越中里","town_kana":"エッチュウザト","prefecture_code":6},"1212":{"zip_code":"9991212","prefecture":"山形県","prefecture_kana":"ヤマガタケン","city":"西置賜郡小国町","city_kana":"ニシオキタマグンオグニマチ","town":"大石沢","town_kana":"オオイシザワ","prefecture_code":6},"1336":{"zip_code":"9991336","prefecture":"山形県","prefecture_kana":"ヤマガタケン","city":"西置賜郡小国町","city_kana":"ニシオキタマグンオグニマチ","town":"大滝","town_kana":"オオタキ","prefecture_code":6},"1342":{"zip_code":"9991342","prefecture":"山形県","prefecture_kana":"ヤマガタケン","city":"西置賜郡小国町","city_kana":"ニシオキタマグンオグニマチ","town":"大宮","town_kana":"オオミヤ","prefecture_code":6},"1363":{"zip_code":"9991363","prefecture":"山形県","prefecture_kana":"ヤマガタケン","city":"西置賜郡小国町","city_kana":"ニシオキタマグンオグニマチ","town":"小国小坂町","town_kana":"オグニコサカマチ","prefecture_code":6},"1351":{"zip_code":"9991351","prefecture":"山形県","prefecture_kana":"ヤマガタケン","city":"西置賜郡小国町","city_kana":"ニシオキタマグンオグニマチ","town":"小国町","town_kana":"オグニマチ","prefecture_code":6},"1312":{"zip_code":"9991312","prefecture":"山形県","prefecture_kana":"ヤマガタケン","city":"西置賜郡小国町","city_kana":"ニシオキタマグンオグニマチ","town":"小渡","town_kana":"オド","prefecture_code":6},"1441":{"zip_code":"9991441","prefecture":"山形県","prefecture_kana":"ヤマガタケン","city":"西置賜郡小国町","city_kana":"ニシオキタマグンオグニマチ","town":"驚","town_kana":"オドロク","prefecture_code":6},"1443":{"zip_code":"9991443","prefecture":"山形県","prefecture_kana":"ヤマガタケン","city":"西置賜郡小国町","city_kana":"ニシオキタマグンオグニマチ","town":"小股","town_kana":"オマタ","prefecture_code":6},"1436":{"zip_code":"9991436","prefecture":"山形県","prefecture_kana":"ヤマガタケン","city":"西置賜郡小国町","city_kana":"ニシオキタマグンオグニマチ","town":"折戸","town_kana":"オリト","prefecture_code":6},"1311":{"zip_code":"9991311","prefecture":"山形県","prefecture_kana":"ヤマガタケン","city":"西置賜郡小国町","city_kana":"ニシオキタマグンオグニマチ","town":"貝少","town_kana":"カイショウ","prefecture_code":6},"1512":{"zip_code":"9991512","prefecture":"山形県","prefecture_kana":"ヤマガタケン","city":"西置賜郡小国町","city_kana":"ニシオキタマグンオグニマチ","town":"片貝","town_kana":"カタカイ","prefecture_code":6},"1301":{"zip_code":"9991301","prefecture":"山形県","prefecture_kana":"ヤマガタケン","city":"西置賜郡小国町","city_kana":"ニシオキタマグンオグニマチ","town":"金目","town_kana":"カナメ","prefecture_code":6},"1211":{"zip_code":"9991211","prefecture":"山形県","prefecture_kana":"ヤマガタケン","city":"西置賜郡小国町","city_kana":"ニシオキタマグンオグニマチ","town":"叶水","town_kana":"カノミズ","prefecture_code":6},"1214":{"zip_code":"9991214","prefecture":"山形県","prefecture_kana":"ヤマガタケン","city":"西置賜郡小国町","city_kana":"ニシオキタマグンオグニマチ","town":"河原角","town_kana":"カワラヅノ","prefecture_code":6},"1345":{"zip_code":"9991345","prefecture":"山形県","prefecture_kana":"ヤマガタケン","city":"西置賜郡小国町","city_kana":"ニシオキタマグンオグニマチ","town":"北","town_kana":"キタ","prefecture_code":6},"1334":{"zip_code":"9991334","prefecture":"山形県","prefecture_kana":"ヤマガタケン","city":"西置賜郡小国町","city_kana":"ニシオキタマグンオグニマチ","town":"黒沢","town_kana":"クロサワ","prefecture_code":6},"1339":{"zip_code":"9991339","prefecture":"山形県","prefecture_kana":"ヤマガタケン","city":"西置賜郡小国町","city_kana":"ニシオキタマグンオグニマチ","town":"小倉","town_kana":"コグラ","prefecture_code":6},"1522":{"zip_code":"9991522","prefecture":"山形県","prefecture_kana":"ヤマガタケン","city":"西置賜郡小国町","city_kana":"ニシオキタマグンオグニマチ","town":"小玉川","town_kana":"コタマガワ","prefecture_code":6},"1452":{"zip_code":"9991452","prefecture":"山形県","prefecture_kana":"ヤマガタケン","city":"西置賜郡小国町","city_kana":"ニシオキタマグンオグニマチ","town":"五味沢","town_kana":"ゴミザワ","prefecture_code":6},"1354":{"zip_code":"9991354","prefecture":"山形県","prefecture_kana":"ヤマガタケン","city":"西置賜郡小国町","city_kana":"ニシオキタマグンオグニマチ","town":"幸町","town_kana":"サイワイチョウ","prefecture_code":6},"1361":{"zip_code":"9991361","prefecture":"山形県","prefecture_kana":"ヤマガタケン","city":"西置賜郡小国町","city_kana":"ニシオキタマグンオグニマチ","town":"栄町","town_kana":"サカエマチ","prefecture_code":6},"1202":{"zip_code":"9991202","prefecture":"山形県","prefecture_kana":"ヤマガタケン","city":"西置賜郡小国町","city_kana":"ニシオキタマグンオグニマチ","town":"白子沢","town_kana":"シラコザワ","prefecture_code":6},"1412":{"zip_code":"9991412","prefecture":"山形県","prefecture_kana":"ヤマガタケン","city":"西置賜郡小国町","city_kana":"ニシオキタマグンオグニマチ","town":"尻無沢","town_kana":"シリナシザワ","prefecture_code":6},"1337":{"zip_code":"9991337","prefecture":"山形県","prefecture_kana":"ヤマガタケン","city":"西置賜郡小国町","city_kana":"ニシオキタマグンオグニマチ","town":"新原","town_kana":"シンバラ","prefecture_code":6},"1314":{"zip_code":"9991314","prefecture":"山形県","prefecture_kana":"ヤマガタケン","city":"西置賜郡小国町","city_kana":"ニシオキタマグンオグニマチ","town":"新屋敷","town_kana":"シンヤシキ","prefecture_code":6},"1503":{"zip_code":"9991503","prefecture":"山形県","prefecture_kana":"ヤマガタケン","city":"西置賜郡小国町","city_kana":"ニシオキタマグンオグニマチ","town":"菅沼","town_kana":"スガヌマ","prefecture_code":6},"1338":{"zip_code":"9991338","prefecture":"山形県","prefecture_kana":"ヤマガタケン","city":"西置賜郡小国町","city_kana":"ニシオキタマグンオグニマチ","town":"杉沢","town_kana":"スギサワ","prefecture_code":6},"1333":{"zip_code":"9991333","prefecture":"山形県","prefecture_kana":"ヤマガタケン","city":"西置賜郡小国町","city_kana":"ニシオキタマグンオグニマチ","town":"芹出","town_kana":"セリデ","prefecture_code":6},"1442":{"zip_code":"9991442","prefecture":"山形県","prefecture_kana":"ヤマガタケン","city":"西置賜郡小国町","city_kana":"ニシオキタマグンオグニマチ","town":"太鼓沢","town_kana":"タイコザワ","prefecture_code":6},"1502":{"zip_code":"9991502","prefecture":"山形県","prefecture_kana":"ヤマガタケン","city":"西置賜郡小国町","city_kana":"ニシオキタマグンオグニマチ","town":"滝倉","town_kana":"タキグラ","prefecture_code":6},"1344":{"zip_code":"9991344","prefecture":"山形県","prefecture_kana":"ヤマガタケン","city":"西置賜郡小国町","city_kana":"ニシオキタマグンオグニマチ","town":"田沢頭","town_kana":"タザワガシラ","prefecture_code":6},"1335":{"zip_code":"9991335","prefecture":"山形県","prefecture_kana":"ヤマガタケン","city":"西置賜郡小国町","city_kana":"ニシオキタマグンオグニマチ","town":"種沢","town_kana":"タネザワ","prefecture_code":6},"1511":{"zip_code":"9991511","prefecture":"山形県","prefecture_kana":"ヤマガタケン","city":"西置賜郡小国町","city_kana":"ニシオキタマグンオグニマチ","town":"玉川","town_kana":"タマガワ","prefecture_code":6},"1514":{"zip_code":"9991514","prefecture":"山形県","prefecture_kana":"ヤマガタケン","city":"西置賜郡小国町","city_kana":"ニシオキタマグンオグニマチ","town":"玉川中里","town_kana":"タマガワナカザト","prefecture_code":6},"1501":{"zip_code":"9991501","prefecture":"山形県","prefecture_kana":"ヤマガタケン","city":"西置賜郡小国町","city_kana":"ニシオキタマグンオグニマチ","town":"樽口","town_kana":"タルグチ","prefecture_code":6},"1321":{"zip_code":"9991321","prefecture":"山形県","prefecture_kana":"ヤマガタケン","city":"西置賜郡小国町","city_kana":"ニシオキタマグンオグニマチ","town":"綱木箱口","town_kana":"ツナギハコノグチ","prefecture_code":6},"1414":{"zip_code":"9991414","prefecture":"山形県","prefecture_kana":"ヤマガタケン","city":"西置賜郡小国町","city_kana":"ニシオキタマグンオグニマチ","town":"栃倉","town_kana":"トチグラ","prefecture_code":6},"1432":{"zip_code":"9991432","prefecture":"山形県","prefecture_kana":"ヤマガタケン","city":"西置賜郡小国町","city_kana":"ニシオキタマグンオグニマチ","town":"中島","town_kana":"ナカジマ","prefecture_code":6},"1513":{"zip_code":"9991513","prefecture":"山形県","prefecture_kana":"ヤマガタケン","city":"西置賜郡小国町","city_kana":"ニシオキタマグンオグニマチ","town":"中田山崎","town_kana":"ナカダヤマザキ","prefecture_code":6},"1422":{"zip_code":"9991422","prefecture":"山形県","prefecture_kana":"ヤマガタケン","city":"西置賜郡小国町","city_kana":"ニシオキタマグンオグニマチ","town":"長沢","town_kana":"ナガサワ","prefecture_code":6},"1355":{"zip_code":"9991355","prefecture":"山形県","prefecture_kana":"ヤマガタケン","city":"西置賜郡小国町","city_kana":"ニシオキタマグンオグニマチ","town":"西","town_kana":"ニシ","prefecture_code":6},"1215":{"zip_code":"9991215","prefecture":"山形県","prefecture_kana":"ヤマガタケン","city":"西置賜郡小国町","city_kana":"ニシオキタマグンオグニマチ","town":"西滝","town_kana":"ニシダキ","prefecture_code":6},"1201":{"zip_code":"9991201","prefecture":"山形県","prefecture_kana":"ヤマガタケン","city":"西置賜郡小国町","city_kana":"ニシオキタマグンオグニマチ","town":"沼沢","town_kana":"ヌマザワ","prefecture_code":6},"1313":{"zip_code":"9991313","prefecture":"山形県","prefecture_kana":"ヤマガタケン","city":"西置賜郡小国町","city_kana":"ニシオキタマグンオグニマチ","town":"針生","town_kana":"ハリウ","prefecture_code":6},"1216":{"zip_code":"9991216","prefecture":"山形県","prefecture_kana":"ヤマガタケン","city":"西置賜郡小国町","city_kana":"ニシオキタマグンオグニマチ","town":"東滝","town_kana":"ヒガシダキ","prefecture_code":6},"1331":{"zip_code":"9991331","prefecture":"山形県","prefecture_kana":"ヤマガタケン","city":"西置賜郡小国町","city_kana":"ニシオキタマグンオグニマチ","town":"東原","town_kana":"ヒガシハラ","prefecture_code":6},"1433":{"zip_code":"9991433","prefecture":"山形県","prefecture_kana":"ヤマガタケン","city":"西置賜郡小国町","city_kana":"ニシオキタマグンオグニマチ","town":"樋ノ沢","town_kana":"ヒノサワ","prefecture_code":6},"1505":{"zip_code":"9991505","prefecture":"山形県","prefecture_kana":"ヤマガタケン","city":"西置賜郡小国町","city_kana":"ニシオキタマグンオグニマチ","town":"百子沢","town_kana":"ヒャッコザワ","prefecture_code":6},"1353":{"zip_code":"9991353","prefecture":"山形県","prefecture_kana":"ヤマガタケン","city":"西置賜郡小国町","city_kana":"ニシオキタマグンオグニマチ","town":"兵庫舘","town_kana":"ヒョウゴダテ","prefecture_code":6},"1401":{"zip_code":"9991401","prefecture":"山形県","prefecture_kana":"ヤマガタケン","city":"西置賜郡小国町","city_kana":"ニシオキタマグンオグニマチ","town":"舟渡","town_kana":"フナト","prefecture_code":6},"1302":{"zip_code":"9991302","prefecture":"山形県","prefecture_kana":"ヤマガタケン","city":"西置賜郡小国町","city_kana":"ニシオキタマグンオグニマチ","town":"古田","town_kana":"フルタ","prefecture_code":6},"1341":{"zip_code":"9991341","prefecture":"山形県","prefecture_kana":"ヤマガタケン","city":"西置賜郡小国町","city_kana":"ニシオキタマグンオグニマチ","town":"増岡","town_kana":"マスオカ","prefecture_code":6},"1332":{"zip_code":"9991332","prefecture":"山形県","prefecture_kana":"ヤマガタケン","city":"西置賜郡小国町","city_kana":"ニシオキタマグンオグニマチ","town":"町原","town_kana":"マチバラ","prefecture_code":6},"1324":{"zip_code":"9991324","prefecture":"山形県","prefecture_kana":"ヤマガタケン","city":"西置賜郡小国町","city_kana":"ニシオキタマグンオグニマチ","town":"松岡","town_kana":"マツオカ","prefecture_code":6},"1411":{"zip_code":"9991411","prefecture":"山形県","prefecture_kana":"ヤマガタケン","city":"西置賜郡小国町","city_kana":"ニシオキタマグンオグニマチ","town":"松崎","town_kana":"マツザキ","prefecture_code":6},"1362":{"zip_code":"9991362","prefecture":"山形県","prefecture_kana":"ヤマガタケン","city":"西置賜郡小国町","city_kana":"ニシオキタマグンオグニマチ","town":"緑町","town_kana":"ミドリチョウ","prefecture_code":6},"1343":{"zip_code":"9991343","prefecture":"山形県","prefecture_kana":"ヤマガタケン","city":"西置賜郡小国町","city_kana":"ニシオキタマグンオグニマチ","town":"宮の台","town_kana":"ミヤノダイ","prefecture_code":6},"1431":{"zip_code":"9991431","prefecture":"山形県","prefecture_kana":"ヤマガタケン","city":"西置賜郡小国町","city_kana":"ニシオキタマグンオグニマチ","town":"焼山","town_kana":"ヤケヤマ","prefecture_code":6},"1346":{"zip_code":"9991346","prefecture":"山形県","prefecture_kana":"ヤマガタケン","city":"西置賜郡小国町","city_kana":"ニシオキタマグンオグニマチ","town":"湯ノ花","town_kana":"ユノハナ","prefecture_code":6},"1303":{"zip_code":"9991303","prefecture":"山形県","prefecture_kana":"ヤマガタケン","city":"西置賜郡小国町","city_kana":"ニシオキタマグンオグニマチ","town":"若山","town_kana":"ワカヤマ","prefecture_code":6},"0600":{"zip_code":"9990600","prefecture":"山形県","prefecture_kana":"ヤマガタケン","city":"西置賜郡飯豊町","city_kana":"ニシオキタマグンイイデマチ","town":"","town_kana":"","prefecture_code":6},"0436":{"zip_code":"9990436","prefecture":"山形県","prefecture_kana":"ヤマガタケン","city":"西置賜郡飯豊町","city_kana":"ニシオキタマグンイイデマチ","town":"岩倉","town_kana":"イワクラ","prefecture_code":6},"0425":{"zip_code":"9990425","prefecture":"山形県","prefecture_kana":"ヤマガタケン","city":"西置賜郡飯豊町","city_kana":"ニシオキタマグンイイデマチ","town":"宇津沢","town_kana":"ウツサワ","prefecture_code":6},"0427":{"zip_code":"9990427","prefecture":"山形県","prefecture_kana":"ヤマガタケン","city":"西置賜郡飯豊町","city_kana":"ニシオキタマグンイイデマチ","town":"上原","town_kana":"ウワバラ","prefecture_code":6},"0426":{"zip_code":"9990426","prefecture":"山形県","prefecture_kana":"ヤマガタケン","city":"西置賜郡飯豊町","city_kana":"ニシオキタマグンイイデマチ","town":"遅谷","town_kana":"オソダニ","prefecture_code":6},"0424":{"zip_code":"9990424","prefecture":"山形県","prefecture_kana":"ヤマガタケン","city":"西置賜郡飯豊町","city_kana":"ニシオキタマグンイイデマチ","town":"数馬","town_kana":"カズマ","prefecture_code":6},"0433":{"zip_code":"9990433","prefecture":"山形県","prefecture_kana":"ヤマガタケン","city":"西置賜郡飯豊町","city_kana":"ニシオキタマグンイイデマチ","town":"上屋地","town_kana":"カミヤチ","prefecture_code":6},"0434":{"zip_code":"9990434","prefecture":"山形県","prefecture_kana":"ヤマガタケン","city":"西置賜郡飯豊町","city_kana":"ニシオキタマグンイイデマチ","town":"川内戸","town_kana":"カワナイド","prefecture_code":6},"0603":{"zip_code":"9990603","prefecture":"山形県","prefecture_kana":"ヤマガタケン","city":"西置賜郡飯豊町","city_kana":"ニシオキタマグンイイデマチ","town":"黒沢","town_kana":"クロサワ","prefecture_code":6},"1113":{"zip_code":"9991113","prefecture":"山形県","prefecture_kana":"ヤマガタケン","city":"西置賜郡飯豊町","city_kana":"ニシオキタマグンイイデマチ","town":"小白川","town_kana":"コジラカワ","prefecture_code":6},"0421":{"zip_code":"9990421","prefecture":"山形県","prefecture_kana":"ヤマガタケン","city":"西置賜郡飯豊町","city_kana":"ニシオキタマグンイイデマチ","town":"小屋","town_kana":"コヤ","prefecture_code":6},"0431":{"zip_code":"9990431","prefecture":"山形県","prefecture_kana":"ヤマガタケン","city":"西置賜郡飯豊町","city_kana":"ニシオキタマグンイイデマチ","town":"下屋地","town_kana":"シモヤチ","prefecture_code":6},"0432":{"zip_code":"9990432","prefecture":"山形県","prefecture_kana":"ヤマガタケン","city":"西置賜郡飯豊町","city_kana":"ニシオキタマグンイイデマチ","town":"白川","town_kana":"シラカワ","prefecture_code":6},"0423":{"zip_code":"9990423","prefecture":"山形県","prefecture_kana":"ヤマガタケン","city":"西置賜郡飯豊町","city_kana":"ニシオキタマグンイイデマチ","town":"須郷","town_kana":"スゴウ","prefecture_code":6},"0605":{"zip_code":"9990605","prefecture":"山形県","prefecture_kana":"ヤマガタケン","city":"西置賜郡飯豊町","city_kana":"ニシオキタマグンイイデマチ","town":"添川","town_kana":"ソエガワ","prefecture_code":6},"0435":{"zip_code":"9990435","prefecture":"山形県","prefecture_kana":"ヤマガタケン","city":"西置賜郡飯豊町","city_kana":"ニシオキタマグンイイデマチ","town":"高造路","town_kana":"タカゾウロ","prefecture_code":6},"1112":{"zip_code":"9991112","prefecture":"山形県","prefecture_kana":"ヤマガタケン","city":"西置賜郡飯豊町","city_kana":"ニシオキタマグンイイデマチ","town":"高峰","town_kana":"タカミネ","prefecture_code":6},"0604":{"zip_code":"9990604","prefecture":"山形県","prefecture_kana":"ヤマガタケン","city":"西置賜郡飯豊町","city_kana":"ニシオキタマグンイイデマチ","town":"椿","town_kana":"ツバキ","prefecture_code":6},"1111":{"zip_code":"9991111","prefecture":"山形県","prefecture_kana":"ヤマガタケン","city":"西置賜郡飯豊町","city_kana":"ニシオキタマグンイイデマチ","town":"手ノ子","town_kana":"テノコ","prefecture_code":6},"0601":{"zip_code":"9990601","prefecture":"山形県","prefecture_kana":"ヤマガタケン","city":"西置賜郡飯豊町","city_kana":"ニシオキタマグンイイデマチ","town":"中","town_kana":"ナカ","prefecture_code":6},"0602":{"zip_code":"9990602","prefecture":"山形県","prefecture_kana":"ヤマガタケン","city":"西置賜郡飯豊町","city_kana":"ニシオキタマグンイイデマチ","town":"萩生","town_kana":"ハギュウ","prefecture_code":6},"0422":{"zip_code":"9990422","prefecture":"山形県","prefecture_kana":"ヤマガタケン","city":"西置賜郡飯豊町","city_kana":"ニシオキタマグンイイデマチ","town":"広河原","town_kana":"ヒロカワラ","prefecture_code":6},"0606":{"zip_code":"9990606","prefecture":"山形県","prefecture_kana":"ヤマガタケン","city":"西置賜郡飯豊町","city_kana":"ニシオキタマグンイイデマチ","town":"松原","town_kana":"マツバラ","prefecture_code":6},"7700":{"zip_code":"9997700","prefecture":"山形県","prefecture_kana":"ヤマガタケン","city":"東田川郡庄内町","city_kana":"ヒガシタガワグンショウナイマチ","town":"","town_kana":"","prefecture_code":6},"7724":{"zip_code":"9997724","prefecture":"山形県","prefecture_kana":"ヤマガタケン","city":"東田川郡庄内町","city_kana":"ヒガシタガワグンショウナイマチ","town":"赤渕新田","town_kana":"アカブチシンデン","prefecture_code":6},"7701":{"zip_code":"9997701","prefecture":"山形県","prefecture_kana":"ヤマガタケン","city":"東田川郡庄内町","city_kana":"ヒガシタガワグンショウナイマチ","town":"跡","town_kana":"アト","prefecture_code":6},"7781":{"zip_code":"9997781","prefecture":"山形県","prefecture_kana":"ヤマガタケン","city":"東田川郡庄内町","city_kana":"ヒガシタガワグンショウナイマチ","town":"余目","town_kana":"アマルメ","prefecture_code":6},"7714":{"zip_code":"9997714","prefecture":"山形県","prefecture_kana":"ヤマガタケン","city":"東田川郡庄内町","city_kana":"ヒガシタガワグンショウナイマチ","town":"余目新田","town_kana":"アマルメシンデン","prefecture_code":6},"7743":{"zip_code":"9997743","prefecture":"山形県","prefecture_kana":"ヤマガタケン","city":"東田川郡庄内町","city_kana":"ヒガシタガワグンショウナイマチ","town":"新田目","town_kana":"アラタメ","prefecture_code":6},"7755":{"zip_code":"9997755","prefecture":"山形県","prefecture_kana":"ヤマガタケン","city":"東田川郡庄内町","city_kana":"ヒガシタガワグンショウナイマチ","town":"生三","town_kana":"イクサン","prefecture_code":6},"7702":{"zip_code":"9997702","prefecture":"山形県","prefecture_kana":"ヤマガタケン","city":"東田川郡庄内町","city_kana":"ヒガシタガワグンショウナイマチ","town":"榎木","town_kana":"エノキ","prefecture_code":6},"7747":{"zip_code":"9997747","prefecture":"山形県","prefecture_kana":"ヤマガタケン","city":"東田川郡庄内町","city_kana":"ヒガシタガワグンショウナイマチ","town":"大野","town_kana":"オオノ","prefecture_code":6},"7737":{"zip_code":"9997737","prefecture":"山形県","prefecture_kana":"ヤマガタケン","city":"東田川郡庄内町","city_kana":"ヒガシタガワグンショウナイマチ","town":"大真木","town_kana":"オオマギ","prefecture_code":6},"7752":{"zip_code":"9997752","prefecture":"山形県","prefecture_kana":"ヤマガタケン","city":"東田川郡庄内町","city_kana":"ヒガシタガワグンショウナイマチ","town":"近江新田","town_kana":"オオミシンデン","prefecture_code":6},"7763":{"zip_code":"9997763","prefecture":"山形県","prefecture_kana":"ヤマガタケン","city":"東田川郡庄内町","city_kana":"ヒガシタガワグンショウナイマチ","town":"落合","town_kana":"オチアイ","prefecture_code":6},"7762":{"zip_code":"9997762","prefecture":"山形県","prefecture_kana":"ヤマガタケン","city":"東田川郡庄内町","city_kana":"ヒガシタガワグンショウナイマチ","town":"家根合","town_kana":"カネアイ","prefecture_code":6},"6601":{"zip_code":"9996601","prefecture":"山形県","prefecture_kana":"ヤマガタケン","city":"東田川郡庄内町","city_kana":"ヒガシタガワグンショウナイマチ","town":"狩川","town_kana":"カリカワ","prefecture_code":6},"6607":{"zip_code":"9996607","prefecture":"山形県","prefecture_kana":"ヤマガタケン","city":"東田川郡庄内町","city_kana":"ヒガシタガワグンショウナイマチ","town":"肝煎","town_kana":"キモイリ","prefecture_code":6},"7766":{"zip_code":"9997766","prefecture":"山形県","prefecture_kana":"ヤマガタケン","city":"東田川郡庄内町","city_kana":"ヒガシタガワグンショウナイマチ","town":"久田","town_kana":"キュウデン","prefecture_code":6},"7742":{"zip_code":"9997742","prefecture":"山形県","prefecture_kana":"ヤマガタケン","city":"東田川郡庄内町","city_kana":"ヒガシタガワグンショウナイマチ","town":"京島","town_kana":"キョウジマ","prefecture_code":6},"6606":{"zip_code":"9996606","prefecture":"山形県","prefecture_kana":"ヤマガタケン","city":"東田川郡庄内町","city_kana":"ヒガシタガワグンショウナイマチ","town":"清川","town_kana":"キヨカワ","prefecture_code":6},"6605":{"zip_code":"9996605","prefecture":"山形県","prefecture_kana":"ヤマガタケン","city":"東田川郡庄内町","city_kana":"ヒガシタガワグンショウナイマチ","town":"桑田","town_kana":"クワダ","prefecture_code":6},"7722":{"zip_code":"9997722","prefecture":"山形県","prefecture_kana":"ヤマガタケン","city":"東田川郡庄内町","city_kana":"ヒガシタガワグンショウナイマチ","town":"小出新田","town_kana":"コイデシンデン","prefecture_code":6},"7745":{"zip_code":"9997745","prefecture":"山形県","prefecture_kana":"ヤマガタケン","city":"東田川郡庄内町","city_kana":"ヒガシタガワグンショウナイマチ","town":"境興屋","town_kana":"サカイコウヤ","prefecture_code":6},"7725":{"zip_code":"9997725","prefecture":"山形県","prefecture_kana":"ヤマガタケン","city":"東田川郡庄内町","city_kana":"ヒガシタガワグンショウナイマチ","town":"沢新田","town_kana":"サワシンデン","prefecture_code":6},"6608":{"zip_code":"9996608","prefecture":"山形県","prefecture_kana":"ヤマガタケン","city":"東田川郡庄内町","city_kana":"ヒガシタガワグンショウナイマチ","town":"科沢","town_kana":"シナザワ","prefecture_code":6},"7754":{"zip_code":"9997754","prefecture":"山形県","prefecture_kana":"ヤマガタケン","city":"東田川郡庄内町","city_kana":"ヒガシタガワグンショウナイマチ","town":"島田","town_kana":"シマダ","prefecture_code":6},"7713":{"zip_code":"9997713","prefecture":"山形県","prefecture_kana":"ヤマガタケン","city":"東田川郡庄内町","city_kana":"ヒガシタガワグンショウナイマチ","town":"常万","town_kana":"ジョウマン","prefecture_code":6},"7782":{"zip_code":"9997782","prefecture":"山形県","prefecture_kana":"ヤマガタケン","city":"東田川郡庄内町","city_kana":"ヒガシタガワグンショウナイマチ","town":"松陽","town_kana":"ショウヨウ","prefecture_code":6},"7765":{"zip_code":"9997765","prefecture":"山形県","prefecture_kana":"ヤマガタケン","city":"東田川郡庄内町","city_kana":"ヒガシタガワグンショウナイマチ","town":"杉浦","town_kana":"スギウラ","prefecture_code":6},"6604":{"zip_code":"9996604","prefecture":"山形県","prefecture_kana":"ヤマガタケン","city":"東田川郡庄内町","city_kana":"ヒガシタガワグンショウナイマチ","town":"千本杉","town_kana":"センボンスギ","prefecture_code":6},"6603":{"zip_code":"9996603","prefecture":"山形県","prefecture_kana":"ヤマガタケン","city":"東田川郡庄内町","city_kana":"ヒガシタガワグンショウナイマチ","town":"添津","town_kana":"ソエヅ","prefecture_code":6},"7741":{"zip_code":"9997741","prefecture":"山形県","prefecture_kana":"ヤマガタケン","city":"東田川郡庄内町","city_kana":"ヒガシタガワグンショウナイマチ","town":"返吉","town_kana":"ソリヨシ","prefecture_code":6},"7761":{"zip_code":"9997761","prefecture":"山形県","prefecture_kana":"ヤマガタケン","city":"東田川郡庄内町","city_kana":"ヒガシタガワグンショウナイマチ","town":"高田麦","town_kana":"タカダムギ","prefecture_code":6},"6609":{"zip_code":"9996609","prefecture":"山形県","prefecture_kana":"ヤマガタケン","city":"東田川郡庄内町","city_kana":"ヒガシタガワグンショウナイマチ","town":"立谷沢","town_kana":"タチヤザワ","prefecture_code":6},"7748":{"zip_code":"9997748","prefecture":"山形県","prefecture_kana":"ヤマガタケン","city":"東田川郡庄内町","city_kana":"ヒガシタガワグンショウナイマチ","town":"田谷","town_kana":"タヤ","prefecture_code":6},"7704":{"zip_code":"9997704","prefecture":"山形県","prefecture_kana":"ヤマガタケン","city":"東田川郡庄内町","city_kana":"ヒガシタガワグンショウナイマチ","town":"千河原","town_kana":"チガワラ","prefecture_code":6},"7721":{"zip_code":"9997721","prefecture":"山形県","prefecture_kana":"ヤマガタケン","city":"東田川郡庄内町","city_kana":"ヒガシタガワグンショウナイマチ","town":"堤新田","town_kana":"ツツミシンデン","prefecture_code":6},"7707":{"zip_code":"9997707","prefecture":"山形県","prefecture_kana":"ヤマガタケン","city":"東田川郡庄内町","city_kana":"ヒガシタガワグンショウナイマチ","town":"廿六木","town_kana":"トドロキ","prefecture_code":6},"7731":{"zip_code":"9997731","prefecture":"山形県","prefecture_kana":"ヤマガタケン","city":"東田川郡庄内町","city_kana":"ヒガシタガワグンショウナイマチ","town":"主殿新田","town_kana":"トノモシンデン","prefecture_code":6},"7734":{"zip_code":"9997734","prefecture":"山形県","prefecture_kana":"ヤマガタケン","city":"東田川郡庄内町","city_kana":"ヒガシタガワグンショウナイマチ","town":"中野","town_kana":"ナカノ","prefecture_code":6},"7751":{"zip_code":"9997751","prefecture":"山形県","prefecture_kana":"ヤマガタケン","city":"東田川郡庄内町","city_kana":"ヒガシタガワグンショウナイマチ","town":"西小野方","town_kana":"ニシオノカタ","prefecture_code":6},"7768":{"zip_code":"9997768","prefecture":"山形県","prefecture_kana":"ヤマガタケン","city":"東田川郡庄内町","city_kana":"ヒガシタガワグンショウナイマチ","town":"西野","town_kana":"ニシノ","prefecture_code":6},"7746":{"zip_code":"9997746","prefecture":"山形県","prefecture_kana":"ヤマガタケン","city":"東田川郡庄内町","city_kana":"ヒガシタガワグンショウナイマチ","town":"西袋","town_kana":"ニシブクロ","prefecture_code":6},"7757":{"zip_code":"9997757","prefecture":"山形県","prefecture_kana":"ヤマガタケン","city":"東田川郡庄内町","city_kana":"ヒガシタガワグンショウナイマチ","town":"払田","town_kana":"ハライダ","prefecture_code":6},"7706":{"zip_code":"9997706","prefecture":"山形県","prefecture_kana":"ヤマガタケン","city":"東田川郡庄内町","city_kana":"ヒガシタガワグンショウナイマチ","town":"提興屋","town_kana":"ヒサゲコウヤ","prefecture_code":6},"7703":{"zip_code":"9997703","prefecture":"山形県","prefecture_kana":"ヤマガタケン","city":"東田川郡庄内町","city_kana":"ヒガシタガワグンショウナイマチ","town":"平岡","town_kana":"ヒラオカ","prefecture_code":6},"7767":{"zip_code":"9997767","prefecture":"山形県","prefecture_kana":"ヤマガタケン","city":"東田川郡庄内町","city_kana":"ヒガシタガワグンショウナイマチ","town":"深川","town_kana":"フカガワ","prefecture_code":6},"7736":{"zip_code":"9997736","prefecture":"山形県","prefecture_kana":"ヤマガタケン","city":"東田川郡庄内町","city_kana":"ヒガシタガワグンショウナイマチ","town":"福島","town_kana":"フクシマ","prefecture_code":6},"7711":{"zip_code":"9997711","prefecture":"山形県","prefecture_kana":"ヤマガタケン","city":"東田川郡庄内町","city_kana":"ヒガシタガワグンショウナイマチ","town":"福原","town_kana":"フクワラ","prefecture_code":6},"7726":{"zip_code":"9997726","prefecture":"山形県","prefecture_kana":"ヤマガタケン","city":"東田川郡庄内町","city_kana":"ヒガシタガワグンショウナイマチ","town":"古関","town_kana":"フルセキ","prefecture_code":6},"7712":{"zip_code":"9997712","prefecture":"山形県","prefecture_kana":"ヤマガタケン","city":"東田川郡庄内町","city_kana":"ヒガシタガワグンショウナイマチ","town":"堀野","town_kana":"ホリノ","prefecture_code":6},"7735":{"zip_code":"9997735","prefecture":"山形県","prefecture_kana":"ヤマガタケン","city":"東田川郡庄内町","city_kana":"ヒガシタガワグンショウナイマチ","town":"前田野目","town_kana":"マエタノメ","prefecture_code":6},"7705":{"zip_code":"9997705","prefecture":"山形県","prefecture_kana":"ヤマガタケン","city":"東田川郡庄内町","city_kana":"ヒガシタガワグンショウナイマチ","town":"槇島","town_kana":"マギシマ","prefecture_code":6},"7715":{"zip_code":"9997715","prefecture":"山形県","prefecture_kana":"ヤマガタケン","city":"東田川郡庄内町","city_kana":"ヒガシタガワグンショウナイマチ","town":"廻館","town_kana":"マワタテ","prefecture_code":6},"6602":{"zip_code":"9996602","prefecture":"山形県","prefecture_kana":"ヤマガタケン","city":"東田川郡庄内町","city_kana":"ヒガシタガワグンショウナイマチ","town":"三ケ沢","town_kana":"ミカザワ","prefecture_code":6},"7733":{"zip_code":"9997733","prefecture":"山形県","prefecture_kana":"ヤマガタケン","city":"東田川郡庄内町","city_kana":"ヒガシタガワグンショウナイマチ","town":"南興屋","town_kana":"ミナミコウヤ","prefecture_code":6},"7727":{"zip_code":"9997727","prefecture":"山形県","prefecture_kana":"ヤマガタケン","city":"東田川郡庄内町","city_kana":"ヒガシタガワグンショウナイマチ","town":"南野","town_kana":"ミナミノ","prefecture_code":6},"7732":{"zip_code":"9997732","prefecture":"山形県","prefecture_kana":"ヤマガタケン","city":"東田川郡庄内町","city_kana":"ヒガシタガワグンショウナイマチ","town":"南野新田","town_kana":"ミナミノシンデン","prefecture_code":6},"7764":{"zip_code":"9997764","prefecture":"山形県","prefecture_kana":"ヤマガタケン","city":"東田川郡庄内町","city_kana":"ヒガシタガワグンショウナイマチ","town":"宮曽根","town_kana":"ミヤソネ","prefecture_code":6},"7756":{"zip_code":"9997756","prefecture":"山形県","prefecture_kana":"ヤマガタケン","city":"東田川郡庄内町","city_kana":"ヒガシタガワグンショウナイマチ","town":"茗荷瀬","town_kana":"ミョウガセ","prefecture_code":6},"7744":{"zip_code":"9997744","prefecture":"山形県","prefecture_kana":"ヤマガタケン","city":"東田川郡庄内町","city_kana":"ヒガシタガワグンショウナイマチ","town":"本小野方","town_kana":"モトオノカタ","prefecture_code":6},"7753":{"zip_code":"9997753","prefecture":"山形県","prefecture_kana":"ヤマガタケン","city":"東田川郡庄内町","city_kana":"ヒガシタガワグンショウナイマチ","town":"吉岡","town_kana":"ヨシオカ","prefecture_code":6},"7749":{"zip_code":"9997749","prefecture":"山形県","prefecture_kana":"ヤマガタケン","city":"東田川郡庄内町","city_kana":"ヒガシタガワグンショウナイマチ","town":"吉方","town_kana":"ヨシカタ","prefecture_code":6},"7723":{"zip_code":"9997723","prefecture":"山形県","prefecture_kana":"ヤマガタケン","city":"東田川郡庄内町","city_kana":"ヒガシタガワグンショウナイマチ","town":"連枝","town_kana":"レンシ","prefecture_code":6},"8300":{"zip_code":"9998300","prefecture":"山形県","prefecture_kana":"ヤマガタケン","city":"飽海郡遊佐町","city_kana":"アクミグンユザマチ","town":"","town_kana":"","prefecture_code":6},"8436":{"zip_code":"9998436","prefecture":"山形県","prefecture_kana":"ヤマガタケン","city":"飽海郡遊佐町","city_kana":"アクミグンユザマチ","town":"岩川","town_kana":"イワガワ","prefecture_code":6},"8433":{"zip_code":"9998433","prefecture":"山形県","prefecture_kana":"ヤマガタケン","city":"飽海郡遊佐町","city_kana":"アクミグンユザマチ","town":"江地","town_kana":"エジ","prefecture_code":6},"8315":{"zip_code":"9998315","prefecture":"山形県","prefecture_kana":"ヤマガタケン","city":"飽海郡遊佐町","city_kana":"アクミグンユザマチ","town":"大蕨岡","town_kana":"オオワラビオカ","prefecture_code":6},"8311":{"zip_code":"9998311","prefecture":"山形県","prefecture_kana":"ヤマガタケン","city":"飽海郡遊佐町","city_kana":"アクミグンユザマチ","town":"小原田","town_kana":"オハラダ","prefecture_code":6},"8312":{"zip_code":"9998312","prefecture":"山形県","prefecture_kana":"ヤマガタケン","city":"飽海郡遊佐町","city_kana":"アクミグンユザマチ","town":"鹿野沢","town_kana":"カノサワ","prefecture_code":6},"8314":{"zip_code":"9998314","prefecture":"山形県","prefecture_kana":"ヤマガタケン","city":"飽海郡遊佐町","city_kana":"アクミグンユザマチ","town":"上蕨岡","town_kana":"カミワラビオカ","prefecture_code":6},"8522":{"zip_code":"9998522","prefecture":"山形県","prefecture_kana":"ヤマガタケン","city":"飽海郡遊佐町","city_kana":"アクミグンユザマチ","town":"北目","town_kana":"キタメ","prefecture_code":6},"8317":{"zip_code":"9998317","prefecture":"山形県","prefecture_kana":"ヤマガタケン","city":"飽海郡遊佐町","city_kana":"アクミグンユザマチ","town":"小松","town_kana":"コマツ","prefecture_code":6},"8435":{"zip_code":"9998435","prefecture":"山形県","prefecture_kana":"ヤマガタケン","city":"飽海郡遊佐町","city_kana":"アクミグンユザマチ","town":"庄泉","town_kana":"ショウイズミ","prefecture_code":6},"8304":{"zip_code":"9998304","prefecture":"山形県","prefecture_kana":"ヤマガタケン","city":"飽海郡遊佐町","city_kana":"アクミグンユザマチ","town":"白井新田","town_kana":"シライシンデン","prefecture_code":6},"8431":{"zip_code":"9998431","prefecture":"山形県","prefecture_kana":"ヤマガタケン","city":"飽海郡遊佐町","city_kana":"アクミグンユザマチ","town":"菅里十里塚","town_kana":"スガサトジュウリヅカ","prefecture_code":6},"8531":{"zip_code":"9998531","prefecture":"山形県","prefecture_kana":"ヤマガタケン","city":"飽海郡遊佐町","city_kana":"アクミグンユザマチ","town":"菅里","town_kana":"スガサト","prefecture_code":6},"8313":{"zip_code":"9998313","prefecture":"山形県","prefecture_kana":"ヤマガタケン","city":"飽海郡遊佐町","city_kana":"アクミグンユザマチ","town":"杉沢","town_kana":"スギサワ","prefecture_code":6},"8525":{"zip_code":"9998525","prefecture":"山形県","prefecture_kana":"ヤマガタケン","city":"飽海郡遊佐町","city_kana":"アクミグンユザマチ","town":"直世","town_kana":"スグセ","prefecture_code":6},"8523":{"zip_code":"9998523","prefecture":"山形県","prefecture_kana":"ヤマガタケン","city":"飽海郡遊佐町","city_kana":"アクミグンユザマチ","town":"当山","town_kana":"トウヤマ","prefecture_code":6},"8524":{"zip_code":"9998524","prefecture":"山形県","prefecture_kana":"ヤマガタケン","city":"飽海郡遊佐町","city_kana":"アクミグンユザマチ","town":"富岡","town_kana":"トミオカ","prefecture_code":6},"8316":{"zip_code":"9998316","prefecture":"山形県","prefecture_kana":"ヤマガタケン","city":"飽海郡遊佐町","city_kana":"アクミグンユザマチ","town":"豊岡","town_kana":"トヨオカ","prefecture_code":6},"8303":{"zip_code":"9998303","prefecture":"山形県","prefecture_kana":"ヤマガタケン","city":"飽海郡遊佐町","city_kana":"アクミグンユザマチ","town":"野沢","town_kana":"ノザワ","prefecture_code":6},"8438":{"zip_code":"9998438","prefecture":"山形県","prefecture_kana":"ヤマガタケン","city":"飽海郡遊佐町","city_kana":"アクミグンユザマチ","town":"比子","town_kana":"ヒコ","prefecture_code":6},"8521":{"zip_code":"9998521","prefecture":"山形県","prefecture_kana":"ヤマガタケン","city":"飽海郡遊佐町","city_kana":"アクミグンユザマチ","town":"吹浦","town_kana":"フクラ","prefecture_code":6},"8437":{"zip_code":"9998437","prefecture":"山形県","prefecture_kana":"ヤマガタケン","city":"飽海郡遊佐町","city_kana":"アクミグンユザマチ","town":"藤崎","town_kana":"フジサキ","prefecture_code":6},"8434":{"zip_code":"9998434","prefecture":"山形県","prefecture_kana":"ヤマガタケン","city":"飽海郡遊佐町","city_kana":"アクミグンユザマチ","town":"増穂","town_kana":"マスホ","prefecture_code":6},"8432":{"zip_code":"9998432","prefecture":"山形県","prefecture_kana":"ヤマガタケン","city":"飽海郡遊佐町","city_kana":"アクミグンユザマチ","town":"宮田","town_kana":"ミヤダ","prefecture_code":6},"8301":{"zip_code":"9998301","prefecture":"山形県","prefecture_kana":"ヤマガタケン","city":"飽海郡遊佐町","city_kana":"アクミグンユザマチ","town":"遊佐","town_kana":"ユザ","prefecture_code":6},"8302":{"zip_code":"9998302","prefecture":"山形県","prefecture_kana":"ヤマガタケン","city":"飽海郡遊佐町","city_kana":"アクミグンユザマチ","town":"吉出","town_kana":"ヨシデ","prefecture_code":6}}